{"type":"FeatureCollection","name":"distrito","features":[{"type":"Feature","properties":{"clave":"15-5","nombre":"Nanawa"},"geometry":{"type":"Polygon","coordinates":[[[-57.669444,-25.328497],[-57.66797,-25.332238],[-57.667242,-25.33575],[-57.667903,-25.342768],[-57.667835,-25.345315],[-57.66661,-25.349059],[-57.663467,-25.353841],[-57.665321,-25.354271],[-57.670339,-25.353278],[-57.671262,-25.352691],[-57.671756,-25.351814],[-57.671569,-25.350294],[-57.670401,-25.34823],[-57.671328,-25.347196],[-57.674417,-25.34601],[-57.678501,-25.346118],[-57.678287,-25.345135],[-57.676592,-25.343834],[-57.676781,-25.343169],[-57.677662,-25.342715],[-57.68054,-25.342642],[-57.681874,-25.342243],[-57.681825,-25.341368],[-57.678936,-25.340704],[-57.678267,-25.339893],[-57.678935,-25.339471],[-57.680651,-25.339791],[-57.681353,-25.339628],[-57.680804,-25.337283],[-57.681572,-25.334248],[-57.682642,-25.332794],[-57.684717,-25.331277],[-57.686034,-25.329183],[-57.687042,-25.328894],[-57.687551,-25.329407],[-57.687347,-25.330415],[-57.686484,-25.33196],[-57.686646,-25.332698],[-57.687282,-25.333319],[-57.687746,-25.333437],[-57.68863,-25.333119],[-57.689959,-25.331835],[-57.692468,-25.328047],[-57.692115,-25.325428],[-57.692713,-25.324049],[-57.692637,-25.322685],[-57.693377,-25.322539],[-57.694939,-25.323312],[-57.696654,-25.322054],[-57.697455,-25.321828],[-57.700016,-25.321967],[-57.70151,-25.322658],[-57.702607,-25.322436],[-57.702923,-25.322081],[-57.702609,-25.320773],[-57.699805,-25.318648],[-57.698829,-25.317408],[-57.698849,-25.316181],[-57.699367,-25.315322],[-57.70185,-25.313779],[-57.701327,-25.313186],[-57.699915,-25.313312],[-57.699415,-25.313046],[-57.698839,-25.310786],[-57.697964,-25.309439],[-57.697887,-25.308395],[-57.699141,-25.306234],[-57.699455,-25.304287],[-57.70167,-25.303853],[-57.704051,-25.301195],[-57.70681,-25.300739],[-57.707173,-25.300179],[-57.706055,-25.298339],[-57.705809,-25.296324],[-57.705204,-25.295631],[-57.700916,-25.295432],[-57.699403,-25.294942],[-57.698532,-25.294296],[-57.696754,-25.291042],[-57.694825,-25.288424],[-57.694358,-25.286081],[-57.697146,-25.283514],[-57.69843,-25.283622],[-57.700767,-25.284722],[-57.702041,-25.285556],[-57.70307,-25.286922],[-57.703412,-25.290751],[-57.704474,-25.291645],[-57.70522,-25.291653],[-57.705482,-25.290783],[-57.704751,-25.287162],[-57.702793,-25.285071],[-57.702886,-25.283251],[-57.703243,-25.282355],[-57.703816,-25.282264],[-57.704579,-25.282596],[-57.706665,-25.284912],[-57.708792,-25.285992],[-57.710566,-25.286048],[-57.712265,-25.285389],[-57.713632,-25.283631],[-57.713612,-25.282972],[-57.713311,-25.28273],[-57.710823,-25.282166],[-57.710395,-25.281822],[-57.710528,-25.280511],[-57.711643,-25.278397],[-57.711604,-25.273076],[-57.712129,-25.272928],[-57.713017,-25.274332],[-57.715151,-25.273564],[-57.715782,-25.273653],[-57.717394,-25.275864],[-57.718998,-25.277221],[-57.721396,-25.277932],[-57.7225,-25.277466],[-57.722765,-25.276043],[-57.721064,-25.275146],[-57.720263,-25.27435],[-57.718644,-25.273668],[-57.718491,-25.272917],[-57.719013,-25.272629],[-57.720281,-25.273236],[-57.722373,-25.273652],[-57.722958,-25.273381],[-57.723368,-25.272354],[-57.722543,-25.271408],[-57.719456,-25.269182],[-57.717865,-25.266663],[-57.715635,-25.26902],[-57.711622,-25.269903],[-57.70701,-25.269616],[-57.706079,-25.2698],[-57.705472,-25.270325],[-57.705318,-25.271117],[-57.705906,-25.272932],[-57.704346,-25.275412],[-57.701867,-25.275923],[-57.701304,-25.276358],[-57.699744,-25.279477],[-57.698926,-25.280346],[-57.694811,-25.282877],[-57.692126,-25.283593],[-57.689979,-25.284948],[-57.688982,-25.284539],[-57.688215,-25.283005],[-57.68617,-25.281113],[-57.683843,-25.279528],[-57.680009,-25.279017],[-57.679499,-25.277976],[-57.680204,-25.276596],[-57.680146,-25.275851],[-57.678608,-25.274709],[-57.675509,-25.274577],[-57.673748,-25.274974],[-57.672293,-25.276001],[-57.66868,-25.280049],[-57.671568,-25.284897],[-57.67283,-25.287615],[-57.673222,-25.290896],[-57.673058,-25.306294],[-57.673833,-25.31127],[-57.673858,-25.315799],[-57.673097,-25.319992],[-57.671787,-25.324184],[-57.669444,-25.328497]]]}}]}
