{"type":"FeatureCollection","name":"distrito","features":[{"type":"Feature","properties":{"clave":"7-47","nombre":"San Juan del Paraná"},"geometry":{"type":"Polygon","coordinates":[[[-55.959543,-27.348305],[-55.985783,-27.342491],[-56.003874,-27.334254],[-56.024394,-27.3226],[-56.046522,-27.306623],[-56.046397,-27.291692],[-56.043529,-27.290819],[-56.042315,-27.288263],[-56.038206,-27.286716],[-56.035428,-27.28616],[-56.032896,-27.286986],[-56.030585,-27.284239],[-56.030746,-27.283442],[-56.030261,-27.281981],[-56.031488,-27.281053],[-56.031855,-27.28038],[-56.033007,-27.280128],[-56.033221,-27.2793],[-56.032383,-27.278804],[-56.032841,-27.275569],[-56.031817,-27.274779],[-56.031532,-27.273979],[-56.032214,-27.272557],[-56.031719,-27.272231],[-56.031084,-27.270292],[-56.03026,-27.269337],[-56.030632,-27.268748],[-56.030265,-27.267748],[-56.0313,-27.267538],[-56.030622,-27.266757],[-56.031097,-27.266165],[-56.0302,-27.265635],[-56.029609,-27.262534],[-56.027725,-27.260653],[-56.027661,-27.260016],[-56.02717,-27.259511],[-56.02875,-27.25861],[-56.029175,-27.258067],[-56.029106,-27.257602],[-56.029732,-27.257304],[-56.029792,-27.25646],[-56.030529,-27.256167],[-56.031385,-27.254882],[-56.032239,-27.254811],[-56.032259,-27.252992],[-56.031591,-27.25241],[-56.03022,-27.252441],[-56.030356,-27.252153],[-56.029992,-27.251894],[-56.030009,-27.251492],[-56.02941,-27.251167],[-56.029616,-27.250776],[-56.029179,-27.250191],[-56.028673,-27.250688],[-56.0284,-27.250149],[-56.027859,-27.250204],[-56.028023,-27.249646],[-56.027359,-27.249487],[-56.027391,-27.248856],[-56.026306,-27.248009],[-56.026574,-27.247478],[-56.026261,-27.246749],[-56.025293,-27.24574],[-56.026143,-27.245507],[-56.025492,-27.245001],[-56.026012,-27.244472],[-56.025571,-27.244307],[-56.024187,-27.242654],[-56.023559,-27.240966],[-56.024275,-27.239883],[-56.024334,-27.238372],[-56.02357,-27.234435],[-56.022782,-27.234307],[-56.022616,-27.233999],[-56.02334,-27.232334],[-56.023098,-27.23138],[-56.023291,-27.230826],[-56.022991,-27.2304],[-56.02241,-27.230757],[-56.021779,-27.230211],[-56.021969,-27.229707],[-56.021364,-27.229603],[-56.021726,-27.22919],[-56.020939,-27.228625],[-56.021157,-27.228189],[-56.020276,-27.22793],[-56.019826,-27.227205],[-56.020025,-27.226588],[-56.019438,-27.225988],[-56.020839,-27.224373],[-56.021047,-27.223747],[-56.022185,-27.224066],[-56.022196,-27.223082],[-56.023599,-27.220695],[-56.023185,-27.220372],[-56.023188,-27.219898],[-56.024357,-27.218109],[-56.023527,-27.217129],[-56.022674,-27.215322],[-56.022178,-27.213062],[-56.020645,-27.213786],[-56.020003,-27.214558],[-56.017856,-27.217951],[-56.015961,-27.22279],[-56.011724,-27.228529],[-55.985247,-27.255219],[-55.980601,-27.259527],[-55.978468,-27.260446],[-55.977424,-27.260407],[-55.970019,-27.257893],[-55.968642,-27.258036],[-55.96775,-27.258449],[-55.944563,-27.281328],[-55.952049,-27.287405],[-55.949455,-27.290015],[-55.945629,-27.287172],[-55.946184,-27.285172],[-55.943104,-27.282774],[-55.934363,-27.29146],[-55.932407,-27.292799],[-55.930837,-27.293117],[-55.928957,-27.293021],[-55.916445,-27.291539],[-55.914561,-27.291804],[-55.901563,-27.300119],[-55.90205,-27.300559],[-55.904015,-27.300164],[-55.904317,-27.301468],[-55.903525,-27.301815],[-55.903668,-27.302396],[-55.905798,-27.304527],[-55.907323,-27.304804],[-55.909895,-27.30451],[-55.915262,-27.306159],[-55.916846,-27.307149],[-55.917326,-27.308072],[-55.917541,-27.310961],[-55.91814,-27.312632],[-55.919551,-27.313512],[-55.921319,-27.313961],[-55.922825,-27.315638],[-55.913221,-27.318991],[-55.911257,-27.323478],[-55.911769,-27.344723],[-55.940559,-27.348806],[-55.959543,-27.348305]]]}}]}
