{"type":"FeatureCollection","name":"distrito","features":[{"type":"Feature","properties":{"clave":"11-3","nombre":"Fernando de la Mora"},"geometry":{"type":"Polygon","coordinates":[[[-57.562601,-25.356821],[-57.570313,-25.355539],[-57.573098,-25.350086],[-57.580407,-25.344583],[-57.582672,-25.341437],[-57.584921,-25.339387],[-57.56036,-25.320215],[-57.557079,-25.315781],[-57.553568,-25.309336],[-57.552463,-25.309355],[-57.55209,-25.308929],[-57.54521,-25.298713],[-57.543203,-25.29633],[-57.543549,-25.294886],[-57.54335,-25.294468],[-57.543837,-25.293742],[-57.541821,-25.29173],[-57.535964,-25.295795],[-57.534228,-25.299124],[-57.533283,-25.302656],[-57.531194,-25.304349],[-57.528656,-25.307281],[-57.52575,-25.311356],[-57.521677,-25.31579],[-57.51797,-25.318772],[-57.518843,-25.320113],[-57.519989,-25.320814],[-57.519511,-25.321459],[-57.521477,-25.32353],[-57.523431,-25.320839],[-57.528018,-25.324662],[-57.528156,-25.324922],[-57.527164,-25.325075],[-57.527539,-25.33376],[-57.534119,-25.333151],[-57.53468,-25.334717],[-57.540107,-25.332411],[-57.545441,-25.340335],[-57.551026,-25.349914],[-57.551873,-25.35695],[-57.557797,-25.35625],[-57.562601,-25.356821]]]}}]}
