{"type":"FeatureCollection","name":"distrito","features":[{"type":"Feature","properties":{"clave":"10-35","nombre":"Yguazú"},"geometry":{"type":"Polygon","coordinates":[[[-55.054941,-25.568372],[-55.056241,-25.567327],[-55.057478,-25.567227],[-55.057372,-25.568797],[-55.057851,-25.569938],[-55.057757,-25.571769],[-55.058494,-25.572856],[-55.059182,-25.572952],[-55.060432,-25.571019],[-55.063425,-25.570375],[-55.065162,-25.567082],[-55.065427,-25.565601],[-55.066473,-25.565368],[-55.067542,-25.565702],[-55.068079,-25.566218],[-55.068093,-25.567368],[-55.067501,-25.568233],[-55.067623,-25.568671],[-55.068628,-25.56896],[-55.06892,-25.568746],[-55.069216,-25.567339],[-55.069702,-25.566996],[-55.072479,-25.566873],[-55.073238,-25.566519],[-55.073922,-25.565903],[-55.074682,-25.564516],[-55.076153,-25.56375],[-55.075957,-25.562002],[-55.076187,-25.561612],[-55.078803,-25.561515],[-55.081703,-25.559745],[-55.081614,-25.559567],[-55.087061,-25.554564],[-55.11262,-25.531799],[-55.137612,-25.508911],[-55.144244,-25.503154],[-55.145308,-25.502653],[-55.148985,-25.498745],[-55.172388,-25.47772],[-55.173181,-25.476859],[-55.173461,-25.475757],[-55.182901,-25.468277],[-55.211044,-25.442786],[-55.240305,-25.40981],[-55.296601,-25.349466],[-55.301996,-25.348248],[-55.30686,-25.349476],[-55.31318,-25.341488],[-55.32846,-25.33526],[-55.31274,-25.29069],[-55.307153,-25.277279],[-55.294395,-25.257786],[-55.289862,-25.251734],[-55.280663,-25.249228],[-55.255249,-25.25058],[-55.248298,-25.252297],[-55.225116,-25.2628],[-55.217965,-25.266677],[-55.208744,-25.275842],[-55.191369,-25.29759],[-55.172723,-25.312297],[-55.159652,-25.320395],[-55.145009,-25.325307],[-55.134896,-25.327044],[-55.123678,-25.327808],[-55.110239,-25.327185],[-55.099059,-25.325457],[-55.088644,-25.322605],[-55.080471,-25.319781],[-55.073799,-25.316526],[-55.066607,-25.314622],[-55.058655,-25.31361],[-55.050671,-25.314637],[-55.045652,-25.317062],[-55.042375,-25.319506],[-55.040317,-25.323554],[-55.03875,-25.328061],[-55.037121,-25.336412],[-55.032885,-25.351973],[-55.031534,-25.358517],[-55.024816,-25.373367],[-55.021251,-25.378072],[-55.014694,-25.382962],[-55.008411,-25.386272],[-55.000168,-25.387518],[-54.991959,-25.386729],[-54.985501,-25.385508],[-54.979924,-25.383789],[-54.971021,-25.379821],[-54.96613,-25.376201],[-54.964348,-25.372927],[-54.964182,-25.370776],[-54.965391,-25.36901],[-54.966237,-25.366575],[-54.966219,-25.365699],[-54.961643,-25.361763],[-54.960398,-25.361169],[-54.9502,-25.365364],[-54.950259,-25.366074],[-54.95198,-25.36793],[-54.954183,-25.369581],[-54.954551,-25.370114],[-54.954468,-25.370546],[-54.9532,-25.370845],[-54.946672,-25.36768],[-54.944663,-25.366957],[-54.943816,-25.366963],[-54.941457,-25.368289],[-54.939927,-25.369626],[-54.937678,-25.373593],[-54.935946,-25.374995],[-54.934259,-25.377174],[-54.932956,-25.377512],[-54.931667,-25.374209],[-54.93327,-25.37062],[-54.933479,-25.368994],[-54.933171,-25.368137],[-54.931882,-25.368082],[-54.92825,-25.36869],[-54.925562,-25.368684],[-54.924584,-25.368286],[-54.923227,-25.366205],[-54.923371,-25.365773],[-54.925475,-25.365108],[-54.926874,-25.364144],[-54.928591,-25.361708],[-54.93054,-25.359732],[-54.93497,-25.357117],[-54.935559,-25.356006],[-54.935052,-25.354564],[-54.928021,-25.355556],[-54.925166,-25.355127],[-54.918313,-25.350987],[-54.916743,-25.348703],[-54.916885,-25.346847],[-54.919741,-25.342135],[-54.920312,-25.33928],[-54.916743,-25.33671],[-54.913887,-25.33414],[-54.912031,-25.333284],[-54.908462,-25.334997],[-54.90218,-25.335283],[-54.901181,-25.335996],[-54.900895,-25.336996],[-54.901038,-25.339851],[-54.908319,-25.345705],[-54.908748,-25.347989],[-54.907177,-25.349845],[-54.897184,-25.349417],[-54.893614,-25.35013],[-54.892044,-25.35113],[-54.892187,-25.351986],[-54.894899,-25.356269],[-54.896184,-25.360124],[-54.909462,-25.363265],[-54.911889,-25.366834],[-54.91178,-25.368898],[-54.917596,-25.40144],[-54.938666,-25.506983],[-54.94172,-25.527233],[-54.945182,-25.545374],[-54.949148,-25.563083],[-54.950767,-25.572144],[-54.952953,-25.571014],[-54.953508,-25.571061],[-54.954016,-25.571359],[-54.955426,-25.5752],[-54.95632,-25.576744],[-54.957376,-25.577515],[-54.962165,-25.578746],[-54.972657,-25.583139],[-54.973664,-25.582998],[-54.975243,-25.581973],[-54.975855,-25.581166],[-54.97689,-25.578116],[-54.977058,-25.575772],[-54.978597,-25.574513],[-54.979385,-25.574718],[-54.979798,-25.575577],[-54.980056,-25.579343],[-54.973661,-25.588293],[-54.972122,-25.591995],[-54.972753,-25.592644],[-54.97365,-25.592734],[-54.984065,-25.58896],[-54.990029,-25.585139],[-54.991903,-25.58339],[-54.992237,-25.581591],[-54.991902,-25.580554],[-54.991956,-25.580191],[-54.992278,-25.580122],[-54.993597,-25.580868],[-54.994043,-25.581994],[-54.994334,-25.585736],[-54.994747,-25.58692],[-54.995881,-25.58801],[-54.996919,-25.590235],[-54.997684,-25.590641],[-54.999758,-25.590378],[-55.000454,-25.59001],[-55.001941,-25.588357],[-55.004851,-25.587],[-55.005522,-25.587126],[-55.008363,-25.588983],[-55.009929,-25.589368],[-55.010582,-25.58862],[-55.011176,-25.585705],[-55.011133,-25.583435],[-55.013784,-25.582234],[-55.015274,-25.582313],[-55.015926,-25.583616],[-55.018158,-25.585421],[-55.018941,-25.585635],[-55.020661,-25.585382],[-55.024459,-25.585594],[-55.02509,-25.585268],[-55.025864,-25.584056],[-55.024986,-25.581819],[-55.025436,-25.580807],[-55.028348,-25.580279],[-55.029259,-25.579505],[-55.029222,-25.578807],[-55.028765,-25.578306],[-55.025499,-25.577913],[-55.024912,-25.577556],[-55.024904,-25.577075],[-55.025637,-25.576373],[-55.028516,-25.575873],[-55.029051,-25.575517],[-55.029029,-25.572956],[-55.030799,-25.571598],[-55.031553,-25.571594],[-55.031869,-25.571933],[-55.032846,-25.574913],[-55.032897,-25.575743],[-55.031889,-25.577519],[-55.031523,-25.579347],[-55.03177,-25.579917],[-55.032935,-25.580268],[-55.03336,-25.579822],[-55.033697,-25.57683],[-55.034315,-25.5763],[-55.036838,-25.576043],[-55.039382,-25.576412],[-55.040481,-25.575859],[-55.040476,-25.575219],[-55.039872,-25.574891],[-55.037578,-25.574904],[-55.035761,-25.574211],[-55.035331,-25.573026],[-55.03584,-25.572335],[-55.038179,-25.571508],[-55.039363,-25.571684],[-55.040567,-25.572573],[-55.04226,-25.572988],[-55.046154,-25.571222],[-55.047172,-25.571774],[-55.047624,-25.574529],[-55.047875,-25.574867],[-55.048853,-25.574924],[-55.052115,-25.569585],[-55.054941,-25.568372]]]}}]}
