{"type":"FeatureCollection","name":"distrito","features":[{"type":"Feature","properties":{"clave":"16-1","nombre":"Puerto Casado"},"geometry":{"type":"Polygon","coordinates":[[[-58.241671,-22.189903],[-58.249855,-22.186158],[-58.26688,-22.179487],[-58.396747,-22.178969],[-58.452343,-22.163638],[-58.454305,-22.16194],[-58.455521,-22.15937],[-58.456562,-22.158184],[-58.457791,-22.157395],[-58.459693,-22.156769],[-58.473562,-22.156234],[-58.641908,-22.154386],[-58.646992,-22.157551],[-58.648974,-22.15831],[-58.650869,-22.157865],[-58.656489,-22.154602],[-58.659046,-22.153988],[-58.706576,-22.153524],[-58.737136,-22.152462],[-58.741406,-22.153607],[-58.750145,-22.156978],[-58.752271,-22.157361],[-58.843246,-22.156821],[-58.845213,-22.156471],[-58.850956,-22.154153],[-58.854933,-22.1517],[-58.85664,-22.151189],[-58.962035,-22.150353],[-58.963148,-22.15052],[-58.981619,-22.158116],[-58.983787,-22.159229],[-58.985299,-22.159619],[-59.000104,-22.154992],[-59.000053,-22.15441],[-59.004113,-22.15436],[-59.018355,-22.150072],[-59.201595,-22.147866],[-59.239296,-22.131614],[-59.241429,-22.13216],[-59.241472,-22.13127],[-59.241802,-22.130941],[-59.403671,-22.060676],[-59.412897,-22.05682],[-59.416363,-22.056525],[-59.781509,-22.05528],[-59.860806,-22.054194],[-59.908239,-22.054306],[-59.92442,-22.054628],[-59.953068,-22.054504],[-59.952322,-22.037797],[-59.951239,-22.024007],[-59.951841,-21.98222],[-59.94923,-21.94365],[-59.944966,-21.910295],[-59.933183,-21.838482],[-59.926285,-21.776837],[-59.921806,-21.751169],[-59.904562,-21.644374],[-59.90263,-21.635644],[-59.887532,-21.554004],[-59.881068,-21.508373],[-59.874267,-21.467676],[-59.872402,-21.447163],[-59.845566,-21.432452],[-59.769895,-21.383322],[-59.715144,-21.345951],[-59.307563,-21.366618],[-59.015269,-21.381404],[-58.728726,-21.383168],[-58.655027,-21.327828],[-58.526379,-21.3269],[-58.485745,-21.361397],[-58.486936,-21.361441],[-58.488488,-21.364021],[-58.488332,-21.365257],[-58.489717,-21.365833],[-58.490277,-21.365853],[-58.490691,-21.36473],[-58.490577,-21.362622],[-58.49082,-21.361319],[-58.493032,-21.362274],[-58.494432,-21.364954],[-58.493767,-21.367731],[-58.493709,-21.369302],[-58.495556,-21.369981],[-58.496821,-21.371163],[-58.497158,-21.372136],[-58.496934,-21.373087],[-58.496443,-21.37368],[-58.491933,-21.374211],[-58.491714,-21.375074],[-58.492218,-21.376574],[-58.4968,-21.379006],[-58.496379,-21.380209],[-58.494673,-21.380841],[-58.494078,-21.381774],[-58.494024,-21.383162],[-58.494879,-21.385191],[-58.503799,-21.384046],[-58.505292,-21.384101],[-58.506035,-21.384215],[-58.506391,-21.384662],[-58.509222,-21.386242],[-58.510715,-21.386297],[-58.515166,-21.384898],[-58.518245,-21.38501],[-58.524349,-21.386449],[-58.527284,-21.387685],[-58.530513,-21.388584],[-58.536175,-21.38931],[-58.537099,-21.390124],[-58.539404,-21.391348],[-58.544401,-21.393283],[-58.550078,-21.394541],[-58.557378,-21.395072],[-58.561317,-21.39504],[-58.56959,-21.392358],[-58.576477,-21.389455],[-58.577906,-21.388982],[-58.578934,-21.389108],[-58.580398,-21.390037],[-58.580922,-21.390933],[-58.580435,-21.393457],[-58.580292,-21.396692],[-58.581913,-21.398237],[-58.583678,-21.400747],[-58.584587,-21.401391],[-58.591181,-21.402592],[-58.593439,-21.402499],[-58.59471,-21.403418],[-58.599784,-21.404998],[-58.601841,-21.405072],[-58.603586,-21.403915],[-58.605235,-21.404759],[-58.61069,-21.404433],[-58.611766,-21.405345],[-58.613632,-21.405499],[-58.616047,-21.404104],[-58.616478,-21.402985],[-58.617492,-21.402088],[-58.621029,-21.40004],[-58.622344,-21.399914],[-58.623316,-21.398904],[-58.625664,-21.398641],[-58.627052,-21.396512],[-58.629781,-21.393819],[-58.633843,-21.390647],[-58.635355,-21.390351],[-58.637414,-21.390425],[-58.63912,-21.389961],[-58.638865,-21.391613],[-58.636569,-21.395198],[-58.636885,-21.396692],[-58.638442,-21.399884],[-58.641696,-21.404959],[-58.641912,-21.406531],[-58.643125,-21.406575],[-58.643886,-21.408512],[-58.646257,-21.409899],[-58.647845,-21.412125],[-58.648326,-21.413958],[-58.650136,-21.415326],[-58.651974,-21.415998],[-58.653753,-21.417962],[-58.654453,-21.419023],[-58.654939,-21.42068],[-58.655653,-21.421395],[-58.656693,-21.424839],[-58.658728,-21.425612],[-58.661752,-21.427653],[-58.664992,-21.428911],[-58.668076,-21.431652],[-58.668571,-21.433333],[-58.669404,-21.433626],[-58.670657,-21.432795],[-58.672873,-21.429104],[-58.674136,-21.428097],[-58.676449,-21.428969],[-58.678255,-21.430701],[-58.67983,-21.431196],[-58.681469,-21.432393],[-58.682802,-21.436292],[-58.683813,-21.436765],[-58.683765,-21.437899],[-58.685315,-21.438916],[-58.68652,-21.439221],[-58.687196,-21.440904],[-58.689851,-21.4444],[-58.696873,-21.444476],[-58.699573,-21.444834],[-58.700861,-21.445316],[-58.70121,-21.445851],[-58.701086,-21.448458],[-58.701514,-21.452043],[-58.702371,-21.453345],[-58.702731,-21.455689],[-58.702595,-21.459075],[-58.701582,-21.46158],[-58.699922,-21.463215],[-58.699583,-21.465956],[-58.701855,-21.466038],[-58.703429,-21.466518],[-58.705169,-21.468486],[-58.704392,-21.470787],[-58.701718,-21.474927],[-58.704874,-21.475675],[-58.709189,-21.475827],[-58.712003,-21.473811],[-58.714492,-21.468606],[-58.716866,-21.466147],[-58.718194,-21.467041],[-58.718056,-21.470425],[-58.71839,-21.473402],[-58.720802,-21.475605],[-58.718517,-21.481454],[-58.719802,-21.483405],[-58.72602,-21.481506],[-58.731167,-21.483592],[-58.737075,-21.483802],[-58.739095,-21.484509],[-58.742575,-21.488445],[-58.744594,-21.489152],[-58.745958,-21.4892],[-58.748037,-21.488427],[-58.750056,-21.489134],[-58.752276,-21.490483],[-58.756006,-21.499507],[-58.76218,-21.504383],[-58.76476,-21.508073],[-58.768885,-21.507372],[-58.772133,-21.505792],[-58.773724,-21.505848],[-58.776171,-21.504453],[-58.682262,-21.957058],[-58.674957,-21.95682],[-58.639971,-21.899341],[-58.616554,-21.859011],[-58.596457,-21.831902],[-58.57501,-21.809517],[-58.571204,-21.807858],[-58.570382,-21.80694],[-58.53523,-21.80796],[-58.384705,-21.80818],[-58.385133,-21.914298],[-58.384894,-21.951137],[-58.358382,-21.950661],[-58.334228,-21.949784],[-58.254504,-22.017094],[-58.236575,-22.033363],[-58.204595,-22.025711],[-58.176484,-22.020541],[-58.157444,-22.043259],[-58.104763,-22.043623],[-58.096951,-22.027904],[-58.081011,-22.03016],[-58.063702,-22.029555],[-58.041056,-22.03508],[-58.032233,-22.038004],[-58.027753,-22.038515],[-58.016061,-22.037084],[-58.015654,-22.040316],[-58.01466,-22.040918],[-58.013293,-22.04342],[-58.009501,-22.043386],[-58.007997,-22.048349],[-58.006334,-22.050622],[-58.003467,-22.052825],[-58.000034,-22.053866],[-57.991412,-22.057317],[-57.987094,-22.060067],[-57.985841,-22.061471],[-57.984667,-22.063499],[-57.983976,-22.065347],[-57.983502,-22.068962],[-57.984457,-22.075275],[-57.987811,-22.080597],[-57.991379,-22.084147],[-57.993034,-22.086919],[-57.993647,-22.090524],[-57.993701,-22.094656],[-57.992733,-22.100028],[-57.991915,-22.102205],[-57.990167,-22.104637],[-57.985951,-22.108158],[-57.974538,-22.113204],[-57.970411,-22.11556],[-57.96292,-22.120721],[-57.960973,-22.122856],[-57.95942,-22.125196],[-57.957509,-22.129114],[-57.956166,-22.133553],[-57.955934,-22.135428],[-57.956142,-22.137162],[-57.958388,-22.142998],[-57.960817,-22.15404],[-57.962244,-22.162072],[-57.963191,-22.171429],[-57.964736,-22.175029],[-57.971394,-22.187465],[-57.972553,-22.194305],[-57.971714,-22.212499],[-57.971736,-22.222774],[-57.971349,-22.225712],[-57.970194,-22.226988],[-57.967851,-22.228737],[-57.962868,-22.232009],[-57.961361,-22.234078],[-57.960054,-22.236732],[-57.959434,-22.239387],[-57.959163,-22.242767],[-57.959097,-22.254647],[-57.958537,-22.258945],[-57.955954,-22.268784],[-57.953779,-22.273775],[-57.951789,-22.277079],[-57.949589,-22.27846],[-57.946993,-22.279343],[-57.943855,-22.279772],[-57.941006,-22.279563],[-57.932405,-22.277964],[-57.927043,-22.27617],[-57.902923,-22.265705],[-57.898944,-22.265135],[-57.896686,-22.265148],[-57.894087,-22.265573],[-57.891251,-22.267233],[-57.887007,-22.271457],[-57.885408,-22.274758],[-57.884162,-22.279562],[-57.882845,-22.288706],[-57.882794,-22.2962],[-57.882332,-22.300723],[-57.877296,-22.311988],[-57.877028,-22.31633],[-57.877576,-22.317515],[-57.878713,-22.318833],[-57.879463,-22.320838],[-57.87967,-22.322667],[-57.879635,-22.324767],[-57.879156,-22.326689],[-57.877699,-22.329258],[-57.872493,-22.336915],[-57.86698,-22.34306],[-57.864581,-22.344902],[-57.849067,-22.355025],[-57.845881,-22.357481],[-57.840531,-22.362314],[-57.833364,-22.366281],[-57.827738,-22.370289],[-57.821354,-22.373316],[-57.818309,-22.376841],[-57.817487,-22.378282],[-57.817149,-22.381332],[-57.817436,-22.383097],[-57.818116,-22.384525],[-57.819275,-22.386579],[-57.822661,-22.391011],[-57.827431,-22.395544],[-57.829614,-22.396969],[-57.832309,-22.398093],[-57.837573,-22.399132],[-57.845519,-22.399055],[-57.852033,-22.397512],[-57.854088,-22.397429],[-57.855743,-22.397715],[-58.185565,-22.349438],[-58.202731,-22.282506],[-58.245549,-22.240463],[-58.242224,-22.211916],[-58.237447,-22.198389],[-58.241671,-22.189903]]]}}]}
