{"type":"FeatureCollection","name":"distrito","features":[{"type":"Feature","properties":{"clave":"4-30","nombre":"Tebicuary"},"geometry":{"type":"Polygon","coordinates":[[[-56.626445,-25.848689],[-56.626906,-25.851647],[-56.626632,-25.853186],[-56.625823,-25.854339],[-56.624298,-25.855206],[-56.62396,-25.855954],[-56.624982,-25.858347],[-56.624934,-25.859278],[-56.624508,-25.859601],[-56.622761,-25.85984],[-56.623046,-25.861907],[-56.622776,-25.862169],[-56.621568,-25.862024],[-56.621074,-25.862266],[-56.620757,-25.863582],[-56.619856,-25.86526],[-56.620606,-25.868625],[-56.624575,-25.873678],[-56.625486,-25.876152],[-56.624486,-25.880747],[-56.621856,-25.884102],[-56.621336,-25.885438],[-56.6218,-25.887363],[-56.622672,-25.887912],[-56.623904,-25.887753],[-56.624534,-25.886722],[-56.62387,-25.884391],[-56.624275,-25.883582],[-56.624971,-25.883118],[-56.62589,-25.882877],[-56.62618,-25.883222],[-56.62671,-25.885371],[-56.627668,-25.886487],[-56.628794,-25.886508],[-56.628914,-25.886156],[-56.629877,-25.88568],[-56.629963,-25.883752],[-56.630477,-25.883862],[-56.630868,-25.88464],[-56.631225,-25.884044],[-56.631619,-25.884768],[-56.632191,-25.884909],[-56.632648,-25.884482],[-56.632955,-25.884798],[-56.632879,-25.885308],[-56.633691,-25.885252],[-56.634128,-25.884819],[-56.633603,-25.883098],[-56.634192,-25.882287],[-56.636606,-25.881895],[-56.637981,-25.882441],[-56.638973,-25.882226],[-56.639253,-25.881374],[-56.641062,-25.880398],[-56.641141,-25.879857],[-56.641797,-25.879434],[-56.642257,-25.878537],[-56.644,-25.877706],[-56.645214,-25.877497],[-56.646491,-25.876755],[-56.647109,-25.877194],[-56.647469,-25.877046],[-56.648282,-25.87456],[-56.647842,-25.873701],[-56.646713,-25.872985],[-56.646904,-25.870548],[-56.648881,-25.869311],[-56.649355,-25.869614],[-56.649681,-25.869471],[-56.650085,-25.868691],[-56.650228,-25.866876],[-56.6509,-25.866471],[-56.651796,-25.866934],[-56.6526,-25.866236],[-56.652666,-25.86467],[-56.65416,-25.861802],[-56.656196,-25.860587],[-56.656823,-25.860634],[-56.6582,-25.85991],[-56.659479,-25.858487],[-56.659402,-25.857362],[-56.660351,-25.855211],[-56.661038,-25.854838],[-56.661859,-25.854858],[-56.662562,-25.855248],[-56.662793,-25.85467],[-56.662634,-25.853153],[-56.664462,-25.851852],[-56.665763,-25.850442],[-56.665533,-25.849845],[-56.666513,-25.849005],[-56.689541,-25.762165],[-56.669835,-25.700155],[-56.668743,-25.700144],[-56.667603,-25.700728],[-56.666549,-25.700211],[-56.665923,-25.700453],[-56.666034,-25.700946],[-56.666911,-25.701724],[-56.666729,-25.701945],[-56.665885,-25.701799],[-56.665698,-25.702173],[-56.665955,-25.702959],[-56.665046,-25.704271],[-56.663799,-25.704647],[-56.664068,-25.705673],[-56.663484,-25.706376],[-56.664207,-25.706802],[-56.663368,-25.70769],[-56.663884,-25.708318],[-56.663009,-25.708154],[-56.662836,-25.706781],[-56.662314,-25.706708],[-56.660776,-25.709418],[-56.661239,-25.712459],[-56.659318,-25.714992],[-56.656928,-25.716912],[-56.65686,-25.717909],[-56.657946,-25.71962],[-56.656377,-25.722086],[-56.656833,-25.723997],[-56.656338,-25.72588],[-56.656444,-25.727706],[-56.655758,-25.728207],[-56.653928,-25.728152],[-56.653316,-25.728687],[-56.653413,-25.730303],[-56.655092,-25.731614],[-56.655626,-25.732385],[-56.655428,-25.733499],[-56.655684,-25.734688],[-56.657308,-25.735932],[-56.657417,-25.736351],[-56.65687,-25.737111],[-56.655464,-25.737108],[-56.654222,-25.73816],[-56.654645,-25.738982],[-56.65653,-25.739422],[-56.656622,-25.739724],[-56.655609,-25.741371],[-56.65557,-25.742007],[-56.656546,-25.743567],[-56.65592,-25.745785],[-56.653884,-25.746299],[-56.653478,-25.745947],[-56.653204,-25.744958],[-56.652409,-25.744956],[-56.651199,-25.747533],[-56.651354,-25.748362],[-56.651834,-25.748631],[-56.654073,-25.748084],[-56.654515,-25.748688],[-56.654513,-25.749626],[-56.65403,-25.750328],[-56.652918,-25.750912],[-56.652843,-25.751263],[-56.653323,-25.751633],[-56.655304,-25.751152],[-56.655802,-25.751505],[-56.654641,-25.753269],[-56.654691,-25.755061],[-56.653618,-25.755293],[-56.65238,-25.754871],[-56.651695,-25.755087],[-56.649869,-25.756632],[-56.649068,-25.75849],[-56.648289,-25.759241],[-56.646995,-25.758937],[-56.64631,-25.759304],[-56.645901,-25.762845],[-56.644644,-25.765848],[-56.646398,-25.766992],[-56.646609,-25.767402],[-56.644771,-25.769726],[-56.643677,-25.770561],[-56.642254,-25.770239],[-56.640723,-25.768812],[-56.640112,-25.768994],[-56.639171,-25.771128],[-56.639538,-25.772234],[-56.641832,-25.772106],[-56.64196,-25.772491],[-56.641626,-25.772959],[-56.639608,-25.77344],[-56.637188,-25.772647],[-56.636726,-25.772244],[-56.635782,-25.772409],[-56.635004,-25.772876],[-56.634231,-25.774607],[-56.631694,-25.775606],[-56.630263,-25.777595],[-56.629364,-25.778271],[-56.627736,-25.778183],[-56.626755,-25.778633],[-56.627048,-25.779354],[-56.628323,-25.779944],[-56.628524,-25.780698],[-56.628301,-25.781015],[-56.627653,-25.781215],[-56.625732,-25.780389],[-56.62414,-25.780553],[-56.622671,-25.779971],[-56.62169,-25.780287],[-56.62115,-25.781273],[-56.621092,-25.78201],[-56.622013,-25.783419],[-56.623345,-25.783423],[-56.624588,-25.782354],[-56.625493,-25.782641],[-56.625695,-25.783345],[-56.625008,-25.783997],[-56.622203,-25.784819],[-56.620994,-25.786842],[-56.619363,-25.787742],[-56.619462,-25.788555],[-56.620848,-25.789195],[-56.620769,-25.790735],[-56.621542,-25.794833],[-56.622898,-25.796034],[-56.622488,-25.796904],[-56.621432,-25.79747],[-56.621412,-25.797956],[-56.622852,-25.79878],[-56.623553,-25.799586],[-56.62332,-25.800147],[-56.622172,-25.800294],[-56.620808,-25.798616],[-56.62029,-25.798564],[-56.619716,-25.798915],[-56.61932,-25.801074],[-56.617876,-25.801589],[-56.617596,-25.802175],[-56.617909,-25.802628],[-56.619019,-25.802865],[-56.619164,-25.803653],[-56.618877,-25.803677],[-56.61852,-25.805552],[-56.617921,-25.80647],[-56.619175,-25.807852],[-56.619318,-25.809519],[-56.62019,-25.809703],[-56.621646,-25.80912],[-56.622472,-25.80977],[-56.623904,-25.809855],[-56.624394,-25.810504],[-56.624459,-25.811132],[-56.623561,-25.812244],[-56.624026,-25.813663],[-56.625232,-25.814537],[-56.625298,-25.815003],[-56.624826,-25.81567],[-56.623504,-25.81595],[-56.623279,-25.816476],[-56.624643,-25.816784],[-56.625226,-25.816441],[-56.627622,-25.816082],[-56.627979,-25.816225],[-56.628179,-25.816793],[-56.628196,-25.818474],[-56.628531,-25.818819],[-56.629493,-25.818761],[-56.630502,-25.818196],[-56.630593,-25.817731],[-56.629995,-25.815623],[-56.630287,-25.815259],[-56.631473,-25.815242],[-56.63203,-25.816114],[-56.632183,-25.817107],[-56.632002,-25.817876],[-56.631036,-25.819008],[-56.631278,-25.820467],[-56.629554,-25.820685],[-56.62915,-25.821109],[-56.629395,-25.821576],[-56.631699,-25.821967],[-56.63246,-25.821725],[-56.632889,-25.82039],[-56.633717,-25.820554],[-56.633962,-25.821081],[-56.633577,-25.822559],[-56.631763,-25.822878],[-56.630821,-25.823463],[-56.631529,-25.826098],[-56.631324,-25.827414],[-56.63027,-25.828019],[-56.629016,-25.828056],[-56.628948,-25.828583],[-56.62966,-25.82984],[-56.629722,-25.831582],[-56.630592,-25.832435],[-56.63059,-25.832982],[-56.629806,-25.833163],[-56.628242,-25.832247],[-56.627884,-25.832287],[-56.627569,-25.832873],[-56.627903,-25.833462],[-56.629244,-25.834113],[-56.629062,-25.834984],[-56.628703,-25.835226],[-56.627718,-25.835203],[-56.62803,-25.835892],[-56.628946,-25.836421],[-56.628985,-25.838143],[-56.629611,-25.838408],[-56.63042,-25.837377],[-56.630844,-25.837581],[-56.630865,-25.838269],[-56.63019,-25.83926],[-56.628444,-25.839397],[-56.627972,-25.840085],[-56.628215,-25.840977],[-56.627765,-25.841907],[-56.629027,-25.846326],[-56.627211,-25.84703],[-56.626785,-25.847475],[-56.626445,-25.848689]]]}}]}
