{"type":"FeatureCollection","name":"distrito","features":[{"type":"Feature","properties":{"clave":"12-25","nombre":"Villa Franca"},"geometry":{"type":"Polygon","coordinates":[[[-58.214488,-26.488378],[-58.222203,-26.483721],[-58.228732,-26.477693],[-58.229756,-26.476322],[-58.230673,-26.474239],[-58.231059,-26.471275],[-58.230563,-26.467961],[-58.229766,-26.466593],[-58.222678,-26.463623],[-58.200245,-26.465138],[-58.18808,-26.463087],[-58.18064,-26.456125],[-58.180359,-26.454164],[-58.180676,-26.452154],[-58.181254,-26.450796],[-58.183645,-26.44788],[-58.188803,-26.444684],[-58.194423,-26.441772],[-58.196353,-26.440476],[-58.200893,-26.436583],[-58.205111,-26.430361],[-58.209384,-26.424839],[-58.218138,-26.414562],[-58.220294,-26.409246],[-58.221707,-26.40351],[-58.22183,-26.399445],[-58.221269,-26.395924],[-58.219156,-26.389473],[-58.216943,-26.385204],[-58.214805,-26.382209],[-58.211017,-26.37874],[-58.206797,-26.375458],[-58.201278,-26.372275],[-58.196216,-26.368836],[-58.192914,-26.367087],[-58.189332,-26.365499],[-58.176635,-26.362401],[-58.171353,-26.359996],[-58.169495,-26.358698],[-58.166247,-26.355512],[-58.160582,-26.347347],[-58.159432,-26.345091],[-58.156813,-26.336588],[-58.154555,-26.323054],[-58.154122,-26.317443],[-58.155325,-26.31056],[-58.156812,-26.306235],[-58.158463,-26.303379],[-58.165252,-26.295317],[-58.166173,-26.292167],[-58.167121,-26.285388],[-58.167062,-26.276697],[-58.16588,-26.269586],[-58.163811,-26.265005],[-58.161935,-26.262673],[-58.156766,-26.25951],[-58.151018,-26.257234],[-58.136928,-26.25312],[-58.123928,-26.247019],[-58.119881,-26.244833],[-58.113258,-26.241958],[-58.108215,-26.238128],[-58.106877,-26.236195],[-58.104682,-26.229453],[-58.104505,-26.226459],[-58.105381,-26.222758],[-58.101264,-26.222234],[-58.101204,-26.222607],[-58.100727,-26.222614],[-58.091413,-26.222292],[-58.088464,-26.223222],[-58.072516,-26.238411],[-58.064032,-26.241989],[-58.042048,-26.248322],[-58.025469,-26.25041],[-58.01984,-26.239674],[-58.018789,-26.219326],[-58.009547,-26.211117],[-58.027544,-26.202069],[-58.000321,-26.176082],[-57.997479,-26.175804],[-57.994396,-26.176669],[-57.991621,-26.178449],[-57.990554,-26.179671],[-57.989031,-26.181794],[-57.987815,-26.184398],[-57.979507,-26.186893],[-57.976016,-26.188424],[-57.975325,-26.189598],[-57.970687,-26.182023],[-57.969426,-26.178921],[-57.966963,-26.174924],[-57.961843,-26.169469],[-57.958819,-26.165385],[-57.958352,-26.164111],[-57.940837,-26.176876],[-57.917792,-26.164244],[-57.903678,-26.149386],[-57.898341,-26.144625],[-57.814365,-26.18036],[-57.813382,-26.190176],[-57.718487,-26.238242],[-57.69399,-26.194639],[-57.65532,-26.213244],[-57.655854,-26.214993],[-57.655007,-26.217805],[-57.651528,-26.220083],[-57.650466,-26.221397],[-57.648961,-26.224925],[-57.646379,-26.227817],[-57.644011,-26.232062],[-57.640919,-26.234984],[-57.634545,-26.235847],[-57.633446,-26.235554],[-57.632394,-26.23471],[-57.630595,-26.229454],[-57.62908,-26.228174],[-57.62811,-26.22811],[-57.625323,-26.230818],[-57.624518,-26.232573],[-57.621306,-26.236569],[-57.619689,-26.238104],[-57.619947,-26.238633],[-57.620102,-26.244926],[-57.61976,-26.247442],[-57.62032,-26.251566],[-57.62117,-26.252583],[-57.623633,-26.254017],[-57.63061,-26.259444],[-57.630417,-26.260154],[-57.629301,-26.260299],[-57.629099,-26.260553],[-57.631473,-26.262777],[-57.631721,-26.263327],[-57.630814,-26.265511],[-57.629213,-26.267039],[-57.628957,-26.267772],[-57.629299,-26.268655],[-57.630507,-26.269657],[-57.631335,-26.269807],[-57.63495,-26.269664],[-57.637098,-26.268883],[-57.638225,-26.267623],[-57.641842,-26.264731],[-57.643035,-26.265105],[-57.644265,-26.264779],[-57.644632,-26.265174],[-57.643846,-26.266383],[-57.644162,-26.266869],[-57.646124,-26.267253],[-57.646153,-26.268684],[-57.647177,-26.270806],[-57.649518,-26.27164],[-57.652754,-26.27204],[-57.654055,-26.272874],[-57.654032,-26.273267],[-57.656217,-26.273767],[-57.655864,-26.274577],[-57.656375,-26.275189],[-57.655841,-26.275773],[-57.655538,-26.276854],[-57.653869,-26.2765],[-57.650663,-26.276993],[-57.651134,-26.277831],[-57.650364,-26.27802],[-57.650342,-26.278322],[-57.651541,-26.278569],[-57.652142,-26.279334],[-57.651442,-26.280453],[-57.650667,-26.280393],[-57.651456,-26.281265],[-57.651432,-26.28164],[-57.650144,-26.281601],[-57.651489,-26.282592],[-57.651262,-26.283537],[-57.65092,-26.283687],[-57.649954,-26.283317],[-57.649556,-26.283797],[-57.650366,-26.284606],[-57.651982,-26.284224],[-57.65217,-26.285099],[-57.651053,-26.2857],[-57.650744,-26.285476],[-57.65015,-26.285619],[-57.649759,-26.286293],[-57.650286,-26.286539],[-57.651384,-26.286398],[-57.651972,-26.286897],[-57.652482,-26.28694],[-57.653319,-26.28578],[-57.653645,-26.28572],[-57.653945,-26.287696],[-57.653659,-26.288],[-57.65441,-26.288213],[-57.653462,-26.28861],[-57.65523,-26.288801],[-57.654684,-26.289675],[-57.655103,-26.290088],[-57.654656,-26.290311],[-57.657243,-26.290575],[-57.656972,-26.292759],[-57.657785,-26.293689],[-57.657278,-26.294103],[-57.655464,-26.294375],[-57.656184,-26.295264],[-57.656324,-26.29623],[-57.657866,-26.295426],[-57.658454,-26.295988],[-57.658024,-26.297568],[-57.659073,-26.297716],[-57.659435,-26.297535],[-57.660552,-26.295123],[-57.662644,-26.2943],[-57.662537,-26.298154],[-57.663229,-26.298346],[-57.664874,-26.297267],[-57.665433,-26.297629],[-57.665191,-26.298374],[-57.663767,-26.299236],[-57.663437,-26.299844],[-57.665095,-26.300022],[-57.66685,-26.299681],[-57.667327,-26.300117],[-57.667071,-26.300456],[-57.665737,-26.300657],[-57.663904,-26.301869],[-57.663781,-26.302229],[-57.664143,-26.30279],[-57.665812,-26.303704],[-57.665666,-26.304219],[-57.66442,-26.304703],[-57.664392,-26.305231],[-57.666383,-26.305271],[-57.669372,-26.30487],[-57.670405,-26.304028],[-57.671336,-26.302131],[-57.671872,-26.302061],[-57.673257,-26.303163],[-57.673303,-26.303535],[-57.671471,-26.305784],[-57.670178,-26.306511],[-57.669006,-26.306506],[-57.669702,-26.30728],[-57.673784,-26.307685],[-57.673787,-26.309078],[-57.674476,-26.308732],[-57.676832,-26.305886],[-57.678288,-26.306491],[-57.679505,-26.30638],[-57.680156,-26.306599],[-57.680104,-26.307596],[-57.678636,-26.307989],[-57.677975,-26.309106],[-57.679068,-26.312753],[-57.678867,-26.313493],[-57.679545,-26.314145],[-57.680758,-26.314234],[-57.681629,-26.315011],[-57.682532,-26.315139],[-57.682844,-26.313427],[-57.683129,-26.313183],[-57.683641,-26.313497],[-57.682675,-26.316609],[-57.682021,-26.317018],[-57.681217,-26.316621],[-57.680251,-26.316737],[-57.680043,-26.317308],[-57.680786,-26.317865],[-57.683202,-26.31841],[-57.683596,-26.319034],[-57.683146,-26.319564],[-57.681576,-26.319452],[-57.679612,-26.31774],[-57.678643,-26.317585],[-57.678326,-26.318675],[-57.680886,-26.319887],[-57.681133,-26.320674],[-57.68079,-26.320915],[-57.678391,-26.320631],[-57.678049,-26.319542],[-57.676834,-26.318844],[-57.676462,-26.319282],[-57.676924,-26.320821],[-57.676662,-26.321449],[-57.675815,-26.322142],[-57.674393,-26.322121],[-57.674203,-26.322952],[-57.674441,-26.323563],[-57.677169,-26.324071],[-57.67819,-26.326333],[-57.678799,-26.32633],[-57.679606,-26.325468],[-57.681739,-26.325584],[-57.682007,-26.32597],[-57.681254,-26.326705],[-57.681732,-26.327006],[-57.682208,-26.32687],[-57.682624,-26.325995],[-57.682867,-26.326107],[-57.683005,-26.327007],[-57.681895,-26.328089],[-57.683164,-26.328723],[-57.68507,-26.328848],[-57.685173,-26.329136],[-57.684345,-26.332844],[-57.684617,-26.333078],[-57.685383,-26.33274],[-57.686007,-26.332808],[-57.686573,-26.334146],[-57.687301,-26.33452],[-57.686379,-26.336526],[-57.686446,-26.337241],[-57.6871,-26.337634],[-57.688851,-26.336979],[-57.689413,-26.337517],[-57.689229,-26.338027],[-57.687858,-26.338479],[-57.687626,-26.338975],[-57.688028,-26.339306],[-57.689952,-26.339473],[-57.690406,-26.339103],[-57.689994,-26.338582],[-57.690218,-26.337994],[-57.69247,-26.337742],[-57.69263,-26.338173],[-57.692366,-26.338705],[-57.69039,-26.340354],[-57.690386,-26.340645],[-57.691528,-26.341606],[-57.692029,-26.341646],[-57.693325,-26.340695],[-57.693789,-26.341584],[-57.691623,-26.343221],[-57.691692,-26.344197],[-57.691356,-26.344404],[-57.689613,-26.343061],[-57.686678,-26.343281],[-57.685434,-26.34415],[-57.685082,-26.343005],[-57.684124,-26.342939],[-57.683348,-26.344435],[-57.683659,-26.345361],[-57.684576,-26.346453],[-57.684742,-26.347916],[-57.684131,-26.348124],[-57.682165,-26.347624],[-57.681342,-26.347855],[-57.680951,-26.348104],[-57.680446,-26.35042],[-57.68263,-26.350678],[-57.683017,-26.350966],[-57.683255,-26.352684],[-57.682676,-26.353055],[-57.681845,-26.352012],[-57.681092,-26.352043],[-57.679429,-26.353685],[-57.679816,-26.354023],[-57.682607,-26.354647],[-57.684406,-26.35623],[-57.685356,-26.356246],[-57.686577,-26.355568],[-57.688401,-26.355899],[-57.688608,-26.356337],[-57.688172,-26.357032],[-57.688506,-26.357695],[-57.690418,-26.357085],[-57.691785,-26.357241],[-57.691812,-26.357814],[-57.689967,-26.359223],[-57.689813,-26.359634],[-57.689926,-26.360179],[-57.691294,-26.360483],[-57.691172,-26.361092],[-57.690406,-26.361612],[-57.690443,-26.362659],[-57.68998,-26.363977],[-57.690162,-26.364202],[-57.692094,-26.364292],[-57.692731,-26.365718],[-57.69326,-26.366204],[-57.695545,-26.36627],[-57.697465,-26.366777],[-57.697841,-26.366669],[-57.698923,-26.365044],[-57.702182,-26.366422],[-57.702435,-26.366753],[-57.701937,-26.367435],[-57.699772,-26.36787],[-57.698932,-26.368536],[-57.69897,-26.372309],[-57.697976,-26.372474],[-57.698266,-26.373661],[-57.697924,-26.37421],[-57.696723,-26.374734],[-57.696506,-26.375207],[-57.696791,-26.37563],[-57.69892,-26.376223],[-57.701841,-26.376067],[-57.702318,-26.376171],[-57.702905,-26.376885],[-57.703689,-26.376923],[-57.705199,-26.37638],[-57.705663,-26.37424],[-57.708382,-26.372815],[-57.708794,-26.372882],[-57.709476,-26.37372],[-57.710584,-26.373884],[-57.711086,-26.375113],[-57.711551,-26.375294],[-57.712038,-26.37532],[-57.713212,-26.374685],[-57.713472,-26.374868],[-57.713332,-26.376283],[-57.714142,-26.376484],[-57.714596,-26.376298],[-57.717034,-26.373081],[-57.719705,-26.371957],[-57.719457,-26.371237],[-57.717087,-26.370216],[-57.716503,-26.369611],[-57.716079,-26.368474],[-57.716315,-26.367228],[-57.718147,-26.363823],[-57.718191,-26.363271],[-57.717264,-26.361882],[-57.717292,-26.361323],[-57.717791,-26.360868],[-57.719306,-26.360747],[-57.719876,-26.360228],[-57.719887,-26.358155],[-57.718867,-26.357242],[-57.718938,-26.356921],[-57.722747,-26.355952],[-57.723091,-26.354451],[-57.723577,-26.354321],[-57.72424,-26.35482],[-57.724338,-26.356701],[-57.725704,-26.356729],[-57.727075,-26.356227],[-57.728731,-26.356035],[-57.729525,-26.356186],[-57.730827,-26.357269],[-57.731495,-26.357428],[-57.732953,-26.357011],[-57.733684,-26.357092],[-57.73589,-26.359098],[-57.735951,-26.360276],[-57.735352,-26.361563],[-57.735679,-26.361948],[-57.737018,-26.362371],[-57.737369,-26.362884],[-57.736719,-26.363492],[-57.731249,-26.363722],[-57.730819,-26.36461],[-57.730992,-26.36576],[-57.730234,-26.366373],[-57.730065,-26.366918],[-57.733855,-26.370125],[-57.734728,-26.37041],[-57.738097,-26.370442],[-57.738886,-26.370976],[-57.738881,-26.371485],[-57.738358,-26.373122],[-57.73682,-26.373413],[-57.736383,-26.373846],[-57.736219,-26.375241],[-57.735852,-26.375533],[-57.734659,-26.375638],[-57.733746,-26.375225],[-57.733465,-26.374272],[-57.73403,-26.373003],[-57.735292,-26.371454],[-57.73496,-26.371024],[-57.73412,-26.371177],[-57.733691,-26.371498],[-57.732419,-26.374737],[-57.732752,-26.376046],[-57.734578,-26.376688],[-57.738648,-26.377192],[-57.73976,-26.377846],[-57.741824,-26.380451],[-57.742607,-26.380648],[-57.746015,-26.380284],[-57.746986,-26.380793],[-57.747588,-26.381751],[-57.748991,-26.381935],[-57.750007,-26.381224],[-57.753619,-26.38229],[-57.755568,-26.382194],[-57.759295,-26.381464],[-57.762305,-26.38289],[-57.764397,-26.383131],[-57.765436,-26.382837],[-57.768879,-26.383035],[-57.773211,-26.38467],[-57.77571,-26.387323],[-57.777442,-26.387405],[-57.779771,-26.387036],[-57.781288,-26.387387],[-57.782039,-26.388298],[-57.782141,-26.389164],[-57.78183,-26.390373],[-57.780199,-26.392547],[-57.780158,-26.394219],[-57.781764,-26.395003],[-57.783522,-26.394561],[-57.784407,-26.395277],[-57.784492,-26.395997],[-57.782962,-26.400547],[-57.782068,-26.401543],[-57.778676,-26.403003],[-57.778181,-26.403726],[-57.778291,-26.405258],[-57.779099,-26.406334],[-57.780703,-26.406866],[-57.782205,-26.407038],[-57.785205,-26.406752],[-57.788304,-26.406374],[-57.790388,-26.40375],[-57.791584,-26.403112],[-57.79317,-26.402892],[-57.795474,-26.403372],[-57.795946,-26.404485],[-57.796185,-26.410835],[-57.797821,-26.415331],[-57.798699,-26.416112],[-57.80098,-26.416623],[-57.802423,-26.416239],[-57.804673,-26.414739],[-57.805772,-26.414858],[-57.806526,-26.415193],[-57.807135,-26.416451],[-57.806736,-26.417459],[-57.805085,-26.419435],[-57.804133,-26.421121],[-57.801766,-26.423908],[-57.801644,-26.424525],[-57.802304,-26.426839],[-57.804119,-26.428902],[-57.805826,-26.429613],[-57.814843,-26.431093],[-57.821774,-26.434658],[-57.823676,-26.434737],[-57.831706,-26.431086],[-57.837587,-26.427808],[-57.839186,-26.427529],[-57.840988,-26.427608],[-57.843599,-26.428854],[-57.845805,-26.429472],[-57.8494,-26.428369],[-57.850495,-26.427642],[-57.851785,-26.426103],[-57.853087,-26.426185],[-57.855496,-26.427252],[-57.856756,-26.428506],[-57.857372,-26.430574],[-57.856584,-26.432291],[-57.85311,-26.436186],[-57.851427,-26.438629],[-57.85166,-26.443133],[-57.852979,-26.445557],[-57.854288,-26.446631],[-57.85749,-26.446521],[-57.859175,-26.444259],[-57.864751,-26.440351],[-57.867352,-26.440155],[-57.869758,-26.440681],[-57.871866,-26.441569],[-57.873676,-26.442729],[-57.87489,-26.444344],[-57.878749,-26.445131],[-57.882948,-26.444474],[-57.89391,-26.438279],[-57.90076,-26.431209],[-57.90346,-26.430921],[-57.905166,-26.431451],[-57.906978,-26.432791],[-57.908594,-26.434673],[-57.908311,-26.436927],[-57.907424,-26.438735],[-57.908008,-26.442966],[-57.909328,-26.4453],[-57.911338,-26.446368],[-57.913343,-26.446806],[-57.91955,-26.446947],[-57.923158,-26.447554],[-57.92467,-26.448896],[-57.925285,-26.450784],[-57.924609,-26.453761],[-57.922718,-26.455125],[-57.920818,-26.455408],[-57.917514,-26.455339],[-57.915008,-26.454814],[-57.91401,-26.455271],[-57.913616,-26.455995],[-57.913927,-26.457434],[-57.91574,-26.458774],[-57.918352,-26.460019],[-57.924921,-26.461508],[-57.929047,-26.464274],[-57.93045,-26.464445],[-57.932047,-26.463804],[-57.934035,-26.462079],[-57.936613,-26.459089],[-57.941485,-26.455003],[-57.944881,-26.454169],[-57.947686,-26.454421],[-57.952759,-26.45664],[-57.954473,-26.45816],[-57.956217,-26.463194],[-57.956134,-26.465357],[-57.95515,-26.467346],[-57.950371,-26.470531],[-57.946594,-26.47389],[-57.945804,-26.475156],[-57.946013,-26.476326],[-57.94712,-26.47704],[-57.95276,-26.47493],[-57.964854,-26.472596],[-57.967745,-26.471135],[-57.969038,-26.470135],[-57.969514,-26.467249],[-57.970199,-26.465352],[-57.971592,-26.464261],[-57.972988,-26.463621],[-57.974889,-26.463518],[-57.975998,-26.464502],[-57.977673,-26.467283],[-57.977486,-26.468816],[-57.974915,-26.472618],[-57.974927,-26.473969],[-57.976136,-26.474952],[-57.979855,-26.476639],[-57.981668,-26.477888],[-57.983291,-26.481604],[-57.983059,-26.483574],[-57.982323,-26.485802],[-57.981099,-26.487622],[-57.97941,-26.489165],[-57.979292,-26.491173],[-57.980008,-26.492309],[-57.981747,-26.493114],[-57.983516,-26.493231],[-57.985147,-26.49264],[-57.987794,-26.492547],[-57.98928,-26.492921],[-57.990909,-26.493778],[-57.99232,-26.500068],[-57.993998,-26.501058],[-57.999391,-26.501644],[-58.00756,-26.504935],[-58.010177,-26.507572],[-58.011761,-26.510732],[-58.012166,-26.513981],[-58.010462,-26.515505],[-58.00988,-26.516478],[-58.009643,-26.517245],[-58.010452,-26.518141],[-58.01826,-26.518575],[-58.022275,-26.51988],[-58.024907,-26.521822],[-58.027158,-26.522774],[-58.028728,-26.52292],[-58.03398,-26.523043],[-58.035878,-26.522283],[-58.037391,-26.521245],[-58.039995,-26.520298],[-58.042393,-26.519962],[-58.045872,-26.520647],[-58.049572,-26.522028],[-58.05499,-26.525312],[-58.058016,-26.526717],[-58.06101,-26.527053],[-58.062213,-26.528511],[-58.062446,-26.529486],[-58.060567,-26.530132],[-58.060425,-26.532001],[-58.06213,-26.533367],[-58.066757,-26.534524],[-58.069447,-26.534859],[-58.071791,-26.534933],[-58.074297,-26.534458],[-58.078104,-26.534313],[-58.079919,-26.535265],[-58.08078,-26.536273],[-58.079647,-26.538626],[-58.079832,-26.540762],[-58.080905,-26.54226],[-58.083221,-26.544471],[-58.085509,-26.544854],[-58.086842,-26.544084],[-58.08736,-26.541945],[-58.088811,-26.538466],[-58.092025,-26.532988],[-58.093162,-26.531215],[-58.094201,-26.530457],[-58.095609,-26.530355],[-58.097255,-26.531104],[-58.099209,-26.536494],[-58.101115,-26.538301],[-58.104739,-26.539767],[-58.110097,-26.5414],[-58.113733,-26.541697],[-58.11714,-26.541523],[-58.119685,-26.541886],[-58.12475,-26.54446],[-58.127851,-26.545573],[-58.1317,-26.545762],[-58.134501,-26.545337],[-58.138918,-26.546003],[-58.139947,-26.546902],[-58.140385,-26.549009],[-58.140268,-26.550767],[-58.137453,-26.556054],[-58.137241,-26.557554],[-58.137541,-26.558717],[-58.139054,-26.559786],[-58.13989,-26.560917],[-58.14049,-26.562849],[-58.140416,-26.564913],[-58.141404,-26.569416],[-58.139012,-26.573472],[-58.137635,-26.574444],[-58.134477,-26.575246],[-58.133153,-26.575964],[-58.132492,-26.576646],[-58.132099,-26.578117],[-58.137065,-26.584825],[-58.139163,-26.586653],[-58.141119,-26.586167],[-58.142335,-26.583412],[-58.142809,-26.581149],[-58.147751,-26.578252],[-58.152576,-26.57759],[-58.15517,-26.578396],[-58.157431,-26.580206],[-58.158959,-26.584682],[-58.158989,-26.587672],[-58.157812,-26.591725],[-58.156102,-26.594098],[-58.153741,-26.595706],[-58.152351,-26.59791],[-58.153425,-26.599222],[-58.165676,-26.600337],[-58.170622,-26.601756],[-58.171297,-26.603134],[-58.172798,-26.60137],[-58.179792,-26.59648],[-58.18261,-26.595706],[-58.184978,-26.596103],[-58.187219,-26.597709],[-58.189958,-26.602727],[-58.196172,-26.604783],[-58.192605,-26.593666],[-58.196885,-26.584738],[-58.198174,-26.567007],[-58.202462,-26.557246],[-58.218678,-26.545705],[-58.223275,-26.539977],[-58.224894,-26.534981],[-58.225153,-26.531421],[-58.224353,-26.527885],[-58.216418,-26.514706],[-58.20955,-26.504933],[-58.207657,-26.501602],[-58.207388,-26.50048],[-58.207788,-26.495692],[-58.208353,-26.494415],[-58.210857,-26.491164],[-58.214488,-26.488378]]]}}]}
