{"type":"FeatureCollection","name":"distrito","features":[{"type":"Feature","properties":{"clave":"9-9","nombre":"Caballero"},"geometry":{"type":"Polygon","coordinates":[[[-56.883616,-25.877871],[-56.886939,-25.888759],[-56.896219,-25.888774],[-56.908655,-25.883974],[-56.926669,-25.876119],[-56.954027,-25.868762],[-56.952627,-25.8657],[-56.94999,-25.862921],[-56.948945,-25.861008],[-56.948435,-25.859242],[-56.946521,-25.858737],[-56.946842,-25.857346],[-56.96425,-25.842729],[-56.967444,-25.842994],[-56.969944,-25.84411],[-56.972198,-25.845894],[-56.973958,-25.84835],[-56.975085,-25.849271],[-56.979064,-25.851376],[-56.981811,-25.852239],[-56.987235,-25.851219],[-56.997716,-25.846587],[-56.996378,-25.84474],[-56.996261,-25.843503],[-56.995824,-25.842632],[-56.993172,-25.842076],[-56.991948,-25.842103],[-56.98947,-25.841232],[-56.988013,-25.839679],[-56.987547,-25.838568],[-56.984516,-25.83622],[-56.981951,-25.836775],[-56.980232,-25.836011],[-56.978076,-25.833505],[-56.977202,-25.831762],[-56.975861,-25.830868],[-56.973559,-25.830231],[-56.971199,-25.828623],[-56.966778,-25.824022],[-56.966981,-25.818996],[-56.967351,-25.817183],[-56.96654,-25.813587],[-56.966716,-25.809948],[-56.968091,-25.807308],[-56.966796,-25.801933],[-56.967164,-25.801189],[-56.964459,-25.796317],[-56.95859,-25.791498],[-56.952549,-25.785572],[-56.948216,-25.781972],[-56.947929,-25.776242],[-56.94913,-25.773994],[-56.960419,-25.758231],[-56.960065,-25.758005],[-56.959285,-25.756023],[-56.957869,-25.75446],[-56.957515,-25.753647],[-56.956015,-25.754062],[-56.952755,-25.753267],[-56.95211,-25.752458],[-56.94911,-25.752326],[-56.948236,-25.751455],[-56.945944,-25.75172],[-56.942809,-25.751191],[-56.942206,-25.750549],[-56.942403,-25.750021],[-56.942179,-25.748621],[-56.941731,-25.748296],[-56.940443,-25.748539],[-56.939155,-25.748376],[-56.937475,-25.747554],[-56.93234,-25.743502],[-56.929972,-25.743984],[-56.926763,-25.745156],[-56.92483,-25.74483],[-56.923786,-25.74506],[-56.921774,-25.744783],[-56.920162,-25.741748],[-56.921753,-25.735247],[-56.922033,-25.731757],[-56.921652,-25.728539],[-56.919987,-25.726],[-56.918597,-25.725723],[-56.917653,-25.725176],[-56.917857,-25.724504],[-56.917203,-25.723686],[-56.916839,-25.721433],[-56.917011,-25.721063],[-56.918,-25.720548],[-56.918108,-25.719718],[-56.91755,-25.718602],[-56.916766,-25.718037],[-56.916842,-25.71708],[-56.916417,-25.716407],[-56.917144,-25.715992],[-56.91723,-25.715563],[-56.916833,-25.714863],[-56.915942,-25.714592],[-56.915245,-25.713562],[-56.915278,-25.712686],[-56.915933,-25.712131],[-56.915525,-25.71181],[-56.91458,-25.711787],[-56.914495,-25.710135],[-56.913505,-25.707615],[-56.913768,-25.706323],[-56.912245,-25.703225],[-56.91173,-25.703306],[-56.911666,-25.703107],[-56.912075,-25.701126],[-56.911345,-25.70052],[-56.911174,-25.699978],[-56.910766,-25.700095],[-56.910551,-25.700754],[-56.910314,-25.700578],[-56.910444,-25.699725],[-56.910165,-25.699431],[-56.909585,-25.699643],[-56.909027,-25.698984],[-56.907803,-25.698865],[-56.907439,-25.69826],[-56.906387,-25.697641],[-56.90628,-25.696959],[-56.905679,-25.696995],[-56.904091,-25.695106],[-56.902976,-25.692677],[-56.902268,-25.692694],[-56.901903,-25.692206],[-56.900851,-25.692598],[-56.900701,-25.691158],[-56.89907,-25.690005],[-56.899264,-25.6895],[-56.897632,-25.689422],[-56.894242,-25.68658],[-56.894274,-25.68565],[-56.893117,-25.681115],[-56.89134,-25.680676],[-56.891853,-25.678717],[-56.892633,-25.668474],[-56.892445,-25.668163],[-56.889072,-25.668976],[-56.882679,-25.667167],[-56.877491,-25.66667],[-56.873209,-25.665354],[-56.867803,-25.664025],[-56.864734,-25.663615],[-56.8635,-25.663105],[-56.862565,-25.662256],[-56.861185,-25.65832],[-56.861282,-25.654173],[-56.860254,-25.654214],[-56.860404,-25.652367],[-56.85849,-25.652216],[-56.857887,-25.651308],[-56.857589,-25.646702],[-56.855323,-25.646158],[-56.853417,-25.646093],[-56.84971,-25.646455],[-56.8468,-25.648267],[-56.845646,-25.648013],[-56.844227,-25.648666],[-56.842328,-25.64884],[-56.841299,-25.648564],[-56.838878,-25.649229],[-56.83725,-25.6493],[-56.832113,-25.647781],[-56.829639,-25.6459],[-56.825907,-25.644848],[-56.823447,-25.64317],[-56.823499,-25.640637],[-56.823006,-25.640285],[-56.82266,-25.638934],[-56.821229,-25.638088],[-56.821094,-25.635365],[-56.820318,-25.633997],[-56.817763,-25.632484],[-56.815086,-25.628682],[-56.812241,-25.626352],[-56.810808,-25.625527],[-56.805466,-25.623774],[-56.804485,-25.624115],[-56.802639,-25.625715],[-56.801697,-25.625989],[-56.801585,-25.627001],[-56.800928,-25.62742],[-56.800204,-25.628507],[-56.799196,-25.628605],[-56.798932,-25.62948],[-56.798516,-25.629538],[-56.79786,-25.628942],[-56.796108,-25.629395],[-56.795342,-25.628997],[-56.793941,-25.628918],[-56.793437,-25.629057],[-56.79302,-25.62963],[-56.792058,-25.629033],[-56.791247,-25.629312],[-56.791115,-25.629966],[-56.790852,-25.629907],[-56.790722,-25.62923],[-56.790371,-25.629229],[-56.790414,-25.629843],[-56.789033,-25.630577],[-56.788638,-25.631471],[-56.787576,-25.631546],[-56.78764,-25.632142],[-56.786787,-25.632005],[-56.78672,-25.632502],[-56.786195,-25.63232],[-56.785382,-25.633845],[-56.785032,-25.633885],[-56.784901,-25.63319],[-56.783962,-25.632118],[-56.783501,-25.632632],[-56.782517,-25.631877],[-56.781948,-25.631777],[-56.780875,-25.631974],[-56.780315,-25.63251],[-56.779374,-25.632568],[-56.779285,-25.633403],[-56.778475,-25.63328],[-56.778497,-25.632923],[-56.778081,-25.632764],[-56.777926,-25.634055],[-56.777006,-25.634171],[-56.777399,-25.63461],[-56.777224,-25.634926],[-56.776041,-25.635005],[-56.776281,-25.63548],[-56.776084,-25.635701],[-56.775449,-25.635501],[-56.775251,-25.635835],[-56.774814,-25.635577],[-56.774572,-25.635974],[-56.774003,-25.635697],[-56.77411,-25.636966],[-56.773847,-25.637223],[-56.773476,-25.636726],[-56.773474,-25.637701],[-56.773058,-25.637859],[-56.772662,-25.638888],[-56.770932,-25.638591],[-56.770493,-25.639182],[-56.769978,-25.639303],[-56.769519,-25.638846],[-56.769233,-25.640115],[-56.768993,-25.639559],[-56.768181,-25.640154],[-56.768246,-25.640727],[-56.76783,-25.640808],[-56.767524,-25.640293],[-56.766975,-25.641123],[-56.766406,-25.640882],[-56.76599,-25.64118],[-56.765463,-25.641897],[-56.765637,-25.642452],[-56.765089,-25.64251],[-56.764474,-25.643521],[-56.764975,-25.644953],[-56.764952,-25.645309],[-56.764514,-25.645525],[-56.76482,-25.645883],[-56.764753,-25.646501],[-56.764259,-25.647173],[-56.762834,-25.647749],[-56.762398,-25.647188],[-56.761959,-25.647251],[-56.76187,-25.647923],[-56.760796,-25.648734],[-56.759657,-25.648497],[-56.758715,-25.648988],[-56.758388,-25.648373],[-56.758342,-25.64924],[-56.764191,-25.650072],[-56.765797,-25.650959],[-56.768009,-25.65299],[-56.772066,-25.654062],[-56.777951,-25.657999],[-56.778565,-25.659973],[-56.779249,-25.661076],[-56.782816,-25.66268],[-56.787037,-25.665336],[-56.789542,-25.66827],[-56.796746,-25.67038],[-56.798332,-25.671642],[-56.79925,-25.673743],[-56.800366,-25.674828],[-56.802924,-25.676059],[-56.806296,-25.676791],[-56.806904,-25.677216],[-56.808,-25.678324],[-56.808743,-25.680045],[-56.810045,-25.681329],[-56.811473,-25.683728],[-56.812473,-25.684086],[-56.814434,-25.683944],[-56.815452,-25.68512],[-56.818637,-25.687223],[-56.819419,-25.688786],[-56.818796,-25.692091],[-56.819264,-25.69378],[-56.820656,-25.694617],[-56.824636,-25.695619],[-56.82544,-25.696171],[-56.825615,-25.696722],[-56.825289,-25.698514],[-56.826053,-25.699599],[-56.825604,-25.70447],[-56.826073,-25.706087],[-56.828795,-25.708899],[-56.830762,-25.712369],[-56.832958,-25.713491],[-56.834398,-25.715037],[-56.835006,-25.715322],[-56.836261,-25.715287],[-56.837143,-25.715947],[-56.837513,-25.718296],[-56.836871,-25.719293],[-56.835828,-25.723482],[-56.83661,-25.725293],[-56.836697,-25.726449],[-56.837403,-25.727181],[-56.840799,-25.733244],[-56.841603,-25.733868],[-56.841483,-25.735484],[-56.842011,-25.73646],[-56.841722,-25.740302],[-56.842393,-25.744601],[-56.84296,-25.745704],[-56.844038,-25.746694],[-56.845006,-25.74976],[-56.846317,-25.75145],[-56.846028,-25.757478],[-56.846808,-25.758472],[-56.846541,-25.759596],[-56.845164,-25.760452],[-56.844835,-25.76098],[-56.844859,-25.763671],[-56.844357,-25.765174],[-56.844238,-25.769513],[-56.843553,-25.770438],[-56.843615,-25.771088],[-56.844193,-25.771522],[-56.843989,-25.772168],[-56.844631,-25.77387],[-56.844637,-25.775338],[-56.843873,-25.777719],[-56.843558,-25.777802],[-56.85429,-25.799287],[-56.854424,-25.800863],[-56.856492,-25.803741],[-56.857476,-25.804022],[-56.858913,-25.803409],[-56.861609,-25.804342],[-56.864605,-25.803432],[-56.865549,-25.803397],[-56.866307,-25.80366],[-56.866676,-25.804383],[-56.8701,-25.805126],[-56.871392,-25.805687],[-56.872743,-25.805494],[-56.8715,-25.816568],[-56.87182,-25.818777],[-56.871011,-25.82125],[-56.871861,-25.826547],[-56.871507,-25.82954],[-56.871791,-25.829897],[-56.867457,-25.843885],[-56.874464,-25.851725],[-56.876244,-25.861267],[-56.881319,-25.871195],[-56.883616,-25.877871]]]}}]}
