{"type":"FeatureCollection","name":"distrito","features":[{"type":"Feature","properties":{"clave":"12-13","nombre":"Isla Umbú"},"geometry":{"type":"Polygon","coordinates":[[[-58.203843,-27.060879],[-58.307461,-27.050896],[-58.318421,-27.033672],[-58.319539,-27.033475],[-58.320627,-27.032878],[-58.320905,-27.03097],[-58.321582,-27.029926],[-58.322418,-27.029313],[-58.323481,-27.029669],[-58.325085,-27.031017],[-58.325346,-27.031655],[-58.326279,-27.031908],[-58.328102,-27.031386],[-58.32922,-27.030247],[-58.331232,-27.029578],[-58.331644,-27.029583],[-58.332552,-27.030572],[-58.333364,-27.030641],[-58.333842,-27.030131],[-58.336602,-27.029568],[-58.337152,-27.028998],[-58.337363,-27.031474],[-58.339218,-27.031506],[-58.344318,-27.030009],[-58.344795,-27.028068],[-58.34636,-27.027588],[-58.347425,-27.027641],[-58.348487,-27.02838],[-58.349807,-27.027984],[-58.35093,-27.027995],[-58.351219,-27.028227],[-58.350982,-27.028916],[-58.351266,-27.029202],[-58.353212,-27.028195],[-58.354081,-27.029125],[-58.355758,-27.027398],[-58.356745,-27.028143],[-58.358231,-27.028223],[-58.358198,-27.027452],[-58.358855,-27.026254],[-58.3596,-27.025989],[-58.360313,-27.026384],[-58.360585,-27.02806],[-58.36091,-27.02831],[-58.361844,-27.027583],[-58.362809,-27.02808],[-58.363912,-27.027631],[-58.364852,-27.027658],[-58.3673,-27.026731],[-58.369321,-27.026711],[-58.369668,-27.026165],[-58.372611,-27.027267],[-58.374073,-27.026982],[-58.374733,-27.027247],[-58.375235,-27.027061],[-58.37553,-27.026334],[-58.375782,-27.026332],[-58.376495,-27.026777],[-58.377019,-27.02831],[-58.378033,-27.028662],[-58.378404,-27.030061],[-58.378759,-27.030148],[-58.379175,-27.031139],[-58.381312,-27.030304],[-58.381308,-27.029987],[-58.382211,-27.029435],[-58.382868,-27.029519],[-58.383616,-27.028698],[-58.385034,-27.028955],[-58.384461,-27.027604],[-58.384107,-27.027562],[-58.384547,-27.026381],[-58.384993,-27.025653],[-58.385901,-27.025554],[-58.386746,-27.024414],[-58.388225,-27.02354],[-58.388793,-27.024485],[-58.389348,-27.024479],[-58.389302,-27.024842],[-58.39107,-27.024779],[-58.392147,-27.026125],[-58.393212,-27.026432],[-58.393571,-27.02688],[-58.393532,-27.027831],[-58.395202,-27.028041],[-58.39556,-27.028399],[-58.396715,-27.027845],[-58.396782,-27.029201],[-58.397784,-27.028558],[-58.398342,-27.028688],[-58.398994,-27.028365],[-58.399584,-27.027047],[-58.400698,-27.027217],[-58.400713,-27.028483],[-58.402084,-27.029058],[-58.402993,-27.028958],[-58.403248,-27.031218],[-58.403067,-27.032894],[-58.403374,-27.033207],[-58.403492,-27.034563],[-58.404568,-27.035774],[-58.40543,-27.036037],[-58.405394,-27.037213],[-58.405754,-27.037753],[-58.406714,-27.037743],[-58.407578,-27.038187],[-58.407624,-27.037779],[-58.408484,-27.037906],[-58.409186,-27.037492],[-58.409553,-27.038529],[-58.410472,-27.039334],[-58.410561,-27.040374],[-58.414484,-27.040864],[-58.418579,-27.040846],[-58.421672,-27.040462],[-58.422189,-27.039869],[-58.421411,-27.03936],[-58.421356,-27.038998],[-58.421798,-27.038044],[-58.421878,-27.036369],[-58.422481,-27.036092],[-58.423091,-27.036357],[-58.425897,-27.035177],[-58.427444,-27.035901],[-58.428914,-27.035113],[-58.432687,-27.031099],[-58.433743,-27.026891],[-58.434836,-27.025554],[-58.434576,-27.024453],[-58.436129,-27.023343],[-58.437824,-27.020387],[-58.439018,-27.019388],[-58.439558,-27.018513],[-58.441299,-27.019745],[-58.444894,-27.024217],[-58.450042,-27.028381],[-58.452276,-27.029462],[-58.453632,-27.029448],[-58.454798,-27.029969],[-58.459319,-27.030494],[-58.461463,-27.029367],[-58.465164,-27.029439],[-58.465651,-27.028992],[-58.469967,-27.028947],[-58.47306,-27.029688],[-58.474665,-27.029782],[-58.476253,-27.02866],[-58.477718,-27.029283],[-58.478723,-27.028855],[-58.480752,-27.03045],[-58.485402,-27.030331],[-58.486976,-27.030643],[-58.489125,-27.032059],[-58.492872,-27.033087],[-58.502949,-27.034635],[-58.517762,-27.012628],[-58.51805,-27.003045],[-58.511456,-26.998139],[-58.501764,-26.996602],[-58.489655,-26.998495],[-58.478856,-27.001098],[-58.470904,-26.998444],[-58.468719,-26.990628],[-58.469315,-26.983032],[-58.481103,-26.962998],[-58.493915,-26.939547],[-58.500826,-26.929698],[-58.498403,-26.924872],[-58.49435,-26.9228],[-58.474324,-26.930475],[-58.463634,-26.930338],[-58.433984,-26.915473],[-58.425151,-26.909901],[-58.412696,-26.904093],[-58.403129,-26.898899],[-58.397771,-26.896372],[-58.385861,-26.89305],[-58.385315,-26.892457],[-58.38371,-26.893794],[-58.289587,-26.903682],[-58.260004,-26.908603],[-58.255319,-26.908945],[-58.244381,-26.901183],[-58.238761,-26.896258],[-58.237817,-26.89735],[-58.236953,-26.897167],[-58.236459,-26.897506],[-58.235847,-26.897467],[-58.235543,-26.896945],[-58.235449,-26.895103],[-58.235008,-26.894884],[-58.234418,-26.895719],[-58.234051,-26.898274],[-58.234489,-26.898732],[-58.23445,-26.899131],[-58.23317,-26.898965],[-58.232524,-26.897466],[-58.232798,-26.897012],[-58.233652,-26.896916],[-58.23369,-26.896345],[-58.2321,-26.89687],[-58.231048,-26.896417],[-58.23049,-26.89653],[-58.230605,-26.897493],[-58.231459,-26.898887],[-58.230498,-26.899819],[-58.230136,-26.899783],[-58.229885,-26.899333],[-58.230721,-26.898633],[-58.229792,-26.898351],[-58.229145,-26.899944],[-58.228748,-26.900218],[-58.225139,-26.900062],[-58.224717,-26.899098],[-58.225655,-26.899153],[-58.225613,-26.898829],[-58.225098,-26.898377],[-58.224401,-26.898274],[-58.222561,-26.900289],[-58.222954,-26.901332],[-58.22185,-26.901504],[-58.220916,-26.900694],[-58.220624,-26.901047],[-58.220947,-26.902438],[-58.220308,-26.903107],[-58.220658,-26.904295],[-58.219471,-26.905197],[-58.218788,-26.90517],[-58.218454,-26.905811],[-58.218955,-26.906125],[-58.219584,-26.905808],[-58.219788,-26.90605],[-58.220129,-26.908949],[-58.219755,-26.909476],[-58.219071,-26.909532],[-58.21902,-26.910701],[-58.218657,-26.911178],[-58.218127,-26.911133],[-58.2174,-26.910417],[-58.217601,-26.912099],[-58.217385,-26.912534],[-58.216777,-26.912549],[-58.216365,-26.911789],[-58.215379,-26.912922],[-58.214256,-26.913274],[-58.212924,-26.912261],[-58.212623,-26.913817],[-58.210956,-26.913948],[-58.210928,-26.914513],[-58.211896,-26.914744],[-58.211984,-26.915009],[-58.210231,-26.91608],[-58.2101,-26.917332],[-58.209299,-26.917488],[-58.208294,-26.916548],[-58.207588,-26.916636],[-58.207826,-26.917464],[-58.20768,-26.918743],[-58.206411,-26.920649],[-58.205925,-26.920803],[-58.205753,-26.92061],[-58.206001,-26.919741],[-58.204215,-26.920054],[-58.203307,-26.922757],[-58.202913,-26.923184],[-58.202346,-26.921497],[-58.200559,-26.922257],[-58.200874,-26.92424],[-58.200275,-26.924033],[-58.199705,-26.922846],[-58.198479,-26.921683],[-58.198099,-26.921727],[-58.196972,-26.923465],[-58.196981,-26.924761],[-58.198613,-26.926209],[-58.197387,-26.92816],[-58.196787,-26.928531],[-58.196156,-26.928527],[-58.196438,-26.927266],[-58.194994,-26.927084],[-58.195238,-26.92942],[-58.194651,-26.929271],[-58.193956,-26.928338],[-58.193636,-26.928332],[-58.194063,-26.929999],[-58.193714,-26.931676],[-58.193111,-26.931582],[-58.192953,-26.930672],[-58.191728,-26.931169],[-58.19172,-26.930438],[-58.191477,-26.93044],[-58.190993,-26.931812],[-58.192125,-26.931622],[-58.19251,-26.932684],[-58.192377,-26.933163],[-58.191887,-26.933168],[-58.190747,-26.932455],[-58.190381,-26.93184],[-58.189751,-26.932098],[-58.190272,-26.933574],[-58.191047,-26.934172],[-58.191125,-26.934569],[-58.190701,-26.934911],[-58.190141,-26.93455],[-58.189456,-26.935138],[-58.189863,-26.936001],[-58.189256,-26.937419],[-58.188518,-26.937579],[-58.187811,-26.936971],[-58.187257,-26.937292],[-58.187111,-26.937992],[-58.188003,-26.938427],[-58.188191,-26.938877],[-58.186997,-26.939451],[-58.186754,-26.9399],[-58.18699,-26.94035],[-58.187564,-26.939889],[-58.188049,-26.940183],[-58.18845,-26.942161],[-58.188271,-26.944392],[-58.187708,-26.944826],[-58.18637,-26.945076],[-58.18668,-26.945922],[-58.186402,-26.946403],[-58.18464,-26.946829],[-58.1837,-26.947906],[-58.182236,-26.948158],[-58.182074,-26.94848],[-58.18232,-26.950197],[-58.182672,-26.950677],[-58.183772,-26.950876],[-58.184728,-26.95057],[-58.184998,-26.950762],[-58.184704,-26.952511],[-58.183795,-26.953137],[-58.184372,-26.95427],[-58.186419,-26.954808],[-58.184572,-26.956881],[-58.184799,-26.958306],[-58.185948,-26.959438],[-58.186562,-26.95951],[-58.186787,-26.959043],[-58.187711,-26.959662],[-58.187294,-26.960352],[-58.185237,-26.961344],[-58.184839,-26.962192],[-58.18486,-26.964647],[-58.183218,-26.96555],[-58.182874,-26.966244],[-58.183543,-26.966811],[-58.184486,-26.966483],[-58.184764,-26.96783],[-58.186097,-26.969272],[-58.186811,-26.969411],[-58.187631,-26.96911],[-58.187984,-26.969423],[-58.188407,-26.971645],[-58.186584,-26.975398],[-58.184923,-26.975322],[-58.184815,-26.976817],[-58.183416,-26.978187],[-58.181719,-26.9784],[-58.179458,-26.980513],[-58.177772,-26.981403],[-58.176731,-26.981479],[-58.175283,-26.983021],[-58.173824,-26.983864],[-58.172833,-26.983845],[-58.172142,-26.981671],[-58.170651,-26.980884],[-58.169811,-26.981031],[-58.1691,-26.982224],[-58.16821,-26.98239],[-58.166544,-26.982322],[-58.165438,-26.981835],[-58.162941,-26.981436],[-58.157059,-26.981516],[-58.155393,-26.982518],[-58.153491,-26.985269],[-58.151597,-26.985578],[-58.149853,-26.987713],[-58.147133,-26.989505],[-58.146356,-26.992323],[-58.146515,-26.994096],[-58.145475,-26.995251],[-58.145368,-26.99587],[-58.146442,-26.998105],[-58.147329,-26.998734],[-58.146834,-26.99997],[-58.147997,-27.000457],[-58.148389,-27.001398],[-58.149296,-27.001377],[-58.151152,-27.002589],[-58.151012,-27.004269],[-58.151645,-27.006778],[-58.150666,-27.009215],[-58.149871,-27.010061],[-58.14841,-27.010619],[-58.14714,-27.009903],[-58.144276,-27.009678],[-58.143544,-27.009124],[-58.142743,-27.007451],[-58.141762,-27.007225],[-58.140178,-27.007386],[-58.138193,-27.008251],[-58.137926,-27.009688],[-58.137547,-27.010111],[-58.136095,-27.010448],[-58.133335,-27.011694],[-58.131562,-27.011302],[-58.130178,-27.011498],[-58.128776,-27.011094],[-58.127291,-27.012121],[-58.126179,-27.012374],[-58.125423,-27.012335],[-58.124017,-27.011439],[-58.12257,-27.011477],[-58.121805,-27.011837],[-58.119326,-27.014415],[-58.118604,-27.0169],[-58.11787,-27.018204],[-58.117127,-27.018643],[-58.113508,-27.019301],[-58.113065,-27.018911],[-58.113099,-27.017927],[-58.112702,-27.017734],[-58.111433,-27.018255],[-58.108314,-27.018398],[-58.105584,-27.019578],[-58.146167,-27.041413],[-58.203843,-27.060879]]]}}]}
