{"type":"FeatureCollection","name":"distrito","features":[{"type":"Feature","properties":{"clave":"13-1","nombre":"Bella Vista"},"geometry":{"type":"Polygon","coordinates":[[[-56.67675,-22.83235],[-56.672154,-22.82969],[-56.668087,-22.828511],[-56.666324,-22.828286],[-56.666507,-22.82606],[-56.666146,-22.824447],[-56.667444,-22.822724],[-56.667499,-22.821721],[-56.668859,-22.820301],[-56.668589,-22.81975],[-56.664424,-22.816006],[-56.66338,-22.816031],[-56.660029,-22.816895],[-56.656587,-22.816233],[-56.654228,-22.816296],[-56.653458,-22.815906],[-56.652345,-22.814318],[-56.652725,-22.81248],[-56.652158,-22.809742],[-56.650941,-22.808402],[-56.651791,-22.80643],[-56.650031,-22.805469],[-56.649068,-22.802364],[-56.649583,-22.800865],[-56.655417,-22.795914],[-56.657267,-22.79496],[-56.66093,-22.794178],[-56.661421,-22.793714],[-56.662639,-22.79088],[-56.662925,-22.789092],[-56.661829,-22.78492],[-56.662384,-22.779836],[-56.662273,-22.778693],[-56.661536,-22.776776],[-56.662523,-22.774474],[-56.662268,-22.772017],[-56.664616,-22.771421],[-56.665246,-22.769778],[-56.667138,-22.768508],[-56.667337,-22.76784],[-56.666558,-22.766687],[-56.666788,-22.766493],[-56.669134,-22.766887],[-56.66975,-22.766463],[-56.668973,-22.764524],[-56.667878,-22.764205],[-56.66836,-22.763439],[-56.666997,-22.761891],[-56.667959,-22.760836],[-56.667952,-22.75963],[-56.668612,-22.758421],[-56.66849,-22.75688],[-56.668126,-22.756532],[-56.667541,-22.756802],[-56.667362,-22.757759],[-56.666964,-22.758165],[-56.666151,-22.758163],[-56.665224,-22.757506],[-56.665267,-22.756874],[-56.665644,-22.756527],[-56.668806,-22.755662],[-56.669371,-22.755261],[-56.668277,-22.749906],[-56.6678,-22.749169],[-56.666155,-22.74795],[-56.664352,-22.747314],[-56.66377,-22.746717],[-56.666431,-22.743655],[-56.666954,-22.742396],[-56.66775,-22.736183],[-56.667046,-22.733363],[-56.668562,-22.72903],[-56.668335,-22.727281],[-56.669346,-22.725603],[-56.669086,-22.724925],[-56.66782,-22.724742],[-56.66711,-22.723557],[-56.665652,-22.723152],[-56.665531,-22.722885],[-56.666086,-22.722588],[-56.667118,-22.722613],[-56.670054,-22.724376],[-56.671411,-22.724185],[-56.67342,-22.725548],[-56.676121,-22.722839],[-56.676571,-22.721508],[-56.676171,-22.718833],[-56.673859,-22.716218],[-56.67236,-22.712877],[-56.672543,-22.711165],[-56.673581,-22.710182],[-56.678948,-22.709846],[-56.682215,-22.712232],[-56.683761,-22.712823],[-56.690004,-22.71311],[-56.691513,-22.712517],[-56.694708,-22.709456],[-56.696012,-22.709265],[-56.696304,-22.708461],[-56.695603,-22.706242],[-56.69553,-22.703473],[-56.697281,-22.701859],[-56.69782,-22.700596],[-56.699076,-22.700711],[-56.698714,-22.700078],[-56.698995,-22.699532],[-56.700765,-22.698587],[-56.70192,-22.697035],[-56.701158,-22.695909],[-56.699937,-22.695229],[-56.696394,-22.695304],[-56.695464,-22.695903],[-56.694908,-22.695757],[-56.694922,-22.695202],[-56.695862,-22.694508],[-56.695651,-22.693988],[-56.694738,-22.693887],[-56.695198,-22.693522],[-56.695787,-22.692059],[-56.695821,-22.691039],[-56.694404,-22.690395],[-56.694674,-22.688747],[-56.693705,-22.688849],[-56.692952,-22.690171],[-56.692659,-22.690165],[-56.692484,-22.68975],[-56.693827,-22.684616],[-56.694425,-22.683705],[-56.69417,-22.682219],[-56.698722,-22.680556],[-56.699377,-22.678954],[-56.700506,-22.677998],[-56.701108,-22.678293],[-56.704104,-22.676966],[-56.703982,-22.67646],[-56.702975,-22.676643],[-56.702628,-22.676385],[-56.703983,-22.674933],[-56.703812,-22.67337],[-56.70414,-22.672377],[-56.703629,-22.671012],[-56.708473,-22.667977],[-56.708749,-22.667232],[-56.708495,-22.665361],[-56.709354,-22.664076],[-56.710384,-22.66387],[-56.712258,-22.665025],[-56.713243,-22.664896],[-56.713467,-22.664173],[-56.713041,-22.662926],[-56.713518,-22.661621],[-56.714066,-22.660922],[-56.715344,-22.660477],[-56.715371,-22.658616],[-56.716319,-22.657019],[-56.717538,-22.65661],[-56.718944,-22.65701],[-56.719477,-22.656903],[-56.719747,-22.656293],[-56.719604,-22.655227],[-56.722316,-22.654157],[-56.723041,-22.65335],[-56.723617,-22.650939],[-56.72439,-22.650877],[-56.724975,-22.651853],[-56.725718,-22.652257],[-56.726291,-22.652163],[-56.72672,-22.651653],[-56.726699,-22.650867],[-56.725862,-22.650003],[-56.723306,-22.649384],[-56.722688,-22.648805],[-56.722129,-22.646984],[-56.7217,-22.640845],[-56.720843,-22.639881],[-56.718196,-22.638327],[-56.718227,-22.63783],[-56.718842,-22.637059],[-56.719732,-22.636622],[-56.718752,-22.634448],[-56.719352,-22.634499],[-56.720116,-22.633976],[-56.720092,-22.633466],[-56.71938,-22.633266],[-56.719236,-22.632611],[-56.719608,-22.631943],[-56.720306,-22.631524],[-56.72059,-22.629966],[-56.720211,-22.629071],[-56.721228,-22.627704],[-56.720149,-22.626442],[-56.720004,-22.625846],[-56.720264,-22.62544],[-56.72106,-22.625509],[-56.721183,-22.625039],[-56.720491,-22.624035],[-56.719735,-22.623573],[-56.715603,-22.62264],[-56.715341,-22.622066],[-56.715585,-22.621339],[-56.717755,-22.619301],[-56.719283,-22.616761],[-56.71984,-22.615226],[-56.71824,-22.609351],[-56.719197,-22.60723],[-56.720103,-22.604025],[-56.719968,-22.602335],[-56.721175,-22.6003],[-56.723155,-22.598985],[-56.722665,-22.597972],[-56.722808,-22.597593],[-56.724289,-22.596854],[-56.726844,-22.593345],[-56.72701,-22.592433],[-56.727621,-22.592262],[-56.72677,-22.590314],[-56.727733,-22.589651],[-56.727598,-22.588066],[-56.726017,-22.585136],[-56.72567,-22.583207],[-56.726504,-22.582147],[-56.72636,-22.579563],[-56.727191,-22.57834],[-56.726396,-22.57795],[-56.726272,-22.57692],[-56.726854,-22.576564],[-56.727955,-22.574836],[-56.729363,-22.573664],[-56.728787,-22.570903],[-56.730509,-22.568815],[-56.730344,-22.568164],[-56.729202,-22.56702],[-56.729385,-22.565972],[-56.728668,-22.563676],[-56.728596,-22.561083],[-56.73081,-22.55858],[-56.733215,-22.557572],[-56.735374,-22.55707],[-56.73578,-22.556669],[-56.736808,-22.554213],[-56.736747,-22.551909],[-56.737757,-22.549698],[-56.737067,-22.54667],[-56.737512,-22.545939],[-56.738266,-22.545511],[-56.73869,-22.543814],[-56.738432,-22.543136],[-56.736028,-22.540684],[-56.7352,-22.539454],[-56.734816,-22.538405],[-56.735035,-22.536779],[-56.733333,-22.53473],[-56.73255,-22.532597],[-56.732729,-22.530461],[-56.733991,-22.529749],[-56.73453,-22.529082],[-56.733942,-22.526176],[-56.735006,-22.524719],[-56.733116,-22.523695],[-56.73104,-22.521677],[-56.730685,-22.520412],[-56.731422,-22.518647],[-56.728672,-22.515444],[-56.727705,-22.513315],[-56.72654,-22.512708],[-56.724392,-22.512429],[-56.724863,-22.511932],[-56.723289,-22.510832],[-56.722629,-22.509426],[-56.722646,-22.507339],[-56.7222,-22.506846],[-56.723643,-22.503095],[-56.723535,-22.502192],[-56.722557,-22.501061],[-56.723303,-22.499323],[-56.722849,-22.499042],[-56.722234,-22.49914],[-56.721383,-22.498412],[-56.721458,-22.497228],[-56.719744,-22.495983],[-56.720359,-22.493911],[-56.719098,-22.492572],[-56.718775,-22.491704],[-56.719208,-22.491176],[-56.719812,-22.489063],[-56.720386,-22.489015],[-56.72037,-22.488486],[-56.717482,-22.486164],[-56.716754,-22.483005],[-56.717045,-22.48072],[-56.715917,-22.479454],[-56.715454,-22.477872],[-56.718048,-22.477434],[-56.718438,-22.47696],[-56.717353,-22.475992],[-56.717232,-22.474686],[-56.716346,-22.474567],[-56.716829,-22.473958],[-56.716826,-22.473651],[-56.716305,-22.47351],[-56.716096,-22.473094],[-56.716482,-22.470823],[-56.715101,-22.469442],[-56.716014,-22.466752],[-56.715971,-22.46611],[-56.717459,-22.464803],[-56.717871,-22.463236],[-56.717878,-22.462198],[-56.71704,-22.462566],[-56.716808,-22.462083],[-56.71752,-22.460232],[-56.716822,-22.458663],[-56.714227,-22.456838],[-56.712589,-22.456303],[-56.712592,-22.455453],[-56.711068,-22.454611],[-56.710726,-22.453941],[-56.71086,-22.451647],[-56.710144,-22.450214],[-56.708775,-22.4498],[-56.70584,-22.450125],[-56.705159,-22.44988],[-56.703507,-22.447731],[-56.703266,-22.445594],[-56.70272,-22.44483],[-56.701841,-22.444394],[-56.701514,-22.443599],[-56.70027,-22.442842],[-56.698859,-22.440414],[-56.693632,-22.438539],[-56.689875,-22.437511],[-56.688371,-22.437368],[-56.688317,-22.43664],[-56.686241,-22.434567],[-56.682412,-22.432541],[-56.68129,-22.433194],[-56.681169,-22.434286],[-56.680134,-22.434452],[-56.67876,-22.433288],[-56.678163,-22.431534],[-56.677095,-22.431324],[-56.67323,-22.429528],[-56.671638,-22.430139],[-56.668082,-22.430398],[-56.666961,-22.428521],[-56.66553,-22.42743],[-56.661104,-22.426363],[-56.659285,-22.423835],[-56.657422,-22.423668],[-56.655346,-22.424057],[-56.651916,-22.423923],[-56.650709,-22.423035],[-56.648658,-22.42215],[-56.648325,-22.421503],[-56.64839,-22.419859],[-56.64915,-22.418984],[-56.649353,-22.41823],[-56.649148,-22.41753],[-56.648249,-22.416466],[-56.648684,-22.414087],[-56.647402,-22.411722],[-56.647591,-22.410362],[-56.647253,-22.409309],[-56.646015,-22.407604],[-56.646393,-22.406033],[-56.645993,-22.404049],[-56.646838,-22.401783],[-56.646263,-22.400915],[-56.646183,-22.39988],[-56.646574,-22.398982],[-56.646108,-22.397576],[-56.646096,-22.395688],[-56.646756,-22.393386],[-56.645862,-22.392729],[-56.646161,-22.391668],[-56.645149,-22.390202],[-56.645896,-22.389034],[-56.646004,-22.387372],[-56.64543,-22.386363],[-56.644353,-22.385792],[-56.64489,-22.384519],[-56.644167,-22.383967],[-56.64365,-22.382773],[-56.642731,-22.382378],[-56.642165,-22.381699],[-56.640088,-22.381573],[-56.637909,-22.379756],[-56.634533,-22.379243],[-56.631804,-22.377827],[-56.623975,-22.375569],[-56.621808,-22.374534],[-56.620656,-22.373452],[-56.617544,-22.371525],[-56.612303,-22.368996],[-56.610309,-22.366878],[-56.609426,-22.365286],[-56.826067,-22.295926],[-56.825138,-22.29473],[-56.823213,-22.29004],[-56.819908,-22.286666],[-56.817727,-22.287883],[-56.816304,-22.288297],[-56.815077,-22.288061],[-56.81165,-22.286612],[-56.810661,-22.286502],[-56.809111,-22.286889],[-56.808252,-22.285216],[-56.80746,-22.284407],[-56.806682,-22.284212],[-56.805132,-22.284458],[-56.803784,-22.284122],[-56.802827,-22.283502],[-56.801617,-22.281635],[-56.801663,-22.280854],[-56.803701,-22.279655],[-56.803823,-22.277749],[-56.804694,-22.276264],[-56.804867,-22.275338],[-56.807641,-22.27231],[-56.808144,-22.271209],[-56.807563,-22.269419],[-56.80398,-22.267156],[-56.803726,-22.266754],[-56.80384,-22.265498],[-56.805417,-22.262415],[-56.806033,-22.260455],[-56.80585,-22.25737],[-56.804558,-22.255015],[-56.804532,-22.25272],[-56.801813,-22.248719],[-56.797312,-22.244748],[-56.793297,-22.242407],[-56.791396,-22.241953],[-56.788934,-22.241986],[-56.785934,-22.241187],[-56.7857,-22.242045],[-56.78691,-22.243682],[-56.790187,-22.244992],[-56.789669,-22.246075],[-56.788357,-22.247533],[-56.788326,-22.247948],[-56.788916,-22.248663],[-56.788766,-22.249105],[-56.787627,-22.249817],[-56.785593,-22.248356],[-56.783087,-22.247503],[-56.782563,-22.247746],[-56.784507,-22.248914],[-56.785402,-22.251002],[-56.787205,-22.251551],[-56.788281,-22.252741],[-56.7884,-22.253586],[-56.7864,-22.254649],[-56.786457,-22.256162],[-56.784854,-22.257371],[-56.783356,-22.257536],[-56.778918,-22.2573],[-56.777823,-22.258301],[-56.777356,-22.260351],[-56.776697,-22.260508],[-56.773854,-22.25928],[-56.772516,-22.258366],[-56.772225,-22.257638],[-56.772833,-22.256618],[-56.772102,-22.254873],[-56.771602,-22.254398],[-56.770682,-22.254099],[-56.769931,-22.255331],[-56.769212,-22.255457],[-56.768383,-22.25466],[-56.76825,-22.253183],[-56.766792,-22.252603],[-56.76603,-22.251436],[-56.764968,-22.250947],[-56.764113,-22.251881],[-56.763559,-22.252074],[-56.762707,-22.251508],[-56.762381,-22.249231],[-56.763537,-22.247679],[-56.764236,-22.24558],[-56.764895,-22.245192],[-56.765674,-22.245171],[-56.767558,-22.246054],[-56.767829,-22.24525],[-56.767292,-22.244513],[-56.762542,-22.242365],[-56.757745,-22.242087],[-56.757364,-22.242236],[-56.754452,-22.246663],[-56.754017,-22.246793],[-56.753247,-22.246254],[-56.752625,-22.246719],[-56.751854,-22.246713],[-56.751204,-22.246071],[-56.751049,-22.244968],[-56.752294,-22.243398],[-56.752514,-22.241876],[-56.752173,-22.240231],[-56.751314,-22.238907],[-56.749431,-22.237106],[-56.748534,-22.236368],[-56.747054,-22.235801],[-56.746619,-22.236189],[-56.745753,-22.239115],[-56.744192,-22.241163],[-56.741108,-22.241434],[-56.739464,-22.244277],[-56.738909,-22.244637],[-56.73766,-22.244559],[-56.736172,-22.243517],[-56.735991,-22.244167],[-56.736438,-22.245252],[-56.736228,-22.245663],[-56.732102,-22.246424],[-56.730986,-22.247204],[-56.730939,-22.248107],[-56.733247,-22.250957],[-56.736529,-22.253008],[-56.736519,-22.254047],[-56.735792,-22.254918],[-56.734489,-22.255128],[-56.734059,-22.256844],[-56.731692,-22.257576],[-56.730754,-22.258456],[-56.729114,-22.259212],[-56.727174,-22.259737],[-56.72152,-22.264493],[-56.720479,-22.264889],[-56.719717,-22.264011],[-56.719539,-22.263189],[-56.72036,-22.260895],[-56.720555,-22.256925],[-56.720182,-22.256554],[-56.718715,-22.256113],[-56.714342,-22.253314],[-56.712915,-22.251911],[-56.713301,-22.250205],[-56.71464,-22.250148],[-56.714343,-22.249375],[-56.713835,-22.248909],[-56.70907,-22.247333],[-56.707851,-22.243162],[-56.706854,-22.243697],[-56.706207,-22.245508],[-56.705847,-22.245787],[-56.70352,-22.24557],[-56.703019,-22.245204],[-56.703005,-22.244463],[-56.703344,-22.243985],[-56.706347,-22.242942],[-56.706782,-22.242518],[-56.706851,-22.241782],[-56.706121,-22.240064],[-56.705717,-22.236644],[-56.705171,-22.236164],[-56.703524,-22.236572],[-56.70169,-22.236406],[-56.701474,-22.236067],[-56.701612,-22.234518],[-56.701269,-22.233903],[-56.700438,-22.234028],[-56.699314,-22.234753],[-56.698192,-22.234643],[-56.695333,-22.230875],[-56.694575,-22.228348],[-56.694906,-22.227766],[-56.696585,-22.226518],[-56.699061,-22.226961],[-56.700812,-22.226901],[-56.704016,-22.22299],[-56.704662,-22.221627],[-56.705072,-22.219252],[-56.704469,-22.217702],[-56.703535,-22.217],[-56.702869,-22.217274],[-56.701982,-22.218872],[-56.699695,-22.22085],[-56.699015,-22.220592],[-56.698472,-22.21919],[-56.697725,-22.218222],[-56.697007,-22.218176],[-56.696347,-22.218622],[-56.69704,-22.22029],[-56.69641,-22.220813],[-56.695312,-22.219916],[-56.692718,-22.218732],[-56.691971,-22.217742],[-56.691366,-22.217596],[-56.690841,-22.218096],[-56.689735,-22.220583],[-56.688974,-22.223039],[-56.688212,-22.222563],[-56.688762,-22.22083],[-56.688307,-22.220002],[-56.68708,-22.220054],[-56.682893,-22.221483],[-56.681735,-22.227325],[-56.682206,-22.227959],[-56.684381,-22.229011],[-56.684732,-22.229301],[-56.684746,-22.229807],[-56.684334,-22.230199],[-56.682403,-22.230195],[-56.6819,-22.230528],[-56.682996,-22.232337],[-56.683163,-22.234921],[-56.68022,-22.242102],[-56.68022,-22.245165],[-56.679537,-22.246352],[-56.67902,-22.246549],[-56.677483,-22.24431],[-56.676847,-22.244296],[-56.675032,-22.245846],[-56.672853,-22.249401],[-56.671529,-22.24938],[-56.669539,-22.24869],[-56.66772,-22.248988],[-56.665646,-22.252327],[-56.66428,-22.25376],[-56.663636,-22.253827],[-56.660945,-22.252466],[-56.65823,-22.254773],[-56.655772,-22.255798],[-56.654238,-22.255664],[-56.653723,-22.255283],[-56.653724,-22.254565],[-56.654983,-22.254111],[-56.654543,-22.25355],[-56.653263,-22.253493],[-56.651255,-22.254167],[-56.650662,-22.254915],[-56.652222,-22.256893],[-56.652048,-22.257231],[-56.648471,-22.260241],[-56.647418,-22.261919],[-56.642485,-22.264975],[-56.641542,-22.264643],[-56.640903,-22.26284],[-56.640537,-22.262599],[-56.63683,-22.26326],[-56.636666,-22.262939],[-56.638069,-22.261695],[-56.638746,-22.260504],[-56.637922,-22.257787],[-56.638329,-22.256916],[-56.639075,-22.251732],[-56.639398,-22.251525],[-56.639749,-22.251757],[-56.640464,-22.253118],[-56.641766,-22.253225],[-56.642284,-22.252788],[-56.643112,-22.250671],[-56.642917,-22.248064],[-56.643447,-22.245906],[-56.642433,-22.244391],[-56.639391,-22.242428],[-56.638622,-22.241532],[-56.636386,-22.240831],[-56.634651,-22.240651],[-56.633142,-22.242157],[-56.632335,-22.244621],[-56.631824,-22.245293],[-56.628991,-22.246867],[-56.627472,-22.246756],[-56.625008,-22.24203],[-56.6227,-22.241889],[-56.622025,-22.242095],[-56.621331,-22.241831],[-56.62103,-22.241054],[-56.621084,-22.238818],[-56.618493,-22.238776],[-56.617458,-22.238041],[-56.615831,-22.235707],[-56.613496,-22.234974],[-56.610332,-22.233101],[-56.608471,-22.234199],[-56.60611,-22.232052],[-56.605994,-22.23165],[-56.607016,-22.229976],[-56.607134,-22.226245],[-56.609616,-22.223338],[-56.609808,-22.220953],[-56.609312,-22.220288],[-56.607719,-22.219891],[-56.60537,-22.220351],[-56.602418,-22.220122],[-56.600483,-22.219399],[-56.599156,-22.21856],[-56.598895,-22.217656],[-56.600056,-22.214827],[-56.599861,-22.21133],[-56.599236,-22.211112],[-56.598403,-22.211548],[-56.596789,-22.215492],[-56.594936,-22.217118],[-56.594042,-22.218344],[-56.593524,-22.218447],[-56.59245,-22.214384],[-56.589817,-22.212019],[-56.587099,-22.211917],[-56.582399,-22.210862],[-56.581539,-22.21043],[-56.581326,-22.209892],[-56.581877,-22.20871],[-56.582433,-22.205636],[-56.580443,-22.204172],[-56.57691,-22.202134],[-56.575962,-22.202001],[-56.57552,-22.202519],[-56.575614,-22.20363],[-56.576596,-22.205738],[-56.576104,-22.206812],[-56.574479,-22.207417],[-56.570459,-22.207479],[-56.56924,-22.206482],[-56.568812,-22.202777],[-56.568179,-22.201899],[-56.566734,-22.201014],[-56.563977,-22.201079],[-56.562815,-22.200611],[-56.562601,-22.20019],[-56.563094,-22.198836],[-56.563028,-22.197951],[-56.560275,-22.19657],[-56.557263,-22.196815],[-56.556668,-22.196524],[-56.556378,-22.195304],[-56.557736,-22.192412],[-56.557243,-22.19078],[-56.55731,-22.187948],[-56.556675,-22.187811],[-56.554171,-22.188278],[-56.55348,-22.187174],[-56.552289,-22.186643],[-56.551725,-22.185851],[-56.552089,-22.185138],[-56.554903,-22.182322],[-56.554946,-22.181378],[-56.55369,-22.176786],[-56.556054,-22.174005],[-56.557286,-22.17063],[-56.557076,-22.169147],[-56.553442,-22.168546],[-56.55198,-22.166956],[-56.548621,-22.165962],[-56.547212,-22.163329],[-56.545531,-22.16318],[-56.542298,-22.162349],[-56.538335,-22.160599],[-56.535403,-22.160383],[-56.533306,-22.159017],[-56.532665,-22.157841],[-56.532591,-22.156729],[-56.532895,-22.156297],[-56.533854,-22.155888],[-56.535008,-22.155882],[-56.537112,-22.15803],[-56.537992,-22.157847],[-56.538249,-22.156976],[-56.53823,-22.153841],[-56.5404,-22.150983],[-56.54104,-22.149409],[-56.541063,-22.148234],[-56.540304,-22.147274],[-56.537599,-22.146711],[-56.534725,-22.146685],[-56.530771,-22.148377],[-56.529333,-22.148517],[-56.528533,-22.148099],[-56.528097,-22.147321],[-56.527867,-22.145775],[-56.528267,-22.143161],[-56.526664,-22.140297],[-56.525882,-22.140177],[-56.522039,-22.140866],[-56.519898,-22.140987],[-56.519567,-22.140778],[-56.519661,-22.138922],[-56.520045,-22.138186],[-56.520651,-22.137931],[-56.522351,-22.137936],[-56.522988,-22.137545],[-56.523016,-22.135273],[-56.524006,-22.134119],[-56.524168,-22.132358],[-56.524484,-22.131852],[-56.525109,-22.131493],[-56.526748,-22.131268],[-56.527021,-22.130875],[-56.526504,-22.129871],[-56.524945,-22.128936],[-56.523224,-22.128344],[-56.523344,-22.127771],[-56.524787,-22.125787],[-56.524809,-22.124861],[-56.524149,-22.123626],[-56.524287,-22.123265],[-56.525256,-22.122712],[-56.52536,-22.120892],[-56.524501,-22.120669],[-56.523128,-22.122133],[-56.52261,-22.122095],[-56.521636,-22.121071],[-56.521599,-22.120479],[-56.522198,-22.119745],[-56.522466,-22.11849],[-56.521035,-22.116891],[-56.519763,-22.114511],[-56.519887,-22.112691],[-56.518561,-22.111612],[-56.518905,-22.108307],[-56.516883,-22.108012],[-56.513414,-22.105106],[-56.51074,-22.104303],[-56.507765,-22.102691],[-56.507515,-22.101515],[-56.508926,-22.10044],[-56.509349,-22.099782],[-56.509145,-22.09918],[-56.507851,-22.097767],[-56.507563,-22.096154],[-56.506442,-22.095522],[-56.504296,-22.097273],[-56.502362,-22.097204],[-56.500127,-22.09647],[-56.496428,-22.093952],[-56.495412,-22.094179],[-56.492895,-22.096073],[-56.489605,-22.095498],[-56.488978,-22.093685],[-56.488602,-22.093439],[-56.487502,-22.093594],[-56.485224,-22.095055],[-56.484171,-22.095318],[-56.479817,-22.093841],[-56.476375,-22.09406],[-56.476257,-22.09219],[-56.477274,-22.091452],[-56.477538,-22.090839],[-56.476951,-22.08814],[-56.475949,-22.087369],[-56.472848,-22.087106],[-56.472747,-22.086681],[-56.47368,-22.085117],[-56.473776,-22.08434],[-56.472386,-22.082384],[-56.47156,-22.080222],[-56.470998,-22.079886],[-56.469443,-22.079963],[-56.467779,-22.080441],[-56.464673,-22.082901],[-56.46326,-22.083357],[-56.462948,-22.084617],[-56.462277,-22.084903],[-56.461765,-22.084735],[-56.46158,-22.0843],[-56.463844,-22.080676],[-56.463904,-22.079484],[-56.46176,-22.079825],[-56.457706,-22.07945],[-56.45692,-22.080378],[-56.45728,-22.082461],[-56.457125,-22.084173],[-56.454048,-22.085034],[-56.453262,-22.084797],[-56.452571,-22.084176],[-56.453729,-22.081993],[-56.45352,-22.081803],[-56.452747,-22.081958],[-56.452849,-22.080897],[-56.451736,-22.078481],[-56.45026,-22.077252],[-56.448014,-22.076517],[-56.447977,-22.07752],[-56.446952,-22.08034],[-56.446946,-22.081695],[-56.447539,-22.082478],[-56.447534,-22.085058],[-56.44625,-22.084602],[-56.444097,-22.085005],[-56.442894,-22.083298],[-56.441487,-22.082074],[-56.438529,-22.081124],[-56.43829,-22.081512],[-56.438727,-22.083045],[-56.43677,-22.084407],[-56.434753,-22.084806],[-56.434471,-22.085293],[-56.434648,-22.086445],[-56.433722,-22.086406],[-56.432378,-22.085859],[-56.431019,-22.086889],[-56.430645,-22.086133],[-56.431823,-22.084972],[-56.431367,-22.084718],[-56.430077,-22.084862],[-56.429929,-22.084609],[-56.430071,-22.084108],[-56.431351,-22.083105],[-56.431511,-22.08269],[-56.431297,-22.082522],[-56.430169,-22.082879],[-56.428422,-22.082092],[-56.425637,-22.082001],[-56.42302,-22.083175],[-56.422653,-22.08415],[-56.422956,-22.085266],[-56.421558,-22.085627],[-56.420191,-22.08382],[-56.418648,-22.079641],[-56.416345,-22.079339],[-56.410568,-22.080118],[-56.40474,-22.07735],[-56.402275,-22.080047],[-56.401067,-22.080589],[-56.399884,-22.080607],[-56.399392,-22.080262],[-56.398772,-22.078087],[-56.397737,-22.077325],[-56.39589,-22.077024],[-56.395611,-22.075921],[-56.394149,-22.075753],[-56.394173,-22.074683],[-56.393787,-22.074469],[-56.392996,-22.075315],[-56.393994,-22.07835],[-56.392795,-22.078942],[-56.39252,-22.080174],[-56.393141,-22.081992],[-56.391348,-22.08404],[-56.389961,-22.086244],[-56.390368,-22.086797],[-56.391324,-22.086376],[-56.392143,-22.086677],[-56.392649,-22.088025],[-56.391801,-22.088085],[-56.390535,-22.090117],[-56.39014,-22.090003],[-56.389837,-22.088972],[-56.389203,-22.089141],[-56.388912,-22.089614],[-56.389225,-22.090451],[-56.389144,-22.091951],[-56.389977,-22.093386],[-56.390763,-22.093587],[-56.391101,-22.094045],[-56.39152,-22.093983],[-56.391934,-22.092977],[-56.392868,-22.092407],[-56.392839,-22.091468],[-56.393352,-22.091393],[-56.394946,-22.092135],[-56.395458,-22.09435],[-56.394621,-22.096362],[-56.392781,-22.098428],[-56.393056,-22.100683],[-56.39064,-22.101623],[-56.389287,-22.103068],[-56.38748,-22.103219],[-56.386809,-22.102187],[-56.386148,-22.103205],[-56.386879,-22.104319],[-56.386774,-22.10487],[-56.386368,-22.105112],[-56.383919,-22.104963],[-56.382457,-22.103873],[-56.381571,-22.104105],[-56.380781,-22.104779],[-56.38075,-22.105348],[-56.382746,-22.107989],[-56.382774,-22.109164],[-56.383066,-22.109386],[-56.38385,-22.109109],[-56.384506,-22.10931],[-56.384365,-22.110543],[-56.383724,-22.111286],[-56.38104,-22.112671],[-56.381344,-22.113495],[-56.380393,-22.114616],[-56.379908,-22.114763],[-56.378672,-22.11423],[-56.378171,-22.114793],[-56.37828,-22.11534],[-56.379161,-22.11635],[-56.379292,-22.117227],[-56.380159,-22.118179],[-56.380456,-22.119386],[-56.379315,-22.120493],[-56.37805,-22.121066],[-56.377377,-22.12269],[-56.374201,-22.12364],[-56.372021,-22.125913],[-56.372498,-22.12689],[-56.373664,-22.127757],[-56.373454,-22.129247],[-56.370392,-22.131209],[-56.370434,-22.133486],[-56.367814,-22.136868],[-56.369535,-22.140055],[-56.371705,-22.141838],[-56.371816,-22.143248],[-56.372553,-22.143517],[-56.374211,-22.143506],[-56.37414,-22.144802],[-56.373161,-22.146582],[-56.372703,-22.14687],[-56.371657,-22.146902],[-56.370972,-22.147581],[-56.370846,-22.148132],[-56.37125,-22.148874],[-56.373929,-22.149779],[-56.372849,-22.151139],[-56.372626,-22.152737],[-56.371487,-22.152733],[-56.370131,-22.151819],[-56.369131,-22.152466],[-56.369382,-22.1551],[-56.369014,-22.15621],[-56.3662,-22.158146],[-56.366852,-22.163009],[-56.365612,-22.16412],[-56.365397,-22.165411],[-56.364414,-22.165931],[-56.363289,-22.167422],[-56.363701,-22.168489],[-56.364756,-22.169157],[-56.364815,-22.169469],[-56.363503,-22.170566],[-56.360859,-22.170714],[-56.360219,-22.172058],[-56.357721,-22.172215],[-56.357513,-22.172733],[-56.358012,-22.175288],[-56.357616,-22.175787],[-56.355844,-22.175085],[-56.354216,-22.174979],[-56.352925,-22.17398],[-56.351464,-22.174092],[-56.350311,-22.173161],[-56.349779,-22.173308],[-56.349472,-22.176595],[-56.348717,-22.179763],[-56.348013,-22.180153],[-56.345968,-22.17968],[-56.345485,-22.181914],[-56.343724,-22.182345],[-56.343227,-22.18288],[-56.343877,-22.184026],[-56.346537,-22.186593],[-56.346291,-22.187988],[-56.344868,-22.189256],[-56.342999,-22.189876],[-56.341319,-22.189553],[-56.341042,-22.18831],[-56.340183,-22.188758],[-56.339025,-22.190642],[-56.339175,-22.192417],[-56.337438,-22.193788],[-56.335801,-22.19604],[-56.33612,-22.19652],[-56.338123,-22.197151],[-56.336749,-22.198944],[-56.333339,-22.199372],[-56.330147,-22.199246],[-56.329524,-22.200983],[-56.330835,-22.202081],[-56.331056,-22.20365],[-56.330771,-22.204227],[-56.329245,-22.204604],[-56.327239,-22.203083],[-56.326426,-22.203093],[-56.326474,-22.205334],[-56.325338,-22.206485],[-56.323829,-22.207251],[-56.324027,-22.207744],[-56.325419,-22.208157],[-56.325831,-22.20856],[-56.323553,-22.21038],[-56.321283,-22.211329],[-56.322155,-22.21374],[-56.322039,-22.214268],[-56.319127,-22.214409],[-56.317543,-22.214791],[-56.316981,-22.215755],[-56.317102,-22.217739],[-56.316745,-22.218279],[-56.315201,-22.217681],[-56.313677,-22.216139],[-56.312445,-22.216003],[-56.312485,-22.21397],[-56.311979,-22.21362],[-56.310879,-22.214135],[-56.30899,-22.213919],[-56.307266,-22.214784],[-56.304644,-22.215346],[-56.304435,-22.21624],[-56.301415,-22.216656],[-56.300477,-22.217329],[-56.299461,-22.217424],[-56.29915,-22.219984],[-56.297919,-22.220403],[-56.294836,-22.220458],[-56.294501,-22.222218],[-56.294025,-22.222839],[-56.293291,-22.22308],[-56.291813,-22.222902],[-56.291046,-22.223296],[-56.29068,-22.224302],[-56.290728,-22.225445],[-56.290381,-22.225845],[-56.28908,-22.225442],[-56.287632,-22.225589],[-56.2863,-22.224928],[-56.285495,-22.225137],[-56.285085,-22.225957],[-56.285973,-22.227967],[-56.285739,-22.228571],[-56.284937,-22.229073],[-56.284675,-22.229587],[-56.285256,-22.231008],[-56.285171,-22.231527],[-56.284104,-22.231861],[-56.278222,-22.231903],[-56.277788,-22.232362],[-56.277752,-22.233129],[-56.279114,-22.233894],[-56.277982,-22.234973],[-56.277225,-22.236732],[-56.276429,-22.236588],[-56.275302,-22.235901],[-56.2743,-22.234501],[-56.272548,-22.233562],[-56.270783,-22.233175],[-56.2705,-22.233341],[-56.270662,-22.234972],[-56.270404,-22.235667],[-56.26983,-22.235845],[-56.267808,-22.235637],[-56.265225,-22.238417],[-56.263767,-22.238735],[-56.262591,-22.239484],[-56.261573,-22.239209],[-56.260318,-22.238209],[-56.257512,-22.23686],[-56.25603,-22.237038],[-56.255378,-22.237947],[-56.25238,-22.238512],[-56.250081,-22.238298],[-56.249776,-22.237244],[-56.2494,-22.236962],[-56.248302,-22.237296],[-56.247377,-22.236723],[-56.246192,-22.23693],[-56.242955,-22.235433],[-56.24153,-22.236013],[-56.238337,-22.236459],[-56.237855,-22.237401],[-56.237332,-22.237516],[-56.23782,-22.238286],[-56.237213,-22.239178],[-56.237045,-22.240053],[-56.235934,-22.240617],[-56.232482,-22.247083],[-56.232616,-22.249369],[-56.234409,-22.250362],[-56.234566,-22.250868],[-56.23428,-22.251834],[-56.233174,-22.25289],[-56.232533,-22.253086],[-56.232313,-22.253545],[-56.233134,-22.254977],[-56.234437,-22.255222],[-56.234577,-22.255742],[-56.232125,-22.258134],[-56.229118,-22.260391],[-56.228847,-22.260982],[-56.229176,-22.261873],[-56.228091,-22.263097],[-56.227466,-22.261928],[-56.226898,-22.261758],[-56.226398,-22.262068],[-56.226144,-22.262748],[-56.225107,-22.263295],[-56.222845,-22.264011],[-56.221773,-22.264019],[-56.22115,-22.264879],[-56.220199,-22.265141],[-56.221187,-22.267151],[-56.219925,-22.268613],[-56.217465,-22.268606],[-56.216285,-22.269269],[-56.214832,-22.269542],[-56.21417,-22.271973],[-56.215208,-22.272805],[-56.215169,-22.273627],[-56.214547,-22.274193],[-56.212794,-22.274247],[-56.213702,-22.274984],[-56.213476,-22.275651],[-56.211322,-22.276413],[-56.210109,-22.277902],[-56.208818,-22.277647],[-56.207523,-22.276399],[-56.205053,-22.275334],[-56.202844,-22.275482],[-56.202577,-22.276777],[-56.201293,-22.278144],[-56.199867,-22.278141],[-56.199162,-22.276159],[-56.19621,-22.273832],[-56.194613,-22.273648],[-56.194524,-22.272329],[-56.193648,-22.271172],[-56.192393,-22.27202],[-56.191491,-22.27319],[-56.190361,-22.273302],[-56.189734,-22.27384],[-56.18934,-22.276133],[-56.188641,-22.277697],[-56.189844,-22.278674],[-56.189892,-22.279176],[-56.189672,-22.279563],[-56.188785,-22.279631],[-56.188397,-22.280076],[-56.189028,-22.280942],[-56.188926,-22.281935],[-56.186924,-22.282323],[-56.186613,-22.278942],[-56.18616,-22.27857],[-56.185076,-22.278596],[-56.183537,-22.27768],[-56.182938,-22.277853],[-56.181219,-22.279968],[-56.179215,-22.280039],[-56.178214,-22.280887],[-56.17808,-22.279563],[-56.177581,-22.278974],[-56.17612,-22.279192],[-56.175669,-22.279845],[-56.174726,-22.279298],[-56.173875,-22.280301],[-56.173946,-22.281092],[-56.173313,-22.282046],[-56.173809,-22.282423],[-56.174938,-22.281738],[-56.17492,-22.282714],[-56.175279,-22.283574],[-56.174538,-22.285715],[-56.173652,-22.285548],[-56.173248,-22.286039],[-56.172682,-22.286162],[-56.171827,-22.285611],[-56.17111,-22.284492],[-56.169879,-22.284689],[-56.169256,-22.285341],[-56.169482,-22.286223],[-56.169084,-22.286912],[-56.165983,-22.288368],[-56.165466,-22.288203],[-56.165169,-22.286792],[-56.166038,-22.285694],[-56.165792,-22.285382],[-56.161914,-22.286798],[-56.161129,-22.286568],[-56.161062,-22.284481],[-56.16144,-22.282821],[-56.160966,-22.282312],[-56.159461,-22.282892],[-56.159759,-22.283444],[-56.159102,-22.283992],[-56.159409,-22.285209],[-56.158227,-22.285636],[-56.157217,-22.28513],[-56.156417,-22.283888],[-56.155158,-22.283353],[-56.15464,-22.282402],[-56.154237,-22.282666],[-56.15264,-22.282472],[-56.152254,-22.281987],[-56.151513,-22.282096],[-56.150816,-22.281781],[-56.148726,-22.282258],[-56.147593,-22.28283],[-56.14809,-22.284251],[-56.147791,-22.284615],[-56.145141,-22.28424],[-56.146117,-22.285347],[-56.145974,-22.285545],[-56.144481,-22.285506],[-56.143825,-22.284671],[-56.141523,-22.284812],[-56.1395,-22.285731],[-56.139664,-22.287969],[-56.138858,-22.289911],[-56.135909,-22.292339],[-56.133934,-22.29442],[-56.127808,-22.298949],[-56.125833,-22.299512],[-56.124121,-22.300998],[-56.122531,-22.301856],[-56.121071,-22.304662],[-56.120139,-22.30496],[-56.118602,-22.306343],[-56.116868,-22.307011],[-56.115825,-22.306675],[-56.114688,-22.306963],[-56.111653,-22.306689],[-56.111173,-22.30819],[-56.109867,-22.308608],[-56.108651,-22.309974],[-56.10798,-22.312197],[-56.106693,-22.312691],[-56.105605,-22.314009],[-56.104749,-22.314257],[-56.104248,-22.315347],[-56.104244,-22.316675],[-56.102764,-22.317024],[-56.101892,-22.317706],[-56.100222,-22.318098],[-56.09913,-22.319172],[-56.097117,-22.324197],[-56.096218,-22.325836],[-56.094327,-22.328124],[-56.093841,-22.329707],[-56.093821,-22.331021],[-56.092466,-22.33483],[-56.090653,-22.336419],[-56.089524,-22.338382],[-56.089716,-22.33972],[-56.089201,-22.341736],[-56.089558,-22.342813],[-56.088804,-22.344272],[-56.087832,-22.344723],[-56.087272,-22.345903],[-56.086331,-22.350758],[-56.093143,-22.402298],[-56.071594,-22.465685],[-56.071216,-22.466063],[-56.071238,-22.467309],[-56.070461,-22.467955],[-56.070448,-22.468389],[-56.071093,-22.469178],[-56.072252,-22.469185],[-56.072758,-22.469481],[-56.072955,-22.471136],[-56.07268,-22.471635],[-56.073867,-22.472582],[-56.07447,-22.47361],[-56.074338,-22.474125],[-56.074711,-22.474813],[-56.075766,-22.475723],[-56.075614,-22.475934],[-56.076136,-22.476023],[-56.075967,-22.47613],[-56.076349,-22.476552],[-56.076142,-22.476804],[-56.076414,-22.476833],[-56.076604,-22.477435],[-56.076211,-22.477622],[-56.076446,-22.478382],[-56.077441,-22.47851],[-56.078139,-22.479087],[-56.077613,-22.479405],[-56.07766,-22.479821],[-56.078361,-22.479685],[-56.07898,-22.48061],[-56.079549,-22.480518],[-56.079473,-22.480762],[-56.081034,-22.480748],[-56.081271,-22.481011],[-56.080996,-22.481109],[-56.081032,-22.481543],[-56.081755,-22.482035],[-56.081804,-22.481809],[-56.081952,-22.482036],[-56.082527,-22.481673],[-56.082454,-22.482052],[-56.082768,-22.482131],[-56.085267,-22.482321],[-56.08584,-22.481733],[-56.086614,-22.481584],[-56.087466,-22.481823],[-56.087767,-22.482345],[-56.088052,-22.482346],[-56.090781,-22.48158],[-56.090237,-22.482322],[-56.090785,-22.482488],[-56.091178,-22.483019],[-56.093534,-22.483335],[-56.093674,-22.483656],[-56.09485,-22.484038],[-56.096227,-22.4833],[-56.096815,-22.483642],[-56.097627,-22.483647],[-56.099751,-22.482227],[-56.100237,-22.482256],[-56.101528,-22.485552],[-56.10184,-22.487609],[-56.104542,-22.487795],[-56.107423,-22.488719],[-56.109321,-22.490676],[-56.110416,-22.49117],[-56.111294,-22.492074],[-56.112268,-22.4924],[-56.112316,-22.492865],[-56.111744,-22.493237],[-56.112597,-22.493364],[-56.112329,-22.493985],[-56.113222,-22.494085],[-56.1127,-22.494755],[-56.112818,-22.495433],[-56.114421,-22.495822],[-56.114885,-22.496439],[-56.115983,-22.496417],[-56.116072,-22.496811],[-56.11562,-22.497567],[-56.116536,-22.497297],[-56.116854,-22.498509],[-56.118025,-22.498154],[-56.118012,-22.498506],[-56.119066,-22.499068],[-56.119244,-22.499891],[-56.120506,-22.499604],[-56.120929,-22.500184],[-56.123429,-22.500234],[-56.124036,-22.500671],[-56.124532,-22.50281],[-56.125,-22.503273],[-56.127073,-22.503479],[-56.129506,-22.504476],[-56.130556,-22.505891],[-56.130675,-22.506737],[-56.131568,-22.507094],[-56.131982,-22.508094],[-56.132687,-22.508319],[-56.133701,-22.511057],[-56.135486,-22.511532],[-56.136098,-22.512448],[-56.137142,-22.512842],[-56.1376,-22.513644],[-56.138311,-22.514058],[-56.141768,-22.51489],[-56.14408,-22.514798],[-56.145212,-22.514195],[-56.147804,-22.511869],[-56.151691,-22.510475],[-56.153547,-22.510702],[-56.155815,-22.5114],[-56.158416,-22.511414],[-56.160511,-22.511899],[-56.162909,-22.513795],[-56.165257,-22.514923],[-56.166295,-22.516523],[-56.168429,-22.517604],[-56.17042,-22.520988],[-56.17023,-22.521846],[-56.171579,-22.522458],[-56.171956,-22.523593],[-56.173848,-22.525356],[-56.174852,-22.525718],[-56.175688,-22.526837],[-56.180578,-22.529288],[-56.180967,-22.529796],[-56.180932,-22.530324],[-56.180646,-22.530765],[-56.179772,-22.530621],[-56.17975,-22.531506],[-56.180901,-22.532],[-56.181278,-22.532647],[-56.182111,-22.532999],[-56.182355,-22.533823],[-56.184701,-22.534846],[-56.184706,-22.53533],[-56.184188,-22.536004],[-56.18532,-22.536462],[-56.186861,-22.539058],[-56.188791,-22.539266],[-56.189502,-22.53983],[-56.191135,-22.540434],[-56.192473,-22.541498],[-56.192569,-22.542673],[-56.193779,-22.544047],[-56.197523,-22.545236],[-56.197789,-22.546813],[-56.198505,-22.548023],[-56.197603,-22.548746],[-56.197111,-22.549913],[-56.195856,-22.549997],[-56.19489,-22.550986],[-56.194477,-22.552501],[-56.195029,-22.554112],[-56.193951,-22.55571],[-56.194772,-22.556545],[-56.195444,-22.559331],[-56.194391,-22.560261],[-56.195275,-22.560902],[-56.198331,-22.560777],[-56.198697,-22.561389],[-56.198729,-22.562568],[-56.198048,-22.563684],[-56.199178,-22.566965],[-56.200494,-22.568629],[-56.200373,-22.569509],[-56.199519,-22.570638],[-56.200056,-22.572936],[-56.199748,-22.575689],[-56.201622,-22.577017],[-56.2011,-22.579783],[-56.202635,-22.579687],[-56.203629,-22.580379],[-56.205274,-22.58092],[-56.207411,-22.580967],[-56.208381,-22.580732],[-56.209148,-22.57957],[-56.210425,-22.579053],[-56.212226,-22.580091],[-56.21257,-22.581719],[-56.213473,-22.58208],[-56.214108,-22.58183],[-56.214658,-22.581133],[-56.217816,-22.580665],[-56.219036,-22.579199],[-56.221071,-22.579204],[-56.222185,-22.577954],[-56.222408,-22.576943],[-56.225342,-22.575788],[-56.226694,-22.576024],[-56.226268,-22.576736],[-56.226716,-22.57728],[-56.227226,-22.577301],[-56.226864,-22.5779],[-56.227028,-22.578113],[-56.229694,-22.578008],[-56.229103,-22.579947],[-56.230089,-22.580228],[-56.230739,-22.581947],[-56.230377,-22.582099],[-56.228981,-22.58179],[-56.228656,-22.582172],[-56.230219,-22.583693],[-56.229749,-22.584539],[-56.230772,-22.585398],[-56.232276,-22.588626],[-56.233923,-22.589184],[-56.234044,-22.590707],[-56.235655,-22.591763],[-56.235833,-22.593254],[-56.23652,-22.594594],[-56.236299,-22.596693],[-56.234998,-22.597785],[-56.235769,-22.59815],[-56.235261,-22.598739],[-56.23629,-22.601025],[-56.236201,-22.602574],[-56.236517,-22.602982],[-56.237086,-22.603043],[-56.23918,-22.601883],[-56.239829,-22.60204],[-56.240044,-22.603418],[-56.238974,-22.605076],[-56.239228,-22.605759],[-56.238579,-22.606686],[-56.239319,-22.607114],[-56.239668,-22.60801],[-56.241959,-22.608468],[-56.242573,-22.609072],[-56.242358,-22.610245],[-56.241969,-22.610668],[-56.242042,-22.611499],[-56.241512,-22.611899],[-56.24143,-22.613186],[-56.239811,-22.614668],[-56.239656,-22.615205],[-56.239962,-22.616146],[-56.241929,-22.617772],[-56.242789,-22.617876],[-56.243541,-22.618765],[-56.245289,-22.619626],[-56.245788,-22.62036],[-56.245961,-22.621802],[-56.248164,-22.62263],[-56.249838,-22.623103],[-56.25086,-22.623045],[-56.253448,-22.622284],[-56.253635,-22.621278],[-56.254272,-22.621317],[-56.254172,-22.622373],[-56.254878,-22.622697],[-56.254362,-22.623707],[-56.254725,-22.624503],[-56.254746,-22.625791],[-56.254343,-22.626308],[-56.253448,-22.626132],[-56.253172,-22.627595],[-56.253965,-22.628158],[-56.254688,-22.629476],[-56.255372,-22.630017],[-56.258892,-22.630724],[-56.261505,-22.632461],[-56.261055,-22.632699],[-56.258898,-22.632373],[-56.258753,-22.632914],[-56.25903,-22.634053],[-56.259621,-22.634734],[-56.262097,-22.635305],[-56.26257,-22.636947],[-56.262489,-22.637778],[-56.261223,-22.638494],[-56.261073,-22.638846],[-56.261325,-22.639466],[-56.262603,-22.639905],[-56.263436,-22.641386],[-56.263172,-22.643165],[-56.262061,-22.644433],[-56.26269,-22.644797],[-56.266654,-22.645367],[-56.267197,-22.645608],[-56.267947,-22.647369],[-56.268474,-22.647624],[-56.269525,-22.647521],[-56.269364,-22.648301],[-56.268844,-22.648222],[-56.268382,-22.648523],[-56.264614,-22.647792],[-56.264247,-22.648016],[-56.264057,-22.649072],[-56.263226,-22.6497],[-56.26334,-22.650306],[-56.264916,-22.650386],[-56.265325,-22.651494],[-56.265917,-22.652066],[-56.266022,-22.652428],[-56.264959,-22.653719],[-56.265857,-22.654026],[-56.266077,-22.654605],[-56.264722,-22.655114],[-56.26457,-22.655772],[-56.265553,-22.657457],[-56.265297,-22.658246],[-56.266167,-22.658892],[-56.266586,-22.65883],[-56.266531,-22.660361],[-56.267335,-22.660537],[-56.267103,-22.661109],[-56.26733,-22.661476],[-56.267923,-22.661366],[-56.267679,-22.662991],[-56.266766,-22.663221],[-56.265561,-22.664155],[-56.265257,-22.664886],[-56.26543,-22.665541],[-56.265849,-22.666022],[-56.266388,-22.666043],[-56.267381,-22.665063],[-56.269344,-22.664114],[-56.26964,-22.664599],[-56.269072,-22.667473],[-56.269304,-22.668387],[-56.271151,-22.668363],[-56.271493,-22.668943],[-56.271951,-22.669103],[-56.272471,-22.668387],[-56.273906,-22.668439],[-56.275044,-22.667478],[-56.276105,-22.667284],[-56.276381,-22.667542],[-56.275878,-22.668322],[-56.276685,-22.669888],[-56.277641,-22.670701],[-56.278833,-22.67006],[-56.278887,-22.668733],[-56.280756,-22.667671],[-56.281537,-22.667837],[-56.282913,-22.669397],[-56.282128,-22.670811],[-56.282715,-22.672318],[-56.283187,-22.672718],[-56.286658,-22.67393],[-56.288368,-22.676571],[-56.288434,-22.677791],[-56.289959,-22.67973],[-56.290737,-22.681256],[-56.290718,-22.682223],[-56.289446,-22.68326],[-56.291133,-22.686393],[-56.29148,-22.68644],[-56.291666,-22.685637],[-56.292625,-22.685596],[-56.293604,-22.687023],[-56.294387,-22.687641],[-56.295086,-22.686966],[-56.295713,-22.686865],[-56.298135,-22.687824],[-56.299894,-22.687733],[-56.301313,-22.68805],[-56.303001,-22.690461],[-56.30284,-22.69275],[-56.303046,-22.693406],[-56.303816,-22.693983],[-56.305442,-22.694554],[-56.307094,-22.693238],[-56.308854,-22.692324],[-56.31292,-22.686953],[-56.313386,-22.686978],[-56.314687,-22.687873],[-56.3148,-22.689676],[-56.315546,-22.690546],[-56.320652,-22.691733],[-56.321498,-22.691502],[-56.321196,-22.690299],[-56.321349,-22.689641],[-56.321877,-22.689607],[-56.323184,-22.690376],[-56.324043,-22.690506],[-56.326372,-22.687706],[-56.328049,-22.687636],[-56.333222,-22.690693],[-56.336875,-22.692303],[-56.33912,-22.693875],[-56.342249,-22.694498],[-56.343112,-22.696457],[-56.344311,-22.698119],[-56.344132,-22.699307],[-56.342979,-22.701953],[-56.342897,-22.705056],[-56.342074,-22.707076],[-56.342179,-22.707505],[-56.343126,-22.7083],[-56.344599,-22.708848],[-56.348087,-22.708781],[-56.348913,-22.708567],[-56.350816,-22.707378],[-56.353475,-22.706693],[-56.355175,-22.706623],[-56.356444,-22.707125],[-56.357391,-22.706506],[-56.358961,-22.706711],[-56.358871,-22.707745],[-56.357922,-22.708536],[-56.357888,-22.710388],[-56.358944,-22.711548],[-56.360173,-22.714439],[-56.362357,-22.715433],[-56.362558,-22.716513],[-56.361892,-22.717721],[-56.361908,-22.718222],[-56.362876,-22.719567],[-56.363852,-22.720091],[-56.364574,-22.720161],[-56.365517,-22.719704],[-56.366847,-22.718404],[-56.367951,-22.718937],[-56.369612,-22.718555],[-56.373252,-22.715141],[-56.374464,-22.715223],[-56.376105,-22.715866],[-56.377548,-22.715628],[-56.383516,-22.713325],[-56.38518,-22.71353],[-56.3863,-22.714298],[-56.386915,-22.715158],[-56.385169,-22.719551],[-56.384707,-22.719824],[-56.383735,-22.719563],[-56.381791,-22.718165],[-56.38091,-22.718717],[-56.380922,-22.719241],[-56.381914,-22.720487],[-56.382387,-22.723605],[-56.383316,-22.724521],[-56.384627,-22.724851],[-56.385616,-22.724358],[-56.386749,-22.723256],[-56.390606,-22.722503],[-56.391739,-22.721681],[-56.392324,-22.721895],[-56.392443,-22.724457],[-56.392928,-22.725452],[-56.392756,-22.726662],[-56.391557,-22.729065],[-56.392114,-22.731176],[-56.39183,-22.731938],[-56.390183,-22.733364],[-56.390494,-22.734684],[-56.39149,-22.735645],[-56.39095,-22.736903],[-56.391178,-22.738928],[-56.391901,-22.740566],[-56.393354,-22.741623],[-56.39613,-22.741688],[-56.397201,-22.742316],[-56.39745,-22.744408],[-56.397103,-22.747392],[-56.398065,-22.74918],[-56.398506,-22.749272],[-56.400756,-22.7483],[-56.403642,-22.748582],[-56.405206,-22.748366],[-56.406383,-22.747716],[-56.406176,-22.74631],[-56.403005,-22.744817],[-56.403083,-22.742848],[-56.404353,-22.740802],[-56.405438,-22.740725],[-56.406996,-22.741932],[-56.40851,-22.742669],[-56.411824,-22.743675],[-56.413456,-22.745118],[-56.413632,-22.747706],[-56.414708,-22.749585],[-56.414952,-22.752034],[-56.414533,-22.752967],[-56.413732,-22.753429],[-56.412796,-22.753232],[-56.411881,-22.752601],[-56.409956,-22.752237],[-56.408641,-22.75258],[-56.408448,-22.753031],[-56.408876,-22.755837],[-56.412248,-22.756608],[-56.415514,-22.758133],[-56.417942,-22.759899],[-56.41902,-22.759591],[-56.421202,-22.757589],[-56.421599,-22.75751],[-56.42538,-22.760902],[-56.42648,-22.761199],[-56.42754,-22.760489],[-56.427961,-22.760514],[-56.428852,-22.762034],[-56.430185,-22.762834],[-56.431231,-22.76515],[-56.434499,-22.768391],[-56.435931,-22.770578],[-56.438754,-22.771911],[-56.441243,-22.771947],[-56.442265,-22.772452],[-56.442545,-22.773555],[-56.441169,-22.775167],[-56.441149,-22.776021],[-56.441451,-22.777034],[-56.442711,-22.777919],[-56.443914,-22.777959],[-56.444545,-22.77765],[-56.447187,-22.770613],[-56.447737,-22.770326],[-56.449371,-22.77039],[-56.450163,-22.770113],[-56.451671,-22.767042],[-56.454539,-22.76712],[-56.455267,-22.76864],[-56.453318,-22.774211],[-56.453393,-22.774722],[-56.453952,-22.775117],[-56.455229,-22.774724],[-56.45734,-22.771863],[-56.458921,-22.770974],[-56.461289,-22.771447],[-56.462529,-22.773398],[-56.466032,-22.773798],[-56.467476,-22.775429],[-56.468363,-22.775793],[-56.469502,-22.775223],[-56.470447,-22.773257],[-56.471588,-22.772841],[-56.473156,-22.772593],[-56.476884,-22.772736],[-56.481801,-22.771967],[-56.483068,-22.772034],[-56.483931,-22.772461],[-56.484655,-22.773349],[-56.487916,-22.773897],[-56.49175,-22.776086],[-56.493921,-22.776138],[-56.495271,-22.778916],[-56.497918,-22.779855],[-56.504771,-22.783038],[-56.5052,-22.783789],[-56.504847,-22.784885],[-56.504357,-22.78553],[-56.503238,-22.786136],[-56.504364,-22.787354],[-56.508607,-22.78702],[-56.509931,-22.787439],[-56.510569,-22.788435],[-56.510547,-22.790779],[-56.507925,-22.794199],[-56.507531,-22.795219],[-56.508015,-22.800487],[-56.508678,-22.802377],[-56.513411,-22.805585],[-56.518328,-22.808021],[-56.522334,-22.808006],[-56.524954,-22.808881],[-56.526012,-22.809764],[-56.525876,-22.81265],[-56.526388,-22.814102],[-56.525723,-22.816597],[-56.525291,-22.820318],[-56.524744,-22.821197],[-56.520914,-22.822974],[-56.519765,-22.824222],[-56.520664,-22.826478],[-56.524848,-22.83155],[-56.526444,-22.834142],[-56.526174,-22.835384],[-56.522451,-22.834234],[-56.521893,-22.834427],[-56.521552,-22.835926],[-56.521896,-22.837453],[-56.521924,-22.841396],[-56.522815,-22.84214],[-56.523257,-22.843279],[-56.526501,-22.845891],[-56.530696,-22.847827],[-56.531642,-22.848607],[-56.532626,-22.850886],[-56.533149,-22.853087],[-56.53618,-22.856592],[-56.537992,-22.857681],[-56.540908,-22.857861],[-56.5438,-22.861451],[-56.543613,-22.863221],[-56.54246,-22.865458],[-56.54204,-22.865846],[-56.540295,-22.865931],[-56.539791,-22.866277],[-56.539581,-22.87082],[-56.538041,-22.876105],[-56.538325,-22.878848],[-56.538741,-22.879626],[-56.539592,-22.879849],[-56.541703,-22.879133],[-56.544326,-22.879538],[-56.545977,-22.878599],[-56.547079,-22.878864],[-56.547453,-22.879768],[-56.547214,-22.880391],[-56.545074,-22.881469],[-56.544331,-22.88227],[-56.545013,-22.88314],[-56.546377,-22.884205],[-56.548818,-22.884894],[-56.551147,-22.885989],[-56.55461,-22.885805],[-56.558178,-22.887883],[-56.558799,-22.890306],[-56.561544,-22.892075],[-56.561704,-22.894284],[-56.561435,-22.895607],[-56.560568,-22.895911],[-56.559522,-22.895484],[-56.558605,-22.894185],[-56.556153,-22.892354],[-56.555103,-22.893001],[-56.554594,-22.894915],[-56.554997,-22.895702],[-56.557101,-22.897017],[-56.559147,-22.899327],[-56.562509,-22.90037],[-56.569445,-22.901541],[-56.572812,-22.901369],[-56.575273,-22.900197],[-56.575955,-22.900922],[-56.57655,-22.902775],[-56.576912,-22.902984],[-56.57771,-22.902313],[-56.577444,-22.898315],[-56.57764,-22.897733],[-56.578158,-22.89745],[-56.579681,-22.897273],[-56.580963,-22.898153],[-56.581689,-22.898222],[-56.583507,-22.8975],[-56.585263,-22.898566],[-56.587902,-22.898378],[-56.588193,-22.899156],[-56.587156,-22.900743],[-56.584711,-22.901139],[-56.582309,-22.905545],[-56.582082,-22.906529],[-56.582845,-22.908483],[-56.583638,-22.909365],[-56.587279,-22.910658],[-56.588757,-22.911502],[-56.596027,-22.913472],[-56.596767,-22.913451],[-56.602598,-22.911031],[-56.606054,-22.909007],[-56.607438,-22.908545],[-56.61393,-22.909207],[-56.615285,-22.908926],[-56.616074,-22.906651],[-56.61742,-22.904857],[-56.617435,-22.904419],[-56.616893,-22.903252],[-56.615611,-22.902332],[-56.615547,-22.90044],[-56.615075,-22.899187],[-56.615356,-22.898682],[-56.616209,-22.898282],[-56.616211,-22.897609],[-56.614693,-22.896287],[-56.614568,-22.895898],[-56.614918,-22.895551],[-56.615561,-22.895602],[-56.616885,-22.896355],[-56.617919,-22.895879],[-56.618743,-22.895935],[-56.619118,-22.896907],[-56.618291,-22.898052],[-56.618359,-22.898649],[-56.619419,-22.89904],[-56.621793,-22.899122],[-56.622101,-22.898734],[-56.621881,-22.897442],[-56.623021,-22.894148],[-56.62358,-22.894108],[-56.625994,-22.895686],[-56.626413,-22.895601],[-56.626622,-22.895222],[-56.626124,-22.894223],[-56.624707,-22.893253],[-56.624958,-22.892888],[-56.625794,-22.892862],[-56.628432,-22.893998],[-56.62964,-22.895229],[-56.630558,-22.895231],[-56.631073,-22.894054],[-56.631194,-22.891818],[-56.631915,-22.891716],[-56.633446,-22.892849],[-56.633802,-22.89284],[-56.634252,-22.892299],[-56.63436,-22.890895],[-56.634778,-22.89058],[-56.63552,-22.890514],[-56.636563,-22.890981],[-56.637106,-22.890856],[-56.637435,-22.888919],[-56.639748,-22.886431],[-56.640396,-22.886415],[-56.640739,-22.886966],[-56.639379,-22.88793],[-56.639253,-22.888345],[-56.639586,-22.888721],[-56.641947,-22.888031],[-56.642994,-22.887075],[-56.644309,-22.887069],[-56.645998,-22.887836],[-56.649437,-22.886557],[-56.653632,-22.882804],[-56.656359,-22.88229],[-56.660796,-22.882087],[-56.663262,-22.88123],[-56.664567,-22.881124],[-56.666205,-22.881457],[-56.666465,-22.881846],[-56.666213,-22.882424],[-56.665147,-22.883063],[-56.665436,-22.884215],[-56.668223,-22.884492],[-56.670006,-22.885454],[-56.669826,-22.886334],[-56.668164,-22.887297],[-56.666144,-22.889389],[-56.667255,-22.89178],[-56.667314,-22.893474],[-56.667615,-22.893913],[-56.669295,-22.894377],[-56.670977,-22.89387],[-56.671686,-22.89454],[-56.671621,-22.895168],[-56.670763,-22.896336],[-56.671002,-22.896896],[-56.675362,-22.898301],[-56.67673,-22.89829],[-56.678204,-22.897647],[-56.679084,-22.896294],[-56.680411,-22.895949],[-56.681162,-22.896271],[-56.681443,-22.896823],[-56.68014,-22.900108],[-56.680881,-22.90044],[-56.68158,-22.900256],[-56.682156,-22.899706],[-56.68313,-22.898235],[-56.684477,-22.898252],[-56.68624,-22.899163],[-56.687065,-22.898989],[-56.687902,-22.898268],[-56.68801,-22.896746],[-56.688626,-22.896489],[-56.68972,-22.897697],[-56.69318,-22.900414],[-56.693949,-22.902155],[-56.69471,-22.902594],[-56.700507,-22.901666],[-56.702531,-22.902221],[-56.703918,-22.903163],[-56.70517,-22.903486],[-56.707692,-22.900875],[-56.708715,-22.900868],[-56.709111,-22.901519],[-56.707042,-22.902509],[-56.706539,-22.903014],[-56.706329,-22.90394],[-56.706775,-22.905006],[-56.707776,-22.905731],[-56.708694,-22.905949],[-56.709523,-22.904198],[-56.710944,-22.90337],[-56.711227,-22.902896],[-56.712617,-22.897673],[-56.713078,-22.896833],[-56.71328,-22.895005],[-56.712981,-22.893333],[-56.710111,-22.887609],[-56.711055,-22.885804],[-56.711609,-22.880453],[-56.712314,-22.877699],[-56.712024,-22.876682],[-56.711139,-22.875529],[-56.710566,-22.875239],[-56.709282,-22.87539],[-56.708427,-22.874869],[-56.707328,-22.871209],[-56.706548,-22.870105],[-56.705254,-22.869588],[-56.704839,-22.868485],[-56.705951,-22.865962],[-56.708464,-22.862254],[-56.709129,-22.85856],[-56.711661,-22.855593],[-56.712617,-22.852704],[-56.714303,-22.850367],[-56.71443,-22.849302],[-56.713705,-22.846793],[-56.713191,-22.843351],[-56.712649,-22.842934],[-56.710601,-22.843771],[-56.708765,-22.843392],[-56.707805,-22.843485],[-56.706446,-22.844617],[-56.704189,-22.845724],[-56.702948,-22.845238],[-56.696206,-22.845004],[-56.692765,-22.843642],[-56.689625,-22.842859],[-56.688648,-22.84139],[-56.687313,-22.841098],[-56.681266,-22.842527],[-56.678717,-22.843682],[-56.6776,-22.843716],[-56.677028,-22.843187],[-56.677154,-22.84241],[-56.680639,-22.83874],[-56.681059,-22.837359],[-56.67825,-22.83369],[-56.67675,-22.83235]]]}}]}
