{"type":"FeatureCollection","name":"distrito","features":[{"type":"Feature","properties":{"clave":"2-23","nombre":"San Pablo"},"geometry":{"type":"Polygon","coordinates":[[[-56.808492,-24.17883],[-56.812573,-24.191276],[-56.812571,-24.193302],[-56.811618,-24.194675],[-56.814462,-24.195298],[-56.821438,-24.19868],[-56.827368,-24.199307],[-56.830298,-24.197175],[-56.836604,-24.19732],[-56.849061,-24.200776],[-56.856417,-24.201058],[-56.888322,-24.20019],[-56.896955,-24.200196],[-56.915349,-24.197935],[-56.929987,-24.19808],[-56.9441,-24.197053],[-56.945453,-24.192302],[-56.947031,-24.189962],[-56.949734,-24.187484],[-56.952887,-24.186659],[-56.95634,-24.186866],[-56.958667,-24.185283],[-56.962346,-24.181773],[-56.965199,-24.181016],[-56.970978,-24.180604],[-56.980436,-24.178471],[-56.984189,-24.177301],[-56.986365,-24.176337],[-56.993346,-24.169796],[-57.008917,-24.174639],[-57.021901,-24.182303],[-57.088954,-24.218275],[-57.089541,-24.216585],[-57.091826,-24.214016],[-57.095395,-24.212731],[-57.096823,-24.210589],[-57.097536,-24.206734],[-57.099821,-24.205021],[-57.09925,-24.203308],[-57.093824,-24.201452],[-57.08186,-24.187982],[-57.089784,-24.132353],[-57.089054,-24.13193],[-57.08767,-24.12978],[-57.086286,-24.129323],[-57.084711,-24.129712],[-57.080142,-24.133452],[-57.077299,-24.13444],[-57.076338,-24.134088],[-57.075416,-24.133101],[-57.074261,-24.129188],[-57.075143,-24.127319],[-57.075104,-24.125944],[-57.07427,-24.124763],[-57.071356,-24.123845],[-57.069352,-24.122592],[-57.066345,-24.119668],[-57.062976,-24.119001],[-57.056875,-24.120842],[-57.051502,-24.119089],[-57.043497,-24.120208],[-57.037196,-24.118059],[-57.036389,-24.117459],[-57.036005,-24.115555],[-57.037694,-24.11351],[-57.038769,-24.111535],[-57.039076,-24.109737],[-57.03823,-24.107692],[-57.036079,-24.107234],[-57.033198,-24.108187],[-57.031728,-24.108258],[-57.026947,-24.106817],[-57.011514,-24.105377],[-57.010831,-24.103998],[-57.011923,-24.101491],[-57.014654,-24.09773],[-57.014927,-24.095348],[-57.014381,-24.092966],[-57.011718,-24.090459],[-57.007689,-24.089832],[-57.004138,-24.091462],[-57.001817,-24.093969],[-57.000588,-24.096477],[-56.999017,-24.097793],[-56.994989,-24.098357],[-56.992462,-24.096915],[-56.99137,-24.091963],[-56.990209,-24.090521],[-56.985771,-24.089205],[-56.984064,-24.089455],[-56.974026,-24.096286],[-56.971841,-24.096474],[-56.969314,-24.095095],[-56.967676,-24.092273],[-56.96679,-24.088826],[-56.96563,-24.086506],[-56.963035,-24.084876],[-56.960987,-24.085001],[-56.949651,-24.090701],[-56.94651,-24.091327],[-56.944871,-24.091076],[-56.943437,-24.090386],[-56.94146,-24.08418],[-56.939005,-24.079164],[-56.936615,-24.078787],[-56.935112,-24.080604],[-56.933676,-24.084866],[-56.929782,-24.088876],[-56.925686,-24.088372],[-56.923979,-24.088497],[-56.923023,-24.08787],[-56.921523,-24.08486],[-56.916471,-24.083604],[-56.91381,-24.081283],[-56.904325,-24.074131],[-56.90098,-24.074505],[-56.898179,-24.076886],[-56.896605,-24.080959],[-56.897013,-24.083404],[-56.896875,-24.085096],[-56.895986,-24.086913],[-56.891684,-24.0876],[-56.889295,-24.086282],[-56.886908,-24.083146],[-56.886979,-24.0802],[-56.885956,-24.078569],[-56.883567,-24.078066],[-56.877339,-24.081773],[-56.874669,-24.081548],[-56.871758,-24.079317],[-56.869619,-24.073228],[-56.866957,-24.072192],[-56.863627,-24.07374],[-56.862652,-24.076231],[-56.863621,-24.079335],[-56.863773,-24.08098],[-56.862849,-24.08303],[-56.859365,-24.085254],[-56.855985,-24.08558],[-56.853681,-24.084638],[-56.85266,-24.082145],[-56.852253,-24.079841],[-56.851282,-24.078336],[-56.849388,-24.078052],[-56.84662,-24.080165],[-56.843645,-24.084064],[-56.839284,-24.090923],[-56.837183,-24.092425],[-56.834827,-24.092329],[-56.832934,-24.091057],[-56.832783,-24.088848],[-56.83422,-24.086734],[-56.834785,-24.085042],[-56.834224,-24.083443],[-56.831718,-24.080901],[-56.830644,-24.080195],[-56.823624,-24.08329],[-56.821167,-24.08277],[-56.819484,-24.07802],[-56.819132,-24.073365],[-56.818263,-24.07233],[-56.816653,-24.071674],[-56.812519,-24.072974],[-56.80652,-24.073742],[-56.805007,-24.075494],[-56.802784,-24.076144],[-56.799807,-24.076303],[-56.79865,-24.077403],[-56.796562,-24.077155],[-56.795633,-24.074992],[-56.795105,-24.07185],[-56.793507,-24.070951],[-56.791596,-24.071193],[-56.789501,-24.075433],[-56.787945,-24.075798],[-56.78537,-24.074366],[-56.781108,-24.072688],[-56.777916,-24.068563],[-56.776273,-24.067989],[-56.770003,-24.071366],[-56.766356,-24.075947],[-56.766677,-24.076293],[-56.769552,-24.098516],[-56.771298,-24.1],[-56.773112,-24.101052],[-56.779296,-24.102049],[-56.779629,-24.103654],[-56.778348,-24.105689],[-56.776532,-24.105995],[-56.776598,-24.106798],[-56.776932,-24.107971],[-56.777805,-24.108528],[-56.780835,-24.106372],[-56.781304,-24.107422],[-56.780562,-24.108902],[-56.779956,-24.109395],[-56.78076,-24.110877],[-56.780758,-24.112112],[-56.779948,-24.113654],[-56.778872,-24.114023],[-56.776119,-24.111673],[-56.775245,-24.111363],[-56.776449,-24.114883],[-56.776446,-24.117105],[-56.775569,-24.118523],[-56.773212,-24.120619],[-56.76897,-24.123328],[-56.768026,-24.124438],[-56.769101,-24.125427],[-56.775016,-24.127287],[-56.777102,-24.12655],[-56.780666,-24.126555],[-56.785372,-24.127611],[-56.787659,-24.127244],[-56.789948,-24.126197],[-56.795055,-24.128426],[-56.797205,-24.130219],[-56.797672,-24.132565],[-56.797667,-24.135775],[-56.797596,-24.13812],[-56.796918,-24.14102],[-56.798111,-24.15244],[-56.800057,-24.155838],[-56.802138,-24.158433],[-56.803948,-24.162447],[-56.806096,-24.165845],[-56.807872,-24.171789],[-56.808492,-24.17883]]]}}]}
