{"type":"FeatureCollection","name":"distrito","features":[{"type":"Feature","properties":{"clave":"7-5","nombre":"Cambyretá"},"geometry":{"type":"Polygon","coordinates":[[[-55.814891,-27.369964],[-55.816008,-27.366033],[-55.817349,-27.365683],[-55.817941,-27.365038],[-55.819917,-27.364202],[-55.820427,-27.362315],[-55.82189,-27.361177],[-55.822345,-27.360422],[-55.823099,-27.360365],[-55.82385,-27.359898],[-55.829035,-27.358975],[-55.832808,-27.359856],[-55.834407,-27.359413],[-55.835698,-27.359397],[-55.838667,-27.357918],[-55.8412,-27.358964],[-55.842151,-27.35741],[-55.843831,-27.356792],[-55.844898,-27.355799],[-55.847871,-27.354122],[-55.848221,-27.353579],[-55.848153,-27.352545],[-55.847376,-27.350656],[-55.846816,-27.34807],[-55.846246,-27.347573],[-55.851596,-27.343654],[-55.85284,-27.342331],[-55.853784,-27.340661],[-55.854197,-27.339049],[-55.85443,-27.335075],[-55.853791,-27.332623],[-55.853139,-27.331413],[-55.85271,-27.328724],[-55.851359,-27.326988],[-55.850306,-27.324461],[-55.849481,-27.323809],[-55.849005,-27.324306],[-55.84641,-27.325278],[-55.845934,-27.325851],[-55.844076,-27.326355],[-55.842952,-27.327131],[-55.84192,-27.326739],[-55.841103,-27.326962],[-55.840168,-27.326043],[-55.83866,-27.326531],[-55.83785,-27.326908],[-55.836954,-27.327957],[-55.836141,-27.329905],[-55.834765,-27.329767],[-55.833563,-27.330768],[-55.832235,-27.331298],[-55.830773,-27.331295],[-55.829381,-27.330827],[-55.82806,-27.331299],[-55.826877,-27.330861],[-55.826145,-27.329667],[-55.822177,-27.326678],[-55.8213,-27.326377],[-55.8204,-27.326609],[-55.819338,-27.326446],[-55.818701,-27.326757],[-55.817539,-27.32514],[-55.81555,-27.324848],[-55.814417,-27.323367],[-55.812254,-27.323258],[-55.810055,-27.320495],[-55.808805,-27.319844],[-55.808075,-27.319066],[-55.807418,-27.316158],[-55.806969,-27.316068],[-55.807714,-27.315226],[-55.807324,-27.311955],[-55.806106,-27.310189],[-55.806586,-27.306068],[-55.81162,-27.306562],[-55.815508,-27.304979],[-55.825957,-27.302301],[-55.829582,-27.299031],[-55.827798,-27.297148],[-55.823349,-27.290891],[-55.822809,-27.280965],[-55.818377,-27.267272],[-55.815856,-27.266224],[-55.815601,-27.265644],[-55.815948,-27.264681],[-55.814442,-27.263517],[-55.81371,-27.261909],[-55.810768,-27.261342],[-55.807719,-27.263244],[-55.807528,-27.264713],[-55.806293,-27.267781],[-55.805125,-27.268214],[-55.802816,-27.267937],[-55.802136,-27.26696],[-55.800887,-27.265952],[-55.800647,-27.264537],[-55.79947,-27.263548],[-55.800407,-27.260604],[-55.799531,-27.25913],[-55.80047,-27.258673],[-55.800612,-27.258263],[-55.800188,-27.256905],[-55.79894,-27.256236],[-55.798034,-27.255041],[-55.79793,-27.254034],[-55.796578,-27.252984],[-55.797802,-27.250358],[-55.7967,-27.2487],[-55.747144,-27.292409],[-55.705927,-27.329501],[-55.704735,-27.330989],[-55.701695,-27.333275],[-55.686719,-27.346468],[-55.683656,-27.349458],[-55.683791,-27.350315],[-55.682901,-27.351346],[-55.682147,-27.351855],[-55.680746,-27.352087],[-55.679114,-27.353437],[-55.667155,-27.36407],[-55.667328,-27.36478],[-55.665945,-27.365143],[-55.663467,-27.366721],[-55.662177,-27.370152],[-55.672222,-27.372514],[-55.679012,-27.37506],[-55.688417,-27.382702],[-55.700563,-27.39725],[-55.714021,-27.412398],[-55.718388,-27.425194],[-55.731537,-27.443191],[-55.73613,-27.444659],[-55.7477,-27.44468],[-55.785553,-27.441238],[-55.816379,-27.426313],[-55.809738,-27.410857],[-55.807924,-27.409804],[-55.807948,-27.408856],[-55.807109,-27.407883],[-55.806444,-27.40618],[-55.806029,-27.405874],[-55.802851,-27.405283],[-55.802258,-27.40461],[-55.801181,-27.401987],[-55.79934,-27.399525],[-55.789282,-27.390849],[-55.789399,-27.388264],[-55.79005,-27.387222],[-55.794625,-27.384888],[-55.796079,-27.384657],[-55.79861,-27.382381],[-55.802077,-27.381675],[-55.803211,-27.381134],[-55.80718,-27.377639],[-55.809858,-27.374665],[-55.811217,-27.374193],[-55.811292,-27.372849],[-55.81221,-27.370916],[-55.812495,-27.371117],[-55.814891,-27.369964]]]}}]}
