{"type":"FeatureCollection","name":"distrito","features":[{"type":"Feature","properties":{"clave":"6-13","nombre":"San Juan Nepomuceno"},"geometry":{"type":"Polygon","coordinates":[[[-56.073209,-26.350422],[-56.092173,-26.34226],[-56.104082,-26.337487],[-56.071086,-26.295124],[-56.085846,-26.289981],[-56.082262,-26.290653],[-56.080567,-26.290231],[-56.077298,-26.290007],[-56.074103,-26.291075],[-56.072539,-26.29111],[-56.072018,-26.291571],[-56.071979,-26.292257],[-56.071512,-26.291884],[-56.070671,-26.289536],[-56.069516,-26.28854],[-56.06731,-26.287834],[-56.065878,-26.288155],[-56.062827,-26.286595],[-56.060542,-26.286269],[-56.058344,-26.286336],[-56.054827,-26.285572],[-56.050729,-26.283229],[-56.050483,-26.282298],[-56.049793,-26.281779],[-56.040685,-26.285471],[-56.033901,-26.270442],[-56.027606,-26.247727],[-56.015073,-26.230866],[-56.016307,-26.229814],[-56.016583,-26.229134],[-56.017977,-26.229234],[-56.019575,-26.228207],[-56.020685,-26.228119],[-56.021309,-26.228485],[-56.023312,-26.227596],[-56.04675,-26.214553],[-56.049322,-26.214628],[-56.050312,-26.214333],[-56.051895,-26.214781],[-56.053215,-26.212776],[-56.054815,-26.211617],[-56.05665,-26.210844],[-56.05916,-26.210689],[-56.060159,-26.209436],[-56.058742,-26.208158],[-56.059186,-26.207421],[-56.058133,-26.20657],[-56.059104,-26.206445],[-56.058783,-26.205174],[-56.057921,-26.20553],[-56.057308,-26.205169],[-56.058272,-26.20472],[-56.058028,-26.204023],[-56.056648,-26.203395],[-56.05636,-26.203682],[-56.056509,-26.204573],[-56.05478,-26.204047],[-56.055662,-26.203393],[-56.055682,-26.203046],[-56.054923,-26.203131],[-56.054497,-26.202036],[-56.055843,-26.201729],[-56.05472,-26.200958],[-56.055821,-26.200365],[-56.054944,-26.199267],[-56.056128,-26.198412],[-56.056035,-26.197978],[-56.055577,-26.198057],[-56.055097,-26.197548],[-56.054425,-26.197882],[-56.053712,-26.197421],[-56.052353,-26.198153],[-56.051672,-26.197169],[-56.052412,-26.196943],[-56.052297,-26.196482],[-56.050962,-26.196094],[-56.051015,-26.195607],[-56.05198,-26.195356],[-56.050693,-26.195045],[-56.049915,-26.193965],[-56.048753,-26.194396],[-56.048908,-26.19511],[-56.048443,-26.195612],[-56.047241,-26.19555],[-56.047996,-26.19505],[-56.047501,-26.19459],[-56.047091,-26.192881],[-56.04869,-26.192693],[-56.048039,-26.191944],[-56.046769,-26.191389],[-56.046564,-26.190499],[-56.046275,-26.190524],[-56.046086,-26.191331],[-56.045342,-26.191434],[-56.044425,-26.192381],[-56.043579,-26.192194],[-56.044245,-26.191558],[-56.043459,-26.191417],[-56.043999,-26.190906],[-56.043745,-26.190507],[-56.042807,-26.190903],[-56.043203,-26.191587],[-56.042858,-26.192311],[-56.042604,-26.191425],[-56.041944,-26.191186],[-56.040796,-26.191932],[-56.040084,-26.191923],[-56.041066,-26.190543],[-56.04026,-26.19057],[-56.040477,-26.188174],[-56.039382,-26.188365],[-56.039877,-26.187786],[-56.039878,-26.187312],[-56.038959,-26.187676],[-56.037959,-26.186559],[-56.038142,-26.186172],[-56.039037,-26.185708],[-56.038009,-26.185751],[-56.037763,-26.18551],[-56.038541,-26.184879],[-56.038469,-26.184265],[-56.038081,-26.183932],[-56.03778,-26.184472],[-56.037427,-26.18368],[-56.036442,-26.184219],[-56.036296,-26.18313],[-56.033761,-26.183208],[-56.03428,-26.182246],[-56.032329,-26.182205],[-56.032304,-26.181966],[-56.033321,-26.181878],[-56.033613,-26.181501],[-56.032465,-26.181498],[-56.033338,-26.180732],[-56.032998,-26.180183],[-56.032576,-26.180925],[-56.032494,-26.180229],[-56.031783,-26.180297],[-56.031455,-26.179504],[-56.030731,-26.179662],[-56.030533,-26.180546],[-56.03002,-26.180533],[-56.029806,-26.17971],[-56.028877,-26.179343],[-56.028123,-26.17955],[-56.028685,-26.178903],[-56.028592,-26.178284],[-56.026904,-26.178481],[-56.0266,-26.177066],[-56.027122,-26.175986],[-56.025832,-26.175525],[-56.025798,-26.17455],[-56.026128,-26.1742],[-56.027294,-26.17424],[-56.026665,-26.173089],[-56.026119,-26.173121],[-56.026126,-26.171492],[-56.025116,-26.172189],[-56.024101,-26.172313],[-56.023812,-26.172126],[-56.024213,-26.171722],[-56.023422,-26.171058],[-56.023853,-26.170524],[-56.024694,-26.171044],[-56.025008,-26.17082],[-56.023622,-26.169141],[-56.023764,-26.168875],[-56.024381,-26.16883],[-56.023891,-26.168271],[-56.024384,-26.168103],[-56.024269,-26.167646],[-56.025048,-26.16692],[-56.024937,-26.166703],[-56.024071,-26.166886],[-56.023891,-26.16666],[-56.024484,-26.166153],[-56.023815,-26.165413],[-56.024704,-26.164466],[-56.024536,-26.164167],[-56.023084,-26.163729],[-56.023892,-26.162466],[-56.022714,-26.163099],[-56.022534,-26.162474],[-56.021741,-26.162129],[-56.035557,-26.155752],[-56.05626,-26.156608],[-56.079332,-26.160262],[-56.102037,-26.159866],[-56.113968,-26.162168],[-56.112,-26.160616],[-56.110572,-26.160485],[-56.11001,-26.159295],[-56.11017,-26.158849],[-56.109803,-26.157664],[-56.109086,-26.157885],[-56.108118,-26.156407],[-56.107468,-26.155315],[-56.107862,-26.154306],[-56.10689,-26.153619],[-56.10642,-26.152185],[-56.106285,-26.151006],[-56.106681,-26.150651],[-56.105743,-26.149318],[-56.105295,-26.144503],[-56.105566,-26.1432],[-56.106775,-26.142016],[-56.106402,-26.140117],[-56.106795,-26.138183],[-56.106402,-26.137305],[-56.106601,-26.135568],[-56.106222,-26.135033],[-56.107018,-26.134627],[-56.106984,-26.133841],[-56.107511,-26.132824],[-56.105592,-26.130948],[-56.10328,-26.12976],[-56.104127,-26.127855],[-56.103761,-26.126919],[-56.101571,-26.125605],[-56.100922,-26.124594],[-56.098424,-26.122642],[-56.098281,-26.120749],[-56.097507,-26.119972],[-56.096055,-26.119277],[-56.0948,-26.117576],[-56.094336,-26.117316],[-56.093749,-26.117583],[-56.093017,-26.117163],[-56.091727,-26.117164],[-56.091391,-26.117654],[-56.090618,-26.117256],[-56.088488,-26.113094],[-56.08772,-26.111062],[-56.087722,-26.110087],[-56.087031,-26.109726],[-56.086557,-26.109931],[-56.083037,-26.1098],[-56.083709,-26.108572],[-56.082907,-26.106896],[-56.082295,-26.106261],[-56.080878,-26.105732],[-56.078911,-26.104352],[-56.077508,-26.102605],[-56.07646,-26.101939],[-56.075591,-26.101672],[-56.073215,-26.102167],[-56.072287,-26.101777],[-56.07087,-26.102486],[-56.07017,-26.102273],[-56.069866,-26.100759],[-56.068916,-26.099159],[-56.063878,-26.096599],[-56.062965,-26.095825],[-56.061408,-26.095531],[-56.05883,-26.093031],[-56.056599,-26.093075],[-56.054279,-26.091543],[-56.05414,-26.091158],[-56.052959,-26.091895],[-56.051024,-26.091725],[-56.050754,-26.09245],[-56.049714,-26.092669],[-56.048856,-26.093534],[-56.047541,-26.092997],[-56.046624,-26.093027],[-56.045809,-26.092209],[-56.044616,-26.092662],[-56.043905,-26.09254],[-56.042691,-26.092875],[-56.041871,-26.092219],[-56.040814,-26.089016],[-56.037061,-26.087723],[-56.035576,-26.08504],[-56.034058,-26.084962],[-56.03336,-26.083418],[-56.032898,-26.083158],[-56.027023,-26.082649],[-56.025559,-26.082765],[-56.024732,-26.083595],[-56.024122,-26.08546],[-56.021884,-26.086587],[-56.019583,-26.087284],[-56.018621,-26.088],[-56.017901,-26.089291],[-56.017238,-26.089517],[-56.016369,-26.089317],[-56.015491,-26.087663],[-56.014739,-26.087175],[-56.010946,-26.086521],[-56.007329,-26.084672],[-56.006505,-26.085236],[-56.005502,-26.08452],[-56.004487,-26.084928],[-56.003669,-26.084051],[-56.001588,-26.083089],[-56.000122,-26.081426],[-55.999602,-26.082222],[-55.997463,-26.083471],[-55.99583,-26.082905],[-55.994792,-26.082021],[-55.991925,-26.08392],[-55.987984,-26.083798],[-55.98663,-26.08321],[-55.985144,-26.082058],[-55.984303,-26.081781],[-55.983061,-26.081935],[-55.981544,-26.081364],[-55.980173,-26.08014],[-55.97934,-26.078866],[-55.976884,-26.078289],[-55.975364,-26.076734],[-55.975079,-26.075793],[-55.975215,-26.074412],[-55.973221,-26.073256],[-55.970563,-26.071102],[-55.968379,-26.07054],[-55.926982,-26.091366],[-55.907119,-26.10996],[-55.904698,-26.110005],[-55.902778,-26.109042],[-55.902031,-26.108143],[-55.900256,-26.108707],[-55.898844,-26.109676],[-55.896932,-26.111593],[-55.895175,-26.111896],[-55.892036,-26.10994],[-55.89018,-26.109641],[-55.889005,-26.108621],[-55.886481,-26.10768],[-55.886206,-26.107109],[-55.886091,-26.10445],[-55.885055,-26.102794],[-55.879217,-26.097083],[-55.877611,-26.096213],[-55.874825,-26.093158],[-55.87435,-26.093172],[-55.873828,-26.093701],[-55.873489,-26.093603],[-55.873027,-26.092223],[-55.872295,-26.092054],[-55.871526,-26.092482],[-55.871681,-26.093598],[-55.871371,-26.093596],[-55.870657,-26.092669],[-55.86978,-26.092504],[-55.869767,-26.091682],[-55.869357,-26.09139],[-55.867188,-26.092529],[-55.866395,-26.093399],[-55.86508,-26.093573],[-55.863227,-26.092909],[-55.861687,-26.091276],[-55.860887,-26.09089],[-55.859826,-26.090941],[-55.858792,-26.08998],[-55.858198,-26.08877],[-55.858073,-26.086828],[-55.856246,-26.084597],[-55.855402,-26.082762],[-55.852,-26.081105],[-55.850713,-26.080973],[-55.848689,-26.080135],[-55.846835,-26.078825],[-55.845662,-26.079073],[-55.844233,-26.077531],[-55.842636,-26.077071],[-55.841779,-26.076331],[-55.839717,-26.077938],[-55.83866,-26.07821],[-55.837349,-26.079151],[-55.836094,-26.080652],[-55.833916,-26.081531],[-55.83154,-26.083527],[-55.830972,-26.08453],[-55.82947,-26.085918],[-55.824065,-26.086993],[-55.82369,-26.087382],[-55.823476,-26.089393],[-55.814458,-26.089171],[-55.814448,-26.092024],[-55.798881,-26.121107],[-55.798182,-26.119747],[-55.796548,-26.119918],[-55.796257,-26.11806],[-55.795676,-26.11927],[-55.795444,-26.11869],[-55.794412,-26.118654],[-55.793097,-26.11988],[-55.792229,-26.119882],[-55.79183,-26.119554],[-55.790473,-26.119912],[-55.791366,-26.116837],[-55.791245,-26.115603],[-55.790658,-26.115346],[-55.790189,-26.115802],[-55.788654,-26.11532],[-55.789111,-26.114159],[-55.788254,-26.113109],[-55.786827,-26.112163],[-55.763874,-26.113141],[-55.763848,-26.115317],[-55.762266,-26.116391],[-55.762244,-26.116951],[-55.760867,-26.119584],[-55.761117,-26.120688],[-55.762633,-26.123003],[-55.762548,-26.124104],[-55.761602,-26.125333],[-55.760045,-26.126475],[-55.757425,-26.127662],[-55.756475,-26.127383],[-55.755974,-26.127857],[-55.75592,-26.12834],[-55.756737,-26.129191],[-55.755823,-26.130795],[-55.75648,-26.133586],[-55.754838,-26.134091],[-55.753712,-26.135304],[-55.752591,-26.135836],[-55.752398,-26.13629],[-55.75026,-26.137206],[-55.747985,-26.136956],[-55.746846,-26.140856],[-55.746098,-26.142411],[-55.745372,-26.143177],[-55.745644,-26.145951],[-55.744939,-26.14669],[-55.744989,-26.14832],[-55.743757,-26.149753],[-55.742565,-26.149987],[-55.741684,-26.150778],[-55.740357,-26.151281],[-55.740484,-26.154365],[-55.739667,-26.15518],[-55.73996,-26.155715],[-55.739259,-26.157311],[-55.737035,-26.159188],[-55.736937,-26.159851],[-55.73599,-26.160009],[-55.73509,-26.161265],[-55.733696,-26.161262],[-55.734066,-26.161911],[-55.733845,-26.162545],[-55.732106,-26.1642],[-55.732209,-26.164996],[-55.731619,-26.166539],[-55.7319,-26.167936],[-55.730458,-26.171214],[-55.73008,-26.171514],[-55.729299,-26.171511],[-55.727823,-26.171196],[-55.727164,-26.171637],[-55.727428,-26.171982],[-55.72735,-26.172762],[-55.726545,-26.174547],[-55.726931,-26.175706],[-55.725866,-26.176451],[-55.725044,-26.177739],[-55.724169,-26.177628],[-55.722932,-26.177946],[-55.722616,-26.178359],[-55.722699,-26.179249],[-55.72143,-26.17935],[-55.720827,-26.180866],[-55.720323,-26.181295],[-55.718587,-26.180873],[-55.71618,-26.179705],[-55.715392,-26.179965],[-55.714901,-26.179139],[-55.713734,-26.178753],[-55.711688,-26.178916],[-55.711328,-26.179937],[-55.710645,-26.180689],[-55.70883,-26.180411],[-55.70832,-26.181296],[-55.70845,-26.182051],[-55.707622,-26.182179],[-55.707402,-26.183387],[-55.70651,-26.183126],[-55.706186,-26.183715],[-55.706286,-26.183991],[-55.707124,-26.18384],[-55.707627,-26.184382],[-55.706796,-26.184709],[-55.706157,-26.184459],[-55.705675,-26.184658],[-55.705379,-26.185057],[-55.705949,-26.185685],[-55.704528,-26.185763],[-55.704894,-26.18652],[-55.704778,-26.186961],[-55.703949,-26.186872],[-55.703498,-26.185622],[-55.702833,-26.185404],[-55.702111,-26.18561],[-55.702927,-26.186475],[-55.702686,-26.186933],[-55.702083,-26.18663],[-55.702504,-26.18806],[-55.701459,-26.188592],[-55.703431,-26.188818],[-55.702334,-26.19],[-55.703376,-26.192018],[-55.703309,-26.192414],[-55.703993,-26.192827],[-55.703983,-26.192271],[-55.70463,-26.192422],[-55.704643,-26.193031],[-55.705144,-26.193388],[-55.704469,-26.193626],[-55.70432,-26.194202],[-55.707135,-26.195965],[-55.707753,-26.196991],[-55.707367,-26.197322],[-55.706629,-26.197058],[-55.706071,-26.1974],[-55.706205,-26.198038],[-55.706898,-26.198631],[-55.706745,-26.198824],[-55.705425,-26.198392],[-55.705013,-26.198619],[-55.705895,-26.199493],[-55.704757,-26.200819],[-55.705404,-26.200866],[-55.705278,-26.201149],[-55.704117,-26.201441],[-55.703874,-26.201208],[-55.704068,-26.20065],[-55.703516,-26.200212],[-55.703132,-26.200254],[-55.702218,-26.202981],[-55.700557,-26.204618],[-55.699951,-26.204405],[-55.70036,-26.203854],[-55.699948,-26.203394],[-55.699259,-26.203568],[-55.698761,-26.20439],[-55.69836,-26.204269],[-55.698016,-26.20627],[-55.698667,-26.207594],[-55.699558,-26.207792],[-55.69917,-26.20833],[-55.700143,-26.208086],[-55.70043,-26.208301],[-55.700186,-26.20912],[-55.701245,-26.208312],[-55.70198,-26.20989],[-55.702675,-26.209255],[-55.702606,-26.210203],[-55.703761,-26.210737],[-55.703336,-26.211997],[-55.704027,-26.212703],[-55.703971,-26.213122],[-55.705012,-26.213068],[-55.70616,-26.213787],[-55.706943,-26.213248],[-55.708505,-26.213935],[-55.709563,-26.213285],[-55.710344,-26.213477],[-55.710847,-26.213297],[-55.711567,-26.213759],[-55.711515,-26.214282],[-55.712282,-26.213693],[-55.712505,-26.213898],[-55.712306,-26.214352],[-55.712996,-26.21453],[-55.713959,-26.213541],[-55.714811,-26.213991],[-55.714805,-26.214406],[-55.715412,-26.214529],[-55.715867,-26.214276],[-55.715705,-26.214983],[-55.716829,-26.215201],[-55.716208,-26.215511],[-55.716387,-26.215915],[-55.716002,-26.216263],[-55.716345,-26.216375],[-55.717128,-26.215989],[-55.71683,-26.216569],[-55.717626,-26.217474],[-55.718304,-26.217652],[-55.719778,-26.217146],[-55.718526,-26.218692],[-55.719985,-26.219603],[-55.719826,-26.220875],[-55.721233,-26.221018],[-55.721407,-26.22158],[-55.722517,-26.222384],[-55.722022,-26.224099],[-55.723193,-26.225491],[-55.722451,-26.22585],[-55.723252,-26.227117],[-55.721857,-26.228734],[-55.722326,-26.229217],[-55.723646,-26.229576],[-55.720815,-26.231663],[-55.720956,-26.232391],[-55.721916,-26.232761],[-55.721453,-26.233903],[-55.719593,-26.234478],[-55.719919,-26.234725],[-55.721249,-26.23471],[-55.721576,-26.235367],[-55.720745,-26.235626],[-55.719918,-26.235285],[-55.719151,-26.23572],[-55.719817,-26.236313],[-55.721314,-26.236872],[-55.721367,-26.237148],[-55.720483,-26.237583],[-55.720474,-26.238016],[-55.72259,-26.239628],[-55.7227,-26.239914],[-55.721981,-26.240616],[-55.723346,-26.241396],[-55.723851,-26.242294],[-55.724426,-26.242227],[-55.725,-26.240972],[-55.725219,-26.241828],[-55.725765,-26.242234],[-55.727098,-26.241862],[-55.727736,-26.243236],[-55.728068,-26.243243],[-55.728657,-26.24258],[-55.728399,-26.245228],[-55.729064,-26.24596],[-55.728909,-26.246532],[-55.727923,-26.247602],[-55.727918,-26.248058],[-55.727088,-26.248412],[-55.726366,-26.249358],[-55.726389,-26.249805],[-55.727102,-26.249505],[-55.727278,-26.249858],[-55.725714,-26.250982],[-55.725677,-26.252061],[-55.72449,-26.251919],[-55.724475,-26.252244],[-55.725275,-26.253014],[-55.724562,-26.253843],[-55.724736,-26.254242],[-55.726306,-26.2537],[-55.726782,-26.253835],[-55.726492,-26.254903],[-55.725401,-26.255633],[-55.726277,-26.255627],[-55.726355,-26.25621],[-55.724706,-26.256399],[-55.725019,-26.257377],[-55.725497,-26.257747],[-55.726289,-26.25681],[-55.727502,-26.256826],[-55.727735,-26.257184],[-55.726329,-26.257587],[-55.725226,-26.258453],[-55.724748,-26.259275],[-55.723581,-26.25879],[-55.723017,-26.259043],[-55.72335,-26.259899],[-55.723049,-26.26037],[-55.724071,-26.260673],[-55.724576,-26.261386],[-55.724186,-26.261825],[-55.723645,-26.261486],[-55.723141,-26.262141],[-55.723994,-26.263277],[-55.724706,-26.262899],[-55.725206,-26.26303],[-55.725328,-26.263428],[-55.724682,-26.263572],[-55.72445,-26.26398],[-55.725387,-26.264891],[-55.724291,-26.264751],[-55.723864,-26.266083],[-55.722746,-26.26657],[-55.723544,-26.267168],[-55.724671,-26.266492],[-55.72392,-26.267429],[-55.725441,-26.267934],[-55.725035,-26.266947],[-55.725778,-26.266529],[-55.726857,-26.267794],[-55.726309,-26.270267],[-55.727318,-26.270691],[-55.726369,-26.271586],[-55.728267,-26.273241],[-55.727785,-26.273512],[-55.72794,-26.273703],[-55.728427,-26.273825],[-55.729058,-26.273343],[-55.729122,-26.273578],[-55.728915,-26.274493],[-55.727879,-26.274077],[-55.726798,-26.274704],[-55.727912,-26.27503],[-55.727698,-26.275448],[-55.728587,-26.275952],[-55.730119,-26.27755],[-55.73087,-26.277724],[-55.730704,-26.279253],[-55.730205,-26.278914],[-55.729864,-26.2792],[-55.729857,-26.280843],[-55.730653,-26.280471],[-55.730662,-26.281044],[-55.73285,-26.280807],[-55.733134,-26.280999],[-55.732958,-26.281444],[-55.732213,-26.28183],[-55.731793,-26.282689],[-55.732615,-26.283048],[-55.732588,-26.283865],[-55.733064,-26.284736],[-55.732334,-26.285361],[-55.731973,-26.284189],[-55.73153,-26.284126],[-55.732063,-26.286083],[-55.73183,-26.28646],[-55.731209,-26.286608],[-55.731169,-26.286927],[-55.731468,-26.287249],[-55.732748,-26.287526],[-55.733772,-26.286371],[-55.733845,-26.285767],[-55.734922,-26.28575],[-55.734151,-26.286814],[-55.73422,-26.287872],[-55.733875,-26.28844],[-55.733156,-26.288082],[-55.732363,-26.288327],[-55.732513,-26.288788],[-55.733636,-26.289323],[-55.732706,-26.290046],[-55.734132,-26.289926],[-55.734766,-26.29063],[-55.735216,-26.289962],[-55.735933,-26.289855],[-55.736433,-26.289288],[-55.736867,-26.289425],[-55.737236,-26.290086],[-55.7381,-26.290041],[-55.737894,-26.292001],[-55.738237,-26.292376],[-55.737723,-26.292844],[-55.738546,-26.29315],[-55.73795,-26.29367],[-55.737989,-26.294781],[-55.73835,-26.294831],[-55.738748,-26.294216],[-55.739548,-26.294616],[-55.740069,-26.294188],[-55.742324,-26.295092],[-55.741614,-26.296675],[-55.740571,-26.296932],[-55.740503,-26.297723],[-55.739635,-26.297503],[-55.739293,-26.297673],[-55.740481,-26.298435],[-55.742598,-26.298427],[-55.742178,-26.300491],[-55.742825,-26.299985],[-55.744904,-26.300143],[-55.745514,-26.301738],[-55.747367,-26.302372],[-55.747891,-26.302304],[-55.74819,-26.301921],[-55.748835,-26.302358],[-55.749383,-26.303534],[-55.750217,-26.302896],[-55.750845,-26.30481],[-55.751319,-26.304648],[-55.751405,-26.304196],[-55.750785,-26.303592],[-55.750892,-26.303084],[-55.75213,-26.303441],[-55.753294,-26.302553],[-55.755036,-26.303167],[-55.7564,-26.30321],[-55.756352,-26.302816],[-55.755398,-26.302067],[-55.756996,-26.301387],[-55.757448,-26.30169],[-55.757614,-26.302496],[-55.757356,-26.303739],[-55.757845,-26.303822],[-55.758624,-26.302946],[-55.759378,-26.302795],[-55.760197,-26.303023],[-55.759964,-26.303572],[-55.758982,-26.3038],[-55.759065,-26.304258],[-55.759781,-26.304343],[-55.760871,-26.303817],[-55.761511,-26.304516],[-55.761332,-26.306501],[-55.760137,-26.307058],[-55.761215,-26.307666],[-55.761264,-26.307966],[-55.759303,-26.30817],[-55.75928,-26.308643],[-55.759925,-26.308916],[-55.760942,-26.308625],[-55.761145,-26.309337],[-55.761683,-26.309672],[-55.762493,-26.309206],[-55.763303,-26.310348],[-55.762806,-26.31099],[-55.761521,-26.310081],[-55.760736,-26.309948],[-55.760286,-26.311095],[-55.761169,-26.311954],[-55.760415,-26.312136],[-55.760342,-26.312467],[-55.760805,-26.313275],[-55.761913,-26.312748],[-55.761288,-26.31391],[-55.761497,-26.314053],[-55.762637,-26.313779],[-55.762312,-26.314722],[-55.762441,-26.315685],[-55.764609,-26.31583],[-55.764601,-26.316602],[-55.763691,-26.316642],[-55.764187,-26.317639],[-55.762901,-26.318527],[-55.763108,-26.318781],[-55.764087,-26.318852],[-55.764791,-26.318448],[-55.764804,-26.318858],[-55.763814,-26.31989],[-55.762988,-26.320246],[-55.762664,-26.321047],[-55.763186,-26.323022],[-55.763094,-26.3234],[-55.762322,-26.323677],[-55.762433,-26.324671],[-55.762057,-26.325519],[-55.763076,-26.326741],[-55.762189,-26.327916],[-55.761273,-26.326868],[-55.760419,-26.326608],[-55.761159,-26.327671],[-55.760527,-26.328257],[-55.758019,-26.328174],[-55.75784,-26.328394],[-55.758586,-26.329438],[-55.758222,-26.330392],[-55.758619,-26.330999],[-55.758824,-26.33116],[-55.759186,-26.330356],[-55.760558,-26.330953],[-55.760624,-26.331247],[-55.759191,-26.331793],[-55.758765,-26.333004],[-55.757731,-26.333917],[-55.757751,-26.334857],[-55.756043,-26.334435],[-55.756508,-26.333286],[-55.755938,-26.333183],[-55.755214,-26.333727],[-55.755231,-26.334898],[-55.755712,-26.335948],[-55.754936,-26.336731],[-55.755021,-26.337015],[-55.755845,-26.337262],[-55.755792,-26.338618],[-55.755514,-26.338793],[-55.754883,-26.337989],[-55.754661,-26.338475],[-55.755313,-26.339208],[-55.756837,-26.339345],[-55.756914,-26.340437],[-55.757958,-26.341261],[-55.758393,-26.341114],[-55.759018,-26.339737],[-55.759619,-26.340522],[-55.759966,-26.342192],[-55.759433,-26.342329],[-55.758422,-26.342055],[-55.758249,-26.342621],[-55.758478,-26.343261],[-55.759797,-26.344168],[-55.759391,-26.345309],[-55.761023,-26.345509],[-55.761397,-26.346434],[-55.760063,-26.345979],[-55.758967,-26.346342],[-55.758842,-26.346962],[-55.759844,-26.347139],[-55.760821,-26.347777],[-55.761058,-26.348693],[-55.762344,-26.348961],[-55.762206,-26.347151],[-55.762707,-26.347244],[-55.763408,-26.347968],[-55.764271,-26.347302],[-55.765905,-26.348185],[-55.766029,-26.347716],[-55.76571,-26.347119],[-55.765919,-26.346926],[-55.766437,-26.347276],[-55.76745,-26.347347],[-55.767526,-26.347604],[-55.766574,-26.348208],[-55.767081,-26.348727],[-55.768142,-26.347947],[-55.768581,-26.348358],[-55.768843,-26.34774],[-55.769696,-26.347091],[-55.770718,-26.348199],[-55.770266,-26.349091],[-55.772389,-26.348382],[-55.772594,-26.348588],[-55.772389,-26.349375],[-55.772661,-26.349661],[-55.773068,-26.349363],[-55.773235,-26.34846],[-55.773919,-26.348023],[-55.774929,-26.348386],[-55.775475,-26.347894],[-55.776413,-26.347645],[-55.77767,-26.347913],[-55.777089,-26.34883],[-55.777204,-26.349195],[-55.779273,-26.348938],[-55.779872,-26.348127],[-55.778973,-26.347481],[-55.778996,-26.347171],[-55.780624,-26.347752],[-55.780798,-26.346166],[-55.782104,-26.346426],[-55.781651,-26.347397],[-55.783193,-26.346798],[-55.783009,-26.347471],[-55.784175,-26.347986],[-55.784915,-26.345935],[-55.785728,-26.345348],[-55.785892,-26.345615],[-55.785277,-26.347011],[-55.78654,-26.34672],[-55.787402,-26.347162],[-55.787582,-26.346853],[-55.78704,-26.345989],[-55.787434,-26.34593],[-55.789387,-26.348394],[-55.78919,-26.349359],[-55.789958,-26.349294],[-55.790343,-26.352073],[-55.791769,-26.352183],[-55.792836,-26.35181],[-55.793278,-26.352772],[-55.794331,-26.352843],[-55.794819,-26.353237],[-55.797223,-26.357753],[-55.798292,-26.358072],[-55.799299,-26.357815],[-55.800882,-26.357988],[-55.802355,-26.357424],[-55.802896,-26.358324],[-55.804175,-26.359354],[-55.803979,-26.360257],[-55.805032,-26.360257],[-55.805766,-26.360671],[-55.806131,-26.36157],[-55.805589,-26.361609],[-55.804826,-26.361186],[-55.804633,-26.36177],[-55.805031,-26.362314],[-55.803318,-26.362327],[-55.802637,-26.36342],[-55.802921,-26.3636],[-55.803782,-26.363137],[-55.803825,-26.363767],[-55.803364,-26.364562],[-55.803658,-26.364653],[-55.804681,-26.363766],[-55.805022,-26.364105],[-55.805088,-26.365383],[-55.806273,-26.365047],[-55.806368,-26.365314],[-55.804195,-26.366023],[-55.803564,-26.368022],[-55.802748,-26.367944],[-55.802676,-26.36828],[-55.802947,-26.368726],[-55.803951,-26.368725],[-55.805075,-26.369497],[-55.804963,-26.369824],[-55.804204,-26.36996],[-55.803406,-26.370929],[-55.804202,-26.372097],[-55.806163,-26.372805],[-55.805933,-26.37314],[-55.804634,-26.373103],[-55.8048,-26.374248],[-55.805591,-26.374866],[-55.806556,-26.374839],[-55.805317,-26.375627],[-55.805639,-26.376853],[-55.80488,-26.377884],[-55.802963,-26.37864],[-55.80396,-26.379322],[-55.803917,-26.379667],[-55.801635,-26.379444],[-55.801879,-26.380635],[-55.801173,-26.381267],[-55.801555,-26.381466],[-55.802178,-26.381258],[-55.803168,-26.383527],[-55.803193,-26.384938],[-55.802079,-26.385106],[-55.802519,-26.385446],[-55.80364,-26.385562],[-55.803696,-26.385793],[-55.8024,-26.386483],[-55.801801,-26.386274],[-55.801328,-26.385348],[-55.80002,-26.385239],[-55.799937,-26.385673],[-55.802633,-26.387664],[-55.803671,-26.387667],[-55.804237,-26.387027],[-55.805263,-26.387374],[-55.807038,-26.388951],[-55.807309,-26.391224],[-55.807184,-26.394197],[-55.806796,-26.394659],[-55.805886,-26.394827],[-55.806273,-26.396108],[-55.805736,-26.396781],[-55.806051,-26.397253],[-55.806778,-26.397236],[-55.80704,-26.395794],[-55.808473,-26.395264],[-55.808966,-26.396438],[-55.808784,-26.396797],[-55.808015,-26.397035],[-55.807955,-26.397734],[-55.810531,-26.398766],[-55.810728,-26.39852],[-55.810298,-26.397749],[-55.810749,-26.397576],[-55.811475,-26.399022],[-55.812641,-26.399533],[-55.813095,-26.39923],[-55.813024,-26.398394],[-55.814762,-26.397723],[-55.814953,-26.396456],[-55.820742,-26.401419],[-55.819731,-26.403862],[-55.820018,-26.405341],[-55.821884,-26.407387],[-55.823708,-26.40854],[-55.825189,-26.409004],[-55.825437,-26.409723],[-55.825302,-26.41072],[-55.824571,-26.411698],[-55.823629,-26.410539],[-55.823202,-26.41045],[-55.820071,-26.411277],[-55.820855,-26.41262],[-55.822146,-26.413763],[-55.822095,-26.414603],[-55.821561,-26.41467],[-55.820402,-26.413654],[-55.818939,-26.414396],[-55.819233,-26.415577],[-55.821585,-26.416381],[-55.821895,-26.416894],[-55.821682,-26.417858],[-55.822861,-26.418347],[-55.822909,-26.420861],[-55.823318,-26.420923],[-55.824068,-26.420239],[-55.825439,-26.422444],[-55.825451,-26.424539],[-55.823407,-26.425831],[-55.821773,-26.426382],[-55.821537,-26.426967],[-55.824375,-26.428028],[-55.82509,-26.42803],[-55.825583,-26.42876],[-55.828247,-26.42732],[-55.829249,-26.425251],[-55.830546,-26.426404],[-55.830933,-26.426127],[-55.830968,-26.425098],[-55.832102,-26.425221],[-55.832299,-26.425895],[-55.831713,-26.426463],[-55.83165,-26.427402],[-55.831173,-26.427601],[-55.830128,-26.427114],[-55.829857,-26.427306],[-55.829901,-26.427983],[-55.83117,-26.430178],[-55.830879,-26.430339],[-55.830013,-26.430016],[-55.829736,-26.430478],[-55.831199,-26.431005],[-55.831667,-26.431839],[-55.833048,-26.431661],[-55.832595,-26.432817],[-55.833501,-26.433136],[-55.833576,-26.433543],[-55.832707,-26.433938],[-55.832604,-26.434668],[-55.834025,-26.434928],[-55.835571,-26.434778],[-55.835608,-26.435329],[-55.834387,-26.437165],[-55.834917,-26.437405],[-55.835807,-26.437114],[-55.836349,-26.437511],[-55.835761,-26.438468],[-55.834512,-26.437993],[-55.834788,-26.439552],[-55.835766,-26.439384],[-55.835807,-26.439579],[-55.834795,-26.441389],[-55.836181,-26.442042],[-55.836654,-26.44024],[-55.837455,-26.440233],[-55.83792,-26.441153],[-55.837476,-26.442802],[-55.83769,-26.444122],[-55.837153,-26.445047],[-55.838544,-26.445988],[-55.839293,-26.446166],[-55.842112,-26.445588],[-55.842576,-26.444947],[-55.842239,-26.443617],[-55.842886,-26.443613],[-55.844602,-26.444814],[-55.845224,-26.446196],[-55.845295,-26.447673],[-55.846216,-26.448425],[-55.847176,-26.447837],[-55.84755,-26.446567],[-55.849097,-26.446507],[-55.849753,-26.447036],[-55.850087,-26.446975],[-55.85087,-26.443885],[-55.85064,-26.443414],[-55.849742,-26.442896],[-55.849699,-26.442535],[-55.850273,-26.44244],[-55.852132,-26.444062],[-55.852658,-26.443872],[-55.853414,-26.441508],[-55.852998,-26.441176],[-55.851513,-26.44092],[-55.850611,-26.440087],[-55.851127,-26.439226],[-55.850526,-26.43698],[-55.849889,-26.43581],[-55.850182,-26.430856],[-55.850848,-26.428966],[-55.851063,-26.423645],[-55.850991,-26.422697],[-55.849957,-26.420865],[-55.849491,-26.418821],[-55.849836,-26.416783],[-55.852306,-26.412501],[-55.854683,-26.409604],[-55.857577,-26.403506],[-55.863295,-26.398229],[-55.867445,-26.396001],[-55.871097,-26.394537],[-55.876286,-26.38214],[-55.876147,-26.380762],[-55.875205,-26.378253],[-55.875625,-26.376699],[-55.876371,-26.375423],[-55.877034,-26.372598],[-55.879024,-26.369576],[-55.881593,-26.363632],[-55.884431,-26.360878],[-55.88606,-26.359767],[-55.885857,-26.357671],[-55.885453,-26.35718],[-55.88679,-26.357515],[-55.889011,-26.357452],[-55.890794,-26.358156],[-55.89239,-26.357929],[-55.894049,-26.358154],[-55.898017,-26.360627],[-55.900017,-26.360999],[-55.902382,-26.362069],[-55.903412,-26.36288],[-55.90414,-26.36289],[-55.904518,-26.362166],[-55.906414,-26.362131],[-55.907468,-26.362997],[-55.910693,-26.364502],[-55.915574,-26.365699],[-55.919292,-26.36603],[-55.922242,-26.364572],[-55.92422,-26.365042],[-55.925049,-26.364922],[-55.925962,-26.365507],[-55.927871,-26.365891],[-55.930224,-26.364699],[-55.934426,-26.36455],[-55.936871,-26.36511],[-55.941602,-26.367397],[-55.947172,-26.370729],[-55.951607,-26.375646],[-55.953734,-26.376055],[-55.958579,-26.375738],[-55.961045,-26.376379],[-55.964852,-26.375404],[-55.964368,-26.374773],[-55.964158,-26.373751],[-55.963834,-26.368422],[-55.964625,-26.367358],[-55.965682,-26.364707],[-55.966941,-26.363307],[-55.967341,-26.361974],[-55.966824,-26.360092],[-55.965107,-26.358216],[-55.965016,-26.357145],[-55.964388,-26.35664],[-55.964702,-26.355919],[-55.964099,-26.35578],[-55.964603,-26.355138],[-55.963985,-26.354307],[-55.964455,-26.352564],[-55.964214,-26.350503],[-55.966375,-26.348375],[-55.967362,-26.348048],[-55.968251,-26.347255],[-55.969523,-26.344714],[-55.970805,-26.344705],[-55.97136,-26.345797],[-55.971842,-26.345985],[-55.975379,-26.345135],[-55.976728,-26.344418],[-55.977764,-26.344484],[-55.979388,-26.343827],[-55.982118,-26.34324],[-55.98469,-26.342903],[-55.986011,-26.343019],[-55.986338,-26.34385],[-55.987349,-26.343901],[-55.988233,-26.34453],[-55.989009,-26.346227],[-55.989989,-26.347213],[-55.995908,-26.34851],[-55.997071,-26.350913],[-56.001309,-26.354049],[-56.003002,-26.353853],[-56.003788,-26.353321],[-56.005185,-26.353141],[-56.006533,-26.35376],[-56.008317,-26.355145],[-56.016764,-26.358688],[-56.019484,-26.359456],[-56.020622,-26.357509],[-56.022137,-26.356653],[-56.022448,-26.355057],[-56.023442,-26.354413],[-56.025956,-26.349645],[-56.027471,-26.34985],[-56.02919,-26.350877],[-56.03227,-26.350921],[-56.036242,-26.352378],[-56.037775,-26.352],[-56.038967,-26.352171],[-56.043154,-26.351829],[-56.046035,-26.3522],[-56.049597,-26.354734],[-56.05309,-26.358637],[-56.073209,-26.350422]]]}}]}
