{"type":"FeatureCollection","name":"distrito","features":[{"type":"Feature","properties":{"clave":"6-2","nombre":"3 de Mayo"},"geometry":{"type":"Polygon","coordinates":[[[-56.07516,-26.537961],[-56.076808,-26.539113],[-56.077691,-26.538108],[-56.078223,-26.537944],[-56.078613,-26.539653],[-56.077758,-26.54064],[-56.077776,-26.540997],[-56.08015,-26.542168],[-56.081505,-26.542344],[-56.08441,-26.544854],[-56.084672,-26.544463],[-56.083988,-26.542121],[-56.084375,-26.541735],[-56.085042,-26.541717],[-56.085872,-26.54313],[-56.085469,-26.545723],[-56.087064,-26.545928],[-56.087624,-26.54785],[-56.089027,-26.549001],[-56.090182,-26.54797],[-56.091421,-26.547725],[-56.091438,-26.549066],[-56.092904,-26.549306],[-56.093527,-26.550867],[-56.094861,-26.550894],[-56.095496,-26.550112],[-56.095294,-26.549167],[-56.09608,-26.548703],[-56.096909,-26.547598],[-56.097938,-26.547442],[-56.098512,-26.544777],[-56.098298,-26.543277],[-56.098539,-26.542116],[-56.098206,-26.541214],[-56.098954,-26.538596],[-56.099687,-26.538492],[-56.099876,-26.53792],[-56.102849,-26.535663],[-56.103715,-26.535502],[-56.105441,-26.529829],[-56.105755,-26.52947],[-56.107292,-26.529146],[-56.108231,-26.526547],[-56.108186,-26.525278],[-56.107021,-26.523546],[-56.107889,-26.521024],[-56.108784,-26.520424],[-56.109481,-26.518826],[-56.110491,-26.517609],[-56.111765,-26.516619],[-56.115328,-26.514768],[-56.116265,-26.511763],[-56.118561,-26.510802],[-56.119126,-26.509415],[-56.121207,-26.507798],[-56.120727,-26.506879],[-56.121461,-26.505461],[-56.121427,-26.503515],[-56.121509,-26.503304],[-56.122418,-26.50326],[-56.122638,-26.502534],[-56.123273,-26.501987],[-56.124566,-26.498235],[-56.12457,-26.497368],[-56.126535,-26.496491],[-56.128369,-26.496137],[-56.129348,-26.495055],[-56.130287,-26.494546],[-56.131141,-26.494664],[-56.133501,-26.49429],[-56.1358,-26.493834],[-56.136376,-26.493391],[-56.136504,-26.492633],[-56.138392,-26.489864],[-56.138271,-26.489254],[-56.139527,-26.487939],[-56.139467,-26.486697],[-56.140301,-26.485745],[-56.141398,-26.485548],[-56.141423,-26.4846],[-56.142584,-26.483104],[-56.143144,-26.480403],[-56.142922,-26.478357],[-56.14327,-26.477398],[-56.143917,-26.476815],[-56.144278,-26.475219],[-56.14414,-26.473963],[-56.144645,-26.472408],[-56.145291,-26.471681],[-56.147492,-26.470556],[-56.147701,-26.469131],[-56.149459,-26.468288],[-56.152136,-26.46519],[-56.153665,-26.464707],[-56.155276,-26.464784],[-56.155267,-26.460888],[-56.184984,-26.437517],[-56.193567,-26.435863],[-56.195845,-26.434627],[-56.196607,-26.433837],[-56.19736,-26.434295],[-56.198502,-26.433167],[-56.200779,-26.432045],[-56.210641,-26.427787],[-56.213071,-26.42258],[-56.215108,-26.41964],[-56.216523,-26.415449],[-56.216591,-26.413752],[-56.218699,-26.412761],[-56.221547,-26.411887],[-56.224888,-26.411348],[-56.230832,-26.4096],[-56.236545,-26.40529],[-56.23717,-26.404181],[-56.242764,-26.399202],[-56.245257,-26.395877],[-56.24998,-26.391672],[-56.260055,-26.390434],[-56.261256,-26.385886],[-56.262029,-26.38537],[-56.263442,-26.385035],[-56.263948,-26.384184],[-56.26323,-26.383201],[-56.264803,-26.382721],[-56.265297,-26.381676],[-56.265095,-26.380854],[-56.265583,-26.380274],[-56.266307,-26.380129],[-56.267266,-26.380553],[-56.269345,-26.380013],[-56.270317,-26.380266],[-56.271287,-26.381016],[-56.271768,-26.380915],[-56.272474,-26.380566],[-56.273148,-26.379089],[-56.274566,-26.378554],[-56.275264,-26.378],[-56.275529,-26.376916],[-56.276112,-26.376779],[-56.275165,-26.376075],[-56.273754,-26.373354],[-56.271141,-26.37377],[-56.270191,-26.373607],[-56.270357,-26.373183],[-56.271451,-26.37304],[-56.270537,-26.37174],[-56.270062,-26.371782],[-56.269431,-26.372488],[-56.268965,-26.37217],[-56.268209,-26.372256],[-56.267939,-26.37183],[-56.268463,-26.371084],[-56.267575,-26.371345],[-56.266386,-26.370703],[-56.266157,-26.370887],[-56.266524,-26.371931],[-56.266174,-26.372178],[-56.265197,-26.370818],[-56.262316,-26.37037],[-56.260285,-26.368166],[-56.260542,-26.367147],[-56.259501,-26.366667],[-56.260628,-26.365825],[-56.260573,-26.365228],[-56.260198,-26.36496],[-56.259183,-26.365181],[-56.258777,-26.364899],[-56.258818,-26.364226],[-56.259494,-26.363178],[-56.258955,-26.361699],[-56.258024,-26.361437],[-56.257543,-26.360946],[-56.257914,-26.36052],[-56.259022,-26.360349],[-56.260432,-26.359463],[-56.26038,-26.358754],[-56.259411,-26.358536],[-56.259166,-26.358206],[-56.259995,-26.357632],[-56.260115,-26.357231],[-56.258771,-26.356691],[-56.258312,-26.3577],[-56.257457,-26.357944],[-56.257006,-26.35744],[-56.25746,-26.356563],[-56.255957,-26.356455],[-56.257065,-26.355847],[-56.257005,-26.355102],[-56.255844,-26.355611],[-56.255028,-26.355507],[-56.255051,-26.355114],[-56.25596,-26.354979],[-56.255695,-26.354274],[-56.256516,-26.354043],[-56.256315,-26.35336],[-56.2571,-26.352881],[-56.256436,-26.35118],[-56.256918,-26.350014],[-56.256476,-26.34928],[-56.254718,-26.349822],[-56.254255,-26.349156],[-56.254507,-26.348674],[-56.255454,-26.348688],[-56.254717,-26.347998],[-56.255184,-26.347233],[-56.256035,-26.347165],[-56.256707,-26.347588],[-56.25709,-26.347252],[-56.257231,-26.34611],[-56.255923,-26.345074],[-56.255003,-26.343476],[-56.255278,-26.343243],[-56.255787,-26.343344],[-56.256807,-26.344722],[-56.256846,-26.343643],[-56.25624,-26.343035],[-56.256223,-26.342633],[-56.257569,-26.341629],[-56.257645,-26.341115],[-56.256664,-26.340988],[-56.255759,-26.34208],[-56.254885,-26.342035],[-56.254644,-26.341483],[-56.25534,-26.340209],[-56.255021,-26.339928],[-56.254027,-26.339837],[-56.252677,-26.337784],[-56.25297,-26.336495],[-56.254087,-26.336289],[-56.253575,-26.334503],[-56.254226,-26.333016],[-56.254086,-26.332546],[-56.253518,-26.332317],[-56.253315,-26.333309],[-56.25302,-26.333403],[-56.25254,-26.33191],[-56.250575,-26.33409],[-56.249669,-26.333498],[-56.249606,-26.332861],[-56.250484,-26.332658],[-56.250519,-26.332383],[-56.249432,-26.332106],[-56.249404,-26.331813],[-56.250567,-26.331616],[-56.25047,-26.330053],[-56.252632,-26.330092],[-56.252768,-26.328296],[-56.251605,-26.328506],[-56.251944,-26.326919],[-56.251113,-26.326626],[-56.251457,-26.327503],[-56.250319,-26.328161],[-56.250504,-26.326785],[-56.249736,-26.327652],[-56.248596,-26.325989],[-56.248791,-26.325683],[-56.249629,-26.325895],[-56.250495,-26.325286],[-56.251218,-26.324152],[-56.251324,-26.322708],[-56.25033,-26.323574],[-56.25,-26.323536],[-56.249846,-26.321188],[-56.249352,-26.321185],[-56.248203,-26.32187],[-56.24805,-26.321468],[-56.248897,-26.320844],[-56.24891,-26.320443],[-56.248207,-26.320538],[-56.248017,-26.319878],[-56.246913,-26.319602],[-56.245803,-26.320128],[-56.245574,-26.319947],[-56.245808,-26.319194],[-56.244638,-26.319206],[-56.244216,-26.318928],[-56.244446,-26.317972],[-56.245201,-26.317557],[-56.24468,-26.316272],[-56.245812,-26.31644],[-56.247483,-26.31528],[-56.247223,-26.314353],[-56.247423,-26.313266],[-56.247242,-26.312976],[-56.246422,-26.31289],[-56.246933,-26.312135],[-56.246697,-26.311199],[-56.246897,-26.310387],[-56.247236,-26.3102],[-56.247812,-26.311128],[-56.248271,-26.310052],[-56.249721,-26.309969],[-56.249489,-26.309349],[-56.248571,-26.309195],[-56.249063,-26.308579],[-56.249033,-26.308092],[-56.247545,-26.304752],[-56.247202,-26.304475],[-56.246079,-26.304826],[-56.246752,-26.304039],[-56.246701,-26.30329],[-56.246003,-26.303286],[-56.244624,-26.303933],[-56.244427,-26.302181],[-56.243729,-26.302312],[-56.242929,-26.303179],[-56.242572,-26.302681],[-56.241675,-26.302748],[-56.241293,-26.301929],[-56.240306,-26.302664],[-56.239043,-26.302003],[-56.237669,-26.302316],[-56.237572,-26.301982],[-56.238263,-26.301502],[-56.237961,-26.300937],[-56.237125,-26.300779],[-56.235572,-26.30105],[-56.234564,-26.300797],[-56.233837,-26.300125],[-56.233161,-26.298618],[-56.23146,-26.297733],[-56.231137,-26.297866],[-56.230836,-26.298835],[-56.229669,-26.299628],[-56.229122,-26.299585],[-56.228725,-26.299059],[-56.227136,-26.299014],[-56.225732,-26.299327],[-56.225518,-26.298865],[-56.227011,-26.298512],[-56.22718,-26.298152],[-56.225365,-26.297533],[-56.224268,-26.296796],[-56.223944,-26.296843],[-56.223568,-26.297537],[-56.222428,-26.297196],[-56.222038,-26.296874],[-56.221949,-26.295519],[-56.220355,-26.296341],[-56.218989,-26.296221],[-56.218773,-26.295366],[-56.217556,-26.29536],[-56.217489,-26.295106],[-56.218249,-26.294393],[-56.217922,-26.294152],[-56.217225,-26.294338],[-56.216998,-26.294093],[-56.217041,-26.29361],[-56.217706,-26.293162],[-56.217766,-26.291952],[-56.216989,-26.291023],[-56.217234,-26.290604],[-56.218478,-26.29043],[-56.218793,-26.290084],[-56.21887,-26.289471],[-56.217686,-26.289094],[-56.217619,-26.288841],[-56.218168,-26.28828],[-56.219427,-26.288332],[-56.218987,-26.287494],[-56.219489,-26.286373],[-56.218677,-26.285529],[-56.217275,-26.285458],[-56.216724,-26.283617],[-56.215601,-26.282708],[-56.215869,-26.281965],[-56.214705,-26.281909],[-56.21459,-26.2804],[-56.214254,-26.280493],[-56.213825,-26.281471],[-56.211989,-26.281727],[-56.212245,-26.281187],[-56.213807,-26.280297],[-56.213643,-26.279348],[-56.212246,-26.278094],[-56.210207,-26.278729],[-56.210161,-26.27839],[-56.211035,-26.278223],[-56.211038,-26.277799],[-56.209619,-26.276662],[-56.208052,-26.276189],[-56.208394,-26.275089],[-56.209151,-26.274588],[-56.208316,-26.274606],[-56.208115,-26.273706],[-56.207455,-26.274321],[-56.205992,-26.273812],[-56.20606,-26.273347],[-56.206825,-26.272719],[-56.206159,-26.272174],[-56.205557,-26.272148],[-56.204968,-26.274434],[-56.20454,-26.274661],[-56.204598,-26.273745],[-56.203455,-26.273924],[-56.203482,-26.272728],[-56.202574,-26.272664],[-56.201688,-26.273413],[-56.201346,-26.273398],[-56.200978,-26.272041],[-56.200571,-26.271746],[-56.19962,-26.273031],[-56.198658,-26.273383],[-56.198452,-26.272939],[-56.198833,-26.271406],[-56.197814,-26.27164],[-56.196544,-26.270883],[-56.195499,-26.271338],[-56.194637,-26.268972],[-56.193998,-26.269127],[-56.192663,-26.268248],[-56.192111,-26.268227],[-56.191052,-26.268767],[-56.19035,-26.267914],[-56.190143,-26.268717],[-56.188032,-26.268962],[-56.187856,-26.268776],[-56.188359,-26.268129],[-56.188288,-26.267722],[-56.187361,-26.267626],[-56.186892,-26.268296],[-56.184678,-26.267106],[-56.18483,-26.266718],[-56.186251,-26.265769],[-56.18521,-26.265294],[-56.184623,-26.26343],[-56.184347,-26.263339],[-56.184024,-26.26391],[-56.183693,-26.263913],[-56.183114,-26.262605],[-56.18219,-26.263119],[-56.181532,-26.261901],[-56.181055,-26.262896],[-56.180706,-26.262781],[-56.180401,-26.261962],[-56.179982,-26.262424],[-56.178934,-26.262459],[-56.178099,-26.263041],[-56.176727,-26.262618],[-56.176493,-26.261632],[-56.174555,-26.261752],[-56.174702,-26.26299],[-56.173653,-26.262758],[-56.172713,-26.263123],[-56.173224,-26.263465],[-56.173022,-26.264402],[-56.173524,-26.265083],[-56.17329,-26.265257],[-56.172512,-26.264991],[-56.171918,-26.265322],[-56.17239,-26.26615],[-56.173716,-26.266546],[-56.173598,-26.267024],[-56.172621,-26.267434],[-56.170279,-26.267181],[-56.170174,-26.266792],[-56.171347,-26.266316],[-56.171525,-26.265879],[-56.171336,-26.265715],[-56.170546,-26.266239],[-56.170767,-26.265062],[-56.169756,-26.26502],[-56.169959,-26.264127],[-56.169316,-26.264255],[-56.16721,-26.263687],[-56.166161,-26.263889],[-56.165965,-26.264298],[-56.166458,-26.264775],[-56.167135,-26.266581],[-56.165491,-26.266282],[-56.16399,-26.267745],[-56.163528,-26.267783],[-56.163086,-26.267139],[-56.163585,-26.26698],[-56.16366,-26.265323],[-56.163173,-26.265366],[-56.16265,-26.265999],[-56.162183,-26.265423],[-56.161492,-26.265234],[-56.159182,-26.265338],[-56.160679,-26.264092],[-56.159887,-26.263821],[-56.159446,-26.264414],[-56.159269,-26.263352],[-56.158393,-26.262543],[-56.157803,-26.261416],[-56.157334,-26.261494],[-56.157179,-26.262261],[-56.156792,-26.26224],[-56.155953,-26.260633],[-56.156336,-26.259732],[-56.156117,-26.259465],[-56.155537,-26.259664],[-56.154502,-26.259392],[-56.153629,-26.259798],[-56.152987,-26.25848],[-56.152109,-26.257685],[-56.151591,-26.257781],[-56.15107,-26.258356],[-56.150812,-26.257817],[-56.150065,-26.258156],[-56.149555,-26.257783],[-56.148688,-26.257741],[-56.147765,-26.256427],[-56.148837,-26.255751],[-56.147846,-26.254838],[-56.14729,-26.254713],[-56.14781,-26.253804],[-56.147465,-26.253472],[-56.146479,-26.253805],[-56.146024,-26.253347],[-56.145999,-26.252728],[-56.146815,-26.252462],[-56.145834,-26.249892],[-56.144824,-26.249358],[-56.143977,-26.249718],[-56.14347,-26.24962],[-56.143269,-26.249195],[-56.143661,-26.248051],[-56.143365,-26.24808],[-56.142795,-26.248957],[-56.142216,-26.247667],[-56.141323,-26.247355],[-56.141095,-26.248414],[-56.140801,-26.248584],[-56.140298,-26.247006],[-56.139393,-26.247664],[-56.139343,-26.247984],[-56.139817,-26.248294],[-56.139315,-26.248882],[-56.138693,-26.249136],[-56.137993,-26.248965],[-56.137998,-26.247958],[-56.137387,-26.247724],[-56.137518,-26.246975],[-56.13689,-26.246529],[-56.137724,-26.245658],[-56.13625,-26.245546],[-56.137749,-26.244575],[-56.136224,-26.2443],[-56.135222,-26.242659],[-56.133985,-26.242963],[-56.134018,-26.244408],[-56.13336,-26.245325],[-56.132057,-26.245593],[-56.12935,-26.24684],[-56.126939,-26.250198],[-56.125252,-26.251222],[-56.124883,-26.251784],[-56.124038,-26.25209],[-56.12322,-26.252988],[-56.121721,-26.253602],[-56.119887,-26.253442],[-56.118191,-26.254023],[-56.117187,-26.254043],[-56.116466,-26.255831],[-56.114936,-26.257127],[-56.114827,-26.259911],[-56.11374,-26.261981],[-56.112029,-26.26291],[-56.110442,-26.264913],[-56.109944,-26.265055],[-56.109309,-26.26473],[-56.108637,-26.265037],[-56.106742,-26.268109],[-56.103263,-26.271401],[-56.102786,-26.272599],[-56.102212,-26.276166],[-56.100745,-26.278721],[-56.099392,-26.282916],[-56.097854,-26.285858],[-56.071086,-26.295124],[-56.104082,-26.337487],[-56.05309,-26.358637],[-56.049597,-26.354734],[-56.046035,-26.3522],[-56.043154,-26.351829],[-56.038967,-26.352171],[-56.037775,-26.352],[-56.036242,-26.352378],[-56.03227,-26.350921],[-56.02919,-26.350877],[-56.027471,-26.34985],[-56.025956,-26.349645],[-56.023442,-26.354413],[-56.022448,-26.355057],[-56.022137,-26.356653],[-56.020622,-26.357509],[-56.019484,-26.359456],[-56.016764,-26.358688],[-56.008317,-26.355145],[-56.006533,-26.35376],[-56.005185,-26.353141],[-56.003788,-26.353321],[-56.003002,-26.353853],[-56.001309,-26.354049],[-55.997071,-26.350913],[-55.995908,-26.34851],[-55.989989,-26.347213],[-55.989009,-26.346227],[-55.988233,-26.34453],[-55.987349,-26.343901],[-55.986338,-26.34385],[-55.986011,-26.343019],[-55.98469,-26.342903],[-55.982118,-26.34324],[-55.979388,-26.343827],[-55.977764,-26.344484],[-55.976728,-26.344418],[-55.975379,-26.345135],[-55.971842,-26.345985],[-55.97136,-26.345797],[-55.970805,-26.344705],[-55.969523,-26.344714],[-55.968251,-26.347255],[-55.967362,-26.348048],[-55.966375,-26.348375],[-55.964214,-26.350503],[-55.964455,-26.352564],[-55.963985,-26.354307],[-55.964603,-26.355138],[-55.964099,-26.35578],[-55.964702,-26.355919],[-55.964388,-26.35664],[-55.965016,-26.357145],[-55.965107,-26.358216],[-55.966824,-26.360092],[-55.967341,-26.361974],[-55.966941,-26.363307],[-55.965682,-26.364707],[-55.964625,-26.367358],[-55.963834,-26.368422],[-55.964158,-26.373751],[-55.964368,-26.374773],[-55.964852,-26.375404],[-55.961045,-26.376379],[-55.958579,-26.375738],[-55.953734,-26.376055],[-55.951607,-26.375646],[-55.947172,-26.370729],[-55.941602,-26.367397],[-55.936871,-26.36511],[-55.934426,-26.36455],[-55.930224,-26.364699],[-55.927871,-26.365891],[-55.925962,-26.365507],[-55.925049,-26.364922],[-55.92422,-26.365042],[-55.922242,-26.364572],[-55.919292,-26.36603],[-55.915574,-26.365699],[-55.910693,-26.364502],[-55.907468,-26.362997],[-55.906414,-26.362131],[-55.904518,-26.362166],[-55.90414,-26.36289],[-55.903412,-26.36288],[-55.902382,-26.362069],[-55.900017,-26.360999],[-55.898017,-26.360627],[-55.894049,-26.358154],[-55.89239,-26.357929],[-55.890794,-26.358156],[-55.889011,-26.357452],[-55.88679,-26.357515],[-55.885453,-26.35718],[-55.885857,-26.357671],[-55.88606,-26.359767],[-55.884431,-26.360878],[-55.881593,-26.363632],[-55.879024,-26.369576],[-55.877034,-26.372598],[-55.876371,-26.375423],[-55.875625,-26.376699],[-55.875205,-26.378253],[-55.876147,-26.380762],[-55.876286,-26.38214],[-55.871097,-26.394537],[-55.867445,-26.396001],[-55.863295,-26.398229],[-55.857577,-26.403506],[-55.854683,-26.409604],[-55.852306,-26.412501],[-55.849836,-26.416783],[-55.849501,-26.417873],[-55.849957,-26.420865],[-55.850991,-26.422697],[-55.851063,-26.423645],[-55.850848,-26.428966],[-55.850182,-26.430856],[-55.849889,-26.43581],[-55.850526,-26.43698],[-55.851086,-26.439192],[-55.851462,-26.43906],[-55.852605,-26.439525],[-55.8539,-26.43921],[-55.854944,-26.439819],[-55.855784,-26.439162],[-55.857369,-26.439721],[-55.859134,-26.440958],[-55.860457,-26.440039],[-55.86174,-26.440568],[-55.862471,-26.440177],[-55.862934,-26.441485],[-55.862745,-26.442558],[-55.864758,-26.442308],[-55.864612,-26.442636],[-55.863576,-26.44307],[-55.863318,-26.444138],[-55.864842,-26.443798],[-55.866095,-26.443907],[-55.866127,-26.443515],[-55.865157,-26.443002],[-55.865534,-26.442657],[-55.866994,-26.443355],[-55.866894,-26.444315],[-55.867889,-26.444165],[-55.868895,-26.444941],[-55.870128,-26.442707],[-55.87106,-26.444168],[-55.869658,-26.444888],[-55.870245,-26.44617],[-55.87081,-26.44636],[-55.872279,-26.445821],[-55.872297,-26.445423],[-55.871581,-26.444994],[-55.871869,-26.444648],[-55.872695,-26.445246],[-55.873613,-26.446761],[-55.873621,-26.447113],[-55.87327,-26.447219],[-55.871826,-26.44681],[-55.872106,-26.448257],[-55.87333,-26.44833],[-55.873585,-26.44918],[-55.874132,-26.449641],[-55.875382,-26.449985],[-55.87646,-26.449871],[-55.876774,-26.450921],[-55.876046,-26.451421],[-55.876142,-26.451828],[-55.876793,-26.451828],[-55.877415,-26.451102],[-55.877762,-26.4511],[-55.877176,-26.452364],[-55.87581,-26.452769],[-55.876333,-26.454154],[-55.876661,-26.454166],[-55.877384,-26.452722],[-55.878216,-26.452106],[-55.878632,-26.452059],[-55.880532,-26.452932],[-55.880885,-26.45382],[-55.880666,-26.454278],[-55.878781,-26.455681],[-55.876997,-26.456358],[-55.876135,-26.457655],[-55.877373,-26.458446],[-55.878161,-26.457902],[-55.878139,-26.456552],[-55.87907,-26.456947],[-55.87942,-26.457911],[-55.879191,-26.460289],[-55.879822,-26.460018],[-55.880613,-26.458873],[-55.883052,-26.459199],[-55.883113,-26.460121],[-55.882556,-26.461556],[-55.882843,-26.46178],[-55.884136,-26.46174],[-55.883487,-26.4628],[-55.883969,-26.463233],[-55.884568,-26.463197],[-55.884671,-26.463613],[-55.884546,-26.464014],[-55.883785,-26.46427],[-55.88374,-26.464825],[-55.885048,-26.464939],[-55.885177,-26.465549],[-55.885778,-26.466096],[-55.886533,-26.465483],[-55.887062,-26.465514],[-55.887465,-26.465833],[-55.887255,-26.466807],[-55.888121,-26.466922],[-55.887985,-26.468],[-55.890247,-26.469069],[-55.89133,-26.469123],[-55.893016,-26.4697],[-55.893322,-26.470407],[-55.892868,-26.471067],[-55.892834,-26.472312],[-55.892168,-26.472433],[-55.890808,-26.472116],[-55.890342,-26.472532],[-55.893131,-26.474955],[-55.893859,-26.478157],[-55.89449,-26.478076],[-55.894687,-26.477667],[-55.894453,-26.475643],[-55.89498,-26.475723],[-55.89627,-26.479033],[-55.896747,-26.478798],[-55.897881,-26.477141],[-55.899654,-26.477028],[-55.899521,-26.477627],[-55.897894,-26.478603],[-55.898035,-26.479128],[-55.898546,-26.479796],[-55.899703,-26.479195],[-55.900827,-26.479254],[-55.901238,-26.479433],[-55.901306,-26.48007],[-55.900411,-26.481548],[-55.899356,-26.481906],[-55.897051,-26.483955],[-55.898395,-26.48476],[-55.899421,-26.483915],[-55.900287,-26.484228],[-55.899687,-26.485686],[-55.899988,-26.486564],[-55.898973,-26.486683],[-55.898182,-26.485846],[-55.897139,-26.487206],[-55.897105,-26.487878],[-55.898092,-26.48864],[-55.899844,-26.488875],[-55.899406,-26.49028],[-55.899864,-26.490166],[-55.900698,-26.489102],[-55.901343,-26.489094],[-55.902679,-26.490982],[-55.904085,-26.491363],[-55.904621,-26.492301],[-55.905472,-26.492362],[-55.905554,-26.494588],[-55.905026,-26.495893],[-55.906253,-26.497546],[-55.905973,-26.498848],[-55.907052,-26.498536],[-55.907804,-26.497355],[-55.908239,-26.49734],[-55.908574,-26.497726],[-55.908285,-26.498717],[-55.90682,-26.499916],[-55.906942,-26.500309],[-55.908038,-26.500859],[-55.909356,-26.502111],[-55.909163,-26.502678],[-55.907782,-26.503277],[-55.907816,-26.503959],[-55.908646,-26.504891],[-55.910297,-26.50577],[-55.911641,-26.506046],[-55.912029,-26.508099],[-55.912918,-26.508905],[-55.912647,-26.509453],[-55.910783,-26.510992],[-55.910992,-26.511562],[-55.91214,-26.511937],[-55.911028,-26.512556],[-55.910914,-26.513087],[-55.91114,-26.513414],[-55.912007,-26.513619],[-55.916562,-26.513135],[-55.916896,-26.513806],[-55.915488,-26.515334],[-55.91583,-26.515924],[-55.917433,-26.516274],[-55.918983,-26.515735],[-55.919709,-26.516707],[-55.92263,-26.515072],[-55.923634,-26.514881],[-55.924297,-26.51383],[-55.92551,-26.514846],[-55.927235,-26.514949],[-55.92814,-26.515588],[-55.928596,-26.515185],[-55.928724,-26.513976],[-55.929352,-26.513945],[-55.930207,-26.514723],[-55.929974,-26.516784],[-55.931022,-26.516418],[-55.931083,-26.516698],[-55.929994,-26.518247],[-55.930354,-26.519356],[-55.930939,-26.519428],[-55.931732,-26.51794],[-55.932042,-26.517856],[-55.932863,-26.518882],[-55.933069,-26.519945],[-55.935532,-26.519995],[-55.935985,-26.52114],[-55.936429,-26.521275],[-55.938833,-26.520737],[-55.9395,-26.519817],[-55.940635,-26.519766],[-55.941527,-26.518049],[-55.941559,-26.516343],[-55.941827,-26.515875],[-55.946253,-26.51422],[-55.947924,-26.514489],[-55.949219,-26.514273],[-55.94965,-26.514502],[-55.950085,-26.515426],[-55.950402,-26.515383],[-55.951632,-26.51462],[-55.951768,-26.513114],[-55.953887,-26.512475],[-55.9543,-26.511656],[-55.954874,-26.511295],[-55.957766,-26.511781],[-55.959335,-26.511242],[-55.960281,-26.51128],[-55.961536,-26.512454],[-55.96163,-26.513872],[-55.962792,-26.515059],[-55.963696,-26.514298],[-55.963447,-26.512702],[-55.964785,-26.513105],[-55.966189,-26.512668],[-55.966614,-26.513353],[-55.966698,-26.514834],[-55.966967,-26.51494],[-55.968337,-26.513252],[-55.969114,-26.513078],[-55.970479,-26.513367],[-55.97186,-26.512429],[-55.972092,-26.51193],[-55.971652,-26.511105],[-55.971915,-26.510814],[-55.97329,-26.510891],[-55.975554,-26.511666],[-55.976727,-26.512306],[-55.977473,-26.513142],[-55.978915,-26.513401],[-55.980784,-26.512222],[-55.980297,-26.511465],[-55.979133,-26.511028],[-55.980635,-26.50926],[-55.981202,-26.509075],[-55.982091,-26.509252],[-55.983568,-26.509954],[-55.98391,-26.510665],[-55.985696,-26.509996],[-55.986162,-26.511245],[-55.986974,-26.510705],[-55.987459,-26.509187],[-55.987786,-26.509085],[-55.988323,-26.509581],[-55.988845,-26.511544],[-55.989479,-26.511535],[-55.989724,-26.510607],[-55.990299,-26.510308],[-55.99161,-26.51099],[-55.992899,-26.511162],[-55.993517,-26.511753],[-55.994132,-26.513351],[-55.994623,-26.513341],[-55.994916,-26.512643],[-55.996433,-26.513372],[-55.997496,-26.514228],[-55.997617,-26.515682],[-55.998502,-26.51605],[-55.999456,-26.516025],[-56.000116,-26.512829],[-56.000712,-26.51221],[-56.00159,-26.513236],[-56.002673,-26.513664],[-56.003796,-26.51573],[-56.005861,-26.514616],[-56.006156,-26.513778],[-56.005644,-26.512958],[-56.006102,-26.512595],[-56.007041,-26.513274],[-56.007516,-26.514718],[-56.008471,-26.514291],[-56.008146,-26.513133],[-56.008469,-26.512855],[-56.009419,-26.513882],[-56.011762,-26.514824],[-56.013152,-26.513719],[-56.013785,-26.51366],[-56.014233,-26.514087],[-56.014273,-26.51522],[-56.016533,-26.516351],[-56.01761,-26.516395],[-56.018452,-26.515538],[-56.018722,-26.516326],[-56.018082,-26.517991],[-56.018987,-26.518187],[-56.019421,-26.519982],[-56.020166,-26.521279],[-56.019042,-26.521835],[-56.019758,-26.524427],[-56.019563,-26.526737],[-56.017999,-26.526098],[-56.017576,-26.526168],[-56.017486,-26.526573],[-56.018317,-26.527274],[-56.021255,-26.528057],[-56.019778,-26.529438],[-56.018783,-26.529945],[-56.018682,-26.530306],[-56.020374,-26.531216],[-56.020523,-26.53263],[-56.021528,-26.533404],[-56.022903,-26.533626],[-56.023794,-26.534241],[-56.024176,-26.534068],[-56.025325,-26.531999],[-56.026872,-26.53084],[-56.027381,-26.530997],[-56.02782,-26.531578],[-56.028207,-26.53298],[-56.029434,-26.532677],[-56.030672,-26.533877],[-56.030691,-26.534257],[-56.028964,-26.53694],[-56.029101,-26.53737],[-56.030071,-26.537169],[-56.030455,-26.537442],[-56.030155,-26.538447],[-56.029187,-26.539058],[-56.02978,-26.53974],[-56.029745,-26.540213],[-56.028341,-26.541549],[-56.025646,-26.542136],[-56.025059,-26.543165],[-56.025369,-26.544156],[-56.025671,-26.544271],[-56.028095,-26.543597],[-56.028843,-26.545367],[-56.030497,-26.547125],[-56.032189,-26.547105],[-56.033272,-26.547808],[-56.034009,-26.547695],[-56.034816,-26.547136],[-56.035785,-26.545211],[-56.036226,-26.54502],[-56.03784,-26.54587],[-56.03874,-26.545849],[-56.04131,-26.54435],[-56.041219,-26.543686],[-56.039874,-26.543284],[-56.040095,-26.542522],[-56.041783,-26.542028],[-56.04304,-26.540588],[-56.045347,-26.539664],[-56.046585,-26.53872],[-56.047144,-26.538787],[-56.047985,-26.539438],[-56.048437,-26.539319],[-56.047358,-26.536491],[-56.045827,-26.536151],[-56.045511,-26.535824],[-56.045801,-26.533871],[-56.048581,-26.533695],[-56.049891,-26.534354],[-56.050702,-26.534125],[-56.051529,-26.532505],[-56.051254,-26.531939],[-56.050239,-26.531192],[-56.050551,-26.530549],[-56.051531,-26.52981],[-56.050758,-26.527977],[-56.052736,-26.526017],[-56.055311,-26.524305],[-56.055874,-26.523506],[-56.057869,-26.523763],[-56.059608,-26.524564],[-56.061256,-26.524227],[-56.061602,-26.525426],[-56.063098,-26.525246],[-56.064212,-26.525736],[-56.064682,-26.526516],[-56.063789,-26.527824],[-56.064046,-26.528918],[-56.065184,-26.529232],[-56.066498,-26.52832],[-56.067117,-26.528518],[-56.067937,-26.530054],[-56.067992,-26.531043],[-56.069034,-26.532196],[-56.069674,-26.532521],[-56.071146,-26.532273],[-56.071947,-26.532631],[-56.073447,-26.53562],[-56.073089,-26.536913],[-56.073248,-26.53728],[-56.07516,-26.537961]]]}}]}
