{"type":"FeatureCollection","name":"distrito","features":[{"type":"Feature","properties":{"clave":"10-31","nombre":"Santa Rita"},"geometry":{"type":"Polygon","coordinates":[[[-55.109489,-25.903655],[-55.110307,-25.903278],[-55.111087,-25.902209],[-55.112255,-25.902066],[-55.112322,-25.902573],[-55.111725,-25.903346],[-55.111259,-25.906616],[-55.112033,-25.907272],[-55.112993,-25.907447],[-55.114706,-25.90667],[-55.115378,-25.907343],[-55.116316,-25.907404],[-55.11825,-25.906588],[-55.119889,-25.90746],[-55.121924,-25.907098],[-55.122529,-25.90869],[-55.124244,-25.907796],[-55.125235,-25.907673],[-55.126678,-25.905629],[-55.127948,-25.905741],[-55.126781,-25.903297],[-55.127115,-25.902959],[-55.127938,-25.903245],[-55.128209,-25.903086],[-55.128225,-25.90258],[-55.127382,-25.901789],[-55.129157,-25.900715],[-55.128647,-25.900221],[-55.128913,-25.900012],[-55.128662,-25.899747],[-55.129097,-25.899355],[-55.128041,-25.898583],[-55.128302,-25.898063],[-55.12941,-25.898876],[-55.130308,-25.898274],[-55.130573,-25.898408],[-55.130051,-25.899918],[-55.131435,-25.902721],[-55.131977,-25.902123],[-55.1325,-25.902125],[-55.132679,-25.902561],[-55.132388,-25.903167],[-55.133251,-25.903634],[-55.133353,-25.90187],[-55.133824,-25.901935],[-55.134506,-25.902837],[-55.135186,-25.90188],[-55.135697,-25.901706],[-55.136172,-25.902895],[-55.136809,-25.903147],[-55.137392,-25.900848],[-55.137836,-25.900461],[-55.137283,-25.899677],[-55.136564,-25.899325],[-55.137117,-25.898646],[-55.138254,-25.899266],[-55.139023,-25.898449],[-55.13948,-25.898794],[-55.140392,-25.898336],[-55.141862,-25.898378],[-55.143543,-25.896968],[-55.144374,-25.896731],[-55.144815,-25.895928],[-55.145853,-25.895292],[-55.147122,-25.894866],[-55.148226,-25.895232],[-55.14916,-25.89444],[-55.150041,-25.894641],[-55.149614,-25.894983],[-55.150526,-25.895311],[-55.150648,-25.895998],[-55.151503,-25.895973],[-55.151909,-25.895486],[-55.152575,-25.895558],[-55.154181,-25.894351],[-55.154615,-25.894474],[-55.155408,-25.893631],[-55.156275,-25.893831],[-55.156591,-25.89328],[-55.158098,-25.892925],[-55.158902,-25.890963],[-55.160108,-25.889836],[-55.161246,-25.889679],[-55.162056,-25.888683],[-55.162671,-25.888483],[-55.163022,-25.885603],[-55.16601,-25.884449],[-55.167078,-25.88338],[-55.16718,-25.87829],[-55.166757,-25.876962],[-55.16737,-25.876071],[-55.167282,-25.875122],[-55.167897,-25.873948],[-55.167745,-25.872393],[-55.168285,-25.871556],[-55.171727,-25.869735],[-55.177689,-25.867612],[-55.178185,-25.868083],[-55.178195,-25.869008],[-55.179161,-25.871155],[-55.181161,-25.872336],[-55.181965,-25.871976],[-55.1825,-25.872132],[-55.183369,-25.873041],[-55.185003,-25.872366],[-55.185607,-25.871719],[-55.186884,-25.871916],[-55.189576,-25.87171],[-55.191534,-25.870805],[-55.193474,-25.868536],[-55.193598,-25.867233],[-55.194812,-25.865231],[-55.194985,-25.862109],[-55.19882,-25.857192],[-55.20123,-25.856197],[-55.207723,-25.855352],[-55.209178,-25.85254],[-55.21017,-25.852399],[-55.210614,-25.851745],[-55.209933,-25.850243],[-55.210299,-25.849688],[-55.210762,-25.849644],[-55.210545,-25.848915],[-55.210871,-25.848779],[-55.211197,-25.849099],[-55.211453,-25.848849],[-55.212091,-25.845819],[-55.215781,-25.842443],[-55.216694,-25.8424],[-55.217261,-25.841888],[-55.220821,-25.840302],[-55.224433,-25.841272],[-55.225823,-25.841122],[-55.226602,-25.840102],[-55.22856,-25.839684],[-55.231482,-25.837995],[-55.234746,-25.837335],[-55.236883,-25.83733],[-55.238016,-25.83649],[-55.23896,-25.836511],[-55.23983,-25.835921],[-55.24159,-25.832544],[-55.243745,-25.830832],[-55.243392,-25.829794],[-55.244,-25.8281],[-55.245631,-25.826359],[-55.246478,-25.824406],[-55.24688,-25.820786],[-55.257556,-25.812966],[-55.259827,-25.812984],[-55.261427,-25.811861],[-55.264396,-25.807536],[-55.26664,-25.804995],[-55.267143,-25.803899],[-55.273018,-25.799568],[-55.273974,-25.797774],[-55.274491,-25.794959],[-55.277007,-25.791184],[-55.281484,-25.787635],[-55.282389,-25.787506],[-55.284722,-25.786184],[-55.285635,-25.786],[-55.286132,-25.785501],[-55.286464,-25.783848],[-55.285762,-25.783113],[-55.285704,-25.781623],[-55.28612,-25.78072],[-55.286314,-25.78103],[-55.286637,-25.780893],[-55.287213,-25.779185],[-55.287141,-25.778755],[-55.286796,-25.778656],[-55.28787,-25.777487],[-55.287321,-25.775972],[-55.287524,-25.773826],[-55.286758,-25.772964],[-55.287119,-25.772941],[-55.287141,-25.772693],[-55.287526,-25.772973],[-55.287963,-25.772089],[-55.287228,-25.771679],[-55.287416,-25.771518],[-55.286992,-25.76992],[-55.286183,-25.768453],[-55.285981,-25.767326],[-55.284612,-25.765401],[-55.284381,-25.76403],[-55.283547,-25.763637],[-55.28369,-25.763476],[-55.28339,-25.763373],[-55.282515,-25.761386],[-55.281982,-25.761064],[-55.281984,-25.760269],[-55.281473,-25.760024],[-55.281886,-25.759433],[-55.281485,-25.7595],[-55.28138,-25.758335],[-55.280911,-25.758031],[-55.281018,-25.7568],[-55.280213,-25.755888],[-55.280327,-25.75463],[-55.280739,-25.753962],[-55.280576,-25.753527],[-55.280944,-25.753504],[-55.279607,-25.7518],[-55.279748,-25.750701],[-55.27831,-25.750029],[-55.277892,-25.749455],[-55.27756,-25.749713],[-55.275862,-25.748696],[-55.276798,-25.746156],[-55.276516,-25.74586],[-55.276981,-25.744701],[-55.276782,-25.743191],[-55.277246,-25.74195],[-55.277015,-25.741076],[-55.276663,-25.741108],[-55.276655,-25.739208],[-55.276105,-25.738538],[-55.276064,-25.737915],[-55.278516,-25.736418],[-55.277627,-25.735193],[-55.276895,-25.733316],[-55.276993,-25.730365],[-55.276361,-25.72862],[-55.276624,-25.728406],[-55.276294,-25.728176],[-55.276553,-25.728053],[-55.275799,-25.727326],[-55.275127,-25.725793],[-55.274286,-25.725151],[-55.274226,-25.723611],[-55.273373,-25.722206],[-55.273362,-25.721136],[-55.272725,-25.721165],[-55.272775,-25.720782],[-55.27168,-25.719929],[-55.271629,-25.718737],[-55.272023,-25.717816],[-55.272453,-25.717347],[-55.27285,-25.71779],[-55.273093,-25.716746],[-55.27255,-25.715697],[-55.272729,-25.715238],[-55.272094,-25.714468],[-55.272486,-25.713692],[-55.272026,-25.713208],[-55.272157,-25.712704],[-55.271632,-25.712684],[-55.271485,-25.713093],[-55.271284,-25.71277],[-55.271022,-25.712943],[-55.271177,-25.71243],[-55.270763,-25.712507],[-55.270717,-25.711594],[-55.270077,-25.711447],[-55.26997,-25.710994],[-55.269536,-25.71117],[-55.269051,-25.710961],[-55.26892,-25.710544],[-55.268995,-25.708495],[-55.268641,-25.708342],[-55.2687,-25.70791],[-55.269389,-25.707078],[-55.269052,-25.706366],[-55.269262,-25.705023],[-55.269824,-25.704659],[-55.269338,-25.704414],[-55.26966,-25.703349],[-55.269366,-25.702867],[-55.269901,-25.702313],[-55.269428,-25.702118],[-55.269923,-25.701054],[-55.269511,-25.700855],[-55.269837,-25.699771],[-55.269129,-25.699343],[-55.269016,-25.697893],[-55.269596,-25.696685],[-55.268776,-25.696454],[-55.268886,-25.695973],[-55.268619,-25.695753],[-55.269002,-25.695491],[-55.26838,-25.695141],[-55.268624,-25.69471],[-55.267992,-25.694603],[-55.267848,-25.694227],[-55.267268,-25.694162],[-55.266855,-25.694491],[-55.266514,-25.6939],[-55.266421,-25.694224],[-55.266199,-25.694086],[-55.266416,-25.693348],[-55.265845,-25.693431],[-55.265691,-25.692892],[-55.265216,-25.692801],[-55.265291,-25.692436],[-55.264796,-25.6923],[-55.264701,-25.691689],[-55.263854,-25.691331],[-55.26394,-25.690818],[-55.263443,-25.690658],[-55.263571,-25.690294],[-55.261767,-25.687673],[-55.257902,-25.683907],[-55.257217,-25.68361],[-55.255825,-25.682014],[-55.254847,-25.680531],[-55.254794,-25.679501],[-55.254156,-25.678139],[-55.250926,-25.675816],[-55.248822,-25.673584],[-55.247776,-25.673567],[-55.247078,-25.672881],[-55.246228,-25.673056],[-55.244114,-25.672137],[-55.161831,-25.668799],[-55.161185,-25.667622],[-55.157002,-25.666666],[-55.15341,-25.665168],[-55.151538,-25.663745],[-55.149143,-25.66185],[-55.147,-25.658605],[-55.146763,-25.657121],[-55.14512,-25.655846],[-55.143348,-25.655665],[-55.141528,-25.654689],[-55.141068,-25.654102],[-55.132079,-25.653364],[-55.131559,-25.654671],[-55.13143,-25.656394],[-55.117983,-25.660451],[-55.112926,-25.659315],[-55.103167,-25.666279],[-55.101066,-25.666067],[-55.076002,-25.673855],[-55.073816,-25.674114],[-55.066814,-25.680769],[-55.067088,-25.68181],[-55.066101,-25.682203],[-55.064692,-25.682316],[-55.062264,-25.681995],[-55.061261,-25.682157],[-55.05959,-25.68306],[-55.05695,-25.683346],[-55.044516,-25.682886],[-55.04455,-25.684573],[-55.036226,-25.684941],[-55.033253,-25.683161],[-55.014538,-25.68569],[-55.013075,-25.690473],[-55.022317,-25.703415],[-55.020121,-25.705687],[-55.015934,-25.705197],[-55.00967,-25.708001],[-55.005558,-25.709073],[-54.998252,-25.714958],[-54.997885,-25.719069],[-54.996087,-25.729759],[-54.982902,-25.730335],[-54.980095,-25.728644],[-54.979587,-25.728597],[-54.97759,-25.729899],[-54.978305,-25.731009],[-54.97843,-25.73275],[-54.979424,-25.734151],[-54.979597,-25.735322],[-54.989811,-25.740526],[-54.993126,-25.744541],[-54.998767,-25.747085],[-55.003544,-25.748375],[-55.010527,-25.759423],[-55.011934,-25.762669],[-55.009221,-25.76847],[-55.003294,-25.769287],[-55.005279,-25.775904],[-55.007685,-25.797795],[-55.010636,-25.818854],[-55.025654,-25.8348],[-55.026409,-25.835913],[-55.026524,-25.836537],[-55.024649,-25.841851],[-55.024601,-25.842997],[-55.023208,-25.844305],[-55.025098,-25.846145],[-55.027481,-25.850081],[-55.027677,-25.855775],[-55.028743,-25.857031],[-55.028828,-25.857858],[-55.028079,-25.858579],[-55.029213,-25.860291],[-55.028702,-25.863128],[-55.029652,-25.863809],[-55.031103,-25.863512],[-55.032229,-25.864263],[-55.034763,-25.866938],[-55.038616,-25.872253],[-55.039387,-25.874371],[-55.039174,-25.877536],[-55.039505,-25.878823],[-55.040463,-25.880397],[-55.041855,-25.881842],[-55.043011,-25.882576],[-55.042803,-25.883263],[-55.045528,-25.883769],[-55.047231,-25.884405],[-55.054604,-25.897679],[-55.062836,-25.904853],[-55.065225,-25.906194],[-55.066649,-25.905965],[-55.066878,-25.907272],[-55.067588,-25.908613],[-55.071187,-25.912705],[-55.069527,-25.914678],[-55.070181,-25.914985],[-55.071474,-25.914957],[-55.071839,-25.915837],[-55.072688,-25.916489],[-55.074109,-25.916423],[-55.07546,-25.917429],[-55.076388,-25.915239],[-55.077491,-25.914567],[-55.077233,-25.913485],[-55.078142,-25.912288],[-55.080458,-25.91184],[-55.083268,-25.91069],[-55.085273,-25.910604],[-55.085996,-25.909905],[-55.085402,-25.909139],[-55.086041,-25.908872],[-55.086534,-25.908237],[-55.086272,-25.907363],[-55.085528,-25.906459],[-55.086126,-25.905619],[-55.086137,-25.905091],[-55.084831,-25.903052],[-55.086069,-25.900549],[-55.087354,-25.902313],[-55.091302,-25.904089],[-55.09365,-25.905939],[-55.094994,-25.905934],[-55.096075,-25.906436],[-55.09687,-25.90734],[-55.097724,-25.907789],[-55.098814,-25.907781],[-55.098899,-25.907281],[-55.099509,-25.906788],[-55.10134,-25.906947],[-55.102257,-25.906666],[-55.104119,-25.907471],[-55.10532,-25.906941],[-55.106273,-25.907504],[-55.10676,-25.907239],[-55.10639,-25.905307],[-55.106979,-25.90364],[-55.106839,-25.902948],[-55.107354,-25.902544],[-55.108301,-25.903409],[-55.109489,-25.903655]]]}}]}
