{"type":"FeatureCollection","name":"distrito","features":[{"type":"Feature","properties":{"clave":"12-19","nombre":"Paso de Patria"},"geometry":{"type":"Polygon","coordinates":[[[-58.504831,-27.279473],[-58.510127,-27.281615],[-58.516802,-27.28526],[-58.529319,-27.293618],[-58.537336,-27.295882],[-58.545678,-27.297003],[-58.564878,-27.298411],[-58.585165,-27.300883],[-58.594877,-27.302502],[-58.610192,-27.306219],[-58.608318,-27.296294],[-58.607842,-27.292098],[-58.607884,-27.285363],[-58.607571,-27.282833],[-58.606699,-27.279939],[-58.602517,-27.273006],[-58.595329,-27.263882],[-58.593692,-27.260688],[-58.591992,-27.253045],[-58.592199,-27.249421],[-58.595128,-27.237328],[-58.596251,-27.226077],[-58.598121,-27.222206],[-58.60088,-27.218895],[-58.607263,-27.213886],[-58.616509,-27.209189],[-58.629869,-27.203536],[-58.637053,-27.200128],[-58.645827,-27.196756],[-58.621909,-27.191362],[-58.567273,-27.182015],[-58.564675,-27.176677],[-58.562689,-27.176229],[-58.56209,-27.175405],[-58.561593,-27.175239],[-58.561646,-27.174955],[-58.559387,-27.17444],[-58.559111,-27.174067],[-58.557721,-27.173683],[-58.557646,-27.173362],[-58.557272,-27.173507],[-58.554973,-27.172616],[-58.553671,-27.171314],[-58.552246,-27.170844],[-58.548179,-27.170717],[-58.545287,-27.169377],[-58.544572,-27.168672],[-58.540708,-27.161752],[-58.527895,-27.161458],[-58.525651,-27.160762],[-58.523676,-27.160728],[-58.521815,-27.16147],[-58.520039,-27.162915],[-58.519615,-27.163585],[-58.519422,-27.165539],[-58.518544,-27.16572],[-58.514209,-27.164177],[-58.509336,-27.164852],[-58.507806,-27.164873],[-58.505487,-27.16413],[-58.504351,-27.16433],[-58.504139,-27.164183],[-58.504522,-27.163364],[-58.504369,-27.163013],[-58.502358,-27.160347],[-58.499936,-27.159762],[-58.499816,-27.159293],[-58.498697,-27.15849],[-58.497163,-27.158397],[-58.496112,-27.158745],[-58.494967,-27.159596],[-58.493287,-27.162998],[-58.492231,-27.164287],[-58.492564,-27.164957],[-58.49223,-27.165525],[-58.491736,-27.165609],[-58.490836,-27.165132],[-58.490213,-27.165672],[-58.488592,-27.166205],[-58.487054,-27.166285],[-58.483898,-27.167118],[-58.463053,-27.164116],[-58.41731,-27.156237],[-58.429626,-27.197346],[-58.429402,-27.199594],[-58.422449,-27.203718],[-58.41772,-27.207819],[-58.416833,-27.21267],[-58.413698,-27.223172],[-58.431368,-27.285078],[-58.434089,-27.284081],[-58.440761,-27.282356],[-58.454614,-27.28043],[-58.467878,-27.275458],[-58.474089,-27.274078],[-58.477331,-27.273806],[-58.487953,-27.274978],[-58.494922,-27.276445],[-58.504831,-27.279473]]]}}]}
