{"type":"FeatureCollection","name":"distrito","features":[{"type":"Feature","properties":{"clave":"3-15","nombre":"Isla Pucú"},"geometry":{"type":"Polygon","coordinates":[[[-56.917009,-25.329593],[-56.918406,-25.327733],[-56.918886,-25.327688],[-56.91974,-25.326881],[-56.921857,-25.323757],[-56.922112,-25.322954],[-56.921702,-25.322646],[-56.921553,-25.321829],[-56.921807,-25.321518],[-56.921458,-25.321138],[-56.922344,-25.32089],[-56.922413,-25.320552],[-56.923395,-25.319897],[-56.922978,-25.319324],[-56.923789,-25.318091],[-56.92378,-25.317089],[-56.924758,-25.315879],[-56.92599,-25.315519],[-56.927415,-25.313614],[-56.927523,-25.312828],[-56.926979,-25.31211],[-56.927592,-25.311072],[-56.930423,-25.308603],[-56.931736,-25.308798],[-56.932332,-25.308478],[-56.933678,-25.306519],[-56.937346,-25.305979],[-56.93938,-25.304896],[-56.941185,-25.303411],[-56.94148,-25.30165],[-56.942961,-25.300653],[-56.944186,-25.300572],[-56.945214,-25.297457],[-56.9461,-25.297064],[-56.941108,-25.288226],[-56.945256,-25.238892],[-56.942921,-25.237848],[-56.943799,-25.23113],[-56.945514,-25.222027],[-56.939477,-25.219317],[-56.930599,-25.224482],[-56.923985,-25.228831],[-56.918289,-25.233609],[-56.91709,-25.233616],[-56.9109,-25.237414],[-56.90326,-25.241194],[-56.904038,-25.246638],[-56.906751,-25.249245],[-56.907512,-25.250981],[-56.907363,-25.253449],[-56.906197,-25.253367],[-56.893412,-25.255603],[-56.882632,-25.25958],[-56.888182,-25.27704],[-56.887586,-25.277589],[-56.879064,-25.290936],[-56.868476,-25.294811],[-56.868664,-25.295349],[-56.866152,-25.301858],[-56.860074,-25.30494],[-56.856072,-25.309692],[-56.854915,-25.312671],[-56.851762,-25.315676],[-56.850788,-25.315168],[-56.848949,-25.315623],[-56.847916,-25.315536],[-56.847268,-25.315955],[-56.846433,-25.31576],[-56.844385,-25.316309],[-56.841587,-25.316401],[-56.837824,-25.317333],[-56.83527,-25.317447],[-56.831412,-25.318833],[-56.833159,-25.32311],[-56.832646,-25.326252],[-56.834272,-25.330919],[-56.837913,-25.336995],[-56.836482,-25.341942],[-56.837221,-25.346267],[-56.835826,-25.354698],[-56.841524,-25.357371],[-56.84822,-25.35938],[-56.857952,-25.363264],[-56.859196,-25.364136],[-56.859567,-25.365464],[-56.860025,-25.365817],[-56.860264,-25.367381],[-56.862233,-25.367232],[-56.864527,-25.36658],[-56.865642,-25.366897],[-56.869755,-25.366535],[-56.870479,-25.365524],[-56.871487,-25.364816],[-56.87273,-25.364523],[-56.873066,-25.363386],[-56.874095,-25.363753],[-56.875638,-25.36314],[-56.876241,-25.362179],[-56.876074,-25.361099],[-56.877441,-25.361407],[-56.878049,-25.360785],[-56.878514,-25.361372],[-56.879002,-25.361007],[-56.87985,-25.361026],[-56.880207,-25.359838],[-56.880118,-25.358457],[-56.880843,-25.357604],[-56.881466,-25.357672],[-56.882539,-25.357276],[-56.883756,-25.357949],[-56.88574,-25.357404],[-56.886512,-25.357644],[-56.88695,-25.357496],[-56.888571,-25.354639],[-56.889458,-25.353872],[-56.890166,-25.352093],[-56.892074,-25.352473],[-56.894891,-25.351993],[-56.895605,-25.350065],[-56.896327,-25.349118],[-56.898377,-25.348519],[-56.898858,-25.347255],[-56.899518,-25.346469],[-56.899764,-25.345074],[-56.899579,-25.34316],[-56.89908,-25.342053],[-56.899902,-25.340329],[-56.900641,-25.340144],[-56.902202,-25.338127],[-56.903761,-25.337347],[-56.904987,-25.337808],[-56.905628,-25.337736],[-56.909336,-25.336005],[-56.910187,-25.336181],[-56.910269,-25.336692],[-56.91226,-25.337004],[-56.913154,-25.336567],[-56.914775,-25.336378],[-56.915712,-25.335087],[-56.915858,-25.333119],[-56.917073,-25.332442],[-56.917408,-25.330681],[-56.917009,-25.329593]]]}}]}
