{"type":"FeatureCollection","name":"distrito","features":[{"type":"Feature","properties":{"clave":"3-0","nombre":"Caacupé"},"geometry":{"type":"Polygon","coordinates":[[[-57.116593,-25.433205],[-57.117079,-25.43866],[-57.115982,-25.441379],[-57.115329,-25.444413],[-57.116069,-25.445753],[-57.116938,-25.44658],[-57.117635,-25.448808],[-57.119071,-25.450818],[-57.131296,-25.450012],[-57.131811,-25.45189],[-57.130724,-25.452781],[-57.131784,-25.455691],[-57.133909,-25.456243],[-57.135867,-25.455967],[-57.140232,-25.453844],[-57.142188,-25.451449],[-57.144289,-25.445362],[-57.14451,-25.44126],[-57.149781,-25.441596],[-57.151598,-25.440956],[-57.152189,-25.440295],[-57.153544,-25.439951],[-57.159864,-25.436048],[-57.164435,-25.433716],[-57.167836,-25.429704],[-57.169492,-25.428995],[-57.170696,-25.429062],[-57.176647,-25.430832],[-57.178906,-25.430966],[-57.180035,-25.430486],[-57.181534,-25.426109],[-57.182054,-25.421391],[-57.183181,-25.417091],[-57.183943,-25.415859],[-57.18394,-25.413524],[-57.183136,-25.410526],[-57.183466,-25.409698],[-57.187757,-25.409419],[-57.192119,-25.406678],[-57.1952,-25.403803],[-57.195198,-25.402162],[-57.194594,-25.400863],[-57.193388,-25.399976],[-57.193009,-25.398746],[-57.195091,-25.393386],[-57.196695,-25.390322],[-57.196706,-25.384874],[-57.19573,-25.382235],[-57.197578,-25.376644],[-57.197829,-25.374397],[-57.194932,-25.369791],[-57.196052,-25.366745],[-57.19998,-25.360606],[-57.193353,-25.359841],[-57.190447,-25.360676],[-57.190445,-25.360288],[-57.189724,-25.359512],[-57.189153,-25.357287],[-57.189267,-25.356004],[-57.188973,-25.354799],[-57.189069,-25.35418],[-57.190508,-25.352101],[-57.189878,-25.349583],[-57.186996,-25.344096],[-57.186332,-25.342223],[-57.183076,-25.342662],[-57.169955,-25.35133],[-57.162604,-25.358443],[-57.159287,-25.357751],[-57.158403,-25.357865],[-57.156649,-25.357546],[-57.154545,-25.356469],[-57.151437,-25.355533],[-57.149535,-25.355355],[-57.149184,-25.355581],[-57.148476,-25.354227],[-57.147816,-25.353659],[-57.144983,-25.352943],[-57.141281,-25.351123],[-57.140161,-25.349837],[-57.139018,-25.349513],[-57.138574,-25.348678],[-57.137984,-25.348588],[-57.137626,-25.347306],[-57.135967,-25.346743],[-57.135843,-25.34626],[-57.134308,-25.345801],[-57.133824,-25.34596],[-57.132549,-25.34569],[-57.130854,-25.344368],[-57.130242,-25.344346],[-57.129796,-25.34474],[-57.128626,-25.344276],[-57.127737,-25.34471],[-57.125116,-25.339262],[-57.125921,-25.335455],[-57.12561,-25.330813],[-57.128589,-25.329398],[-57.126195,-25.324311],[-57.133445,-25.319216],[-57.130964,-25.315904],[-57.129539,-25.30831],[-57.129629,-25.304682],[-57.127581,-25.303789],[-57.124334,-25.302924],[-57.119884,-25.303424],[-57.118559,-25.305199],[-57.117637,-25.305697],[-57.116311,-25.307662],[-57.1146,-25.308634],[-57.114084,-25.309407],[-57.113405,-25.30952],[-57.112795,-25.310144],[-57.11238,-25.311223],[-57.111213,-25.311034],[-57.110896,-25.311374],[-57.107593,-25.310643],[-57.105082,-25.312557],[-57.103364,-25.311492],[-57.102462,-25.312001],[-57.102069,-25.311677],[-57.101887,-25.312013],[-57.100993,-25.311312],[-57.100282,-25.311253],[-57.100337,-25.310141],[-57.099153,-25.310217],[-57.098333,-25.309728],[-57.096604,-25.309976],[-57.09641,-25.309583],[-57.095675,-25.310147],[-57.094368,-25.310202],[-57.094193,-25.310613],[-57.092179,-25.310212],[-57.084703,-25.313544],[-57.084988,-25.318061],[-57.085551,-25.318828],[-57.085083,-25.320363],[-57.08546,-25.322493],[-57.081472,-25.32291],[-57.081294,-25.324588],[-57.080144,-25.324662],[-57.079186,-25.323942],[-57.078188,-25.323766],[-57.076201,-25.322742],[-57.073718,-25.322266],[-57.070926,-25.324761],[-57.072893,-25.326829],[-57.073053,-25.327565],[-57.072486,-25.328641],[-57.072285,-25.332247],[-57.071504,-25.333021],[-57.068473,-25.33295],[-57.067965,-25.333455],[-57.066854,-25.333384],[-57.066125,-25.333947],[-57.065115,-25.333867],[-57.064931,-25.334239],[-57.065585,-25.335019],[-57.065974,-25.33482],[-57.066359,-25.335182],[-57.066098,-25.335674],[-57.066247,-25.336897],[-57.066738,-25.337497],[-57.067425,-25.339597],[-57.068231,-25.340127],[-57.068069,-25.340714],[-57.068394,-25.341408],[-57.069101,-25.341851],[-57.070829,-25.342155],[-57.071367,-25.342457],[-57.071339,-25.342774],[-57.07006,-25.343433],[-57.069728,-25.344201],[-57.068195,-25.344815],[-57.067796,-25.345294],[-57.067451,-25.347278],[-57.066638,-25.348011],[-57.066872,-25.349396],[-57.066538,-25.351083],[-57.065513,-25.350269],[-57.063361,-25.35047],[-57.062986,-25.350804],[-57.062605,-25.351555],[-57.062577,-25.353705],[-57.06172,-25.355213],[-57.06214,-25.356071],[-57.061668,-25.357223],[-57.060564,-25.358532],[-57.060888,-25.358503],[-57.060669,-25.359361],[-57.061399,-25.360297],[-57.062081,-25.360908],[-57.063229,-25.361264],[-57.063747,-25.365958],[-57.065996,-25.367286],[-57.065815,-25.370838],[-57.065293,-25.371827],[-57.063546,-25.372016],[-57.062675,-25.375011],[-57.061257,-25.376613],[-57.059454,-25.377652],[-57.0593,-25.378168],[-57.060062,-25.379142],[-57.062586,-25.380077],[-57.063532,-25.380763],[-57.064844,-25.381115],[-57.066881,-25.381123],[-57.067993,-25.381613],[-57.068112,-25.38247],[-57.067649,-25.384448],[-57.065443,-25.386408],[-57.066666,-25.38863],[-57.066388,-25.39035],[-57.067609,-25.39107],[-57.069147,-25.392666],[-57.069786,-25.396305],[-57.069642,-25.399854],[-57.071409,-25.401433],[-57.073172,-25.40253],[-57.07594,-25.403187],[-57.077838,-25.405598],[-57.078094,-25.406916],[-57.076599,-25.409111],[-57.076658,-25.409928],[-57.078466,-25.411061],[-57.080563,-25.410667],[-57.08138,-25.410851],[-57.082006,-25.41179],[-57.082271,-25.412969],[-57.082085,-25.413465],[-57.082857,-25.414102],[-57.08344,-25.41523],[-57.085167,-25.415681],[-57.086648,-25.417034],[-57.088274,-25.417891],[-57.0896,-25.41934],[-57.090443,-25.419556],[-57.091444,-25.42059],[-57.094705,-25.42271],[-57.096529,-25.423124],[-57.099019,-25.42412],[-57.10036,-25.425081],[-57.103185,-25.425968],[-57.106167,-25.428215],[-57.109134,-25.429143],[-57.111189,-25.429254],[-57.113122,-25.428901],[-57.114366,-25.429229],[-57.115659,-25.43075],[-57.115856,-25.432335],[-57.116593,-25.433205]]]}}]}
