{"type":"FeatureCollection","name":"distrito","features":[{"type":"Feature","properties":{"clave":"11-31","nombre":"Villeta"},"geometry":{"type":"Polygon","coordinates":[[[-57.767822,-25.749241],[-57.761286,-25.743501],[-57.758022,-25.741143],[-57.743842,-25.732046],[-57.733799,-25.724738],[-57.728507,-25.717749],[-57.727742,-25.715147],[-57.727727,-25.712655],[-57.728216,-25.710955],[-57.729205,-25.709253],[-57.731071,-25.707884],[-57.733191,-25.707196],[-57.735689,-25.706958],[-57.743074,-25.70907],[-57.747074,-25.709388],[-57.752324,-25.709587],[-57.756445,-25.709227],[-57.759689,-25.708533],[-57.762179,-25.707048],[-57.764412,-25.704657],[-57.766753,-25.699439],[-57.76711,-25.696606],[-57.766718,-25.69389],[-57.76607,-25.690273],[-57.764929,-25.687786],[-57.756993,-25.677304],[-57.755602,-25.674706],[-57.752293,-25.664876],[-57.750398,-25.66149],[-57.742974,-25.652584],[-57.740335,-25.650106],[-57.736825,-25.647861],[-57.733319,-25.646407],[-57.729942,-25.645629],[-57.725445,-25.645426],[-57.721201,-25.645786],[-57.716088,-25.647057],[-57.712227,-25.648773],[-57.705876,-25.65192],[-57.692063,-25.660587],[-57.689071,-25.661508],[-57.6862,-25.66186],[-57.681578,-25.661769],[-57.676824,-25.660432],[-57.674444,-25.65931],[-57.67256,-25.657395],[-57.67155,-25.655477],[-57.670662,-25.652989],[-57.670644,-25.649706],[-57.671002,-25.646761],[-57.672833,-25.639285],[-57.675935,-25.613571],[-57.677026,-25.607679],[-57.677128,-25.603606],[-57.676364,-25.600891],[-57.674478,-25.598525],[-57.671473,-25.596954],[-57.668472,-25.59606],[-57.664225,-25.595741],[-57.660483,-25.59621],[-57.657242,-25.597132],[-57.653632,-25.598958],[-57.650773,-25.601233],[-57.642955,-25.609986],[-57.640345,-25.612147],[-57.634991,-25.615114],[-57.629633,-25.61706],[-57.626264,-25.617531],[-57.622643,-25.617546],[-57.619017,-25.616541],[-57.616138,-25.615082],[-57.613127,-25.612263],[-57.60986,-25.608205],[-57.608597,-25.605266],[-57.606288,-25.593049],[-57.605277,-25.590674],[-57.604511,-25.587282],[-57.604618,-25.58366],[-57.605843,-25.579126],[-57.605947,-25.574936],[-57.605927,-25.570864],[-57.604667,-25.568489],[-57.603037,-25.567137],[-57.60054,-25.566809],[-57.597422,-25.567273],[-57.59244,-25.569447],[-57.589449,-25.570362],[-57.585956,-25.570715],[-57.583584,-25.570611],[-57.581083,-25.569492],[-57.578828,-25.567691],[-57.576943,-25.565093],[-57.574039,-25.558084],[-57.571394,-25.552888],[-57.57011,-25.545254],[-57.569965,-25.541064],[-57.570818,-25.536645],[-57.572294,-25.532336],[-57.574771,-25.528367],[-57.577003,-25.525527],[-57.579351,-25.520764],[-57.579953,-25.516233],[-57.579805,-25.511366],[-57.579162,-25.507522],[-57.578026,-25.504695],[-57.576143,-25.502097],[-57.572131,-25.49781],[-57.570248,-25.49533],[-57.568351,-25.489788],[-57.568077,-25.484583],[-57.567442,-25.482093],[-57.563942,-25.482209],[-57.560295,-25.481829],[-57.559986,-25.480721],[-57.556862,-25.480748],[-57.557037,-25.479992],[-57.555989,-25.478792],[-57.555056,-25.479808],[-57.555584,-25.480411],[-57.555555,-25.480812],[-57.554526,-25.48071],[-57.554366,-25.481073],[-57.553339,-25.481474],[-57.551395,-25.480674],[-57.550368,-25.48129],[-57.549988,-25.481005],[-57.548894,-25.481222],[-57.548407,-25.480925],[-57.547621,-25.481005],[-57.546111,-25.482456],[-57.545907,-25.483455],[-57.545062,-25.483639],[-57.543219,-25.484892],[-57.541338,-25.484618],[-57.540361,-25.484062],[-57.539883,-25.484233],[-57.53956,-25.484799],[-57.539298,-25.48446],[-57.538973,-25.48478],[-57.538596,-25.484495],[-57.538339,-25.484709],[-57.537495,-25.484611],[-57.536732,-25.484114],[-57.535988,-25.484466],[-57.535593,-25.484228],[-57.535513,-25.483524],[-57.534376,-25.483427],[-57.533133,-25.482718],[-57.532544,-25.482947],[-57.53234,-25.482753],[-57.531949,-25.483514],[-57.530952,-25.483854],[-57.529056,-25.483754],[-57.528738,-25.483017],[-57.527731,-25.482844],[-57.524454,-25.48375],[-57.523675,-25.483726],[-57.522839,-25.484357],[-57.521661,-25.484248],[-57.520362,-25.485535],[-57.518686,-25.485286],[-57.51839,-25.4857],[-57.515891,-25.486757],[-57.51528,-25.487529],[-57.51366,-25.488552],[-57.512714,-25.488833],[-57.511861,-25.488609],[-57.508284,-25.48948],[-57.507341,-25.489054],[-57.505259,-25.489413],[-57.504195,-25.490103],[-57.502631,-25.488383],[-57.502203,-25.488835],[-57.501684,-25.488854],[-57.499964,-25.488202],[-57.500077,-25.488778],[-57.499646,-25.489],[-57.499006,-25.488711],[-57.498217,-25.48903],[-57.497115,-25.489003],[-57.496754,-25.488721],[-57.495861,-25.489211],[-57.494789,-25.488497],[-57.493684,-25.488635],[-57.492974,-25.488142],[-57.491835,-25.489164],[-57.48868,-25.489636],[-57.48515,-25.49216],[-57.485023,-25.492827],[-57.484268,-25.493304],[-57.484353,-25.493834],[-57.483767,-25.494538],[-57.483196,-25.494493],[-57.482177,-25.496066],[-57.480468,-25.496668],[-57.479725,-25.496571],[-57.47866,-25.497715],[-57.479477,-25.498462],[-57.485384,-25.507728],[-57.469624,-25.515828],[-57.465354,-25.511739],[-57.460663,-25.517415],[-57.459324,-25.517906],[-57.458083,-25.517825],[-57.456171,-25.519239],[-57.45558,-25.52044],[-57.456633,-25.523099],[-57.448894,-25.527354],[-57.445748,-25.523449],[-57.4444,-25.519754],[-57.436336,-25.50998],[-57.434843,-25.507176],[-57.42812,-25.484155],[-57.427365,-25.484302],[-57.424467,-25.477734],[-57.423706,-25.477639],[-57.427321,-25.500176],[-57.427572,-25.500195],[-57.427979,-25.505892],[-57.429261,-25.513564],[-57.42928,-25.516201],[-57.42871,-25.517417],[-57.428767,-25.518658],[-57.428204,-25.51917],[-57.428477,-25.519494],[-57.429815,-25.519649],[-57.430269,-25.520785],[-57.431158,-25.521022],[-57.431198,-25.523469],[-57.430569,-25.525755],[-57.429131,-25.527069],[-57.428908,-25.528957],[-57.428461,-25.529879],[-57.427815,-25.530224],[-57.427691,-25.530735],[-57.42694,-25.531383],[-57.424651,-25.531417],[-57.423983,-25.531685],[-57.422797,-25.533309],[-57.421816,-25.533827],[-57.421473,-25.534451],[-57.420523,-25.534873],[-57.419871,-25.536677],[-57.420535,-25.53807],[-57.420388,-25.541064],[-57.421689,-25.542334],[-57.42189,-25.542884],[-57.421767,-25.543575],[-57.421285,-25.543491],[-57.420859,-25.544092],[-57.420794,-25.546431],[-57.421151,-25.54681],[-57.421734,-25.546356],[-57.42232,-25.546436],[-57.423452,-25.547318],[-57.423423,-25.547688],[-57.42265,-25.548115],[-57.422622,-25.549095],[-57.423722,-25.549547],[-57.424354,-25.55109],[-57.424868,-25.551553],[-57.422962,-25.553455],[-57.423352,-25.554344],[-57.423187,-25.555238],[-57.424966,-25.555603],[-57.424949,-25.556502],[-57.426341,-25.556918],[-57.426098,-25.559271],[-57.427085,-25.563228],[-57.426597,-25.564362],[-57.424564,-25.566852],[-57.424323,-25.570275],[-57.424742,-25.571312],[-57.424449,-25.573245],[-57.423868,-25.574434],[-57.424042,-25.577617],[-57.422384,-25.580259],[-57.421695,-25.58339],[-57.41922,-25.586472],[-57.416083,-25.587429],[-57.41495,-25.589464],[-57.41359,-25.590289],[-57.413064,-25.59104],[-57.41318,-25.591699],[-57.414539,-25.593826],[-57.414618,-25.595122],[-57.414209,-25.59641],[-57.415427,-25.597246],[-57.414352,-25.598477],[-57.414974,-25.598656],[-57.415032,-25.599415],[-57.416571,-25.598832],[-57.416511,-25.597997],[-57.417217,-25.597133],[-57.420097,-25.597323],[-57.420471,-25.597733],[-57.421724,-25.59786],[-57.422104,-25.597322],[-57.423259,-25.597251],[-57.423759,-25.596861],[-57.424309,-25.596923],[-57.425077,-25.596239],[-57.425488,-25.596296],[-57.425681,-25.595975],[-57.426275,-25.595856],[-57.426437,-25.595147],[-57.427289,-25.595104],[-57.427612,-25.594629],[-57.428138,-25.594853],[-57.429265,-25.594673],[-57.430381,-25.593578],[-57.429855,-25.592726],[-57.43069,-25.589906],[-57.431157,-25.589141],[-57.432379,-25.588434],[-57.434013,-25.588543],[-57.437534,-25.589501],[-57.439925,-25.590695],[-57.444327,-25.591475],[-57.45737,-25.586764],[-57.45858,-25.585681],[-57.458406,-25.585126],[-57.459577,-25.584499],[-57.459295,-25.583832],[-57.466644,-25.582039],[-57.470676,-25.575935],[-57.47184,-25.574875],[-57.471783,-25.574288],[-57.472681,-25.573544],[-57.474519,-25.572843],[-57.477556,-25.570671],[-57.479349,-25.570502],[-57.479414,-25.569838],[-57.480481,-25.570029],[-57.480812,-25.568782],[-57.482104,-25.56847],[-57.482741,-25.567642],[-57.483697,-25.567187],[-57.485258,-25.566753],[-57.487306,-25.566968],[-57.487965,-25.566518],[-57.490426,-25.56609],[-57.492097,-25.566256],[-57.493356,-25.565448],[-57.495552,-25.564913],[-57.496474,-25.564232],[-57.497644,-25.563953],[-57.498994,-25.562955],[-57.499558,-25.562122],[-57.499971,-25.560003],[-57.501144,-25.559827],[-57.502583,-25.567792],[-57.504439,-25.57247],[-57.508127,-25.59224],[-57.507759,-25.594621],[-57.522306,-25.745058],[-57.527504,-25.816591],[-57.524809,-25.825597],[-57.52451,-25.828591],[-57.522115,-25.831285],[-57.522115,-25.833681],[-57.521217,-25.837872],[-57.521516,-25.840866],[-57.522341,-25.95255],[-57.527643,-25.950717],[-57.531365,-25.94825],[-57.531974,-25.947299],[-57.531972,-25.945362],[-57.5331,-25.942874],[-57.533557,-25.942541],[-57.534791,-25.942678],[-57.53707,-25.945713],[-57.540187,-25.947866],[-57.541536,-25.948266],[-57.542679,-25.947692],[-57.544735,-25.944768],[-57.546063,-25.940365],[-57.547294,-25.938233],[-57.548185,-25.937203],[-57.548392,-25.937402],[-57.55063,-25.93399],[-57.552179,-25.932435],[-57.554511,-25.931652],[-57.556053,-25.928549],[-57.555813,-25.927002],[-57.557591,-25.924531],[-57.559144,-25.92361],[-57.561244,-25.923391],[-57.565512,-25.920488],[-57.566678,-25.920273],[-57.567996,-25.919212],[-57.569472,-25.918502],[-57.569902,-25.917781],[-57.571819,-25.916566],[-57.57161,-25.916066],[-57.5718,-25.915496],[-57.573603,-25.914464],[-57.573855,-25.91384],[-57.574553,-25.913562],[-57.575168,-25.912778],[-57.577096,-25.911877],[-57.577493,-25.910417],[-57.577346,-25.908354],[-57.578589,-25.905401],[-57.580403,-25.905263],[-57.581858,-25.905866],[-57.583106,-25.905464],[-57.582776,-25.903202],[-57.582154,-25.901665],[-57.582888,-25.900854],[-57.582925,-25.899432],[-57.583267,-25.8989],[-57.585166,-25.898164],[-57.585415,-25.896859],[-57.586606,-25.894925],[-57.587295,-25.894934],[-57.588581,-25.896857],[-57.590785,-25.898303],[-57.593019,-25.898213],[-57.593302,-25.898605],[-57.592998,-25.89923],[-57.592262,-25.899656],[-57.592831,-25.901178],[-57.596041,-25.903059],[-57.596825,-25.903087],[-57.598079,-25.902019],[-57.600425,-25.90127],[-57.601855,-25.901218],[-57.602397,-25.901644],[-57.602337,-25.902263],[-57.601304,-25.903361],[-57.601427,-25.904146],[-57.602896,-25.905187],[-57.604311,-25.905566],[-57.605672,-25.905375],[-57.606011,-25.905004],[-57.606002,-25.90328],[-57.606897,-25.901798],[-57.606622,-25.901383],[-57.60541,-25.901428],[-57.604441,-25.901038],[-57.603652,-25.899809],[-57.60363,-25.898778],[-57.603956,-25.898137],[-57.604612,-25.897727],[-57.604998,-25.896632],[-57.606388,-25.89576],[-57.607502,-25.893619],[-57.608256,-25.892929],[-57.609201,-25.892919],[-57.609748,-25.893409],[-57.610189,-25.896318],[-57.614324,-25.895948],[-57.61478,-25.89542],[-57.615484,-25.893185],[-57.615461,-25.892076],[-57.613298,-25.891962],[-57.611363,-25.893064],[-57.610461,-25.893052],[-57.609592,-25.891845],[-57.61078,-25.890779],[-57.611235,-25.889911],[-57.609546,-25.888528],[-57.609773,-25.888033],[-57.611259,-25.888287],[-57.611353,-25.887992],[-57.608732,-25.886747],[-57.608219,-25.885554],[-57.606678,-25.883941],[-57.603685,-25.882995],[-57.603145,-25.881605],[-57.604069,-25.880042],[-57.605294,-25.879921],[-57.605598,-25.879573],[-57.605579,-25.878971],[-57.606428,-25.877133],[-57.60719,-25.876252],[-57.60845,-25.875543],[-57.608897,-25.87476],[-57.608849,-25.873751],[-57.6062,-25.872422],[-57.606081,-25.871684],[-57.605723,-25.871454],[-57.605225,-25.871526],[-57.603562,-25.873346],[-57.603692,-25.873853],[-57.60528,-25.874665],[-57.605117,-25.875372],[-57.603131,-25.876419],[-57.602504,-25.876226],[-57.601518,-25.872985],[-57.6028,-25.871582],[-57.602077,-25.86834],[-57.600982,-25.867608],[-57.600679,-25.866518],[-57.602794,-25.866345],[-57.604353,-25.868192],[-57.60722,-25.869693],[-57.608405,-25.86933],[-57.609739,-25.868007],[-57.612299,-25.868732],[-57.612985,-25.871308],[-57.613421,-25.871618],[-57.617048,-25.87138],[-57.617366,-25.871717],[-57.617259,-25.872379],[-57.615958,-25.873467],[-57.615076,-25.873478],[-57.613934,-25.872159],[-57.612984,-25.872657],[-57.61292,-25.873422],[-57.615199,-25.875686],[-57.614561,-25.877376],[-57.614341,-25.879213],[-57.617139,-25.879629],[-57.619804,-25.877566],[-57.621198,-25.875432],[-57.621713,-25.875429],[-57.62293,-25.876174],[-57.623938,-25.876204],[-57.624409,-25.875867],[-57.624299,-25.874482],[-57.62459,-25.873892],[-57.625125,-25.873728],[-57.625777,-25.873933],[-57.626157,-25.875687],[-57.626785,-25.875877],[-57.629592,-25.874462],[-57.630568,-25.874267],[-57.631051,-25.872584],[-57.631725,-25.871864],[-57.631311,-25.870325],[-57.632834,-25.869471],[-57.632877,-25.869193],[-57.632617,-25.868898],[-57.630716,-25.86849],[-57.630074,-25.867671],[-57.629539,-25.867472],[-57.627311,-25.868369],[-57.626902,-25.868284],[-57.625662,-25.865928],[-57.62582,-25.864441],[-57.625127,-25.864243],[-57.625116,-25.863861],[-57.627801,-25.863218],[-57.630175,-25.864314],[-57.632381,-25.864437],[-57.632513,-25.864974],[-57.631815,-25.865642],[-57.630192,-25.865881],[-57.630013,-25.866139],[-57.630317,-25.866722],[-57.631834,-25.866569],[-57.632517,-25.867406],[-57.634307,-25.866587],[-57.635419,-25.867175],[-57.635803,-25.867093],[-57.635396,-25.866115],[-57.635408,-25.86504],[-57.636419,-25.864116],[-57.637503,-25.863854],[-57.637693,-25.863396],[-57.636273,-25.86248],[-57.635932,-25.861655],[-57.6368,-25.861316],[-57.637983,-25.861724],[-57.638611,-25.861589],[-57.638235,-25.860616],[-57.636651,-25.860693],[-57.636107,-25.860548],[-57.636028,-25.860189],[-57.637437,-25.85983],[-57.639621,-25.860205],[-57.639631,-25.859841],[-57.637735,-25.858457],[-57.637508,-25.857867],[-57.638067,-25.857618],[-57.638792,-25.857855],[-57.640298,-25.856819],[-57.641685,-25.856503],[-57.641307,-25.854571],[-57.642397,-25.854047],[-57.642536,-25.855552],[-57.643049,-25.855813],[-57.644213,-25.855516],[-57.644717,-25.855692],[-57.644931,-25.857244],[-57.64376,-25.857626],[-57.643739,-25.858232],[-57.645087,-25.858547],[-57.646583,-25.858454],[-57.64798,-25.859239],[-57.648061,-25.859509],[-57.646861,-25.860362],[-57.647061,-25.861081],[-57.648186,-25.860798],[-57.64884,-25.859742],[-57.649535,-25.857505],[-57.650087,-25.857141],[-57.650566,-25.857235],[-57.65174,-25.858245],[-57.652116,-25.857747],[-57.652205,-25.856541],[-57.652626,-25.856268],[-57.652974,-25.856438],[-57.653479,-25.857835],[-57.655159,-25.858789],[-57.6559,-25.859721],[-57.65547,-25.860007],[-57.653869,-25.860055],[-57.65224,-25.859099],[-57.650878,-25.858885],[-57.650591,-25.859692],[-57.651587,-25.861101],[-57.654211,-25.861331],[-57.655267,-25.861832],[-57.656087,-25.860781],[-57.656943,-25.860462],[-57.658754,-25.861399],[-57.658369,-25.862184],[-57.656306,-25.862443],[-57.655648,-25.863478],[-57.654686,-25.863688],[-57.65447,-25.864246],[-57.657292,-25.865031],[-57.659682,-25.863848],[-57.660486,-25.864218],[-57.661009,-25.865124],[-57.661652,-25.864806],[-57.661289,-25.863079],[-57.661537,-25.862558],[-57.662742,-25.862333],[-57.663521,-25.862586],[-57.664345,-25.863761],[-57.663735,-25.866064],[-57.663141,-25.867114],[-57.661907,-25.866358],[-57.661649,-25.86655],[-57.661766,-25.867274],[-57.662108,-25.867603],[-57.664368,-25.867893],[-57.664476,-25.868295],[-57.66543,-25.868107],[-57.665501,-25.869125],[-57.666711,-25.869794],[-57.667498,-25.868611],[-57.666608,-25.867511],[-57.667369,-25.867271],[-57.668213,-25.867545],[-57.668299,-25.867032],[-57.666414,-25.866001],[-57.666164,-25.866134],[-57.666115,-25.867677],[-57.665683,-25.867757],[-57.664734,-25.865925],[-57.666096,-25.864307],[-57.666897,-25.863913],[-57.667124,-25.862838],[-57.668351,-25.864043],[-57.668923,-25.864128],[-57.669267,-25.86377],[-57.669702,-25.862445],[-57.668771,-25.862068],[-57.668402,-25.861621],[-57.668626,-25.86119],[-57.671381,-25.862016],[-57.67179,-25.863246],[-57.671448,-25.863941],[-57.672229,-25.864543],[-57.67404,-25.864027],[-57.674685,-25.863257],[-57.674908,-25.862546],[-57.674459,-25.861866],[-57.674717,-25.861523],[-57.676846,-25.86065],[-57.677391,-25.861232],[-57.677817,-25.86071],[-57.67838,-25.861513],[-57.679471,-25.861135],[-57.679514,-25.858761],[-57.680064,-25.858764],[-57.681919,-25.860348],[-57.682214,-25.859962],[-57.682078,-25.85948],[-57.680562,-25.857778],[-57.680915,-25.857244],[-57.681756,-25.857443],[-57.682838,-25.858763],[-57.683875,-25.859076],[-57.684081,-25.860377],[-57.68439,-25.860638],[-57.685152,-25.860102],[-57.6852,-25.860794],[-57.685782,-25.860934],[-57.686788,-25.860022],[-57.686844,-25.860603],[-57.686101,-25.861466],[-57.686235,-25.8618],[-57.688434,-25.860232],[-57.689552,-25.858895],[-57.688698,-25.85866],[-57.688016,-25.859372],[-57.687826,-25.858457],[-57.688744,-25.857554],[-57.688769,-25.857098],[-57.686895,-25.857321],[-57.686648,-25.855858],[-57.689223,-25.855507],[-57.68922,-25.854894],[-57.688204,-25.854443],[-57.689461,-25.853755],[-57.690574,-25.85391],[-57.691406,-25.854569],[-57.692384,-25.854604],[-57.691765,-25.853595],[-57.692332,-25.852078],[-57.692158,-25.85184],[-57.691218,-25.852043],[-57.690842,-25.851852],[-57.691391,-25.851004],[-57.690936,-25.850626],[-57.690131,-25.851841],[-57.689625,-25.849549],[-57.690041,-25.84789],[-57.690381,-25.847651],[-57.692028,-25.848828],[-57.693201,-25.848588],[-57.693706,-25.84818],[-57.693506,-25.847114],[-57.693057,-25.846873],[-57.692221,-25.846972],[-57.692666,-25.846335],[-57.693862,-25.84639],[-57.694475,-25.845631],[-57.695979,-25.845765],[-57.696101,-25.846683],[-57.69506,-25.84739],[-57.695137,-25.847813],[-57.696879,-25.848566],[-57.698288,-25.84803],[-57.698127,-25.848598],[-57.697736,-25.848769],[-57.696135,-25.848956],[-57.696108,-25.849515],[-57.697157,-25.850158],[-57.697407,-25.849378],[-57.698663,-25.849608],[-57.698834,-25.847862],[-57.698003,-25.846613],[-57.697938,-25.845722],[-57.698581,-25.845868],[-57.700282,-25.847282],[-57.700858,-25.848565],[-57.701352,-25.848711],[-57.701398,-25.847044],[-57.701631,-25.846819],[-57.702531,-25.847557],[-57.702649,-25.847307],[-57.702496,-25.846589],[-57.701797,-25.845805],[-57.70312,-25.844927],[-57.704999,-25.844297],[-57.705671,-25.84662],[-57.705153,-25.847936],[-57.705799,-25.848608],[-57.705014,-25.849165],[-57.705404,-25.849692],[-57.706634,-25.849615],[-57.708146,-25.849001],[-57.710308,-25.849124],[-57.711778,-25.850493],[-57.712155,-25.850379],[-57.713096,-25.848696],[-57.713456,-25.848521],[-57.714183,-25.849012],[-57.714372,-25.849899],[-57.713015,-25.851235],[-57.713608,-25.851639],[-57.714655,-25.851514],[-57.717486,-25.849643],[-57.714502,-25.848128],[-57.714853,-25.847552],[-57.717582,-25.847231],[-57.718373,-25.846239],[-57.719499,-25.845599],[-57.719769,-25.846299],[-57.718685,-25.8478],[-57.718798,-25.848114],[-57.721885,-25.848332],[-57.722533,-25.848089],[-57.72254,-25.846903],[-57.723451,-25.846528],[-57.722835,-25.845484],[-57.725711,-25.846295],[-57.726185,-25.845526],[-57.726435,-25.843936],[-57.726832,-25.843906],[-57.726951,-25.844388],[-57.727558,-25.844566],[-57.727785,-25.843789],[-57.72757,-25.843076],[-57.72834,-25.840983],[-57.729473,-25.839946],[-57.729674,-25.841235],[-57.730563,-25.840268],[-57.729945,-25.838619],[-57.728611,-25.838471],[-57.729475,-25.837871],[-57.730418,-25.837666],[-57.730146,-25.83608],[-57.730345,-25.8357],[-57.731383,-25.835625],[-57.73024,-25.833758],[-57.729602,-25.833327],[-57.730382,-25.832783],[-57.731017,-25.831595],[-57.731846,-25.831591],[-57.732469,-25.833256],[-57.733377,-25.833441],[-57.731845,-25.833856],[-57.732603,-25.835138],[-57.732836,-25.835279],[-57.733587,-25.834444],[-57.734581,-25.834608],[-57.735302,-25.837433],[-57.735788,-25.837084],[-57.735615,-25.834455],[-57.735842,-25.833686],[-57.737222,-25.834179],[-57.736607,-25.835279],[-57.738103,-25.836779],[-57.738383,-25.834443],[-57.739237,-25.834656],[-57.739615,-25.835622],[-57.740866,-25.83504],[-57.741131,-25.835284],[-57.741075,-25.836203],[-57.73923,-25.837215],[-57.740419,-25.837791],[-57.743883,-25.83431],[-57.743594,-25.833827],[-57.741976,-25.834039],[-57.742168,-25.833055],[-57.742751,-25.832572],[-57.744348,-25.832782],[-57.745429,-25.832535],[-57.746155,-25.833309],[-57.746827,-25.833068],[-57.746939,-25.832296],[-57.74505,-25.831462],[-57.741989,-25.832253],[-57.739608,-25.832039],[-57.74002,-25.83109],[-57.741069,-25.830272],[-57.741376,-25.831318],[-57.741951,-25.831305],[-57.742088,-25.830925],[-57.741434,-25.829113],[-57.742313,-25.829671],[-57.742862,-25.829631],[-57.743296,-25.82836],[-57.742849,-25.827034],[-57.741491,-25.828313],[-57.739801,-25.827385],[-57.741232,-25.826604],[-57.741598,-25.824464],[-57.741032,-25.823099],[-57.740652,-25.823101],[-57.740222,-25.823643],[-57.739359,-25.82374],[-57.738786,-25.823139],[-57.738798,-25.822683],[-57.739054,-25.822248],[-57.739724,-25.822047],[-57.741983,-25.822863],[-57.742432,-25.822706],[-57.742419,-25.821879],[-57.741652,-25.820953],[-57.739714,-25.820477],[-57.739168,-25.819834],[-57.740092,-25.818939],[-57.74148,-25.818978],[-57.742955,-25.819724],[-57.74352,-25.819546],[-57.743421,-25.818537],[-57.741464,-25.817839],[-57.740646,-25.817079],[-57.740735,-25.816447],[-57.741406,-25.816009],[-57.743505,-25.815984],[-57.744657,-25.816841],[-57.744744,-25.815887],[-57.745437,-25.814511],[-57.743776,-25.812658],[-57.743496,-25.811565],[-57.742945,-25.811603],[-57.741818,-25.812694],[-57.742386,-25.813427],[-57.741584,-25.813347],[-57.741223,-25.813134],[-57.740683,-25.811385],[-57.738778,-25.810538],[-57.73873,-25.810212],[-57.739858,-25.809533],[-57.741531,-25.807574],[-57.741178,-25.806934],[-57.739978,-25.806356],[-57.740016,-25.805904],[-57.741029,-25.805294],[-57.742231,-25.805124],[-57.742025,-25.8048],[-57.740244,-25.804089],[-57.740382,-25.803721],[-57.741316,-25.803773],[-57.743147,-25.804884],[-57.744194,-25.806982],[-57.744716,-25.807146],[-57.744948,-25.806874],[-57.745145,-25.804602],[-57.74597,-25.804499],[-57.746214,-25.804109],[-57.745962,-25.803492],[-57.74516,-25.803121],[-57.745094,-25.802806],[-57.7455,-25.802519],[-57.747374,-25.802351],[-57.74776,-25.801984],[-57.746263,-25.800479],[-57.745965,-25.799365],[-57.746303,-25.799124],[-57.7474,-25.799245],[-57.748768,-25.799902],[-57.74967,-25.799613],[-57.749653,-25.798994],[-57.748118,-25.797751],[-57.749435,-25.797383],[-57.751235,-25.797437],[-57.751684,-25.797151],[-57.752312,-25.795797],[-57.752255,-25.794191],[-57.751173,-25.794327],[-57.751046,-25.793632],[-57.752053,-25.792137],[-57.753543,-25.79133],[-57.753439,-25.79088],[-57.75292,-25.790598],[-57.751728,-25.790383],[-57.751071,-25.790847],[-57.74956,-25.790385],[-57.749164,-25.791773],[-57.74814,-25.790744],[-57.748235,-25.78948],[-57.750058,-25.789534],[-57.750707,-25.789291],[-57.750647,-25.788898],[-57.75,-25.788423],[-57.750166,-25.788102],[-57.75141,-25.788529],[-57.751673,-25.788378],[-57.751489,-25.78795],[-57.749847,-25.786925],[-57.749511,-25.786344],[-57.749776,-25.785377],[-57.751178,-25.784625],[-57.75105,-25.784314],[-57.748553,-25.783686],[-57.748656,-25.785071],[-57.748134,-25.786555],[-57.747715,-25.786358],[-57.746716,-25.784711],[-57.746162,-25.784407],[-57.745133,-25.784457],[-57.745208,-25.785328],[-57.744616,-25.785525],[-57.743336,-25.78411],[-57.743381,-25.783337],[-57.744132,-25.782178],[-57.743627,-25.780668],[-57.743301,-25.78048],[-57.742584,-25.780795],[-57.740604,-25.783193],[-57.740071,-25.783061],[-57.740305,-25.782283],[-57.739966,-25.780298],[-57.742136,-25.779962],[-57.742895,-25.777963],[-57.744071,-25.778652],[-57.746643,-25.778431],[-57.745576,-25.777371],[-57.745094,-25.776317],[-57.744979,-25.774178],[-57.744134,-25.774651],[-57.743867,-25.774341],[-57.744211,-25.773735],[-57.746038,-25.772872],[-57.747495,-25.770706],[-57.745302,-25.769882],[-57.744911,-25.769239],[-57.74516,-25.768718],[-57.746826,-25.768827],[-57.749867,-25.768374],[-57.751168,-25.769703],[-57.752333,-25.770216],[-57.752604,-25.769854],[-57.751813,-25.767731],[-57.752366,-25.767241],[-57.753203,-25.767232],[-57.754724,-25.767631],[-57.754648,-25.770033],[-57.75549,-25.770349],[-57.75576,-25.770153],[-57.755778,-25.768429],[-57.756213,-25.76797],[-57.756748,-25.768004],[-57.757107,-25.769532],[-57.756267,-25.770318],[-57.755625,-25.772005],[-57.757113,-25.772029],[-57.758993,-25.771374],[-57.759488,-25.771601],[-57.759683,-25.772214],[-57.758869,-25.773203],[-57.756367,-25.773464],[-57.755032,-25.774058],[-57.754909,-25.774777],[-57.756084,-25.776861],[-57.756868,-25.777083],[-57.759002,-25.776674],[-57.759284,-25.777919],[-57.759971,-25.778615],[-57.761201,-25.776464],[-57.761824,-25.776032],[-57.762424,-25.776042],[-57.76341,-25.776872],[-57.763541,-25.777377],[-57.762024,-25.778834],[-57.761904,-25.779521],[-57.76478,-25.7798],[-57.76577,-25.780187],[-57.765512,-25.780888],[-57.764631,-25.781525],[-57.762637,-25.781454],[-57.761674,-25.780854],[-57.761147,-25.781069],[-57.759598,-25.789335],[-57.7599,-25.790178],[-57.760962,-25.79047],[-57.761056,-25.791535],[-57.760492,-25.792071],[-57.759015,-25.792047],[-57.758693,-25.792333],[-57.759626,-25.79389],[-57.760357,-25.796514],[-57.76101,-25.796705],[-57.762054,-25.796162],[-57.763292,-25.796413],[-57.765416,-25.799634],[-57.769347,-25.801636],[-57.774371,-25.802969],[-57.778942,-25.803468],[-57.782774,-25.801962],[-57.785324,-25.801641],[-57.786743,-25.801155],[-57.790679,-25.798587],[-57.792372,-25.796396],[-57.792943,-25.796428],[-57.793467,-25.796999],[-57.793289,-25.798733],[-57.791706,-25.803091],[-57.791435,-25.809386],[-57.78705,-25.820192],[-57.78658,-25.822311],[-57.786462,-25.826083],[-57.787229,-25.829753],[-57.789693,-25.83384],[-57.792815,-25.835712],[-57.798882,-25.836825],[-57.805936,-25.839599],[-57.808329,-25.839976],[-57.801545,-25.831245],[-57.797577,-25.824472],[-57.796776,-25.822042],[-57.796194,-25.818698],[-57.796167,-25.814743],[-57.797969,-25.808733],[-57.805766,-25.79669],[-57.81259,-25.788841],[-57.818054,-25.783379],[-57.819913,-25.780989],[-57.821268,-25.778038],[-57.822964,-25.770218],[-57.823945,-25.767386],[-57.825795,-25.763863],[-57.826651,-25.761032],[-57.826763,-25.759104],[-57.826122,-25.756845],[-57.824482,-25.754706],[-57.822471,-25.753128],[-57.817711,-25.75157],[-57.81346,-25.751481],[-57.808966,-25.7523],[-57.801492,-25.756188],[-57.795268,-25.760074],[-57.792774,-25.76099],[-57.790027,-25.761348],[-57.7829,-25.761156],[-57.779394,-25.760272],[-57.776009,-25.758819],[-57.773248,-25.757023],[-57.771359,-25.754879],[-57.767822,-25.749241]]]}}]}
