{"type":"FeatureCollection","name":"distrito","features":[{"type":"Feature","properties":{"clave":"14-20","nombre":"Laurel"},"geometry":{"type":"Polygon","coordinates":[[[-54.774355,-24.588937],[-54.720492,-24.637995],[-54.718452,-24.638768],[-54.71739,-24.64083],[-54.685253,-24.670118],[-54.684779,-24.670169],[-54.682675,-24.668951],[-54.681277,-24.669942],[-54.679432,-24.670719],[-54.67964,-24.671611],[-54.680983,-24.671217],[-54.681757,-24.67234],[-54.682365,-24.672466],[-54.68304,-24.671952],[-54.684195,-24.672891],[-54.683102,-24.673549],[-54.682881,-24.674288],[-54.682978,-24.675305],[-54.684178,-24.675134],[-54.683785,-24.676249],[-54.684598,-24.677221],[-54.683882,-24.677941],[-54.683128,-24.680067],[-54.684321,-24.681285],[-54.685989,-24.680569],[-54.686936,-24.680885],[-54.686301,-24.682236],[-54.685241,-24.682415],[-54.684948,-24.682746],[-54.68728,-24.683429],[-54.68663,-24.684596],[-54.68704,-24.68583],[-54.687099,-24.687969],[-54.689661,-24.690089],[-54.691781,-24.690725],[-54.694325,-24.690234],[-54.695613,-24.69027],[-54.696463,-24.689865],[-54.696942,-24.689063],[-54.697464,-24.68892],[-54.698451,-24.689058],[-54.698789,-24.690302],[-54.700176,-24.690268],[-54.70109,-24.688016],[-54.701359,-24.686369],[-54.702051,-24.685905],[-54.702173,-24.685259],[-54.70248,-24.685158],[-54.703231,-24.685861],[-54.703527,-24.684733],[-54.705375,-24.683835],[-54.705733,-24.683997],[-54.706108,-24.684862],[-54.706518,-24.684779],[-54.706224,-24.683513],[-54.707839,-24.682684],[-54.706668,-24.681958],[-54.706714,-24.681428],[-54.708091,-24.680607],[-54.709208,-24.680322],[-54.710055,-24.680413],[-54.710991,-24.680997],[-54.710494,-24.680286],[-54.710657,-24.679881],[-54.712261,-24.680028],[-54.71142,-24.67823],[-54.711744,-24.677225],[-54.7124,-24.677062],[-54.712442,-24.678042],[-54.71275,-24.67827],[-54.713593,-24.6776],[-54.714091,-24.677621],[-54.714158,-24.677948],[-54.713262,-24.679131],[-54.713508,-24.679313],[-54.714256,-24.67874],[-54.715629,-24.678457],[-54.718179,-24.676902],[-54.718521,-24.676894],[-54.719098,-24.677684],[-54.720136,-24.677034],[-54.72046,-24.67641],[-54.719398,-24.674889],[-54.718522,-24.6728],[-54.720432,-24.670124],[-54.72009,-24.669619],[-54.721338,-24.668142],[-54.723753,-24.668076],[-54.725664,-24.666636],[-54.726825,-24.666502],[-54.727935,-24.665859],[-54.727717,-24.664042],[-54.725206,-24.663067],[-54.72601,-24.662011],[-54.727392,-24.661422],[-54.727364,-24.660926],[-54.72639,-24.660231],[-54.72712,-24.660146],[-54.727115,-24.659717],[-54.726134,-24.658483],[-54.725219,-24.65834],[-54.723619,-24.659801],[-54.72321,-24.658475],[-54.724213,-24.658073],[-54.724634,-24.656934],[-54.725479,-24.656259],[-54.725918,-24.654355],[-54.727106,-24.654217],[-54.729315,-24.654606],[-54.729405,-24.654311],[-54.728164,-24.653184],[-54.72826,-24.652328],[-54.728626,-24.652008],[-54.729626,-24.653294],[-54.731915,-24.654419],[-54.732704,-24.655488],[-54.733251,-24.655648],[-54.733696,-24.655429],[-54.73459,-24.653872],[-54.736298,-24.653554],[-54.737933,-24.651919],[-54.7389,-24.652362],[-54.739201,-24.652973],[-54.740111,-24.653183],[-54.739841,-24.653763],[-54.740031,-24.654009],[-54.74096,-24.654097],[-54.740463,-24.654726],[-54.740752,-24.655081],[-54.741538,-24.655001],[-54.742232,-24.655347],[-54.743882,-24.655121],[-54.744678,-24.654227],[-54.745719,-24.653951],[-54.746089,-24.654474],[-54.744986,-24.654664],[-54.744724,-24.655037],[-54.74423,-24.657065],[-54.744419,-24.658021],[-54.745756,-24.658396],[-54.746139,-24.65752],[-54.747087,-24.656947],[-54.747346,-24.657192],[-54.747045,-24.658108],[-54.748143,-24.658254],[-54.749156,-24.657746],[-54.749295,-24.65813],[-54.748809,-24.658658],[-54.749815,-24.659083],[-54.750219,-24.658718],[-54.750129,-24.657139],[-54.750642,-24.656745],[-54.751155,-24.656764],[-54.750647,-24.657854],[-54.751221,-24.659157],[-54.750186,-24.660708],[-54.750423,-24.660872],[-54.751406,-24.660177],[-54.757133,-24.659198],[-54.75805,-24.658425],[-54.759527,-24.657975],[-54.759842,-24.657301],[-54.760505,-24.657513],[-54.761449,-24.656809],[-54.761967,-24.656867],[-54.762021,-24.657752],[-54.762466,-24.65782],[-54.763635,-24.656867],[-54.76603,-24.656603],[-54.76685,-24.655911],[-54.768301,-24.655991],[-54.768443,-24.655494],[-54.767576,-24.655681],[-54.767234,-24.655465],[-54.768127,-24.653313],[-54.768156,-24.649491],[-54.76926,-24.649637],[-54.769672,-24.648682],[-54.77031,-24.649465],[-54.770878,-24.649573],[-54.77123,-24.648719],[-54.772397,-24.648423],[-54.773158,-24.648988],[-54.773806,-24.649048],[-54.774796,-24.650011],[-54.775118,-24.649957],[-54.77542,-24.649332],[-54.776133,-24.649346],[-54.777068,-24.650992],[-54.778602,-24.651542],[-54.780365,-24.653237],[-54.78077,-24.654709],[-54.781265,-24.65503],[-54.78134,-24.655552],[-54.779684,-24.656609],[-54.779324,-24.658572],[-54.779758,-24.658916],[-54.779905,-24.65781],[-54.780272,-24.658148],[-54.780998,-24.657773],[-54.781644,-24.658462],[-54.782428,-24.658737],[-54.781682,-24.659408],[-54.780816,-24.661183],[-54.782604,-24.660921],[-54.782236,-24.661686],[-54.783841,-24.664258],[-54.785519,-24.665452],[-54.78852,-24.666087],[-54.790177,-24.667597],[-54.793716,-24.666812],[-54.795223,-24.666848],[-54.796174,-24.667289],[-54.796474,-24.667839],[-54.796475,-24.669677],[-54.797276,-24.67168],[-54.796381,-24.673689],[-54.796847,-24.6741],[-54.797628,-24.674233],[-54.797469,-24.675183],[-54.797745,-24.675401],[-54.79903,-24.674341],[-54.800034,-24.673918],[-54.800384,-24.674924],[-54.801272,-24.675072],[-54.801415,-24.674702],[-54.801052,-24.673697],[-54.801468,-24.673182],[-54.803934,-24.67412],[-54.8042,-24.672595],[-54.804762,-24.671864],[-54.804995,-24.673378],[-54.805936,-24.674006],[-54.805326,-24.675382],[-54.806821,-24.675171],[-54.806866,-24.676358],[-54.808207,-24.674174],[-54.809861,-24.673826],[-54.809308,-24.672897],[-54.810209,-24.673426],[-54.810644,-24.673316],[-54.811419,-24.672031],[-54.810557,-24.671284],[-54.811299,-24.67075],[-54.81204,-24.66852],[-54.813186,-24.667603],[-54.815056,-24.667123],[-54.81513,-24.667863],[-54.816088,-24.668049],[-54.816924,-24.668815],[-54.819814,-24.669117],[-54.821639,-24.668623],[-54.820248,-24.668435],[-54.820277,-24.667636],[-54.820886,-24.666882],[-54.821321,-24.666773],[-54.822841,-24.667357],[-54.823409,-24.667161],[-54.823644,-24.666811],[-54.822798,-24.66632],[-54.821539,-24.66353],[-54.821788,-24.662985],[-54.823058,-24.662455],[-54.823637,-24.662831],[-54.824871,-24.662829],[-54.825285,-24.663417],[-54.828986,-24.663861],[-54.829287,-24.665628],[-54.82818,-24.668434],[-54.828473,-24.668857],[-54.830606,-24.669036],[-54.830512,-24.669783],[-54.829274,-24.671918],[-54.830697,-24.674691],[-54.832668,-24.675147],[-54.833955,-24.674561],[-54.834224,-24.672561],[-54.833415,-24.669927],[-54.834018,-24.669178],[-54.834981,-24.668792],[-54.836622,-24.669248],[-54.838765,-24.670316],[-54.839023,-24.671594],[-54.840457,-24.673414],[-54.84148,-24.671322],[-54.841399,-24.670693],[-54.83927,-24.66792],[-54.838543,-24.668783],[-54.836287,-24.667672],[-54.835679,-24.665492],[-54.83604,-24.664935],[-54.838436,-24.66523],[-54.840066,-24.664788],[-54.840684,-24.663212],[-54.84043,-24.662855],[-54.837942,-24.662019],[-54.835737,-24.661565],[-54.836213,-24.659326],[-54.83596,-24.658918],[-54.835632,-24.659076],[-54.835144,-24.660231],[-54.834296,-24.660414],[-54.834381,-24.659662],[-54.835326,-24.65883],[-54.832647,-24.658131],[-54.833369,-24.656393],[-54.833872,-24.65614],[-54.83514,-24.656312],[-54.837707,-24.654401],[-54.839955,-24.655874],[-54.841139,-24.654813],[-54.841865,-24.654884],[-54.842888,-24.656335],[-54.843709,-24.656495],[-54.843575,-24.655141],[-54.84195,-24.652881],[-54.841937,-24.65249],[-54.842455,-24.65194],[-54.843813,-24.651341],[-54.84433,-24.650284],[-54.845075,-24.649853],[-54.845922,-24.650567],[-54.845636,-24.651265],[-54.846653,-24.650982],[-54.846825,-24.650724],[-54.846075,-24.650281],[-54.846816,-24.649752],[-54.846795,-24.64892],[-54.847245,-24.649094],[-54.850224,-24.648663],[-54.850225,-24.649452],[-54.851316,-24.650189],[-54.85262,-24.648915],[-54.853608,-24.649719],[-54.854742,-24.64888],[-54.855208,-24.649589],[-54.855671,-24.649586],[-54.857278,-24.649293],[-54.857537,-24.649017],[-54.857398,-24.64883],[-54.856218,-24.649106],[-54.856261,-24.648674],[-54.858803,-24.648161],[-54.859112,-24.649133],[-54.85965,-24.64922],[-54.859607,-24.648126],[-54.860272,-24.647611],[-54.860362,-24.647119],[-54.859152,-24.644122],[-54.858963,-24.642041],[-54.859322,-24.641613],[-54.859893,-24.641515],[-54.860663,-24.642274],[-54.860469,-24.641421],[-54.860696,-24.640094],[-54.861388,-24.640034],[-54.861486,-24.63938],[-54.862402,-24.638129],[-54.863406,-24.637441],[-54.863996,-24.636264],[-54.866117,-24.635666],[-54.866664,-24.635186],[-54.867016,-24.635749],[-54.867484,-24.635737],[-54.867772,-24.63522],[-54.868954,-24.635139],[-54.871368,-24.63386],[-54.872116,-24.634008],[-54.872313,-24.634736],[-54.873531,-24.634604],[-54.873656,-24.635629],[-54.873971,-24.63561],[-54.87423,-24.634758],[-54.875619,-24.635313],[-54.875115,-24.634766],[-54.875502,-24.634153],[-54.875806,-24.634818],[-54.87659,-24.634475],[-54.876684,-24.635839],[-54.877267,-24.635643],[-54.877825,-24.636023],[-54.878198,-24.635609],[-54.878765,-24.635766],[-54.880129,-24.635404],[-54.880767,-24.635604],[-54.880944,-24.634728],[-54.882142,-24.634087],[-54.883851,-24.632458],[-54.88425,-24.632449],[-54.885174,-24.633633],[-54.88595,-24.633964],[-54.886218,-24.633971],[-54.886387,-24.633375],[-54.887117,-24.633534],[-54.889633,-24.630293],[-54.890397,-24.629872],[-54.893408,-24.629137],[-54.895137,-24.629135],[-54.895774,-24.628802],[-54.897999,-24.629532],[-54.898908,-24.629243],[-54.8982,-24.624086],[-54.896956,-24.621361],[-54.896468,-24.621138],[-54.895365,-24.621372],[-54.89424,-24.623121],[-54.893574,-24.623515],[-54.892345,-24.623253],[-54.891367,-24.622536],[-54.890206,-24.622448],[-54.889664,-24.621492],[-54.889612,-24.620403],[-54.888383,-24.619426],[-54.888519,-24.619012],[-54.889715,-24.618636],[-54.889032,-24.617678],[-54.889703,-24.617322],[-54.888872,-24.617221],[-54.888723,-24.616639],[-54.889766,-24.616327],[-54.893235,-24.616917],[-54.894506,-24.617344],[-54.894924,-24.618279],[-54.897924,-24.618609],[-54.898582,-24.618127],[-54.898264,-24.616728],[-54.898772,-24.615789],[-54.898344,-24.614354],[-54.898716,-24.614245],[-54.899298,-24.614965],[-54.899812,-24.613513],[-54.902104,-24.613227],[-54.903978,-24.612501],[-54.90434,-24.61169],[-54.903774,-24.610985],[-54.904099,-24.610154],[-54.90299,-24.609685],[-54.902744,-24.60778],[-54.903625,-24.606912],[-54.903409,-24.606097],[-54.90424,-24.60589],[-54.904684,-24.60509],[-54.904105,-24.604226],[-54.904317,-24.603268],[-54.903853,-24.598787],[-54.902613,-24.598705],[-54.902557,-24.59847],[-54.904939,-24.597956],[-54.906703,-24.598587],[-54.90693,-24.598989],[-54.907243,-24.598844],[-54.909503,-24.594496],[-54.908485,-24.591292],[-54.908949,-24.591139],[-54.910496,-24.591544],[-54.911337,-24.591154],[-54.911751,-24.590539],[-54.912011,-24.588883],[-54.910955,-24.588231],[-54.910978,-24.58782],[-54.910662,-24.587648],[-54.911043,-24.58726],[-54.910994,-24.586608],[-54.911874,-24.586595],[-54.911099,-24.586053],[-54.911416,-24.585635],[-54.911338,-24.585048],[-54.911801,-24.584912],[-54.911941,-24.584441],[-54.911209,-24.583969],[-54.911706,-24.583764],[-54.91157,-24.58306],[-54.912086,-24.58294],[-54.91149,-24.582626],[-54.911681,-24.58193],[-54.91221,-24.581933],[-54.911971,-24.580958],[-54.911609,-24.581212],[-54.911482,-24.580915],[-54.911914,-24.58032],[-54.911693,-24.579476],[-54.912026,-24.579336],[-54.91116,-24.578257],[-54.911555,-24.57819],[-54.911634,-24.577754],[-54.912215,-24.57763],[-54.912499,-24.577216],[-54.911534,-24.577057],[-54.911956,-24.576819],[-54.911696,-24.576463],[-54.912228,-24.576015],[-54.913452,-24.576163],[-54.914085,-24.575418],[-54.913454,-24.57506],[-54.914159,-24.573869],[-54.915179,-24.57495],[-54.915678,-24.574876],[-54.915782,-24.574405],[-54.916519,-24.574586],[-54.91649,-24.574163],[-54.917082,-24.574208],[-54.916915,-24.573711],[-54.917554,-24.573865],[-54.917807,-24.573235],[-54.918086,-24.573465],[-54.918489,-24.573154],[-54.918933,-24.573516],[-54.919288,-24.573445],[-54.919504,-24.573131],[-54.919003,-24.572633],[-54.919967,-24.572825],[-54.919642,-24.572249],[-54.920288,-24.571449],[-54.920741,-24.571721],[-54.921088,-24.571435],[-54.923415,-24.571307],[-54.924851,-24.570162],[-54.925423,-24.569213],[-54.925945,-24.569442],[-54.925941,-24.568987],[-54.926364,-24.56864],[-54.926461,-24.569038],[-54.927014,-24.569089],[-54.927217,-24.569539],[-54.927878,-24.569738],[-54.928152,-24.569079],[-54.928794,-24.569721],[-54.929334,-24.568862],[-54.928876,-24.568387],[-54.929123,-24.568095],[-54.929556,-24.568429],[-54.930257,-24.568362],[-54.930748,-24.569264],[-54.931144,-24.56868],[-54.932,-24.568881],[-54.93174,-24.568248],[-54.931954,-24.568043],[-54.932151,-24.568388],[-54.934037,-24.568923],[-54.935093,-24.568328],[-54.935339,-24.568865],[-54.935152,-24.569128],[-54.935792,-24.569392],[-54.935782,-24.568318],[-54.936454,-24.567908],[-54.936745,-24.568837],[-54.937807,-24.56959],[-54.937951,-24.570065],[-54.938984,-24.570411],[-54.940153,-24.569506],[-54.939514,-24.568893],[-54.940316,-24.568751],[-54.941463,-24.5675],[-54.942223,-24.56727],[-54.94261,-24.566245],[-54.942188,-24.56577],[-54.942435,-24.565511],[-54.942999,-24.565694],[-54.942893,-24.565245],[-54.943316,-24.565145],[-54.943723,-24.564361],[-54.943852,-24.564788],[-54.94417,-24.564516],[-54.945104,-24.564605],[-54.945025,-24.565052],[-54.945339,-24.565012],[-54.945299,-24.565263],[-54.94572,-24.565301],[-54.946357,-24.566053],[-54.946637,-24.565954],[-54.946244,-24.565436],[-54.946698,-24.565417],[-54.947064,-24.565866],[-54.947675,-24.565754],[-54.948095,-24.566357],[-54.949118,-24.56609],[-54.949072,-24.565536],[-54.950074,-24.565342],[-54.950903,-24.565532],[-54.951162,-24.565226],[-54.952513,-24.565143],[-54.952674,-24.565513],[-54.95407,-24.566379],[-54.954006,-24.567378],[-54.95554,-24.567324],[-54.956,-24.568213],[-54.957057,-24.568787],[-54.957629,-24.568489],[-54.957917,-24.568622],[-54.958162,-24.568162],[-54.958425,-24.568559],[-54.958599,-24.568223],[-54.958967,-24.568415],[-54.959565,-24.567956],[-54.959881,-24.568097],[-54.959944,-24.568657],[-54.961208,-24.568906],[-54.961484,-24.56923],[-54.961819,-24.568932],[-54.961843,-24.568211],[-54.963265,-24.568624],[-54.963791,-24.567907],[-54.964325,-24.568492],[-54.964107,-24.567636],[-54.965397,-24.568727],[-54.966186,-24.568914],[-54.967072,-24.56861],[-54.967627,-24.568839],[-54.967579,-24.568387],[-54.967926,-24.568157],[-54.96847,-24.56867],[-54.968431,-24.56829],[-54.969108,-24.568015],[-54.970857,-24.568494],[-54.97138,-24.567716],[-54.971863,-24.567916],[-54.971593,-24.566929],[-54.971862,-24.565975],[-54.972697,-24.566027],[-54.972396,-24.564416],[-54.972985,-24.563395],[-54.973694,-24.560321],[-54.974486,-24.559172],[-54.975502,-24.559141],[-54.975405,-24.559559],[-54.977194,-24.55901],[-54.977392,-24.559667],[-54.978209,-24.559434],[-54.977979,-24.558614],[-54.978554,-24.558532],[-54.978001,-24.558208],[-54.978882,-24.558446],[-54.978888,-24.557931],[-54.97916,-24.558057],[-54.97996,-24.557381],[-54.979903,-24.557638],[-54.980584,-24.557575],[-54.980611,-24.55706],[-54.981164,-24.557221],[-54.981565,-24.55594],[-54.982375,-24.556502],[-54.981979,-24.555761],[-54.98234,-24.555644],[-54.982416,-24.55518],[-54.983725,-24.554908],[-54.983953,-24.554293],[-54.98473,-24.554547],[-54.985454,-24.553067],[-54.98659,-24.552478],[-54.986912,-24.551773],[-54.988356,-24.550903],[-54.989428,-24.551179],[-54.989647,-24.550835],[-54.989063,-24.550768],[-54.989266,-24.550428],[-54.989766,-24.550669],[-54.990204,-24.550391],[-54.990303,-24.550735],[-54.990932,-24.550626],[-54.991562,-24.551041],[-54.991707,-24.55042],[-54.992537,-24.550467],[-54.992925,-24.549818],[-54.993562,-24.549993],[-54.993548,-24.549496],[-54.994183,-24.550006],[-54.997196,-24.550967],[-54.998533,-24.550524],[-54.999319,-24.549713],[-55.000516,-24.549666],[-55.001402,-24.549817],[-55.002798,-24.55101],[-55.003338,-24.551202],[-55.003718,-24.550995],[-55.004186,-24.551479],[-55.004561,-24.551186],[-55.004966,-24.551381],[-55.005695,-24.551066],[-55.005568,-24.550825],[-55.006666,-24.550384],[-55.007548,-24.550382],[-55.007826,-24.549979],[-55.008557,-24.549971],[-55.009423,-24.549323],[-55.009946,-24.54966],[-55.010546,-24.549279],[-55.010709,-24.549647],[-55.011316,-24.549542],[-55.011614,-24.550011],[-55.011744,-24.549322],[-55.012114,-24.549824],[-55.012933,-24.549997],[-55.013675,-24.54974],[-55.01413,-24.549891],[-55.014269,-24.549468],[-55.01542,-24.54956],[-55.01558,-24.549797],[-55.016215,-24.549015],[-55.016587,-24.549341],[-55.017695,-24.548764],[-55.01779,-24.548233],[-55.018126,-24.548512],[-55.018851,-24.548396],[-55.018804,-24.547984],[-55.01948,-24.548192],[-55.020787,-24.547545],[-55.020764,-24.547238],[-55.021557,-24.54733],[-55.02155,-24.547032],[-55.022315,-24.546518],[-55.02323,-24.546368],[-55.023443,-24.546592],[-55.023463,-24.546159],[-55.024293,-24.5464],[-55.025248,-24.545898],[-55.026451,-24.546085],[-55.027132,-24.545218],[-55.031299,-24.54437],[-55.032088,-24.544543],[-55.032962,-24.545168],[-55.036152,-24.545322],[-55.037088,-24.545772],[-55.037805,-24.547131],[-55.038711,-24.547613],[-55.041113,-24.548145],[-55.043744,-24.548193],[-55.044348,-24.548882],[-55.046099,-24.548074],[-55.048227,-24.549479],[-55.050393,-24.549922],[-55.052729,-24.548833],[-55.053039,-24.550304],[-55.053897,-24.550969],[-55.054886,-24.551203],[-55.059985,-24.550506],[-55.063979,-24.549027],[-55.066374,-24.546548],[-55.070455,-24.548442],[-55.071001,-24.548038],[-55.074562,-24.549361],[-55.077448,-24.549755],[-55.080712,-24.549787],[-55.081534,-24.549405],[-55.084691,-24.549242],[-55.085859,-24.548751],[-55.087224,-24.548692],[-55.088224,-24.548267],[-55.08891,-24.548375],[-55.090371,-24.547409],[-55.092559,-24.546814],[-55.094517,-24.546816],[-55.096493,-24.545875],[-55.104502,-24.543055],[-55.10823,-24.541346],[-55.109784,-24.540269],[-55.113007,-24.536409],[-55.113488,-24.533237],[-55.114313,-24.531681],[-55.114454,-24.526428],[-55.11487,-24.524442],[-55.113592,-24.520535],[-55.112509,-24.51863],[-55.112135,-24.511859],[-55.112697,-24.50834],[-55.113922,-24.505263],[-55.118484,-24.500643],[-55.119545,-24.499004],[-55.12062,-24.498336],[-55.120838,-24.495987],[-55.134036,-24.479881],[-55.13626,-24.480712],[-55.138283,-24.482128],[-55.139567,-24.482446],[-55.141164,-24.481468],[-55.144752,-24.480234],[-55.153622,-24.476393],[-55.159906,-24.462559],[-55.157932,-24.461404],[-55.14164,-24.44247],[-55.140197,-24.441139],[-55.138998,-24.440555],[-55.137174,-24.440212],[-55.126606,-24.441236],[-55.125313,-24.441153],[-55.122039,-24.441762],[-55.119795,-24.441004],[-55.115571,-24.446738],[-55.115884,-24.448492],[-55.115606,-24.449308],[-55.113438,-24.44991],[-55.109547,-24.456254],[-55.110234,-24.45757],[-55.109622,-24.458098],[-55.106611,-24.457049],[-55.055924,-24.467284],[-55.055684,-24.467471],[-55.055711,-24.469607],[-55.05427,-24.470918],[-55.053714,-24.471848],[-55.053587,-24.474702],[-55.051549,-24.477393],[-55.049657,-24.479142],[-55.048651,-24.480648],[-55.046806,-24.481467],[-55.039965,-24.487108],[-55.0343,-24.490388],[-55.018261,-24.491034],[-55.014787,-24.485484],[-54.963658,-24.454144],[-54.958875,-24.454165],[-54.958973,-24.452757],[-54.897172,-24.455794],[-54.895546,-24.470692],[-54.895958,-24.472143],[-54.895253,-24.473391],[-54.889297,-24.53579],[-54.886642,-24.536753],[-54.888221,-24.537992],[-54.878982,-24.541281],[-54.877395,-24.539922],[-54.868187,-24.542986],[-54.866495,-24.541941],[-54.860827,-24.541533],[-54.859072,-24.541808],[-54.837776,-24.561243],[-54.833162,-24.564802],[-54.808972,-24.585948],[-54.80711,-24.586175],[-54.805839,-24.588673],[-54.800914,-24.593075],[-54.799703,-24.594555],[-54.797459,-24.595967],[-54.789739,-24.603019],[-54.774355,-24.588937]]]}}]}
