{"type":"FeatureCollection","name":"distrito","features":[{"type":"Feature","properties":{"clave":"5-34","nombre":"Tembiaporá"},"geometry":{"type":"Polygon","coordinates":[[[-55.400407,-25.362907],[-55.417028,-25.362798],[-55.444686,-25.360496],[-55.49492,-25.353116],[-55.507797,-25.345503],[-55.512906,-25.334261],[-55.510942,-25.32069],[-55.513194,-25.31071],[-55.523269,-25.299518],[-55.533003,-25.287031],[-55.545577,-25.274248],[-55.557725,-25.267269],[-55.563886,-25.256358],[-55.564704,-25.254208],[-55.555627,-25.252992],[-55.555763,-25.252721],[-55.553096,-25.251612],[-55.541818,-25.251375],[-55.542382,-25.239612],[-55.532402,-25.239183],[-55.53089,-25.237978],[-55.510804,-25.237546],[-55.511065,-25.228502],[-55.477299,-25.227783],[-55.476931,-25.228176],[-55.476795,-25.233265],[-55.470128,-25.231676],[-55.463912,-25.228834],[-55.460834,-25.229468],[-55.460618,-25.224319],[-55.459588,-25.220796],[-55.456828,-25.218289],[-55.455603,-25.216419],[-55.454712,-25.216709],[-55.454154,-25.217638],[-55.454116,-25.218752],[-55.453793,-25.219245],[-55.451997,-25.22045],[-55.450501,-25.222037],[-55.446357,-25.223831],[-55.446295,-25.224688],[-55.44688,-25.225398],[-55.44693,-25.226022],[-55.445069,-25.228697],[-55.441523,-25.230163],[-55.441192,-25.230638],[-55.437956,-25.22766],[-55.434068,-25.226108],[-55.433294,-25.225353],[-55.418211,-25.225008],[-55.424101,-25.200288],[-55.403844,-25.199962],[-55.418148,-25.154697],[-55.416497,-25.152179],[-55.41258,-25.151681],[-55.412968,-25.140638],[-55.389771,-25.140204],[-55.389746,-25.142144],[-55.388691,-25.142119],[-55.363075,-25.134097],[-55.353577,-25.144066],[-55.340186,-25.152131],[-55.296841,-25.171167],[-55.278822,-25.180877],[-55.272109,-25.185913],[-55.252204,-25.196218],[-55.242094,-25.200438],[-55.231458,-25.217359],[-55.226509,-25.229698],[-55.224168,-25.238349],[-55.219968,-25.265591],[-55.231566,-25.25974],[-55.248298,-25.252297],[-55.255249,-25.25058],[-55.280663,-25.249228],[-55.289862,-25.251734],[-55.294395,-25.257786],[-55.307153,-25.277279],[-55.31274,-25.29069],[-55.32846,-25.33526],[-55.338556,-25.345122],[-55.355386,-25.357609],[-55.378436,-25.361914],[-55.400407,-25.362907]]]}}]}
