{"type":"FeatureCollection","name":"distrito","features":[{"type":"Feature","properties":{"clave":"10-23","nombre":"Ñacunday"},"geometry":{"type":"Polygon","coordinates":[[[-54.775848,-26.238424],[-54.77634,-26.236693],[-54.778241,-26.23665],[-54.778843,-26.234536],[-54.780759,-26.231289],[-54.783976,-26.22964],[-54.78304,-26.226939],[-54.780029,-26.225013],[-54.779259,-26.223826],[-54.779473,-26.223457],[-54.779939,-26.223407],[-54.782328,-26.224241],[-54.7842,-26.223312],[-54.784612,-26.222744],[-54.785778,-26.218786],[-54.785802,-26.217834],[-54.784397,-26.213531],[-54.782206,-26.210691],[-54.781922,-26.209061],[-54.782234,-26.208025],[-54.786789,-26.205693],[-54.789258,-26.205607],[-54.792945,-26.206109],[-54.793258,-26.205306],[-54.792565,-26.204343],[-54.792863,-26.203757],[-54.798492,-26.201685],[-54.800107,-26.200643],[-54.800521,-26.199371],[-54.799779,-26.197905],[-54.800165,-26.196621],[-54.803344,-26.193284],[-54.804883,-26.192893],[-54.807728,-26.1939],[-54.810416,-26.195287],[-54.812484,-26.195505],[-54.812849,-26.194998],[-54.81203,-26.193655],[-54.811807,-26.192393],[-54.810974,-26.191226],[-54.81071,-26.189726],[-54.811208,-26.189444],[-54.81395,-26.18949],[-54.815197,-26.190012],[-54.817318,-26.192296],[-54.817242,-26.193905],[-54.815879,-26.195939],[-54.813132,-26.197684],[-54.812024,-26.19893],[-54.810143,-26.204379],[-54.808199,-26.207626],[-54.80868,-26.208017],[-54.811501,-26.207262],[-54.81312,-26.208457],[-54.816029,-26.209423],[-54.820456,-26.209573],[-54.821726,-26.211668],[-54.822535,-26.211991],[-54.824217,-26.211975],[-54.827937,-26.210354],[-54.827985,-26.209941],[-54.827013,-26.208207],[-54.827171,-26.206511],[-54.822136,-26.205348],[-54.820064,-26.203857],[-54.819964,-26.203358],[-54.823329,-26.202638],[-54.825685,-26.20126],[-54.826779,-26.201012],[-54.830014,-26.202697],[-54.832141,-26.202791],[-54.835339,-26.203627],[-54.835988,-26.20331],[-54.833986,-26.200179],[-54.831954,-26.199247],[-54.830541,-26.198113],[-54.829437,-26.195446],[-54.829863,-26.194717],[-54.833982,-26.194479],[-54.834505,-26.194155],[-54.835173,-26.190298],[-54.839372,-26.188818],[-54.839951,-26.188221],[-54.840079,-26.185966],[-54.837978,-26.184133],[-54.838009,-26.182425],[-54.836856,-26.180564],[-54.840626,-26.178995],[-54.843495,-26.180555],[-54.843696,-26.185223],[-54.842707,-26.186865],[-54.843877,-26.188156],[-54.844259,-26.188001],[-54.845183,-26.186415],[-54.845963,-26.186127],[-54.846638,-26.18623],[-54.848561,-26.1875],[-54.850429,-26.187763],[-54.85265,-26.187647],[-54.855418,-26.188875],[-54.856527,-26.18761],[-54.858169,-26.186511],[-54.858694,-26.185643],[-54.856753,-26.182712],[-54.856782,-26.181003],[-54.860697,-26.179924],[-54.861479,-26.180905],[-54.862686,-26.181497],[-54.864546,-26.181154],[-54.866159,-26.180172],[-54.86645,-26.178366],[-54.869582,-26.176116],[-54.871168,-26.175751],[-54.87467,-26.174255],[-54.875701,-26.172871],[-54.877957,-26.171826],[-54.877968,-26.170134],[-54.875487,-26.16817],[-54.874893,-26.16729],[-54.874806,-26.166531],[-54.875543,-26.16526],[-54.876993,-26.163973],[-54.877377,-26.162557],[-54.876118,-26.160995],[-54.87652,-26.158189],[-54.877724,-26.156465],[-54.877763,-26.155779],[-54.880639,-26.150433],[-54.880911,-26.148908],[-54.881822,-26.148506],[-54.883711,-26.146814],[-54.884504,-26.145269],[-54.886561,-26.142844],[-54.887097,-26.141408],[-54.886915,-26.138977],[-54.888552,-26.137214],[-54.888942,-26.135902],[-54.981832,-26.107086],[-54.97976,-26.099371],[-54.979173,-26.098126],[-54.976943,-26.096303],[-54.976456,-26.095127],[-54.976183,-26.092686],[-54.975015,-26.091311],[-54.972454,-26.089592],[-54.971746,-26.088598],[-54.968676,-26.086357],[-54.9639,-26.085171],[-54.959013,-26.079171],[-54.958489,-26.077034],[-54.959154,-26.075937],[-54.959213,-26.074467],[-54.961478,-26.0724],[-54.961826,-26.068659],[-54.95966,-26.066363],[-54.956848,-26.065204],[-54.953311,-26.065402],[-54.951841,-26.065178],[-54.94448,-26.060439],[-54.943329,-26.059434],[-54.9411,-26.056356],[-54.935248,-26.055239],[-54.933153,-26.053097],[-54.931664,-26.048513],[-54.93166,-26.047344],[-54.932401,-26.045775],[-54.934517,-26.044085],[-54.934531,-26.04335],[-54.932002,-26.03997],[-54.930167,-26.03891],[-54.928634,-26.035241],[-54.925631,-26.03412],[-54.921135,-26.031693],[-54.929738,-26.002379],[-54.936559,-25.980394],[-54.932433,-25.984271],[-54.931199,-25.985039],[-54.928432,-25.986033],[-54.924981,-25.988409],[-54.920007,-25.989192],[-54.918821,-25.989096],[-54.918683,-25.988786],[-54.919112,-25.988166],[-54.929918,-25.980935],[-54.93194,-25.978489],[-54.932515,-25.97643],[-54.934369,-25.974806],[-54.935302,-25.973647],[-54.93529,-25.97312],[-54.932723,-25.972089],[-54.931373,-25.97197],[-54.930644,-25.972139],[-54.928621,-25.974018],[-54.927147,-25.974643],[-54.92666,-25.974179],[-54.926178,-25.972512],[-54.925171,-25.972259],[-54.924625,-25.972463],[-54.924319,-25.973175],[-54.925533,-25.975883],[-54.925504,-25.977526],[-54.924628,-25.980548],[-54.923434,-25.982313],[-54.922463,-25.982671],[-54.921585,-25.982383],[-54.918997,-25.979813],[-54.917878,-25.979227],[-54.915811,-25.979711],[-54.914706,-25.980308],[-54.912495,-25.982916],[-54.910321,-25.987842],[-54.909798,-25.988475],[-54.907208,-25.989854],[-54.906812,-25.990348],[-54.906583,-25.992537],[-54.906162,-25.99303],[-54.902885,-25.992707],[-54.900472,-25.990629],[-54.899442,-25.98916],[-54.899142,-25.987933],[-54.900542,-25.985285],[-54.902402,-25.983172],[-54.905399,-25.981486],[-54.908221,-25.980711],[-54.909333,-25.980061],[-54.909235,-25.979003],[-54.904147,-25.97318],[-54.903369,-25.973222],[-54.901562,-25.97427],[-54.900154,-25.978437],[-54.899626,-25.979264],[-54.897217,-25.980596],[-54.896362,-25.982714],[-54.893878,-25.983589],[-54.889258,-25.984222],[-54.884527,-25.985598],[-54.88372,-25.985586],[-54.883361,-25.985156],[-54.881783,-25.98076],[-54.881378,-25.980307],[-54.876872,-25.977199],[-54.87609,-25.97715],[-54.874702,-25.979044],[-54.875345,-25.982854],[-54.87525,-25.985778],[-54.876814,-25.989956],[-54.876218,-25.996169],[-54.873826,-26.00012],[-54.872825,-26.003793],[-54.871836,-26.004345],[-54.866805,-26.005822],[-54.865034,-26.010089],[-54.864449,-26.010796],[-54.862196,-26.011916],[-54.860996,-26.011968],[-54.859935,-26.011634],[-54.859631,-26.010178],[-54.861694,-26.0044],[-54.861549,-26.001641],[-54.861917,-25.997494],[-54.861533,-25.996039],[-54.860566,-25.995477],[-54.85584,-25.997262],[-54.854335,-25.997275],[-54.853599,-25.996191],[-54.850166,-25.993052],[-54.846927,-25.992116],[-54.845103,-25.990856],[-54.845172,-25.990248],[-54.846072,-25.989161],[-54.847079,-25.987029],[-54.847122,-25.986427],[-54.846225,-25.984129],[-54.845857,-25.980383],[-54.846923,-25.975484],[-54.846284,-25.975234],[-54.845396,-25.976462],[-54.844489,-25.977117],[-54.841269,-25.977599],[-54.840586,-25.978066],[-54.839882,-25.932775],[-54.837851,-25.871808],[-54.813148,-25.838412],[-54.65871,-25.979525],[-54.664705,-25.980444],[-54.669209,-25.982258],[-54.672787,-25.984983],[-54.67612,-25.988624],[-54.678303,-25.992968],[-54.67933,-25.998522],[-54.679344,-26.006419],[-54.677528,-26.015109],[-54.670855,-26.028232],[-54.669063,-26.032716],[-54.655679,-26.054963],[-54.652838,-26.06076],[-54.650192,-26.065334],[-54.646587,-26.075225],[-54.64539,-26.081153],[-54.643803,-26.086664],[-54.643179,-26.092294],[-54.643867,-26.097639],[-54.643903,-26.101539],[-54.64424,-26.104518],[-54.6453,-26.10833],[-54.650714,-26.118779],[-54.654506,-26.122325],[-54.658308,-26.12536],[-54.660634,-26.128377],[-54.663088,-26.130673],[-54.666562,-26.135959],[-54.66901,-26.138562],[-54.671951,-26.139223],[-54.67372,-26.141715],[-54.674339,-26.144902],[-54.673898,-26.149922],[-54.672579,-26.156259],[-54.671004,-26.161157],[-54.668007,-26.166135],[-54.658353,-26.177156],[-54.654658,-26.180069],[-54.648811,-26.182542],[-54.633339,-26.19162],[-54.628714,-26.195442],[-54.62374,-26.199665],[-54.619566,-26.206468],[-54.617422,-26.211252],[-54.617797,-26.215157],[-54.619295,-26.219798],[-54.623316,-26.223348],[-54.648439,-26.237813],[-54.656802,-26.243284],[-54.664869,-26.249362],[-54.672423,-26.254019],[-54.673917,-26.252495],[-54.675193,-26.250436],[-54.674912,-26.24606],[-54.675279,-26.243516],[-54.67566,-26.242851],[-54.678613,-26.239576],[-54.68114,-26.237721],[-54.683584,-26.236454],[-54.685058,-26.235171],[-54.68678,-26.234269],[-54.689439,-26.234017],[-54.690553,-26.233513],[-54.691686,-26.231827],[-54.692309,-26.228565],[-54.692784,-26.22811],[-54.701364,-26.229276],[-54.705077,-26.229225],[-54.705613,-26.229579],[-54.705076,-26.231606],[-54.703892,-26.23343],[-54.703326,-26.234981],[-54.702681,-26.235468],[-54.700942,-26.235944],[-54.700117,-26.237021],[-54.699661,-26.238429],[-54.700362,-26.23971],[-54.700472,-26.24346],[-54.699068,-26.248324],[-54.697692,-26.250546],[-54.697312,-26.252721],[-54.697881,-26.254408],[-54.699127,-26.255973],[-54.699666,-26.255809],[-54.70022,-26.254541],[-54.700844,-26.253909],[-54.704078,-26.252594],[-54.705339,-26.251496],[-54.706836,-26.248939],[-54.705927,-26.248483],[-54.705954,-26.247869],[-54.708723,-26.246035],[-54.708543,-26.243893],[-54.710038,-26.241052],[-54.709726,-26.237803],[-54.710305,-26.237163],[-54.712704,-26.236235],[-54.714472,-26.236208],[-54.71551,-26.237163],[-54.718348,-26.241923],[-54.719646,-26.244815],[-54.722172,-26.248375],[-54.721954,-26.249752],[-54.719322,-26.253576],[-54.718999,-26.254865],[-54.719388,-26.255275],[-54.724065,-26.25684],[-54.725949,-26.257108],[-54.726273,-26.256663],[-54.725899,-26.254648],[-54.726631,-26.253314],[-54.727957,-26.252155],[-54.729708,-26.251556],[-54.731735,-26.250366],[-54.734232,-26.248035],[-54.733988,-26.242564],[-54.733369,-26.240727],[-54.734462,-26.239103],[-54.734649,-26.23806],[-54.740008,-26.23495],[-54.740786,-26.23475],[-54.741078,-26.235128],[-54.740399,-26.237561],[-54.740406,-26.238674],[-54.74423,-26.245164],[-54.744153,-26.246809],[-54.743063,-26.248847],[-54.743037,-26.249571],[-54.743715,-26.250441],[-54.74503,-26.250736],[-54.746204,-26.250283],[-54.745539,-26.249647],[-54.745693,-26.248826],[-54.748946,-26.245942],[-54.748999,-26.243494],[-54.750903,-26.242411],[-54.752942,-26.240558],[-54.755313,-26.241418],[-54.76037,-26.24773],[-54.761841,-26.249167],[-54.762895,-26.249287],[-54.763633,-26.247657],[-54.763759,-26.246458],[-54.763247,-26.245627],[-54.76167,-26.24495],[-54.761487,-26.244279],[-54.762325,-26.241595],[-54.762663,-26.238349],[-54.761934,-26.237737],[-54.761512,-26.236416],[-54.761799,-26.234908],[-54.762297,-26.234383],[-54.767867,-26.234553],[-54.769474,-26.234003],[-54.77001,-26.235368],[-54.769529,-26.237721],[-54.771743,-26.239329],[-54.773207,-26.239921],[-54.773528,-26.239967],[-54.774078,-26.239381],[-54.773619,-26.237883],[-54.77407,-26.237719],[-54.775848,-26.238424]]]}}]}
