{"type":"FeatureCollection","name":"distrito","features":[{"type":"Feature","properties":{"clave":"8-3","nombre":"San Ignacio"},"geometry":{"type":"Polygon","coordinates":[[[-56.952947,-27.116322],[-56.953322,-27.121397],[-56.953904,-27.121613],[-56.953698,-27.122114],[-56.953921,-27.122417],[-56.953174,-27.124028],[-56.953141,-27.125468],[-56.951933,-27.128095],[-56.951865,-27.129291],[-56.952208,-27.131206],[-56.953292,-27.13391],[-56.953438,-27.136176],[-56.955378,-27.140804],[-56.955509,-27.142366],[-56.957138,-27.144944],[-56.957092,-27.146564],[-56.955769,-27.148298],[-56.956595,-27.15041],[-56.959991,-27.154],[-56.960471,-27.15544],[-56.961699,-27.157129],[-56.962064,-27.158104],[-56.962053,-27.159418],[-56.96147,-27.160862],[-56.961626,-27.163377],[-56.962546,-27.163679],[-56.963247,-27.164411],[-56.963315,-27.165269],[-56.96294,-27.166298],[-56.963072,-27.168297],[-56.964067,-27.168848],[-56.964298,-27.169413],[-56.965599,-27.170415],[-56.966024,-27.17177],[-56.966791,-27.172628],[-56.96619,-27.174262],[-57.038354,-27.159996],[-57.073139,-27.140851],[-57.080401,-27.135588],[-57.123977,-27.114086],[-57.132438,-27.124497],[-57.184311,-27.113239],[-57.182094,-27.108967],[-57.428681,-27.060106],[-57.430828,-27.057374],[-57.417305,-27.026781],[-57.379744,-26.934327],[-57.3698,-26.90901],[-57.335137,-26.864897],[-57.301011,-26.819067],[-57.270125,-26.779781],[-57.27005,-26.781141],[-57.270814,-26.781979],[-57.270099,-26.783164],[-57.268593,-26.783956],[-57.267798,-26.785019],[-57.266841,-26.785337],[-57.266588,-26.785924],[-57.265455,-26.786734],[-57.263937,-26.787265],[-57.263562,-26.787939],[-57.263198,-26.788016],[-57.263105,-26.789073],[-57.26192,-26.790208],[-57.261838,-26.79079],[-57.26099,-26.790995],[-57.260685,-26.79137],[-57.259981,-26.792703],[-57.259729,-26.794049],[-57.260058,-26.794392],[-57.259527,-26.795769],[-57.259732,-26.796582],[-57.259499,-26.797828],[-57.259233,-26.798551],[-57.258582,-26.799062],[-57.258729,-26.800258],[-57.258289,-26.800923],[-57.258682,-26.801527],[-57.257576,-26.802509],[-57.257121,-26.804112],[-57.256521,-26.804641],[-57.255592,-26.806945],[-57.254502,-26.808112],[-57.252874,-26.809009],[-57.251055,-26.809396],[-57.250225,-26.810982],[-57.248669,-26.809851],[-57.247909,-26.809835],[-57.247716,-26.8103],[-57.246715,-26.810595],[-57.24672,-26.811363],[-57.245745,-26.812109],[-57.245709,-26.812701],[-57.245158,-26.81299],[-57.244283,-26.811899],[-57.243811,-26.812054],[-57.243803,-26.811295],[-57.243049,-26.811283],[-57.243028,-26.810981],[-57.241965,-26.811122],[-57.241478,-26.810726],[-57.241374,-26.810997],[-57.241192,-26.810773],[-57.24061,-26.811147],[-57.240315,-26.811021],[-57.240147,-26.811396],[-57.239668,-26.811212],[-57.239336,-26.811565],[-57.238881,-26.81148],[-57.239381,-26.812102],[-57.238963,-26.812712],[-57.239075,-26.813299],[-57.238371,-26.813061],[-57.237946,-26.813215],[-57.236924,-26.814345],[-57.235619,-26.813941],[-57.23548,-26.81442],[-57.234725,-26.814439],[-57.234411,-26.814932],[-57.233978,-26.814946],[-57.23359,-26.814518],[-57.233001,-26.81497],[-57.232008,-26.814552],[-57.231758,-26.814232],[-57.231908,-26.813627],[-57.231174,-26.81393],[-57.231284,-26.813348],[-57.230858,-26.81366],[-57.230509,-26.813137],[-57.229637,-26.813685],[-57.229299,-26.813604],[-57.229246,-26.813229],[-57.228754,-26.813722],[-57.228024,-26.812866],[-57.226157,-26.813893],[-57.226002,-26.814458],[-57.225511,-26.814549],[-57.224886,-26.814035],[-57.224532,-26.814126],[-57.224524,-26.813323],[-57.224156,-26.813287],[-57.22418,-26.813048],[-57.223598,-26.81313],[-57.223144,-26.812801],[-57.22308,-26.813397],[-57.221964,-26.813552],[-57.221543,-26.812718],[-57.221241,-26.813247],[-57.219869,-26.812748],[-57.219614,-26.813294],[-57.218517,-26.813142],[-57.218092,-26.813653],[-57.217428,-26.813433],[-57.217066,-26.812883],[-57.21689,-26.81333],[-57.216588,-26.813163],[-57.216342,-26.813385],[-57.216255,-26.813132],[-57.215876,-26.813332],[-57.215592,-26.812425],[-57.214549,-26.812354],[-57.214548,-26.812101],[-57.214292,-26.812269],[-57.213845,-26.811705],[-57.213599,-26.811809],[-57.212942,-26.811359],[-57.212588,-26.811558],[-57.212167,-26.811233],[-57.212052,-26.811428],[-57.21193,-26.811017],[-57.211101,-26.810589],[-57.210676,-26.809999],[-57.210147,-26.810117],[-57.209722,-26.810948],[-57.209222,-26.810741],[-57.209044,-26.81094],[-57.209019,-26.810692],[-57.208726,-26.81099],[-57.208665,-26.810733],[-57.208298,-26.810923],[-57.207673,-26.81045],[-57.207505,-26.810924],[-57.207169,-26.811006],[-57.207166,-26.811552],[-57.206756,-26.8113],[-57.206021,-26.811843],[-57.205178,-26.811849],[-57.205473,-26.812539],[-57.20494,-26.812373],[-57.204734,-26.812712],[-57.204435,-26.812206],[-57.203998,-26.812356],[-57.203969,-26.811932],[-57.203655,-26.812248],[-57.203611,-26.811738],[-57.203321,-26.811743],[-57.203221,-26.811359],[-57.202879,-26.811464],[-57.202825,-26.810918],[-57.202325,-26.811103],[-57.202114,-26.810684],[-57.201309,-26.811118],[-57.20076,-26.810573],[-57.2008,-26.811074],[-57.200689,-26.810821],[-57.200633,-26.811088],[-57.200175,-26.810827],[-57.199957,-26.811107],[-57.199877,-26.810795],[-57.199578,-26.811256],[-57.199398,-26.810679],[-57.198932,-26.810454],[-57.198539,-26.810748],[-57.19774,-26.80976],[-57.197494,-26.809778],[-57.19755,-26.810144],[-57.197143,-26.809693],[-57.197507,-26.808894],[-57.197312,-26.808569],[-57.196986,-26.808533],[-57.19709,-26.808777],[-57.196776,-26.808863],[-57.196429,-26.808232],[-57.196141,-26.808498],[-57.195973,-26.808079],[-57.195222,-26.808007],[-57.195018,-26.807222],[-57.194851,-26.807502],[-57.194175,-26.807065],[-57.194571,-26.806252],[-57.194138,-26.806126],[-57.19413,-26.805571],[-57.193037,-26.805099],[-57.192854,-26.804729],[-57.192414,-26.804797],[-57.191552,-26.803656],[-57.191002,-26.803779],[-57.189984,-26.802814],[-57.189271,-26.802856],[-57.189058,-26.802219],[-57.188513,-26.802586],[-57.188375,-26.80222],[-57.187961,-26.802365],[-57.187932,-26.801787],[-57.187078,-26.802154],[-57.18685,-26.801839],[-57.187183,-26.801296],[-57.186455,-26.801324],[-57.186287,-26.800792],[-57.185741,-26.801036],[-57.185452,-26.800247],[-57.184861,-26.800645],[-57.184223,-26.800127],[-57.183708,-26.800127],[-57.183237,-26.799749],[-57.183221,-26.799243],[-57.182523,-26.799257],[-57.180327,-26.796841],[-57.179948,-26.796949],[-57.179629,-26.796552],[-57.179569,-26.796855],[-57.179369,-26.79611],[-57.178886,-26.796228],[-57.178308,-26.795656],[-57.177604,-26.795941],[-57.177574,-26.796329],[-57.176747,-26.796245],[-57.175532,-26.795443],[-57.17532,-26.79566],[-57.174561,-26.794667],[-57.174446,-26.794997],[-57.173635,-26.794777],[-57.172931,-26.795229],[-57.172688,-26.7949],[-57.172324,-26.79527],[-57.172096,-26.794955],[-57.171809,-26.795366],[-57.172097,-26.795731],[-57.17146,-26.795502],[-57.171446,-26.796102],[-57.170961,-26.796387],[-57.170763,-26.796035],[-57.170536,-26.796361],[-57.170348,-26.795959],[-57.170065,-26.79619],[-57.1698,-26.795725],[-57.169483,-26.796073],[-57.169406,-26.795807],[-57.168821,-26.79597],[-57.168552,-26.795735],[-57.167897,-26.796255],[-57.167595,-26.797032],[-57.166532,-26.79669],[-57.165046,-26.796954],[-57.164681,-26.796516],[-57.164348,-26.796928],[-57.162711,-26.797498],[-57.162422,-26.796835],[-57.162301,-26.797363],[-57.162058,-26.796849],[-57.161421,-26.797215],[-57.161253,-26.795852],[-57.160979,-26.795744],[-57.160404,-26.796156],[-57.160678,-26.796878],[-57.160299,-26.797406],[-57.158692,-26.797751],[-57.158829,-26.798035],[-57.15804,-26.798307],[-57.157738,-26.798881],[-57.157389,-26.798732],[-57.156995,-26.799031],[-57.156464,-26.798801],[-57.156055,-26.799181],[-57.155945,-26.798842],[-57.15528,-26.798626],[-57.154773,-26.798938],[-57.153893,-26.798885],[-57.153514,-26.799441],[-57.153895,-26.800722],[-57.153273,-26.800696],[-57.153426,-26.801143],[-57.153133,-26.801581],[-57.152682,-26.801035],[-57.152137,-26.80146],[-57.151681,-26.800752],[-57.151166,-26.80105],[-57.150953,-26.800563],[-57.150559,-26.800848],[-57.150149,-26.800618],[-57.149512,-26.801012],[-57.149119,-26.802154],[-57.149256,-26.802565],[-57.148681,-26.803039],[-57.147702,-26.803235],[-57.14758,-26.802607],[-57.147155,-26.802418],[-57.14705,-26.802919],[-57.146336,-26.802636],[-57.146322,-26.803195],[-57.145913,-26.803358],[-57.144728,-26.802339],[-57.144092,-26.803157],[-57.143758,-26.80276],[-57.143319,-26.803347],[-57.14306,-26.80291],[-57.142651,-26.80324],[-57.142227,-26.803105],[-57.141818,-26.804301],[-57.140529,-26.804506],[-57.140568,-26.804944],[-57.139855,-26.805324],[-57.139567,-26.805365],[-57.139263,-26.804778],[-57.137156,-26.80594],[-57.136245,-26.8053],[-57.135669,-26.805544],[-57.135426,-26.805206],[-57.134303,-26.805139],[-57.133575,-26.804729],[-57.133574,-26.804201],[-57.132489,-26.804013],[-57.132458,-26.803358],[-57.131988,-26.803548],[-57.131987,-26.802893],[-57.131684,-26.802867],[-57.131213,-26.801793],[-57.130439,-26.802064],[-57.130257,-26.801563],[-57.129498,-26.801523],[-57.128951,-26.800815],[-57.128663,-26.801059],[-57.128329,-26.800626],[-57.127935,-26.800721],[-57.127693,-26.801566],[-57.126532,-26.800438],[-57.1255,-26.800272],[-57.125213,-26.801211],[-57.124334,-26.800941],[-57.123406,-26.801457],[-57.122576,-26.801516],[-57.122431,-26.800401],[-57.12176,-26.800433],[-57.121302,-26.79991],[-57.120305,-26.799568],[-57.11925,-26.800169],[-57.119122,-26.799808],[-57.118493,-26.799872],[-57.118512,-26.799488],[-57.117639,-26.799358],[-57.117288,-26.798789],[-57.11685,-26.798839],[-57.116849,-26.797787],[-57.116015,-26.797531],[-57.115769,-26.796913],[-57.115379,-26.797008],[-57.115499,-26.796669],[-57.115022,-26.796909],[-57.115037,-26.796376],[-57.113398,-26.796702],[-57.11312,-26.796111],[-57.112816,-26.796044],[-57.112525,-26.796495],[-57.112524,-26.795922],[-57.111566,-26.796094],[-57.111225,-26.795598],[-57.110778,-26.796208],[-57.110075,-26.796303],[-57.110219,-26.7968],[-57.10931,-26.797568],[-57.107414,-26.797452],[-57.107499,-26.796896],[-57.105797,-26.79818],[-57.103561,-26.799021],[-57.103028,-26.798678],[-57.102496,-26.799004],[-57.102325,-26.798471],[-57.101793,-26.798991],[-57.101516,-26.798355],[-57.100622,-26.799023],[-57.100622,-26.798301],[-57.100181,-26.798089],[-57.100229,-26.7978],[-57.099861,-26.798067],[-57.099876,-26.797548],[-57.099087,-26.797133],[-57.098788,-26.795986],[-57.098299,-26.796045],[-57.098384,-26.795738],[-57.098043,-26.79549],[-57.097617,-26.795626],[-57.097659,-26.795147],[-57.097233,-26.795644],[-57.097084,-26.795112],[-57.096403,-26.795473],[-57.096317,-26.794936],[-57.095124,-26.794463],[-57.094122,-26.792532],[-57.092396,-26.791386],[-57.091681,-26.790127],[-57.090083,-26.78923],[-57.087408,-26.78934],[-57.086011,-26.78842],[-57.085076,-26.788366],[-57.083822,-26.787283],[-57.082902,-26.786905],[-57.08253,-26.786033],[-57.080222,-26.783741],[-57.079068,-26.781408],[-57.080348,-26.780676],[-57.080999,-26.779534],[-57.080138,-26.778302],[-57.079187,-26.777598],[-57.07632,-26.778417],[-57.069607,-26.775671],[-57.06776,-26.775509],[-57.066744,-26.775031],[-57.064911,-26.775194],[-57.063969,-26.77426],[-57.061854,-26.773304],[-57.061351,-26.772483],[-57.060154,-26.771883],[-57.05942,-26.770574],[-57.058216,-26.769924],[-57.057361,-26.769812],[-57.056699,-26.768634],[-57.055471,-26.768142],[-57.05508,-26.76752],[-57.05348,-26.766843],[-57.052941,-26.765814],[-57.051951,-26.765426],[-57.051067,-26.764325],[-57.04974,-26.763558],[-57.048363,-26.761581],[-57.046088,-26.760738],[-57.045104,-26.759325],[-57.043245,-26.755438],[-57.044318,-26.754021],[-57.044426,-26.752752],[-57.012867,-26.72271],[-57.00103,-26.710043],[-56.991424,-26.722069],[-56.989497,-26.72676],[-56.988494,-26.727708],[-56.986383,-26.728466],[-56.984325,-26.729653],[-56.982899,-26.73112],[-56.978914,-26.733539],[-56.976855,-26.733539],[-56.973214,-26.731832],[-56.973211,-26.732717],[-56.973841,-26.733665],[-56.974082,-26.736468],[-56.977435,-26.737688],[-56.978061,-26.737616],[-56.981172,-26.739278],[-56.981579,-26.740573],[-56.981399,-26.742302],[-56.981956,-26.742889],[-56.982076,-26.744329],[-56.98333,-26.746388],[-56.982757,-26.747679],[-56.983757,-26.749133],[-56.984687,-26.749399],[-56.98562,-26.751855],[-56.986054,-26.754857],[-56.986619,-26.755629],[-56.986766,-26.756799],[-56.988608,-26.760176],[-56.988509,-26.760898],[-56.989741,-26.762627],[-56.990768,-26.76627],[-56.992166,-26.769552],[-56.994993,-26.774085],[-56.995553,-26.775467],[-56.995301,-26.777615],[-56.996779,-26.779843],[-56.996638,-26.781168],[-56.997545,-26.782193],[-56.997396,-26.783894],[-56.996753,-26.784819],[-56.997017,-26.786051],[-56.996753,-26.789226],[-56.996333,-26.790436],[-56.997159,-26.792933],[-56.999456,-26.796565],[-56.997861,-26.799653],[-56.997122,-26.799984],[-56.997069,-26.800553],[-56.996066,-26.801691],[-56.996013,-26.802449],[-56.995379,-26.802686],[-56.995115,-26.803397],[-56.993795,-26.804203],[-56.993583,-26.805578],[-56.993082,-26.805767],[-56.99052,-26.810363],[-56.988802,-26.818894],[-56.96545,-26.834672],[-56.923437,-26.848557],[-56.921951,-26.847965],[-56.920302,-26.845964],[-56.919559,-26.845666],[-56.918652,-26.844631],[-56.917166,-26.84389],[-56.916754,-26.843],[-56.915728,-26.842045],[-56.913812,-26.845035],[-56.907285,-26.859815],[-56.908086,-26.867729],[-56.911892,-26.867262],[-56.915148,-26.867773],[-56.91612,-26.868335],[-56.916541,-26.87438],[-56.918051,-26.876484],[-56.918155,-26.877049],[-56.917549,-26.877658],[-56.919896,-26.882611],[-56.917248,-26.88856],[-56.917666,-26.891544],[-56.91891,-26.893134],[-56.919664,-26.893622],[-56.92161,-26.894598],[-56.924742,-26.895444],[-56.925419,-26.896523],[-56.929241,-26.907856],[-56.930038,-26.90945],[-56.93281,-26.91402],[-56.937301,-26.919078],[-56.916158,-26.934154],[-56.917152,-26.9361],[-56.918198,-26.936647],[-56.919636,-26.936296],[-56.920856,-26.937899],[-56.921159,-26.939777],[-56.921028,-26.941263],[-56.921506,-26.942626],[-56.921244,-26.943606],[-56.921527,-26.944621],[-56.921351,-26.946459],[-56.923659,-26.951146],[-56.923788,-26.952554],[-56.925052,-26.954311],[-56.926751,-26.955016],[-56.928407,-26.956696],[-56.929235,-26.95709],[-56.930062,-26.959198],[-56.931718,-26.960255],[-56.932852,-26.960491],[-56.93381,-26.962324],[-56.940216,-26.96936],[-56.942177,-26.96979],[-56.94403,-26.970653],[-56.945512,-26.972491],[-56.946907,-26.973037],[-56.947822,-26.97409],[-56.948345,-26.976162],[-56.949129,-26.976356],[-56.949478,-26.976749],[-56.951003,-26.98019],[-56.952878,-26.981323],[-56.954447,-26.981712],[-56.958154,-26.981167],[-56.959026,-26.982535],[-56.960073,-26.982377],[-56.961686,-26.983199],[-56.96199,-26.984956],[-56.963517,-26.985231],[-56.964345,-26.986324],[-56.96574,-26.987187],[-56.9667,-26.987223],[-56.968138,-26.989724],[-56.968399,-26.991133],[-56.971134,-26.995422],[-56.973887,-26.996298],[-56.974154,-26.996813],[-56.976551,-26.998447],[-56.980148,-26.998963],[-56.982895,-27.001112],[-56.985334,-27.001026],[-56.989252,-26.999957],[-56.989587,-27.000241],[-56.990121,-26.999776],[-56.990655,-26.999763],[-56.990283,-27.001677],[-56.988277,-27.002096],[-56.987932,-27.002561],[-56.988115,-27.003406],[-56.988978,-27.003243],[-56.98919,-27.003455],[-56.988277,-27.005816],[-56.988411,-27.007112],[-56.988076,-27.007161],[-56.987772,-27.00792],[-56.986343,-27.008683],[-56.985497,-27.011093],[-56.985675,-27.01173],[-56.985397,-27.012416],[-56.983964,-27.01275],[-56.983283,-27.014619],[-56.981955,-27.01535],[-56.98229,-27.016776],[-56.983056,-27.017327],[-56.983296,-27.01823],[-56.983586,-27.018343],[-56.983522,-27.018812],[-56.982605,-27.019805],[-56.982912,-27.020555],[-56.982245,-27.020893],[-56.981858,-27.02162],[-56.981089,-27.021742],[-56.980997,-27.022252],[-56.979938,-27.02273],[-56.979752,-27.0232],[-56.978784,-27.022965],[-56.97848,-27.023768],[-56.978926,-27.024112],[-56.977769,-27.024468],[-56.97764,-27.025231],[-56.976966,-27.025894],[-56.976821,-27.026508],[-56.976128,-27.026689],[-56.976825,-27.027181],[-56.976221,-27.028224],[-56.976993,-27.028436],[-56.976697,-27.029619],[-56.977008,-27.030197],[-56.975892,-27.03095],[-56.975309,-27.030991],[-56.974628,-27.032516],[-56.974765,-27.032751],[-56.974349,-27.032914],[-56.974717,-27.034047],[-56.97449,-27.035044],[-56.975097,-27.036223],[-56.974854,-27.036448],[-56.975003,-27.036796],[-56.97446,-27.03704],[-56.974748,-27.037279],[-56.974585,-27.037816],[-56.974926,-27.038511],[-56.974532,-27.038791],[-56.974382,-27.040006],[-56.97486,-27.040435],[-56.974388,-27.041482],[-56.975129,-27.042773],[-56.975517,-27.042863],[-56.975452,-27.043179],[-56.976713,-27.043328],[-56.976739,-27.043766],[-56.977072,-27.043821],[-56.976891,-27.044249],[-56.977126,-27.044534],[-56.976663,-27.045048],[-56.977475,-27.045721],[-56.977265,-27.046543],[-56.977689,-27.047085],[-56.977635,-27.048439],[-56.976757,-27.04871],[-56.976586,-27.049454],[-56.975976,-27.049752],[-56.975801,-27.050727],[-56.975394,-27.050822],[-56.97372,-27.053065],[-56.972673,-27.053575],[-56.971995,-27.05516],[-56.971364,-27.05553],[-56.971414,-27.055981],[-56.970996,-27.056261],[-56.970988,-27.057692],[-56.971508,-27.058983],[-56.971451,-27.059647],[-56.967466,-27.061235],[-56.966645,-27.063027],[-56.965291,-27.063663],[-56.966775,-27.064963],[-56.965554,-27.06583],[-56.965777,-27.067247],[-56.964877,-27.067509],[-56.964861,-27.067256],[-56.964225,-27.067265],[-56.963647,-27.066904],[-56.963396,-27.068118],[-56.962446,-27.06838],[-56.96219,-27.069544],[-56.961739,-27.069237],[-56.961083,-27.069553],[-56.96052,-27.069359],[-56.959825,-27.069995],[-56.95873,-27.069796],[-56.958157,-27.07008],[-56.957124,-27.072057],[-56.957208,-27.072504],[-56.956887,-27.072653],[-56.957648,-27.075177],[-56.957468,-27.075872],[-56.958433,-27.078811],[-56.957289,-27.080901],[-56.957421,-27.081501],[-56.957021,-27.081681],[-56.955997,-27.083248],[-56.955796,-27.084245],[-56.955077,-27.085446],[-56.955539,-27.086326],[-56.955211,-27.086746],[-56.955258,-27.087373],[-56.954744,-27.087793],[-56.954486,-27.089766],[-56.954044,-27.090578],[-56.954334,-27.091088],[-56.954216,-27.093038],[-56.954486,-27.093513],[-56.954262,-27.094036],[-56.954563,-27.094718],[-56.955348,-27.095255],[-56.955383,-27.09605],[-56.954733,-27.096465],[-56.954567,-27.09776],[-56.955207,-27.098307],[-56.95433,-27.098871],[-56.954871,-27.099778],[-56.954389,-27.100239],[-56.954241,-27.100925],[-56.95311,-27.101994],[-56.952735,-27.102956],[-56.952236,-27.103028],[-56.952308,-27.103813],[-56.951904,-27.104125],[-56.951899,-27.105032],[-56.951332,-27.105384],[-56.951633,-27.10561],[-56.951484,-27.106174],[-56.950865,-27.106499],[-56.95118,-27.107149],[-56.951035,-27.108679],[-56.951362,-27.109058],[-56.951195,-27.109695],[-56.950632,-27.109975],[-56.950351,-27.112385],[-56.952947,-27.116322]]]}}]}
