{"type":"FeatureCollection","name":"distrito","features":[{"type":"Feature","properties":{"clave":"10-21","nombre":"Naranjal"},"geometry":{"type":"Polygon","coordinates":[[[-55.142428,-26.015979],[-55.143147,-26.018227],[-55.144957,-26.020101],[-55.146824,-26.020802],[-55.149928,-26.022706],[-55.153092,-26.023906],[-55.15204,-26.025662],[-55.151075,-26.026417],[-55.148259,-26.026182],[-55.148535,-26.028691],[-55.149232,-26.028767],[-55.151474,-26.027126],[-55.152662,-26.026785],[-55.156224,-26.028654],[-55.158618,-26.026039],[-55.160075,-26.023417],[-55.160372,-26.017323],[-55.161704,-26.017228],[-55.163085,-26.014542],[-55.166486,-26.01509],[-55.166932,-26.016536],[-55.166093,-26.017577],[-55.165904,-26.018572],[-55.164691,-26.020818],[-55.164077,-26.023735],[-55.163192,-26.025339],[-55.161372,-26.027176],[-55.16066,-26.028561],[-55.160667,-26.029423],[-55.161385,-26.030114],[-55.163007,-26.030302],[-55.16425,-26.030999],[-55.167733,-26.029287],[-55.170894,-26.028885],[-55.173011,-26.0293],[-55.172549,-26.030504],[-55.173324,-26.032193],[-55.173176,-26.03466],[-55.174171,-26.037186],[-55.174286,-26.03837],[-55.173476,-26.039385],[-55.1712,-26.040584],[-55.171039,-26.041412],[-55.17187,-26.043769],[-55.173091,-26.044503],[-55.175056,-26.044573],[-55.17599,-26.044133],[-55.176269,-26.041523],[-55.175191,-26.038382],[-55.175491,-26.037478],[-55.176021,-26.03739],[-55.178768,-26.038413],[-55.180314,-26.038433],[-55.181154,-26.038064],[-55.183049,-26.036066],[-55.184692,-26.034976],[-55.18437,-26.033898],[-55.184408,-26.032328],[-55.182262,-26.030857],[-55.179839,-26.029689],[-55.178125,-26.028051],[-55.17978,-26.026826],[-55.181037,-26.025443],[-55.182531,-26.021639],[-55.183069,-26.021984],[-55.183069,-26.024399],[-55.18488,-26.028362],[-55.186734,-26.030371],[-55.186983,-26.030289],[-55.187101,-26.028625],[-55.187945,-26.0291],[-55.188926,-26.031428],[-55.188959,-26.033437],[-55.191033,-26.035051],[-55.191721,-26.03678],[-55.194367,-26.034886],[-55.19775,-26.034188],[-55.197591,-26.033576],[-55.196252,-26.032422],[-55.19605,-26.031612],[-55.198674,-26.030277],[-55.199326,-26.032614],[-55.199791,-26.036831],[-55.202347,-26.041033],[-55.201892,-26.042102],[-55.199192,-26.042163],[-55.197695,-26.042781],[-55.196321,-26.042281],[-55.193363,-26.044807],[-55.192002,-26.045215],[-55.190292,-26.044963],[-55.187744,-26.043649],[-55.185915,-26.041884],[-55.181676,-26.041989],[-55.181149,-26.042438],[-55.182051,-26.045902],[-55.181813,-26.046833],[-55.180733,-26.048571],[-55.180922,-26.049368],[-55.181833,-26.049948],[-55.186431,-26.050877],[-55.189995,-26.051138],[-55.191943,-26.050237],[-55.193327,-26.050607],[-55.193881,-26.051056],[-55.19389,-26.052207],[-55.193227,-26.054514],[-55.191884,-26.055084],[-55.190104,-26.055301],[-55.186756,-26.055106],[-55.182244,-26.054164],[-55.18077,-26.054105],[-55.18042,-26.054462],[-55.180115,-26.055907],[-55.18045,-26.059093],[-55.179754,-26.060605],[-55.175798,-26.061823],[-55.172795,-26.061321],[-55.172452,-26.06221],[-55.173145,-26.06323],[-55.17597,-26.064349],[-55.17662,-26.064935],[-55.176514,-26.066739],[-55.174983,-26.068814],[-55.175155,-26.069786],[-55.175891,-26.070269],[-55.176989,-26.070058],[-55.178219,-26.069148],[-55.180114,-26.06585],[-55.181055,-26.063041],[-55.182753,-26.062114],[-55.183254,-26.062256],[-55.183342,-26.062573],[-55.182672,-26.064754],[-55.183752,-26.065769],[-55.185445,-26.066459],[-55.187049,-26.066583],[-55.19011,-26.064838],[-55.190865,-26.066075],[-55.19274,-26.066762],[-55.194005,-26.068146],[-55.194533,-26.068215],[-55.197747,-26.063769],[-55.197888,-26.061821],[-55.199013,-26.05868],[-55.200179,-26.057918],[-55.201013,-26.058263],[-55.202364,-26.059548],[-55.202903,-26.060877],[-55.20299,-26.063112],[-55.203663,-26.064042],[-55.208873,-26.064887],[-55.212912,-26.064635],[-55.214882,-26.065268],[-55.217016,-26.065421],[-55.217042,-26.06622],[-55.216595,-26.067118],[-55.21527,-26.068153],[-55.20768,-26.070577],[-55.206808,-26.070485],[-55.205913,-26.069292],[-55.205371,-26.069222],[-55.204067,-26.071724],[-55.204039,-26.073525],[-55.206363,-26.07586],[-55.209216,-26.07678],[-55.2127,-26.076259],[-55.21496,-26.077415],[-55.214612,-26.078377],[-55.213652,-26.079322],[-55.210318,-26.080653],[-55.210112,-26.081463],[-55.210617,-26.082882],[-55.210681,-26.084421],[-55.209709,-26.088336],[-55.208659,-26.090011],[-55.205814,-26.092616],[-55.204831,-26.094179],[-55.204778,-26.094856],[-55.205422,-26.095446],[-55.206975,-26.095853],[-55.208392,-26.095821],[-55.211864,-26.094095],[-55.214142,-26.091329],[-55.214174,-26.089362],[-55.211589,-26.088752],[-55.212299,-26.087425],[-55.21494,-26.08674],[-55.216754,-26.08692],[-55.219113,-26.086331],[-55.220328,-26.085299],[-55.22117,-26.083901],[-55.222993,-26.084533],[-55.224207,-26.085889],[-55.229583,-26.08474],[-55.231785,-26.086428],[-55.23458,-26.084395],[-55.233513,-26.081832],[-55.232292,-26.080359],[-55.231773,-26.080308],[-55.231141,-26.081325],[-55.229628,-26.08197],[-55.227057,-26.080449],[-55.225765,-26.075725],[-55.221525,-26.073944],[-55.219884,-26.072322],[-55.219809,-26.071504],[-55.220715,-26.070418],[-55.224179,-26.071115],[-55.225523,-26.068099],[-55.227405,-26.066524],[-55.229899,-26.065733],[-55.233384,-26.066236],[-55.234583,-26.068806],[-55.235168,-26.069427],[-55.236899,-26.069037],[-55.236546,-26.067277],[-55.236714,-26.066769],[-55.237189,-26.066513],[-55.238639,-26.066738],[-55.238861,-26.067833],[-55.239279,-26.068168],[-55.240991,-26.068478],[-55.241787,-26.068244],[-55.243872,-26.064108],[-55.245582,-26.06175],[-55.246265,-26.061632],[-55.247705,-26.062123],[-55.247987,-26.061937],[-55.247381,-26.060481],[-55.248075,-26.059496],[-55.24915,-26.058832],[-55.249097,-26.057662],[-55.250081,-26.055539],[-55.250929,-26.054471],[-55.251074,-26.053046],[-55.252294,-26.052154],[-55.253632,-26.050302],[-55.251903,-26.047202],[-55.253299,-26.044457],[-55.25341,-26.041849],[-55.254011,-26.041884],[-55.255098,-26.042542],[-55.255926,-26.042232],[-55.257103,-26.040332],[-55.255601,-26.040021],[-55.255283,-26.039069],[-55.255979,-26.037917],[-55.257029,-26.0371],[-55.257857,-26.036907],[-55.258649,-26.037246],[-55.259532,-26.037838],[-55.260695,-26.039365],[-55.263303,-26.039667],[-55.264157,-26.043541],[-55.2652,-26.044149],[-55.26903,-26.043401],[-55.269536,-26.044228],[-55.270468,-26.042799],[-55.273252,-26.040549],[-55.274009,-26.040499],[-55.27503,-26.042096],[-55.275167,-26.043104],[-55.276174,-26.044944],[-55.276031,-26.045908],[-55.277374,-26.047982],[-55.278842,-26.049553],[-55.278585,-26.050741],[-55.28046,-26.051377],[-55.281482,-26.052396],[-55.282378,-26.05233],[-55.28304,-26.052649],[-55.283889,-26.052361],[-55.287762,-26.048964],[-55.288867,-26.046029],[-55.288725,-26.042913],[-55.289229,-26.041579],[-55.290023,-26.041371],[-55.290621,-26.040841],[-55.291773,-26.040891],[-55.292227,-26.040066],[-55.293524,-26.040045],[-55.294283,-26.038745],[-55.296083,-26.039177],[-55.297338,-26.038731],[-55.298168,-26.03908],[-55.300659,-26.038337],[-55.301384,-26.038477],[-55.304007,-26.040178],[-55.30404,-26.041812],[-55.304812,-26.042426],[-55.305197,-26.042381],[-55.305879,-26.041247],[-55.305049,-26.040059],[-55.306698,-26.035528],[-55.307651,-26.035192],[-55.309103,-26.035304],[-55.310394,-26.034421],[-55.310853,-26.03328],[-55.312,-26.032819],[-55.313388,-26.033296],[-55.315062,-26.031699],[-55.314742,-26.03142],[-55.313492,-26.031911],[-55.312847,-26.031493],[-55.314214,-26.031175],[-55.315776,-26.030304],[-55.316629,-26.030314],[-55.316863,-26.029599],[-55.318009,-26.030109],[-55.318627,-26.029953],[-55.319452,-26.026199],[-55.319806,-26.026252],[-55.32039,-26.027825],[-55.320857,-26.027768],[-55.321635,-26.026991],[-55.322945,-26.02502],[-55.322664,-26.023866],[-55.32317,-26.023755],[-55.323084,-26.02342],[-55.322085,-26.023268],[-55.321106,-26.02183],[-55.3221,-26.019757],[-55.323042,-26.019862],[-55.324452,-26.021802],[-55.326207,-26.022346],[-55.328106,-26.022011],[-55.330082,-26.020106],[-55.330024,-26.019474],[-55.32931,-26.01859],[-55.327236,-26.019622],[-55.326135,-26.019375],[-55.325378,-26.018811],[-55.324804,-26.013207],[-55.325443,-26.012063],[-55.325803,-26.011955],[-55.32604,-26.012626],[-55.32636,-26.01272],[-55.328091,-26.01269],[-55.329128,-26.011795],[-55.329582,-26.012436],[-55.330116,-26.012447],[-55.330411,-26.011742],[-55.329882,-26.009312],[-55.330127,-26.008999],[-55.33069,-26.00915],[-55.332015,-26.008619],[-55.330874,-26.007879],[-55.330957,-26.007568],[-55.331799,-26.007546],[-55.332291,-26.006221],[-55.333612,-26.005793],[-55.333225,-26.006796],[-55.33418,-26.007095],[-55.334802,-26.006832],[-55.33599,-26.005518],[-55.33599,-26.00694],[-55.336352,-26.007297],[-55.336916,-26.006725],[-55.337575,-26.005103],[-55.338533,-26.004812],[-55.339195,-26.005618],[-55.338793,-26.006119],[-55.338843,-26.006621],[-55.339728,-26.007259],[-55.340778,-26.006151],[-55.342113,-26.002519],[-55.344406,-26.002225],[-55.344587,-26.001844],[-55.344333,-26.001425],[-55.342269,-26.000093],[-55.343774,-25.999984],[-55.343946,-25.999489],[-55.340853,-25.998763],[-55.340465,-25.998456],[-55.341419,-25.997858],[-55.339631,-25.996312],[-55.340581,-25.994133],[-55.342167,-25.994066],[-55.342883,-25.993031],[-55.343334,-25.992969],[-55.343888,-25.993372],[-55.343046,-25.994013],[-55.343305,-25.995004],[-55.344726,-25.995612],[-55.34593,-25.992254],[-55.34683,-25.992413],[-55.347204,-25.992115],[-55.347169,-25.989767],[-55.350543,-25.991255],[-55.350727,-25.991943],[-55.350442,-25.992229],[-55.350037,-25.992174],[-55.349456,-25.991495],[-55.348564,-25.991936],[-55.348869,-25.992495],[-55.350123,-25.993286],[-55.351043,-25.992782],[-55.352243,-25.993197],[-55.354333,-25.992706],[-55.35615,-25.992727],[-55.356709,-25.99313],[-55.357259,-25.993078],[-55.357934,-25.991686],[-55.359394,-25.990732],[-55.360497,-25.988308],[-55.361583,-25.987295],[-55.362506,-25.985175],[-55.363698,-25.985256],[-55.364389,-25.984361],[-55.364989,-25.981926],[-55.365629,-25.981396],[-55.365252,-25.980959],[-55.365537,-25.979982],[-55.365552,-25.977477],[-55.366304,-25.976831],[-55.365004,-25.975074],[-55.365228,-25.973601],[-55.366077,-25.972229],[-55.366513,-25.972713],[-55.366805,-25.972305],[-55.367388,-25.97242],[-55.368782,-25.974124],[-55.369872,-25.97341],[-55.370369,-25.974052],[-55.370458,-25.97296],[-55.371142,-25.97314],[-55.371393,-25.972262],[-55.37242,-25.972599],[-55.372793,-25.972039],[-55.373204,-25.972612],[-55.373304,-25.972071],[-55.373681,-25.972374],[-55.373136,-25.971271],[-55.374447,-25.970351],[-55.37572,-25.970573],[-55.376487,-25.970035],[-55.37719,-25.971118],[-55.378585,-25.969179],[-55.379075,-25.969378],[-55.37977,-25.96912],[-55.380902,-25.969688],[-55.381258,-25.969159],[-55.381742,-25.969151],[-55.378508,-25.957066],[-55.376725,-25.957403],[-55.374113,-25.944443],[-55.36859,-25.941098],[-55.367833,-25.942548],[-55.366644,-25.943081],[-55.363288,-25.943145],[-55.361098,-25.943658],[-55.359206,-25.945789],[-55.356945,-25.945858],[-55.354674,-25.94651],[-55.349478,-25.947058],[-55.348819,-25.946952],[-55.345248,-25.94426],[-55.340709,-25.941833],[-55.339096,-25.937752],[-55.340508,-25.937446],[-55.336573,-25.925164],[-55.326739,-25.888555],[-55.319055,-25.856429],[-55.30731,-25.85902],[-55.304995,-25.854548],[-55.305192,-25.851982],[-55.303654,-25.849464],[-55.301213,-25.843179],[-55.300782,-25.842736],[-55.299961,-25.83661],[-55.300529,-25.835245],[-55.300179,-25.834694],[-55.301367,-25.830646],[-55.303352,-25.829143],[-55.303514,-25.828698],[-55.302974,-25.82746],[-55.298241,-25.82229],[-55.295849,-25.818719],[-55.294734,-25.811353],[-55.29515,-25.809864],[-55.29501,-25.807971],[-55.295348,-25.806991],[-55.295444,-25.804514],[-55.294243,-25.802437],[-55.293091,-25.797007],[-55.289723,-25.788648],[-55.288421,-25.783623],[-55.287088,-25.78098],[-55.286314,-25.78103],[-55.28612,-25.78072],[-55.285704,-25.781623],[-55.285762,-25.783113],[-55.286464,-25.783848],[-55.286039,-25.785648],[-55.282389,-25.787506],[-55.281484,-25.787635],[-55.277007,-25.791184],[-55.274491,-25.794959],[-55.273974,-25.797774],[-55.273018,-25.799568],[-55.267143,-25.803899],[-55.26664,-25.804995],[-55.264396,-25.807536],[-55.26169,-25.811607],[-55.259827,-25.812984],[-55.257556,-25.812966],[-55.24688,-25.820786],[-55.246478,-25.824406],[-55.245631,-25.826359],[-55.244,-25.8281],[-55.243392,-25.829794],[-55.243745,-25.830832],[-55.24159,-25.832544],[-55.240258,-25.83547],[-55.239708,-25.836028],[-55.23896,-25.836511],[-55.238016,-25.83649],[-55.236883,-25.83733],[-55.234746,-25.837335],[-55.231672,-25.837925],[-55.229808,-25.83876],[-55.22856,-25.839684],[-55.226602,-25.840102],[-55.226254,-25.840825],[-55.225662,-25.841165],[-55.224433,-25.841272],[-55.220821,-25.840302],[-55.217261,-25.841888],[-55.216694,-25.8424],[-55.215781,-25.842443],[-55.212091,-25.845819],[-55.211453,-25.848849],[-55.211197,-25.849099],[-55.210871,-25.848779],[-55.210545,-25.848915],[-55.210762,-25.849644],[-55.210299,-25.849688],[-55.209933,-25.850243],[-55.210614,-25.851745],[-55.21017,-25.852399],[-55.209178,-25.85254],[-55.207723,-25.855352],[-55.20123,-25.856197],[-55.19882,-25.857192],[-55.194985,-25.862109],[-55.194812,-25.865231],[-55.193598,-25.867233],[-55.193474,-25.868536],[-55.191534,-25.870805],[-55.189576,-25.87171],[-55.186884,-25.871916],[-55.185607,-25.871719],[-55.185003,-25.872366],[-55.183369,-25.873041],[-55.1825,-25.872132],[-55.181965,-25.871976],[-55.181161,-25.872336],[-55.179161,-25.871155],[-55.178195,-25.869008],[-55.178185,-25.868083],[-55.177689,-25.867612],[-55.171727,-25.869735],[-55.168285,-25.871556],[-55.167745,-25.872393],[-55.167897,-25.873948],[-55.167282,-25.875122],[-55.16737,-25.876071],[-55.166757,-25.876962],[-55.16718,-25.87829],[-55.16701,-25.883523],[-55.16601,-25.884449],[-55.163022,-25.885603],[-55.162671,-25.888483],[-55.162056,-25.888683],[-55.161246,-25.889679],[-55.160108,-25.889836],[-55.158902,-25.890963],[-55.158098,-25.892925],[-55.156591,-25.89328],[-55.156275,-25.893831],[-55.155408,-25.893631],[-55.154615,-25.894474],[-55.154181,-25.894351],[-55.152575,-25.895558],[-55.151909,-25.895486],[-55.151344,-25.896025],[-55.150485,-25.895888],[-55.150526,-25.895311],[-55.149614,-25.894983],[-55.150041,-25.894641],[-55.14916,-25.89444],[-55.148226,-25.895232],[-55.147122,-25.894866],[-55.145853,-25.895292],[-55.144815,-25.895928],[-55.144374,-25.896731],[-55.143543,-25.896968],[-55.141862,-25.898378],[-55.140392,-25.898336],[-55.13948,-25.898794],[-55.139023,-25.898449],[-55.138254,-25.899266],[-55.137117,-25.898646],[-55.136564,-25.899325],[-55.137283,-25.899677],[-55.137836,-25.900461],[-55.137392,-25.900848],[-55.136809,-25.903147],[-55.136172,-25.902895],[-55.135697,-25.901706],[-55.135186,-25.90188],[-55.134506,-25.902837],[-55.133503,-25.9018],[-55.133134,-25.902341],[-55.133251,-25.903634],[-55.132767,-25.903496],[-55.132366,-25.903031],[-55.132624,-25.902244],[-55.132139,-25.902062],[-55.131569,-25.902659],[-55.131264,-25.902615],[-55.130147,-25.900263],[-55.130079,-25.899589],[-55.130573,-25.898408],[-55.130308,-25.898274],[-55.12941,-25.898876],[-55.128502,-25.89807],[-55.128129,-25.898138],[-55.12811,-25.898742],[-55.129097,-25.899355],[-55.128662,-25.899747],[-55.128913,-25.900012],[-55.128647,-25.900221],[-55.129157,-25.900715],[-55.127382,-25.901789],[-55.128225,-25.90258],[-55.128209,-25.903086],[-55.127938,-25.903245],[-55.127115,-25.902959],[-55.126781,-25.903297],[-55.127948,-25.905741],[-55.126678,-25.905629],[-55.125235,-25.907673],[-55.124244,-25.907796],[-55.122529,-25.90869],[-55.121924,-25.907098],[-55.119889,-25.90746],[-55.11825,-25.906588],[-55.116316,-25.907404],[-55.115378,-25.907343],[-55.114706,-25.90667],[-55.112993,-25.907447],[-55.112033,-25.907272],[-55.111259,-25.906616],[-55.111725,-25.903346],[-55.112322,-25.902573],[-55.112255,-25.902066],[-55.111087,-25.902209],[-55.110307,-25.903278],[-55.109489,-25.903655],[-55.108301,-25.903409],[-55.107354,-25.902544],[-55.106839,-25.902948],[-55.106979,-25.90364],[-55.10639,-25.905307],[-55.10676,-25.907239],[-55.106273,-25.907504],[-55.10532,-25.906941],[-55.104119,-25.907471],[-55.102257,-25.906666],[-55.10134,-25.906947],[-55.099509,-25.906788],[-55.098899,-25.907281],[-55.098814,-25.907781],[-55.097724,-25.907789],[-55.09687,-25.90734],[-55.096075,-25.906436],[-55.094994,-25.905934],[-55.09365,-25.905939],[-55.091302,-25.904089],[-55.087354,-25.902313],[-55.086069,-25.900549],[-55.084831,-25.903052],[-55.086137,-25.905091],[-55.086126,-25.905619],[-55.085528,-25.906459],[-55.086272,-25.907363],[-55.086534,-25.908237],[-55.086041,-25.908872],[-55.085402,-25.909139],[-55.085996,-25.909905],[-55.085273,-25.910604],[-55.083268,-25.91069],[-55.080458,-25.91184],[-55.078142,-25.912288],[-55.077233,-25.913485],[-55.077491,-25.914567],[-55.076388,-25.915239],[-55.07546,-25.917429],[-55.074109,-25.916423],[-55.072688,-25.916489],[-55.071839,-25.915837],[-55.071474,-25.914957],[-55.070181,-25.914985],[-55.069527,-25.914678],[-55.071187,-25.912705],[-55.067588,-25.908613],[-55.066878,-25.907272],[-55.066649,-25.905965],[-55.065225,-25.906194],[-55.063094,-25.904898],[-55.06226,-25.904751],[-55.061049,-25.90714],[-55.059138,-25.906307],[-55.058476,-25.906434],[-55.058209,-25.907166],[-55.059441,-25.910369],[-55.058588,-25.911251],[-55.054755,-25.91147],[-55.052123,-25.91255],[-55.053754,-25.916133],[-55.053557,-25.917209],[-55.052254,-25.919024],[-55.049979,-25.921304],[-55.048594,-25.922174],[-55.044074,-25.921188],[-55.043009,-25.921174],[-55.041658,-25.921539],[-55.041296,-25.921949],[-55.040586,-25.921958],[-55.04037,-25.9226],[-55.040914,-25.923316],[-55.041191,-25.924746],[-55.043139,-25.927688],[-55.040291,-25.929455],[-55.041824,-25.931475],[-55.040809,-25.931529],[-55.041164,-25.932865],[-55.040775,-25.934625],[-55.039269,-25.935173],[-55.03944,-25.932838],[-55.038909,-25.931431],[-55.038956,-25.930285],[-55.03779,-25.928911],[-55.0368,-25.928988],[-55.036954,-25.930204],[-55.036439,-25.930658],[-55.035549,-25.930781],[-55.035485,-25.931489],[-55.033882,-25.931742],[-55.033679,-25.933066],[-55.03263,-25.93358],[-55.032145,-25.935063],[-55.031005,-25.934975],[-55.030514,-25.935429],[-55.029983,-25.935372],[-55.029637,-25.93493],[-55.028266,-25.935024],[-55.028922,-25.933864],[-55.02809,-25.933577],[-55.025804,-25.933817],[-55.025162,-25.934174],[-55.02493,-25.935732],[-55.022809,-25.93657],[-55.021289,-25.937808],[-55.02109,-25.938902],[-55.022641,-25.940029],[-55.022396,-25.942228],[-55.021178,-25.943584],[-55.019406,-25.947341],[-55.017888,-25.948463],[-55.017436,-25.948226],[-55.018431,-25.946615],[-55.018341,-25.946041],[-55.01774,-25.945617],[-55.01697,-25.946108],[-55.015422,-25.946154],[-55.014219,-25.946711],[-55.01272,-25.948175],[-55.010951,-25.949049],[-55.012074,-25.951447],[-55.01105,-25.953216],[-55.01201,-25.954746],[-55.013989,-25.95471],[-55.013611,-25.955896],[-55.012405,-25.956633],[-55.013629,-25.957571],[-55.014114,-25.958724],[-55.01467,-25.958849],[-55.015417,-25.958263],[-55.016793,-25.957944],[-55.018014,-25.959039],[-55.019075,-25.959284],[-55.022653,-25.959224],[-55.023372,-25.960042],[-55.022327,-25.961652],[-55.022607,-25.962943],[-55.024684,-25.963088],[-55.027282,-25.966455],[-55.02501,-25.967245],[-55.02395,-25.968237],[-55.023648,-25.969447],[-55.02428,-25.970855],[-55.026173,-25.972744],[-55.024153,-25.973538],[-55.023755,-25.974449],[-55.023048,-25.974299],[-55.0226,-25.975164],[-55.019755,-25.975374],[-55.019273,-25.974036],[-55.017731,-25.973757],[-55.01596,-25.974785],[-55.011722,-25.976211],[-55.010517,-25.974263],[-55.012305,-25.970966],[-55.011401,-25.970538],[-55.007285,-25.973501],[-55.006298,-25.974701],[-55.008442,-25.977926],[-55.008474,-25.978911],[-55.007775,-25.980919],[-55.008884,-25.982608],[-55.008471,-25.982973],[-55.007371,-25.983413],[-55.006772,-25.982967],[-55.004832,-25.983554],[-55.002411,-25.985398],[-55.001013,-25.985167],[-54.998893,-25.983693],[-54.997887,-25.983959],[-54.997262,-25.983517],[-54.99124,-25.986133],[-54.989498,-25.986158],[-54.98912,-25.985314],[-54.988479,-25.985426],[-54.988858,-25.98665],[-54.990091,-25.988419],[-54.990241,-25.989887],[-54.989858,-25.990731],[-54.99055,-25.992591],[-54.992758,-25.993429],[-54.994359,-25.993144],[-54.996346,-25.994011],[-54.997828,-25.993653],[-54.998124,-25.99381],[-54.997898,-25.995969],[-54.998853,-25.997463],[-54.997829,-25.997963],[-54.997097,-25.997046],[-54.996626,-25.997012],[-54.996459,-25.998562],[-54.994857,-25.998811],[-54.993954,-25.999448],[-54.99436,-25.999851],[-54.996517,-26.000423],[-54.998149,-26.000558],[-54.999312,-26.001788],[-54.998646,-26.004022],[-54.99763,-26.005141],[-54.996545,-26.005067],[-54.994546,-26.003694],[-54.993868,-26.003753],[-54.994694,-26.005967],[-54.994399,-26.006796],[-54.995237,-26.006113],[-54.995848,-26.006221],[-54.996288,-26.009384],[-55.001911,-26.010841],[-55.006452,-26.009711],[-55.00713,-26.009689],[-55.007707,-26.010184],[-55.009195,-26.017206],[-55.008254,-26.018572],[-55.00809,-26.019452],[-55.008674,-26.020881],[-55.010462,-26.023094],[-55.010153,-26.024386],[-55.009029,-26.026393],[-55.009121,-26.027027],[-55.010006,-26.027008],[-55.012961,-26.026043],[-55.014591,-26.026034],[-55.014931,-26.025634],[-55.016489,-26.02104],[-55.016179,-26.019656],[-55.014713,-26.017406],[-55.015609,-26.015334],[-55.017201,-26.014868],[-55.017818,-26.014379],[-55.019425,-26.012275],[-55.020966,-26.011435],[-55.020934,-26.010615],[-55.022597,-26.010669],[-55.022901,-26.010393],[-55.023253,-26.008562],[-55.024144,-26.006759],[-55.025809,-26.00534],[-55.026579,-26.005973],[-55.027404,-26.008795],[-55.028746,-26.010877],[-55.033576,-26.013806],[-55.033578,-26.014335],[-55.031475,-26.016588],[-55.02955,-26.017755],[-55.025704,-26.017785],[-55.02457,-26.018288],[-55.022833,-26.021272],[-55.021892,-26.027531],[-55.022438,-26.027801],[-55.025964,-26.027517],[-55.028522,-26.025575],[-55.029598,-26.025285],[-55.034078,-26.026508],[-55.034596,-26.027566],[-55.034079,-26.030131],[-55.03232,-26.03185],[-55.031978,-26.034943],[-55.029993,-26.037391],[-55.030018,-26.037696],[-55.030996,-26.037819],[-55.033536,-26.036983],[-55.03627,-26.033632],[-55.036897,-26.033682],[-55.039184,-26.035137],[-55.04255,-26.036206],[-55.043063,-26.036656],[-55.043597,-26.040397],[-55.042667,-26.042984],[-55.045192,-26.049477],[-55.045958,-26.052225],[-55.046822,-26.052707],[-55.047478,-26.051942],[-55.048075,-26.049211],[-55.049314,-26.048343],[-55.050271,-26.046932],[-55.055169,-26.047012],[-55.059291,-26.045836],[-55.062508,-26.046612],[-55.064848,-26.046741],[-55.064869,-26.045469],[-55.063875,-26.044473],[-55.063625,-26.042935],[-55.062926,-26.041667],[-55.06091,-26.039524],[-55.056652,-26.036881],[-55.05628,-26.035299],[-55.05687,-26.034796],[-55.059744,-26.035954],[-55.063079,-26.036082],[-55.064977,-26.037034],[-55.070039,-26.037337],[-55.075179,-26.038512],[-55.07547,-26.039442],[-55.073778,-26.041812],[-55.069306,-26.044698],[-55.068757,-26.045534],[-55.069008,-26.04793],[-55.068351,-26.050701],[-55.068983,-26.052286],[-55.069589,-26.052695],[-55.070598,-26.052792],[-55.07342,-26.052456],[-55.074197,-26.051747],[-55.074704,-26.04979],[-55.076785,-26.048891],[-55.077268,-26.047432],[-55.079697,-26.047769],[-55.081615,-26.047517],[-55.085367,-26.044594],[-55.085761,-26.043894],[-55.085785,-26.042456],[-55.085223,-26.042144],[-55.080389,-26.041969],[-55.07836,-26.042454],[-55.077396,-26.0424],[-55.077329,-26.041832],[-55.07819,-26.040654],[-55.079023,-26.037471],[-55.079663,-26.036305],[-55.081111,-26.035212],[-55.082681,-26.034976],[-55.087124,-26.032919],[-55.090082,-26.030508],[-55.090835,-26.030767],[-55.09413,-26.033588],[-55.098212,-26.035158],[-55.098342,-26.035658],[-55.096132,-26.038118],[-55.092494,-26.040015],[-55.091861,-26.041306],[-55.091663,-26.043994],[-55.091265,-26.045148],[-55.088263,-26.046548],[-55.088416,-26.047211],[-55.090399,-26.047587],[-55.091128,-26.047231],[-55.094647,-26.043692],[-55.095878,-26.043187],[-55.097881,-26.042879],[-55.099246,-26.042072],[-55.099342,-26.040922],[-55.100037,-26.040036],[-55.102486,-26.040349],[-55.10444,-26.039869],[-55.105725,-26.039193],[-55.106617,-26.038334],[-55.108404,-26.037517],[-55.108714,-26.038058],[-55.108854,-26.041125],[-55.109618,-26.041842],[-55.111867,-26.042774],[-55.112672,-26.043617],[-55.111897,-26.048003],[-55.112137,-26.049533],[-55.111843,-26.050964],[-55.113391,-26.049117],[-55.114955,-26.049004],[-55.11779,-26.050289],[-55.11882,-26.051437],[-55.119454,-26.051081],[-55.121321,-26.048212],[-55.122789,-26.044006],[-55.123973,-26.042325],[-55.124691,-26.04237],[-55.126428,-26.043706],[-55.127442,-26.045109],[-55.127529,-26.047114],[-55.125893,-26.047418],[-55.125737,-26.047777],[-55.128378,-26.047604],[-55.130513,-26.046711],[-55.132658,-26.044798],[-55.132943,-26.041416],[-55.133361,-26.040713],[-55.134811,-26.040398],[-55.139746,-26.040182],[-55.140061,-26.04001],[-55.140061,-26.038841],[-55.142802,-26.037933],[-55.142569,-26.037167],[-55.141105,-26.035767],[-55.139359,-26.035347],[-55.140777,-26.033123],[-55.140728,-26.03179],[-55.139968,-26.031298],[-55.137679,-26.031313],[-55.136139,-26.030269],[-55.138602,-26.029953],[-55.140814,-26.028822],[-55.142986,-26.02578],[-55.143028,-26.024761],[-55.141858,-26.022959],[-55.139274,-26.020375],[-55.141386,-26.017794],[-55.141802,-26.015845],[-55.142428,-26.015979]]]}}]}
