{"type":"FeatureCollection","name":"distrito","features":[{"type":"Feature","properties":{"clave":"8-5","nombre":"San Miguel"},"geometry":{"type":"Polygon","coordinates":[[[-57.045455,-26.707724],[-57.06265,-26.705284],[-57.070894,-26.681665],[-57.080555,-26.670821],[-57.085499,-26.657825],[-57.085657,-26.595741],[-57.088303,-26.594946],[-57.087291,-26.593054],[-57.086183,-26.587989],[-57.086503,-26.587348],[-57.091053,-26.585151],[-57.092296,-26.584847],[-57.109487,-26.560642],[-57.110685,-26.557422],[-57.110854,-26.554844],[-57.11211,-26.55153],[-57.111803,-26.54972],[-57.112778,-26.543665],[-57.114672,-26.541081],[-57.115336,-26.539663],[-57.116011,-26.536678],[-57.11698,-26.535201],[-57.119917,-26.515804],[-57.109029,-26.506382],[-57.107228,-26.506591],[-57.103524,-26.508029],[-57.098921,-26.508069],[-57.097938,-26.50783],[-57.096263,-26.508395],[-57.095814,-26.508946],[-57.094322,-26.508925],[-57.093966,-26.508555],[-57.093004,-26.509192],[-57.091934,-26.508759],[-57.090134,-26.509045],[-57.086674,-26.507047],[-57.08529,-26.506578],[-57.083733,-26.506561],[-57.081938,-26.504892],[-57.080826,-26.504464],[-57.077914,-26.504339],[-57.076186,-26.504642],[-57.07502,-26.505221],[-57.073498,-26.504445],[-57.07148,-26.50427],[-57.06956,-26.503323],[-57.068619,-26.503567],[-57.065934,-26.502787],[-57.065062,-26.503113],[-57.064513,-26.504039],[-57.061425,-26.503584],[-57.060134,-26.504767],[-57.056483,-26.504137],[-57.053962,-26.502607],[-57.05272,-26.502247],[-57.036568,-26.50538],[-57.036002,-26.504654],[-57.03617,-26.503146],[-57.036778,-26.5018],[-57.036415,-26.499615],[-57.036977,-26.498726],[-57.037028,-26.497141],[-57.03612,-26.494902],[-57.035673,-26.494713],[-57.035187,-26.493873],[-57.035015,-26.492776],[-57.034539,-26.492415],[-57.034183,-26.490645],[-57.033229,-26.489986],[-57.032981,-26.489016],[-57.031562,-26.488023],[-57.030592,-26.48824],[-57.025067,-26.486859],[-57.024058,-26.485329],[-57.020718,-26.484156],[-57.01924,-26.482987],[-57.017158,-26.480432],[-57.014923,-26.479276],[-57.013781,-26.477746],[-57.01344,-26.476662],[-57.012621,-26.475782],[-57.011902,-26.475377],[-57.010878,-26.475701],[-57.009688,-26.47552],[-57.007903,-26.473496],[-57.007739,-26.471767],[-57.007192,-26.470807],[-57.007418,-26.46976],[-57.007099,-26.469196],[-57.007649,-26.468333],[-57.006688,-26.466487],[-57.006394,-26.464333],[-57.007516,-26.463108],[-57.007429,-26.462023],[-57.007897,-26.46162],[-57.007961,-26.461032],[-57.0067,-26.459706],[-57.008027,-26.458965],[-57.009131,-26.459534],[-57.00988,-26.459119],[-57.009793,-26.45748],[-57.008077,-26.457616],[-57.007746,-26.456997],[-57.009581,-26.455227],[-57.009765,-26.454685],[-57.009313,-26.454275],[-57.00701,-26.454649],[-57.005202,-26.453047],[-57.005377,-26.452279],[-57.007486,-26.451837],[-57.007888,-26.451476],[-57.00772,-26.449981],[-57.006896,-26.44911],[-57.005641,-26.449245],[-57.003498,-26.451115],[-57.002718,-26.451395],[-57.001707,-26.451205],[-56.999413,-26.44981],[-56.997133,-26.447115],[-56.997066,-26.446546],[-56.997619,-26.445932],[-56.999545,-26.445327],[-57.001059,-26.442582],[-57.001591,-26.440478],[-57.003232,-26.437665],[-57.003272,-26.435336],[-57.002718,-26.434311],[-56.999686,-26.432514],[-56.995656,-26.428483],[-56.995095,-26.425038],[-56.995209,-26.423629],[-56.997517,-26.420736],[-56.996395,-26.42018],[-56.996131,-26.419516],[-56.992691,-26.420528],[-56.991479,-26.421671],[-56.991125,-26.42432],[-56.991836,-26.426306],[-56.993422,-26.429031],[-56.993752,-26.430457],[-56.993191,-26.432031],[-56.990947,-26.433071],[-56.982102,-26.434467],[-56.980386,-26.435358],[-56.976788,-26.438982],[-56.974652,-26.440632],[-56.974345,-26.443528],[-56.971571,-26.448548],[-56.970052,-26.449113],[-56.966863,-26.448004],[-56.965399,-26.448369],[-56.961536,-26.45021],[-56.959985,-26.45015],[-56.956651,-26.44929],[-56.955298,-26.449317],[-56.955462,-26.452258],[-56.95348,-26.456298],[-56.954107,-26.457576],[-56.955052,-26.458326],[-56.95744,-26.459271],[-56.958838,-26.460889],[-56.958759,-26.462955],[-56.957867,-26.464648],[-56.957551,-26.466393],[-56.957602,-26.468273],[-56.961298,-26.472731],[-56.962221,-26.475375],[-56.962022,-26.480099],[-56.961262,-26.481615],[-56.959875,-26.482446],[-56.954427,-26.483187],[-56.951554,-26.483959],[-56.949111,-26.485057],[-56.947691,-26.484968],[-56.947097,-26.483957],[-56.948716,-26.480511],[-56.948849,-26.479263],[-56.947693,-26.477065],[-56.946143,-26.475489],[-56.943536,-26.474834],[-56.940961,-26.474893],[-56.938682,-26.475635],[-56.937196,-26.476852],[-56.934523,-26.475276],[-56.932279,-26.472987],[-56.929379,-26.468375],[-56.927331,-26.466122],[-56.925715,-26.464992],[-56.912381,-26.460795],[-56.910566,-26.461121],[-56.906635,-26.463614],[-56.901448,-26.468602],[-56.901018,-26.469612],[-56.902337,-26.472198],[-56.902962,-26.474278],[-56.90273,-26.475585],[-56.901573,-26.476892],[-56.897082,-26.47879],[-56.894407,-26.479055],[-56.891796,-26.482767],[-56.888987,-26.484845],[-56.878517,-26.488669],[-56.878252,-26.489441],[-56.878581,-26.490808],[-56.879735,-26.49179],[-56.881056,-26.491702],[-56.885787,-26.490395],[-56.888685,-26.490549],[-56.896304,-26.49316],[-56.898487,-26.494805],[-56.899279,-26.496291],[-56.899112,-26.498341],[-56.898021,-26.499321],[-56.896634,-26.499558],[-56.895511,-26.499379],[-56.893466,-26.497862],[-56.89198,-26.497237],[-56.890362,-26.497057],[-56.888874,-26.497744],[-56.887686,-26.498778],[-56.885702,-26.501896],[-56.884512,-26.502609],[-56.882366,-26.502518],[-56.879428,-26.501743],[-56.8753,-26.50162],[-56.873649,-26.502332],[-56.872657,-26.50343],[-56.872524,-26.504322],[-56.87315,-26.505511],[-56.875692,-26.50578],[-56.878269,-26.50498],[-56.880812,-26.504596],[-56.882661,-26.505162],[-56.883588,-26.506489],[-56.884077,-26.508164],[-56.882687,-26.511966],[-56.881925,-26.516996],[-56.879578,-26.523098],[-56.875078,-26.524141],[-56.87217,-26.525178],[-56.871213,-26.524999],[-56.869329,-26.525859],[-56.868932,-26.526661],[-56.869788,-26.528771],[-56.869292,-26.529484],[-56.868465,-26.529582],[-56.866718,-26.528941],[-56.864833,-26.5295],[-56.862236,-26.53146],[-56.858934,-26.533376],[-56.857453,-26.534824],[-56.855066,-26.536111],[-56.854294,-26.537118],[-56.854233,-26.537757],[-56.854353,-26.53818],[-56.855316,-26.53882],[-56.855472,-26.539341],[-56.855218,-26.539795],[-56.854553,-26.540045],[-56.851676,-26.539868],[-56.849905,-26.540527],[-56.848325,-26.541554],[-56.847818,-26.543123],[-56.847408,-26.543492],[-56.846212,-26.543631],[-56.845363,-26.543147],[-56.843102,-26.538928],[-56.84109,-26.536917],[-56.839234,-26.536233],[-56.837313,-26.536741],[-56.836115,-26.537728],[-56.83375,-26.540872],[-56.833622,-26.542114],[-56.834405,-26.54495],[-56.834404,-26.546196],[-56.833394,-26.548059],[-56.831597,-26.549389],[-56.830086,-26.549414],[-56.829426,-26.549102],[-56.82886,-26.548311],[-56.828015,-26.544856],[-56.827104,-26.54355],[-56.826255,-26.543157],[-56.824147,-26.54287],[-56.822226,-26.54312],[-56.820966,-26.543602],[-56.820651,-26.543998],[-56.821309,-26.545895],[-56.82121,-26.548356],[-56.820894,-26.549236],[-56.818876,-26.551441],[-56.817551,-26.553647],[-56.814735,-26.562334],[-56.813189,-26.564173],[-56.809976,-26.565388],[-56.808589,-26.566289],[-56.807453,-26.567592],[-56.80701,-26.568838],[-56.807324,-26.569746],[-56.809213,-26.569888],[-56.813814,-26.566978],[-56.815389,-26.566556],[-56.817435,-26.567154],[-56.818188,-26.568401],[-56.818831,-26.57995],[-56.819836,-26.582132],[-56.821628,-26.583692],[-56.821908,-26.585787],[-56.821245,-26.587204],[-56.818911,-26.589607],[-56.817681,-26.590481],[-56.814814,-26.591696],[-56.813898,-26.592882],[-56.813707,-26.594354],[-56.814236,-26.598264],[-56.813811,-26.601767],[-56.814409,-26.60365],[-56.815808,-26.603956],[-56.817226,-26.605027],[-56.818796,-26.605268],[-56.819077,-26.605584],[-56.818512,-26.606662],[-56.81939,-26.60758],[-56.81946,-26.608212],[-56.818896,-26.608938],[-56.818858,-26.610739],[-56.817694,-26.612002],[-56.817869,-26.612508],[-56.818249,-26.612663],[-56.818996,-26.611972],[-56.819418,-26.611973],[-56.819559,-26.612162],[-56.819066,-26.612604],[-56.819206,-26.612988],[-56.821413,-26.613779],[-56.821738,-26.61356],[-56.821669,-26.612481],[-56.822162,-26.612482],[-56.822612,-26.613463],[-56.823146,-26.613151],[-56.824377,-26.613058],[-56.824554,-26.612737],[-56.824168,-26.611978],[-56.825505,-26.611538],[-56.826419,-26.612202],[-56.826629,-26.612708],[-56.826275,-26.614324],[-56.827644,-26.616064],[-56.827291,-26.617486],[-56.826023,-26.617895],[-56.825602,-26.617515],[-56.82585,-26.616378],[-56.825182,-26.615808],[-56.824936,-26.616124],[-56.825039,-26.617325],[-56.824546,-26.617514],[-56.823491,-26.61707],[-56.822434,-26.618206],[-56.820779,-26.61931],[-56.820743,-26.619726],[-56.821341,-26.620169],[-56.822009,-26.62017],[-56.823734,-26.619472],[-56.824085,-26.620141],[-56.824577,-26.620331],[-56.826618,-26.62046],[-56.826687,-26.620839],[-56.825913,-26.621028],[-56.825455,-26.621596],[-56.82549,-26.621975],[-56.825912,-26.622134],[-56.82584,-26.622703],[-56.825066,-26.62286],[-56.824291,-26.623617],[-56.823693,-26.623616],[-56.823555,-26.621562],[-56.823274,-26.621467],[-56.822006,-26.622161],[-56.820318,-26.6214],[-56.819155,-26.622726],[-56.820173,-26.623991],[-56.819612,-26.62516],[-56.818566,-26.625492],[-56.818043,-26.625307],[-56.818414,-26.624558],[-56.818274,-26.623989],[-56.817781,-26.62402],[-56.8169,-26.624745],[-56.815668,-26.624997],[-56.814684,-26.624521],[-56.814721,-26.623384],[-56.812964,-26.622244],[-56.812154,-26.622179],[-56.811309,-26.622747],[-56.811167,-26.623632],[-56.813663,-26.624899],[-56.81371,-26.625694],[-56.813139,-26.62563],[-56.812821,-26.626609],[-56.812201,-26.627028],[-56.811865,-26.626883],[-56.811277,-26.627519],[-56.810088,-26.627897],[-56.80934,-26.627688],[-56.809422,-26.628289],[-56.809025,-26.628663],[-56.809425,-26.629417],[-56.808057,-26.631591],[-56.808695,-26.631967],[-56.808781,-26.63268],[-56.807418,-26.634137],[-56.806492,-26.633309],[-56.80634,-26.632718],[-56.805381,-26.63259],[-56.80559,-26.633209],[-56.804915,-26.634034],[-56.804816,-26.635068],[-56.803206,-26.637675],[-56.80228,-26.638387],[-56.802169,-26.639317],[-56.802768,-26.640238],[-56.803664,-26.640208],[-56.804279,-26.640624],[-56.804563,-26.641532],[-56.804342,-26.642105],[-56.804713,-26.643767],[-56.804546,-26.644539],[-56.805576,-26.645335],[-56.805135,-26.646174],[-56.805945,-26.646586],[-56.805797,-26.647195],[-56.806358,-26.647349],[-56.806634,-26.648311],[-56.807545,-26.648538],[-56.807642,-26.64907],[-56.808116,-26.648873],[-56.81044,-26.650497],[-56.811472,-26.650304],[-56.811433,-26.651202],[-56.812316,-26.650996],[-56.812299,-26.651678],[-56.813504,-26.651869],[-56.814821,-26.652835],[-56.815968,-26.652405],[-56.816606,-26.652464],[-56.818892,-26.654368],[-56.820058,-26.654468],[-56.820719,-26.654031],[-56.820918,-26.653458],[-56.821755,-26.653044],[-56.823603,-26.653584],[-56.824768,-26.654352],[-56.825184,-26.655996],[-56.826064,-26.656322],[-56.826631,-26.657542],[-56.827897,-26.658221],[-56.828606,-26.659106],[-56.829897,-26.65917],[-56.830644,-26.658861],[-56.830703,-26.659493],[-56.831003,-26.659592],[-56.831465,-26.658983],[-56.831966,-26.65898],[-56.831867,-26.659449],[-56.832665,-26.659409],[-56.83328,-26.658796],[-56.833537,-26.659284],[-56.833827,-26.658878],[-56.834382,-26.659325],[-56.834855,-26.658739],[-56.835094,-26.659409],[-56.835305,-26.658953],[-56.835903,-26.659214],[-56.836276,-26.658754],[-56.836549,-26.659236],[-56.836996,-26.658895],[-56.837112,-26.659437],[-56.837655,-26.658787],[-56.838704,-26.659737],[-56.839262,-26.659751],[-56.83929,-26.660139],[-56.840567,-26.659807],[-56.840417,-26.660587],[-56.840871,-26.66071],[-56.840598,-26.661536],[-56.841006,-26.662732],[-56.841367,-26.662277],[-56.841661,-26.662796],[-56.842172,-26.662377],[-56.842663,-26.662807],[-56.843276,-26.662284],[-56.843889,-26.662803],[-56.844386,-26.662799],[-56.845201,-26.661997],[-56.845977,-26.663825],[-56.846417,-26.663488],[-56.847022,-26.663804],[-56.847437,-26.663373],[-56.848471,-26.663772],[-56.849118,-26.663506],[-56.849849,-26.663708],[-56.850368,-26.663239],[-56.853225,-26.66345],[-56.854713,-26.662734],[-56.855396,-26.662992],[-56.855523,-26.663425],[-56.857214,-26.663999],[-56.8578,-26.663737],[-56.858341,-26.664114],[-56.858923,-26.66402],[-56.85976,-26.664391],[-56.860413,-26.664193],[-56.860833,-26.664586],[-56.861885,-26.664831],[-56.86305,-26.666286],[-56.864204,-26.666201],[-56.864871,-26.666775],[-56.865635,-26.666893],[-56.868102,-26.6682],[-56.870612,-26.66846],[-56.870937,-26.669151],[-56.87168,-26.669549],[-56.87233,-26.668899],[-56.872802,-26.669315],[-56.873242,-26.669135],[-56.874898,-26.669488],[-56.876997,-26.668113],[-56.880975,-26.667309],[-56.883029,-26.666389],[-56.88444,-26.66616],[-56.886364,-26.666622],[-56.887134,-26.667083],[-56.892908,-26.66697],[-56.897785,-26.665245],[-56.900609,-26.663866],[-56.901507,-26.663749],[-56.903176,-26.662829],[-56.904587,-26.6626],[-56.9051,-26.6626],[-56.906254,-26.663409],[-56.907025,-26.662719],[-56.908308,-26.662489],[-56.90959,-26.663641],[-56.911386,-26.663755],[-56.915492,-26.662607],[-56.917673,-26.662608],[-56.922419,-26.664109],[-56.927551,-26.664803],[-56.928549,-26.664736],[-56.929772,-26.664095],[-56.932261,-26.664065],[-56.934468,-26.664436],[-56.935948,-26.663814],[-56.939264,-26.664718],[-56.940096,-26.665892],[-56.943208,-26.667519],[-56.945448,-26.667492],[-56.94766,-26.666807],[-56.950047,-26.66842],[-56.950695,-26.669508],[-56.951048,-26.670966],[-56.95152,-26.670858],[-56.952936,-26.66866],[-56.95609,-26.668498],[-56.955788,-26.671595],[-56.96,-26.672332],[-56.980718,-26.67844],[-56.987229,-26.679265],[-56.986144,-26.683244],[-56.985478,-26.684219],[-56.985893,-26.686684],[-56.98556,-26.687208],[-56.98581,-26.688332],[-56.988641,-26.691172],[-56.989723,-26.694165],[-56.990389,-26.694838],[-56.992138,-26.695285],[-56.992387,-26.697682],[-56.993553,-26.699028],[-56.993803,-26.700522],[-56.994386,-26.701195],[-56.996051,-26.701867],[-56.997217,-26.704784],[-56.999465,-26.706657],[-56.999882,-26.707402],[-57.000638,-26.707567],[-57.001517,-26.708225],[-57.00099,-26.709984],[-57.001178,-26.710183],[-57.009691,-26.710314],[-57.015731,-26.711694],[-57.020978,-26.708624],[-57.025784,-26.70898],[-57.033018,-26.708256],[-57.045455,-26.707724]]]}}]}
