{"type":"FeatureCollection","name":"distrito","features":[{"type":"Feature","properties":{"clave":"11-15","nombre":"Limpio"},"geometry":{"type":"Polygon","coordinates":[[[-57.480889,-25.212272],[-57.481901,-25.211788],[-57.482824,-25.212678],[-57.485155,-25.212263],[-57.486349,-25.213128],[-57.487834,-25.213096],[-57.488196,-25.213619],[-57.488746,-25.213742],[-57.4911,-25.213341],[-57.491875,-25.212511],[-57.494214,-25.211706],[-57.494716,-25.211229],[-57.495129,-25.209692],[-57.495823,-25.20886],[-57.4958,-25.208125],[-57.497129,-25.207695],[-57.497904,-25.20689],[-57.498047,-25.205203],[-57.499429,-25.203577],[-57.500146,-25.200567],[-57.499786,-25.198597],[-57.500541,-25.196821],[-57.500492,-25.194259],[-57.50006,-25.19318],[-57.500189,-25.191641],[-57.501302,-25.190995],[-57.503222,-25.187279],[-57.504131,-25.185929],[-57.504995,-25.18539],[-57.506191,-25.182757],[-57.505703,-25.181833],[-57.505258,-25.178244],[-57.504307,-25.176229],[-57.504596,-25.174722],[-57.504227,-25.172564],[-57.503512,-25.171131],[-57.504178,-25.170125],[-57.505301,-25.1694],[-57.50532,-25.167668],[-57.504979,-25.167111],[-57.503756,-25.166904],[-57.503029,-25.167141],[-57.502453,-25.168434],[-57.501723,-25.168215],[-57.500922,-25.167339],[-57.500909,-25.166204],[-57.501632,-25.165565],[-57.503032,-25.16523],[-57.503227,-25.164752],[-57.502442,-25.164293],[-57.501838,-25.163261],[-57.50068,-25.163504],[-57.500653,-25.162731],[-57.501129,-25.161515],[-57.501709,-25.161212],[-57.503798,-25.161515],[-57.504678,-25.161281],[-57.505903,-25.162101],[-57.506683,-25.161664],[-57.5059,-25.159944],[-57.506767,-25.15901],[-57.506404,-25.156977],[-57.50796,-25.156613],[-57.509091,-25.155568],[-57.509782,-25.155418],[-57.511951,-25.155721],[-57.514626,-25.154197],[-57.516282,-25.154289],[-57.516166,-25.154029],[-57.51721,-25.153972],[-57.522967,-25.157603],[-57.525071,-25.158205],[-57.529219,-25.160606],[-57.529896,-25.161529],[-57.530556,-25.163737],[-57.530443,-25.166323],[-57.528733,-25.170181],[-57.528799,-25.171539],[-57.529939,-25.174392],[-57.533101,-25.177989],[-57.536805,-25.180639],[-57.539502,-25.181858],[-57.540962,-25.181992],[-57.54323,-25.180939],[-57.540601,-25.177327],[-57.53897,-25.174163],[-57.537585,-25.17043],[-57.536947,-25.166585],[-57.537788,-25.160017],[-57.539869,-25.152423],[-57.540098,-25.147894],[-57.53957,-25.142732],[-57.538311,-25.137429],[-57.536549,-25.132568],[-57.535396,-25.124873],[-57.533635,-25.120238],[-57.527257,-25.111768],[-57.515272,-25.100377],[-57.512405,-25.098689],[-57.509044,-25.097454],[-57.505062,-25.096678],[-57.500461,-25.096463],[-57.496235,-25.096707],[-57.488037,-25.098658],[-57.48394,-25.100031],[-57.480962,-25.101738],[-57.478317,-25.103693],[-57.475857,-25.109024],[-57.474093,-25.10968],[-57.473969,-25.110823],[-57.474356,-25.111368],[-57.474919,-25.111488],[-57.476065,-25.111146],[-57.476469,-25.111479],[-57.476139,-25.112487],[-57.474765,-25.113977],[-57.466469,-25.117764],[-57.465134,-25.119024],[-57.464583,-25.119017],[-57.463683,-25.11822],[-57.46317,-25.118231],[-57.462136,-25.120049],[-57.459814,-25.121759],[-57.455214,-25.123538],[-57.451899,-25.124388],[-57.451086,-25.125217],[-57.451142,-25.126752],[-57.450803,-25.127128],[-57.44938,-25.127132],[-57.448719,-25.126733],[-57.448751,-25.124543],[-57.448087,-25.123316],[-57.447487,-25.123323],[-57.447202,-25.12447],[-57.447329,-25.125834],[-57.446702,-25.126066],[-57.44443,-25.126005],[-57.44383,-25.126187],[-57.443623,-25.126558],[-57.444388,-25.127337],[-57.445314,-25.127614],[-57.447356,-25.126692],[-57.447841,-25.127706],[-57.447768,-25.128668],[-57.446247,-25.129327],[-57.444774,-25.131138],[-57.442491,-25.132382],[-57.442161,-25.132451],[-57.442002,-25.132135],[-57.44269,-25.131478],[-57.442603,-25.131149],[-57.441502,-25.131206],[-57.441012,-25.130824],[-57.441253,-25.129871],[-57.441078,-25.129302],[-57.440697,-25.129321],[-57.440674,-25.130288],[-57.440367,-25.130424],[-57.439038,-25.129728],[-57.437987,-25.129749],[-57.437955,-25.128941],[-57.438879,-25.127475],[-57.438832,-25.127092],[-57.438505,-25.127034],[-57.436334,-25.128418],[-57.437108,-25.129368],[-57.436256,-25.130147],[-57.435828,-25.131815],[-57.435094,-25.132381],[-57.434514,-25.132004],[-57.434332,-25.131173],[-57.435247,-25.130521],[-57.435431,-25.129892],[-57.433981,-25.12907],[-57.433834,-25.130186],[-57.432567,-25.132605],[-57.43248,-25.133951],[-57.43117,-25.133684],[-57.431387,-25.132108],[-57.431122,-25.131833],[-57.429172,-25.132597],[-57.42641,-25.133115],[-57.426369,-25.13359],[-57.426716,-25.13381],[-57.428066,-25.134131],[-57.429241,-25.133979],[-57.430004,-25.134505],[-57.431241,-25.134551],[-57.431546,-25.134844],[-57.430366,-25.135881],[-57.427528,-25.136386],[-57.428874,-25.139182],[-57.429455,-25.139026],[-57.429117,-25.137677],[-57.429814,-25.138556],[-57.430593,-25.138788],[-57.431673,-25.138695],[-57.433613,-25.13798],[-57.434192,-25.138146],[-57.434921,-25.14009],[-57.434947,-25.141105],[-57.434293,-25.140886],[-57.433922,-25.139605],[-57.432271,-25.139867],[-57.431829,-25.140428],[-57.432607,-25.14207],[-57.434188,-25.144169],[-57.434074,-25.144567],[-57.432178,-25.145227],[-57.43095,-25.144228],[-57.430698,-25.142703],[-57.42923,-25.142423],[-57.429035,-25.142933],[-57.430124,-25.1434],[-57.429171,-25.143877],[-57.428641,-25.14489],[-57.42852,-25.145757],[-57.428861,-25.147269],[-57.426598,-25.15026],[-57.425813,-25.150104],[-57.425256,-25.148462],[-57.424727,-25.148093],[-57.42436,-25.148307],[-57.424233,-25.149707],[-57.42379,-25.150015],[-57.422918,-25.149738],[-57.422233,-25.14885],[-57.420747,-25.149726],[-57.418747,-25.149194],[-57.418461,-25.149705],[-57.419102,-25.151658],[-57.418251,-25.153128],[-57.416644,-25.153246],[-57.415295,-25.152315],[-57.412489,-25.154011],[-57.409347,-25.15356],[-57.408457,-25.153797],[-57.408533,-25.154813],[-57.409949,-25.156579],[-57.412204,-25.157814],[-57.411959,-25.159707],[-57.412442,-25.16148],[-57.412195,-25.161711],[-57.410176,-25.161726],[-57.410807,-25.163516],[-57.408639,-25.164692],[-57.407378,-25.166091],[-57.407037,-25.16727],[-57.407003,-25.169492],[-57.406611,-25.170256],[-57.406203,-25.170379],[-57.405799,-25.170127],[-57.405441,-25.168769],[-57.405033,-25.168355],[-57.404588,-25.168546],[-57.404561,-25.169372],[-57.403954,-25.169482],[-57.402281,-25.169193],[-57.400903,-25.168059],[-57.400103,-25.167926],[-57.399382,-25.169255],[-57.398986,-25.169437],[-57.398887,-25.168679],[-57.398583,-25.168485],[-57.396972,-25.168006],[-57.396431,-25.16822],[-57.3975,-25.170741],[-57.398963,-25.170665],[-57.399061,-25.171807],[-57.39973,-25.172912],[-57.401456,-25.173313],[-57.402007,-25.173714],[-57.401274,-25.173476],[-57.401051,-25.175834],[-57.400535,-25.175912],[-57.4,-25.175349],[-57.398793,-25.175375],[-57.397867,-25.177134],[-57.40285,-25.178624],[-57.403287,-25.179544],[-57.404488,-25.180837],[-57.402841,-25.181704],[-57.402518,-25.182314],[-57.402761,-25.182797],[-57.40358,-25.182519],[-57.404502,-25.182923],[-57.404707,-25.182484],[-57.40548,-25.182455],[-57.408718,-25.182771],[-57.409587,-25.183094],[-57.409569,-25.184268],[-57.410175,-25.184704],[-57.411716,-25.18698],[-57.414313,-25.195675],[-57.415002,-25.196734],[-57.415849,-25.197216],[-57.416955,-25.197328],[-57.418699,-25.195833],[-57.422576,-25.193438],[-57.424603,-25.190506],[-57.425977,-25.189464],[-57.42727,-25.18951],[-57.428432,-25.189954],[-57.430437,-25.191786],[-57.432416,-25.191766],[-57.435994,-25.192501],[-57.437576,-25.193932],[-57.438805,-25.195653],[-57.43957,-25.195759],[-57.439379,-25.196234],[-57.44054,-25.198709],[-57.441475,-25.202139],[-57.442011,-25.202801],[-57.444884,-25.205294],[-57.448687,-25.206417],[-57.44838,-25.207626],[-57.449231,-25.209862],[-57.448703,-25.212784],[-57.450918,-25.212626],[-57.455167,-25.213124],[-57.457729,-25.213743],[-57.461424,-25.217035],[-57.46509,-25.219084],[-57.470714,-25.219688],[-57.473176,-25.220551],[-57.473655,-25.219595],[-57.474904,-25.219494],[-57.475259,-25.21913],[-57.475878,-25.217047],[-57.475661,-25.216783],[-57.476618,-25.216468],[-57.476202,-25.216341],[-57.476408,-25.215489],[-57.476696,-25.215518],[-57.477161,-25.214888],[-57.477786,-25.214845],[-57.477745,-25.214467],[-57.478083,-25.214662],[-57.478267,-25.214114],[-57.479647,-25.212913],[-57.480562,-25.212889],[-57.480889,-25.212272]]]}}]}
