{"type":"FeatureCollection","name":"distrito","features":[{"type":"Feature","properties":{"clave":"11-5","nombre":"Guarambaré"},"geometry":{"type":"Polygon","coordinates":[[[-57.437446,-25.460238],[-57.430662,-25.45884],[-57.428444,-25.459173],[-57.422077,-25.467227],[-57.423632,-25.476631],[-57.423832,-25.47754],[-57.424467,-25.477734],[-57.425603,-25.479947],[-57.427365,-25.484302],[-57.42812,-25.484155],[-57.434843,-25.507176],[-57.436336,-25.50998],[-57.4444,-25.519754],[-57.445748,-25.523449],[-57.448894,-25.527354],[-57.456633,-25.523099],[-57.45558,-25.52044],[-57.456171,-25.519239],[-57.458083,-25.517825],[-57.459324,-25.517906],[-57.460663,-25.517415],[-57.465354,-25.511739],[-57.469624,-25.515828],[-57.485384,-25.507728],[-57.479477,-25.498462],[-57.479032,-25.497819],[-57.478529,-25.497679],[-57.47606,-25.492223],[-57.471026,-25.482567],[-57.475895,-25.479389],[-57.473619,-25.477603],[-57.472536,-25.475292],[-57.471167,-25.473861],[-57.470339,-25.472498],[-57.470371,-25.470771],[-57.469469,-25.469209],[-57.468521,-25.468319],[-57.468258,-25.467496],[-57.466893,-25.466904],[-57.464761,-25.464158],[-57.463863,-25.462025],[-57.463184,-25.458992],[-57.463099,-25.45706],[-57.462628,-25.456277],[-57.458678,-25.456606],[-57.454828,-25.45735],[-57.450392,-25.458489],[-57.448486,-25.459321],[-57.442751,-25.459512],[-57.437446,-25.460238]]]}}]}
