{"type":"FeatureCollection","name":"distrito","features":[{"type":"Feature","properties":{"clave":"15-2","nombre":"Campo Aceval"},"geometry":{"type":"Polygon","coordinates":[[[-59.945556,-23.823629],[-60.293887,-23.811698],[-60.372474,-23.78616],[-60.407038,-23.716952],[-60.373436,-23.609856],[-60.371457,-23.596955],[-60.371358,-23.55208],[-60.268421,-23.540726],[-60.229201,-23.535816],[-60.202723,-23.532855],[-60.186348,-23.524553],[-60.136866,-23.512571],[-60.092735,-23.492822],[-60.076769,-23.458487],[-60.059304,-23.38407],[-60.056926,-23.376234],[-60.050372,-23.361084],[-60.042698,-23.342129],[-60.02788,-23.304451],[-60.018232,-23.277898],[-59.999983,-23.23049],[-59.978988,-23.172979],[-59.979302,-23.171673],[-59.987587,-23.163907],[-59.988292,-23.162752],[-59.989576,-23.162161],[-59.991335,-23.159734],[-59.992144,-23.159076],[-59.992281,-23.157465],[-59.98892,-23.144268],[-59.987938,-23.142776],[-59.986689,-23.137983],[-59.984343,-23.135364],[-59.977757,-23.120867],[-59.972551,-23.108452],[-59.966026,-23.090908],[-59.958426,-23.067302],[-59.963333,-23.026789],[-59.967603,-22.987],[-59.822784,-22.986259],[-59.822759,-22.985239],[-59.81723,-22.984409],[-59.812695,-22.984119],[-59.812181,-22.986637],[-59.80301,-22.986666],[-59.802367,-22.991509],[-59.801813,-22.992372],[-59.801928,-22.995249],[-59.801667,-22.996616],[-59.799254,-23.000973],[-59.798983,-23.005748],[-59.742766,-23.005633],[-59.742262,-23.005573],[-59.742208,-23.001408],[-59.741976,-23.001251],[-59.727704,-23.001404],[-59.727844,-23.026125],[-59.700015,-23.026094],[-59.699817,-23.02629],[-59.699866,-23.08077],[-59.698672,-23.080537],[-59.698007,-23.079606],[-59.697668,-23.07966],[-59.697373,-23.080817],[-59.696553,-23.081534],[-59.697118,-23.083221],[-59.696008,-23.08456],[-59.696384,-23.085236],[-59.696159,-23.085988],[-59.693369,-23.084939],[-59.693231,-23.084432],[-59.694344,-23.083937],[-59.694376,-23.083582],[-59.693848,-23.082689],[-59.693142,-23.082276],[-59.692512,-23.082627],[-59.692423,-23.083967],[-59.690895,-23.084789],[-59.690332,-23.084739],[-59.69088,-23.082458],[-59.68717,-23.082817],[-59.687671,-23.085199],[-59.687451,-23.085434],[-59.686684,-23.085262],[-59.685352,-23.083209],[-59.685839,-23.08146],[-59.685783,-23.07979],[-59.685305,-23.079855],[-59.683634,-23.081124],[-59.681721,-23.081806],[-59.681451,-23.080692],[-59.681815,-23.079038],[-59.685522,-23.077545],[-59.685636,-23.076884],[-59.682691,-23.07654],[-59.683035,-23.075097],[-59.680828,-23.075733],[-59.679955,-23.075606],[-59.679841,-23.073595],[-59.681646,-23.0734],[-59.682754,-23.071294],[-59.684074,-23.070367],[-59.684204,-23.068882],[-59.683493,-23.068647],[-59.682794,-23.068882],[-59.681489,-23.070376],[-59.679768,-23.071177],[-59.677996,-23.073575],[-59.677294,-23.073554],[-59.676686,-23.071603],[-59.67843,-23.071213],[-59.679408,-23.069674],[-59.679232,-23.068777],[-59.678407,-23.068667],[-59.677161,-23.069013],[-59.676034,-23.06857],[-59.676124,-23.068087],[-59.67727,-23.067186],[-59.6767,-23.065612],[-59.676807,-23.065146],[-59.678488,-23.064975],[-59.677718,-23.063523],[-59.676119,-23.063439],[-59.674086,-23.064063],[-59.674541,-23.06719],[-59.673699,-23.068814],[-59.673264,-23.068685],[-59.672773,-23.06781],[-59.671054,-23.067249],[-59.669482,-23.068167],[-59.667939,-23.067579],[-59.66807,-23.068248],[-59.668696,-23.068949],[-59.668121,-23.069286],[-59.666627,-23.068133],[-59.665391,-23.068236],[-59.664834,-23.068007],[-59.664458,-23.066845],[-59.665781,-23.065951],[-59.665288,-23.065529],[-59.664367,-23.065692],[-59.663044,-23.067962],[-59.659201,-23.068575],[-59.658219,-23.068444],[-59.658528,-23.06779],[-59.659615,-23.067065],[-59.660433,-23.066023],[-59.661316,-23.065598],[-59.661719,-23.064253],[-59.661295,-23.063849],[-59.660784,-23.063863],[-59.656988,-23.064933],[-59.656918,-23.065807],[-59.657731,-23.066159],[-59.657737,-23.066434],[-59.657586,-23.066688],[-59.656461,-23.0666],[-59.655362,-23.065881],[-59.655718,-23.065324],[-59.656724,-23.064907],[-59.656918,-23.064476],[-59.656683,-23.063282],[-59.656283,-23.062716],[-59.655757,-23.062668],[-59.652624,-23.065154],[-59.652774,-23.065759],[-59.653872,-23.066461],[-59.654166,-23.067023],[-59.653482,-23.068362],[-59.653527,-23.069418],[-59.657499,-23.067949],[-59.65786,-23.068172],[-59.657767,-23.068721],[-59.656078,-23.07085],[-59.655271,-23.070773],[-59.654155,-23.069649],[-59.653193,-23.070202],[-59.651268,-23.07025],[-59.651958,-23.071522],[-59.651688,-23.072753],[-59.651859,-23.073311],[-59.652283,-23.073277],[-59.653403,-23.072226],[-59.653951,-23.072211],[-59.653988,-23.072977],[-59.653401,-23.07351],[-59.650494,-23.074382],[-59.650029,-23.074981],[-59.650342,-23.075966],[-59.65371,-23.078026],[-59.65391,-23.078763],[-59.651516,-23.079588],[-59.650995,-23.080262],[-59.650781,-23.081196],[-59.650479,-23.081251],[-59.650031,-23.080589],[-59.650355,-23.079125],[-59.650235,-23.077729],[-59.649711,-23.077629],[-59.648772,-23.078117],[-59.647511,-23.078024],[-59.646072,-23.079189],[-59.645765,-23.077559],[-59.644933,-23.077643],[-59.644449,-23.078681],[-59.645151,-23.080324],[-59.644192,-23.081391],[-59.644045,-23.081957],[-59.644317,-23.082193],[-59.646199,-23.082321],[-59.64634,-23.084092],[-59.645859,-23.085535],[-59.645196,-23.086194],[-59.644582,-23.086108],[-59.644058,-23.085571],[-59.643589,-23.084079],[-59.642899,-23.084136],[-59.6426,-23.084563],[-59.642084,-23.085957],[-59.643716,-23.086598],[-59.644219,-23.087686],[-59.644156,-23.088786],[-59.643393,-23.089326],[-59.643079,-23.089235],[-59.641423,-23.086599],[-59.640718,-23.086153],[-59.639761,-23.086154],[-59.639364,-23.087261],[-59.638592,-23.088092],[-59.63718,-23.087718],[-59.634988,-23.086198],[-59.635141,-23.088228],[-59.63299,-23.087724],[-59.631892,-23.087751],[-59.630672,-23.087871],[-59.628786,-23.088551],[-59.627623,-23.086468],[-59.626214,-23.085121],[-59.62453,-23.085777],[-59.622715,-23.084449],[-59.622048,-23.084327],[-59.621212,-23.085336],[-59.619593,-23.086026],[-59.619287,-23.086578],[-59.620175,-23.087276],[-59.621464,-23.087677],[-59.622004,-23.088232],[-59.621743,-23.090721],[-59.622218,-23.092424],[-59.621783,-23.093559],[-59.622065,-23.093974],[-59.623002,-23.09386],[-59.623399,-23.093532],[-59.623808,-23.093837],[-59.624174,-23.094839],[-59.62396,-23.095787],[-59.623291,-23.095963],[-59.621112,-23.094881],[-59.618752,-23.095743],[-59.617961,-23.095683],[-59.61759,-23.095281],[-59.617618,-23.094585],[-59.617874,-23.093506],[-59.618533,-23.092475],[-59.61892,-23.092504],[-59.620006,-23.093582],[-59.62073,-23.093441],[-59.620615,-23.092822],[-59.618309,-23.091494],[-59.615655,-23.091305],[-59.613793,-23.090284],[-59.613174,-23.091462],[-59.612651,-23.093959],[-59.611216,-23.095482],[-59.610847,-23.096265],[-59.610297,-23.096048],[-59.610144,-23.093756],[-59.609039,-23.091825],[-59.610131,-23.091409],[-59.610651,-23.089465],[-59.611624,-23.088494],[-59.611252,-23.088091],[-59.609768,-23.087633],[-59.609406,-23.087053],[-59.609376,-23.086129],[-59.610157,-23.085168],[-59.610249,-23.084601],[-59.60952,-23.084265],[-59.60839,-23.084291],[-59.607095,-23.085317],[-59.607123,-23.085919],[-59.607784,-23.087046],[-59.60741,-23.08838],[-59.607439,-23.091317],[-59.605485,-23.091702],[-59.603889,-23.092764],[-59.603214,-23.091118],[-59.602461,-23.090961],[-59.601961,-23.092065],[-59.600577,-23.093185],[-59.600599,-23.093915],[-59.603738,-23.093473],[-59.604645,-23.093699],[-59.605264,-23.097907],[-59.60497,-23.098189],[-59.604532,-23.098093],[-59.602763,-23.096153],[-59.600843,-23.094773],[-59.600034,-23.094618],[-59.599663,-23.095091],[-59.599532,-23.096172],[-59.601314,-23.100194],[-59.600575,-23.100492],[-59.597269,-23.100265],[-59.595804,-23.10109],[-59.594882,-23.10205],[-59.593191,-23.10066],[-59.59059,-23.100341],[-59.589518,-23.098923],[-59.58762,-23.097817],[-59.58716,-23.097021],[-59.58769,-23.095406],[-59.586191,-23.094948],[-59.584493,-23.093702],[-59.584114,-23.093884],[-59.583141,-23.096096],[-59.582468,-23.096121],[-59.581917,-23.095759],[-59.580724,-23.093896],[-59.578334,-23.09352],[-59.577275,-23.091645],[-59.576482,-23.091261],[-59.575922,-23.091632],[-59.575849,-23.093255],[-59.575271,-23.095306],[-59.576961,-23.095462],[-59.576801,-23.09892],[-59.577996,-23.100751],[-59.579099,-23.101407],[-59.579207,-23.102125],[-59.57834,-23.102615],[-59.57755,-23.102604],[-59.575604,-23.101366],[-59.574267,-23.101206],[-59.571686,-23.103096],[-59.571638,-23.103387],[-59.5749,-23.104297],[-59.574796,-23.105109],[-59.569798,-23.106128],[-59.568945,-23.105903],[-59.567468,-23.104586],[-59.567271,-23.103381],[-59.56801,-23.102159],[-59.568042,-23.100538],[-59.567511,-23.098912],[-59.566025,-23.096863],[-59.564972,-23.09587],[-59.562745,-23.095498],[-59.56147,-23.094791],[-59.560452,-23.094641],[-59.559921,-23.094992],[-59.560005,-23.095969],[-59.560814,-23.097214],[-59.560967,-23.098277],[-59.562263,-23.100984],[-59.562353,-23.101783],[-59.561997,-23.10273],[-59.560173,-23.104047],[-59.557738,-23.106752],[-59.558938,-23.10712],[-59.560401,-23.107095],[-59.560754,-23.1075],[-59.560482,-23.108123],[-59.559038,-23.108068],[-59.557323,-23.107324],[-59.556527,-23.106453],[-59.5565,-23.10538],[-59.555069,-23.104453],[-59.553466,-23.102856],[-59.551761,-23.101747],[-59.550803,-23.101469],[-59.548621,-23.101746],[-59.548204,-23.102025],[-59.548074,-23.102604],[-59.548875,-23.104564],[-59.550492,-23.105171],[-59.552412,-23.108244],[-59.552764,-23.1091],[-59.552769,-23.110337],[-59.551373,-23.109915],[-59.549368,-23.108418],[-59.548724,-23.107742],[-59.54792,-23.105861],[-59.54643,-23.105614],[-59.545991,-23.105128],[-59.545945,-23.104509],[-59.54711,-23.103673],[-59.547147,-23.103253],[-59.546803,-23.10298],[-59.545727,-23.10338],[-59.545024,-23.104152],[-59.545541,-23.105778],[-59.5451,-23.106949],[-59.544486,-23.107317],[-59.543095,-23.107283],[-59.54453,-23.110688],[-59.54448,-23.111044],[-59.543233,-23.111716],[-59.543209,-23.112301],[-59.547423,-23.111636],[-59.548577,-23.111936],[-59.549832,-23.112857],[-59.552065,-23.112757],[-59.549971,-23.116482],[-59.550307,-23.117033],[-59.551732,-23.117032],[-59.5524,-23.117543],[-59.552895,-23.11878],[-59.552591,-23.119744],[-59.549837,-23.119257],[-59.547496,-23.121206],[-59.545616,-23.121919],[-59.543856,-23.122118],[-59.543636,-23.123962],[-59.54277,-23.12481],[-59.540109,-23.124293],[-59.538463,-23.124691],[-59.538163,-23.125199],[-59.538264,-23.125739],[-59.54064,-23.126764],[-59.540625,-23.127121],[-59.53948,-23.127503],[-59.538433,-23.127239],[-59.53743,-23.126294],[-59.536349,-23.12637],[-59.534697,-23.125743],[-59.534022,-23.125021],[-59.536336,-23.124144],[-59.536958,-23.12363],[-59.537744,-23.122147],[-59.537722,-23.121478],[-59.537084,-23.120659],[-59.53534,-23.120034],[-59.535047,-23.121129],[-59.534139,-23.12259],[-59.534857,-23.123557],[-59.53251,-23.124415],[-59.528338,-23.127421],[-59.526038,-23.128443],[-59.525204,-23.128248],[-59.525059,-23.127369],[-59.525444,-23.126903],[-59.526701,-23.126412],[-59.527059,-23.125856],[-59.527508,-23.124824],[-59.527538,-23.12238],[-59.52587,-23.122176],[-59.525049,-23.122374],[-59.524482,-23.122842],[-59.524344,-23.123633],[-59.523782,-23.123955],[-59.522768,-23.123333],[-59.522987,-23.121441],[-59.522719,-23.12109],[-59.518864,-23.121653],[-59.518753,-23.120853],[-59.520728,-23.119721],[-59.521086,-23.119148],[-59.521004,-23.118527],[-59.517439,-23.116325],[-59.516024,-23.11512],[-59.514754,-23.114763],[-59.513928,-23.116623],[-59.511735,-23.117457],[-59.511083,-23.118652],[-59.510558,-23.118536],[-59.509074,-23.117233],[-59.507141,-23.116481],[-59.506642,-23.116594],[-59.506464,-23.117108],[-59.506595,-23.117811],[-59.507345,-23.118097],[-59.507416,-23.118473],[-59.505955,-23.118341],[-59.503508,-23.114256],[-59.50142,-23.112436],[-59.501412,-23.112192],[-59.502153,-23.111778],[-59.502205,-23.110529],[-59.501933,-23.109431],[-59.500886,-23.10785],[-59.500891,-23.106455],[-59.500623,-23.10612],[-59.500007,-23.106488],[-59.498824,-23.108556],[-59.49766,-23.109295],[-59.496856,-23.109055],[-59.49732,-23.10647],[-59.497144,-23.105636],[-59.495723,-23.106236],[-59.493782,-23.108182],[-59.492956,-23.108121],[-59.492462,-23.107389],[-59.492747,-23.10644],[-59.493976,-23.105367],[-59.495868,-23.104348],[-59.496896,-23.104383],[-59.497656,-23.104927],[-59.498327,-23.10495],[-59.498841,-23.104497],[-59.499241,-23.10339],[-59.50156,-23.102416],[-59.501944,-23.102121],[-59.50182,-23.101693],[-59.497243,-23.100947],[-59.495683,-23.101444],[-59.494671,-23.101132],[-59.494258,-23.100045],[-59.495799,-23.09958],[-59.496266,-23.098424],[-59.49611,-23.097948],[-59.494108,-23.096972],[-59.493391,-23.097693],[-59.492968,-23.099822],[-59.491991,-23.09995],[-59.491566,-23.099545],[-59.491614,-23.098409],[-59.492391,-23.096651],[-59.490142,-23.096284],[-59.489499,-23.096487],[-59.489088,-23.097056],[-59.489323,-23.098716],[-59.490202,-23.100878],[-59.49,-23.101603],[-59.489308,-23.101659],[-59.486795,-23.100822],[-59.486611,-23.101824],[-59.486953,-23.104227],[-59.486284,-23.104979],[-59.485439,-23.104905],[-59.484849,-23.103809],[-59.48448,-23.101683],[-59.483923,-23.101111],[-59.4818,-23.100271],[-59.481852,-23.0999],[-59.483048,-23.099212],[-59.484399,-23.099423],[-59.48535,-23.09905],[-59.485672,-23.098507],[-59.485491,-23.097768],[-59.484502,-23.097343],[-59.482349,-23.097352],[-59.48118,-23.098135],[-59.480088,-23.099368],[-59.479075,-23.099818],[-59.478086,-23.099799],[-59.477689,-23.099184],[-59.477773,-23.098405],[-59.478229,-23.097674],[-59.479534,-23.096874],[-59.479596,-23.096258],[-59.479263,-23.095726],[-59.476826,-23.093542],[-59.476147,-23.093354],[-59.475808,-23.093861],[-59.475511,-23.095853],[-59.475052,-23.095836],[-59.474696,-23.095482],[-59.474538,-23.093344],[-59.473954,-23.092085],[-59.47342,-23.091336],[-59.471816,-23.090776],[-59.471198,-23.091581],[-59.471251,-23.093683],[-59.470931,-23.094484],[-59.469311,-23.095484],[-59.468098,-23.095403],[-59.46726,-23.096679],[-59.466179,-23.096374],[-59.465714,-23.096644],[-59.465791,-23.097767],[-59.466757,-23.098864],[-59.466833,-23.099512],[-59.465746,-23.101862],[-59.465184,-23.102469],[-59.463221,-23.102114],[-59.462711,-23.099935],[-59.461569,-23.099667],[-59.460866,-23.100249],[-59.461331,-23.102445],[-59.463224,-23.103919],[-59.463163,-23.104336],[-59.462156,-23.105367],[-59.462674,-23.108301],[-59.461939,-23.109147],[-59.460249,-23.109106],[-59.459435,-23.111773],[-59.457781,-23.112816],[-59.457512,-23.113319],[-59.458261,-23.114182],[-59.458084,-23.115411],[-59.457283,-23.115856],[-59.454395,-23.11537],[-59.451557,-23.1166],[-59.449037,-23.116149],[-59.448487,-23.11653],[-59.449048,-23.117992],[-59.451157,-23.119357],[-59.451817,-23.119342],[-59.452525,-23.118133],[-59.45325,-23.118084],[-59.45604,-23.121368],[-59.457767,-23.122472],[-59.457095,-23.123264],[-59.455352,-23.124037],[-59.453974,-23.123932],[-59.453704,-23.123487],[-59.453956,-23.120935],[-59.453731,-23.120396],[-59.45272,-23.120417],[-59.449398,-23.121916],[-59.445542,-23.12196],[-59.445331,-23.120272],[-59.444616,-23.119883],[-59.443827,-23.120582],[-59.443585,-23.122331],[-59.442454,-23.123145],[-59.441535,-23.12226],[-59.440816,-23.120601],[-59.439874,-23.120314],[-59.438809,-23.120896],[-59.437744,-23.122177],[-59.437926,-23.12389],[-59.438989,-23.125298],[-59.440915,-23.126247],[-59.44287,-23.12797],[-59.443786,-23.128905],[-59.443643,-23.129649],[-59.439993,-23.130867],[-59.438635,-23.131027],[-59.437328,-23.13204],[-59.436714,-23.13199],[-59.436111,-23.131507],[-59.436292,-23.130607],[-59.437235,-23.130227],[-59.437604,-23.129515],[-59.437602,-23.128844],[-59.437,-23.12846],[-59.43552,-23.128924],[-59.43461,-23.13056],[-59.43373,-23.131408],[-59.432708,-23.131164],[-59.431123,-23.13002],[-59.430336,-23.129941],[-59.429981,-23.130343],[-59.430035,-23.131095],[-59.43151,-23.132777],[-59.431585,-23.133606],[-59.431359,-23.13365],[-59.425549,-23.132073],[-59.424677,-23.130077],[-59.424803,-23.12708],[-59.424534,-23.126787],[-59.422113,-23.127501],[-59.420545,-23.12737],[-59.419628,-23.127803],[-59.419166,-23.129441],[-59.419364,-23.131309],[-59.421172,-23.131219],[-59.42215,-23.132004],[-59.421589,-23.133226],[-59.421551,-23.134105],[-59.422301,-23.13643],[-59.422261,-23.137383],[-59.421627,-23.138373],[-59.420925,-23.138325],[-59.419254,-23.136608],[-59.418625,-23.136172],[-59.418256,-23.136262],[-59.417767,-23.137435],[-59.41802,-23.140112],[-59.41984,-23.140952],[-59.420599,-23.140978],[-59.421421,-23.140826],[-59.421933,-23.140041],[-59.422999,-23.140081],[-59.424021,-23.140532],[-59.425697,-23.140748],[-59.426723,-23.141691],[-59.426727,-23.143655],[-59.425102,-23.147631],[-59.425592,-23.151939],[-59.425376,-23.153098],[-59.424566,-23.152965],[-59.423485,-23.151837],[-59.422934,-23.149876],[-59.422506,-23.14937],[-59.418257,-23.14867],[-59.417987,-23.148401],[-59.417189,-23.146077],[-59.413722,-23.140236],[-59.410386,-23.139316],[-59.408199,-23.139134],[-59.407489,-23.139369],[-59.407216,-23.139981],[-59.410267,-23.142053],[-59.410209,-23.14275],[-59.409391,-23.143471],[-59.409586,-23.145573],[-59.410041,-23.146822],[-59.411757,-23.148823],[-59.412454,-23.148953],[-59.413494,-23.147665],[-59.414169,-23.147666],[-59.414658,-23.148047],[-59.414642,-23.151098],[-59.415904,-23.152564],[-59.416202,-23.153558],[-59.415993,-23.154482],[-59.415162,-23.155487],[-59.415097,-23.158384],[-59.413544,-23.159802],[-59.411305,-23.160856],[-59.408892,-23.160694],[-59.407838,-23.16037],[-59.407106,-23.159724],[-59.407174,-23.158123],[-59.407603,-23.15731],[-59.409379,-23.156521],[-59.41009,-23.15295],[-59.409295,-23.151783],[-59.408805,-23.150085],[-59.408427,-23.14971],[-59.407311,-23.149435],[-59.407111,-23.150232],[-59.407354,-23.151094],[-59.406339,-23.151887],[-59.406196,-23.152606],[-59.40733,-23.153061],[-59.407341,-23.153501],[-59.406596,-23.153836],[-59.405345,-23.153507],[-59.405028,-23.153005],[-59.405425,-23.149526],[-59.405085,-23.148061],[-59.403878,-23.146102],[-59.400852,-23.145037],[-59.39864,-23.143431],[-59.395221,-23.143103],[-59.394815,-23.143401],[-59.396545,-23.145737],[-59.396173,-23.146551],[-59.39451,-23.147268],[-59.394094,-23.147797],[-59.394176,-23.148499],[-59.395501,-23.14847],[-59.397982,-23.147703],[-59.398795,-23.147836],[-59.398753,-23.14874],[-59.397322,-23.151891],[-59.396003,-23.150558],[-59.393451,-23.149663],[-59.392816,-23.148709],[-59.392528,-23.147559],[-59.391986,-23.147048],[-59.390294,-23.146574],[-59.389864,-23.146765],[-59.389829,-23.147489],[-59.391011,-23.150095],[-59.391102,-23.151362],[-59.390598,-23.15194],[-59.38939,-23.151847],[-59.388751,-23.150995],[-59.388258,-23.147976],[-59.387656,-23.14754],[-59.38713,-23.147936],[-59.41434,-23.291076],[-59.414674,-23.298948],[-59.416946,-23.299017],[-59.417212,-23.336495],[-59.410086,-23.346973],[-59.408154,-23.376875],[-59.395309,-23.384682],[-59.379592,-23.401471],[-59.379552,-23.402227],[-59.378949,-23.403209],[-59.374839,-23.408075],[-59.370274,-23.411153],[-59.363924,-23.406327],[-59.362551,-23.406266],[-59.359449,-23.407642],[-59.357774,-23.408073],[-59.357472,-23.408564],[-59.354345,-23.410444],[-59.343109,-23.409688],[-59.339074,-23.407993],[-59.337507,-23.406409],[-59.335914,-23.405328],[-59.331309,-23.398813],[-59.330251,-23.398008],[-59.325132,-23.396012],[-59.316628,-23.395629],[-59.312186,-23.396438],[-59.307716,-23.397751],[-59.303716,-23.400598],[-59.299531,-23.406723],[-59.298378,-23.407681],[-59.297185,-23.409395],[-59.296527,-23.411384],[-59.29125,-23.417455],[-59.291196,-23.418462],[-59.290031,-23.419671],[-59.289388,-23.421408],[-59.288182,-23.423372],[-59.255353,-23.453874],[-59.268166,-23.458646],[-59.276675,-23.463334],[-59.29234,-23.46403],[-59.316022,-23.46405],[-59.352541,-23.465245],[-59.37634,-23.465264],[-59.391967,-23.46158],[-59.461506,-23.455758],[-59.46183,-23.456174],[-59.462437,-23.589725],[-59.461848,-23.633046],[-59.449998,-23.650175],[-59.43357,-23.66498],[-59.433313,-23.667502],[-59.443939,-23.680701],[-59.444723,-23.680942],[-59.444945,-23.68202],[-59.446487,-23.68326],[-59.529735,-23.720006],[-59.522547,-23.777909],[-59.545171,-23.776735],[-59.546173,-23.784869],[-59.571062,-23.784844],[-59.627143,-23.783511],[-59.659176,-23.782186],[-59.658206,-23.775993],[-59.674627,-23.774545],[-59.674821,-23.769255],[-59.717809,-23.804814],[-59.91924,-23.776126],[-59.945556,-23.823629]]]}}]}
