{"type":"FeatureCollection","name":"distrito","features":[{"type":"Feature","properties":{"clave":"4-5","nombre":"Coronel Martínez"},"geometry":{"type":"Polygon","coordinates":[[[-56.62414,-25.780553],[-56.625732,-25.780389],[-56.627653,-25.781215],[-56.628301,-25.781015],[-56.628524,-25.780698],[-56.628323,-25.779944],[-56.627048,-25.779354],[-56.626755,-25.778633],[-56.627736,-25.778183],[-56.629364,-25.778271],[-56.630263,-25.777595],[-56.631694,-25.775606],[-56.634231,-25.774607],[-56.635004,-25.772876],[-56.635782,-25.772409],[-56.636726,-25.772244],[-56.637188,-25.772647],[-56.639608,-25.77344],[-56.641626,-25.772959],[-56.64196,-25.772491],[-56.641832,-25.772106],[-56.639538,-25.772234],[-56.639171,-25.771128],[-56.640112,-25.768994],[-56.640723,-25.768812],[-56.642254,-25.770239],[-56.643677,-25.770561],[-56.644771,-25.769726],[-56.646609,-25.767402],[-56.646398,-25.766992],[-56.644644,-25.765848],[-56.645901,-25.762845],[-56.64631,-25.759304],[-56.646995,-25.758937],[-56.648289,-25.759241],[-56.649068,-25.75849],[-56.649869,-25.756632],[-56.651695,-25.755087],[-56.65238,-25.754871],[-56.653618,-25.755293],[-56.654691,-25.755061],[-56.654641,-25.753269],[-56.655802,-25.751505],[-56.655304,-25.751152],[-56.653323,-25.751633],[-56.652843,-25.751263],[-56.652918,-25.750912],[-56.65403,-25.750328],[-56.654513,-25.749626],[-56.654515,-25.748688],[-56.654073,-25.748084],[-56.651834,-25.748631],[-56.651354,-25.748362],[-56.651199,-25.747533],[-56.652409,-25.744956],[-56.653204,-25.744958],[-56.653478,-25.745947],[-56.653884,-25.746299],[-56.65592,-25.745785],[-56.656546,-25.743567],[-56.65557,-25.742007],[-56.655609,-25.741371],[-56.656622,-25.739724],[-56.65653,-25.739422],[-56.654645,-25.738982],[-56.654222,-25.73816],[-56.655464,-25.737108],[-56.65687,-25.737111],[-56.657417,-25.736351],[-56.657308,-25.735932],[-56.655684,-25.734688],[-56.655428,-25.733499],[-56.655626,-25.732385],[-56.655092,-25.731614],[-56.653413,-25.730303],[-56.653241,-25.728971],[-56.653928,-25.728152],[-56.655758,-25.728207],[-56.656444,-25.727706],[-56.656338,-25.72588],[-56.656833,-25.723997],[-56.656377,-25.722086],[-56.657946,-25.71962],[-56.65686,-25.717909],[-56.656928,-25.716912],[-56.659318,-25.714992],[-56.661239,-25.712459],[-56.660776,-25.709418],[-56.662314,-25.706708],[-56.662152,-25.70593],[-56.661082,-25.704619],[-56.659324,-25.704538],[-56.65901,-25.704081],[-56.661064,-25.703422],[-56.660992,-25.702894],[-56.659663,-25.701969],[-56.659716,-25.701635],[-56.660795,-25.70101],[-56.660922,-25.700243],[-56.660487,-25.700048],[-56.658938,-25.7005],[-56.658436,-25.699863],[-56.658865,-25.6992],[-56.661023,-25.698045],[-56.661365,-25.697368],[-56.661082,-25.697038],[-56.658864,-25.696491],[-56.656695,-25.696463],[-56.656374,-25.694345],[-56.65576,-25.693467],[-56.655294,-25.693511],[-56.655048,-25.693886],[-56.65503,-25.695674],[-56.653942,-25.696249],[-56.653655,-25.695711],[-56.654264,-25.694922],[-56.654444,-25.694011],[-56.654105,-25.693364],[-56.653536,-25.693444],[-56.652894,-25.695045],[-56.652259,-25.695387],[-56.651408,-25.694482],[-56.650281,-25.693879],[-56.650178,-25.69363],[-56.650779,-25.692833],[-56.650128,-25.69172],[-56.650511,-25.690127],[-56.649078,-25.689221],[-56.648392,-25.688249],[-56.648401,-25.687964],[-56.649364,-25.68742],[-56.648903,-25.686064],[-56.648378,-25.685594],[-56.646953,-25.685202],[-56.645589,-25.68411],[-56.64477,-25.684325],[-56.644351,-25.686121],[-56.643885,-25.686355],[-56.642606,-25.68595],[-56.640709,-25.68613],[-56.639762,-25.685717],[-56.637668,-25.68261],[-56.636909,-25.682735],[-56.636841,-25.683827],[-56.636512,-25.6843],[-56.635521,-25.684379],[-56.635177,-25.684004],[-56.635784,-25.682714],[-56.635429,-25.682017],[-56.633837,-25.682424],[-56.633642,-25.681304],[-56.632098,-25.680519],[-56.631809,-25.678947],[-56.629567,-25.67788],[-56.627732,-25.677668],[-56.627093,-25.67666],[-56.626171,-25.676305],[-56.62297,-25.677466],[-56.62017,-25.679766],[-56.619791,-25.679661],[-56.618989,-25.678585],[-56.618355,-25.678344],[-56.617631,-25.678432],[-56.615826,-25.679714],[-56.614398,-25.680175],[-56.611568,-25.678439],[-56.609438,-25.678555],[-56.608688,-25.677207],[-56.608441,-25.675179],[-56.607814,-25.674324],[-56.607164,-25.674232],[-56.606404,-25.674686],[-56.605757,-25.676125],[-56.605092,-25.676403],[-56.603119,-25.674836],[-56.602542,-25.673479],[-56.600834,-25.673872],[-56.599188,-25.672576],[-56.597379,-25.672183],[-56.597732,-25.669719],[-56.598426,-25.668538],[-56.598337,-25.667883],[-56.597895,-25.667426],[-56.597003,-25.667364],[-56.595608,-25.668349],[-56.593121,-25.66715],[-56.590923,-25.667013],[-56.588568,-25.665187],[-56.586699,-25.664825],[-56.586292,-25.664305],[-56.586266,-25.662955],[-56.585979,-25.662516],[-56.584448,-25.662496],[-56.571677,-25.735996],[-56.559047,-25.749938],[-56.557464,-25.749789],[-56.555526,-25.751535],[-56.554502,-25.751256],[-56.55337,-25.751583],[-56.552406,-25.752817],[-56.550768,-25.754058],[-56.549265,-25.756383],[-56.545368,-25.758777],[-56.544612,-25.759542],[-56.542994,-25.760567],[-56.540597,-25.760514],[-56.539491,-25.760804],[-56.538317,-25.761726],[-56.538146,-25.762421],[-56.536726,-25.762046],[-56.53485,-25.763841],[-56.532923,-25.764603],[-56.531799,-25.765755],[-56.531293,-25.765817],[-56.530584,-25.766577],[-56.53053,-25.767318],[-56.5292,-25.767327],[-56.526285,-25.770441],[-56.52517,-25.774625],[-56.52656,-25.774488],[-56.528001,-25.775143],[-56.528845,-25.775195],[-56.532965,-25.779564],[-56.556929,-25.801721],[-56.577453,-25.799518],[-56.577517,-25.800064],[-56.578225,-25.800875],[-56.579821,-25.801678],[-56.580316,-25.803314],[-56.58228,-25.804462],[-56.583116,-25.806158],[-56.584697,-25.807675],[-56.585894,-25.807954],[-56.589002,-25.807506],[-56.590947,-25.808505],[-56.59242,-25.808902],[-56.593223,-25.808868],[-56.594937,-25.807988],[-56.596583,-25.808923],[-56.599116,-25.808135],[-56.601606,-25.808259],[-56.60211,-25.808008],[-56.603729,-25.806026],[-56.604507,-25.805947],[-56.607237,-25.804663],[-56.607838,-25.804773],[-56.608605,-25.804274],[-56.610089,-25.804201],[-56.612317,-25.804884],[-56.613156,-25.804597],[-56.613681,-25.804892],[-56.613774,-25.805457],[-56.614301,-25.805688],[-56.614882,-25.80564],[-56.615599,-25.804816],[-56.61653,-25.805545],[-56.617327,-25.805087],[-56.617843,-25.805269],[-56.618632,-25.805067],[-56.618691,-25.804146],[-56.619164,-25.803653],[-56.619019,-25.802865],[-56.617909,-25.802628],[-56.617596,-25.802175],[-56.617876,-25.801589],[-56.61932,-25.801074],[-56.619716,-25.798915],[-56.62029,-25.798564],[-56.620808,-25.798616],[-56.622172,-25.800294],[-56.62332,-25.800147],[-56.623553,-25.799586],[-56.622852,-25.79878],[-56.621412,-25.797956],[-56.621432,-25.79747],[-56.622488,-25.796904],[-56.622898,-25.796034],[-56.621542,-25.794833],[-56.620769,-25.790735],[-56.620848,-25.789195],[-56.619462,-25.788555],[-56.619363,-25.787742],[-56.620994,-25.786842],[-56.622203,-25.784819],[-56.625008,-25.783997],[-56.625695,-25.783345],[-56.625493,-25.782641],[-56.624588,-25.782354],[-56.623345,-25.783423],[-56.622013,-25.783419],[-56.621092,-25.78201],[-56.621337,-25.780721],[-56.62169,-25.780287],[-56.622671,-25.779971],[-56.62414,-25.780553]]]}}]}
