{"type":"FeatureCollection","name":"distrito","features":[{"type":"Feature","properties":{"clave":"9-31","nombre":"Ybytymí"},"geometry":{"type":"Polygon","coordinates":[[[-56.915865,-25.880949],[-56.896219,-25.888774],[-56.886939,-25.888759],[-56.881319,-25.871195],[-56.876244,-25.861267],[-56.874464,-25.851725],[-56.867457,-25.843885],[-56.871791,-25.829897],[-56.871507,-25.82954],[-56.871861,-25.826547],[-56.871011,-25.82125],[-56.87182,-25.818777],[-56.8715,-25.816568],[-56.872743,-25.805494],[-56.871392,-25.805687],[-56.8701,-25.805126],[-56.866676,-25.804383],[-56.866307,-25.80366],[-56.865549,-25.803397],[-56.864605,-25.803432],[-56.861609,-25.804342],[-56.858913,-25.803409],[-56.857476,-25.804022],[-56.856758,-25.803985],[-56.854424,-25.800863],[-56.85429,-25.799287],[-56.843558,-25.777802],[-56.843873,-25.777719],[-56.844637,-25.775338],[-56.844631,-25.77387],[-56.843989,-25.772168],[-56.844193,-25.771522],[-56.843615,-25.771088],[-56.843553,-25.770438],[-56.844238,-25.769513],[-56.844357,-25.765174],[-56.844859,-25.763671],[-56.844835,-25.76098],[-56.845164,-25.760452],[-56.846541,-25.759596],[-56.846808,-25.758472],[-56.846028,-25.757478],[-56.846317,-25.75145],[-56.845006,-25.74976],[-56.844038,-25.746694],[-56.84296,-25.745704],[-56.842393,-25.744601],[-56.841722,-25.740302],[-56.842011,-25.73646],[-56.841483,-25.735484],[-56.841603,-25.733868],[-56.840799,-25.733244],[-56.837403,-25.727181],[-56.836697,-25.726449],[-56.83661,-25.725293],[-56.835828,-25.723482],[-56.836871,-25.719293],[-56.837513,-25.718296],[-56.837143,-25.715947],[-56.836261,-25.715287],[-56.835006,-25.715322],[-56.834398,-25.715037],[-56.832958,-25.713491],[-56.830762,-25.712369],[-56.828795,-25.708899],[-56.826073,-25.706087],[-56.825604,-25.70447],[-56.826053,-25.699599],[-56.825289,-25.698514],[-56.825615,-25.696722],[-56.82544,-25.696171],[-56.824636,-25.695619],[-56.820656,-25.694617],[-56.819264,-25.69378],[-56.818796,-25.692091],[-56.819419,-25.688786],[-56.818637,-25.687223],[-56.815452,-25.68512],[-56.814434,-25.683944],[-56.812473,-25.684086],[-56.811473,-25.683728],[-56.810045,-25.681329],[-56.808743,-25.680045],[-56.808,-25.678324],[-56.806904,-25.677216],[-56.806296,-25.676791],[-56.802924,-25.676059],[-56.800366,-25.674828],[-56.79925,-25.673743],[-56.798332,-25.671642],[-56.796746,-25.67038],[-56.789542,-25.66827],[-56.787037,-25.665336],[-56.782816,-25.66268],[-56.779249,-25.661076],[-56.778565,-25.659973],[-56.777951,-25.657999],[-56.772066,-25.654062],[-56.768009,-25.65299],[-56.765797,-25.650959],[-56.764191,-25.650072],[-56.758682,-25.649209],[-56.758035,-25.649524],[-56.75762,-25.649108],[-56.757225,-25.649505],[-56.756592,-25.648154],[-56.757208,-25.647202],[-56.757187,-25.646489],[-56.75664,-25.646388],[-56.755916,-25.646902],[-56.756199,-25.647738],[-56.755147,-25.648129],[-56.754686,-25.648647],[-56.753483,-25.648189],[-56.752784,-25.647371],[-56.752552,-25.648007],[-56.751568,-25.647829],[-56.751982,-25.648403],[-56.751806,-25.648642],[-56.750996,-25.64884],[-56.750318,-25.648518],[-56.749114,-25.648674],[-56.749321,-25.650494],[-56.748341,-25.650867],[-56.748022,-25.652582],[-56.747168,-25.653344],[-56.747042,-25.654436],[-56.746087,-25.655053],[-56.746116,-25.655347],[-56.746797,-25.65542],[-56.746499,-25.656738],[-56.745707,-25.656569],[-56.74537,-25.65758],[-56.744328,-25.65784],[-56.744035,-25.65877],[-56.743492,-25.658394],[-56.743288,-25.657626],[-56.742786,-25.657662],[-56.742426,-25.657282],[-56.741598,-25.657664],[-56.741427,-25.658291],[-56.740665,-25.6582],[-56.740259,-25.658845],[-56.740818,-25.659667],[-56.739818,-25.660212],[-56.739467,-25.660735],[-56.737785,-25.659924],[-56.738061,-25.658908],[-56.736809,-25.658707],[-56.736812,-25.656527],[-56.736384,-25.655844],[-56.735868,-25.656615],[-56.736247,-25.658336],[-56.735789,-25.658534],[-56.73503,-25.65814],[-56.733949,-25.658892],[-56.73444,-25.659457],[-56.733713,-25.660716],[-56.730559,-25.661956],[-56.730006,-25.661865],[-56.729157,-25.662382],[-56.728362,-25.662345],[-56.728195,-25.662981],[-56.727571,-25.663219],[-56.726762,-25.663172],[-56.725554,-25.662172],[-56.725934,-25.661437],[-56.72579,-25.661175],[-56.725033,-25.661115],[-56.724566,-25.661949],[-56.722933,-25.661084],[-56.722415,-25.660234],[-56.721868,-25.660757],[-56.720871,-25.660886],[-56.719759,-25.658739],[-56.718393,-25.658836],[-56.718521,-25.659743],[-56.717806,-25.660121],[-56.718179,-25.661675],[-56.717425,-25.661538],[-56.717224,-25.662265],[-56.718051,-25.664488],[-56.7177,-25.665544],[-56.718477,-25.665884],[-56.717437,-25.666564],[-56.717814,-25.667007],[-56.716825,-25.667565],[-56.716931,-25.668025],[-56.716332,-25.668544],[-56.715617,-25.669915],[-56.714406,-25.670233],[-56.714171,-25.670774],[-56.71278,-25.670492],[-56.710455,-25.668695],[-56.710101,-25.669561],[-56.710609,-25.669982],[-56.71007,-25.67036],[-56.709371,-25.670142],[-56.709187,-25.670679],[-56.70869,-25.67089],[-56.708145,-25.670528],[-56.707215,-25.672025],[-56.70721,-25.673172],[-56.706131,-25.674203],[-56.705154,-25.674057],[-56.704303,-25.672687],[-56.70372,-25.672555],[-56.703717,-25.673914],[-56.702694,-25.673989],[-56.702573,-25.674657],[-56.701752,-25.675599],[-56.702446,-25.676386],[-56.700695,-25.6771],[-56.701619,-25.677842],[-56.699166,-25.678488],[-56.701073,-25.681322],[-56.701569,-25.681174],[-56.702089,-25.680295],[-56.702669,-25.680305],[-56.703115,-25.68185],[-56.702156,-25.682458],[-56.702303,-25.683045],[-56.701652,-25.68327],[-56.701603,-25.683586],[-56.702248,-25.684034],[-56.702258,-25.685045],[-56.703107,-25.68586],[-56.703589,-25.685784],[-56.703747,-25.685139],[-56.704105,-25.685252],[-56.703919,-25.686647],[-56.703112,-25.686745],[-56.703095,-25.686988],[-56.703801,-25.687428],[-56.704562,-25.686996],[-56.704759,-25.687159],[-56.704058,-25.687952],[-56.704348,-25.688607],[-56.703772,-25.688633],[-56.703805,-25.689058],[-56.703281,-25.689301],[-56.70324,-25.68982],[-56.70367,-25.690069],[-56.703518,-25.690416],[-56.70204,-25.690856],[-56.702022,-25.691777],[-56.701552,-25.692232],[-56.700092,-25.69217],[-56.700283,-25.693214],[-56.701009,-25.693089],[-56.70111,-25.694276],[-56.700362,-25.694266],[-56.7006,-25.695065],[-56.699794,-25.694346],[-56.699749,-25.695122],[-56.699336,-25.695356],[-56.699536,-25.695749],[-56.69867,-25.695594],[-56.697358,-25.695975],[-56.69722,-25.696544],[-56.696308,-25.696583],[-56.696176,-25.697282],[-56.695156,-25.697628],[-56.695126,-25.698228],[-56.695562,-25.69901],[-56.696583,-25.699166],[-56.696854,-25.700413],[-56.695906,-25.700253],[-56.694673,-25.700864],[-56.694253,-25.70015],[-56.692916,-25.69975],[-56.690767,-25.700251],[-56.689582,-25.700063],[-56.688799,-25.700901],[-56.688092,-25.701184],[-56.68701,-25.699547],[-56.687041,-25.698541],[-56.687508,-25.698357],[-56.687426,-25.698094],[-56.685336,-25.697182],[-56.684938,-25.698076],[-56.683984,-25.698728],[-56.684025,-25.699523],[-56.683436,-25.70056],[-56.682953,-25.700338],[-56.68236,-25.699307],[-56.680715,-25.699159],[-56.679414,-25.699847],[-56.67876,-25.701078],[-56.6779,-25.700765],[-56.677165,-25.701174],[-56.677374,-25.699996],[-56.67606,-25.699858],[-56.67635,-25.699271],[-56.675936,-25.699076],[-56.675544,-25.699522],[-56.676042,-25.700738],[-56.675346,-25.700718],[-56.67498,-25.699819],[-56.674572,-25.699719],[-56.674315,-25.700043],[-56.674559,-25.701182],[-56.674248,-25.701533],[-56.672179,-25.700355],[-56.67234,-25.701619],[-56.67199,-25.702273],[-56.670811,-25.70162],[-56.67072,-25.701354],[-56.671234,-25.700953],[-56.670671,-25.700279],[-56.669835,-25.700155],[-56.689541,-25.762165],[-56.666513,-25.849005],[-56.667156,-25.848775],[-56.667443,-25.847872],[-56.66801,-25.847738],[-56.668679,-25.848345],[-56.669511,-25.848414],[-56.669715,-25.849683],[-56.670545,-25.849654],[-56.671345,-25.850184],[-56.673172,-25.850057],[-56.673592,-25.850645],[-56.674425,-25.850913],[-56.676555,-25.852507],[-56.677141,-25.853321],[-56.678729,-25.853839],[-56.679404,-25.855173],[-56.680898,-25.855352],[-56.682269,-25.856073],[-56.683309,-25.8571],[-56.683444,-25.85846],[-56.685159,-25.859303],[-56.687564,-25.859679],[-56.688425,-25.859563],[-56.689443,-25.858229],[-56.689326,-25.857551],[-56.689851,-25.857151],[-56.690559,-25.857748],[-56.69145,-25.857614],[-56.691857,-25.85692],[-56.69267,-25.857513],[-56.693693,-25.857574],[-56.694238,-25.858903],[-56.696675,-25.860646],[-56.697936,-25.862536],[-56.699617,-25.863894],[-56.700239,-25.863566],[-56.700517,-25.862613],[-56.701215,-25.861743],[-56.702003,-25.861831],[-56.702818,-25.861512],[-56.703697,-25.860439],[-56.704325,-25.860477],[-56.705444,-25.861255],[-56.707498,-25.861558],[-56.710913,-25.863163],[-56.711968,-25.862582],[-56.712867,-25.860589],[-56.714183,-25.859512],[-56.714792,-25.859956],[-56.715715,-25.859854],[-56.71703,-25.861035],[-56.717576,-25.862205],[-56.717216,-25.864191],[-56.719666,-25.871438],[-56.721168,-25.871703],[-56.725587,-25.873612],[-56.727976,-25.873558],[-56.728202,-25.873265],[-56.731383,-25.87458],[-56.732103,-25.875403],[-56.732359,-25.876514],[-56.730374,-25.883608],[-56.731262,-25.888418],[-56.740657,-25.896359],[-56.741936,-25.897987],[-56.737236,-25.904696],[-56.734755,-25.906297],[-56.73381,-25.907622],[-56.733804,-25.910275],[-56.732329,-25.913588],[-56.733152,-25.914199],[-56.749092,-25.907286],[-56.751401,-25.906595],[-56.751296,-25.907006],[-56.752709,-25.908552],[-56.753256,-25.910215],[-56.754044,-25.911065],[-56.754113,-25.911791],[-56.757715,-25.910483],[-56.75998,-25.908361],[-56.761817,-25.907238],[-56.78765,-25.898812],[-56.787105,-25.896272],[-56.787571,-25.895799],[-56.788787,-25.892956],[-56.788152,-25.890693],[-56.7871,-25.888755],[-56.78533,-25.887375],[-56.785844,-25.886567],[-56.785608,-25.88421],[-56.785184,-25.883713],[-56.783836,-25.883706],[-56.783393,-25.883367],[-56.783794,-25.881747],[-56.782995,-25.880342],[-56.782281,-25.87965],[-56.780449,-25.879629],[-56.779346,-25.878137],[-56.780018,-25.876608],[-56.779288,-25.875062],[-56.779201,-25.873563],[-56.778519,-25.872862],[-56.778799,-25.871721],[-56.77851,-25.871345],[-56.778221,-25.871869],[-56.777419,-25.871493],[-56.776397,-25.869785],[-56.776747,-25.869099],[-56.776737,-25.868133],[-56.777654,-25.86733],[-56.776637,-25.864272],[-56.778077,-25.859827],[-56.78012,-25.859966],[-56.782716,-25.860814],[-56.785372,-25.860208],[-56.788111,-25.86014],[-56.789695,-25.859713],[-56.791513,-25.859851],[-56.794083,-25.860587],[-56.798052,-25.861202],[-56.800692,-25.862519],[-56.803352,-25.863412],[-56.804685,-25.86354],[-56.805688,-25.863312],[-56.806164,-25.863868],[-56.80716,-25.863824],[-56.808152,-25.863328],[-56.810122,-25.860961],[-56.811129,-25.860745],[-56.811832,-25.86015],[-56.812488,-25.858819],[-56.813518,-25.858057],[-56.814544,-25.856528],[-56.815158,-25.856199],[-56.815651,-25.856841],[-56.816522,-25.856729],[-56.817595,-25.857042],[-56.817965,-25.856826],[-56.818586,-25.858136],[-56.819385,-25.857952],[-56.821059,-25.858649],[-56.821468,-25.859173],[-56.822002,-25.858998],[-56.822722,-25.859627],[-56.824603,-25.859972],[-56.825593,-25.860492],[-56.82706,-25.861903],[-56.828908,-25.860921],[-56.830041,-25.861021],[-56.830351,-25.860358],[-56.830801,-25.860774],[-56.831751,-25.860879],[-56.833127,-25.862691],[-56.834066,-25.863414],[-56.835457,-25.863105],[-56.836947,-25.862041],[-56.83799,-25.862787],[-56.840032,-25.8625],[-56.841517,-25.86266],[-56.843441,-25.864129],[-56.845233,-25.864686],[-56.845995,-25.863577],[-56.847137,-25.862937],[-56.84894,-25.862613],[-56.849892,-25.863043],[-56.850588,-25.862976],[-56.851409,-25.861424],[-56.852739,-25.86064],[-56.853502,-25.860541],[-56.854117,-25.859896],[-56.856037,-25.860747],[-56.857055,-25.860143],[-56.858829,-25.860267],[-56.859411,-25.859594],[-56.86033,-25.859514],[-56.860274,-25.859166],[-56.860923,-25.85932],[-56.862188,-25.859073],[-56.862802,-25.858726],[-56.863076,-25.858158],[-56.863582,-25.858537],[-56.864713,-25.858593],[-56.864868,-25.859356],[-56.865361,-25.859334],[-56.865553,-25.860052],[-56.866255,-25.860147],[-56.866702,-25.860644],[-56.866809,-25.861466],[-56.867552,-25.861774],[-56.868279,-25.860763],[-56.868578,-25.86126],[-56.86893,-25.861057],[-56.869447,-25.861283],[-56.871934,-25.863349],[-56.873366,-25.86335],[-56.87349,-25.864312],[-56.872998,-25.864686],[-56.873321,-25.86526],[-56.87251,-25.865729],[-56.873058,-25.86814],[-56.873895,-25.868633],[-56.875761,-25.868996],[-56.87608,-25.869272],[-56.875958,-25.870387],[-56.876841,-25.870555],[-56.878848,-25.872024],[-56.879002,-25.873265],[-56.878195,-25.873883],[-56.877092,-25.876596],[-56.877861,-25.877486],[-56.877898,-25.878398],[-56.882847,-25.877887],[-56.886516,-25.889282],[-56.893082,-25.889973],[-56.89892,-25.90196],[-56.901329,-25.904169],[-56.900715,-25.905713],[-56.899589,-25.906823],[-56.896455,-25.914921],[-56.917821,-25.913607],[-56.915664,-25.901036],[-56.915772,-25.898368],[-56.917286,-25.896215],[-56.917792,-25.894847],[-56.917032,-25.890725],[-56.917293,-25.889632],[-56.915168,-25.882809],[-56.915966,-25.881125],[-56.915865,-25.880949]]]}}]}
