{"type":"FeatureCollection","name":"distrito","features":[{"type":"Feature","properties":{"clave":"11-1","nombre":"Capiatá"},"geometry":{"type":"Polygon","coordinates":[[[-57.455749,-25.418289],[-57.456971,-25.421308],[-57.458944,-25.425239],[-57.45955,-25.428348],[-57.463859,-25.437658],[-57.4652,-25.439135],[-57.479146,-25.434909],[-57.479273,-25.433981],[-57.497095,-25.425853],[-57.497906,-25.423691],[-57.498934,-25.423942],[-57.500219,-25.422724],[-57.50145,-25.423591],[-57.502788,-25.423392],[-57.504683,-25.424014],[-57.50536,-25.423792],[-57.505635,-25.424207],[-57.50786,-25.42422],[-57.508066,-25.424658],[-57.508858,-25.424429],[-57.510051,-25.42319],[-57.510689,-25.423347],[-57.511017,-25.424137],[-57.515323,-25.407345],[-57.508785,-25.40835],[-57.508501,-25.407085],[-57.511626,-25.406583],[-57.511545,-25.405976],[-57.516734,-25.405156],[-57.515805,-25.401856],[-57.506052,-25.403318],[-57.504439,-25.401364],[-57.503817,-25.401764],[-57.503255,-25.40068],[-57.499395,-25.4018],[-57.498353,-25.399935],[-57.484586,-25.401931],[-57.484556,-25.402515],[-57.481795,-25.402674],[-57.482366,-25.401704],[-57.482815,-25.397731],[-57.484838,-25.394379],[-57.485391,-25.390644],[-57.48385,-25.385617],[-57.483334,-25.382601],[-57.483905,-25.378376],[-57.483069,-25.373638],[-57.483179,-25.372668],[-57.48419,-25.37023],[-57.484665,-25.366998],[-57.484548,-25.362916],[-57.484143,-25.361805],[-57.487559,-25.356909],[-57.48705,-25.356341],[-57.487571,-25.355473],[-57.486975,-25.354107],[-57.4867,-25.352212],[-57.485192,-25.349829],[-57.48429,-25.349036],[-57.483231,-25.348367],[-57.482108,-25.348252],[-57.482116,-25.347617],[-57.481531,-25.347154],[-57.481267,-25.346473],[-57.481441,-25.346202],[-57.482631,-25.345946],[-57.483515,-25.345149],[-57.483694,-25.344533],[-57.483277,-25.342474],[-57.481069,-25.339936],[-57.48005,-25.339628],[-57.479959,-25.338972],[-57.479624,-25.339076],[-57.478349,-25.338167],[-57.478047,-25.336683],[-57.476862,-25.335376],[-57.477593,-25.335324],[-57.477365,-25.333731],[-57.47451,-25.332829],[-57.473414,-25.331684],[-57.473495,-25.331164],[-57.473079,-25.330703],[-57.471493,-25.330409],[-57.470725,-25.32994],[-57.470077,-25.326896],[-57.470313,-25.324555],[-57.469609,-25.323632],[-57.469818,-25.322895],[-57.46901,-25.322013],[-57.468111,-25.321561],[-57.467837,-25.320411],[-57.464207,-25.319848],[-57.462973,-25.318113],[-57.461014,-25.317605],[-57.461229,-25.316855],[-57.460306,-25.316889],[-57.460001,-25.31616],[-57.458353,-25.315988],[-57.45791,-25.31649],[-57.457347,-25.316301],[-57.456803,-25.315639],[-57.455822,-25.31586],[-57.455097,-25.315638],[-57.454311,-25.315055],[-57.453883,-25.313084],[-57.453035,-25.312082],[-57.45321,-25.311656],[-57.452531,-25.311445],[-57.45176,-25.311615],[-57.450568,-25.312704],[-57.450106,-25.312554],[-57.449585,-25.313028],[-57.448873,-25.313039],[-57.448225,-25.312501],[-57.448398,-25.311734],[-57.44792,-25.311639],[-57.447936,-25.311273],[-57.446805,-25.311199],[-57.446675,-25.310797],[-57.444792,-25.310163],[-57.444619,-25.309629],[-57.445181,-25.308833],[-57.444637,-25.308677],[-57.444477,-25.308024],[-57.443293,-25.307827],[-57.4425,-25.307941],[-57.442086,-25.309027],[-57.441282,-25.309215],[-57.440489,-25.310463],[-57.438804,-25.310747],[-57.438838,-25.311091],[-57.439146,-25.31107],[-57.438843,-25.311724],[-57.439099,-25.312204],[-57.437962,-25.312643],[-57.438328,-25.313064],[-57.438176,-25.313819],[-57.437307,-25.31422],[-57.437626,-25.314534],[-57.438233,-25.31449],[-57.437887,-25.315461],[-57.437445,-25.315772],[-57.438016,-25.316312],[-57.437909,-25.317149],[-57.437352,-25.317331],[-57.437527,-25.317806],[-57.436792,-25.318269],[-57.437184,-25.318626],[-57.43684,-25.319075],[-57.436069,-25.319316],[-57.436179,-25.31983],[-57.435837,-25.320064],[-57.436025,-25.320353],[-57.435673,-25.32047],[-57.435713,-25.320881],[-57.435209,-25.321314],[-57.435649,-25.321762],[-57.435567,-25.322187],[-57.435096,-25.321983],[-57.434173,-25.322152],[-57.433592,-25.3218],[-57.432223,-25.322969],[-57.431758,-25.322906],[-57.432266,-25.323679],[-57.431138,-25.323683],[-57.431509,-25.324064],[-57.430537,-25.324399],[-57.430162,-25.325382],[-57.430589,-25.325771],[-57.430485,-25.3275],[-57.429344,-25.328195],[-57.428688,-25.328215],[-57.428657,-25.328939],[-57.427805,-25.329948],[-57.427532,-25.329864],[-57.42732,-25.330168],[-57.426863,-25.329998],[-57.427015,-25.330981],[-57.426574,-25.331513],[-57.427155,-25.331812],[-57.426987,-25.3324],[-57.427772,-25.332666],[-57.427367,-25.333267],[-57.42563,-25.333836],[-57.425814,-25.334398],[-57.425415,-25.334803],[-57.425514,-25.335568],[-57.424996,-25.336326],[-57.424458,-25.336424],[-57.425116,-25.336566],[-57.424956,-25.336859],[-57.425429,-25.337004],[-57.425149,-25.338627],[-57.425527,-25.339131],[-57.425689,-25.340442],[-57.425249,-25.340995],[-57.424716,-25.341],[-57.42442,-25.340566],[-57.42414,-25.340986],[-57.422757,-25.340996],[-57.422343,-25.341838],[-57.421887,-25.341811],[-57.421759,-25.342377],[-57.42212,-25.34253],[-57.421787,-25.342968],[-57.422589,-25.343569],[-57.422024,-25.345216],[-57.420744,-25.345595],[-57.420272,-25.346187],[-57.419222,-25.345874],[-57.418846,-25.346374],[-57.418117,-25.346381],[-57.417287,-25.347419],[-57.416047,-25.348067],[-57.41387,-25.347862],[-57.413476,-25.348507],[-57.411788,-25.348906],[-57.411573,-25.34963],[-57.411145,-25.349319],[-57.410506,-25.349799],[-57.410348,-25.349587],[-57.410547,-25.350909],[-57.410217,-25.350678],[-57.409535,-25.351514],[-57.409749,-25.351951],[-57.409367,-25.352102],[-57.40889,-25.353487],[-57.408633,-25.35322],[-57.407897,-25.353791],[-57.407992,-25.355235],[-57.406954,-25.355372],[-57.406458,-25.355732],[-57.406663,-25.356633],[-57.406048,-25.357543],[-57.405143,-25.357522],[-57.404972,-25.357916],[-57.403341,-25.358028],[-57.403345,-25.357636],[-57.402734,-25.357852],[-57.40241,-25.358806],[-57.40261,-25.35933],[-57.402336,-25.359464],[-57.402561,-25.360332],[-57.403395,-25.36139],[-57.402823,-25.361718],[-57.402755,-25.362351],[-57.40216,-25.362781],[-57.402485,-25.362999],[-57.402422,-25.363321],[-57.401632,-25.364586],[-57.399956,-25.366272],[-57.40029,-25.367454],[-57.399509,-25.368968],[-57.400203,-25.370893],[-57.400974,-25.371102],[-57.40138,-25.370925],[-57.401355,-25.371511],[-57.403019,-25.372422],[-57.403299,-25.373308],[-57.40406,-25.373836],[-57.404251,-25.375022],[-57.4023,-25.375324],[-57.401842,-25.378062],[-57.402578,-25.379835],[-57.402491,-25.381082],[-57.402831,-25.382327],[-57.403473,-25.382696],[-57.403552,-25.383491],[-57.40409,-25.384087],[-57.403897,-25.385051],[-57.40424,-25.385459],[-57.404916,-25.385236],[-57.405183,-25.385834],[-57.405579,-25.385897],[-57.405877,-25.387491],[-57.405627,-25.387951],[-57.405752,-25.388802],[-57.405038,-25.390445],[-57.404517,-25.391075],[-57.403737,-25.391271],[-57.40316,-25.392074],[-57.403388,-25.393218],[-57.404756,-25.394215],[-57.404912,-25.395116],[-57.40467,-25.39533],[-57.404857,-25.39562],[-57.404574,-25.397329],[-57.402838,-25.398286],[-57.403233,-25.39855],[-57.403298,-25.399087],[-57.402807,-25.399454],[-57.402299,-25.400899],[-57.401091,-25.401575],[-57.399719,-25.403154],[-57.399352,-25.403747],[-57.39962,-25.404184],[-57.399258,-25.40458],[-57.399298,-25.4052],[-57.398822,-25.405667],[-57.399522,-25.406057],[-57.399272,-25.406492],[-57.399732,-25.407153],[-57.399823,-25.409421],[-57.399463,-25.410394],[-57.400223,-25.411133],[-57.399561,-25.412483],[-57.398328,-25.413898],[-57.398736,-25.414561],[-57.398435,-25.415478],[-57.398614,-25.417169],[-57.399236,-25.418339],[-57.413901,-25.416554],[-57.427047,-25.412344],[-57.426998,-25.412003],[-57.426182,-25.411565],[-57.426368,-25.411179],[-57.425798,-25.410516],[-57.425786,-25.409526],[-57.425467,-25.409416],[-57.425563,-25.408447],[-57.425085,-25.408291],[-57.425269,-25.406877],[-57.424639,-25.405705],[-57.424552,-25.40468],[-57.42398,-25.40403],[-57.423669,-25.40404],[-57.423675,-25.403558],[-57.434818,-25.400421],[-57.434661,-25.399964],[-57.435572,-25.399647],[-57.447288,-25.39617],[-57.448531,-25.399116],[-57.449019,-25.402439],[-57.450411,-25.405442],[-57.45028,-25.410655],[-57.450737,-25.412116],[-57.453344,-25.416887],[-57.455503,-25.418806],[-57.455749,-25.418289]]]}}]}
