{"type":"FeatureCollection","name":"distrito","features":[{"type":"Feature","properties":{"clave":"5-31","nombre":"Santa Rosa del Mbutuy"},"geometry":{"type":"Polygon","coordinates":[[[-56.240934,-25.014262],[-56.24341,-25.014835],[-56.245259,-25.01483],[-56.245832,-25.015605],[-56.247096,-25.015856],[-56.248364,-25.016761],[-56.251694,-25.017265],[-56.254961,-25.017358],[-56.256675,-25.016915],[-56.258086,-25.015839],[-56.258929,-25.012917],[-56.261446,-25.010871],[-56.261789,-25.010078],[-56.263198,-25.009285],[-56.265004,-25.00919],[-56.265868,-25.00807],[-56.267191,-25.007779],[-56.26943,-25.006575],[-56.270511,-25.005732],[-56.271926,-25.00372],[-56.273103,-25.003387],[-56.273101,-25.00252],[-56.273376,-25.002269],[-56.273157,-25.001893],[-56.276083,-24.999492],[-56.277067,-24.999826],[-56.279131,-24.999082],[-56.280433,-24.999273],[-56.281294,-24.99995],[-56.281983,-24.999913],[-56.282535,-25.001252],[-56.284019,-25.002293],[-56.285429,-24.999568],[-56.286247,-24.99922],[-56.288812,-24.999124],[-56.289089,-25.000539],[-56.289686,-25.000758],[-56.290394,-25.001624],[-56.290951,-25.001672],[-56.29201,-25.002404],[-56.294007,-25.002445],[-56.294886,-25.001641],[-56.294996,-24.99956],[-56.296652,-24.998805],[-56.295797,-24.997491],[-56.296519,-24.996826],[-56.29715,-24.993348],[-56.298539,-24.992298],[-56.299006,-24.990684],[-56.300964,-24.988747],[-56.303147,-24.987786],[-56.30305,-24.987307],[-56.30338,-24.987241],[-56.303564,-24.987585],[-56.304038,-24.987492],[-56.304296,-24.988519],[-56.304089,-24.989339],[-56.304674,-24.98904],[-56.304915,-24.989623],[-56.30511,-24.989145],[-56.305471,-24.989228],[-56.30554,-24.990032],[-56.306276,-24.990068],[-56.306969,-24.989619],[-56.307513,-24.989997],[-56.30762,-24.989672],[-56.308076,-24.98957],[-56.308085,-24.989137],[-56.309889,-24.988396],[-56.311459,-24.988258],[-56.31173,-24.988661],[-56.312206,-24.988668],[-56.312609,-24.9883],[-56.31389,-24.988617],[-56.315253,-24.987897],[-56.315815,-24.985366],[-56.317174,-24.984596],[-56.319596,-24.984512],[-56.320058,-24.984117],[-56.320937,-24.984292],[-56.321176,-24.985458],[-56.321994,-24.985096],[-56.322218,-24.986357],[-56.323527,-24.986399],[-56.323595,-24.98789],[-56.324764,-24.988315],[-56.326913,-24.988085],[-56.327955,-24.986668],[-56.32865,-24.986671],[-56.328716,-24.986937],[-56.329723,-24.987231],[-56.331546,-24.986566],[-56.333138,-24.987111],[-56.334399,-24.986846],[-56.335914,-24.987245],[-56.336623,-24.987822],[-56.337846,-24.988076],[-56.338097,-24.988601],[-56.339058,-24.98926],[-56.339304,-24.990042],[-56.344382,-24.993785],[-56.344979,-24.994763],[-56.347447,-24.995573],[-56.348882,-24.995182],[-56.351594,-24.995099],[-56.355792,-24.990028],[-56.357292,-24.988671],[-56.359769,-24.987237],[-56.361595,-24.986734],[-56.363868,-24.986798],[-56.367305,-24.986231],[-56.367616,-24.986403],[-56.36831,-24.98581],[-56.370004,-24.986269],[-56.370912,-24.985076],[-56.370779,-24.984155],[-56.371354,-24.98315],[-56.373318,-24.984314],[-56.373921,-24.985762],[-56.374864,-24.986023],[-56.375088,-24.985704],[-56.379512,-24.988047],[-56.380519,-24.989966],[-56.382423,-24.98978],[-56.382541,-24.989284],[-56.383441,-24.989116],[-56.383187,-24.988031],[-56.383837,-24.987253],[-56.385812,-24.987545],[-56.386143,-24.987271],[-56.387066,-24.987311],[-56.387924,-24.986628],[-56.387411,-24.986003],[-56.387822,-24.985386],[-56.387797,-24.984402],[-56.388499,-24.984242],[-56.388741,-24.98381],[-56.390375,-24.98383],[-56.390625,-24.983321],[-56.3914,-24.983148],[-56.392547,-24.984602],[-56.393268,-24.984803],[-56.395164,-24.983023],[-56.396684,-24.982546],[-56.397644,-24.983047],[-56.39805,-24.982972],[-56.397141,-24.979541],[-56.39643,-24.979159],[-56.396694,-24.978049],[-56.39585,-24.97768],[-56.39665,-24.976328],[-56.395998,-24.976294],[-56.396061,-24.975161],[-56.397392,-24.97518],[-56.397878,-24.974536],[-56.398359,-24.974949],[-56.399146,-24.97488],[-56.400077,-24.974355],[-56.400084,-24.973786],[-56.400695,-24.973784],[-56.401599,-24.973219],[-56.402609,-24.973517],[-56.403954,-24.973423],[-56.404722,-24.972211],[-56.404742,-24.970951],[-56.40525,-24.970064],[-56.406666,-24.970074],[-56.408447,-24.969174],[-56.409779,-24.968858],[-56.411315,-24.969551],[-56.412636,-24.969303],[-56.413517,-24.969595],[-56.414256,-24.969029],[-56.414846,-24.967772],[-56.415786,-24.967152],[-56.415728,-24.966163],[-56.416606,-24.965363],[-56.416566,-24.964749],[-56.417001,-24.964606],[-56.417563,-24.963606],[-56.418002,-24.962483],[-56.417813,-24.961882],[-56.418078,-24.960957],[-56.418563,-24.960417],[-56.418126,-24.960045],[-56.41829,-24.959346],[-56.417868,-24.959006],[-56.417792,-24.958197],[-56.418182,-24.957774],[-56.419132,-24.954843],[-56.418687,-24.953356],[-56.418181,-24.953173],[-56.418333,-24.9519],[-56.419673,-24.949806],[-56.420864,-24.948998],[-56.421165,-24.947951],[-56.422032,-24.947887],[-56.423307,-24.946682],[-56.424361,-24.94688],[-56.425156,-24.946576],[-56.425378,-24.946193],[-56.425956,-24.946358],[-56.426399,-24.945881],[-56.426282,-24.945375],[-56.427372,-24.944896],[-56.427745,-24.944428],[-56.426913,-24.943828],[-56.424034,-24.93885],[-56.421598,-24.937048],[-56.419795,-24.933451],[-56.415332,-24.93301],[-56.414574,-24.934185],[-56.413166,-24.935611],[-56.412715,-24.935731],[-56.406964,-24.933667],[-56.40624,-24.933145],[-56.405762,-24.931509],[-56.403296,-24.93144],[-56.401909,-24.930532],[-56.40099,-24.929078],[-56.401477,-24.925734],[-56.400439,-24.924538],[-56.399999,-24.921714],[-56.397482,-24.919559],[-56.396518,-24.919271],[-56.395458,-24.917853],[-56.39331,-24.916278],[-56.393271,-24.914765],[-56.392443,-24.914337],[-56.392175,-24.913352],[-56.388108,-24.912001],[-56.383298,-24.91142],[-56.374498,-24.911822],[-56.372503,-24.912275],[-56.369432,-24.912318],[-56.367692,-24.91269],[-56.365178,-24.9136],[-56.360506,-24.917613],[-56.358307,-24.916831],[-56.357041,-24.917413],[-56.355866,-24.917489],[-56.355538,-24.917912],[-56.356026,-24.91851],[-56.355914,-24.918771],[-56.353049,-24.920561],[-56.353093,-24.919391],[-56.351611,-24.919963],[-56.349164,-24.919356],[-56.348183,-24.919853],[-56.345673,-24.920059],[-56.345002,-24.920819],[-56.343069,-24.921501],[-56.341527,-24.92098],[-56.340434,-24.919693],[-56.338967,-24.919],[-56.338724,-24.918294],[-56.337086,-24.917501],[-56.335735,-24.917581],[-56.334805,-24.916814],[-56.332892,-24.917397],[-56.330665,-24.916863],[-56.32813,-24.917344],[-56.326778,-24.918873],[-56.325758,-24.922016],[-56.325151,-24.92209],[-56.323998,-24.923552],[-56.321719,-24.92267],[-56.320748,-24.922729],[-56.319319,-24.923896],[-56.319314,-24.92498],[-56.318215,-24.925912],[-56.317081,-24.927467],[-56.313616,-24.927004],[-56.312661,-24.927808],[-56.310885,-24.928504],[-56.30906,-24.928103],[-56.306251,-24.929697],[-56.305007,-24.929949],[-56.303905,-24.93105],[-56.302315,-24.931747],[-56.301757,-24.932561],[-56.301796,-24.933853],[-56.301246,-24.935354],[-56.300671,-24.936697],[-56.300028,-24.937254],[-56.300005,-24.938134],[-56.298996,-24.939601],[-56.297669,-24.940124],[-56.296097,-24.940044],[-56.293843,-24.940701],[-56.290841,-24.941012],[-56.289059,-24.940453],[-56.287601,-24.940879],[-56.286882,-24.940542],[-56.284998,-24.940881],[-56.282005,-24.940532],[-56.278187,-24.941173],[-56.275931,-24.938922],[-56.27499,-24.938538],[-56.274152,-24.938358],[-56.272447,-24.939054],[-56.27177,-24.938771],[-56.271575,-24.937885],[-56.271683,-24.93752],[-56.272441,-24.937582],[-56.272412,-24.936291],[-56.270186,-24.93325],[-56.269082,-24.932838],[-56.268817,-24.932277],[-56.266731,-24.930506],[-56.266722,-24.929296],[-56.265514,-24.929272],[-56.262941,-24.927557],[-56.261627,-24.927482],[-56.261048,-24.928053],[-56.260433,-24.927666],[-56.259011,-24.927573],[-56.257699,-24.926497],[-56.255892,-24.926632],[-56.24955,-24.925557],[-56.247571,-24.925769],[-56.245116,-24.926596],[-56.242884,-24.926467],[-56.241547,-24.927427],[-56.240567,-24.927666],[-56.239969,-24.927622],[-56.238809,-24.926794],[-56.237844,-24.926636],[-56.236878,-24.928211],[-56.23367,-24.930457],[-56.225311,-24.934098],[-56.223291,-24.934052],[-56.218491,-24.935228],[-56.215119,-24.93516],[-56.208852,-24.935755],[-56.207051,-24.936621],[-56.203951,-24.937426],[-56.2009,-24.937776],[-56.200034,-24.93843],[-56.199977,-24.939017],[-56.198439,-24.939343],[-56.197163,-24.940447],[-56.277746,-24.809199],[-56.27822,-24.808001],[-56.278393,-24.806958],[-56.27698,-24.803651],[-56.275215,-24.800829],[-56.27419,-24.798237],[-56.271186,-24.794343],[-56.268316,-24.788581],[-56.266781,-24.784442],[-56.262674,-24.778575],[-56.260557,-24.774776],[-56.257346,-24.771351],[-56.254855,-24.766173],[-56.252766,-24.768248],[-56.251827,-24.768451],[-56.251175,-24.768078],[-56.248393,-24.77015],[-56.24755,-24.771157],[-56.247106,-24.772388],[-56.245187,-24.774613],[-56.244484,-24.777332],[-56.242805,-24.778263],[-56.24162,-24.77828],[-56.241093,-24.778557],[-56.235817,-24.786066],[-56.233171,-24.787995],[-56.232595,-24.789405],[-56.232639,-24.790426],[-56.231375,-24.790645],[-56.227881,-24.793485],[-56.222757,-24.800462],[-56.22291,-24.802237],[-56.224305,-24.805631],[-56.224431,-24.80677],[-56.222571,-24.810106],[-56.222514,-24.813321],[-56.221004,-24.816627],[-56.220729,-24.821823],[-56.218769,-24.826915],[-56.218286,-24.829522],[-56.214801,-24.839975],[-56.212351,-24.842942],[-56.210582,-24.843624],[-56.205842,-24.847848],[-56.205024,-24.850878],[-56.203502,-24.853556],[-56.200056,-24.855683],[-56.199354,-24.858456],[-56.198418,-24.860505],[-56.198922,-24.863032],[-56.198797,-24.864029],[-56.197389,-24.864965],[-56.19499,-24.865463],[-56.193741,-24.86863],[-56.191977,-24.869876],[-56.189143,-24.872967],[-56.187495,-24.876859],[-56.187157,-24.878804],[-56.186595,-24.879916],[-56.18645,-24.883085],[-56.184497,-24.885485],[-56.183496,-24.885886],[-56.180763,-24.888057],[-56.177127,-24.892692],[-56.176548,-24.89417],[-56.176026,-24.897242],[-56.174398,-24.900683],[-56.173931,-24.90362],[-56.17285,-24.906725],[-56.170486,-24.910676],[-56.166758,-24.919022],[-56.166595,-24.919992],[-56.165768,-24.921107],[-56.165009,-24.92304],[-56.163507,-24.92453],[-56.161899,-24.928346],[-56.16069,-24.929441],[-56.16014,-24.930666],[-56.155487,-24.935195],[-56.152445,-24.93619],[-56.151114,-24.937293],[-56.149314,-24.936903],[-56.14462,-24.938497],[-56.140314,-24.938229],[-56.135831,-24.937137],[-56.131739,-24.935479],[-56.128384,-24.935166],[-56.128896,-24.929885],[-56.125793,-24.913275],[-56.11883,-24.918813],[-56.110129,-24.919789],[-56.102968,-24.922314],[-56.108922,-24.926982],[-56.108046,-24.928259],[-56.107968,-24.928981],[-56.108793,-24.931433],[-56.108606,-24.932164],[-56.107511,-24.933096],[-56.106601,-24.934567],[-56.106225,-24.935861],[-56.105334,-24.936388],[-56.104736,-24.937369],[-56.104724,-24.938064],[-56.105844,-24.939069],[-56.105737,-24.940039],[-56.102863,-24.94321],[-56.099938,-24.943594],[-56.097384,-24.945353],[-56.096204,-24.945526],[-56.094856,-24.946538],[-56.093473,-24.946936],[-56.093566,-24.947682],[-56.093004,-24.949399],[-56.093258,-24.949942],[-56.094014,-24.95024],[-56.093293,-24.953284],[-56.093882,-24.954068],[-56.094288,-24.955854],[-56.095427,-24.956412],[-56.097176,-24.956689],[-56.09963,-24.958275],[-56.100856,-24.959818],[-56.102187,-24.960761],[-56.102344,-24.962568],[-56.104426,-24.963032],[-56.110465,-24.962847],[-56.112346,-24.963535],[-56.113172,-24.964127],[-56.114099,-24.965763],[-56.115629,-24.966738],[-56.116418,-24.967962],[-56.118809,-24.968549],[-56.12106,-24.970459],[-56.122843,-24.973391],[-56.122667,-24.975697],[-56.124145,-24.976424],[-56.124713,-24.97728],[-56.125903,-24.977987],[-56.126408,-24.978668],[-56.126615,-24.979978],[-56.12641,-24.981973],[-56.126936,-24.983606],[-56.127887,-24.984347],[-56.13051,-24.985388],[-56.131672,-24.987544],[-56.132298,-24.988157],[-56.138581,-24.988821],[-56.140979,-24.990253],[-56.144142,-24.990962],[-56.147378,-24.992962],[-56.14792,-24.992925],[-56.148692,-24.991972],[-56.150186,-24.991886],[-56.151946,-24.991142],[-56.152692,-24.991566],[-56.152771,-24.992429],[-56.153613,-24.992908],[-56.158085,-24.992613],[-56.16094,-24.993238],[-56.162146,-24.993818],[-56.165209,-24.99324],[-56.168764,-24.992971],[-56.173392,-24.990536],[-56.175901,-24.989624],[-56.176777,-24.989647],[-56.177678,-24.99018],[-56.178667,-24.990091],[-56.181891,-24.988384],[-56.182899,-24.98712],[-56.184123,-24.98696],[-56.18713,-24.988819],[-56.189125,-24.988897],[-56.19186,-24.99094],[-56.193422,-24.99279],[-56.196223,-24.99425],[-56.196702,-24.995504],[-56.19802,-24.997371],[-56.197361,-24.998185],[-56.197891,-24.998481],[-56.197852,-24.999235],[-56.198972,-25.000717],[-56.200527,-25.000387],[-56.201472,-25.000875],[-56.202757,-25.000945],[-56.205195,-25.000277],[-56.205867,-25.00079],[-56.207752,-25.000679],[-56.208166,-25.000514],[-56.208789,-24.999537],[-56.210234,-24.999549],[-56.213005,-25.000598],[-56.21394,-25.001633],[-56.215572,-25.002011],[-56.216828,-25.00307],[-56.217892,-25.003103],[-56.220325,-25.004046],[-56.221909,-25.005084],[-56.223413,-25.005222],[-56.224757,-25.006078],[-56.225756,-25.006047],[-56.227165,-25.006348],[-56.227505,-25.006702],[-56.229222,-25.006937],[-56.229549,-25.007792],[-56.230933,-25.007745],[-56.231591,-25.00675],[-56.233419,-25.007437],[-56.234114,-25.008578],[-56.235015,-25.009003],[-56.236199,-25.010431],[-56.237087,-25.010883],[-56.238208,-25.010952],[-56.240133,-25.012118],[-56.240934,-25.014262]]]}}]}
