{"type":"FeatureCollection","name":"distrito","features":[{"type":"Feature","properties":{"clave":"3-23","nombre":"Mbocayaty del Yhaguy"},"geometry":{"type":"Polygon","coordinates":[[[-56.73445,-25.360994],[-56.739332,-25.354558],[-56.740732,-25.354215],[-56.742461,-25.352756],[-56.744629,-25.351758],[-56.745462,-25.350201],[-56.746579,-25.348839],[-56.747195,-25.348508],[-56.747441,-25.347516],[-56.748466,-25.34604],[-56.748419,-25.345336],[-56.747287,-25.343413],[-56.748098,-25.341956],[-56.748253,-25.339925],[-56.749045,-25.33876],[-56.747584,-25.335429],[-56.74593,-25.334411],[-56.746189,-25.332323],[-56.745723,-25.329316],[-56.746924,-25.328121],[-56.747167,-25.327087],[-56.748187,-25.326475],[-56.748896,-25.324649],[-56.748914,-25.324011],[-56.747854,-25.323621],[-56.748181,-25.32196],[-56.748731,-25.321315],[-56.748742,-25.319523],[-56.749666,-25.318901],[-56.749197,-25.317798],[-56.749366,-25.316873],[-56.749976,-25.315691],[-56.751297,-25.314434],[-56.752644,-25.314359],[-56.753178,-25.313746],[-56.753153,-25.313303],[-56.752452,-25.312765],[-56.752488,-25.312395],[-56.753234,-25.311127],[-56.754062,-25.310587],[-56.752908,-25.309348],[-56.753361,-25.3077],[-56.754932,-25.305919],[-56.754501,-25.304022],[-56.754817,-25.302781],[-56.756379,-25.301908],[-56.757408,-25.300026],[-56.756907,-25.2991],[-56.757572,-25.298442],[-56.757209,-25.297687],[-56.757375,-25.296378],[-56.756993,-25.295844],[-56.758392,-25.294474],[-56.757952,-25.293394],[-56.758047,-25.289416],[-56.759501,-25.286741],[-56.759204,-25.285282],[-56.759804,-25.284628],[-56.760112,-25.282051],[-56.760457,-25.281568],[-56.761391,-25.281172],[-56.762249,-25.279498],[-56.762599,-25.278],[-56.763115,-25.277332],[-56.763104,-25.276095],[-56.762686,-25.27544],[-56.762957,-25.27228],[-56.762726,-25.270681],[-56.76323,-25.270104],[-56.763838,-25.270538],[-56.764228,-25.27043],[-56.764356,-25.269374],[-56.765157,-25.269055],[-56.765372,-25.26784],[-56.766418,-25.26721],[-56.766436,-25.266361],[-56.766816,-25.265905],[-56.766125,-25.265381],[-56.765092,-25.26514],[-56.764895,-25.264787],[-56.765156,-25.264106],[-56.764896,-25.262678],[-56.76573,-25.261682],[-56.765254,-25.260656],[-56.766436,-25.258324],[-56.765438,-25.255848],[-56.765801,-25.254918],[-56.765811,-25.252579],[-56.766264,-25.251957],[-56.76547,-25.251712],[-56.765852,-25.250809],[-56.765717,-25.249414],[-56.766098,-25.249053],[-56.764595,-25.248017],[-56.763857,-25.24709],[-56.763582,-25.246173],[-56.762964,-25.245842],[-56.763612,-25.245143],[-56.763098,-25.244284],[-56.763212,-25.242935],[-56.765422,-25.241746],[-56.765634,-25.241101],[-56.765426,-25.240414],[-56.76594,-25.239796],[-56.767825,-25.239704],[-56.768659,-25.238794],[-56.769458,-25.238664],[-56.769945,-25.237468],[-56.770912,-25.236932],[-56.772762,-25.235021],[-56.772719,-25.233539],[-56.773989,-25.232503],[-56.773909,-25.23178],[-56.772947,-25.231016],[-56.772054,-25.229447],[-56.773381,-25.22837],[-56.773643,-25.227052],[-56.774254,-25.226042],[-56.773852,-25.224583],[-56.774773,-25.223695],[-56.774385,-25.222389],[-56.77495,-25.22188],[-56.774617,-25.220335],[-56.774773,-25.219057],[-56.774104,-25.217887],[-56.773125,-25.217054],[-56.772096,-25.2168],[-56.771493,-25.21572],[-56.771658,-25.214578],[-56.772351,-25.213856],[-56.772702,-25.212588],[-56.772082,-25.210555],[-56.772754,-25.209671],[-56.771147,-25.207849],[-56.770945,-25.20653],[-56.769447,-25.204302],[-56.769462,-25.202848],[-56.768988,-25.201926],[-56.769035,-25.19961],[-56.769458,-25.198536],[-56.770002,-25.198392],[-56.770363,-25.197133],[-56.769004,-25.196142],[-56.768526,-25.194999],[-56.767208,-25.194288],[-56.766594,-25.194878],[-56.763643,-25.194932],[-56.762951,-25.196241],[-56.761809,-25.196234],[-56.761223,-25.197014],[-56.761058,-25.197958],[-56.760082,-25.197157],[-56.75933,-25.197187],[-56.759262,-25.197544],[-56.76002,-25.198173],[-56.759487,-25.198294],[-56.75828,-25.199552],[-56.757433,-25.200801],[-56.756995,-25.202227],[-56.754186,-25.203406],[-56.75297,-25.20484],[-56.751586,-25.205171],[-56.751165,-25.205992],[-56.750272,-25.206713],[-56.749681,-25.208379],[-56.74708,-25.209435],[-56.745645,-25.209519],[-56.744053,-25.209326],[-56.740808,-25.207989],[-56.740111,-25.209003],[-56.740428,-25.209934],[-56.740048,-25.210552],[-56.739597,-25.210628],[-56.738598,-25.21003],[-56.737734,-25.210408],[-56.736494,-25.209859],[-56.735107,-25.21164],[-56.732616,-25.213921],[-56.728825,-25.214672],[-56.726949,-25.214263],[-56.724111,-25.214289],[-56.723122,-25.216053],[-56.721397,-25.217151],[-56.721521,-25.219585],[-56.720471,-25.220278],[-56.719732,-25.221772],[-56.720019,-25.222517],[-56.720987,-25.223151],[-56.720804,-25.224027],[-56.719198,-25.224579],[-56.717663,-25.223813],[-56.717469,-25.224626],[-56.716553,-25.225251],[-56.716181,-25.226447],[-56.714671,-25.2276],[-56.714754,-25.228377],[-56.715539,-25.229508],[-56.713965,-25.230344],[-56.713369,-25.232483],[-56.713927,-25.234413],[-56.713579,-25.236245],[-56.714657,-25.237593],[-56.714474,-25.238893],[-56.714821,-25.240709],[-56.714547,-25.241322],[-56.713375,-25.242006],[-56.713389,-25.243262],[-56.712557,-25.244416],[-56.712253,-25.246217],[-56.710162,-25.246452],[-56.708949,-25.246287],[-56.707413,-25.247187],[-56.706432,-25.246865],[-56.703914,-25.247217],[-56.702948,-25.245901],[-56.701621,-25.246146],[-56.700824,-25.24544],[-56.700296,-25.244292],[-56.698593,-25.244122],[-56.698147,-25.242906],[-56.69767,-25.242503],[-56.695354,-25.241997],[-56.69335,-25.243109],[-56.691617,-25.242667],[-56.690245,-25.243965],[-56.691199,-25.245533],[-56.691281,-25.246265],[-56.690838,-25.246838],[-56.690887,-25.247425],[-56.688368,-25.24797],[-56.686736,-25.24892],[-56.687079,-25.249968],[-56.686352,-25.250237],[-56.685704,-25.251157],[-56.684289,-25.251809],[-56.683892,-25.252724],[-56.682089,-25.253497],[-56.681482,-25.254431],[-56.681637,-25.254873],[-56.680218,-25.255791],[-56.678887,-25.255707],[-56.67867,-25.256339],[-56.677598,-25.257082],[-56.675873,-25.256906],[-56.673832,-25.256211],[-56.67298,-25.256399],[-56.672505,-25.257179],[-56.669861,-25.256834],[-56.669226,-25.257772],[-56.668789,-25.257947],[-56.666937,-25.257577],[-56.665662,-25.258866],[-56.665203,-25.260693],[-56.66304,-25.262526],[-56.662158,-25.26284],[-56.661214,-25.263637],[-56.664143,-25.267518],[-56.662423,-25.271072],[-56.661777,-25.271726],[-56.660787,-25.272139],[-56.654504,-25.27962],[-56.651211,-25.281928],[-56.650907,-25.282894],[-56.649354,-25.283089],[-56.648143,-25.284355],[-56.647332,-25.286055],[-56.649177,-25.287247],[-56.64958,-25.288783],[-56.649212,-25.28969],[-56.647738,-25.290648],[-56.647362,-25.291315],[-56.647489,-25.291749],[-56.645915,-25.293723],[-56.638245,-25.296729],[-56.637058,-25.300941],[-56.635796,-25.303447],[-56.627493,-25.310952],[-56.623161,-25.313496],[-56.622565,-25.315068],[-56.621156,-25.31566],[-56.621398,-25.318374],[-56.621928,-25.319193],[-56.621854,-25.320882],[-56.620447,-25.321162],[-56.619457,-25.321873],[-56.618532,-25.321379],[-56.616825,-25.32104],[-56.615847,-25.319773],[-56.61436,-25.32065],[-56.613284,-25.320638],[-56.613127,-25.318832],[-56.612752,-25.318176],[-56.611858,-25.317596],[-56.610232,-25.317682],[-56.610912,-25.316482],[-56.610736,-25.315832],[-56.60997,-25.315374],[-56.608217,-25.315419],[-56.608377,-25.31425],[-56.60808,-25.313856],[-56.606913,-25.314232],[-56.60616,-25.312122],[-56.6052,-25.311338],[-56.604533,-25.309851],[-56.603679,-25.309808],[-56.603365,-25.309008],[-56.602627,-25.309295],[-56.602293,-25.310459],[-56.601112,-25.309923],[-56.601271,-25.308726],[-56.602291,-25.308174],[-56.602263,-25.3076],[-56.6019,-25.307414],[-56.601145,-25.307593],[-56.598766,-25.309546],[-56.59508,-25.311089],[-56.594099,-25.311154],[-56.589525,-25.310419],[-56.587543,-25.30849],[-56.5866,-25.308185],[-56.585285,-25.308813],[-56.583407,-25.310461],[-56.581106,-25.309741],[-56.57845,-25.310099],[-56.578162,-25.310536],[-56.578248,-25.311864],[-56.576871,-25.312144],[-56.574807,-25.310865],[-56.571912,-25.309823],[-56.570962,-25.309888],[-56.568259,-25.308697],[-56.567475,-25.308699],[-56.566491,-25.309206],[-56.565525,-25.309041],[-56.563013,-25.306527],[-56.561363,-25.306111],[-56.651069,-25.397533],[-56.66704,-25.410335],[-56.672973,-25.413865],[-56.699567,-25.424022],[-56.718781,-25.43326],[-56.722019,-25.435117],[-56.721787,-25.432124],[-56.722348,-25.428492],[-56.721645,-25.426256],[-56.722268,-25.423802],[-56.721849,-25.42001],[-56.722435,-25.418973],[-56.722477,-25.416449],[-56.722982,-25.414258],[-56.723861,-25.413099],[-56.724023,-25.412385],[-56.723463,-25.411012],[-56.723532,-25.408512],[-56.72197,-25.40738],[-56.722275,-25.406853],[-56.724271,-25.405599],[-56.722481,-25.402819],[-56.722117,-25.401763],[-56.722782,-25.400214],[-56.724975,-25.398789],[-56.725137,-25.398351],[-56.725833,-25.394505],[-56.726552,-25.392947],[-56.725367,-25.391378],[-56.724764,-25.389258],[-56.724953,-25.388496],[-56.726917,-25.385561],[-56.728166,-25.382543],[-56.727902,-25.380895],[-56.728334,-25.379386],[-56.731002,-25.377118],[-56.732209,-25.37669],[-56.733865,-25.375589],[-56.735154,-25.37426],[-56.735648,-25.37327],[-56.735812,-25.371671],[-56.735322,-25.370899],[-56.735156,-25.369421],[-56.735544,-25.367401],[-56.733963,-25.363128],[-56.73445,-25.360994]]]}}]}
