{"type":"FeatureCollection","name":"distrito","features":[{"type":"Feature","properties":{"clave":"9-15","nombre":"Pirayú"},"geometry":{"type":"Polygon","coordinates":[[[-57.253893,-25.509308],[-57.264099,-25.506531],[-57.290127,-25.501512],[-57.306434,-25.497861],[-57.317095,-25.497762],[-57.316105,-25.4855],[-57.314784,-25.474389],[-57.314145,-25.470153],[-57.312084,-25.461159],[-57.319441,-25.454952],[-57.31872,-25.449175],[-57.318755,-25.447222],[-57.317353,-25.448072],[-57.315291,-25.448704],[-57.312872,-25.447525],[-57.292279,-25.449401],[-57.290973,-25.451393],[-57.286394,-25.448818],[-57.279949,-25.444129],[-57.276924,-25.442309],[-57.277119,-25.441645],[-57.24861,-25.433872],[-57.238584,-25.429392],[-57.22301,-25.418625],[-57.21791,-25.40268],[-57.215734,-25.404672],[-57.213573,-25.405547],[-57.210007,-25.405474],[-57.209407,-25.405135],[-57.208452,-25.405175],[-57.207294,-25.405824],[-57.205497,-25.404509],[-57.195022,-25.401783],[-57.1952,-25.403803],[-57.193698,-25.405445],[-57.190089,-25.408117],[-57.187757,-25.409419],[-57.183466,-25.409698],[-57.183136,-25.410526],[-57.18394,-25.413524],[-57.183943,-25.415859],[-57.183181,-25.417091],[-57.182054,-25.421391],[-57.181534,-25.426109],[-57.180035,-25.430486],[-57.178906,-25.430966],[-57.176647,-25.430832],[-57.170696,-25.429062],[-57.169492,-25.428995],[-57.167836,-25.429704],[-57.164435,-25.433716],[-57.159864,-25.436048],[-57.153544,-25.439951],[-57.152189,-25.440295],[-57.151598,-25.440956],[-57.149781,-25.441596],[-57.14451,-25.44126],[-57.144289,-25.445362],[-57.142188,-25.451449],[-57.140232,-25.453844],[-57.135867,-25.455967],[-57.133909,-25.456243],[-57.131784,-25.455691],[-57.132289,-25.461275],[-57.132007,-25.464497],[-57.131533,-25.467309],[-57.130399,-25.470438],[-57.131886,-25.472568],[-57.133065,-25.47345],[-57.135305,-25.474269],[-57.138402,-25.474094],[-57.140498,-25.473486],[-57.141261,-25.473788],[-57.139329,-25.476554],[-57.139366,-25.477314],[-57.139829,-25.478069],[-57.139705,-25.478574],[-57.139279,-25.478963],[-57.138075,-25.479284],[-57.137315,-25.480454],[-57.137168,-25.485021],[-57.1358,-25.489244],[-57.135039,-25.49049],[-57.135804,-25.492288],[-57.136036,-25.495056],[-57.135198,-25.496371],[-57.133446,-25.497618],[-57.132914,-25.49921],[-57.133145,-25.501009],[-57.131317,-25.502671],[-57.132005,-25.504055],[-57.131626,-25.505992],[-57.129952,-25.509177],[-57.129725,-25.511461],[-57.12752,-25.516998],[-57.126572,-25.517485],[-57.125809,-25.518543],[-57.126697,-25.521352],[-57.126355,-25.522925],[-57.129555,-25.524888],[-57.130201,-25.526821],[-57.129893,-25.527532],[-57.132855,-25.527316],[-57.142214,-25.527886],[-57.142636,-25.528454],[-57.145843,-25.528],[-57.14681,-25.529055],[-57.149986,-25.529779],[-57.151904,-25.528973],[-57.154975,-25.528776],[-57.156073,-25.527673],[-57.156143,-25.525496],[-57.157916,-25.524966],[-57.158167,-25.525824],[-57.159069,-25.525981],[-57.160692,-25.529135],[-57.162893,-25.530253],[-57.164138,-25.530206],[-57.165631,-25.529514],[-57.166369,-25.530145],[-57.167635,-25.530419],[-57.168806,-25.529406],[-57.169095,-25.528656],[-57.171369,-25.530175],[-57.172677,-25.530165],[-57.174823,-25.52939],[-57.175643,-25.52971],[-57.176818,-25.531216],[-57.177399,-25.531076],[-57.178083,-25.530357],[-57.178601,-25.530347],[-57.179297,-25.530789],[-57.180769,-25.529902],[-57.181329,-25.529978],[-57.181652,-25.530628],[-57.181941,-25.529743],[-57.183311,-25.53008],[-57.184028,-25.530697],[-57.185397,-25.530167],[-57.186009,-25.530243],[-57.187162,-25.531127],[-57.188354,-25.530064],[-57.189374,-25.529796],[-57.18903,-25.531332],[-57.188335,-25.531247],[-57.187961,-25.531482],[-57.188076,-25.531907],[-57.187211,-25.532012],[-57.188064,-25.53253],[-57.191007,-25.53607],[-57.192515,-25.537366],[-57.193249,-25.539657],[-57.193855,-25.539963],[-57.194166,-25.540699],[-57.194615,-25.540965],[-57.194533,-25.541728],[-57.195895,-25.544042],[-57.199767,-25.54555],[-57.201229,-25.545471],[-57.203719,-25.547386],[-57.207926,-25.548703],[-57.21807,-25.551109],[-57.22363,-25.539153],[-57.230752,-25.52678],[-57.253893,-25.509308]]]}}]}
