{"type":"FeatureCollection","name":"distrito","features":[{"type":"Feature","properties":{"clave":"1-13","nombre":"Itacuá"},"geometry":{"type":"Polygon","coordinates":[[[-57.881726,-22.655093],[-57.871228,-22.655263],[-57.865221,-22.654871],[-57.848425,-22.651732],[-57.844316,-22.65165],[-57.837857,-22.652402],[-57.832227,-22.652539],[-57.829701,-22.652846],[-57.825542,-22.653988],[-57.819895,-22.65599],[-57.807587,-22.658957],[-57.793076,-22.663375],[-57.789976,-22.663873],[-57.786126,-22.663838],[-57.782935,-22.663614],[-57.780432,-22.663039],[-57.776803,-22.661268],[-57.775012,-22.659597],[-57.773504,-22.657151],[-57.772281,-22.654145],[-57.771979,-22.651612],[-57.772365,-22.643508],[-57.772888,-22.639449],[-57.779917,-22.622618],[-57.785388,-22.614913],[-57.79279,-22.608558],[-57.797667,-22.602639],[-57.799767,-22.598361],[-57.802731,-22.594376],[-57.804785,-22.592152],[-57.807415,-22.590165],[-57.809408,-22.587247],[-57.812119,-22.584383],[-57.815005,-22.581938],[-57.818525,-22.57987],[-57.822193,-22.578731],[-57.825471,-22.57469],[-57.827744,-22.570731],[-57.828729,-22.567311],[-57.828764,-22.563526],[-57.827536,-22.555131],[-57.827569,-22.550998],[-57.830077,-22.543199],[-57.830567,-22.538743],[-57.830472,-22.518053],[-57.830876,-22.513493],[-57.831711,-22.509166],[-57.832865,-22.505457],[-57.834568,-22.502219],[-57.844475,-22.487727],[-57.845364,-22.484416],[-57.84561,-22.47923],[-57.843383,-22.470786],[-57.841045,-22.463594],[-57.839911,-22.459188],[-57.839173,-22.454742],[-57.839148,-22.4507],[-57.839601,-22.447057],[-57.840531,-22.443855],[-57.842251,-22.44054],[-57.844408,-22.437547],[-57.848809,-22.43308],[-57.858226,-22.427438],[-57.862,-22.423963],[-57.864232,-22.420423],[-57.865439,-22.417255],[-57.865856,-22.414421],[-57.865957,-22.411665],[-57.865367,-22.405711],[-57.864481,-22.403069],[-57.860824,-22.399891],[-57.858563,-22.398616],[-57.856344,-22.397819],[-57.854088,-22.397429],[-57.852033,-22.397512],[-57.845519,-22.399055],[-57.847052,-22.402628],[-57.845454,-22.409734],[-57.844517,-22.41206],[-57.843757,-22.412307],[-57.839492,-22.410959],[-57.838209,-22.411142],[-57.833107,-22.412871],[-57.831254,-22.413146],[-57.827327,-22.412636],[-57.825332,-22.413132],[-57.823427,-22.4127],[-57.821233,-22.411605],[-57.817589,-22.41054],[-57.815843,-22.408869],[-57.815839,-22.408183],[-57.816217,-22.407912],[-57.819183,-22.40735],[-57.819715,-22.406812],[-57.819752,-22.40624],[-57.817701,-22.405579],[-57.816627,-22.4049],[-57.816437,-22.404329],[-57.818587,-22.403783],[-57.819212,-22.40322],[-57.819634,-22.402149],[-57.819469,-22.396702],[-57.81659,-22.396207],[-57.816217,-22.396408],[-57.816079,-22.398013],[-57.817082,-22.400221],[-57.816913,-22.401167],[-57.815063,-22.402644],[-57.814448,-22.402672],[-57.813802,-22.402104],[-57.813359,-22.399569],[-57.81238,-22.399101],[-57.811645,-22.399192],[-57.811213,-22.400699],[-57.808725,-22.403037],[-57.80775,-22.403216],[-57.805407,-22.402942],[-57.805095,-22.402073],[-57.807832,-22.399024],[-57.807993,-22.396722],[-57.807653,-22.395754],[-57.806831,-22.394738],[-57.805287,-22.393763],[-57.802943,-22.393091],[-57.80258,-22.392695],[-57.802624,-22.391115],[-57.802194,-22.390694],[-57.801017,-22.390812],[-57.800644,-22.391063],[-57.800689,-22.391871],[-57.801579,-22.393036],[-57.802056,-22.3946],[-57.802133,-22.396416],[-57.801624,-22.398694],[-57.799575,-22.400433],[-57.797016,-22.399787],[-57.796282,-22.400027],[-57.794804,-22.401178],[-57.793442,-22.401645],[-57.792452,-22.401538],[-57.792195,-22.401141],[-57.792073,-22.398493],[-57.790544,-22.397704],[-57.789529,-22.397983],[-57.788845,-22.397576],[-57.787587,-22.395107],[-57.787171,-22.39481],[-57.78665,-22.394925],[-57.784976,-22.39696],[-57.784068,-22.397226],[-57.780589,-22.396944],[-57.780092,-22.396648],[-57.778639,-22.397538],[-57.778056,-22.395999],[-57.777413,-22.395865],[-57.776708,-22.396664],[-57.776526,-22.397623],[-57.777497,-22.40375],[-57.777338,-22.406462],[-57.775614,-22.406657],[-57.773838,-22.407275],[-57.77358,-22.406505],[-57.773878,-22.404812],[-57.772323,-22.404185],[-57.771648,-22.404492],[-57.772219,-22.406754],[-57.772028,-22.408677],[-57.771433,-22.409299],[-57.767152,-22.410886],[-57.767433,-22.412714],[-57.768626,-22.413468],[-57.768465,-22.413708],[-57.765949,-22.414185],[-57.766443,-22.416179],[-57.765121,-22.415277],[-57.765051,-22.413728],[-57.762831,-22.414538],[-57.761878,-22.413626],[-57.761348,-22.412495],[-57.760862,-22.413021],[-57.760145,-22.412997],[-57.759714,-22.410565],[-57.759127,-22.411114],[-57.758388,-22.411289],[-57.75769,-22.411148],[-57.756917,-22.410501],[-57.756861,-22.410059],[-57.757331,-22.409682],[-57.757574,-22.408637],[-57.756671,-22.408443],[-57.754565,-22.405119],[-57.755893,-22.40374],[-57.754737,-22.403158],[-57.75495,-22.402434],[-57.754631,-22.40183],[-57.754767,-22.40071],[-57.753576,-22.399649],[-57.753993,-22.399151],[-57.753289,-22.398969],[-57.753456,-22.398616],[-57.752393,-22.398119],[-57.753095,-22.397849],[-57.752376,-22.397184],[-57.753287,-22.395084],[-57.753264,-22.394045],[-57.752398,-22.393625],[-57.751773,-22.393881],[-57.751105,-22.39364],[-57.750891,-22.394653],[-57.750274,-22.39363],[-57.750052,-22.394227],[-57.749446,-22.394122],[-57.749353,-22.393806],[-57.74977,-22.393447],[-57.748429,-22.393277],[-57.748603,-22.392613],[-57.748354,-22.391968],[-57.748591,-22.391795],[-57.749289,-22.392176],[-57.749761,-22.391858],[-57.74959,-22.390345],[-57.748037,-22.389846],[-57.745923,-22.390367],[-57.745141,-22.388162],[-57.744397,-22.387338],[-57.743324,-22.38934],[-57.741414,-22.388314],[-57.741384,-22.389308],[-57.741129,-22.389503],[-57.740293,-22.388708],[-57.739233,-22.388713],[-57.739056,-22.387914],[-57.737808,-22.388064],[-57.737048,-22.387833],[-57.736844,-22.387513],[-57.737224,-22.387051],[-57.735154,-22.386315],[-57.734608,-22.386561],[-57.734374,-22.388021],[-57.734024,-22.38753],[-57.731953,-22.386551],[-57.730516,-22.387325],[-57.730436,-22.386575],[-57.729537,-22.386182],[-57.728986,-22.385024],[-57.727657,-22.384113],[-57.726455,-22.384669],[-57.725866,-22.384541],[-57.726126,-22.384025],[-57.725992,-22.382874],[-57.724387,-22.38256],[-57.724082,-22.38173],[-57.724245,-22.381156],[-57.723226,-22.380479],[-57.721996,-22.378031],[-57.721521,-22.37774],[-57.719988,-22.378515],[-57.718144,-22.377895],[-57.71691,-22.378],[-57.715787,-22.379283],[-57.716569,-22.380467],[-57.715291,-22.380509],[-57.714054,-22.38154],[-57.713558,-22.381434],[-57.712729,-22.380638],[-57.710906,-22.381775],[-57.708726,-22.381857],[-57.707098,-22.382253],[-57.704667,-22.383131],[-57.704362,-22.38343],[-57.704526,-22.384066],[-57.704288,-22.384428],[-57.703422,-22.384437],[-57.702007,-22.383878],[-57.701497,-22.383058],[-57.700579,-22.382927],[-57.700638,-22.381255],[-57.700357,-22.380502],[-57.699099,-22.380174],[-57.697381,-22.379011],[-57.696559,-22.377131],[-57.694714,-22.377275],[-57.69462,-22.376335],[-57.694204,-22.376057],[-57.692084,-22.376188],[-57.691907,-22.375968],[-57.692315,-22.375406],[-57.691967,-22.374685],[-57.69123,-22.373974],[-57.688528,-22.372685],[-57.687897,-22.372624],[-57.687354,-22.373792],[-57.685447,-22.372364],[-57.684403,-22.372544],[-57.682987,-22.371593],[-57.683239,-22.372228],[-57.682919,-22.372596],[-57.681608,-22.371919],[-57.680959,-22.372482],[-57.679678,-22.372704],[-57.679793,-22.371913],[-57.678618,-22.371728],[-57.677842,-22.370535],[-57.676835,-22.370385],[-57.676363,-22.369778],[-57.6762,-22.368703],[-57.675196,-22.369177],[-57.672955,-22.367958],[-57.672489,-22.368226],[-57.672801,-22.368948],[-57.671653,-22.3687],[-57.670404,-22.368967],[-57.66901,-22.367265],[-57.667343,-22.367769],[-57.667109,-22.368416],[-57.665901,-22.36838],[-57.664065,-22.369228],[-57.662261,-22.367415],[-57.660438,-22.366424],[-57.659192,-22.366248],[-57.658316,-22.366464],[-57.658595,-22.365926],[-57.658294,-22.365502],[-57.657274,-22.365678],[-57.65725,-22.365091],[-57.656916,-22.36502],[-57.656649,-22.365378],[-57.655842,-22.364722],[-57.653509,-22.36474],[-57.653697,-22.364207],[-57.651378,-22.364934],[-57.651053,-22.364809],[-57.651008,-22.364398],[-57.650565,-22.364364],[-57.649734,-22.365036],[-57.649564,-22.366238],[-57.648904,-22.366168],[-57.648423,-22.366676],[-57.647816,-22.365987],[-57.646976,-22.365665],[-57.645568,-22.366073],[-57.64392,-22.365827],[-57.642554,-22.364698],[-57.641026,-22.36512],[-57.640346,-22.366012],[-57.638599,-22.366159],[-57.638313,-22.367023],[-57.637831,-22.366736],[-57.637011,-22.367141],[-57.635073,-22.367009],[-57.632907,-22.367835],[-57.631996,-22.369478],[-57.631429,-22.367967],[-57.630568,-22.368856],[-57.629631,-22.367179],[-57.628899,-22.367498],[-57.627881,-22.367209],[-57.626928,-22.367352],[-57.625739,-22.367036],[-57.625223,-22.366437],[-57.623696,-22.367469],[-57.622634,-22.36759],[-57.621894,-22.368533],[-57.620966,-22.368712],[-57.620521,-22.369179],[-57.620597,-22.369816],[-57.62034,-22.370088],[-57.619364,-22.370132],[-57.618733,-22.369556],[-57.617829,-22.370974],[-57.618479,-22.371585],[-57.617491,-22.372104],[-57.615848,-22.371767],[-57.615744,-22.372422],[-57.615299,-22.372384],[-57.613188,-22.371682],[-57.613278,-22.37226],[-57.611772,-22.372817],[-57.612445,-22.373113],[-57.61239,-22.373433],[-57.609962,-22.375064],[-57.609737,-22.375499],[-57.607611,-22.375814],[-57.607227,-22.376633],[-57.606317,-22.37646],[-57.60617,-22.377125],[-57.605405,-22.377403],[-57.604808,-22.378322],[-57.605284,-22.379468],[-57.604588,-22.379262],[-57.604238,-22.380127],[-57.603535,-22.379836],[-57.603587,-22.380319],[-57.602839,-22.381162],[-57.601648,-22.381758],[-57.60135,-22.38226],[-57.60049,-22.3823],[-57.599728,-22.38382],[-57.599201,-22.383817],[-57.598958,-22.383326],[-57.598472,-22.383278],[-57.598077,-22.383591],[-57.597483,-22.383259],[-57.597096,-22.383505],[-57.597245,-22.384945],[-57.596728,-22.385561],[-57.595914,-22.385587],[-57.594511,-22.384959],[-57.594377,-22.384282],[-57.593114,-22.383108],[-57.59269,-22.383128],[-57.592508,-22.383878],[-57.591701,-22.383398],[-57.591322,-22.383553],[-57.591127,-22.384299],[-57.590045,-22.383941],[-57.589731,-22.384173],[-57.589711,-22.385013],[-57.589254,-22.385128],[-57.58908,-22.384573],[-57.588282,-22.384734],[-57.588088,-22.385272],[-57.588459,-22.386165],[-57.588122,-22.386514],[-57.587877,-22.388118],[-57.587086,-22.388569],[-57.58699,-22.389097],[-57.585849,-22.389522],[-57.585735,-22.390263],[-57.586384,-22.390631],[-57.585377,-22.391895],[-57.584127,-22.392459],[-57.583263,-22.392124],[-57.582241,-22.392362],[-57.581837,-22.392662],[-57.581689,-22.393516],[-57.581128,-22.394241],[-57.579995,-22.394611],[-57.579044,-22.394352],[-57.57863,-22.394507],[-57.577839,-22.395671],[-57.576931,-22.39534],[-57.576298,-22.39606],[-57.57654,-22.396403],[-57.575426,-22.396867],[-57.575347,-22.397224],[-57.576103,-22.398423],[-57.576058,-22.399096],[-57.575382,-22.400413],[-57.574962,-22.400496],[-57.574559,-22.400204],[-57.574311,-22.401533],[-57.573755,-22.401015],[-57.572255,-22.40145],[-57.571413,-22.400766],[-57.57074,-22.401825],[-57.570226,-22.401601],[-57.570363,-22.40109],[-57.569794,-22.401454],[-57.569144,-22.400973],[-57.567688,-22.401588],[-57.567557,-22.400884],[-57.566961,-22.40122],[-57.566241,-22.401195],[-57.565723,-22.399946],[-57.564456,-22.399824],[-57.56394,-22.399338],[-57.563945,-22.398746],[-57.562684,-22.398489],[-57.562359,-22.398553],[-57.562761,-22.399008],[-57.562577,-22.399194],[-57.560667,-22.39953],[-57.560015,-22.39937],[-57.55955,-22.39882],[-57.559162,-22.398858],[-57.559167,-22.399612],[-57.55817,-22.400031],[-57.558133,-22.400514],[-57.557697,-22.400466],[-57.556977,-22.400062],[-57.557009,-22.399574],[-57.556339,-22.399256],[-57.556758,-22.398771],[-57.556677,-22.39818],[-57.554883,-22.397513],[-57.554475,-22.396805],[-57.55378,-22.397011],[-57.552696,-22.396174],[-57.552384,-22.396275],[-57.552147,-22.397116],[-57.551634,-22.397415],[-57.55064,-22.39745],[-57.549972,-22.397281],[-57.550172,-22.39649],[-57.548558,-22.396315],[-57.547727,-22.395401],[-57.547202,-22.395299],[-57.546858,-22.395602],[-57.54715,-22.396464],[-57.546939,-22.396966],[-57.545193,-22.39802],[-57.544461,-22.397986],[-57.543274,-22.397209],[-57.54147,-22.396691],[-57.540272,-22.396758],[-57.539422,-22.394859],[-57.539136,-22.39454],[-57.537859,-22.394273],[-57.537339,-22.393425],[-57.535865,-22.393783],[-57.534679,-22.394713],[-57.533396,-22.394455],[-57.532403,-22.393758],[-57.52909,-22.392418],[-57.528372,-22.39149],[-57.527819,-22.391284],[-57.52725,-22.388793],[-57.526959,-22.388441],[-57.526004,-22.388553],[-57.526122,-22.387613],[-57.525315,-22.386979],[-57.524647,-22.387067],[-57.523503,-22.385033],[-57.522162,-22.384351],[-57.521645,-22.382686],[-57.521218,-22.382687],[-57.520289,-22.38353],[-57.519238,-22.382865],[-57.518985,-22.383029],[-57.519153,-22.383701],[-57.518683,-22.383938],[-57.517747,-22.382924],[-57.515247,-22.382512],[-57.514821,-22.381538],[-57.514353,-22.381431],[-57.514114,-22.381594],[-57.514397,-22.38223],[-57.514196,-22.382547],[-57.513767,-22.382625],[-57.513278,-22.38222],[-57.512562,-22.382128],[-57.511991,-22.382536],[-57.511633,-22.385274],[-57.511383,-22.385713],[-57.510648,-22.38586],[-57.509661,-22.385222],[-57.506375,-22.384781],[-57.50535,-22.383975],[-57.504819,-22.382771],[-57.502502,-22.382381],[-57.50118,-22.382448],[-57.500517,-22.381827],[-57.500453,-22.381113],[-57.5,-22.380681],[-57.499453,-22.380809],[-57.499017,-22.38166],[-57.498731,-22.381683],[-57.497777,-22.381054],[-57.496612,-22.380759],[-57.495834,-22.380924],[-57.495252,-22.38023],[-57.494287,-22.380202],[-57.494065,-22.379629],[-57.494489,-22.378864],[-57.49409,-22.378382],[-57.493431,-22.378239],[-57.492363,-22.378658],[-57.491288,-22.376692],[-57.489572,-22.376905],[-57.488358,-22.376439],[-57.488716,-22.374509],[-57.488162,-22.374511],[-57.487133,-22.375277],[-57.485997,-22.37538],[-57.48072,-22.374885],[-57.47997,-22.375421],[-57.479874,-22.376261],[-57.4793,-22.376701],[-57.477798,-22.379447],[-57.47655,-22.379817],[-57.474841,-22.380996],[-57.472836,-22.380695],[-57.470159,-22.379519],[-57.467434,-22.38011],[-57.46744,-22.380973],[-57.467884,-22.38154],[-57.466304,-22.382634],[-57.467511,-22.384288],[-57.465844,-22.386664],[-57.465814,-22.387405],[-57.464114,-22.38825],[-57.463527,-22.389047],[-57.463528,-22.38929],[-57.464448,-22.389649],[-57.464581,-22.39085],[-57.4659,-22.391122],[-57.465493,-22.392776],[-57.465855,-22.393882],[-57.465013,-22.395167],[-57.46496,-22.3965],[-57.465636,-22.396715],[-57.46583,-22.397089],[-57.465692,-22.399601],[-57.466063,-22.400865],[-57.465827,-22.401873],[-57.468294,-22.401872],[-57.469768,-22.403088],[-57.470958,-22.403313],[-57.474867,-22.403219],[-57.475685,-22.402714],[-57.476633,-22.405017],[-57.497409,-22.416438],[-57.496875,-22.417534],[-57.498775,-22.420225],[-57.499227,-22.425247],[-57.508102,-22.432699],[-57.510996,-22.436077],[-57.511139,-22.440142],[-57.51386,-22.442036],[-57.542846,-22.447373],[-57.54635,-22.448681],[-57.547519,-22.449591],[-57.482098,-22.558268],[-57.483585,-22.571118],[-57.48451,-22.573812],[-57.484292,-22.576003],[-57.484644,-22.582665],[-57.484281,-22.584423],[-57.484851,-22.590216],[-57.48345,-22.594403],[-57.483289,-22.596161],[-57.48356,-22.598662],[-57.483036,-22.600678],[-57.483591,-22.602659],[-57.48343,-22.605122],[-57.483823,-22.609018],[-57.485932,-22.612382],[-57.486807,-22.614737],[-57.490879,-22.621685],[-57.493532,-22.624599],[-57.498852,-22.626678],[-57.501998,-22.628575],[-57.505723,-22.630302],[-57.507499,-22.633038],[-57.511034,-22.641234],[-57.511742,-22.641896],[-57.513956,-22.642449],[-57.515617,-22.643333],[-57.516452,-22.644956],[-57.515645,-22.646273],[-57.51624,-22.647265],[-57.516653,-22.647142],[-57.517185,-22.645885],[-57.517576,-22.645761],[-57.517992,-22.646207],[-57.517447,-22.647586],[-57.517854,-22.648263],[-57.520204,-22.648558],[-57.521449,-22.649005],[-57.523099,-22.648959],[-57.524402,-22.650486],[-57.526149,-22.649934],[-57.527297,-22.650635],[-57.527724,-22.649292],[-57.529092,-22.64931],[-57.52932,-22.650064],[-57.530469,-22.65039],[-57.531289,-22.651701],[-57.531924,-22.652106],[-57.5323,-22.651684],[-57.531837,-22.651013],[-57.532567,-22.650495],[-57.532757,-22.649447],[-57.533351,-22.649359],[-57.534967,-22.650388],[-57.536052,-22.650159],[-57.53734,-22.650407],[-57.538505,-22.650101],[-57.538842,-22.650416],[-57.539091,-22.652172],[-57.539649,-22.652297],[-57.540763,-22.651859],[-57.540891,-22.652324],[-57.542533,-22.652969],[-57.542986,-22.653663],[-57.5441,-22.653478],[-57.546171,-22.656452],[-57.549458,-22.655908],[-57.550913,-22.656436],[-57.552877,-22.656163],[-57.553571,-22.657037],[-57.554369,-22.657377],[-57.554464,-22.658791],[-57.556456,-22.659836],[-57.555547,-22.660878],[-57.557849,-22.660897],[-57.557818,-22.661652],[-57.556803,-22.662093],[-57.556936,-22.662825],[-57.557195,-22.662919],[-57.557903,-22.662397],[-57.559371,-22.662735],[-57.558927,-22.664236],[-57.560196,-22.665031],[-57.561318,-22.667236],[-57.562533,-22.66753],[-57.562192,-22.669473],[-57.562653,-22.669612],[-57.563422,-22.66918],[-57.564021,-22.671111],[-57.565614,-22.66998],[-57.566062,-22.671036],[-57.566778,-22.671521],[-57.566608,-22.672746],[-57.565432,-22.673915],[-57.565374,-22.674652],[-57.566413,-22.6757],[-57.567202,-22.675246],[-57.568125,-22.678088],[-57.567581,-22.679007],[-57.569327,-22.679073],[-57.569753,-22.679632],[-57.570461,-22.679936],[-57.570583,-22.68092],[-57.570105,-22.682494],[-57.571048,-22.683575],[-57.572453,-22.683841],[-57.572458,-22.684464],[-57.571468,-22.685037],[-57.571412,-22.685507],[-57.571825,-22.686079],[-57.571211,-22.687382],[-57.572278,-22.688421],[-57.571831,-22.689403],[-57.572986,-22.689119],[-57.573557,-22.689379],[-57.573175,-22.69022],[-57.573754,-22.691758],[-57.5751,-22.691839],[-57.574804,-22.692608],[-57.574835,-22.693918],[-57.575849,-22.694154],[-57.575245,-22.694906],[-57.576829,-22.695537],[-57.576199,-22.695882],[-57.576637,-22.696373],[-57.577765,-22.696243],[-57.577494,-22.69674],[-57.577775,-22.697083],[-57.578981,-22.696952],[-57.57962,-22.697374],[-57.580445,-22.696788],[-57.580761,-22.697176],[-57.580804,-22.698354],[-57.581772,-22.697895],[-57.58054,-22.700374],[-57.581598,-22.701035],[-57.581556,-22.701974],[-57.58247,-22.702106],[-57.582555,-22.702765],[-57.581876,-22.703445],[-57.58256,-22.704202],[-57.583369,-22.704027],[-57.583365,-22.705558],[-57.584634,-22.705784],[-57.585095,-22.706573],[-57.586086,-22.70633],[-57.58644,-22.706974],[-57.587275,-22.706773],[-57.587526,-22.707747],[-57.588344,-22.707564],[-57.58787,-22.70953],[-57.588806,-22.70959],[-57.588213,-22.710053],[-57.588295,-22.710351],[-57.589484,-22.710848],[-57.590099,-22.711446],[-57.591011,-22.711072],[-57.591858,-22.711209],[-57.592339,-22.710805],[-57.592981,-22.711964],[-57.593437,-22.711912],[-57.593098,-22.712795],[-57.593529,-22.71366],[-57.592958,-22.714389],[-57.594033,-22.714905],[-57.594061,-22.715225],[-57.593392,-22.715567],[-57.593245,-22.715983],[-57.594008,-22.716395],[-57.59295,-22.717303],[-57.592219,-22.718543],[-57.593381,-22.719392],[-57.592513,-22.720005],[-57.593242,-22.720716],[-57.593302,-22.721245],[-57.592587,-22.721821],[-57.592166,-22.722703],[-57.592768,-22.723749],[-57.592136,-22.724876],[-57.592781,-22.725944],[-57.592788,-22.726603],[-57.592026,-22.727324],[-57.591978,-22.72858],[-57.590859,-22.729167],[-57.591731,-22.729475],[-57.590649,-22.730125],[-57.59086,-22.731041],[-57.587473,-22.73086],[-57.587089,-22.731227],[-57.587275,-22.732414],[-57.585816,-22.732194],[-57.585265,-22.732512],[-57.585308,-22.733745],[-57.585906,-22.735364],[-57.585205,-22.736469],[-57.586074,-22.736637],[-57.585901,-22.737667],[-57.586904,-22.738183],[-57.586603,-22.738433],[-57.585607,-22.738161],[-57.585085,-22.738339],[-57.58549,-22.738983],[-57.585552,-22.740681],[-57.584651,-22.741331],[-57.584502,-22.741805],[-57.584711,-22.741985],[-57.585717,-22.741661],[-57.586266,-22.741799],[-57.586534,-22.742177],[-57.58641,-22.743777],[-57.58699,-22.743964],[-57.588159,-22.743558],[-57.58836,-22.74456],[-57.589036,-22.744978],[-57.589482,-22.746204],[-57.591147,-22.747124],[-57.590662,-22.748571],[-57.591112,-22.749139],[-57.589706,-22.750382],[-57.589583,-22.752085],[-57.590724,-22.752641],[-57.58988,-22.753443],[-57.5904,-22.753766],[-57.590518,-22.754295],[-57.591737,-22.754498],[-57.591827,-22.754976],[-57.590787,-22.754849],[-57.590755,-22.75508],[-57.592044,-22.756281],[-57.591671,-22.756869],[-57.591828,-22.757248],[-57.5934,-22.758457],[-57.593695,-22.758135],[-57.593966,-22.758378],[-57.593778,-22.759418],[-57.593325,-22.759907],[-57.59342,-22.76049],[-57.593943,-22.760637],[-57.595037,-22.760353],[-57.595592,-22.760897],[-57.595173,-22.761707],[-57.595671,-22.762071],[-57.594397,-22.762943],[-57.594058,-22.763848],[-57.595368,-22.764891],[-57.59493,-22.766198],[-57.595553,-22.766241],[-57.595713,-22.766538],[-57.594219,-22.767433],[-57.595351,-22.76789],[-57.594595,-22.768597],[-57.594928,-22.769265],[-57.594443,-22.769835],[-57.595805,-22.771551],[-57.596668,-22.771507],[-57.596172,-22.773429],[-57.595563,-22.772943],[-57.595713,-22.773548],[-57.596455,-22.773775],[-57.597126,-22.774708],[-57.597849,-22.775008],[-57.598575,-22.774888],[-57.599406,-22.775499],[-57.598844,-22.776458],[-57.598969,-22.777533],[-57.599181,-22.777758],[-57.600082,-22.777705],[-57.599911,-22.779169],[-57.600258,-22.779299],[-57.600809,-22.778922],[-57.601108,-22.779697],[-57.600824,-22.780186],[-57.60012,-22.780496],[-57.600932,-22.781342],[-57.600112,-22.782876],[-57.600584,-22.782983],[-57.601487,-22.782438],[-57.601455,-22.783684],[-57.602131,-22.783361],[-57.602484,-22.783486],[-57.603157,-22.78464],[-57.604067,-22.785359],[-57.604112,-22.785639],[-57.603572,-22.785939],[-57.604157,-22.78684],[-57.605509,-22.787242],[-57.604989,-22.788264],[-57.606173,-22.789208],[-57.60605,-22.790961],[-57.607107,-22.790953],[-57.60744,-22.791841],[-57.608389,-22.791955],[-57.60868,-22.792248],[-57.607978,-22.792847],[-57.606892,-22.792358],[-57.606981,-22.792864],[-57.608568,-22.794136],[-57.608998,-22.79408],[-57.609049,-22.793276],[-57.609898,-22.793874],[-57.609893,-22.794325],[-57.608888,-22.794844],[-57.60848,-22.796047],[-57.609007,-22.79614],[-57.609816,-22.795459],[-57.610222,-22.795494],[-57.611057,-22.796439],[-57.610841,-22.797041],[-57.611865,-22.798387],[-57.611868,-22.798943],[-57.613157,-22.799146],[-57.613003,-22.799914],[-57.613508,-22.799926],[-57.613906,-22.799509],[-57.613878,-22.799025],[-57.61439,-22.798906],[-57.615181,-22.799639],[-57.615197,-22.800542],[-57.616097,-22.800232],[-57.616467,-22.801301],[-57.616243,-22.802232],[-57.617335,-22.802598],[-57.617357,-22.804274],[-57.617889,-22.803635],[-57.618566,-22.80398],[-57.618202,-22.805404],[-57.619348,-22.806551],[-57.618326,-22.808064],[-57.620263,-22.808617],[-57.620221,-22.8091],[-57.619148,-22.80984],[-57.620363,-22.810256],[-57.620267,-22.810803],[-57.620704,-22.811176],[-57.620271,-22.812501],[-57.621084,-22.812868],[-57.620403,-22.813566],[-57.621418,-22.814009],[-57.621499,-22.814696],[-57.622949,-22.815011],[-57.622705,-22.816258],[-57.623767,-22.816606],[-57.623825,-22.817862],[-57.624697,-22.819597],[-57.626283,-22.820052],[-57.626807,-22.820578],[-57.626678,-22.820985],[-57.625733,-22.820862],[-57.625868,-22.821594],[-57.626559,-22.821979],[-57.626461,-22.822291],[-57.625699,-22.822547],[-57.625217,-22.822116],[-57.624881,-22.822397],[-57.625569,-22.823288],[-57.624683,-22.823581],[-57.624444,-22.824851],[-57.624722,-22.826164],[-57.625213,-22.826736],[-57.625206,-22.827947],[-57.624726,-22.828454],[-57.625299,-22.82894],[-57.625111,-22.829722],[-57.626314,-22.830313],[-57.626427,-22.830634],[-57.625711,-22.832262],[-57.624779,-22.832713],[-57.624072,-22.832657],[-57.623171,-22.835041],[-57.623584,-22.835473],[-57.624063,-22.835449],[-57.625044,-22.83451],[-57.625358,-22.835267],[-57.626037,-22.835554],[-57.626507,-22.836306],[-57.628219,-22.836787],[-57.628578,-22.837481],[-57.629159,-22.837687],[-57.629012,-22.838428],[-57.629285,-22.838802],[-57.629923,-22.83884],[-57.630157,-22.838189],[-57.630509,-22.838147],[-57.630737,-22.838814],[-57.631948,-22.839424],[-57.631819,-22.839858],[-57.631254,-22.840005],[-57.631813,-22.841014],[-57.634115,-22.842947],[-57.635147,-22.842785],[-57.635485,-22.843931],[-57.63591,-22.844277],[-57.636612,-22.843529],[-57.637634,-22.843769],[-57.637378,-22.842586],[-57.638908,-22.842011],[-57.63835,-22.841521],[-57.638515,-22.841001],[-57.639287,-22.841599],[-57.639521,-22.841467],[-57.639353,-22.840198],[-57.640206,-22.840362],[-57.639812,-22.838625],[-57.641493,-22.838631],[-57.641906,-22.839298],[-57.640764,-22.839054],[-57.640436,-22.839214],[-57.640586,-22.839552],[-57.643778,-22.840519],[-57.644549,-22.840539],[-57.644993,-22.839891],[-57.647363,-22.839321],[-57.647636,-22.840625],[-57.647991,-22.840945],[-57.648954,-22.840981],[-57.649383,-22.840311],[-57.650357,-22.840352],[-57.651395,-22.84169],[-57.650973,-22.842464],[-57.651269,-22.842562],[-57.651786,-22.842067],[-57.652013,-22.842342],[-57.651107,-22.843823],[-57.651438,-22.844729],[-57.650701,-22.845017],[-57.65072,-22.845414],[-57.652456,-22.84585],[-57.653156,-22.846894],[-57.654185,-22.846664],[-57.654191,-22.847369],[-57.654705,-22.847629],[-57.656564,-22.847346],[-57.657392,-22.849343],[-57.657846,-22.849567],[-57.657829,-22.84889],[-57.658201,-22.848893],[-57.659273,-22.8506],[-57.660192,-22.850081],[-57.660249,-22.851233],[-57.661094,-22.850958],[-57.661725,-22.851529],[-57.661944,-22.850729],[-57.662245,-22.850579],[-57.663231,-22.851153],[-57.663109,-22.851397],[-57.662335,-22.851436],[-57.662614,-22.851742],[-57.666185,-22.851569],[-57.666795,-22.852547],[-57.667219,-22.852518],[-57.667165,-22.851881],[-57.66771,-22.852019],[-57.667656,-22.852959],[-57.668447,-22.852012],[-57.669636,-22.852801],[-57.669634,-22.853407],[-57.668388,-22.853963],[-57.66804,-22.856972],[-57.668474,-22.858434],[-57.670984,-22.861391],[-57.670658,-22.861758],[-57.669533,-22.861623],[-57.668714,-22.861915],[-57.668772,-22.862529],[-57.669312,-22.863069],[-57.670851,-22.863812],[-57.672078,-22.864028],[-57.673194,-22.865243],[-57.675066,-22.866518],[-57.676965,-22.866754],[-57.678425,-22.866404],[-57.67908,-22.866523],[-57.679778,-22.869],[-57.679427,-22.8693],[-57.678526,-22.868902],[-57.678369,-22.869277],[-57.681006,-22.870905],[-57.681475,-22.870763],[-57.681066,-22.869604],[-57.683515,-22.869743],[-57.682938,-22.868589],[-57.683976,-22.868521],[-57.68462,-22.867651],[-57.687401,-22.868949],[-57.688136,-22.869962],[-57.68745,-22.870431],[-57.687502,-22.870778],[-57.689072,-22.870545],[-57.687899,-22.871738],[-57.688176,-22.872103],[-57.689082,-22.872284],[-57.688956,-22.873649],[-57.687871,-22.872497],[-57.68758,-22.872824],[-57.687892,-22.873568],[-57.687616,-22.873871],[-57.68553,-22.874717],[-57.684951,-22.874264],[-57.684527,-22.874517],[-57.685111,-22.877616],[-57.685539,-22.87813],[-57.687727,-22.877654],[-57.690942,-22.87835],[-57.69241,-22.879513],[-57.693902,-22.883701],[-57.692833,-22.89279],[-57.693315,-22.89543],[-57.694011,-22.895262],[-57.69435,-22.893593],[-57.693789,-22.892811],[-57.694744,-22.892656],[-57.695375,-22.893471],[-57.695913,-22.893475],[-57.696004,-22.893106],[-57.695429,-22.891886],[-57.696712,-22.891554],[-57.696924,-22.89061],[-57.697342,-22.890716],[-57.697515,-22.89121],[-57.697194,-22.892721],[-57.698683,-22.8927],[-57.698983,-22.892971],[-57.699129,-22.894271],[-57.700497,-22.894714],[-57.699963,-22.89636],[-57.697729,-22.897844],[-57.697725,-22.898322],[-57.699259,-22.900652],[-57.699145,-22.901058],[-57.698052,-22.901649],[-57.698152,-22.904869],[-57.698862,-22.904979],[-57.698745,-22.903558],[-57.700047,-22.903271],[-57.700408,-22.903401],[-57.700743,-22.9044],[-57.701069,-22.904172],[-57.701116,-22.90333],[-57.701498,-22.903271],[-57.701661,-22.904934],[-57.702043,-22.905223],[-57.703146,-22.903981],[-57.703811,-22.904169],[-57.704201,-22.905302],[-57.705473,-22.904389],[-57.706594,-22.904192],[-57.707395,-22.904368],[-57.709795,-22.906403],[-57.710069,-22.907621],[-57.709189,-22.908476],[-57.708238,-22.908638],[-57.707457,-22.907429],[-57.706332,-22.907145],[-57.705186,-22.907413],[-57.705111,-22.907868],[-57.706167,-22.910074],[-57.706118,-22.910683],[-57.705246,-22.911536],[-57.705235,-22.912014],[-57.707838,-22.913785],[-57.708285,-22.914318],[-57.70855,-22.915674],[-57.709017,-22.916179],[-57.711947,-22.915129],[-57.71421,-22.915692],[-57.715019,-22.916348],[-57.714914,-22.917066],[-57.713573,-22.918205],[-57.711627,-22.918902],[-57.710393,-22.919811],[-57.708844,-22.922657],[-57.707426,-22.923853],[-57.707478,-22.924857],[-57.708927,-22.926657],[-57.709337,-22.928089],[-57.709112,-22.932392],[-57.709907,-22.933479],[-57.710931,-22.933947],[-57.714374,-22.935022],[-57.715287,-22.935046],[-57.7166,-22.934381],[-57.717887,-22.931851],[-57.718676,-22.931733],[-57.719501,-22.932518],[-57.720171,-22.936229],[-57.719981,-22.93851],[-57.721146,-22.942032],[-57.721071,-22.942563],[-57.720778,-22.942851],[-57.719384,-22.942614],[-57.71786,-22.941459],[-57.715571,-22.938888],[-57.714313,-22.93822],[-57.713818,-22.938322],[-57.713527,-22.938811],[-57.713299,-22.939687],[-57.713536,-22.940589],[-57.715721,-22.943992],[-57.718235,-22.944999],[-57.724174,-22.949475],[-57.724952,-22.950346],[-57.725332,-22.951922],[-57.725041,-22.952396],[-57.722232,-22.954245],[-57.721618,-22.955237],[-57.72121,-22.957132],[-57.723162,-22.96012],[-57.726683,-22.964076],[-57.729014,-22.965743],[-57.731343,-22.966779],[-57.737863,-22.969102],[-57.73865,-22.965887],[-57.740739,-22.962665],[-57.744069,-22.959953],[-57.750618,-22.956882],[-57.757296,-22.9549],[-57.764787,-22.954176],[-57.767722,-22.953044],[-57.769573,-22.951672],[-57.772494,-22.948145],[-57.775184,-22.94469],[-57.777409,-22.941166],[-57.780876,-22.938209],[-57.785272,-22.93532],[-57.789444,-22.933937],[-57.794781,-22.933121],[-57.798847,-22.93359],[-57.806243,-22.927995],[-57.814972,-22.922788],[-57.818455,-22.919415],[-57.821375,-22.914974],[-57.821643,-22.913278],[-57.821497,-22.908925],[-57.820888,-22.906937],[-57.819724,-22.905249],[-57.818284,-22.90415],[-57.813176,-22.902072],[-57.80391,-22.896993],[-57.798432,-22.892743],[-57.796789,-22.890796],[-57.792973,-22.884876],[-57.790035,-22.879285],[-57.789507,-22.877517],[-57.789429,-22.870955],[-57.789725,-22.866934],[-57.790425,-22.864126],[-57.798521,-22.853503],[-57.800764,-22.84921],[-57.80312,-22.843815],[-57.807154,-22.832878],[-57.807613,-22.829741],[-57.807822,-22.824727],[-57.810215,-22.819033],[-57.811439,-22.817369],[-57.813937,-22.816029],[-57.817708,-22.814645],[-57.828632,-22.812006],[-57.840264,-22.807997],[-57.849644,-22.80662],[-57.86718,-22.805532],[-57.871709,-22.804586],[-57.875318,-22.80298],[-57.882556,-22.793939],[-57.883446,-22.792006],[-57.88357,-22.789819],[-57.882018,-22.785713],[-57.878536,-22.783547],[-57.87714,-22.782141],[-57.876641,-22.780084],[-57.876754,-22.776032],[-57.877433,-22.773711],[-57.885054,-22.761836],[-57.887599,-22.758606],[-57.890147,-22.755891],[-57.894086,-22.753877],[-57.8981,-22.752631],[-57.910952,-22.750408],[-57.918032,-22.747893],[-57.925789,-22.743273],[-57.929985,-22.737007],[-57.931941,-22.733237],[-57.938138,-22.716319],[-57.940248,-22.708272],[-57.940635,-22.704123],[-57.940078,-22.696774],[-57.938898,-22.692594],[-57.937445,-22.688967],[-57.935347,-22.685262],[-57.930239,-22.67914],[-57.924056,-22.6705],[-57.920994,-22.66718],[-57.917474,-22.664169],[-57.909428,-22.659125],[-57.902969,-22.657369],[-57.890479,-22.655727],[-57.881726,-22.655093]]]}}]}
