{"type":"FeatureCollection","name":"distrito","features":[{"type":"Feature","properties":{"clave":"15-11","nombre":"Teniente Esteban Martínez"},"geometry":{"type":"Polygon","coordinates":[[[-60.037035,-24.015126],[-60.042625,-24.013849],[-60.04677,-24.015251],[-60.051601,-24.015171],[-60.060399,-24.012],[-60.064549,-24.009233],[-60.067498,-24.009021],[-60.074992,-24.016826],[-60.080218,-24.02064],[-60.087511,-24.022644],[-60.096,-24.026425],[-60.121486,-24.031873],[-60.129953,-24.034426],[-60.139114,-24.036067],[-60.152964,-24.039343],[-60.166424,-24.041235],[-60.18965,-24.043313],[-60.221224,-24.043004],[-60.237361,-24.044188],[-60.244275,-24.045291],[-60.261442,-24.049313],[-60.276101,-24.048804],[-60.283063,-24.048106],[-60.294265,-24.046406],[-60.298531,-24.045185],[-60.305856,-24.044558],[-60.313232,-24.042465],[-60.320335,-24.040047],[-60.324232,-24.038342],[-60.323737,-24.036145],[-60.324147,-24.034422],[-60.326694,-24.032333],[-60.330415,-24.030795],[-60.333538,-24.030493],[-60.340538,-24.03167],[-60.344564,-24.03184],[-60.347865,-24.031534],[-60.350966,-24.033647],[-60.354443,-24.033174],[-60.357811,-24.031722],[-60.362179,-24.031152],[-60.365616,-24.032802],[-60.368768,-24.033639],[-60.373134,-24.028902],[-60.375336,-24.02739],[-60.378845,-24.016301],[-60.38447,-24.008113],[-60.388874,-24.005255],[-60.393754,-24.003694],[-60.398002,-24.00168],[-60.409099,-23.998533],[-60.417036,-23.993728],[-60.435728,-23.978842],[-60.439722,-23.977621],[-60.441643,-23.975625],[-60.445504,-23.975427],[-60.451438,-23.973026],[-60.458007,-23.971185],[-60.4623,-23.971347],[-60.465949,-23.970705],[-60.469555,-23.968268],[-60.47417,-23.967036],[-60.477253,-23.965181],[-60.479316,-23.965549],[-60.487907,-23.964752],[-60.489386,-23.966845],[-60.492047,-23.96973],[-60.496139,-23.972915],[-60.500164,-23.973162],[-60.505737,-23.970849],[-60.514255,-23.968479],[-60.5196,-23.968049],[-60.527631,-23.96789],[-60.533501,-23.967039],[-60.538714,-23.964734],[-60.543288,-23.963411],[-60.549302,-23.964678],[-60.552522,-23.964609],[-60.558248,-23.954057],[-60.560746,-23.953925],[-60.566787,-23.95633],[-60.57308,-23.958242],[-60.578351,-23.958544],[-60.585974,-23.956434],[-60.588338,-23.954591],[-60.593329,-23.924818],[-60.59433,-23.921944],[-60.593317,-23.920578],[-60.585356,-23.918137],[-60.589207,-23.915583],[-60.590711,-23.915434],[-60.59238,-23.91682],[-60.593814,-23.917539],[-60.595226,-23.917355],[-60.595749,-23.915731],[-60.597192,-23.914955],[-60.599922,-23.915566],[-60.602566,-23.916537],[-60.604398,-23.915793],[-60.605273,-23.914595],[-60.608081,-23.916818],[-60.609952,-23.917685],[-60.612665,-23.918378],[-60.61507,-23.919942],[-60.618332,-23.919599],[-60.621685,-23.917682],[-60.623594,-23.918432],[-60.624431,-23.921011],[-60.625735,-23.923303],[-60.627872,-23.924478],[-60.629615,-23.923615],[-60.630855,-23.919813],[-60.634328,-23.912352],[-60.636564,-23.910577],[-60.639914,-23.91043],[-60.641693,-23.908162],[-60.668681,-23.898972],[-60.677451,-23.895692],[-60.679781,-23.896858],[-60.683374,-23.899404],[-60.685273,-23.901703],[-60.68874,-23.903315],[-60.692577,-23.903236],[-60.694625,-23.901182],[-60.698516,-23.895662],[-60.702407,-23.893661],[-60.705749,-23.892329],[-60.709075,-23.890389],[-60.713532,-23.888753],[-60.717359,-23.886523],[-60.721356,-23.883682],[-60.723144,-23.883644],[-60.727571,-23.884904],[-60.729827,-23.885232],[-60.73254,-23.885266],[-60.733641,-23.88445],[-60.733973,-23.883463],[-60.732328,-23.880972],[-60.732355,-23.87994],[-60.733115,-23.878916],[-60.73423,-23.878519],[-60.736478,-23.878426],[-60.740635,-23.879086],[-60.741527,-23.877945],[-60.741343,-23.876734],[-60.740536,-23.875161],[-60.740763,-23.874035],[-60.741468,-23.8736],[-60.743203,-23.873471],[-60.744297,-23.874338],[-60.744632,-23.87746],[-60.74585,-23.877154],[-60.747512,-23.876185],[-60.749247,-23.876102],[-60.751563,-23.877869],[-60.753268,-23.878674],[-60.755051,-23.878356],[-60.755885,-23.87689],[-60.755345,-23.875687],[-60.755294,-23.873771],[-60.756665,-23.873323],[-60.759891,-23.873604],[-60.760211,-23.873054],[-60.760464,-23.87148],[-60.759702,-23.869576],[-60.760808,-23.865422],[-60.760957,-23.863503],[-60.761168,-23.862673],[-60.763994,-23.857646],[-60.76545,-23.855847],[-60.769421,-23.853458],[-60.771433,-23.851291],[-60.77332,-23.850247],[-60.773343,-23.849437],[-60.771985,-23.845394],[-60.771542,-23.842608],[-60.771796,-23.840513],[-60.773346,-23.837612],[-60.773541,-23.8351],[-60.779085,-23.832268],[-60.781131,-23.830757],[-60.781716,-23.829796],[-60.781641,-23.828858],[-60.780824,-23.8283],[-60.780882,-23.826528],[-60.779544,-23.820489],[-60.779563,-23.813023],[-60.780693,-23.79656],[-60.780909,-23.794414],[-60.7834,-23.79089],[-60.785391,-23.789129],[-60.768308,-23.777527],[-60.740664,-23.761415],[-60.715424,-23.745713],[-60.692926,-23.733395],[-60.688344,-23.728012],[-60.68294,-23.720613],[-60.679717,-23.715044],[-60.675586,-23.707457],[-60.673014,-23.700776],[-60.671569,-23.697829],[-60.672956,-23.677406],[-60.674927,-23.632165],[-60.675205,-23.59219],[-60.601665,-23.611015],[-60.595187,-23.602713],[-60.594079,-23.600854],[-60.59231,-23.596646],[-60.58553,-23.590633],[-60.579145,-23.58258],[-60.578945,-23.58208],[-60.580971,-23.574891],[-60.574146,-23.573317],[-60.571328,-23.572293],[-60.56889,-23.572341],[-60.565409,-23.573936],[-60.492345,-23.565713],[-60.46544,-23.563237],[-60.442015,-23.559862],[-60.371358,-23.55208],[-60.371457,-23.596955],[-60.373436,-23.609856],[-60.407038,-23.716952],[-60.372474,-23.78616],[-60.293887,-23.811698],[-59.945556,-23.823629],[-59.91924,-23.776126],[-59.717809,-23.804814],[-59.674821,-23.769255],[-59.674627,-23.774545],[-59.658206,-23.775993],[-59.659176,-23.782186],[-59.627143,-23.783511],[-59.571062,-23.784844],[-59.546173,-23.784869],[-59.545171,-23.776735],[-59.522547,-23.777909],[-59.529735,-23.720006],[-59.446487,-23.68326],[-59.444945,-23.68202],[-59.444723,-23.680942],[-59.443939,-23.680701],[-59.433313,-23.667502],[-59.43357,-23.66498],[-59.449998,-23.650175],[-59.461848,-23.633046],[-59.462437,-23.589725],[-59.46183,-23.456174],[-59.461506,-23.455758],[-59.391967,-23.46158],[-59.37634,-23.465264],[-59.352541,-23.465245],[-59.316022,-23.46405],[-59.29234,-23.46403],[-59.276675,-23.463334],[-59.268166,-23.458646],[-59.25524,-23.453832],[-59.234832,-23.451535],[-59.175383,-23.443132],[-59.174989,-23.446907],[-59.190558,-23.48591],[-59.188962,-23.487279],[-59.189234,-23.488957],[-59.188455,-23.48992],[-59.186038,-23.490973],[-59.185133,-23.490932],[-59.183925,-23.489795],[-59.182174,-23.490298],[-59.181573,-23.491352],[-59.181252,-23.493917],[-59.180492,-23.494548],[-59.176329,-23.496021],[-59.169859,-23.49972],[-59.164083,-23.499286],[-59.158409,-23.501429],[-59.156418,-23.503001],[-59.152103,-23.505631],[-59.142093,-23.510835],[-59.139808,-23.511227],[-59.136199,-23.510812],[-59.134073,-23.509961],[-59.129722,-23.506593],[-59.125348,-23.505226],[-59.123726,-23.504985],[-59.121469,-23.505123],[-59.080985,-23.558866],[-59.077755,-23.570071],[-59.200613,-23.59419],[-59.143186,-23.729509],[-59.137961,-23.744677],[-59.121546,-23.781618],[-59.122465,-23.803544],[-59.109242,-23.866999],[-59.10678,-23.877339],[-59.105794,-23.883424],[-59.102316,-23.899872],[-59.100736,-23.905783],[-59.089975,-23.923055],[-59.083824,-23.935649],[-59.083679,-23.942259],[-59.085716,-23.946309],[-59.084564,-23.948228],[-59.082956,-23.949581],[-59.082747,-23.952816],[-59.08203,-23.956236],[-59.080638,-24.022944],[-59.080279,-24.062755],[-59.141745,-24.062823],[-59.152958,-24.062435],[-59.159614,-24.095081],[-59.159622,-24.110419],[-59.166417,-24.113988],[-59.180943,-24.117442],[-59.18422,-24.119458],[-59.191663,-24.131715],[-59.191963,-24.134685],[-59.191071,-24.140882],[-59.190475,-24.149819],[-59.18771,-24.177745],[-59.256482,-24.180615],[-59.261327,-24.178422],[-59.27853,-24.177457],[-59.314614,-24.17597],[-59.342938,-24.176382],[-59.342857,-24.221629],[-59.34179,-24.223141],[-59.341637,-24.225292],[-59.340813,-24.227716],[-59.340405,-24.228565],[-59.339002,-24.22921],[-59.337893,-24.230531],[-59.337858,-24.231969],[-59.3367,-24.232654],[-59.335207,-24.232509],[-59.333832,-24.230963],[-59.332554,-24.230402],[-59.331266,-24.230294],[-59.329814,-24.230604],[-59.328988,-24.23159],[-59.328768,-24.23608],[-59.328148,-24.237486],[-59.32671,-24.239491],[-59.324887,-24.240294],[-59.320082,-24.240692],[-59.318101,-24.241834],[-59.316697,-24.24331],[-59.316443,-24.24492],[-59.319319,-24.245888],[-59.320636,-24.247272],[-59.320788,-24.248006],[-59.320435,-24.249115],[-59.319484,-24.249701],[-59.318782,-24.250784],[-59.318659,-24.254983],[-59.317507,-24.256752],[-59.316362,-24.256943],[-59.315557,-24.256649],[-59.312478,-24.253773],[-59.310729,-24.251164],[-59.309035,-24.25078],[-59.308263,-24.250833],[-59.306763,-24.251568],[-59.305888,-24.252619],[-59.302854,-24.254918],[-59.302334,-24.257045],[-59.30413,-24.258288],[-59.303699,-24.259153],[-59.302345,-24.259542],[-59.300732,-24.259585],[-59.299717,-24.260071],[-59.29937,-24.261234],[-59.299812,-24.262632],[-59.300496,-24.263016],[-59.301278,-24.266669],[-59.30082,-24.267715],[-59.298677,-24.26781],[-59.298255,-24.268185],[-59.298179,-24.269315],[-59.298881,-24.270646],[-59.298803,-24.271605],[-59.296992,-24.273087],[-59.298615,-24.273913],[-59.303505,-24.284944],[-59.26328,-24.302254],[-59.245261,-24.315618],[-59.213934,-24.366023],[-59.260261,-24.427177],[-59.283596,-24.480508],[-59.285344,-24.493146],[-59.297815,-24.487875],[-59.300283,-24.49069],[-59.303985,-24.487573],[-59.315627,-24.49785],[-59.316213,-24.496451],[-59.317487,-24.495546],[-59.318007,-24.494516],[-59.319283,-24.493213],[-59.319779,-24.491976],[-59.321562,-24.492408],[-59.323924,-24.491872],[-59.325118,-24.492742],[-59.3278,-24.492981],[-59.33154,-24.491067],[-59.333006,-24.491087],[-59.333548,-24.489306],[-59.334548,-24.489448],[-59.335947,-24.490138],[-59.337553,-24.489677],[-59.339397,-24.490203],[-59.342166,-24.489223],[-59.344394,-24.486371],[-59.34795,-24.484766],[-59.350673,-24.482955],[-59.351874,-24.481517],[-59.352316,-24.478562],[-59.353445,-24.478476],[-59.35385,-24.478106],[-59.352695,-24.475485],[-59.352731,-24.474174],[-59.353413,-24.472814],[-59.354324,-24.471937],[-59.354396,-24.470799],[-59.355323,-24.468262],[-59.35619,-24.464267],[-59.35599,-24.462744],[-59.357039,-24.462012],[-59.357747,-24.460677],[-59.357462,-24.45937],[-59.359144,-24.458769],[-59.358988,-24.458352],[-59.357973,-24.457961],[-59.358537,-24.456859],[-59.358846,-24.454948],[-59.358692,-24.454034],[-59.361343,-24.451931],[-59.363298,-24.451225],[-59.36393,-24.450185],[-59.36451,-24.450112],[-59.365274,-24.450549],[-59.365615,-24.450398],[-59.365297,-24.449288],[-59.365929,-24.448736],[-59.366822,-24.445521],[-59.366349,-24.441607],[-59.366649,-24.441253],[-59.367673,-24.441485],[-59.36787,-24.44039],[-59.368985,-24.438789],[-59.369865,-24.438057],[-59.36943,-24.436803],[-59.369559,-24.436321],[-59.368993,-24.435386],[-59.371346,-24.43394],[-59.371609,-24.433312],[-59.37324,-24.431848],[-59.373205,-24.431089],[-59.372193,-24.430833],[-59.373456,-24.429137],[-59.373188,-24.42792],[-59.373643,-24.425343],[-59.372781,-24.423763],[-59.373098,-24.422989],[-59.375267,-24.420769],[-59.37622,-24.42036],[-59.378726,-24.420227],[-59.38016,-24.421204],[-59.383207,-24.420252],[-59.383898,-24.420555],[-59.38519,-24.419233],[-59.387608,-24.417677],[-59.388561,-24.4166],[-59.392949,-24.414224],[-59.393307,-24.413145],[-59.395253,-24.413293],[-59.397849,-24.412137],[-59.398876,-24.412142],[-59.400471,-24.411221],[-59.401351,-24.411583],[-59.402142,-24.412592],[-59.404141,-24.41252],[-59.405103,-24.411974],[-59.405872,-24.41214],[-59.408604,-24.411473],[-59.410208,-24.412043],[-59.411397,-24.411943],[-59.412366,-24.412446],[-59.412949,-24.412318],[-59.414228,-24.410859],[-59.415503,-24.410297],[-59.420852,-24.409224],[-59.422444,-24.407154],[-59.423072,-24.400916],[-59.424638,-24.39729],[-59.427473,-24.394303],[-59.430611,-24.393608],[-59.434374,-24.392332],[-59.437692,-24.391797],[-59.440643,-24.390448],[-59.445249,-24.384262],[-59.44674,-24.381537],[-59.447509,-24.378821],[-59.449641,-24.376991],[-59.457218,-24.372223],[-59.458608,-24.369009],[-59.459019,-24.366463],[-59.458152,-24.362786],[-59.458013,-24.35951],[-59.459489,-24.35579],[-59.459845,-24.355539],[-59.462812,-24.35542],[-59.467274,-24.353067],[-59.470726,-24.349418],[-59.472122,-24.346614],[-59.469216,-24.338948],[-59.471059,-24.335975],[-59.475241,-24.333053],[-59.478285,-24.332195],[-59.48282,-24.328859],[-59.531928,-24.299828],[-59.546269,-24.291693],[-59.564177,-24.281061],[-59.568532,-24.278136],[-59.577534,-24.273343],[-59.599068,-24.260598],[-59.632473,-24.241517],[-59.647156,-24.232462],[-59.728976,-24.184754],[-59.748925,-24.173959],[-59.773602,-24.158861],[-59.782402,-24.154394],[-59.817937,-24.134799],[-59.842362,-24.122156],[-59.859848,-24.112112],[-59.869795,-24.106965],[-59.885317,-24.098383],[-59.895851,-24.091511],[-59.923904,-24.075349],[-59.937071,-24.067054],[-59.948077,-24.061644],[-59.959428,-24.055573],[-59.997801,-24.03196],[-60.007388,-24.027714],[-60.020802,-24.022423],[-60.02931,-24.018196],[-60.037035,-24.015126]]]}}]}
