{"type":"FeatureCollection","name":"distrito","features":[{"type":"Feature","properties":{"clave":"12-7","nombre":"Gral. José Eduvigis Díaz"},"geometry":{"type":"Polygon","coordinates":[[[-58.317592,-27.274581],[-58.333871,-27.27702],[-58.34806,-27.281141],[-58.356904,-27.28325],[-58.363002,-27.28352],[-58.366461,-27.28309],[-58.377539,-27.283405],[-58.397512,-27.285216],[-58.404078,-27.286609],[-58.411411,-27.289861],[-58.414577,-27.290178],[-58.416816,-27.290121],[-58.418088,-27.289735],[-58.420105,-27.288827],[-58.426469,-27.287104],[-58.431368,-27.285078],[-58.413698,-27.223172],[-58.416833,-27.21267],[-58.41772,-27.207819],[-58.422449,-27.203718],[-58.429402,-27.199594],[-58.429626,-27.197346],[-58.41731,-27.156237],[-58.400158,-27.153292],[-58.387952,-27.07085],[-58.374123,-27.073871],[-58.360949,-27.035023],[-58.361781,-27.034558],[-58.366712,-27.028579],[-58.367105,-27.027989],[-58.367093,-27.026929],[-58.362809,-27.02808],[-58.361844,-27.027583],[-58.360764,-27.028298],[-58.360425,-27.026613],[-58.359898,-27.026],[-58.358855,-27.026254],[-58.358198,-27.027452],[-58.358231,-27.028223],[-58.356745,-27.028143],[-58.355758,-27.027398],[-58.354081,-27.029125],[-58.353212,-27.028195],[-58.351462,-27.029218],[-58.351042,-27.029078],[-58.351219,-27.028227],[-58.35093,-27.027995],[-58.349807,-27.027984],[-58.348487,-27.02838],[-58.347257,-27.027579],[-58.345199,-27.027793],[-58.344677,-27.028263],[-58.344598,-27.029649],[-58.344318,-27.030009],[-58.339218,-27.031506],[-58.337363,-27.031474],[-58.337152,-27.028998],[-58.336602,-27.029568],[-58.333842,-27.030131],[-58.333364,-27.030641],[-58.332552,-27.030572],[-58.331644,-27.029583],[-58.331232,-27.029578],[-58.32922,-27.030247],[-58.328102,-27.031386],[-58.326279,-27.031908],[-58.325346,-27.031655],[-58.325085,-27.031017],[-58.323481,-27.029669],[-58.322359,-27.029332],[-58.320905,-27.03097],[-58.320727,-27.032769],[-58.319539,-27.033475],[-58.318421,-27.033672],[-58.307461,-27.050896],[-58.255656,-27.055887],[-58.259243,-27.06663],[-58.285707,-27.138853],[-58.285652,-27.171102],[-58.281147,-27.18518],[-58.27654,-27.264893],[-58.276301,-27.265032],[-58.281433,-27.271908],[-58.283782,-27.274543],[-58.286155,-27.276465],[-58.290445,-27.278815],[-58.291552,-27.279121],[-58.294124,-27.279179],[-58.298661,-27.278366],[-58.301781,-27.276709],[-58.305737,-27.275243],[-58.311316,-27.274666],[-58.317592,-27.274581]]]}}]}
