{"type":"FeatureCollection","name":"distrito","features":[{"type":"Feature","properties":{"clave":"3-35","nombre":"Tobatí"},"geometry":{"type":"Polygon","coordinates":[[[-57.110896,-25.311374],[-57.111213,-25.311034],[-57.11238,-25.311223],[-57.112795,-25.310144],[-57.113405,-25.30952],[-57.114084,-25.309407],[-57.1146,-25.308634],[-57.116311,-25.307662],[-57.117637,-25.305697],[-57.118559,-25.305199],[-57.119884,-25.303424],[-57.124334,-25.302924],[-57.127581,-25.303789],[-57.129629,-25.304682],[-57.129733,-25.294895],[-57.12878,-25.287369],[-57.128263,-25.285807],[-57.127807,-25.285446],[-57.127738,-25.284696],[-57.127812,-25.283735],[-57.128399,-25.283093],[-57.128239,-25.281395],[-57.128804,-25.280704],[-57.129522,-25.278762],[-57.129483,-25.27682],[-57.128654,-25.275656],[-57.128655,-25.273904],[-57.127802,-25.271525],[-57.128071,-25.270563],[-57.129092,-25.269849],[-57.128932,-25.26839],[-57.12916,-25.267388],[-57.12882,-25.267],[-57.129766,-25.26461],[-57.130636,-25.259891],[-57.12737,-25.251875],[-57.123234,-25.248097],[-57.1134,-25.234366],[-57.111847,-25.234263],[-57.109997,-25.233484],[-57.108064,-25.232176],[-57.108676,-25.230161],[-57.106986,-25.22753],[-57.106134,-25.225133],[-57.104449,-25.224272],[-57.103522,-25.223419],[-57.101383,-25.223416],[-57.100323,-25.222861],[-57.100274,-25.221751],[-57.100681,-25.220874],[-57.100277,-25.220035],[-57.099385,-25.219548],[-57.099117,-25.218965],[-57.100223,-25.216553],[-57.09856,-25.214992],[-57.099118,-25.213628],[-57.098619,-25.212626],[-57.097742,-25.211791],[-57.098904,-25.210838],[-57.099715,-25.209695],[-57.101684,-25.210231],[-57.102771,-25.20976],[-57.104088,-25.209696],[-57.104755,-25.209276],[-57.10461,-25.207357],[-57.105862,-25.205523],[-57.105987,-25.20336],[-57.106462,-25.202127],[-57.106293,-25.200957],[-57.10775,-25.199475],[-57.108997,-25.199483],[-57.109732,-25.199122],[-57.11022,-25.197992],[-57.111367,-25.196605],[-57.111378,-25.195607],[-57.111941,-25.194546],[-57.111795,-25.193056],[-57.11252,-25.192066],[-57.112204,-25.191658],[-57.120731,-25.154212],[-57.121474,-25.15422],[-57.122554,-25.152946],[-57.123806,-25.152728],[-57.123904,-25.152109],[-57.124743,-25.151607],[-57.125635,-25.14901],[-57.126968,-25.149172],[-57.129607,-25.147557],[-57.129825,-25.146266],[-57.130444,-25.145836],[-57.130841,-25.144933],[-57.130804,-25.144075],[-57.131705,-25.14327],[-57.130874,-25.142458],[-57.131001,-25.141248],[-57.129213,-25.14041],[-57.128005,-25.140542],[-57.127445,-25.139693],[-57.125097,-25.139555],[-57.124678,-25.138702],[-57.124237,-25.138603],[-57.123779,-25.138857],[-57.124098,-25.139827],[-57.123871,-25.140455],[-57.122509,-25.140303],[-57.121815,-25.139481],[-57.120061,-25.139465],[-57.117835,-25.141214],[-57.1176,-25.141693],[-57.116344,-25.141802],[-57.115342,-25.142598],[-57.113035,-25.142906],[-57.110714,-25.142109],[-57.109562,-25.14327],[-57.107642,-25.144197],[-57.10714,-25.145304],[-57.105714,-25.144081],[-57.10338,-25.145004],[-57.102117,-25.143461],[-57.063979,-25.130684],[-57.033295,-25.119491],[-57.027769,-25.116799],[-57.029569,-25.114815],[-57.028594,-25.112246],[-57.028081,-25.111808],[-57.027372,-25.108968],[-57.027346,-25.105803],[-57.027806,-25.103757],[-57.027799,-25.101454],[-57.026603,-25.097273],[-57.017188,-25.103172],[-56.987101,-25.13059],[-56.985192,-25.132464],[-56.980413,-25.140262],[-56.97996,-25.141702],[-56.98019,-25.142348],[-56.979874,-25.143919],[-56.980028,-25.145775],[-56.978187,-25.151265],[-56.98407,-25.156007],[-56.981572,-25.157556],[-56.974932,-25.165958],[-56.971853,-25.167515],[-56.970123,-25.167921],[-56.967678,-25.169235],[-56.966101,-25.168481],[-56.963466,-25.171356],[-56.963666,-25.172318],[-56.972614,-25.183049],[-56.975763,-25.18754],[-56.975814,-25.190009],[-56.97246,-25.191848],[-56.966521,-25.19413],[-56.962502,-25.194711],[-56.958432,-25.196852],[-56.94939,-25.209356],[-56.942515,-25.220557],[-56.945514,-25.222027],[-56.943799,-25.23113],[-56.942921,-25.237848],[-56.945256,-25.238892],[-56.946383,-25.238744],[-56.947018,-25.239268],[-56.950378,-25.240127],[-56.949401,-25.244252],[-56.949872,-25.245283],[-56.959051,-25.246752],[-56.960513,-25.247222],[-56.960684,-25.249158],[-56.962265,-25.249939],[-56.963824,-25.247997],[-56.964935,-25.247545],[-56.967236,-25.248946],[-56.987358,-25.248633],[-56.988225,-25.248858],[-56.989608,-25.245418],[-56.990744,-25.245002],[-56.991951,-25.245119],[-56.993055,-25.245862],[-56.993906,-25.247316],[-56.994918,-25.248278],[-57.002509,-25.251123],[-57.004182,-25.252511],[-57.005999,-25.252809],[-57.007468,-25.252225],[-57.007437,-25.251459],[-57.008181,-25.251641],[-57.008893,-25.251129],[-57.010045,-25.2509],[-57.009469,-25.250599],[-57.009002,-25.248994],[-57.011423,-25.247617],[-57.011546,-25.246637],[-57.012733,-25.247152],[-57.014536,-25.248958],[-57.014769,-25.250353],[-57.016557,-25.251956],[-57.017427,-25.253608],[-57.01894,-25.254583],[-57.018365,-25.25573],[-57.018119,-25.257591],[-57.018555,-25.258069],[-57.020412,-25.258836],[-57.022321,-25.262272],[-57.022227,-25.263595],[-57.02294,-25.264607],[-57.022657,-25.265284],[-57.022155,-25.265298],[-57.020812,-25.266702],[-57.019974,-25.268034],[-57.020488,-25.26957],[-57.020344,-25.271498],[-57.019862,-25.271836],[-57.018541,-25.271371],[-57.018199,-25.272098],[-57.018744,-25.27288],[-57.019747,-25.273439],[-57.020003,-25.274401],[-57.021133,-25.274609],[-57.021027,-25.275467],[-57.018776,-25.277499],[-57.019282,-25.278966],[-57.020629,-25.279363],[-57.020978,-25.281328],[-57.021655,-25.282813],[-57.021184,-25.286353],[-57.02152,-25.28745],[-57.021287,-25.28876],[-57.023937,-25.291465],[-57.022853,-25.294779],[-57.02342,-25.296208],[-57.02257,-25.297652],[-57.022468,-25.298898],[-57.021929,-25.299816],[-57.02248,-25.300881],[-57.023577,-25.302026],[-57.023656,-25.302565],[-57.023071,-25.303349],[-57.02305,-25.304001],[-57.024069,-25.305241],[-57.02312,-25.306074],[-57.023473,-25.307402],[-57.022979,-25.309632],[-57.023302,-25.310462],[-57.023989,-25.310735],[-57.024896,-25.311683],[-57.026137,-25.311863],[-57.026785,-25.312696],[-57.027744,-25.313175],[-57.029859,-25.313643],[-57.030365,-25.31284],[-57.031109,-25.312772],[-57.031917,-25.312062],[-57.033125,-25.312944],[-57.033538,-25.31396],[-57.034258,-25.314023],[-57.034442,-25.314319],[-57.035703,-25.313793],[-57.036603,-25.314063],[-57.036949,-25.315181],[-57.038426,-25.316078],[-57.039547,-25.316486],[-57.040506,-25.316428],[-57.040964,-25.316978],[-57.041428,-25.316781],[-57.041353,-25.31712],[-57.041995,-25.317309],[-57.041889,-25.318065],[-57.042679,-25.31893],[-57.045162,-25.319231],[-57.046072,-25.319785],[-57.046454,-25.32057],[-57.04758,-25.320811],[-57.048414,-25.321695],[-57.048604,-25.323024],[-57.049164,-25.323369],[-57.050831,-25.32334],[-57.052644,-25.325318],[-57.053938,-25.325856],[-57.054582,-25.327172],[-57.05507,-25.327441],[-57.055667,-25.327101],[-57.056963,-25.327129],[-57.057214,-25.327466],[-57.058829,-25.327071],[-57.060536,-25.32778],[-57.060684,-25.328342],[-57.060448,-25.32864],[-57.061113,-25.329542],[-57.061611,-25.329671],[-57.061791,-25.330111],[-57.062728,-25.330065],[-57.062936,-25.330842],[-57.065115,-25.333867],[-57.066125,-25.333947],[-57.066854,-25.333384],[-57.067965,-25.333455],[-57.06833,-25.332979],[-57.06933,-25.33282],[-57.071504,-25.333021],[-57.072285,-25.332247],[-57.072486,-25.328641],[-57.073053,-25.327565],[-57.072893,-25.326829],[-57.070926,-25.324761],[-57.073718,-25.322266],[-57.076201,-25.322742],[-57.078188,-25.323766],[-57.079186,-25.323942],[-57.080144,-25.324662],[-57.081294,-25.324588],[-57.081472,-25.32291],[-57.08546,-25.322493],[-57.085083,-25.320363],[-57.085551,-25.318828],[-57.084988,-25.318061],[-57.084703,-25.313544],[-57.086297,-25.312691],[-57.092179,-25.310212],[-57.094193,-25.310613],[-57.094368,-25.310202],[-57.095675,-25.310147],[-57.09641,-25.309583],[-57.096398,-25.309949],[-57.097589,-25.309688],[-57.097759,-25.309929],[-57.098092,-25.309693],[-57.099153,-25.310217],[-57.100337,-25.310141],[-57.100282,-25.311253],[-57.100993,-25.311312],[-57.101887,-25.312013],[-57.102069,-25.311677],[-57.102462,-25.312001],[-57.103364,-25.311492],[-57.105082,-25.312557],[-57.107593,-25.310643],[-57.110896,-25.311374]]]}}]}
