{"type":"FeatureCollection","name":"distrito","features":[{"type":"Feature","properties":{"clave":"10-30","nombre":"Santa Fe del Paraná"},"geometry":{"type":"Polygon","coordinates":[[[-54.701444,-25.246099],[-54.723494,-25.282484],[-54.73161,-25.279463],[-54.73473,-25.278744],[-54.73747,-25.278547],[-54.822136,-25.280273],[-54.827697,-25.280084],[-54.83127,-25.278769],[-54.874878,-25.253366],[-54.872725,-25.251092],[-54.870987,-25.246039],[-54.869384,-25.244098],[-54.870364,-25.241056],[-54.868168,-25.236782],[-54.866095,-25.231381],[-54.864743,-25.229561],[-54.864662,-25.228291],[-54.863892,-25.227251],[-54.866709,-25.213142],[-54.866528,-25.212453],[-54.83969,-25.188544],[-54.776192,-25.13028],[-54.761076,-25.121279],[-54.759875,-25.123433],[-54.742277,-25.118419],[-54.742358,-25.118236],[-54.747115,-25.118657],[-54.743304,-25.116776],[-54.740952,-25.116817],[-54.74,-25.115976],[-54.738842,-25.115634],[-54.730248,-25.114288],[-54.724697,-25.113016],[-54.72322,-25.112411],[-54.718417,-25.108871],[-54.716682,-25.106024],[-54.71629,-25.104663],[-54.714919,-25.103812],[-54.713322,-25.101063],[-54.706157,-25.09178],[-54.704443,-25.091538],[-54.698578,-25.089314],[-54.693723,-25.087815],[-54.688691,-25.088564],[-54.683944,-25.090432],[-54.680232,-25.093192],[-54.675128,-25.096297],[-54.671784,-25.09777],[-54.669211,-25.091979],[-54.662358,-25.088267],[-54.657218,-25.081557],[-54.653221,-25.077988],[-54.648795,-25.076274],[-54.641085,-25.075989],[-54.633661,-25.0807],[-54.622954,-25.088981],[-54.617529,-25.090694],[-54.61139,-25.086268],[-54.607678,-25.080843],[-54.604822,-25.078702],[-54.59697,-25.079844],[-54.592973,-25.080129],[-54.587262,-25.079701],[-54.574698,-25.074847],[-54.56599,-25.074133],[-54.55157,-25.077131],[-54.544574,-25.078987],[-54.534152,-25.073705],[-54.529155,-25.075989],[-54.521589,-25.085983],[-54.512023,-25.089695],[-54.504028,-25.091551],[-54.491322,-25.096405],[-54.486325,-25.094263],[-54.485326,-25.085983],[-54.482042,-25.073705],[-54.482042,-25.070992],[-54.481471,-25.067137],[-54.474904,-25.069564],[-54.456479,-25.084967],[-54.45497,-25.089816],[-54.427024,-25.118643],[-54.41753,-25.136632],[-54.417017,-25.161004],[-54.433116,-25.181514],[-54.454994,-25.198489],[-54.469491,-25.214302],[-54.481741,-25.256266],[-54.487286,-25.291636],[-54.501776,-25.30848],[-54.511641,-25.328358],[-54.531345,-25.342776],[-54.537325,-25.336445],[-54.541729,-25.328812],[-54.54166,-25.321365],[-54.54302,-25.304739],[-54.554826,-25.289567],[-54.560545,-25.288875],[-54.570759,-25.289682],[-54.578968,-25.291757],[-54.615101,-25.286246],[-54.626607,-25.282995],[-54.629605,-25.280366],[-54.630896,-25.275524],[-54.631565,-25.267062],[-54.636569,-25.257677],[-54.645054,-25.257861],[-54.649159,-25.256616],[-54.652225,-25.250828],[-54.676921,-25.26132],[-54.682202,-25.262035],[-54.685992,-25.259696],[-54.686567,-25.259755],[-54.68798,-25.260729],[-54.689091,-25.260079],[-54.689531,-25.260402],[-54.690574,-25.259344],[-54.691593,-25.258895],[-54.692573,-25.256392],[-54.694673,-25.254579],[-54.695733,-25.253183],[-54.696333,-25.253323],[-54.697552,-25.250494],[-54.700195,-25.246876],[-54.701444,-25.246099]]]}}]}
