{"type":"FeatureCollection","name":"distrito","features":[{"type":"Feature","properties":{"clave":"2-27","nombre":"Unión"},"geometry":{"type":"Polygon","coordinates":[[[-56.427106,-24.944059],[-56.51948,-25.003886],[-56.529874,-25.003373],[-56.545367,-25.00315],[-56.548132,-25.002373],[-56.549637,-25.001569],[-56.550371,-25.001549],[-56.553262,-24.999937],[-56.554616,-24.999905],[-56.55643,-24.998722],[-56.558194,-24.998253],[-56.558616,-24.997568],[-56.561772,-24.997573],[-56.562554,-24.997187],[-56.564274,-24.997165],[-56.564893,-24.997682],[-56.566642,-24.996955],[-56.567788,-24.996823],[-56.568602,-24.99595],[-56.569827,-24.995294],[-56.571948,-24.994916],[-56.574415,-24.993347],[-56.576376,-24.993068],[-56.576946,-24.992339],[-56.577963,-24.992346],[-56.578282,-24.991543],[-56.5793,-24.991108],[-56.580558,-24.989265],[-56.580974,-24.988123],[-56.581866,-24.988316],[-56.583267,-24.987678],[-56.585662,-24.988019],[-56.586691,-24.987367],[-56.589459,-24.987158],[-56.589778,-24.986224],[-56.591165,-24.986255],[-56.592243,-24.986814],[-56.593653,-24.985783],[-56.595035,-24.986456],[-56.597517,-24.985929],[-56.598459,-24.986361],[-56.599945,-24.986053],[-56.600966,-24.98658],[-56.603332,-24.986207],[-56.604048,-24.985021],[-56.605115,-24.984509],[-56.605215,-24.98329],[-56.606198,-24.983036],[-56.606822,-24.982374],[-56.608217,-24.981686],[-56.609398,-24.981667],[-56.611959,-24.980378],[-56.61385,-24.980188],[-56.616756,-24.977997],[-56.617082,-24.976964],[-56.616915,-24.975753],[-56.618692,-24.973527],[-56.618573,-24.970555],[-56.617141,-24.970389],[-56.616962,-24.969576],[-56.617938,-24.96882],[-56.619671,-24.968355],[-56.621246,-24.968318],[-56.622056,-24.968763],[-56.6227,-24.968706],[-56.622278,-24.967436],[-56.624371,-24.966764],[-56.624195,-24.965973],[-56.624577,-24.964246],[-56.632658,-24.95885],[-56.633632,-24.957785],[-56.684737,-24.868785],[-56.684547,-24.867913],[-56.68315,-24.866602],[-56.681318,-24.862362],[-56.680881,-24.859808],[-56.680974,-24.856678],[-56.681687,-24.851557],[-56.6832,-24.847013],[-56.683605,-24.842016],[-56.683463,-24.837796],[-56.684428,-24.834123],[-56.685244,-24.821636],[-56.685887,-24.817137],[-56.687431,-24.81002],[-56.684287,-24.808959],[-56.680848,-24.806182],[-56.677848,-24.805146],[-56.676179,-24.803803],[-56.670399,-24.802716],[-56.668761,-24.803024],[-56.66784,-24.802742],[-56.66651,-24.802801],[-56.665792,-24.803422],[-56.664085,-24.80373],[-56.655644,-24.802418],[-56.654655,-24.802509],[-56.650128,-24.804539],[-56.648492,-24.80413],[-56.647944,-24.804783],[-56.645244,-24.806302],[-56.644323,-24.806269],[-56.642853,-24.8072],[-56.641175,-24.807158],[-56.640607,-24.808696],[-56.64105,-24.813867],[-56.64018,-24.815631],[-56.637784,-24.813914],[-56.63688,-24.813632],[-56.636125,-24.813892],[-56.635783,-24.813055],[-56.635137,-24.812973],[-56.634682,-24.81257],[-56.632862,-24.812506],[-56.630582,-24.810591],[-56.627749,-24.810769],[-56.626266,-24.810408],[-56.624798,-24.809524],[-56.625141,-24.808608],[-56.624508,-24.807902],[-56.621217,-24.808102],[-56.619498,-24.806404],[-56.618113,-24.805497],[-56.617111,-24.805278],[-56.615632,-24.803843],[-56.614675,-24.803312],[-56.612566,-24.80342],[-56.611194,-24.803091],[-56.60967,-24.803678],[-56.608426,-24.803084],[-56.607263,-24.80369],[-56.605036,-24.803617],[-56.602984,-24.802288],[-56.601099,-24.802166],[-56.599855,-24.800916],[-56.59752,-24.801583],[-56.597062,-24.801554],[-56.596685,-24.801102],[-56.593857,-24.800941],[-56.593224,-24.800252],[-56.593324,-24.798889],[-56.591285,-24.797244],[-56.59149,-24.796301],[-56.59104,-24.795799],[-56.584955,-24.795479],[-56.582227,-24.795973],[-56.578895,-24.795991],[-56.577999,-24.795659],[-56.576662,-24.794607],[-56.574915,-24.794169],[-56.573621,-24.793339],[-56.571008,-24.79283],[-56.569784,-24.792971],[-56.568992,-24.791709],[-56.564482,-24.789167],[-56.563131,-24.787456],[-56.563033,-24.785722],[-56.560762,-24.781276],[-56.559928,-24.780208],[-56.558576,-24.779301],[-56.556078,-24.778314],[-56.554015,-24.778069],[-56.553312,-24.776567],[-56.553192,-24.774995],[-56.551467,-24.773992],[-56.551452,-24.77285],[-56.550938,-24.771656],[-56.547635,-24.769768],[-56.546818,-24.770009],[-56.545585,-24.771762],[-56.543947,-24.771247],[-56.542596,-24.771694],[-56.541227,-24.77104],[-56.539592,-24.770917],[-56.538868,-24.770441],[-56.537924,-24.770953],[-56.536223,-24.771205],[-56.535298,-24.770818],[-56.533526,-24.770709],[-56.530502,-24.772759],[-56.523623,-24.775424],[-56.522891,-24.775485],[-56.521274,-24.774662],[-56.519671,-24.774467],[-56.518113,-24.772566],[-56.516815,-24.77001],[-56.515615,-24.768864],[-56.512509,-24.767075],[-56.509828,-24.764573],[-56.507716,-24.764255],[-56.506689,-24.762874],[-56.504244,-24.761728],[-56.502607,-24.760219],[-56.501054,-24.757207],[-56.500505,-24.7538],[-56.499711,-24.752081],[-56.498352,-24.750528],[-56.497894,-24.748648],[-56.493854,-24.744629],[-56.492914,-24.742309],[-56.489891,-24.739974],[-56.487116,-24.735832],[-56.484351,-24.732427],[-56.482535,-24.729088],[-56.481451,-24.728326],[-56.479532,-24.728039],[-56.478959,-24.727676],[-56.47807,-24.723943],[-56.474817,-24.719728],[-56.473488,-24.719096],[-56.468577,-24.718171],[-56.467133,-24.718062],[-56.466215,-24.718487],[-56.464214,-24.718661],[-56.463365,-24.717077],[-56.462351,-24.716618],[-56.458793,-24.717309],[-56.457872,-24.716823],[-56.457925,-24.715992],[-56.458638,-24.715213],[-56.458952,-24.713995],[-56.458579,-24.713068],[-56.456061,-24.711917],[-56.453623,-24.711312],[-56.450583,-24.711278],[-56.448833,-24.710057],[-56.444944,-24.708742],[-56.44412,-24.708175],[-56.440758,-24.707178],[-56.438978,-24.707135],[-56.43696,-24.708207],[-56.434583,-24.708798],[-56.433446,-24.709566],[-56.429037,-24.71053],[-56.418195,-24.745574],[-56.405697,-24.782902],[-56.40799,-24.783112],[-56.412522,-24.784624],[-56.414111,-24.785746],[-56.414435,-24.787269],[-56.41594,-24.788034],[-56.417963,-24.788534],[-56.419998,-24.789779],[-56.422866,-24.790345],[-56.429472,-24.792398],[-56.430597,-24.8035],[-56.434353,-24.822693],[-56.436421,-24.825446],[-56.437195,-24.827824],[-56.437785,-24.83232],[-56.436885,-24.832664],[-56.391188,-24.887284],[-56.394511,-24.891737],[-56.395233,-24.895533],[-56.396629,-24.898333],[-56.396907,-24.900001],[-56.398755,-24.902934],[-56.398987,-24.904168],[-56.398461,-24.905525],[-56.398508,-24.907724],[-56.397772,-24.90801],[-56.395564,-24.909848],[-56.394578,-24.910065],[-56.392755,-24.912026],[-56.392164,-24.913324],[-56.392443,-24.914337],[-56.393271,-24.914765],[-56.39331,-24.916278],[-56.395458,-24.917853],[-56.396518,-24.919271],[-56.397482,-24.919559],[-56.399999,-24.921714],[-56.400439,-24.924538],[-56.401501,-24.925861],[-56.401024,-24.929223],[-56.401495,-24.930146],[-56.40283,-24.931204],[-56.403438,-24.931468],[-56.405762,-24.931509],[-56.40624,-24.933145],[-56.406964,-24.933667],[-56.412715,-24.935731],[-56.413166,-24.935611],[-56.414574,-24.934185],[-56.415332,-24.93301],[-56.419162,-24.933246],[-56.419934,-24.933533],[-56.421598,-24.937048],[-56.424034,-24.93885],[-56.427106,-24.944059]]]}}]}
