{"type":"FeatureCollection","name":"distrito","features":[{"type":"Feature","properties":{"clave":"6-5","nombre":"Dr. Moisés S. Bertoni"},"geometry":{"type":"Polygon","coordinates":[[[-56.805035,-26.489874],[-56.804181,-26.489103],[-56.804365,-26.48711],[-56.80392,-26.486535],[-56.799914,-26.484536],[-56.799567,-26.483821],[-56.799803,-26.483203],[-56.801099,-26.482111],[-56.801257,-26.481049],[-56.800812,-26.480507],[-56.798755,-26.479583],[-56.798287,-26.479062],[-56.797951,-26.478184],[-56.798134,-26.476928],[-56.797499,-26.475052],[-56.796561,-26.474596],[-56.795898,-26.474736],[-56.794029,-26.476694],[-56.793004,-26.477234],[-56.792391,-26.477049],[-56.791754,-26.476203],[-56.791695,-26.475683],[-56.792274,-26.475261],[-56.795864,-26.473728],[-56.796601,-26.472201],[-56.796626,-26.471508],[-56.796483,-26.471096],[-56.795869,-26.470846],[-56.7928,-26.470343],[-56.791778,-26.469832],[-56.790684,-26.468802],[-56.789255,-26.466806],[-56.787064,-26.461461],[-56.787209,-26.460999],[-56.788208,-26.460181],[-56.789538,-26.46002],[-56.791978,-26.46024],[-56.792765,-26.459418],[-56.792648,-26.458389],[-56.791776,-26.457783],[-56.787827,-26.458357],[-56.787069,-26.458242],[-56.785834,-26.457615],[-56.785141,-26.45646],[-56.785985,-26.453934],[-56.788178,-26.454108],[-56.788874,-26.453995],[-56.789434,-26.453427],[-56.78951,-26.451558],[-56.789096,-26.450834],[-56.787609,-26.44954],[-56.787837,-26.448427],[-56.789597,-26.448446],[-56.79032,-26.447976],[-56.790304,-26.446675],[-56.78907,-26.445178],[-56.789,-26.444122],[-56.791888,-26.442975],[-56.793032,-26.440788],[-56.795271,-26.440344],[-56.795823,-26.439719],[-56.795842,-26.439045],[-56.793635,-26.436856],[-56.792852,-26.435189],[-56.791365,-26.434187],[-56.789529,-26.430334],[-56.788024,-26.429997],[-56.787548,-26.430323],[-56.787522,-26.430782],[-56.787873,-26.43328],[-56.786771,-26.434107],[-56.785092,-26.433812],[-56.784082,-26.433274],[-56.78329,-26.432509],[-56.78285,-26.430818],[-56.782337,-26.430427],[-56.780694,-26.430319],[-56.779706,-26.430772],[-56.779482,-26.431869],[-56.781246,-26.434359],[-56.781551,-26.436377],[-56.781288,-26.438913],[-56.779789,-26.439144],[-56.779226,-26.438828],[-56.778936,-26.436433],[-56.778478,-26.435354],[-56.776716,-26.433298],[-56.776777,-26.432713],[-56.777622,-26.431458],[-56.777611,-26.43084],[-56.776303,-26.428563],[-56.77486,-26.428409],[-56.772147,-26.431016],[-56.771653,-26.431113],[-56.771136,-26.430776],[-56.770753,-26.429974],[-56.770096,-26.427448],[-56.769027,-26.426341],[-56.765014,-26.423355],[-56.762093,-26.421801],[-56.761251,-26.421723],[-56.760147,-26.420075],[-56.760281,-26.419186],[-56.761366,-26.418224],[-56.761343,-26.417834],[-56.759961,-26.416997],[-56.760059,-26.41586],[-56.759123,-26.414883],[-56.759498,-26.413952],[-56.760835,-26.412979],[-56.762736,-26.413307],[-56.764048,-26.413201],[-56.764795,-26.412498],[-56.764905,-26.411859],[-56.764737,-26.411263],[-56.763284,-26.410338],[-56.762043,-26.411119],[-56.760947,-26.410934],[-56.760894,-26.410495],[-56.76145,-26.409558],[-56.761229,-26.408789],[-56.759781,-26.408446],[-56.757512,-26.405784],[-56.758035,-26.405048],[-56.760052,-26.405234],[-56.760763,-26.404669],[-56.760633,-26.402109],[-56.762111,-26.400776],[-56.762297,-26.399545],[-56.761817,-26.399094],[-56.759556,-26.399675],[-56.758209,-26.399661],[-56.757296,-26.399245],[-56.756006,-26.397853],[-56.756024,-26.396122],[-56.756584,-26.395652],[-56.759055,-26.396109],[-56.760877,-26.395691],[-56.761762,-26.396235],[-56.762626,-26.397425],[-56.764066,-26.397866],[-56.76578,-26.397199],[-56.766248,-26.396742],[-56.76631,-26.395956],[-56.765939,-26.395444],[-56.763089,-26.395817],[-56.762122,-26.395486],[-56.761962,-26.394407],[-56.763644,-26.392825],[-56.763958,-26.391534],[-56.763676,-26.390442],[-56.762906,-26.389545],[-56.761667,-26.389635],[-56.760827,-26.390377],[-56.760366,-26.390419],[-56.759785,-26.390357],[-56.759211,-26.389752],[-56.759794,-26.3889],[-56.760898,-26.388445],[-56.761428,-26.387605],[-56.761281,-26.386836],[-56.760147,-26.385414],[-56.759908,-26.38376],[-56.760524,-26.383136],[-56.762243,-26.382889],[-56.762582,-26.382591],[-56.762645,-26.38167],[-56.761714,-26.380243],[-56.761993,-26.379666],[-56.763266,-26.37902],[-56.763314,-26.378642],[-56.76322,-26.378295],[-56.761395,-26.377103],[-56.759353,-26.376673],[-56.759972,-26.37523],[-56.760235,-26.372335],[-56.759999,-26.371707],[-56.759404,-26.37145],[-56.756955,-26.371391],[-56.756448,-26.371068],[-56.756948,-26.368417],[-56.755156,-26.365846],[-56.752126,-26.367354],[-56.752256,-26.369419],[-56.752038,-26.369863],[-56.751146,-26.370251],[-56.749827,-26.369907],[-56.748794,-26.367876],[-56.747173,-26.367495],[-56.742193,-26.367754],[-56.740407,-26.37064],[-56.738769,-26.371076],[-56.738005,-26.370623],[-56.73803,-26.365656],[-56.738599,-26.365157],[-56.739222,-26.365067],[-56.74031,-26.365794],[-56.741182,-26.365881],[-56.741427,-26.365339],[-56.739571,-26.363889],[-56.738835,-26.362271],[-56.736005,-26.361307],[-56.734221,-26.360296],[-56.733817,-26.359409],[-56.733936,-26.358548],[-56.734469,-26.358102],[-56.735615,-26.358161],[-56.736927,-26.360325],[-56.738785,-26.360483],[-56.739292,-26.359493],[-56.73842,-26.358012],[-56.73837,-26.356379],[-56.739446,-26.355308],[-56.742232,-26.35576],[-56.743397,-26.355274],[-56.744057,-26.354455],[-56.744069,-26.35322],[-56.743286,-26.352463],[-56.742547,-26.352201],[-56.740453,-26.352709],[-56.739199,-26.352666],[-56.738131,-26.35021],[-56.737105,-26.349575],[-56.735824,-26.349459],[-56.733622,-26.350202],[-56.732828,-26.350103],[-56.732549,-26.349769],[-56.733557,-26.346984],[-56.733423,-26.346325],[-56.733007,-26.34571],[-56.731415,-26.344713],[-56.730669,-26.343549],[-56.73086,-26.343184],[-56.731942,-26.34321],[-56.733627,-26.343717],[-56.734466,-26.343573],[-56.735198,-26.343062],[-56.735489,-26.342006],[-56.735238,-26.341412],[-56.733465,-26.339751],[-56.73316,-26.339158],[-56.733234,-26.33837],[-56.736427,-26.336238],[-56.736634,-26.335602],[-56.736365,-26.334299],[-56.73458,-26.33348],[-56.731586,-26.333247],[-56.730715,-26.331563],[-56.729896,-26.33109],[-56.727417,-26.330728],[-56.726885,-26.330378],[-56.726689,-26.32941],[-56.727784,-26.327746],[-56.727624,-26.32669],[-56.727273,-26.326413],[-56.726245,-26.326516],[-56.724421,-26.327561],[-56.723627,-26.327682],[-56.722627,-26.327355],[-56.72243,-26.326858],[-56.723202,-26.324528],[-56.723213,-26.323414],[-56.722863,-26.322894],[-56.719407,-26.320582],[-56.71882,-26.319649],[-56.71887,-26.319053],[-56.719929,-26.318654],[-56.722042,-26.319753],[-56.72351,-26.319452],[-56.723733,-26.318427],[-56.72347,-26.316039],[-56.723915,-26.314462],[-56.725113,-26.312683],[-56.724586,-26.311935],[-56.722794,-26.312072],[-56.72158,-26.311831],[-56.720034,-26.309337],[-56.717946,-26.308455],[-56.717586,-26.308031],[-56.717685,-26.306937],[-56.718601,-26.305801],[-56.718352,-26.304403],[-56.717896,-26.304077],[-56.716562,-26.303944],[-56.715379,-26.305871],[-56.714356,-26.306497],[-56.71268,-26.306488],[-56.712259,-26.307115],[-56.71221,-26.307895],[-56.711303,-26.308368],[-56.710668,-26.308026],[-56.710144,-26.306818],[-56.707822,-26.304942],[-56.707264,-26.303496],[-56.707326,-26.301971],[-56.706705,-26.300966],[-56.70601,-26.30055],[-56.70288,-26.30036],[-56.701471,-26.301278],[-56.700356,-26.301479],[-56.699077,-26.300785],[-56.698038,-26.298378],[-56.697941,-26.297256],[-56.699693,-26.296423],[-56.700155,-26.295351],[-56.699473,-26.294277],[-56.69686,-26.293467],[-56.696529,-26.292727],[-56.697376,-26.289324],[-56.696659,-26.287746],[-56.6962,-26.287444],[-56.693793,-26.287431],[-56.692763,-26.287731],[-56.692418,-26.287448],[-56.691097,-26.28748],[-56.690761,-26.287911],[-56.687977,-26.287881],[-56.683376,-26.286712],[-56.662201,-26.284211],[-56.655091,-26.286436],[-56.647403,-26.283011],[-56.639385,-26.287727],[-56.635508,-26.288845],[-56.629519,-26.289289],[-56.6207,-26.291146],[-56.618432,-26.291947],[-56.590885,-26.296129],[-56.571667,-26.29205],[-56.567308,-26.290628],[-56.567321,-26.29036],[-56.566772,-26.290379],[-56.56683,-26.289616],[-56.56597,-26.289758],[-56.566009,-26.289239],[-56.564954,-26.288486],[-56.563785,-26.288929],[-56.563653,-26.28794],[-56.562817,-26.288511],[-56.561638,-26.287907],[-56.561356,-26.288466],[-56.56101,-26.287914],[-56.56049,-26.28835],[-56.560512,-26.287669],[-56.560046,-26.287798],[-56.559858,-26.287464],[-56.55939,-26.287638],[-56.559533,-26.287047],[-56.559234,-26.286067],[-56.558305,-26.286059],[-56.558084,-26.285269],[-56.557294,-26.284905],[-56.556983,-26.285206],[-56.555774,-26.284548],[-56.555213,-26.285057],[-56.554855,-26.284338],[-56.554253,-26.284444],[-56.553968,-26.283265],[-56.553163,-26.282567],[-56.552695,-26.281563],[-56.552216,-26.281738],[-56.549024,-26.280784],[-56.548134,-26.281472],[-56.547369,-26.281353],[-56.546704,-26.281703],[-56.546091,-26.281394],[-56.544326,-26.281235],[-56.541088,-26.281843],[-56.54054,-26.281629],[-56.53904,-26.281737],[-56.53706,-26.283536],[-56.535779,-26.28393],[-56.534201,-26.283739],[-56.532706,-26.282877],[-56.52902,-26.282178],[-56.528598,-26.281947],[-56.52654,-26.278572],[-56.524599,-26.277618],[-56.52368,-26.276806],[-56.52132,-26.276428],[-56.520115,-26.275901],[-56.518844,-26.273382],[-56.517376,-26.272609],[-56.516341,-26.271184],[-56.515772,-26.270897],[-56.515448,-26.269709],[-56.513373,-26.269061],[-56.512861,-26.267492],[-56.513632,-26.265938],[-56.513575,-26.265233],[-56.512015,-26.264216],[-56.460852,-26.274317],[-56.398325,-26.312839],[-56.398313,-26.315188],[-56.397183,-26.318831],[-56.397279,-26.319405],[-56.398189,-26.320357],[-56.397251,-26.322258],[-56.397431,-26.32429],[-56.396413,-26.324841],[-56.394867,-26.326519],[-56.394248,-26.326774],[-56.394038,-26.327472],[-56.393239,-26.328038],[-56.392869,-26.329585],[-56.393501,-26.330802],[-56.391984,-26.332452],[-56.392139,-26.333491],[-56.391877,-26.334493],[-56.390696,-26.334912],[-56.389605,-26.334808],[-56.388601,-26.336],[-56.388488,-26.339385],[-56.389099,-26.340918],[-56.390836,-26.341937],[-56.391195,-26.343474],[-56.390339,-26.345199],[-56.390922,-26.348253],[-56.3899,-26.350014],[-56.388403,-26.350274],[-56.388016,-26.350796],[-56.38833,-26.352639],[-56.389584,-26.354618],[-56.389468,-26.35752],[-56.387763,-26.359711],[-56.386151,-26.360147],[-56.3855,-26.360614],[-56.384145,-26.363344],[-56.381329,-26.365282],[-56.378416,-26.368041],[-56.378056,-26.36901],[-56.377996,-26.371326],[-56.375738,-26.374151],[-56.376161,-26.376609],[-56.377778,-26.375934],[-56.379154,-26.376839],[-56.382437,-26.376049],[-56.383683,-26.374786],[-56.385694,-26.374018],[-56.387979,-26.371856],[-56.388613,-26.371638],[-56.391785,-26.373529],[-56.394829,-26.374165],[-56.39667,-26.376358],[-56.397282,-26.376478],[-56.398481,-26.376154],[-56.400539,-26.376564],[-56.401414,-26.376211],[-56.402529,-26.375236],[-56.403212,-26.374395],[-56.404753,-26.371128],[-56.406586,-26.369623],[-56.408277,-26.369156],[-56.411033,-26.36738],[-56.412981,-26.366954],[-56.414834,-26.367066],[-56.417052,-26.366339],[-56.418171,-26.366316],[-56.419362,-26.365992],[-56.420626,-26.365219],[-56.424978,-26.378641],[-56.42329,-26.3796],[-56.423468,-26.382955],[-56.422731,-26.388935],[-56.434169,-26.39252],[-56.441563,-26.413562],[-56.546014,-26.479377],[-56.576863,-26.478297],[-56.79594,-26.492734],[-56.805035,-26.489874]]]}}]}
