{"type":"FeatureCollection","name":"distrito","features":[{"type":"Feature","properties":{"clave":"9-12","nombre":"María Antonia"},"geometry":{"type":"Polygon","coordinates":[[[-56.878517,-26.488669],[-56.888987,-26.484845],[-56.891796,-26.482767],[-56.894407,-26.479055],[-56.897082,-26.47879],[-56.901573,-26.476892],[-56.90273,-26.475585],[-56.902962,-26.474278],[-56.902337,-26.472198],[-56.901018,-26.469612],[-56.901448,-26.468602],[-56.906635,-26.463614],[-56.910566,-26.461121],[-56.912381,-26.460795],[-56.925715,-26.464992],[-56.927331,-26.466122],[-56.929379,-26.468375],[-56.932279,-26.472987],[-56.934523,-26.475276],[-56.937196,-26.476852],[-56.938682,-26.475635],[-56.940961,-26.474893],[-56.943536,-26.474834],[-56.946143,-26.475489],[-56.947693,-26.477065],[-56.948849,-26.479263],[-56.948716,-26.480511],[-56.947097,-26.483957],[-56.947691,-26.484968],[-56.949111,-26.485057],[-56.951554,-26.483959],[-56.954427,-26.483187],[-56.959875,-26.482446],[-56.961262,-26.481615],[-56.962022,-26.480099],[-56.962221,-26.475375],[-56.961298,-26.472731],[-56.957602,-26.468273],[-56.957551,-26.466393],[-56.957867,-26.464648],[-56.958759,-26.462955],[-56.958838,-26.460889],[-56.95744,-26.459271],[-56.955052,-26.458326],[-56.954107,-26.457576],[-56.95348,-26.456298],[-56.955462,-26.452258],[-56.955298,-26.449317],[-56.956651,-26.44929],[-56.959985,-26.45015],[-56.961536,-26.45021],[-56.965399,-26.448369],[-56.966863,-26.448004],[-56.970052,-26.449113],[-56.971571,-26.448548],[-56.974345,-26.443528],[-56.974652,-26.440632],[-56.976788,-26.438982],[-56.980386,-26.435358],[-56.982102,-26.434467],[-56.990947,-26.433071],[-56.993191,-26.432031],[-56.993752,-26.430457],[-56.993422,-26.429031],[-56.991836,-26.426306],[-56.991125,-26.42432],[-56.991479,-26.421671],[-56.992691,-26.420528],[-56.993904,-26.420008],[-56.9957,-26.41982],[-56.997351,-26.418656],[-56.998083,-26.417397],[-56.998101,-26.413202],[-56.998695,-26.412049],[-57.002018,-26.411063],[-57.0043,-26.411414],[-57.00727,-26.412502],[-57.009918,-26.408551],[-57.009863,-26.405086],[-57.009011,-26.403404],[-57.007729,-26.402458],[-57.006192,-26.401891],[-57.004258,-26.401911],[-57.00354,-26.403105],[-57.002222,-26.402852],[-57.002114,-26.404196],[-57.001252,-26.40483],[-57.000498,-26.404255],[-57.000738,-26.402135],[-56.999751,-26.400933],[-56.997687,-26.40088],[-56.996377,-26.401784],[-56.995871,-26.401829],[-56.994669,-26.401067],[-56.993293,-26.400634],[-56.992994,-26.400156],[-56.993027,-26.399275],[-56.995092,-26.396244],[-56.996095,-26.396348],[-56.996268,-26.395378],[-56.997139,-26.395053],[-56.996977,-26.394734],[-56.995982,-26.394493],[-56.996654,-26.393362],[-56.995311,-26.393048],[-56.995106,-26.392757],[-56.996312,-26.391514],[-56.996275,-26.391217],[-56.995205,-26.391463],[-56.994801,-26.391223],[-56.994814,-26.390842],[-56.995019,-26.390551],[-56.996766,-26.390332],[-56.999309,-26.388999],[-57.000055,-26.38784],[-56.998115,-26.386723],[-56.99727,-26.386673],[-56.996921,-26.38693],[-56.996772,-26.387726],[-56.995914,-26.387955],[-56.995541,-26.386426],[-56.993894,-26.385626],[-56.993259,-26.384909],[-56.992128,-26.384674],[-56.992408,-26.384181],[-56.994012,-26.384802],[-56.994764,-26.384662],[-56.99459,-26.384237],[-56.993434,-26.383626],[-56.994364,-26.382501],[-56.994265,-26.382113],[-56.993812,-26.381983],[-56.992883,-26.382561],[-56.991789,-26.382511],[-56.99138,-26.381047],[-56.990164,-26.38038],[-56.988983,-26.378959],[-56.9889,-26.378197],[-56.987972,-26.37698],[-56.988119,-26.37421],[-56.98949,-26.372929],[-56.989532,-26.372282],[-56.988679,-26.372227],[-56.987625,-26.373336],[-56.98708,-26.373366],[-56.987637,-26.371994],[-56.987177,-26.370773],[-56.986698,-26.370582],[-56.985567,-26.370918],[-56.98525,-26.37056],[-56.98543,-26.369865],[-56.986648,-26.368193],[-56.986499,-26.367581],[-56.982935,-26.367678],[-56.982429,-26.367468],[-56.98247,-26.367065],[-56.983855,-26.366543],[-56.983908,-26.36476],[-56.983529,-26.364138],[-56.983087,-26.363892],[-56.982385,-26.364552],[-56.98172,-26.364558],[-56.979582,-26.363561],[-56.978667,-26.364888],[-56.977654,-26.365],[-56.975528,-26.364411],[-56.973885,-26.362714],[-56.973122,-26.362707],[-56.972011,-26.363617],[-56.971232,-26.36358],[-56.970586,-26.363132],[-56.969575,-26.361586],[-56.968415,-26.361593],[-56.967528,-26.362063],[-56.966492,-26.361152],[-56.966409,-26.360241],[-56.965697,-26.359905],[-56.965017,-26.360107],[-56.96403,-26.361084],[-56.963044,-26.36142],[-56.962397,-26.362032],[-56.960964,-26.36145],[-56.960018,-26.362495],[-56.958941,-26.362323],[-56.957127,-26.363133],[-56.956795,-26.363044],[-56.956221,-26.36165],[-56.955194,-26.36155],[-56.954287,-26.363322],[-56.953745,-26.363441],[-56.952227,-26.363061],[-56.950206,-26.363581],[-56.949199,-26.364516],[-56.947085,-26.364353],[-56.947327,-26.36526],[-56.946867,-26.365613],[-56.946326,-26.365551],[-56.946389,-26.364543],[-56.943113,-26.364127],[-56.941758,-26.363567],[-56.940814,-26.361909],[-56.941269,-26.360509],[-56.940704,-26.357938],[-56.940992,-26.356481],[-56.940804,-26.356213],[-56.940149,-26.356326],[-56.939571,-26.356956],[-56.938782,-26.357056],[-56.938571,-26.356705],[-56.938916,-26.355194],[-56.938494,-26.355044],[-56.93795,-26.355954],[-56.937627,-26.355994],[-56.936839,-26.355283],[-56.934962,-26.354492],[-56.935296,-26.353091],[-56.934941,-26.35235],[-56.933864,-26.35304],[-56.933541,-26.35302],[-56.932764,-26.352089],[-56.931087,-26.352118],[-56.931221,-26.350587],[-56.929689,-26.350146],[-56.929534,-26.348905],[-56.930057,-26.347144],[-56.929458,-26.346554],[-56.928869,-26.346794],[-56.928891,-26.347774],[-56.928546,-26.348234],[-56.927558,-26.348074],[-56.927459,-26.345262],[-56.92786,-26.344431],[-56.926983,-26.34342],[-56.927816,-26.3427],[-56.92744,-26.341079],[-56.927963,-26.339638],[-56.927697,-26.338547],[-56.927975,-26.337046],[-56.927287,-26.336445],[-56.925399,-26.336154],[-56.925122,-26.335634],[-56.926367,-26.334203],[-56.925979,-26.333232],[-56.926213,-26.331731],[-56.925647,-26.33031],[-56.925692,-26.32943],[-56.927248,-26.32826],[-56.927093,-26.327749],[-56.92606,-26.327448],[-56.926105,-26.326878],[-56.928072,-26.324507],[-56.927872,-26.323772],[-56.9265,-26.32283],[-56.922379,-26.321307],[-56.92076,-26.321093],[-56.917919,-26.320174],[-56.917048,-26.320284],[-56.915819,-26.321171],[-56.914539,-26.320178],[-56.913271,-26.321354],[-56.9129,-26.321106],[-56.912818,-26.320206],[-56.91214,-26.320027],[-56.910526,-26.320822],[-56.911031,-26.322028],[-56.910288,-26.322471],[-56.90888,-26.321951],[-56.909144,-26.320786],[-56.908043,-26.320157],[-56.908723,-26.318917],[-56.90855,-26.318363],[-56.906976,-26.318559],[-56.90642,-26.317612],[-56.905844,-26.317272],[-56.904871,-26.31749],[-56.904275,-26.319053],[-56.902617,-26.318948],[-56.902272,-26.318671],[-56.902259,-26.317973],[-56.904116,-26.317213],[-56.904284,-26.315194],[-56.902614,-26.314564],[-56.902602,-26.314161],[-56.903389,-26.314063],[-56.902878,-26.312777],[-56.90133,-26.311726],[-56.902412,-26.311121],[-56.902419,-26.310723],[-56.901453,-26.310353],[-56.901025,-26.309297],[-56.898638,-26.309924],[-56.897864,-26.309422],[-56.898031,-26.308828],[-56.898498,-26.30854],[-56.899778,-26.308645],[-56.901167,-26.307833],[-56.900969,-26.30744],[-56.899235,-26.307456],[-56.899357,-26.306983],[-56.900445,-26.306569],[-56.900248,-26.305179],[-56.900985,-26.303847],[-56.900673,-26.302607],[-56.899444,-26.302087],[-56.900309,-26.300749],[-56.89809,-26.300061],[-56.89741,-26.301468],[-56.895231,-26.301405],[-56.894669,-26.301635],[-56.893751,-26.301043],[-56.893593,-26.300456],[-56.892126,-26.300383],[-56.892845,-26.299024],[-56.892157,-26.298897],[-56.891678,-26.299845],[-56.891199,-26.300057],[-56.890851,-26.297853],[-56.889702,-26.298494],[-56.889392,-26.298241],[-56.889395,-26.297552],[-56.832621,-26.333287],[-56.845559,-26.350692],[-56.828217,-26.359747],[-56.850044,-26.385063],[-56.804491,-26.400892],[-56.759429,-26.415425],[-56.760059,-26.41586],[-56.760069,-26.417192],[-56.761343,-26.417834],[-56.761366,-26.418224],[-56.760281,-26.419186],[-56.760147,-26.420075],[-56.760494,-26.42091],[-56.761251,-26.421723],[-56.762093,-26.421801],[-56.765014,-26.423355],[-56.769027,-26.426341],[-56.770444,-26.428174],[-56.771136,-26.430776],[-56.771653,-26.431113],[-56.772147,-26.431016],[-56.77486,-26.428409],[-56.776303,-26.428563],[-56.777611,-26.43084],[-56.777622,-26.431458],[-56.776777,-26.432713],[-56.776716,-26.433298],[-56.778478,-26.435354],[-56.778936,-26.436433],[-56.779226,-26.438828],[-56.779789,-26.439144],[-56.780962,-26.439082],[-56.781538,-26.438255],[-56.781416,-26.435034],[-56.780868,-26.4337],[-56.779482,-26.431869],[-56.779706,-26.430772],[-56.780694,-26.430319],[-56.782337,-26.430427],[-56.78285,-26.430818],[-56.78329,-26.432509],[-56.784082,-26.433274],[-56.785092,-26.433812],[-56.786771,-26.434107],[-56.787873,-26.43328],[-56.787522,-26.430782],[-56.787548,-26.430323],[-56.788024,-26.429997],[-56.789529,-26.430334],[-56.791365,-26.434187],[-56.792852,-26.435189],[-56.793635,-26.436856],[-56.795842,-26.439045],[-56.795823,-26.439719],[-56.795271,-26.440344],[-56.793032,-26.440788],[-56.791888,-26.442975],[-56.789,-26.444122],[-56.78907,-26.445178],[-56.790304,-26.446675],[-56.79032,-26.447976],[-56.789597,-26.448446],[-56.787837,-26.448427],[-56.787609,-26.44954],[-56.789096,-26.450834],[-56.78951,-26.451558],[-56.789434,-26.453427],[-56.788874,-26.453995],[-56.788178,-26.454108],[-56.785985,-26.453934],[-56.785141,-26.45646],[-56.785356,-26.457118],[-56.786375,-26.45803],[-56.787827,-26.458357],[-56.791776,-26.457783],[-56.792648,-26.458389],[-56.792819,-26.458852],[-56.792765,-26.459418],[-56.791978,-26.46024],[-56.789538,-26.46002],[-56.788208,-26.460181],[-56.787209,-26.460999],[-56.787064,-26.461461],[-56.789255,-26.466806],[-56.790684,-26.468802],[-56.791778,-26.469832],[-56.7928,-26.470343],[-56.795869,-26.470846],[-56.796483,-26.471096],[-56.796626,-26.471508],[-56.796601,-26.472201],[-56.795864,-26.473728],[-56.792274,-26.475261],[-56.791695,-26.475683],[-56.791754,-26.476203],[-56.792391,-26.477049],[-56.79345,-26.477116],[-56.795898,-26.474736],[-56.797078,-26.474727],[-56.797919,-26.475876],[-56.797951,-26.478184],[-56.798287,-26.479062],[-56.798755,-26.479583],[-56.800812,-26.480507],[-56.801257,-26.481049],[-56.801099,-26.482111],[-56.799803,-26.483203],[-56.799567,-26.483821],[-56.799914,-26.484536],[-56.80392,-26.486535],[-56.804365,-26.48711],[-56.804181,-26.489103],[-56.804553,-26.48957],[-56.805576,-26.489853],[-56.809337,-26.487323],[-56.812235,-26.487332],[-56.81533,-26.489519],[-56.816555,-26.491634],[-56.818924,-26.493674],[-56.820004,-26.495604],[-56.821401,-26.495768],[-56.821392,-26.497262],[-56.819994,-26.502386],[-56.82005,-26.504911],[-56.8229,-26.510218],[-56.824747,-26.512772],[-56.82589,-26.513304],[-56.828358,-26.513556],[-56.829262,-26.513243],[-56.829648,-26.512724],[-56.829665,-26.509852],[-56.830955,-26.508402],[-56.830884,-26.507719],[-56.829369,-26.506233],[-56.828913,-26.505182],[-56.829721,-26.504294],[-56.830938,-26.503721],[-56.831564,-26.503668],[-56.832539,-26.504287],[-56.832813,-26.505977],[-56.832281,-26.50797],[-56.832376,-26.50888],[-56.832699,-26.509791],[-56.834291,-26.5116],[-56.835755,-26.512178],[-56.836466,-26.511984],[-56.838708,-26.510329],[-56.839792,-26.509972],[-56.840985,-26.509952],[-56.842104,-26.510647],[-56.842702,-26.51354],[-56.843459,-26.514722],[-56.843422,-26.515177],[-56.843157,-26.515567],[-56.841711,-26.516205],[-56.840167,-26.517579],[-56.83895,-26.518108],[-56.836649,-26.51855],[-56.836455,-26.519406],[-56.837358,-26.51997],[-56.839466,-26.519474],[-56.839996,-26.519843],[-56.840776,-26.521805],[-56.84151,-26.522218],[-56.842919,-26.52223],[-56.843713,-26.522697],[-56.843856,-26.52365],[-56.842361,-26.524776],[-56.841963,-26.525328],[-56.842047,-26.52574],[-56.846153,-26.526448],[-56.848693,-26.527708],[-56.849114,-26.528423],[-56.848739,-26.528954],[-56.846848,-26.529396],[-56.845713,-26.531703],[-56.84435,-26.53286],[-56.844024,-26.533575],[-56.844721,-26.534443],[-56.847442,-26.535432],[-56.847196,-26.539408],[-56.84729,-26.540881],[-56.84782,-26.541445],[-56.848325,-26.541554],[-56.849905,-26.540527],[-56.851676,-26.539868],[-56.854553,-26.540045],[-56.855218,-26.539795],[-56.855472,-26.539341],[-56.855316,-26.53882],[-56.854353,-26.53818],[-56.854233,-26.537757],[-56.854294,-26.537118],[-56.855066,-26.536111],[-56.857453,-26.534824],[-56.858934,-26.533376],[-56.862236,-26.53146],[-56.864833,-26.5295],[-56.866718,-26.528941],[-56.868465,-26.529582],[-56.869292,-26.529484],[-56.869788,-26.528771],[-56.868932,-26.526661],[-56.869329,-26.525859],[-56.870288,-26.525296],[-56.871213,-26.524999],[-56.87217,-26.525178],[-56.875078,-26.524141],[-56.879578,-26.523098],[-56.881925,-26.516996],[-56.882687,-26.511966],[-56.884077,-26.508164],[-56.883588,-26.506489],[-56.882661,-26.505162],[-56.880812,-26.504596],[-56.878269,-26.50498],[-56.875692,-26.50578],[-56.87315,-26.505511],[-56.872524,-26.504322],[-56.872657,-26.50343],[-56.873649,-26.502332],[-56.8753,-26.50162],[-56.877114,-26.501586],[-56.879428,-26.501743],[-56.882366,-26.502518],[-56.884512,-26.502609],[-56.885702,-26.501896],[-56.887686,-26.498778],[-56.888874,-26.497744],[-56.890362,-26.497057],[-56.89198,-26.497237],[-56.893466,-26.497862],[-56.895511,-26.499379],[-56.896634,-26.499558],[-56.898021,-26.499321],[-56.899112,-26.498341],[-56.899279,-26.496291],[-56.898487,-26.494805],[-56.896304,-26.49316],[-56.888685,-26.490549],[-56.885787,-26.490395],[-56.881056,-26.491702],[-56.879735,-26.49179],[-56.878581,-26.490808],[-56.878252,-26.489441],[-56.878517,-26.488669]]]}}]}
