{"type":"FeatureCollection","name":"distrito","features":[{"type":"Feature","properties":{"clave":"9-3","nombre":"Caapucú"},"geometry":{"type":"Polygon","coordinates":[[[-57.090316,-26.355662],[-57.088374,-26.357178],[-57.087863,-26.358541],[-57.081321,-26.362563],[-57.076423,-26.360334],[-57.075573,-26.362454],[-57.075936,-26.364155],[-57.076919,-26.365491],[-57.078437,-26.370592],[-57.081158,-26.374026],[-57.082629,-26.37356],[-57.085637,-26.374511],[-57.086605,-26.375156],[-57.088246,-26.375679],[-57.087511,-26.376557],[-57.094174,-26.376891],[-57.09758,-26.377979],[-57.09896,-26.379321],[-57.099721,-26.381095],[-57.100933,-26.382742],[-57.10296,-26.384363],[-57.105213,-26.38535],[-57.115286,-26.383745],[-57.119928,-26.382017],[-57.121616,-26.381965],[-57.122968,-26.382801],[-57.124461,-26.384143],[-57.126576,-26.388425],[-57.127679,-26.393341],[-57.125575,-26.399097],[-57.125351,-26.400922],[-57.125973,-26.402645],[-57.127746,-26.403074],[-57.130505,-26.40297],[-57.134305,-26.403296],[-57.141601,-26.404433],[-57.14584,-26.406859],[-57.147585,-26.409164],[-57.148613,-26.411163],[-57.149331,-26.411808],[-57.151825,-26.41199],[-57.154045,-26.411341],[-57.156843,-26.409123],[-57.159026,-26.406906],[-57.160392,-26.406597],[-57.162101,-26.40721],[-57.170586,-26.412256],[-57.171411,-26.415618],[-57.174016,-26.420947],[-57.176394,-26.427466],[-57.177946,-26.429104],[-57.182139,-26.430412],[-57.183553,-26.431394],[-57.1844,-26.432777],[-57.184499,-26.434456],[-57.183618,-26.436533],[-57.180587,-26.440119],[-57.180532,-26.442022],[-57.181284,-26.443458],[-57.186463,-26.446456],[-57.18803,-26.448761],[-57.187956,-26.450884],[-57.185131,-26.463185],[-57.185597,-26.466114],[-57.186548,-26.46752],[-57.189087,-26.468278],[-57.194267,-26.46924],[-57.200135,-26.468286],[-57.205569,-26.467771],[-57.208341,-26.468892],[-57.209802,-26.47049],[-57.210672,-26.472826],[-57.210769,-26.475902],[-57.207454,-26.482388],[-57.20682,-26.484973],[-57.207371,-26.487187],[-57.208787,-26.48862],[-57.21102,-26.488822],[-57.213481,-26.488285],[-57.215392,-26.486478],[-57.218979,-26.479459],[-57.222301,-26.476828],[-57.224297,-26.475964],[-57.226,-26.476399],[-57.22728,-26.478365],[-57.22764,-26.480088],[-57.226737,-26.484232],[-57.225149,-26.487925],[-57.222741,-26.492113],[-57.219054,-26.494949],[-57.217917,-26.496181],[-57.218057,-26.49778],[-57.221068,-26.499375],[-57.223851,-26.500191],[-57.227451,-26.500062],[-57.228681,-26.499322],[-57.229773,-26.4985],[-57.230544,-26.496489],[-57.230357,-26.493946],[-57.229439,-26.490913],[-57.229938,-26.489846],[-57.231168,-26.489351],[-57.232809,-26.489636],[-57.236054,-26.493568],[-57.238389,-26.498691],[-57.239621,-26.499345],[-57.24108,-26.499302],[-57.242033,-26.497578],[-57.242661,-26.492532],[-57.243385,-26.490028],[-57.244886,-26.48859],[-57.247163,-26.487684],[-57.24885,-26.487722],[-57.250402,-26.48895],[-57.250907,-26.490384],[-57.251243,-26.498464],[-57.248975,-26.503308],[-57.243793,-26.510494],[-57.241244,-26.512303],[-57.23901,-26.512184],[-57.233582,-26.510922],[-57.232991,-26.511866],[-57.234549,-26.515719],[-57.239178,-26.519711],[-57.239631,-26.524737],[-57.241019,-26.526825],[-57.242958,-26.528266],[-57.243625,-26.529608],[-57.242968,-26.532745],[-57.241974,-26.533941],[-57.239487,-26.535389],[-57.23556,-26.536043],[-57.232906,-26.537192],[-57.232024,-26.538885],[-57.234914,-26.545152],[-57.2363,-26.546095],[-57.238071,-26.545993],[-57.240115,-26.544496],[-57.240635,-26.541142],[-57.241318,-26.540189],[-57.242687,-26.539907],[-57.24465,-26.540519],[-57.245741,-26.541581],[-57.247992,-26.546029],[-57.249021,-26.546923],[-57.250391,-26.546865],[-57.252784,-26.545181],[-57.254154,-26.545458],[-57.25438,-26.548873],[-57.25401,-26.55061],[-57.253111,-26.552179],[-57.252116,-26.553105],[-57.246923,-26.555466],[-57.246209,-26.556671],[-57.246243,-26.557679],[-57.246836,-26.558686],[-57.247616,-26.559188],[-57.252721,-26.559095],[-57.253407,-26.559514],[-57.253441,-26.560746],[-57.252637,-26.563491],[-57.252578,-26.564723],[-57.253171,-26.565534],[-57.254448,-26.565784],[-57.256845,-26.565499],[-57.258714,-26.565832],[-57.262891,-26.568372],[-57.267099,-26.570156],[-57.267787,-26.571778],[-57.267885,-26.573514],[-57.26677,-26.576064],[-57.266897,-26.577324],[-57.268988,-26.579279],[-57.274347,-26.580501],[-57.275253,-26.581731],[-57.275567,-26.58285],[-57.27501,-26.584279],[-57.273051,-26.585403],[-57.271525,-26.585406],[-57.269936,-26.585073],[-57.266878,-26.582531],[-57.265633,-26.582421],[-57.264638,-26.583067],[-57.263925,-26.58458],[-57.26421,-26.586568],[-57.265085,-26.58791],[-57.267423,-26.589081],[-57.268856,-26.589191],[-57.274862,-26.587835],[-57.277849,-26.586794],[-57.279624,-26.58665],[-57.281493,-26.58701],[-57.283397,-26.588602],[-57.283961,-26.590337],[-57.28356,-26.591878],[-57.281825,-26.595325],[-57.282048,-26.5972],[-57.282764,-26.597451],[-57.284476,-26.596747],[-57.29099,-26.586851],[-57.294694,-26.582504],[-57.296967,-26.582515],[-57.297934,-26.583408],[-57.298591,-26.584555],[-57.298377,-26.585815],[-57.293782,-26.591144],[-57.293349,-26.592601],[-57.29357,-26.593804],[-57.294692,-26.59411],[-57.296903,-26.593825],[-57.299703,-26.592868],[-57.31057,-26.592592],[-57.312156,-26.591777],[-57.313367,-26.590207],[-57.314164,-26.585753],[-57.315095,-26.584603],[-57.316807,-26.584152],[-57.319204,-26.584202],[-57.320949,-26.584562],[-57.32279,-26.585958],[-57.323825,-26.588503],[-57.323003,-26.595028],[-57.321049,-26.600007],[-57.321164,-26.601351],[-57.322386,-26.602791],[-57.327906,-26.60496],[-57.330413,-26.607537],[-57.330743,-26.608775],[-57.331493,-26.609529],[-57.332568,-26.609884],[-57.334296,-26.609586],[-57.33663,-26.608719],[-57.340106,-26.607283],[-57.34456,-26.604942],[-57.346125,-26.604707],[-57.347481,-26.605229],[-57.348348,-26.606192],[-57.348796,-26.607367],[-57.347102,-26.61134],[-57.34706,-26.61281],[-57.347389,-26.61346],[-57.348488,-26.61373],[-57.350122,-26.613348],[-57.352664,-26.612124],[-57.354156,-26.610986],[-57.354781,-26.609116],[-57.354846,-26.600484],[-57.355707,-26.596898],[-57.357278,-26.594691],[-57.35927,-26.594313],[-57.361347,-26.59442],[-57.363053,-26.59561],[-57.363514,-26.597065],[-57.363189,-26.599193],[-57.361951,-26.601772],[-57.361837,-26.603602],[-57.362154,-26.605169],[-57.36325,-26.60721],[-57.364042,-26.611211],[-57.364732,-26.612861],[-57.367135,-26.614171],[-57.368566,-26.613775],[-57.369746,-26.612736],[-57.370272,-26.611475],[-57.370272,-26.608338],[-57.371239,-26.606563],[-57.373196,-26.606535],[-57.374669,-26.607003],[-57.375263,-26.607628],[-57.375988,-26.609013],[-57.37623,-26.611574],[-57.375464,-26.61313],[-57.373045,-26.616496],[-57.373166,-26.617692],[-57.373939,-26.61832],[-57.375153,-26.617918],[-57.376201,-26.616928],[-57.377572,-26.614867],[-57.378405,-26.612324],[-57.378947,-26.606758],[-57.379503,-26.605518],[-57.380343,-26.604991],[-57.381815,-26.605176],[-57.383313,-26.606075],[-57.388012,-26.610814],[-57.389198,-26.611539],[-57.391224,-26.612066],[-57.396733,-26.610734],[-57.399603,-26.610901],[-57.405801,-26.613173],[-57.406743,-26.614178],[-57.407972,-26.61815],[-57.408972,-26.619239],[-57.409814,-26.619572],[-57.41078,-26.619597],[-57.411432,-26.619008],[-57.413364,-26.610435],[-57.413477,-26.607383],[-57.414408,-26.606317],[-57.416088,-26.605836],[-57.42026,-26.605543],[-57.424437,-26.606483],[-57.428183,-26.608767],[-57.432839,-26.612841],[-57.434804,-26.613675],[-57.435645,-26.613672],[-57.436389,-26.612634],[-57.436186,-26.608463],[-57.435024,-26.605947],[-57.429089,-26.596997],[-57.427957,-26.594126],[-57.428321,-26.591586],[-57.430802,-26.588742],[-57.432541,-26.58743],[-57.434989,-26.587012],[-57.441091,-26.586732],[-57.444035,-26.585827],[-57.445606,-26.584068],[-57.447007,-26.581152],[-57.448662,-26.579803],[-57.452434,-26.578185],[-57.452345,-26.576842],[-57.45172,-26.576284],[-57.450682,-26.576063],[-57.447029,-26.576187],[-57.446071,-26.575331],[-57.446023,-26.573838],[-57.447013,-26.572193],[-57.448213,-26.571069],[-57.451033,-26.570239],[-57.458749,-26.56902],[-57.460078,-26.569239],[-57.462283,-26.570352],[-57.46745,-26.575076],[-57.469322,-26.576078],[-57.471024,-26.576035],[-57.472558,-26.57547],[-57.473175,-26.574124],[-57.472607,-26.567183],[-57.470759,-26.561888],[-57.470713,-26.560768],[-57.471167,-26.560132],[-57.475651,-26.560565],[-57.480632,-26.560437],[-57.483582,-26.56121],[-57.485658,-26.561166],[-57.486487,-26.560865],[-57.488017,-26.559665],[-57.488801,-26.558468],[-57.489755,-26.558278],[-57.490461,-26.558275],[-57.490837,-26.558717],[-57.492793,-26.564395],[-57.495321,-26.567041],[-57.49697,-26.567455],[-57.500639,-26.567749],[-57.504554,-26.567568],[-57.506757,-26.56675],[-57.508026,-26.565599],[-57.508824,-26.563445],[-57.508414,-26.561937],[-57.506883,-26.560182],[-57.504793,-26.558429],[-57.499126,-26.55571],[-57.498666,-26.554704],[-57.498959,-26.553697],[-57.499777,-26.552939],[-57.503024,-26.551985],[-57.506395,-26.551375],[-57.51395,-26.551651],[-57.517622,-26.552867],[-57.518989,-26.55289],[-57.520261,-26.552354],[-57.520484,-26.551068],[-57.520199,-26.549749],[-57.517323,-26.547642],[-57.510756,-26.543579],[-57.50812,-26.540172],[-57.508207,-26.538858],[-57.509633,-26.538154],[-57.515224,-26.537799],[-57.521167,-26.539817],[-57.522753,-26.540063],[-57.530974,-26.537406],[-57.534358,-26.536834],[-57.536626,-26.536798],[-57.539177,-26.537431],[-57.540736,-26.53871],[-57.543269,-26.54211],[-57.54439,-26.542609],[-57.545073,-26.54255],[-57.546095,-26.541736],[-57.547881,-26.53846],[-57.54889,-26.535046],[-57.54655,-26.52642],[-57.546884,-26.524826],[-57.547717,-26.524285],[-57.550464,-26.523897],[-57.555123,-26.52369],[-57.560088,-26.52184],[-57.561983,-26.521693],[-57.563883,-26.52272],[-57.565024,-26.52741],[-57.56596,-26.528328],[-57.567298,-26.528714],[-57.571152,-26.529062],[-57.572587,-26.530174],[-57.575897,-26.533626],[-57.57857,-26.533867],[-57.584589,-26.53225],[-57.587601,-26.531846],[-57.590429,-26.532086],[-57.595033,-26.533212],[-57.597049,-26.532505],[-57.604151,-26.524259],[-57.607561,-26.522876],[-57.608641,-26.521557],[-57.609096,-26.519404],[-57.608775,-26.517449],[-57.606524,-26.514692],[-57.605298,-26.511847],[-57.604947,-26.510171],[-57.605065,-26.508913],[-57.606239,-26.507707],[-57.607788,-26.507029],[-57.610366,-26.507046],[-57.611327,-26.506567],[-57.612191,-26.505529],[-57.612525,-26.504075],[-57.611956,-26.502149],[-57.612227,-26.500611],[-57.613308,-26.499488],[-57.615229,-26.498586],[-57.616857,-26.497383],[-57.61917,-26.492085],[-57.620066,-26.491327],[-57.622426,-26.491205],[-57.625316,-26.491611],[-57.629691,-26.49081],[-57.633203,-26.491353],[-57.636478,-26.493882],[-57.637796,-26.496251],[-57.638213,-26.498764],[-57.639246,-26.500241],[-57.64021,-26.500348],[-57.641258,-26.498918],[-57.643633,-26.490328],[-57.64319,-26.488849],[-57.64031,-26.484866],[-57.63893,-26.482301],[-57.638733,-26.480374],[-57.640184,-26.478942],[-57.642974,-26.477923],[-57.64555,-26.477688],[-57.64847,-26.477898],[-57.652584,-26.480507],[-57.653899,-26.482457],[-57.654925,-26.488153],[-57.65642,-26.488957],[-57.65788,-26.48909],[-57.660141,-26.487961],[-57.662978,-26.484483],[-57.664332,-26.482269],[-57.664228,-26.480369],[-57.663286,-26.478529],[-57.65587,-26.474092],[-57.654244,-26.472115],[-57.654074,-26.469489],[-57.655551,-26.467107],[-57.657316,-26.466205],[-57.660234,-26.466247],[-57.665279,-26.468711],[-57.66966,-26.469277],[-57.672298,-26.469125],[-57.674871,-26.468331],[-57.676156,-26.465766],[-57.676724,-26.462186],[-57.67612,-26.459606],[-57.673972,-26.457297],[-57.663342,-26.450357],[-57.661216,-26.447824],[-57.661172,-26.445533],[-57.66206,-26.443433],[-57.664039,-26.441998],[-57.665898,-26.441459],[-57.667198,-26.440698],[-57.668153,-26.43952],[-57.667616,-26.437818],[-57.665837,-26.436289],[-57.663253,-26.434848],[-57.662934,-26.433396],[-57.663424,-26.432276],[-57.665281,-26.431289],[-57.667175,-26.431308],[-57.668885,-26.431943],[-57.672005,-26.434583],[-57.678059,-26.434751],[-57.680849,-26.434178],[-57.684249,-26.431675],[-57.68566,-26.429853],[-57.685288,-26.424712],[-57.684185,-26.421839],[-57.684857,-26.419908],[-57.686464,-26.418866],[-57.688354,-26.418242],[-57.690435,-26.418484],[-57.692395,-26.419229],[-57.695977,-26.426533],[-57.696913,-26.427339],[-57.699148,-26.427412],[-57.702557,-26.426641],[-57.708285,-26.424237],[-57.709918,-26.419674],[-57.709078,-26.417666],[-57.70356,-26.408527],[-57.7033,-26.406591],[-57.704077,-26.405134],[-57.705481,-26.404568],[-57.709122,-26.404624],[-57.71255,-26.403527],[-57.714569,-26.402138],[-57.71543,-26.400904],[-57.715675,-26.399725],[-57.714837,-26.39809],[-57.713504,-26.396606],[-57.712241,-26.395718],[-57.710973,-26.394055],[-57.711358,-26.392086],[-57.713166,-26.39002],[-57.71412,-26.389121],[-57.716829,-26.388213],[-57.72011,-26.389032],[-57.722237,-26.390362],[-57.724234,-26.392141],[-57.725403,-26.393864],[-57.726689,-26.398418],[-57.72852,-26.400078],[-57.73061,-26.400753],[-57.733193,-26.401008],[-57.735415,-26.401593],[-57.737766,-26.4017],[-57.741867,-26.401261],[-57.743979,-26.400147],[-57.74546,-26.398947],[-57.747235,-26.396971],[-57.747919,-26.395298],[-57.747411,-26.393423],[-57.744375,-26.389712],[-57.743305,-26.387959],[-57.744416,-26.385747],[-57.745947,-26.384547],[-57.748416,-26.384177],[-57.749086,-26.383152],[-57.749377,-26.38201],[-57.747588,-26.381751],[-57.746986,-26.380793],[-57.746015,-26.380284],[-57.742607,-26.380648],[-57.741824,-26.380451],[-57.73976,-26.377846],[-57.738648,-26.377192],[-57.734578,-26.376688],[-57.732752,-26.376046],[-57.732419,-26.374737],[-57.733691,-26.371498],[-57.73412,-26.371177],[-57.73496,-26.371024],[-57.735292,-26.371454],[-57.73403,-26.373003],[-57.733465,-26.374272],[-57.733746,-26.375225],[-57.734659,-26.375638],[-57.735852,-26.375533],[-57.736219,-26.375241],[-57.736383,-26.373846],[-57.73682,-26.373413],[-57.738358,-26.373122],[-57.738837,-26.371896],[-57.73868,-26.370715],[-57.738097,-26.370442],[-57.734728,-26.37041],[-57.733855,-26.370125],[-57.730065,-26.366918],[-57.730234,-26.366373],[-57.730992,-26.36576],[-57.730819,-26.36461],[-57.731249,-26.363722],[-57.732555,-26.363492],[-57.735748,-26.363572],[-57.737112,-26.363289],[-57.737285,-26.362577],[-57.735679,-26.361948],[-57.735352,-26.361563],[-57.735951,-26.360276],[-57.73589,-26.359098],[-57.733684,-26.357092],[-57.732953,-26.357011],[-57.731495,-26.357428],[-57.730827,-26.357269],[-57.729525,-26.356186],[-57.72793,-26.356074],[-57.725704,-26.356729],[-57.724338,-26.356701],[-57.72424,-26.35482],[-57.723577,-26.354321],[-57.723091,-26.354451],[-57.722747,-26.355952],[-57.718938,-26.356921],[-57.718867,-26.357242],[-57.719887,-26.358155],[-57.719876,-26.360228],[-57.719306,-26.360747],[-57.717791,-26.360868],[-57.717292,-26.361323],[-57.717264,-26.361882],[-57.718191,-26.363271],[-57.718147,-26.363823],[-57.716315,-26.367228],[-57.716079,-26.368474],[-57.716503,-26.369611],[-57.717087,-26.370216],[-57.719457,-26.371237],[-57.719705,-26.371957],[-57.717034,-26.373081],[-57.714596,-26.376298],[-57.714142,-26.376484],[-57.713332,-26.376283],[-57.713472,-26.374868],[-57.713212,-26.374685],[-57.712038,-26.37532],[-57.711551,-26.375294],[-57.711086,-26.375113],[-57.710584,-26.373884],[-57.709476,-26.37372],[-57.708794,-26.372882],[-57.708382,-26.372815],[-57.705663,-26.37424],[-57.705199,-26.37638],[-57.703689,-26.376923],[-57.702905,-26.376885],[-57.702318,-26.376171],[-57.701841,-26.376067],[-57.69892,-26.376223],[-57.696791,-26.37563],[-57.696506,-26.375207],[-57.696723,-26.374734],[-57.697924,-26.37421],[-57.698266,-26.373661],[-57.697976,-26.372474],[-57.69897,-26.372309],[-57.698932,-26.368536],[-57.699772,-26.36787],[-57.701937,-26.367435],[-57.702435,-26.366753],[-57.702182,-26.366422],[-57.698923,-26.365044],[-57.697841,-26.366669],[-57.697465,-26.366777],[-57.695545,-26.36627],[-57.69326,-26.366204],[-57.692731,-26.365718],[-57.692094,-26.364292],[-57.690162,-26.364202],[-57.68998,-26.363977],[-57.690443,-26.362659],[-57.690406,-26.361612],[-57.691172,-26.361092],[-57.691294,-26.360483],[-57.689926,-26.360179],[-57.689813,-26.359634],[-57.689967,-26.359223],[-57.691812,-26.357814],[-57.691785,-26.357241],[-57.690418,-26.357085],[-57.688506,-26.357695],[-57.688172,-26.357032],[-57.688608,-26.356337],[-57.688401,-26.355899],[-57.686577,-26.355568],[-57.685356,-26.356246],[-57.684406,-26.35623],[-57.682607,-26.354647],[-57.679816,-26.354023],[-57.679429,-26.353685],[-57.681092,-26.352043],[-57.681845,-26.352012],[-57.682676,-26.353055],[-57.683255,-26.352684],[-57.683017,-26.350966],[-57.68263,-26.350678],[-57.680446,-26.35042],[-57.680951,-26.348104],[-57.681342,-26.347855],[-57.682165,-26.347624],[-57.684131,-26.348124],[-57.684742,-26.347916],[-57.684576,-26.346453],[-57.683659,-26.345361],[-57.683348,-26.344435],[-57.684124,-26.342939],[-57.685082,-26.343005],[-57.685434,-26.34415],[-57.686678,-26.343281],[-57.689613,-26.343061],[-57.691356,-26.344404],[-57.691692,-26.344197],[-57.691623,-26.343221],[-57.693789,-26.341584],[-57.693325,-26.340695],[-57.692029,-26.341646],[-57.691528,-26.341606],[-57.690386,-26.340645],[-57.69039,-26.340354],[-57.692366,-26.338705],[-57.69263,-26.338173],[-57.69247,-26.337742],[-57.690218,-26.337994],[-57.689994,-26.338582],[-57.690406,-26.339103],[-57.689952,-26.339473],[-57.688028,-26.339306],[-57.687626,-26.338975],[-57.687858,-26.338479],[-57.689229,-26.338027],[-57.689413,-26.337517],[-57.688851,-26.336979],[-57.6871,-26.337634],[-57.686446,-26.337241],[-57.686379,-26.336526],[-57.687301,-26.33452],[-57.686573,-26.334146],[-57.686007,-26.332808],[-57.685383,-26.33274],[-57.684617,-26.333078],[-57.684345,-26.332844],[-57.685173,-26.329136],[-57.68507,-26.328848],[-57.683164,-26.328723],[-57.681895,-26.328089],[-57.683005,-26.327007],[-57.682867,-26.326107],[-57.682624,-26.325995],[-57.682208,-26.32687],[-57.681732,-26.327006],[-57.681254,-26.326705],[-57.682007,-26.32597],[-57.681739,-26.325584],[-57.679606,-26.325468],[-57.678799,-26.32633],[-57.67819,-26.326333],[-57.677169,-26.324071],[-57.674441,-26.323563],[-57.674203,-26.322952],[-57.674393,-26.322121],[-57.675815,-26.322142],[-57.676662,-26.321449],[-57.676924,-26.320821],[-57.676462,-26.319282],[-57.676834,-26.318844],[-57.678049,-26.319542],[-57.678391,-26.320631],[-57.68079,-26.320915],[-57.681133,-26.320674],[-57.680886,-26.319887],[-57.678326,-26.318675],[-57.678643,-26.317585],[-57.679612,-26.31774],[-57.681576,-26.319452],[-57.683146,-26.319564],[-57.683596,-26.319034],[-57.683202,-26.31841],[-57.680786,-26.317865],[-57.680043,-26.317308],[-57.680251,-26.316737],[-57.681217,-26.316621],[-57.682021,-26.317018],[-57.682675,-26.316609],[-57.683641,-26.313497],[-57.683129,-26.313183],[-57.682844,-26.313427],[-57.682532,-26.315139],[-57.681629,-26.315011],[-57.680758,-26.314234],[-57.679545,-26.314145],[-57.678867,-26.313493],[-57.679068,-26.312753],[-57.677975,-26.309106],[-57.678636,-26.307989],[-57.680104,-26.307596],[-57.680156,-26.306599],[-57.679505,-26.30638],[-57.678288,-26.306491],[-57.676832,-26.305886],[-57.674476,-26.308732],[-57.673787,-26.309078],[-57.673784,-26.307685],[-57.669702,-26.30728],[-57.669006,-26.306506],[-57.670178,-26.306511],[-57.671471,-26.305784],[-57.673303,-26.303535],[-57.673257,-26.303163],[-57.671872,-26.302061],[-57.671336,-26.302131],[-57.670405,-26.304028],[-57.669372,-26.30487],[-57.666383,-26.305271],[-57.664392,-26.305231],[-57.66442,-26.304703],[-57.665666,-26.304219],[-57.665812,-26.303704],[-57.664143,-26.30279],[-57.663781,-26.302229],[-57.663904,-26.301869],[-57.665737,-26.300657],[-57.667071,-26.300456],[-57.667327,-26.300117],[-57.66685,-26.299681],[-57.665095,-26.300022],[-57.663437,-26.299844],[-57.663767,-26.299236],[-57.665191,-26.298374],[-57.665433,-26.297629],[-57.664874,-26.297267],[-57.663229,-26.298346],[-57.662537,-26.298154],[-57.662644,-26.2943],[-57.660552,-26.295123],[-57.659435,-26.297535],[-57.659073,-26.297716],[-57.658024,-26.297568],[-57.658454,-26.295988],[-57.657866,-26.295426],[-57.656324,-26.29623],[-57.656184,-26.295264],[-57.655464,-26.294375],[-57.657278,-26.294103],[-57.657785,-26.293689],[-57.656972,-26.292759],[-57.657243,-26.290575],[-57.654656,-26.290311],[-57.655103,-26.290088],[-57.654684,-26.289675],[-57.65523,-26.288801],[-57.653462,-26.28861],[-57.65441,-26.288213],[-57.653659,-26.288],[-57.653945,-26.287696],[-57.653645,-26.28572],[-57.653319,-26.28578],[-57.652482,-26.28694],[-57.651972,-26.286897],[-57.651384,-26.286398],[-57.650286,-26.286539],[-57.649759,-26.286293],[-57.65015,-26.285619],[-57.650744,-26.285476],[-57.651053,-26.2857],[-57.65217,-26.285099],[-57.651982,-26.284224],[-57.650366,-26.284606],[-57.649556,-26.283797],[-57.649954,-26.283317],[-57.65092,-26.283687],[-57.651262,-26.283537],[-57.651489,-26.282592],[-57.650144,-26.281601],[-57.651432,-26.28164],[-57.651456,-26.281265],[-57.650667,-26.280393],[-57.651442,-26.280453],[-57.652142,-26.279334],[-57.651541,-26.278569],[-57.650342,-26.278322],[-57.650364,-26.27802],[-57.651134,-26.277831],[-57.650663,-26.276993],[-57.653869,-26.2765],[-57.655538,-26.276854],[-57.655841,-26.275773],[-57.656375,-26.275189],[-57.655864,-26.274577],[-57.656217,-26.273767],[-57.654032,-26.273267],[-57.654055,-26.272874],[-57.652754,-26.27204],[-57.649518,-26.27164],[-57.647177,-26.270806],[-57.646153,-26.268684],[-57.646124,-26.267253],[-57.644162,-26.266869],[-57.643846,-26.266383],[-57.644632,-26.265174],[-57.644265,-26.264779],[-57.643035,-26.265105],[-57.641842,-26.264731],[-57.638225,-26.267623],[-57.637098,-26.268883],[-57.63495,-26.269664],[-57.631335,-26.269807],[-57.630507,-26.269657],[-57.629299,-26.268655],[-57.628957,-26.267772],[-57.629213,-26.267039],[-57.630814,-26.265511],[-57.631721,-26.263327],[-57.631473,-26.262777],[-57.629099,-26.260553],[-57.629301,-26.260299],[-57.630417,-26.260154],[-57.63061,-26.259444],[-57.623633,-26.254017],[-57.62117,-26.252583],[-57.62032,-26.251566],[-57.61976,-26.247442],[-57.620102,-26.244926],[-57.61984,-26.238331],[-57.6192,-26.237657],[-57.617631,-26.236901],[-57.615879,-26.237125],[-57.613597,-26.23787],[-57.611445,-26.237645],[-57.610658,-26.236732],[-57.61128,-26.233993],[-57.612265,-26.232811],[-57.61342,-26.232129],[-57.613761,-26.23145],[-57.613269,-26.229172],[-57.611899,-26.2266],[-57.611083,-26.220297],[-57.60991,-26.219426],[-57.605649,-26.218785],[-57.601956,-26.216949],[-57.600448,-26.215822],[-57.596607,-26.215748],[-57.594806,-26.214491],[-57.594125,-26.211952],[-57.593156,-26.210038],[-57.59083,-26.208241],[-57.589989,-26.207021],[-57.589457,-26.204951],[-57.589076,-26.199702],[-57.587922,-26.198502],[-57.584656,-26.192172],[-57.582368,-26.18945],[-57.581055,-26.185518],[-57.580741,-26.185276],[-57.579656,-26.185393],[-57.576154,-26.187728],[-57.571561,-26.183236],[-57.568657,-26.181286],[-57.565568,-26.179729],[-57.562409,-26.178851],[-57.556204,-26.177887],[-57.55174,-26.177528],[-57.54417,-26.177543],[-57.531195,-26.179282],[-57.529698,-26.175847],[-57.528498,-26.173924],[-57.527364,-26.172691],[-57.523469,-26.169667],[-57.519032,-26.16766],[-57.509981,-26.165589],[-57.508119,-26.164855],[-57.507757,-26.164418],[-57.507738,-26.163552],[-57.506533,-26.163145],[-57.505878,-26.160678],[-57.504499,-26.158976],[-57.504571,-26.158407],[-57.503645,-26.157336],[-57.503399,-26.155377],[-57.504876,-26.15511],[-57.504974,-26.154446],[-57.503766,-26.154279],[-57.502531,-26.155087],[-57.501787,-26.154895],[-57.500498,-26.152904],[-57.498001,-26.151378],[-57.497083,-26.148821],[-57.496537,-26.14918],[-57.49673,-26.150615],[-57.497403,-26.152007],[-57.49895,-26.153013],[-57.499404,-26.15373],[-57.499587,-26.155598],[-57.499218,-26.156055],[-57.499812,-26.156713],[-57.499902,-26.15752],[-57.497932,-26.161518],[-57.497449,-26.162039],[-57.49494,-26.162653],[-57.49248,-26.161885],[-57.489549,-26.161922],[-57.488939,-26.162813],[-57.487156,-26.163284],[-57.485739,-26.164689],[-57.484931,-26.166813],[-57.484963,-26.168447],[-57.485492,-26.169782],[-57.484817,-26.170046],[-57.484205,-26.169714],[-57.481606,-26.169678],[-57.481433,-26.16869],[-57.480784,-26.167744],[-57.47963,-26.167314],[-57.478942,-26.166124],[-57.477665,-26.165474],[-57.482158,-26.161522],[-57.482833,-26.159579],[-57.482526,-26.157395],[-57.47802,-26.149933],[-57.47787,-26.148074],[-57.478867,-26.147763],[-57.479214,-26.146796],[-57.478814,-26.145371],[-57.477656,-26.143636],[-57.475906,-26.142094],[-57.475482,-26.141309],[-57.473812,-26.140362],[-57.472385,-26.138137],[-57.473902,-26.133933],[-57.475645,-26.13134],[-57.475839,-26.127042],[-57.475464,-26.12581],[-57.475725,-26.124004],[-57.478524,-26.122983],[-57.485486,-26.118747],[-57.486545,-26.118644],[-57.486851,-26.117226],[-57.487417,-26.116985],[-57.487744,-26.116288],[-57.489189,-26.11636],[-57.490114,-26.116714],[-57.489642,-26.11574],[-57.488665,-26.115044],[-57.485451,-26.115393],[-57.482888,-26.114088],[-57.479672,-26.112952],[-57.473723,-26.111947],[-57.47114,-26.111933],[-57.466774,-26.114019],[-57.464602,-26.113836],[-57.461759,-26.11492],[-57.45909,-26.115308],[-57.459061,-26.115687],[-57.458545,-26.115486],[-57.457751,-26.115678],[-57.456151,-26.116563],[-57.444012,-26.118601],[-57.376347,-26.128672],[-57.362392,-26.105068],[-57.347311,-26.078698],[-57.345709,-26.075217],[-57.344365,-26.073992],[-57.344399,-26.072443],[-57.343831,-26.073244],[-57.3423,-26.073324],[-57.3409,-26.07442],[-57.337839,-26.075005],[-57.3358,-26.075854],[-57.333885,-26.07561],[-57.332165,-26.076783],[-57.329742,-26.077155],[-57.327551,-26.076948],[-57.326165,-26.075646],[-57.324272,-26.07565],[-57.323121,-26.074768],[-57.322015,-26.07487],[-57.320695,-26.0742],[-57.318823,-26.074087],[-57.316657,-26.075071],[-57.314951,-26.075224],[-57.314233,-26.07625],[-57.312849,-26.076651],[-57.312241,-26.079874],[-57.311421,-26.080013],[-57.309862,-26.080969],[-57.304761,-26.08586],[-57.303202,-26.086798],[-57.301086,-26.087245],[-57.270589,-26.08619],[-57.269548,-26.085619],[-57.268208,-26.085441],[-57.266827,-26.085962],[-57.265889,-26.0867],[-57.263687,-26.087133],[-57.261952,-26.086779],[-57.261357,-26.08637],[-57.257086,-26.086228],[-57.242639,-26.087563],[-57.242838,-26.085955],[-57.242119,-26.085545],[-57.240621,-26.085286],[-57.239653,-26.085974],[-57.240033,-26.08666],[-57.238916,-26.088867],[-57.237697,-26.08812],[-57.234841,-26.087325],[-57.233366,-26.087861],[-57.231794,-26.089285],[-57.226186,-26.090539],[-57.222894,-26.090895],[-57.221308,-26.090613],[-57.217371,-26.089115],[-57.216469,-26.089203],[-57.215276,-26.088857],[-57.214887,-26.089575],[-57.212026,-26.091579],[-57.210711,-26.094168],[-57.210077,-26.094309],[-57.209346,-26.095258],[-57.207669,-26.096322],[-57.206958,-26.097528],[-57.204882,-26.098484],[-57.202794,-26.097453],[-57.201862,-26.094705],[-57.200777,-26.092941],[-57.199961,-26.092594],[-57.199617,-26.092103],[-57.199452,-26.090852],[-57.198976,-26.090036],[-57.199087,-26.089223],[-57.198205,-26.087807],[-57.196128,-26.088356],[-57.195024,-26.088353],[-57.19427,-26.087211],[-57.191591,-26.085305],[-57.189847,-26.084883],[-57.188399,-26.085436],[-57.187435,-26.085306],[-57.186975,-26.084151],[-57.18455,-26.08261],[-57.184651,-26.082181],[-57.183544,-26.081568],[-57.182795,-26.081759],[-57.181429,-26.080497],[-57.180734,-26.080344],[-57.180689,-26.07992],[-57.179365,-26.078969],[-57.178413,-26.077471],[-57.175887,-26.077691],[-57.174184,-26.07711],[-57.172306,-26.077212],[-57.169423,-26.078222],[-57.167973,-26.077646],[-57.16667,-26.077489],[-57.165677,-26.077761],[-57.164978,-26.078318],[-57.163988,-26.08073],[-57.163571,-26.081091],[-57.162702,-26.080812],[-57.161619,-26.080944],[-57.160919,-26.081871],[-57.159782,-26.081389],[-57.159006,-26.081417],[-57.157029,-26.082394],[-57.149963,-26.084406],[-57.148729,-26.085008],[-57.148221,-26.087307],[-57.147515,-26.088165],[-57.14473,-26.088389],[-57.143419,-26.089623],[-57.141796,-26.089792],[-57.142027,-26.090866],[-57.141267,-26.091504],[-57.141057,-26.092231],[-57.142264,-26.094667],[-57.142413,-26.095661],[-57.141596,-26.096736],[-57.140966,-26.100132],[-57.139357,-26.101537],[-57.137816,-26.101417],[-57.134875,-26.101853],[-57.133783,-26.102581],[-57.133556,-26.103046],[-57.133801,-26.10445],[-57.132924,-26.10432],[-57.133369,-26.105819],[-57.132249,-26.105793],[-57.13099,-26.107898],[-57.13108,-26.108832],[-57.130727,-26.10937],[-57.131013,-26.110087],[-57.130417,-26.110454],[-57.130419,-26.112652],[-57.130378,-26.112964],[-57.129874,-26.113068],[-57.130165,-26.114242],[-57.129862,-26.114901],[-57.127876,-26.114727],[-57.125382,-26.116332],[-57.123473,-26.116762],[-57.12095,-26.11643],[-57.118969,-26.117845],[-57.115534,-26.119356],[-57.114393,-26.119434],[-57.111716,-26.120718],[-57.110646,-26.120344],[-57.110637,-26.121319],[-57.109973,-26.121338],[-57.109247,-26.121844],[-57.108042,-26.121678],[-57.107316,-26.122121],[-57.1072,-26.122442],[-57.116949,-26.125599],[-57.119791,-26.126999],[-57.121475,-26.129762],[-57.123399,-26.132054],[-57.125037,-26.133416],[-57.130629,-26.139416],[-57.135449,-26.145191],[-57.13661,-26.149546],[-57.137813,-26.152475],[-57.140336,-26.155439],[-57.141797,-26.162205],[-57.14512,-26.167159],[-57.146668,-26.168205],[-57.147262,-26.172981],[-57.147147,-26.174602],[-57.146583,-26.17579],[-57.145502,-26.176333],[-57.14467,-26.17749],[-57.144307,-26.179382],[-57.144526,-26.181923],[-57.144854,-26.182185],[-57.143802,-26.182814],[-57.143743,-26.183771],[-57.143215,-26.184638],[-57.142672,-26.184485],[-57.142069,-26.185068],[-57.141297,-26.184324],[-57.140587,-26.184866],[-57.140179,-26.184194],[-57.139899,-26.186082],[-57.138926,-26.186065],[-57.138236,-26.186697],[-57.137709,-26.186296],[-57.136712,-26.186839],[-57.136314,-26.186654],[-57.136184,-26.186135],[-57.135665,-26.185991],[-57.135166,-26.186641],[-57.134437,-26.18657],[-57.134199,-26.187414],[-57.132798,-26.188635],[-57.132082,-26.188532],[-57.131725,-26.188126],[-57.130368,-26.188858],[-57.129534,-26.188403],[-57.128909,-26.188471],[-57.128442,-26.188982],[-57.127886,-26.188413],[-57.127394,-26.188992],[-57.127442,-26.189692],[-57.126316,-26.191196],[-57.12571,-26.190944],[-57.123773,-26.192702],[-57.123354,-26.192553],[-57.123463,-26.191514],[-57.122528,-26.191398],[-57.122191,-26.191046],[-57.12151,-26.191968],[-57.121082,-26.192],[-57.121076,-26.192437],[-57.120617,-26.192226],[-57.120611,-26.192962],[-57.120365,-26.192262],[-57.119922,-26.192515],[-57.118678,-26.191464],[-57.116836,-26.191168],[-57.116998,-26.191737],[-57.116653,-26.192242],[-57.116044,-26.191904],[-57.116145,-26.192609],[-57.115413,-26.192582],[-57.115646,-26.193133],[-57.115477,-26.193715],[-57.11602,-26.193895],[-57.115425,-26.194501],[-57.115692,-26.195065],[-57.115432,-26.19549],[-57.115887,-26.195756],[-57.116021,-26.19748],[-57.116491,-26.197588],[-57.115988,-26.197977],[-57.116238,-26.198198],[-57.115874,-26.198415],[-57.116037,-26.199002],[-57.114767,-26.199296],[-57.114381,-26.199969],[-57.114489,-26.20094],[-57.113971,-26.20089],[-57.113549,-26.201455],[-57.115583,-26.202266],[-57.115935,-26.203065],[-57.115671,-26.204293],[-57.116886,-26.205362],[-57.116369,-26.205611],[-57.116351,-26.205977],[-57.11659,-26.206306],[-57.117068,-26.206337],[-57.116589,-26.20687],[-57.11704,-26.207507],[-57.116258,-26.208392],[-57.117573,-26.209109],[-57.117098,-26.211001],[-57.117495,-26.211931],[-57.117072,-26.212514],[-57.117247,-26.212929],[-57.118315,-26.213718],[-57.119081,-26.213528],[-57.120356,-26.213721],[-57.121458,-26.215607],[-57.121209,-26.215964],[-57.121538,-26.216131],[-57.12155,-26.216645],[-57.122034,-26.217119],[-57.122393,-26.216785],[-57.122487,-26.217119],[-57.122952,-26.217023],[-57.122945,-26.217272],[-57.121511,-26.218664],[-57.121889,-26.219349],[-57.12177,-26.219751],[-57.120651,-26.220118],[-57.120424,-26.220719],[-57.119608,-26.220295],[-57.119276,-26.220986],[-57.118085,-26.221587],[-57.117088,-26.224451],[-57.116543,-26.224451],[-57.116778,-26.225047],[-57.117161,-26.225146],[-57.116904,-26.226419],[-57.117411,-26.226121],[-57.117624,-26.22636],[-57.11731,-26.227354],[-57.117855,-26.227439],[-57.118146,-26.227881],[-57.118644,-26.227398],[-57.118906,-26.227488],[-57.117622,-26.228283],[-57.118314,-26.228937],[-57.117788,-26.229534],[-57.11807,-26.229777],[-57.117745,-26.229981],[-57.118024,-26.230509],[-57.117515,-26.230681],[-57.117651,-26.23115],[-57.117267,-26.231318],[-57.117709,-26.231981],[-57.117371,-26.232148],[-57.11737,-26.232591],[-57.116461,-26.232551],[-57.11624,-26.23293],[-57.115823,-26.232533],[-57.115504,-26.233152],[-57.115647,-26.233563],[-57.114946,-26.233134],[-57.114832,-26.233884],[-57.114248,-26.233428],[-57.114437,-26.234137],[-57.113918,-26.233839],[-57.113435,-26.234711],[-57.112539,-26.234852],[-57.113041,-26.235497],[-57.112789,-26.23575],[-57.11319,-26.235989],[-57.112867,-26.236346],[-57.1134,-26.236251],[-57.113731,-26.236688],[-57.113428,-26.237005],[-57.113624,-26.237384],[-57.112955,-26.238527],[-57.113196,-26.238788],[-57.112679,-26.239452],[-57.112865,-26.239628],[-57.112298,-26.239525],[-57.111725,-26.240342],[-57.111862,-26.240667],[-57.11215,-26.240559],[-57.11221,-26.241299],[-57.112534,-26.241452],[-57.112368,-26.241913],[-57.111381,-26.241923],[-57.11114,-26.243481],[-57.11089,-26.243549],[-57.110647,-26.243124],[-57.110409,-26.243414],[-57.110419,-26.244348],[-57.109855,-26.244227],[-57.109981,-26.243653],[-57.109395,-26.243604],[-57.109442,-26.243979],[-57.109159,-26.243798],[-57.108959,-26.244015],[-57.108981,-26.243609],[-57.107993,-26.242363],[-57.107124,-26.24361],[-57.106922,-26.242631],[-57.105991,-26.243205],[-57.105119,-26.243097],[-57.104432,-26.242547],[-57.104112,-26.243098],[-57.103822,-26.242619],[-57.103565,-26.243717],[-57.103102,-26.243202],[-57.102912,-26.243825],[-57.102211,-26.243266],[-57.101473,-26.244066],[-57.101228,-26.243669],[-57.101002,-26.244012],[-57.100816,-26.243813],[-57.100742,-26.24445],[-57.100053,-26.243976],[-57.099533,-26.244839],[-57.098654,-26.245074],[-57.097941,-26.244872],[-57.097771,-26.245603],[-57.098043,-26.245856],[-57.097424,-26.246836],[-57.097569,-26.247929],[-57.097124,-26.248286],[-57.097229,-26.248985],[-57.100436,-26.251344],[-57.100386,-26.253787],[-57.100782,-26.254423],[-57.101498,-26.254639],[-57.101369,-26.256265],[-57.09927,-26.261562],[-57.099878,-26.26446],[-57.103839,-26.270755],[-57.106483,-26.271724],[-57.107241,-26.272482],[-57.108171,-26.274323],[-57.108943,-26.274697],[-57.11036,-26.27755],[-57.112063,-26.279882],[-57.112563,-26.286884],[-57.11407,-26.287344],[-57.115793,-26.290376],[-57.116487,-26.290394],[-57.118097,-26.291151],[-57.118787,-26.292062],[-57.118885,-26.292794],[-57.120548,-26.294463],[-57.12239,-26.297816],[-57.12254,-26.298976],[-57.125156,-26.301484],[-57.124809,-26.302355],[-57.125563,-26.303858],[-57.125758,-26.306337],[-57.127291,-26.307473],[-57.12808,-26.308474],[-57.127562,-26.310088],[-57.121462,-26.311117],[-57.120645,-26.311199],[-57.116516,-26.310349],[-57.114087,-26.308888],[-57.113696,-26.308893],[-57.111829,-26.310267],[-57.110243,-26.31332],[-57.109488,-26.314066],[-57.108162,-26.318027],[-57.106467,-26.321368],[-57.105464,-26.322413],[-57.10531,-26.323735],[-57.10848,-26.327421],[-57.110104,-26.330412],[-57.112268,-26.331316],[-57.111107,-26.332665],[-57.110414,-26.334828],[-57.109045,-26.335416],[-57.108965,-26.33636],[-57.107178,-26.336388],[-57.105874,-26.3381],[-57.105093,-26.338557],[-57.104325,-26.338458],[-57.10384,-26.339424],[-57.102564,-26.340206],[-57.101664,-26.340103],[-57.101125,-26.341201],[-57.099785,-26.34187],[-57.099495,-26.342723],[-57.098759,-26.343193],[-57.099126,-26.344638],[-57.09731,-26.346282],[-57.096196,-26.346107],[-57.095844,-26.348225],[-57.095141,-26.34874],[-57.094751,-26.350113],[-57.094263,-26.350388],[-57.093623,-26.350091],[-57.093229,-26.351007],[-57.092259,-26.351383],[-57.09213,-26.352033],[-57.092679,-26.35257],[-57.091964,-26.353013],[-57.091727,-26.353622],[-57.091313,-26.353505],[-57.090528,-26.353844],[-57.09024,-26.354409],[-57.090316,-26.355662]]]}}]}
