{"type":"FeatureCollection","name":"distrito","features":[{"type":"Feature","properties":{"clave":"14-7","nombre":"Katueté"},"geometry":{"type":"Polygon","coordinates":[[[-54.712784,-24.466358],[-54.897509,-24.45209],[-54.897172,-24.455794],[-54.958973,-24.452757],[-54.958685,-24.45043],[-54.958853,-24.448748],[-54.958506,-24.44752],[-54.959793,-24.444346],[-54.95998,-24.441749],[-54.961056,-24.439755],[-54.96167,-24.439456],[-54.961433,-24.438627],[-54.961848,-24.437463],[-54.961582,-24.436936],[-54.961835,-24.436118],[-54.961603,-24.43268],[-54.961996,-24.431908],[-54.960836,-24.430516],[-54.96039,-24.428975],[-54.959162,-24.427586],[-54.957461,-24.424228],[-54.954686,-24.420958],[-54.95393,-24.419589],[-54.953857,-24.417033],[-54.954236,-24.41563],[-54.956639,-24.411437],[-54.957234,-24.405099],[-54.956346,-24.398532],[-54.955289,-24.396139],[-54.955498,-24.392766],[-54.954557,-24.390347],[-54.954251,-24.388081],[-54.954238,-24.383188],[-54.953937,-24.38229],[-54.95442,-24.381448],[-54.953844,-24.381097],[-54.954298,-24.380629],[-54.95329,-24.379975],[-54.953566,-24.378593],[-54.954185,-24.377572],[-54.95401,-24.376211],[-54.954354,-24.375258],[-54.954066,-24.374045],[-54.953321,-24.373493],[-54.953164,-24.372805],[-54.95082,-24.369925],[-54.948937,-24.368247],[-54.946671,-24.367684],[-54.944184,-24.367564],[-54.942595,-24.367096],[-54.941665,-24.366131],[-54.940907,-24.365791],[-54.937639,-24.365458],[-54.93543,-24.363676],[-54.933543,-24.363009],[-54.931512,-24.360188],[-54.931377,-24.358195],[-54.930285,-24.356447],[-54.928864,-24.355416],[-54.926765,-24.355027],[-54.926021,-24.353951],[-54.925823,-24.353095],[-54.924705,-24.351879],[-54.921694,-24.350402],[-54.921589,-24.347711],[-54.918263,-24.3465],[-54.917552,-24.345407],[-54.916786,-24.345049],[-54.916598,-24.343972],[-54.914612,-24.342496],[-54.91238,-24.341621],[-54.911793,-24.341807],[-54.911495,-24.342783],[-54.909769,-24.342086],[-54.909256,-24.342449],[-54.908507,-24.342344],[-54.908137,-24.343319],[-54.906059,-24.34468],[-54.906325,-24.345519],[-54.905579,-24.34582],[-54.902357,-24.346047],[-54.902094,-24.347776],[-54.902462,-24.348734],[-54.901295,-24.350735],[-54.90164,-24.351489],[-54.90078,-24.352845],[-54.899916,-24.353596],[-54.900211,-24.355112],[-54.899655,-24.354739],[-54.898111,-24.355602],[-54.897001,-24.355438],[-54.895681,-24.354716],[-54.894303,-24.35494],[-54.89305,-24.354656],[-54.890273,-24.353011],[-54.888775,-24.351203],[-54.886814,-24.350309],[-54.885584,-24.350594],[-54.88405,-24.350076],[-54.881381,-24.347913],[-54.879943,-24.348055],[-54.879185,-24.34776],[-54.878988,-24.346773],[-54.878384,-24.346011],[-54.876792,-24.342346],[-54.875383,-24.341252],[-54.874533,-24.341123],[-54.873899,-24.340446],[-54.873008,-24.337626],[-54.873347,-24.335852],[-54.8729,-24.334893],[-54.872843,-24.333633],[-54.871938,-24.332894],[-54.871452,-24.33156],[-54.870535,-24.330766],[-54.869642,-24.328307],[-54.869242,-24.328053],[-54.868498,-24.328205],[-54.867495,-24.326336],[-54.865908,-24.32532],[-54.865442,-24.324641],[-54.865312,-24.322983],[-54.864865,-24.322426],[-54.863521,-24.321522],[-54.860583,-24.320939],[-54.859512,-24.318225],[-54.858654,-24.317328],[-54.858732,-24.316345],[-54.858187,-24.314274],[-54.856891,-24.313918],[-54.85567,-24.312971],[-54.854953,-24.313096],[-54.854548,-24.311876],[-54.852413,-24.311439],[-54.851296,-24.310661],[-54.850552,-24.309012],[-54.849172,-24.307083],[-54.847979,-24.306533],[-54.848267,-24.305729],[-54.84805,-24.305058],[-54.846917,-24.304171],[-54.846136,-24.303072],[-54.844419,-24.303273],[-54.842599,-24.30244],[-54.840959,-24.30285],[-54.839586,-24.302622],[-54.837965,-24.303416],[-54.836438,-24.303733],[-54.836242,-24.304055],[-54.836696,-24.304743],[-54.836459,-24.305115],[-54.835,-24.304904],[-54.833957,-24.305142],[-54.834312,-24.307219],[-54.835156,-24.308617],[-54.834548,-24.309728],[-54.834993,-24.311485],[-54.835942,-24.313327],[-54.835882,-24.31566],[-54.834813,-24.316615],[-54.832247,-24.317278],[-54.830945,-24.317201],[-54.831972,-24.319089],[-54.831657,-24.319743],[-54.832181,-24.320477],[-54.831238,-24.321647],[-54.831637,-24.322889],[-54.829527,-24.322638],[-54.827024,-24.320896],[-54.827238,-24.319396],[-54.828274,-24.319361],[-54.828441,-24.319115],[-54.827902,-24.318399],[-54.826953,-24.318222],[-54.82412,-24.315817],[-54.823596,-24.316184],[-54.823899,-24.317366],[-54.823435,-24.318199],[-54.822493,-24.318451],[-54.824359,-24.260102],[-54.823874,-24.259517],[-54.81999,-24.259339],[-54.820738,-24.194552],[-54.821571,-24.178442],[-54.820621,-24.178936],[-54.821217,-24.180054],[-54.820433,-24.180249],[-54.818703,-24.179662],[-54.818026,-24.178841],[-54.81691,-24.179745],[-54.81558,-24.178574],[-54.815299,-24.179683],[-54.814418,-24.180312],[-54.812646,-24.183702],[-54.811646,-24.184525],[-54.811255,-24.184305],[-54.811353,-24.183605],[-54.808765,-24.183556],[-54.807221,-24.182245],[-54.805889,-24.182983],[-54.805135,-24.183832],[-54.806736,-24.183934],[-54.806904,-24.184208],[-54.806492,-24.185209],[-54.806975,-24.186562],[-54.806781,-24.187091],[-54.805453,-24.188316],[-54.804868,-24.190072],[-54.800343,-24.190764],[-54.799787,-24.189388],[-54.798987,-24.189286],[-54.798763,-24.189441],[-54.799284,-24.190647],[-54.799057,-24.190972],[-54.796864,-24.191596],[-54.796337,-24.192844],[-54.795087,-24.193075],[-54.794634,-24.1936],[-54.794377,-24.193506],[-54.794368,-24.19259],[-54.793743,-24.192354],[-54.793879,-24.193046],[-54.793593,-24.193212],[-54.792993,-24.192932],[-54.792539,-24.192122],[-54.791252,-24.191662],[-54.789779,-24.191991],[-54.789216,-24.193148],[-54.788934,-24.19311],[-54.787961,-24.192304],[-54.787633,-24.191316],[-54.786207,-24.191069],[-54.785772,-24.191232],[-54.78559,-24.191817],[-54.784481,-24.19032],[-54.783442,-24.189773],[-54.783227,-24.189374],[-54.78338,-24.188381],[-54.786659,-24.187705],[-54.785604,-24.186683],[-54.786261,-24.185753],[-54.785392,-24.184666],[-54.78621,-24.184452],[-54.784577,-24.18263],[-54.78468,-24.182348],[-54.785441,-24.182552],[-54.785221,-24.180332],[-54.786782,-24.180592],[-54.786871,-24.179711],[-54.786034,-24.178907],[-54.787506,-24.17722],[-54.787729,-24.176443],[-54.78831,-24.176338],[-54.789108,-24.177277],[-54.789801,-24.177118],[-54.789126,-24.175513],[-54.791198,-24.174028],[-54.792868,-24.168668],[-54.79498,-24.167737],[-54.79804,-24.168301],[-54.798551,-24.168003],[-54.798433,-24.167719],[-54.797755,-24.167675],[-54.797463,-24.166744],[-54.797634,-24.163963],[-54.798253,-24.161688],[-54.797253,-24.159569],[-54.796359,-24.160654],[-54.795472,-24.160652],[-54.794661,-24.159034],[-54.791573,-24.158005],[-54.790412,-24.158803],[-54.789525,-24.158813],[-54.78854,-24.160156],[-54.788007,-24.160295],[-54.787078,-24.159841],[-54.785907,-24.158421],[-54.783413,-24.156484],[-54.781976,-24.154767],[-54.781058,-24.152243],[-54.780335,-24.151305],[-54.77964,-24.153014],[-54.777441,-24.151817],[-54.774898,-24.152701],[-54.774852,-24.153719],[-54.77657,-24.154372],[-54.776838,-24.154901],[-54.77631,-24.155479],[-54.775176,-24.155861],[-54.774145,-24.156652],[-54.771899,-24.159249],[-54.770676,-24.1589],[-54.770072,-24.159061],[-54.768615,-24.16044],[-54.767768,-24.160224],[-54.764195,-24.162054],[-54.754859,-24.159321],[-54.751355,-24.157684],[-54.750505,-24.157696],[-54.749996,-24.15718],[-54.748671,-24.15733],[-54.748704,-24.158111],[-54.749895,-24.159274],[-54.750383,-24.160952],[-54.750312,-24.162376],[-54.749686,-24.16274],[-54.747737,-24.162627],[-54.747417,-24.162961],[-54.747335,-24.163953],[-54.745605,-24.163969],[-54.745434,-24.164255],[-54.745723,-24.164624],[-54.746817,-24.164997],[-54.7472,-24.165834],[-54.748572,-24.166176],[-54.747394,-24.168483],[-54.747877,-24.169381],[-54.748671,-24.168935],[-54.749141,-24.169035],[-54.748115,-24.171141],[-54.748901,-24.173757],[-54.751593,-24.172626],[-54.752474,-24.17302],[-54.752251,-24.173602],[-54.750496,-24.173992],[-54.749509,-24.174953],[-54.749516,-24.175598],[-54.7498,-24.175746],[-54.751046,-24.175366],[-54.752729,-24.175883],[-54.752967,-24.17654],[-54.752208,-24.177114],[-54.751882,-24.179374],[-54.753323,-24.18049],[-54.753501,-24.181425],[-54.754029,-24.181917],[-54.753735,-24.183397],[-54.754533,-24.183739],[-54.75737,-24.183824],[-54.757648,-24.184371],[-54.758702,-24.184878],[-54.759568,-24.187699],[-54.762847,-24.190088],[-54.764046,-24.189699],[-54.764209,-24.189888],[-54.763676,-24.19133],[-54.76465,-24.191133],[-54.764733,-24.190107],[-54.765233,-24.189555],[-54.764541,-24.188926],[-54.764439,-24.188398],[-54.765661,-24.187805],[-54.76642,-24.187757],[-54.767154,-24.188082],[-54.767274,-24.188626],[-54.766079,-24.189813],[-54.76621,-24.190273],[-54.767262,-24.190891],[-54.767446,-24.192047],[-54.768852,-24.193061],[-54.769555,-24.193088],[-54.77009,-24.192638],[-54.770955,-24.19338],[-54.770515,-24.194256],[-54.768473,-24.195693],[-54.767819,-24.197143],[-54.767878,-24.198017],[-54.768455,-24.197831],[-54.768903,-24.196505],[-54.769451,-24.195852],[-54.771135,-24.195792],[-54.771447,-24.195923],[-54.772023,-24.197366],[-54.772854,-24.198005],[-54.773583,-24.199127],[-54.773438,-24.199507],[-54.771631,-24.199693],[-54.770666,-24.200943],[-54.771685,-24.204037],[-54.772357,-24.204793],[-54.772523,-24.205856],[-54.771887,-24.206271],[-54.769773,-24.204959],[-54.768302,-24.204454],[-54.764107,-24.201567],[-54.763346,-24.200699],[-54.758552,-24.197719],[-54.756541,-24.197944],[-54.755479,-24.196775],[-54.754856,-24.196978],[-54.753982,-24.198288],[-54.75167,-24.198831],[-54.750972,-24.199627],[-54.749341,-24.199272],[-54.748846,-24.198458],[-54.748498,-24.199352],[-54.747119,-24.199892],[-54.746685,-24.199343],[-54.746842,-24.198335],[-54.7465,-24.197754],[-54.746158,-24.197748],[-54.745086,-24.198751],[-54.743966,-24.198853],[-54.742907,-24.199626],[-54.741953,-24.199162],[-54.741143,-24.199473],[-54.741002,-24.198028],[-54.738959,-24.196412],[-54.7386,-24.195278],[-54.737281,-24.194555],[-54.736758,-24.193817],[-54.735485,-24.194655],[-54.733025,-24.193609],[-54.732105,-24.192289],[-54.731135,-24.191689],[-54.728335,-24.188475],[-54.726862,-24.188606],[-54.722507,-24.190678],[-54.721505,-24.190833],[-54.719866,-24.190444],[-54.717903,-24.191093],[-54.717242,-24.190794],[-54.71398,-24.20335],[-54.715189,-24.204887],[-54.712973,-24.213678],[-54.707229,-24.221324],[-54.704621,-24.222169],[-54.704613,-24.222593],[-54.705376,-24.223679],[-54.702989,-24.226351],[-54.703088,-24.228537],[-54.702635,-24.229364],[-54.700249,-24.229948],[-54.699706,-24.230427],[-54.687948,-24.245369],[-54.683146,-24.25895],[-54.683784,-24.261186],[-54.683352,-24.262476],[-54.683846,-24.26298],[-54.683918,-24.264234],[-54.68475,-24.264969],[-54.685853,-24.267475],[-54.687564,-24.269982],[-54.68748,-24.270398],[-54.685613,-24.271266],[-54.683629,-24.271297],[-54.680031,-24.272295],[-54.679669,-24.273456],[-54.678396,-24.272975],[-54.677462,-24.274179],[-54.67728,-24.289951],[-54.662716,-24.367799],[-54.671695,-24.370027],[-54.677838,-24.374062],[-54.687197,-24.378606],[-54.691288,-24.381354],[-54.692732,-24.382842],[-54.696322,-24.391482],[-54.69711,-24.396607],[-54.698934,-24.40383],[-54.701529,-24.407891],[-54.70344,-24.410185],[-54.711877,-24.452835],[-54.712784,-24.466358]]]}}]}
