{"type":"FeatureCollection","name":"distrito","features":[{"type":"Feature","properties":{"clave":"4-19","nombre":"José Fassardi"},"geometry":{"type":"Polygon","coordinates":[[[-56.128906,-26.007595],[-56.133537,-26.000504],[-56.139631,-25.994504],[-56.151859,-25.985179],[-56.156831,-25.973575],[-56.156303,-25.972313],[-56.155894,-25.973209],[-56.155651,-25.973424],[-56.155438,-25.973206],[-56.155472,-25.972136],[-56.155192,-25.971828],[-56.155527,-25.970877],[-56.154862,-25.969817],[-56.152404,-25.968949],[-56.150893,-25.969451],[-56.151009,-25.970779],[-56.150696,-25.970935],[-56.150145,-25.971035],[-56.149591,-25.97049],[-56.149294,-25.971211],[-56.148205,-25.970708],[-56.147863,-25.971925],[-56.146997,-25.971188],[-56.147098,-25.972209],[-56.146583,-25.972486],[-56.146442,-25.97295],[-56.144185,-25.973081],[-56.143167,-25.972687],[-56.142823,-25.972807],[-56.141485,-25.974113],[-56.141623,-25.97466],[-56.139364,-25.974479],[-56.137707,-25.97554],[-56.135221,-25.973155],[-56.134671,-25.97307],[-56.133741,-25.973602],[-56.134161,-25.972706],[-56.133049,-25.972564],[-56.132891,-25.972044],[-56.132172,-25.971981],[-56.132498,-25.97154],[-56.132099,-25.970107],[-56.133575,-25.970775],[-56.133309,-25.969992],[-56.1328,-25.96975],[-56.133416,-25.967844],[-56.13249,-25.96791],[-56.132703,-25.966706],[-56.131323,-25.967316],[-56.131845,-25.966809],[-56.130814,-25.966456],[-56.131537,-25.965489],[-56.130727,-25.965132],[-56.132002,-25.96449],[-56.132457,-25.963806],[-56.132275,-25.963679],[-56.131524,-25.964198],[-56.131137,-25.963166],[-56.131591,-25.962334],[-56.130843,-25.960546],[-56.131589,-25.959589],[-56.129701,-25.959672],[-56.129249,-25.958667],[-56.128687,-25.959057],[-56.128695,-25.959739],[-56.128363,-25.959687],[-56.127512,-25.959135],[-56.127208,-25.958556],[-56.127441,-25.957334],[-56.125856,-25.957175],[-56.125316,-25.956743],[-56.125186,-25.955672],[-56.123794,-25.955953],[-56.1226,-25.95497],[-56.123168,-25.954274],[-56.121932,-25.953811],[-56.122898,-25.953261],[-56.122793,-25.951735],[-56.121947,-25.951833],[-56.1218,-25.951246],[-56.120897,-25.950581],[-56.120656,-25.950954],[-56.120824,-25.951808],[-56.120488,-25.952091],[-56.119695,-25.950185],[-56.118762,-25.948897],[-56.118003,-25.948943],[-56.117456,-25.948497],[-56.117505,-25.947712],[-56.116961,-25.947817],[-56.115856,-25.946762],[-56.11512,-25.946577],[-56.114737,-25.945081],[-56.115102,-25.944749],[-56.115222,-25.943914],[-56.114745,-25.94392],[-56.113586,-25.94246],[-56.112384,-25.941911],[-56.112277,-25.941585],[-56.112743,-25.941087],[-56.111921,-25.940436],[-56.112873,-25.93985],[-56.112582,-25.939275],[-56.113258,-25.938281],[-56.112563,-25.937478],[-56.112637,-25.936048],[-56.113193,-25.935058],[-56.114487,-25.934267],[-56.115405,-25.932918],[-56.115837,-25.931584],[-56.116893,-25.931491],[-56.117639,-25.930656],[-56.118484,-25.930964],[-56.119268,-25.930856],[-56.120104,-25.930188],[-56.12018,-25.929534],[-56.120701,-25.929117],[-56.120407,-25.928709],[-56.11987,-25.928706],[-56.118051,-25.929173],[-56.115991,-25.928014],[-56.115365,-25.92694],[-56.115539,-25.923465],[-56.117294,-25.920288],[-56.11761,-25.920272],[-56.12014,-25.917818],[-56.123646,-25.915365],[-56.12492,-25.913694],[-56.127117,-25.911666],[-56.128011,-25.910087],[-56.129953,-25.908234],[-56.130428,-25.906661],[-56.133017,-25.903033],[-56.139636,-25.899249],[-56.132255,-25.887801],[-56.134385,-25.884572],[-56.135807,-25.881191],[-56.134961,-25.876982],[-56.135321,-25.874424],[-56.132283,-25.873796],[-56.132457,-25.871621],[-56.131617,-25.871589],[-56.129695,-25.872228],[-56.128895,-25.871871],[-56.12818,-25.870991],[-56.128118,-25.870363],[-56.129768,-25.869371],[-56.129848,-25.868911],[-56.129132,-25.868554],[-56.125635,-25.868506],[-56.12533,-25.867691],[-56.126205,-25.865746],[-56.125096,-25.864954],[-56.118844,-25.865554],[-56.088729,-25.866377],[-56.038027,-25.864574],[-56.03649,-25.863084],[-56.034183,-25.862157],[-56.033731,-25.862912],[-56.033377,-25.865695],[-56.031367,-25.868174],[-56.030236,-25.870703],[-56.016883,-25.873602],[-56.015395,-25.875335],[-56.012788,-25.877033],[-56.011991,-25.877388],[-56.009762,-25.877585],[-56.010418,-25.879883],[-56.011771,-25.882168],[-56.013036,-25.882565],[-56.015182,-25.883925],[-56.017391,-25.884256],[-56.018619,-25.885925],[-56.019295,-25.887524],[-56.020859,-25.888022],[-56.021825,-25.889247],[-56.022655,-25.889537],[-56.023689,-25.890736],[-56.025919,-25.891686],[-56.031108,-25.894768],[-56.034086,-25.895013],[-56.036278,-25.894608],[-56.038252,-25.895041],[-56.040375,-25.893696],[-56.043978,-25.892077],[-56.048453,-25.89086],[-56.090587,-25.998325],[-56.091043,-25.998007],[-56.091236,-25.998198],[-56.091317,-25.99865],[-56.090881,-25.999329],[-56.091514,-25.999545],[-56.091483,-26.000308],[-56.092217,-26.000791],[-56.092344,-26.002982],[-56.093031,-26.003776],[-56.092661,-26.004446],[-56.093584,-26.005707],[-56.094205,-26.005851],[-56.0945,-26.006846],[-56.09408,-26.007534],[-56.094761,-26.008148],[-56.095887,-26.010101],[-56.096296,-26.012668],[-56.097088,-26.013246],[-56.096914,-26.01455],[-56.097812,-26.014817],[-56.09878,-26.016001],[-56.098534,-26.016767],[-56.099352,-26.019183],[-56.099751,-26.01863],[-56.100361,-26.019176],[-56.100764,-26.018334],[-56.101528,-26.018741],[-56.10194,-26.018165],[-56.102995,-26.017567],[-56.103829,-26.017893],[-56.10426,-26.016938],[-56.104643,-26.01709],[-56.105323,-26.016796],[-56.105724,-26.015936],[-56.106325,-26.01636],[-56.107652,-26.015271],[-56.108353,-26.015415],[-56.108581,-26.015814],[-56.109085,-26.01556],[-56.10909,-26.016092],[-56.110008,-26.015904],[-56.110367,-26.016999],[-56.111115,-26.017956],[-56.11209,-26.018011],[-56.112801,-26.0177],[-56.116018,-26.024288],[-56.117221,-26.025095],[-56.118108,-26.024874],[-56.119972,-26.025306],[-56.120771,-26.027396],[-56.12511,-26.020834],[-56.128906,-26.007595]]]}}]}
