{"type":"FeatureCollection","name":"distrito","features":[{"type":"Feature","properties":{"clave":"8-13","nombre":"Santiago"},"geometry":{"type":"Polygon","coordinates":[[[-56.698186,-27.269004],[-56.705649,-27.269859],[-56.708928,-27.267591],[-56.709837,-27.267349],[-56.713017,-27.268006],[-56.716779,-27.267269],[-56.770737,-27.267489],[-56.942325,-27.278485],[-56.947213,-27.279165],[-56.949076,-27.276877],[-56.949774,-27.276462],[-56.950706,-27.276358],[-56.952567,-27.277036],[-56.9544,-27.278336],[-56.955214,-27.278337],[-56.956785,-27.279064],[-56.960159,-27.281092],[-56.961817,-27.281404],[-56.976095,-27.249009],[-56.97787,-27.249104],[-56.980291,-27.24877],[-56.981259,-27.24896],[-56.982936,-27.247954],[-56.984003,-27.246798],[-56.984021,-27.244947],[-56.982733,-27.243508],[-56.983921,-27.241864],[-56.983967,-27.241386],[-56.981392,-27.233436],[-56.980601,-27.232768],[-56.978715,-27.232212],[-56.976679,-27.229639],[-56.974979,-27.224605],[-56.97497,-27.223012],[-56.974394,-27.221481],[-56.97527,-27.217807],[-56.975047,-27.213185],[-56.972728,-27.208805],[-56.973568,-27.206598],[-56.973954,-27.202797],[-56.974034,-27.196347],[-56.974661,-27.190022],[-56.974397,-27.184948],[-56.973893,-27.184041],[-56.972811,-27.183371],[-56.97214,-27.182154],[-56.971719,-27.179973],[-56.970654,-27.179106],[-56.967515,-27.177462],[-56.967727,-27.176122],[-56.967027,-27.175363],[-56.966356,-27.175164],[-56.96618,-27.174065],[-56.914389,-27.17249],[-56.91985,-27.169336],[-56.920454,-27.16856],[-56.921313,-27.166768],[-56.921544,-27.164777],[-56.92135,-27.161152],[-56.915283,-27.141377],[-56.914969,-27.129739],[-56.915225,-27.129747],[-56.914846,-27.128597],[-56.913118,-27.126673],[-56.911724,-27.124103],[-56.910897,-27.121674],[-56.910035,-27.121159],[-56.909688,-27.118676],[-56.908338,-27.117768],[-56.908534,-27.117045],[-56.907999,-27.115605],[-56.907331,-27.115207],[-56.906201,-27.115157],[-56.905569,-27.114552],[-56.903368,-27.11065],[-56.902398,-27.109624],[-56.902543,-27.109029],[-56.90176,-27.108333],[-56.902169,-27.107119],[-56.90163,-27.106175],[-56.901997,-27.105634],[-56.901625,-27.10506],[-56.901803,-27.101665],[-56.901671,-27.101133],[-56.900825,-27.10027],[-56.900444,-27.098744],[-56.899466,-27.098323],[-56.900008,-27.096676],[-56.899922,-27.095507],[-56.900243,-27.095064],[-56.901116,-27.09516],[-56.902545,-27.093771],[-56.903265,-27.093509],[-56.903072,-27.092999],[-56.904082,-27.091068],[-56.905816,-27.088915],[-56.904668,-27.087551],[-56.90466,-27.087163],[-56.903747,-27.086774],[-56.903697,-27.085786],[-56.903101,-27.084472],[-56.903344,-27.083736],[-56.902881,-27.083578],[-56.902244,-27.082295],[-56.902226,-27.080724],[-56.900386,-27.079757],[-56.899095,-27.077115],[-56.898617,-27.076821],[-56.898279,-27.076934],[-56.897277,-27.07603],[-56.896707,-27.075985],[-56.895414,-27.075049],[-56.894654,-27.074873],[-56.894426,-27.07308],[-56.895477,-27.071578],[-56.895163,-27.070557],[-56.896764,-27.068956],[-56.897062,-27.068053],[-56.896778,-27.066803],[-56.896052,-27.066622],[-56.895906,-27.065561],[-56.894618,-27.06412],[-56.894596,-27.061989],[-56.893307,-27.061117],[-56.893406,-27.059374],[-56.893976,-27.058115],[-56.892776,-27.056101],[-56.892933,-27.055483],[-56.891781,-27.054453],[-56.891636,-27.053536],[-56.89204,-27.051509],[-56.891765,-27.051229],[-56.891214,-27.050825],[-56.882029,-27.04762],[-56.880306,-27.048845],[-56.877625,-27.051997],[-56.875834,-27.052633],[-56.8658,-27.049505],[-56.850628,-27.041165],[-56.849169,-27.041869],[-56.846076,-27.040763],[-56.843976,-27.038349],[-56.843336,-27.036842],[-56.844008,-27.031876],[-56.843842,-27.031342],[-56.842226,-27.02985],[-56.836896,-27.023224],[-56.833138,-27.022886],[-56.828988,-27.023621],[-56.827188,-27.016965],[-56.825827,-27.017074],[-56.821443,-27.01647],[-56.817255,-27.017263],[-56.813207,-27.017073],[-56.811798,-27.018178],[-56.810095,-27.020622],[-56.809227,-27.021063],[-56.806986,-27.021254],[-56.806098,-27.022422],[-56.803838,-27.023909],[-56.803326,-27.025465],[-56.800115,-27.025985],[-56.796972,-27.027723],[-56.794876,-27.027832],[-56.798571,-27.008297],[-56.798484,-27.005827],[-56.798032,-27.004066],[-56.791637,-26.993736],[-56.790498,-26.99419],[-56.787846,-26.988611],[-56.790001,-26.98359],[-56.789049,-26.982871],[-56.788954,-26.981719],[-56.787953,-26.981307],[-56.787767,-26.979045],[-56.786441,-26.977301],[-56.787079,-26.974855],[-56.786765,-26.973491],[-56.786217,-26.9728],[-56.785177,-26.973204],[-56.782287,-26.972676],[-56.776122,-26.972648],[-56.775536,-26.972417],[-56.775092,-26.968972],[-56.77697,-26.968099],[-56.777528,-26.967401],[-56.777751,-26.966471],[-56.776207,-26.964198],[-56.77565,-26.962775],[-56.773452,-26.960541],[-56.77354,-26.959648],[-56.771712,-26.959229],[-56.771164,-26.960289],[-56.769756,-26.961443],[-56.766787,-26.961713],[-56.764184,-26.962883],[-56.763962,-26.962602],[-56.762081,-26.962315],[-56.761293,-26.963424],[-56.760414,-26.963562],[-56.759436,-26.964414],[-56.758244,-26.964602],[-56.757274,-26.966049],[-56.755718,-26.965766],[-56.755091,-26.966637],[-56.754463,-26.966879],[-56.753467,-26.966611],[-56.75253,-26.967084],[-56.749427,-26.966342],[-56.748727,-26.966418],[-56.74755,-26.96712],[-56.74465,-26.966347],[-56.742148,-26.96595],[-56.740799,-26.966065],[-56.738919,-26.965488],[-56.737825,-26.964398],[-56.735778,-26.963582],[-56.73554,-26.963012],[-56.735715,-26.96178],[-56.735431,-26.961419],[-56.733237,-26.960796],[-56.73119,-26.960837],[-56.731239,-26.960047],[-56.730605,-26.959374],[-56.727607,-26.958095],[-56.726792,-26.95817],[-56.726106,-26.959514],[-56.725062,-26.960103],[-56.723427,-26.96019],[-56.721459,-26.959739],[-56.719844,-26.960409],[-56.717948,-26.959742],[-56.717132,-26.96034],[-56.714656,-26.958706],[-56.714127,-26.959147],[-56.713209,-26.95854],[-56.712281,-26.958574],[-56.711573,-26.959273],[-56.710045,-26.959211],[-56.709196,-26.95864],[-56.708264,-26.958891],[-56.707667,-26.962064],[-56.706644,-26.962535],[-56.705041,-26.965019],[-56.703834,-26.965757],[-56.703528,-26.965021],[-56.702878,-26.965173],[-56.702195,-26.964801],[-56.70251,-26.962075],[-56.702033,-26.961063],[-56.702071,-26.960084],[-56.700054,-26.95965],[-56.700095,-26.957258],[-56.700713,-26.956158],[-56.700578,-26.955512],[-56.697302,-26.952842],[-56.696823,-26.952841],[-56.696722,-26.952226],[-56.696278,-26.952162],[-56.69614,-26.952564],[-56.695185,-26.952693],[-56.694528,-26.951797],[-56.692573,-26.951233],[-56.692082,-26.950826],[-56.691937,-26.950609],[-56.692314,-26.950366],[-56.691875,-26.950144],[-56.69212,-26.948587],[-56.691503,-26.948518],[-56.691609,-26.947909],[-56.691025,-26.947081],[-56.689435,-26.947213],[-56.689197,-26.946847],[-56.689541,-26.946202],[-56.689132,-26.945714],[-56.688448,-26.945527],[-56.688753,-26.946322],[-56.688172,-26.946384],[-56.688003,-26.945865],[-56.687558,-26.945832],[-56.687318,-26.946017],[-56.68764,-26.947087],[-56.687263,-26.947457],[-56.686545,-26.947514],[-56.685931,-26.947052],[-56.685353,-26.945642],[-56.685079,-26.945763],[-56.685112,-26.946531],[-56.684667,-26.94644],[-56.683782,-26.944998],[-56.682176,-26.944624],[-56.682247,-26.943857],[-56.681563,-26.943828],[-56.680183,-26.944398],[-56.678038,-26.944037],[-56.675659,-26.942934],[-56.670426,-26.939482],[-56.667483,-26.938053],[-56.652578,-26.925698],[-56.647044,-26.924488],[-56.64405,-26.978312],[-56.629229,-26.997258],[-56.62611,-27.006058],[-56.625861,-27.016422],[-56.640758,-27.035484],[-56.634802,-27.138759],[-56.634777,-27.146307],[-56.63639,-27.147454],[-56.639889,-27.153494],[-56.640755,-27.156512],[-56.63892,-27.159107],[-56.63915,-27.159568],[-56.638941,-27.160579],[-56.63845,-27.161246],[-56.637825,-27.163474],[-56.639312,-27.165044],[-56.640006,-27.165412],[-56.641446,-27.165488],[-56.642212,-27.167422],[-56.645009,-27.169289],[-56.648943,-27.170039],[-56.649611,-27.170244],[-56.650021,-27.170823],[-56.651696,-27.169996],[-56.652132,-27.170507],[-56.652724,-27.170391],[-56.653494,-27.170786],[-56.653698,-27.17141],[-56.654828,-27.172053],[-56.654642,-27.17408],[-56.656764,-27.178202],[-56.658997,-27.179954],[-56.659841,-27.181545],[-56.661943,-27.184047],[-56.662887,-27.187552],[-56.663243,-27.189923],[-56.662995,-27.190748],[-56.664393,-27.191587],[-56.666397,-27.194435],[-56.666917,-27.194558],[-56.668264,-27.195826],[-56.669645,-27.196623],[-56.671393,-27.195449],[-56.672744,-27.195484],[-56.673058,-27.197123],[-56.675194,-27.197124],[-56.677875,-27.197654],[-56.679345,-27.198682],[-56.679679,-27.200637],[-56.679887,-27.200285],[-56.681109,-27.199751],[-56.682423,-27.200309],[-56.68418,-27.199862],[-56.684536,-27.200617],[-56.686353,-27.201063],[-56.686632,-27.200576],[-56.687475,-27.201065],[-56.68772,-27.200646],[-56.688273,-27.200828],[-56.688683,-27.202648],[-56.688292,-27.203049],[-56.687528,-27.202948],[-56.687494,-27.204645],[-56.688211,-27.206028],[-56.688654,-27.206237],[-56.688444,-27.206855],[-56.689194,-27.206838],[-56.689733,-27.206135],[-56.690236,-27.206055],[-56.690863,-27.206413],[-56.690853,-27.206996],[-56.691677,-27.207133],[-56.691535,-27.207615],[-56.692417,-27.207726],[-56.692858,-27.20881],[-56.693152,-27.20872],[-56.69326,-27.208202],[-56.694208,-27.209065],[-56.69435,-27.208222],[-56.695328,-27.208283],[-56.69493,-27.209681],[-56.695084,-27.209966],[-56.695683,-27.210017],[-56.695335,-27.210978],[-56.695725,-27.211489],[-56.695402,-27.211759],[-56.694138,-27.211472],[-56.693972,-27.211832],[-56.693294,-27.21189],[-56.69336,-27.212535],[-56.692757,-27.21304],[-56.693072,-27.213609],[-56.692447,-27.21386],[-56.692269,-27.214429],[-56.692095,-27.215413],[-56.692454,-27.215883],[-56.691658,-27.216084],[-56.690155,-27.217616],[-56.690621,-27.218353],[-56.690671,-27.219314],[-56.689925,-27.220414],[-56.690515,-27.221011],[-56.690151,-27.222134],[-56.690761,-27.223151],[-56.69078,-27.223901],[-56.691577,-27.223979],[-56.692274,-27.225028],[-56.693362,-27.22568],[-56.693258,-27.22694],[-56.695242,-27.227079],[-56.696307,-27.226116],[-56.696857,-27.226708],[-56.697427,-27.226583],[-56.697962,-27.22518],[-56.697407,-27.224561],[-56.69814,-27.224012],[-56.699144,-27.224181],[-56.700071,-27.225352],[-56.700772,-27.225105],[-56.701039,-27.224307],[-56.701475,-27.224213],[-56.70227,-27.22565],[-56.702954,-27.225412],[-56.702726,-27.226843],[-56.703285,-27.22688],[-56.703729,-27.226235],[-56.705088,-27.226559],[-56.70682,-27.227754],[-56.706778,-27.229645],[-56.707993,-27.229792],[-56.707779,-27.230632],[-56.708012,-27.231065],[-56.707176,-27.232219],[-56.708418,-27.232714],[-56.708503,-27.233567],[-56.709362,-27.23481],[-56.709545,-27.23603],[-56.709023,-27.23616],[-56.708571,-27.236732],[-56.706241,-27.237273],[-56.705524,-27.237908],[-56.704222,-27.237698],[-56.703784,-27.237972],[-56.704191,-27.238479],[-56.705638,-27.238477],[-56.706025,-27.23897],[-56.705781,-27.239489],[-56.705293,-27.239754],[-56.701947,-27.239589],[-56.701331,-27.241095],[-56.700339,-27.241594],[-56.700899,-27.242435],[-56.698609,-27.241424],[-56.698006,-27.241986],[-56.697446,-27.241746],[-56.697196,-27.241926],[-56.697021,-27.243813],[-56.697917,-27.243715],[-56.69753,-27.244838],[-56.698217,-27.245097],[-56.698134,-27.245652],[-56.698944,-27.245672],[-56.699387,-27.246233],[-56.698794,-27.247753],[-56.697898,-27.247701],[-56.696864,-27.246719],[-56.695872,-27.246848],[-56.695757,-27.247764],[-56.695172,-27.248047],[-56.694987,-27.248841],[-56.695631,-27.249412],[-56.695669,-27.250283],[-56.696428,-27.250429],[-56.697054,-27.251067],[-56.697035,-27.251365],[-56.696466,-27.251576],[-56.6965,-27.251874],[-56.69755,-27.251858],[-56.696433,-27.253169],[-56.696936,-27.253414],[-56.696709,-27.254574],[-56.697166,-27.254967],[-56.696794,-27.255558],[-56.697406,-27.256322],[-56.697093,-27.256529],[-56.69646,-27.256388],[-56.696823,-27.257052],[-56.695352,-27.257541],[-56.695164,-27.258366],[-56.694365,-27.258333],[-56.694675,-27.259395],[-56.694537,-27.259661],[-56.69403,-27.25966],[-56.693666,-27.26086],[-56.694382,-27.261322],[-56.693082,-27.261612],[-56.693224,-27.262231],[-56.692345,-27.263609],[-56.692456,-27.264008],[-56.692803,-27.263765],[-56.692962,-27.263928],[-56.693125,-27.26479],[-56.692815,-27.265331],[-56.69443,-27.267145],[-56.69722,-27.267336],[-56.698179,-27.268078],[-56.698186,-27.269004]]]}}]}
