{"type":"FeatureCollection","name":"distrito","features":[{"type":"Feature","properties":{"clave":"8-17","nombre":"Yabebyry"},"geometry":{"type":"Polygon","coordinates":[[[-57.163755,-27.384211],[-57.164513,-27.38468],[-57.164747,-27.38551],[-57.165359,-27.386083],[-57.166815,-27.385612],[-57.166814,-27.385093],[-57.165997,-27.383897],[-57.166404,-27.383324],[-57.16716,-27.382962],[-57.16786,-27.383376],[-57.16792,-27.384676],[-57.169551,-27.384827],[-57.17095,-27.385399],[-57.172114,-27.384824],[-57.171824,-27.385606],[-57.171999,-27.386075],[-57.174444,-27.385449],[-57.174733,-27.383733],[-57.176363,-27.383054],[-57.177179,-27.383157],[-57.178286,-27.383778],[-57.178751,-27.383516],[-57.179623,-27.382373],[-57.181427,-27.381021],[-57.182849,-27.378468],[-57.184071,-27.377478],[-57.184711,-27.377166],[-57.186283,-27.377268],[-57.186868,-27.37831],[-57.18745,-27.378516],[-57.187916,-27.378308],[-57.18902,-27.376849],[-57.190126,-27.376432],[-57.190768,-27.377158],[-57.192225,-27.377887],[-57.192865,-27.37757],[-57.193329,-27.376739],[-57.195425,-27.375905],[-57.196587,-27.374604],[-57.197693,-27.374187],[-57.199321,-27.372573],[-57.200107,-27.372622],[-57.199938,-27.375637],[-57.201511,-27.375946],[-57.201456,-27.377924],[-57.202097,-27.378338],[-57.204369,-27.378493],[-57.205069,-27.378957],[-57.205304,-27.380049],[-57.205829,-27.380517],[-57.209148,-27.380097],[-57.209498,-27.380665],[-57.209209,-27.381916],[-57.209443,-27.382124],[-57.2102,-27.382068],[-57.210315,-27.381341],[-57.210781,-27.381395],[-57.211306,-27.381913],[-57.210669,-27.384099],[-57.21361,-27.383521],[-57.213843,-27.383679],[-57.212798,-27.385292],[-57.212974,-27.385811],[-57.216644,-27.386324],[-57.21659,-27.388455],[-57.218458,-27.390533],[-57.219856,-27.390842],[-57.220907,-27.391879],[-57.222944,-27.391411],[-57.228012,-27.39161],[-57.229611,-27.390204],[-57.230486,-27.390459],[-57.230779,-27.391605],[-57.232294,-27.391707],[-57.232817,-27.391394],[-57.232757,-27.390198],[-57.233513,-27.390093],[-57.235553,-27.390817],[-57.237363,-27.392583],[-57.238879,-27.393411],[-57.239635,-27.392629],[-57.240275,-27.392578],[-57.243831,-27.393452],[-57.245551,-27.394334],[-57.248755,-27.394798],[-57.251783,-27.394273],[-57.253642,-27.392189],[-57.253874,-27.391565],[-57.255271,-27.391405],[-57.257254,-27.392444],[-57.258185,-27.391869],[-57.260806,-27.392018],[-57.264327,-27.390765],[-57.26508,-27.389098],[-57.26904,-27.388522],[-57.269739,-27.388674],[-57.270498,-27.389557],[-57.27213,-27.389969],[-57.273062,-27.389918],[-57.273411,-27.389551],[-57.274284,-27.389396],[-57.275158,-27.389548],[-57.275917,-27.390065],[-57.277548,-27.390324],[-57.278712,-27.389803],[-57.279411,-27.389801],[-57.280111,-27.390472],[-57.282618,-27.391248],[-57.283317,-27.391143],[-57.283076,-27.390299],[-57.283618,-27.389698],[-57.285542,-27.390127],[-57.287728,-27.389441],[-57.290065,-27.390059],[-57.290932,-27.391484],[-57.292002,-27.391649],[-57.29331,-27.391687],[-57.29898,-27.39074],[-57.300574,-27.390814],[-57.303928,-27.390314],[-57.306468,-27.390431],[-57.308719,-27.389974],[-57.312324,-27.390129],[-57.319158,-27.391224],[-57.32118,-27.391214],[-57.322882,-27.391666],[-57.324778,-27.391084],[-57.325043,-27.38796],[-57.325792,-27.386776],[-57.255296,-27.250421],[-57.25002,-27.239622],[-57.184311,-27.113239],[-57.132438,-27.124497],[-57.123977,-27.114086],[-57.080401,-27.135588],[-57.073139,-27.140851],[-57.038354,-27.159996],[-56.966137,-27.174257],[-56.966356,-27.175164],[-56.967027,-27.175363],[-56.967727,-27.176122],[-56.967515,-27.177462],[-56.970654,-27.179106],[-56.97187,-27.18014],[-56.97214,-27.182154],[-56.972905,-27.183481],[-56.974044,-27.184203],[-56.974443,-27.185124],[-56.974661,-27.190022],[-56.974034,-27.196347],[-56.973913,-27.203375],[-56.973568,-27.206598],[-56.972728,-27.208805],[-56.975047,-27.213185],[-56.97527,-27.217807],[-56.974394,-27.221481],[-56.97497,-27.223012],[-56.974979,-27.224605],[-56.976679,-27.229639],[-56.978522,-27.232054],[-56.980847,-27.232885],[-56.981666,-27.233906],[-56.983927,-27.241106],[-56.983921,-27.241864],[-56.982733,-27.243508],[-56.984021,-27.244947],[-56.984003,-27.246798],[-56.982936,-27.247954],[-56.981259,-27.24896],[-56.980291,-27.24877],[-56.97787,-27.249104],[-56.976095,-27.249009],[-56.961817,-27.281404],[-56.962283,-27.282289],[-56.962981,-27.282343],[-56.96333,-27.281824],[-56.96496,-27.280989],[-56.965309,-27.280678],[-56.965367,-27.279793],[-56.96723,-27.27881],[-56.968976,-27.278963],[-56.970314,-27.278445],[-56.970256,-27.278964],[-56.971303,-27.27886],[-56.974037,-27.279849],[-56.975493,-27.279538],[-56.976423,-27.279642],[-56.979362,-27.278392],[-56.98105,-27.278862],[-56.982737,-27.280058],[-56.983435,-27.2799],[-56.98361,-27.279435],[-56.984366,-27.279435],[-56.985588,-27.278239],[-56.987974,-27.277666],[-56.988614,-27.277928],[-56.989021,-27.27777],[-56.991232,-27.279021],[-56.991989,-27.279021],[-56.992629,-27.27954],[-56.99516,-27.280163],[-56.995626,-27.279486],[-56.996324,-27.279694],[-56.997662,-27.279332],[-56.999059,-27.280371],[-56.999931,-27.280682],[-57.000746,-27.280578],[-57.001561,-27.28214],[-57.002841,-27.282086],[-57.003016,-27.282501],[-57.004121,-27.282917],[-57.004296,-27.282501],[-57.005401,-27.282501],[-57.005809,-27.28214],[-57.007322,-27.28219],[-57.008311,-27.281616],[-57.008427,-27.281048],[-57.009184,-27.280944],[-57.010638,-27.279021],[-57.011191,-27.279332],[-57.011191,-27.279747],[-57.011482,-27.279851],[-57.011715,-27.279485],[-57.012122,-27.280217],[-57.012995,-27.280266],[-57.013053,-27.28084],[-57.01381,-27.280474],[-57.013752,-27.281201],[-57.014799,-27.281304],[-57.014741,-27.282139],[-57.015963,-27.281878],[-57.016487,-27.282347],[-57.016312,-27.283074],[-57.016894,-27.283335],[-57.017069,-27.2838],[-57.017884,-27.283751],[-57.018174,-27.284319],[-57.018873,-27.284319],[-57.018582,-27.285051],[-57.019513,-27.286035],[-57.021666,-27.286558],[-57.021434,-27.286034],[-57.021666,-27.285723],[-57.02318,-27.287181],[-57.023703,-27.286869],[-57.024111,-27.287077],[-57.024227,-27.28765],[-57.025565,-27.287492],[-57.026206,-27.288376],[-57.026031,-27.288792],[-57.026642,-27.289053],[-57.02641,-27.289726],[-57.027108,-27.290299],[-57.026643,-27.29108],[-57.026585,-27.291911],[-57.026119,-27.291441],[-57.025596,-27.292119],[-57.025072,-27.291545],[-57.02548,-27.2929],[-57.026702,-27.293473],[-57.027284,-27.293364],[-57.028157,-27.294095],[-57.028855,-27.293833],[-57.029088,-27.294095],[-57.030834,-27.294352],[-57.031474,-27.294821],[-57.031416,-27.294144],[-57.032114,-27.294144],[-57.032231,-27.295237],[-57.033162,-27.294767],[-57.033337,-27.29581],[-57.033977,-27.295963],[-57.033861,-27.296432],[-57.035257,-27.296901],[-57.035374,-27.296486],[-57.035956,-27.296536],[-57.036436,-27.297113],[-57.037891,-27.297113],[-57.037717,-27.297894],[-57.038124,-27.297998],[-57.038939,-27.297167],[-57.038822,-27.298101],[-57.039521,-27.298151],[-57.041093,-27.299347],[-57.041442,-27.298462],[-57.041791,-27.298412],[-57.042257,-27.299297],[-57.04377,-27.299711],[-57.044061,-27.300285],[-57.04441,-27.300334],[-57.044701,-27.299711],[-57.046157,-27.301164],[-57.047379,-27.30101],[-57.047321,-27.301371],[-57.04639,-27.301792],[-57.046448,-27.302256],[-57.04767,-27.302103],[-57.048602,-27.302414],[-57.04901,-27.303298],[-57.049358,-27.303091],[-57.049184,-27.302414],[-57.049707,-27.302621],[-57.050115,-27.303451],[-57.050522,-27.302828],[-57.051454,-27.303713],[-57.052153,-27.303866],[-57.053025,-27.303243],[-57.053258,-27.303346],[-57.053085,-27.303866],[-57.053491,-27.303969],[-57.054218,-27.303296],[-57.054975,-27.30345],[-57.055731,-27.303088],[-57.056372,-27.304176],[-57.058468,-27.304383],[-57.05905,-27.304802],[-57.059283,-27.304594],[-57.058991,-27.303814],[-57.059398,-27.303759],[-57.061378,-27.304436],[-57.061611,-27.305266],[-57.06196,-27.30537],[-57.062542,-27.304904],[-57.063066,-27.305423],[-57.065306,-27.303915],[-57.065655,-27.302822],[-57.06548,-27.301937],[-57.066119,-27.300429],[-57.066468,-27.300276],[-57.067399,-27.300691],[-57.067865,-27.300587],[-57.068272,-27.299959],[-57.06932,-27.300843],[-57.069669,-27.300116],[-57.069144,-27.299024],[-57.069667,-27.29762],[-57.071588,-27.297619],[-57.072112,-27.29793],[-57.071589,-27.299077],[-57.07188,-27.299542],[-57.072811,-27.299595],[-57.072172,-27.300738],[-57.072754,-27.301622],[-57.073395,-27.301884],[-57.074036,-27.303599],[-57.075084,-27.303336],[-57.077354,-27.30427],[-57.077355,-27.305777],[-57.077646,-27.306197],[-57.078403,-27.306039],[-57.078984,-27.305104],[-57.08076,-27.305933],[-57.082797,-27.305986],[-57.083904,-27.306816],[-57.083671,-27.307543],[-57.082682,-27.307909],[-57.082276,-27.309467],[-57.082859,-27.310767],[-57.082918,-27.312067],[-57.08385,-27.312793],[-57.08385,-27.313208],[-57.083152,-27.31394],[-57.083036,-27.314667],[-57.081815,-27.315602],[-57.081437,-27.316383],[-57.081497,-27.318256],[-57.082079,-27.318825],[-57.082021,-27.319452],[-57.081207,-27.320283],[-57.081265,-27.320595],[-57.08179,-27.321272],[-57.082605,-27.321479],[-57.084001,-27.320178],[-57.084642,-27.321166],[-57.084876,-27.323035],[-57.084586,-27.324127],[-57.085227,-27.324908],[-57.085461,-27.326416],[-57.084909,-27.328185],[-57.086364,-27.328081],[-57.086656,-27.328392],[-57.086482,-27.329015],[-57.085434,-27.329377],[-57.085376,-27.329797],[-57.086134,-27.330938],[-57.087008,-27.331615],[-57.087357,-27.331145],[-57.087472,-27.329899],[-57.087879,-27.329429],[-57.0898,-27.32969],[-57.090792,-27.331716],[-57.092364,-27.332234],[-57.092714,-27.332704],[-57.092831,-27.333742],[-57.092308,-27.334469],[-57.092192,-27.335512],[-57.093473,-27.336134],[-57.094579,-27.335456],[-57.09656,-27.336809],[-57.096589,-27.337535],[-57.09595,-27.338421],[-57.095951,-27.339612],[-57.095485,-27.339771],[-57.093563,-27.338838],[-57.0924,-27.340138],[-57.093099,-27.341122],[-57.094439,-27.341749],[-57.09473,-27.342268],[-57.094789,-27.342841],[-57.093858,-27.343672],[-57.094092,-27.344191],[-57.096362,-27.344555],[-57.097934,-27.344139],[-57.098225,-27.344346],[-57.098401,-27.344915],[-57.097062,-27.345435],[-57.097587,-27.3471],[-57.09817,-27.347723],[-57.099684,-27.347514],[-57.100265,-27.346629],[-57.100731,-27.346475],[-57.101663,-27.346524],[-57.10271,-27.346108],[-57.103991,-27.346369],[-57.104487,-27.347876],[-57.103965,-27.349384],[-57.107169,-27.351616],[-57.107693,-27.351462],[-57.108216,-27.350315],[-57.108624,-27.350315],[-57.108741,-27.351304],[-57.10816,-27.352293],[-57.108626,-27.352604],[-57.112701,-27.351977],[-57.113226,-27.352338],[-57.112936,-27.353693],[-57.112006,-27.355305],[-57.112239,-27.35572],[-57.11416,-27.355353],[-57.114394,-27.355718],[-57.113638,-27.357069],[-57.113639,-27.358319],[-57.114338,-27.358368],[-57.115037,-27.358006],[-57.115559,-27.356291],[-57.118238,-27.356704],[-57.118298,-27.358157],[-57.118822,-27.358468],[-57.122634,-27.3567],[-57.122984,-27.356957],[-57.122927,-27.358103],[-57.122229,-27.358416],[-57.121471,-27.358312],[-57.121414,-27.35899],[-57.121764,-27.359405],[-57.123394,-27.359557],[-57.124209,-27.358933],[-57.124848,-27.357425],[-57.125488,-27.356801],[-57.12607,-27.356801],[-57.126887,-27.358357],[-57.128169,-27.359033],[-57.127821,-27.360437],[-57.129451,-27.360332],[-57.13079,-27.360069],[-57.133409,-27.358979],[-57.133699,-27.358351],[-57.133115,-27.356067],[-57.133172,-27.354975],[-57.13416,-27.354139],[-57.135092,-27.354242],[-57.136141,-27.355283],[-57.136464,-27.357256],[-57.13693,-27.357621],[-57.138328,-27.358035],[-57.140541,-27.357568],[-57.141065,-27.357721],[-57.141416,-27.359282],[-57.143049,-27.361253],[-57.142411,-27.362712],[-57.142644,-27.363181],[-57.143343,-27.363699],[-57.145149,-27.364113],[-57.145208,-27.364736],[-57.144454,-27.36661],[-57.146493,-27.367231],[-57.147048,-27.368995],[-57.147689,-27.369464],[-57.14897,-27.368736],[-57.149146,-27.370036],[-57.148566,-27.371959],[-57.148684,-27.373052],[-57.14956,-27.374504],[-57.149503,-27.375285],[-57.148806,-27.37664],[-57.147175,-27.376795],[-57.14706,-27.37773],[-57.148196,-27.378252],[-57.149942,-27.377573],[-57.150292,-27.377884],[-57.150177,-27.378977],[-57.148838,-27.379448],[-57.148781,-27.379809],[-57.149598,-27.381004],[-57.148959,-27.382359],[-57.149192,-27.38272],[-57.150299,-27.382719],[-57.150413,-27.381161],[-57.150937,-27.380953],[-57.151637,-27.38121],[-57.151812,-27.381887],[-57.151522,-27.382821],[-57.151814,-27.383133],[-57.153328,-27.383289],[-57.155657,-27.382975],[-57.156414,-27.382401],[-57.156996,-27.38235],[-57.158163,-27.383645],[-57.158804,-27.383698],[-57.160084,-27.382604],[-57.160549,-27.382554],[-57.161017,-27.383903],[-57.163755,-27.384211]]]}}]}
