{"type":"FeatureCollection","name":"distrito","features":[{"type":"Feature","properties":{"clave":"2-9","nombre":"General Elizardo Aquino"},"geometry":{"type":"Polygon","coordinates":[[[-56.841171,-24.49242],[-56.853735,-24.49242],[-56.867155,-24.49756],[-56.886286,-24.494276],[-56.916817,-24.484674],[-56.917267,-24.489279],[-56.916267,-24.495989],[-56.913697,-24.520688],[-56.982458,-24.535926],[-56.985789,-24.532851],[-56.997211,-24.525427],[-56.997639,-24.481455],[-56.998639,-24.479456],[-56.995926,-24.472889],[-56.995069,-24.470033],[-56.994784,-24.467035],[-56.994927,-24.460611],[-56.994213,-24.458326],[-56.991786,-24.454329],[-56.990358,-24.452616],[-56.989787,-24.45076],[-56.989787,-24.449475],[-56.992357,-24.442907],[-56.998781,-24.428345],[-57.003064,-24.424919],[-57.006776,-24.420636],[-57.007062,-24.418494],[-57.007633,-24.418637],[-57.007918,-24.41778],[-57.006776,-24.416638],[-57.005063,-24.415639],[-57.001922,-24.414354],[-57.000066,-24.414068],[-56.99664,-24.412212],[-56.990215,-24.409357],[-56.988645,-24.408072],[-56.98736,-24.407501],[-56.985647,-24.407644],[-56.97965,-24.404217],[-56.97651,-24.395651],[-56.975367,-24.393795],[-56.968515,-24.387085],[-56.967087,-24.385087],[-56.964232,-24.382659],[-56.962661,-24.380232],[-56.96209,-24.379947],[-56.959949,-24.38166],[-56.957379,-24.385372],[-56.954095,-24.38837],[-56.95124,-24.389798],[-56.94767,-24.394652],[-56.945386,-24.396651],[-56.920428,-24.37255],[-56.916569,-24.376368],[-56.9125,-24.379728],[-56.911825,-24.381326],[-56.910515,-24.382743],[-56.908016,-24.384701],[-56.907144,-24.384484],[-56.905837,-24.382849],[-56.903182,-24.380887],[-56.902629,-24.377581],[-56.900488,-24.378162],[-56.900171,-24.377579],[-56.90045,-24.376419],[-56.899657,-24.375],[-56.897637,-24.373653],[-56.89633,-24.371476],[-56.894982,-24.371222],[-56.894546,-24.371475],[-56.894228,-24.372599],[-56.893712,-24.373109],[-56.890738,-24.374231],[-56.8882,-24.374776],[-56.886732,-24.375827],[-56.885146,-24.376187],[-56.883875,-24.378656],[-56.88324,-24.379166],[-56.883118,-24.382652],[-56.882642,-24.382941],[-56.882008,-24.382832],[-56.88161,-24.384539],[-56.881213,-24.384719],[-56.880697,-24.385807],[-56.879706,-24.385372],[-56.878357,-24.386171],[-56.877276,-24.386314],[-56.875044,-24.387902],[-56.871096,-24.386747],[-56.867429,-24.387277],[-56.866128,-24.387213],[-56.863279,-24.386361],[-56.861165,-24.387204],[-56.859985,-24.387126],[-56.858849,-24.387969],[-56.859423,-24.390404],[-56.858078,-24.390651],[-56.856968,-24.392353],[-56.847886,-24.382174],[-56.846134,-24.378194],[-56.842132,-24.373927],[-56.840575,-24.374455],[-56.838465,-24.376813],[-56.838736,-24.377039],[-56.836005,-24.383995],[-56.789491,-24.349872],[-56.785163,-24.355928],[-56.757898,-24.336098],[-56.743398,-24.308924],[-56.746903,-24.295973],[-56.728372,-24.263664],[-56.72333,-24.259182],[-56.715994,-24.264057],[-56.712491,-24.265334],[-56.711226,-24.264839],[-56.7069,-24.26402],[-56.703332,-24.264975],[-56.702353,-24.265497],[-56.700429,-24.264924],[-56.695171,-24.265903],[-56.692461,-24.266046],[-56.691291,-24.265633],[-56.690951,-24.267145],[-56.690115,-24.26745],[-56.689464,-24.26721],[-56.689046,-24.267367],[-56.688518,-24.27064],[-56.68577,-24.273877],[-56.684546,-24.274511],[-56.681284,-24.275303],[-56.679382,-24.27842],[-56.677453,-24.280078],[-56.675097,-24.280971],[-56.674167,-24.282405],[-56.672364,-24.282149],[-56.669942,-24.284984],[-56.668108,-24.285192],[-56.666629,-24.285948],[-56.666107,-24.286692],[-56.66519,-24.286681],[-56.664375,-24.287036],[-56.663262,-24.287769],[-56.66269,-24.288581],[-56.661037,-24.289426],[-56.660381,-24.290752],[-56.659514,-24.291197],[-56.659248,-24.29173],[-56.656973,-24.292808],[-56.65592,-24.294075],[-56.65227,-24.295083],[-56.652013,-24.296044],[-56.651277,-24.296905],[-56.649995,-24.296414],[-56.648884,-24.296629],[-56.64808,-24.29627],[-56.646672,-24.296745],[-56.645918,-24.296694],[-56.645764,-24.297393],[-56.642992,-24.297798],[-56.63901,-24.296976],[-56.638166,-24.296463],[-56.635425,-24.296597],[-56.634034,-24.294769],[-56.632416,-24.294318],[-56.630948,-24.294382],[-56.629918,-24.294931],[-56.627677,-24.294614],[-56.625074,-24.297059],[-56.623724,-24.297214],[-56.622178,-24.298095],[-56.622306,-24.298245],[-56.621747,-24.298663],[-56.620992,-24.298761],[-56.620738,-24.299045],[-56.620887,-24.299488],[-56.617886,-24.299421],[-56.615891,-24.299976],[-56.613436,-24.299929],[-56.612201,-24.300626],[-56.611663,-24.301438],[-56.611307,-24.303031],[-56.609192,-24.304182],[-56.608843,-24.30521],[-56.607211,-24.305825],[-56.607114,-24.306402],[-56.606341,-24.306703],[-56.606297,-24.307394],[-56.605348,-24.308733],[-56.604496,-24.309254],[-56.604725,-24.309833],[-56.604219,-24.310161],[-56.604101,-24.310617],[-56.604396,-24.310798],[-56.604009,-24.311619],[-56.603356,-24.311731],[-56.602983,-24.312118],[-56.603167,-24.314444],[-56.602709,-24.315518],[-56.602086,-24.31567],[-56.603424,-24.319751],[-56.603321,-24.32088],[-56.603835,-24.321206],[-56.604358,-24.325868],[-56.605447,-24.326173],[-56.605961,-24.327209],[-56.606002,-24.328546],[-56.60649,-24.328818],[-56.606593,-24.329563],[-56.607151,-24.330301],[-56.607192,-24.33161],[-56.606694,-24.332688],[-56.60683,-24.334193],[-56.60625,-24.334751],[-56.606839,-24.33496],[-56.606988,-24.335484],[-56.606629,-24.335714],[-56.607114,-24.335914],[-56.607049,-24.336654],[-56.606673,-24.33687],[-56.607066,-24.337332],[-56.606603,-24.337755],[-56.606907,-24.337909],[-56.607011,-24.339743],[-56.607383,-24.340173],[-56.607643,-24.342341],[-56.607332,-24.342512],[-56.607721,-24.342933],[-56.607945,-24.345354],[-56.607372,-24.345926],[-56.607567,-24.346044],[-56.607258,-24.346499],[-56.607249,-24.34766],[-56.606727,-24.348268],[-56.606815,-24.348706],[-56.606007,-24.34916],[-56.605263,-24.350513],[-56.604657,-24.350521],[-56.60422,-24.350922],[-56.603079,-24.352838],[-56.602559,-24.353207],[-56.602689,-24.353907],[-56.6023,-24.35475],[-56.601087,-24.355619],[-56.602001,-24.357062],[-56.603772,-24.357992],[-56.603916,-24.361714],[-56.604477,-24.363711],[-56.606684,-24.367853],[-56.606914,-24.369963],[-56.606643,-24.371886],[-56.607751,-24.376739],[-56.607261,-24.379434],[-56.607383,-24.380183],[-56.607032,-24.380973],[-56.607323,-24.382315],[-56.606737,-24.38337],[-56.607057,-24.386988],[-56.606723,-24.388211],[-56.606924,-24.389015],[-56.606503,-24.393417],[-56.606832,-24.394479],[-56.608089,-24.396158],[-56.608646,-24.403434],[-56.608026,-24.41218],[-56.607239,-24.41643],[-56.605549,-24.420796],[-56.605925,-24.424104],[-56.607204,-24.427651],[-56.608872,-24.430726],[-56.611154,-24.437158],[-56.622751,-24.447461],[-56.623408,-24.448914],[-56.628748,-24.452676],[-56.633364,-24.45553],[-56.635607,-24.456503],[-56.6393,-24.459112],[-56.641214,-24.4596],[-56.643461,-24.459303],[-56.644834,-24.458657],[-56.646418,-24.458918],[-56.646846,-24.46041],[-56.647914,-24.461333],[-56.648077,-24.462241],[-56.649209,-24.462298],[-56.653485,-24.464909],[-56.654267,-24.465101],[-56.656822,-24.464863],[-56.657585,-24.464318],[-56.657837,-24.462544],[-56.660352,-24.461515],[-56.66217,-24.459672],[-56.663819,-24.458845],[-56.666373,-24.458851],[-56.67267,-24.460468],[-56.674112,-24.460453],[-56.676029,-24.459793],[-56.680483,-24.457337],[-56.681925,-24.456943],[-56.693502,-24.455381],[-56.698898,-24.455618],[-56.701158,-24.457677],[-56.704082,-24.457855],[-56.707296,-24.456994],[-56.709936,-24.455473],[-56.712489,-24.455477],[-56.714261,-24.454763],[-56.720399,-24.454589],[-56.726166,-24.453823],[-56.728472,-24.454283],[-56.729871,-24.454945],[-56.7309,-24.454924],[-56.733409,-24.456514],[-56.734149,-24.457382],[-56.735445,-24.457877],[-56.735856,-24.458406],[-56.738881,-24.459368],[-56.73886,-24.459096],[-56.757795,-24.45787],[-56.776926,-24.472432],[-56.800054,-24.481427],[-56.79777,-24.493848],[-56.807907,-24.500272],[-56.833319,-24.500415],[-56.841171,-24.49242]]]}}]}
