{"type":"FeatureCollection","name":"distrito","features":[{"type":"Feature","properties":{"clave":"3-3","nombre":"Altos"},"geometry":{"type":"Polygon","coordinates":[[[-57.260387,-25.298804],[-57.266022,-25.302823],[-57.270682,-25.297841],[-57.269031,-25.296522],[-57.268757,-25.291406],[-57.268362,-25.290238],[-57.263685,-25.286552],[-57.261897,-25.283796],[-57.261943,-25.281976],[-57.260355,-25.274018],[-57.266586,-25.278555],[-57.272447,-25.275104],[-57.27458,-25.272278],[-57.277681,-25.266713],[-57.280088,-25.263255],[-57.284601,-25.259345],[-57.285816,-25.257536],[-57.286625,-25.255191],[-57.286606,-25.253001],[-57.285912,-25.250461],[-57.286781,-25.245943],[-57.299978,-25.231472],[-57.289208,-25.223504],[-57.288089,-25.224719],[-57.287375,-25.225081],[-57.287279,-25.225497],[-57.284525,-25.223714],[-57.283396,-25.223314],[-57.280836,-25.221491],[-57.276977,-25.220387],[-57.275484,-25.218933],[-57.274288,-25.218231],[-57.272802,-25.217822],[-57.271802,-25.216396],[-57.271413,-25.215191],[-57.270535,-25.21433],[-57.269786,-25.214129],[-57.26831,-25.21438],[-57.266505,-25.213286],[-57.265376,-25.213229],[-57.262208,-25.212155],[-57.259824,-25.212742],[-57.258967,-25.212265],[-57.257953,-25.212172],[-57.257018,-25.211532],[-57.256452,-25.211678],[-57.255935,-25.211119],[-57.254988,-25.210881],[-57.254448,-25.21104],[-57.253989,-25.210585],[-57.253401,-25.210816],[-57.252997,-25.210591],[-57.25266,-25.211048],[-57.252254,-25.210967],[-57.249927,-25.208582],[-57.231908,-25.210892],[-57.23077,-25.21079],[-57.228981,-25.209705],[-57.227189,-25.209283],[-57.225814,-25.210066],[-57.222608,-25.209927],[-57.221815,-25.210217],[-57.220408,-25.209758],[-57.219316,-25.209963],[-57.214592,-25.20801],[-57.213655,-25.206914],[-57.213224,-25.205678],[-57.211959,-25.206005],[-57.211044,-25.204728],[-57.209484,-25.203886],[-57.209042,-25.20292],[-57.209382,-25.201398],[-57.207588,-25.199111],[-57.205786,-25.198233],[-57.205131,-25.198483],[-57.204948,-25.198117],[-57.202287,-25.196988],[-57.20147,-25.195797],[-57.200428,-25.195008],[-57.19837,-25.195101],[-57.198123,-25.194903],[-57.197819,-25.194411],[-57.198255,-25.193783],[-57.197402,-25.190496],[-57.197059,-25.190434],[-57.196813,-25.189892],[-57.195469,-25.189415],[-57.195007,-25.188296],[-57.19359,-25.18842],[-57.192897,-25.187811],[-57.191988,-25.186069],[-57.192236,-25.185405],[-57.191344,-25.184178],[-57.190958,-25.182937],[-57.190401,-25.182455],[-57.190454,-25.181859],[-57.188707,-25.18103],[-57.18838,-25.179418],[-57.187192,-25.178056],[-57.185633,-25.177453],[-57.184587,-25.175255],[-57.184544,-25.174221],[-57.183525,-25.173681],[-57.183583,-25.172069],[-57.182664,-25.171668],[-57.182003,-25.170775],[-57.181586,-25.16989],[-57.181679,-25.168937],[-57.180398,-25.167444],[-57.181347,-25.166192],[-57.180828,-25.166026],[-57.179488,-25.164384],[-57.179169,-25.162321],[-57.179653,-25.161675],[-57.180895,-25.16184],[-57.180784,-25.161131],[-57.179596,-25.159832],[-57.179281,-25.159029],[-57.178536,-25.158849],[-57.178047,-25.157879],[-57.177383,-25.157595],[-57.173341,-25.157456],[-57.169709,-25.153086],[-57.170048,-25.148477],[-57.169169,-25.144912],[-57.156241,-25.137349],[-57.151144,-25.129624],[-57.151071,-25.135259],[-57.156385,-25.180967],[-57.168549,-25.196605],[-57.169709,-25.19939],[-57.169561,-25.201392],[-57.171773,-25.212211],[-57.175227,-25.211408],[-57.17674,-25.211325],[-57.182154,-25.234099],[-57.186496,-25.250362],[-57.197819,-25.263808],[-57.194641,-25.264587],[-57.190022,-25.26622],[-57.186585,-25.268076],[-57.182431,-25.268388],[-57.179017,-25.267697],[-57.178151,-25.26914],[-57.179634,-25.276888],[-57.180558,-25.277407],[-57.181257,-25.278303],[-57.181047,-25.279009],[-57.181621,-25.280338],[-57.181336,-25.281377],[-57.1825,-25.281974],[-57.18345,-25.283428],[-57.184815,-25.283994],[-57.185812,-25.285152],[-57.186171,-25.285132],[-57.186213,-25.285525],[-57.187211,-25.286136],[-57.18754,-25.286029],[-57.187726,-25.286343],[-57.18801,-25.28619],[-57.188142,-25.286788],[-57.187811,-25.287589],[-57.1873,-25.287446],[-57.187576,-25.288585],[-57.188099,-25.288717],[-57.188009,-25.289211],[-57.188668,-25.289007],[-57.188913,-25.289181],[-57.189244,-25.288762],[-57.189732,-25.289295],[-57.18971,-25.289971],[-57.190198,-25.290952],[-57.190151,-25.291918],[-57.190558,-25.29212],[-57.190568,-25.292546],[-57.190088,-25.29384],[-57.188965,-25.294831],[-57.188911,-25.296697],[-57.189214,-25.296881],[-57.188812,-25.29688],[-57.188657,-25.29722],[-57.189556,-25.298231],[-57.189278,-25.299509],[-57.189435,-25.300583],[-57.189921,-25.301285],[-57.190553,-25.301566],[-57.190934,-25.30299],[-57.192165,-25.30362],[-57.192105,-25.304354],[-57.19273,-25.304763],[-57.192637,-25.30584],[-57.193211,-25.30662],[-57.193559,-25.308877],[-57.197104,-25.311235],[-57.19838,-25.312426],[-57.19954,-25.312853],[-57.200155,-25.31474],[-57.203379,-25.315523],[-57.205215,-25.316516],[-57.207446,-25.317161],[-57.209041,-25.31856],[-57.216054,-25.321874],[-57.219913,-25.329638],[-57.220667,-25.328002],[-57.222564,-25.327832],[-57.223777,-25.32699],[-57.225215,-25.326613],[-57.227271,-25.323129],[-57.23153,-25.32328],[-57.233065,-25.323598],[-57.233971,-25.323168],[-57.235088,-25.321997],[-57.237569,-25.320753],[-57.244143,-25.318324],[-57.247358,-25.317479],[-57.247868,-25.314638],[-57.249298,-25.311362],[-57.260387,-25.298804]]]}}]}
