{"type":"FeatureCollection","name":"distrito","features":[{"type":"Feature","properties":{"clave":"15-6","nombre":"Nueva Asunción"},"geometry":{"type":"Polygon","coordinates":[[[-57.70108,-25.256589],[-57.7005,-25.257052],[-57.70042,-25.258005],[-57.700001,-25.258448],[-57.699703,-25.258383],[-57.699669,-25.257648],[-57.69811,-25.257454],[-57.698738,-25.25706],[-57.698147,-25.256444],[-57.698231,-25.2562],[-57.69936,-25.256419],[-57.699324,-25.255343],[-57.698336,-25.255212],[-57.698166,-25.254505],[-57.698581,-25.254096],[-57.699441,-25.254913],[-57.699792,-25.254559],[-57.699253,-25.254167],[-57.69948,-25.253542],[-57.69868,-25.253581],[-57.698141,-25.253135],[-57.697926,-25.251197],[-57.696625,-25.25152],[-57.697007,-25.252118],[-57.696325,-25.252613],[-57.695085,-25.253126],[-57.694612,-25.253004],[-57.694443,-25.252475],[-57.695896,-25.252031],[-57.695643,-25.251025],[-57.695038,-25.250796],[-57.694564,-25.251375],[-57.692653,-25.249735],[-57.692522,-25.249167],[-57.691752,-25.249275],[-57.691092,-25.248508],[-57.689924,-25.248784],[-57.690758,-25.248095],[-57.689808,-25.247539],[-57.68978,-25.246507],[-57.690487,-25.245774],[-57.689426,-25.245504],[-57.689178,-25.244459],[-57.686699,-25.245028],[-57.687012,-25.245508],[-57.68877,-25.245927],[-57.688158,-25.247464],[-57.687211,-25.248466],[-57.687326,-25.247378],[-57.686624,-25.246467],[-57.684774,-25.247026],[-57.68387,-25.247828],[-57.681279,-25.247159],[-57.681822,-25.246833],[-57.681489,-25.245499],[-57.682599,-25.245203],[-57.682874,-25.244018],[-57.682519,-25.243589],[-57.680499,-25.243835],[-57.680677,-25.24604],[-57.67916,-25.247193],[-57.678917,-25.24709],[-57.678981,-25.246369],[-57.677445,-25.246481],[-57.677106,-25.246026],[-57.678246,-25.245804],[-57.677909,-25.244915],[-57.679088,-25.244201],[-57.679147,-25.243377],[-57.677933,-25.243901],[-57.676243,-25.243796],[-57.674928,-25.244534],[-57.67412,-25.245405],[-57.674081,-25.244619],[-57.672906,-25.243653],[-57.673001,-25.243134],[-57.673612,-25.242961],[-57.67476,-25.243447],[-57.676089,-25.242934],[-57.676215,-25.242601],[-57.67516,-25.241944],[-57.674515,-25.242256],[-57.673012,-25.242116],[-57.672785,-25.242554],[-57.672131,-25.24279],[-57.671419,-25.241825],[-57.67177,-25.241409],[-57.672295,-25.241732],[-57.672775,-25.24154],[-57.673243,-25.239978],[-57.673655,-25.239826],[-57.674253,-25.240229],[-57.675101,-25.238875],[-57.674421,-25.238336],[-57.674327,-25.237554],[-57.673607,-25.238127],[-57.670814,-25.237102],[-57.670704,-25.235624],[-57.671834,-25.235332],[-57.671067,-25.234426],[-57.670404,-25.234549],[-57.669667,-25.234274],[-57.669111,-25.234644],[-57.668795,-25.234348],[-57.668845,-25.233515],[-57.669206,-25.233258],[-57.669549,-25.233799],[-57.670674,-25.233344],[-57.671192,-25.23393],[-57.671596,-25.233886],[-57.672211,-25.231851],[-57.67194,-25.231438],[-57.671285,-25.231484],[-57.671032,-25.2296],[-57.669476,-25.22903],[-57.669506,-25.228237],[-57.669197,-25.227828],[-57.667111,-25.227582],[-57.666306,-25.226688],[-57.666724,-25.226051],[-57.666437,-25.225785],[-57.66478,-25.226176],[-57.664455,-25.225841],[-57.66461,-25.225441],[-57.663877,-25.22515],[-57.663686,-25.224586],[-57.662235,-25.224465],[-57.661887,-25.223832],[-57.662039,-25.222105],[-57.661241,-25.221741],[-57.660114,-25.220236],[-57.659347,-25.220027],[-57.658835,-25.218187],[-57.657875,-25.21756],[-57.657747,-25.216728],[-57.656665,-25.215034],[-57.655137,-25.214062],[-57.655186,-25.213616],[-57.653788,-25.212407],[-57.653662,-25.211959],[-57.652215,-25.211025],[-57.652157,-25.20984],[-57.651587,-25.209026],[-57.651751,-25.208561],[-57.649929,-25.206734],[-57.649921,-25.205291],[-57.648809,-25.204928],[-57.647321,-25.205194],[-57.646495,-25.204988],[-57.644258,-25.203511],[-57.643582,-25.202234],[-57.643776,-25.201857],[-57.626451,-25.191524],[-57.624328,-25.190846],[-57.596587,-25.187337],[-57.59391,-25.185925],[-57.586337,-25.1792],[-57.570122,-25.172921],[-57.565982,-25.171633],[-57.563269,-25.171707],[-57.560219,-25.172985],[-57.546393,-25.184496],[-57.553971,-25.190241],[-57.556349,-25.193172],[-57.559354,-25.197463],[-57.564752,-25.207634],[-57.570642,-25.216664],[-57.573532,-25.222428],[-57.57491,-25.224459],[-57.576662,-25.226493],[-57.593056,-25.241126],[-57.600798,-25.24492],[-57.611469,-25.249147],[-57.622845,-25.252738],[-57.627836,-25.254984],[-57.635327,-25.259137],[-57.656889,-25.272738],[-57.665677,-25.277344],[-57.66868,-25.280049],[-57.673002,-25.275382],[-57.674655,-25.274711],[-57.677984,-25.274566],[-57.679234,-25.275046],[-57.680146,-25.275851],[-57.680204,-25.276596],[-57.679499,-25.277976],[-57.680009,-25.279017],[-57.683843,-25.279528],[-57.68617,-25.281113],[-57.688215,-25.283005],[-57.689289,-25.284769],[-57.689979,-25.284948],[-57.692126,-25.283593],[-57.694811,-25.282877],[-57.698926,-25.280346],[-57.699744,-25.279477],[-57.701304,-25.276358],[-57.701867,-25.275923],[-57.704346,-25.275412],[-57.705906,-25.272932],[-57.705318,-25.271117],[-57.705573,-25.270189],[-57.704544,-25.269521],[-57.70484,-25.268488],[-57.704586,-25.267663],[-57.705414,-25.266882],[-57.704786,-25.265598],[-57.705373,-25.265017],[-57.704794,-25.264373],[-57.705768,-25.264045],[-57.707902,-25.264097],[-57.708128,-25.263862],[-57.706859,-25.262953],[-57.706766,-25.262582],[-57.70736,-25.261905],[-57.706592,-25.261344],[-57.705956,-25.261134],[-57.705141,-25.261585],[-57.704162,-25.261067],[-57.704431,-25.260474],[-57.706206,-25.260039],[-57.705519,-25.258708],[-57.705174,-25.258682],[-57.704868,-25.259462],[-57.704468,-25.259452],[-57.703629,-25.258713],[-57.703613,-25.258136],[-57.702312,-25.257581],[-57.702122,-25.257164],[-57.70108,-25.256589]]]}}]}
