{"type":"FeatureCollection","name":"distrito","features":[{"type":"Feature","properties":{"clave":"8-7","nombre":"San Patricio"},"geometry":{"type":"Polygon","coordinates":[[[-56.868687,-27.014233],[-56.867409,-27.012449],[-56.865291,-27.011066],[-56.864852,-27.009287],[-56.861278,-27.0075],[-56.857346,-27.003365],[-56.8574,-27.002079],[-56.856288,-27.000331],[-56.856622,-26.998701],[-56.856288,-26.996399],[-56.855438,-26.994881],[-56.854732,-26.994488],[-56.854176,-26.993652],[-56.853649,-26.9926],[-56.853585,-26.991552],[-56.852775,-26.990229],[-56.852011,-26.989199],[-56.850035,-26.987626],[-56.849404,-26.985553],[-56.846522,-26.983645],[-56.84302,-26.98323],[-56.84163,-26.98187],[-56.839924,-26.981954],[-56.839128,-26.981199],[-56.838575,-26.981406],[-56.838125,-26.981071],[-56.837688,-26.981585],[-56.836493,-26.981489],[-56.834381,-26.969537],[-56.82966,-26.967813],[-56.832596,-26.965659],[-56.843036,-26.954823],[-56.841633,-26.951842],[-56.840214,-26.95157],[-56.83914,-26.950601],[-56.838174,-26.947719],[-56.83539,-26.943749],[-56.833634,-26.942062],[-56.833213,-26.940105],[-56.8337,-26.938747],[-56.83322,-26.9374],[-56.832024,-26.937885],[-56.83071,-26.93972],[-56.827297,-26.941156],[-56.826941,-26.94219],[-56.826172,-26.942785],[-56.826085,-26.943475],[-56.825596,-26.943849],[-56.825061,-26.943803],[-56.82395,-26.944895],[-56.819551,-26.945151],[-56.81918,-26.944911],[-56.819059,-26.944247],[-56.818067,-26.94361],[-56.815866,-26.944699],[-56.814505,-26.944359],[-56.813042,-26.944614],[-56.812293,-26.945877],[-56.81116,-26.946607],[-56.807791,-26.945984],[-56.806367,-26.946352],[-56.803464,-26.946073],[-56.80274,-26.946194],[-56.801554,-26.947208],[-56.799648,-26.946343],[-56.796318,-26.947981],[-56.793919,-26.947639],[-56.792743,-26.948062],[-56.792149,-26.947799],[-56.791207,-26.948376],[-56.790443,-26.949557],[-56.786607,-26.950233],[-56.785018,-26.951125],[-56.783191,-26.951397],[-56.781098,-26.952369],[-56.780424,-26.953063],[-56.77814,-26.953723],[-56.775569,-26.957656],[-56.77354,-26.959648],[-56.773452,-26.960541],[-56.77565,-26.962775],[-56.776207,-26.964198],[-56.777751,-26.966471],[-56.777528,-26.967401],[-56.77697,-26.968099],[-56.775092,-26.968972],[-56.775536,-26.972417],[-56.776122,-26.972648],[-56.782287,-26.972676],[-56.785177,-26.973204],[-56.786217,-26.9728],[-56.786765,-26.973491],[-56.787079,-26.974855],[-56.786441,-26.977301],[-56.787767,-26.979045],[-56.787953,-26.981307],[-56.788954,-26.981719],[-56.789049,-26.982871],[-56.790001,-26.98359],[-56.787846,-26.988611],[-56.790498,-26.99419],[-56.791637,-26.993736],[-56.798032,-27.004066],[-56.798484,-27.005827],[-56.798571,-27.008297],[-56.794876,-27.027832],[-56.796972,-27.027723],[-56.800115,-27.025985],[-56.803326,-27.025465],[-56.803838,-27.023909],[-56.806098,-27.022422],[-56.806986,-27.021254],[-56.809227,-27.021063],[-56.810095,-27.020622],[-56.811798,-27.018178],[-56.813207,-27.017073],[-56.817255,-27.017263],[-56.821443,-27.01647],[-56.825827,-27.017074],[-56.827188,-27.016965],[-56.828988,-27.023621],[-56.833138,-27.022886],[-56.836896,-27.023224],[-56.842226,-27.02985],[-56.843842,-27.031342],[-56.844008,-27.031876],[-56.843336,-27.036842],[-56.843976,-27.038349],[-56.846076,-27.040763],[-56.849169,-27.041869],[-56.850628,-27.041165],[-56.8658,-27.049505],[-56.875834,-27.052633],[-56.877625,-27.051997],[-56.880306,-27.048845],[-56.882029,-27.04762],[-56.891214,-27.050825],[-56.89204,-27.051509],[-56.892018,-27.048246],[-56.892361,-27.045632],[-56.892983,-27.043651],[-56.89279,-27.042518],[-56.893715,-27.040993],[-56.893085,-27.039272],[-56.891821,-27.037727],[-56.891895,-27.037095],[-56.891385,-27.036287],[-56.892287,-27.034044],[-56.892191,-27.033001],[-56.890189,-27.029582],[-56.8895,-27.028756],[-56.888049,-27.028141],[-56.884481,-27.028147],[-56.883178,-27.026588],[-56.881951,-27.026488],[-56.880729,-27.025972],[-56.880113,-27.025489],[-56.879309,-27.024048],[-56.879158,-27.02277],[-56.876835,-27.020403],[-56.876662,-27.019667],[-56.875493,-27.018221],[-56.875012,-27.018726],[-56.872789,-27.017361],[-56.871776,-27.015541],[-56.870585,-27.0153],[-56.868687,-27.014233]]]}}]}
