{"type":"FeatureCollection","name":"distrito","features":[{"type":"Feature","properties":{"clave":"7-17","nombre":"Edelira"},"geometry":{"type":"Polygon","coordinates":[[[-55.359968,-26.735357],[-55.363489,-26.735745],[-55.363372,-26.735162],[-55.364479,-26.734989],[-55.365677,-26.734001],[-55.366746,-26.734027],[-55.367518,-26.733305],[-55.368063,-26.733243],[-55.368666,-26.732542],[-55.368758,-26.731915],[-55.370265,-26.730669],[-55.370169,-26.729458],[-55.370642,-26.72871],[-55.370433,-26.727764],[-55.369423,-26.726299],[-55.369355,-26.725685],[-55.368385,-26.725497],[-55.368869,-26.725092],[-55.36893,-26.723676],[-55.3682,-26.721907],[-55.366902,-26.720286],[-55.366421,-26.718637],[-55.366535,-26.717266],[-55.368586,-26.713733],[-55.37066,-26.71205],[-55.368876,-26.710913],[-55.374505,-26.700117],[-55.375664,-26.69892],[-55.379176,-26.696916],[-55.379519,-26.694767],[-55.380635,-26.692839],[-55.385711,-26.689819],[-55.386962,-26.688492],[-55.387958,-26.685236],[-55.390924,-26.681496],[-55.392343,-26.680321],[-55.393347,-26.67721],[-55.397698,-26.669179],[-55.395978,-26.664673],[-55.3946,-26.662947],[-55.393205,-26.65974],[-55.392962,-26.656917],[-55.391807,-26.654385],[-55.391285,-26.650651],[-55.390688,-26.649588],[-55.389591,-26.645207],[-55.390345,-26.636879],[-55.393326,-26.634719],[-55.393946,-26.633453],[-55.393842,-26.632292],[-55.392066,-26.630056],[-55.391042,-26.626713],[-55.391003,-26.624962],[-55.392217,-26.622746],[-55.393727,-26.621653],[-55.396147,-26.621202],[-55.399334,-26.620055],[-55.402229,-26.617492],[-55.411342,-26.612341],[-55.411503,-26.611972],[-55.410718,-26.60898],[-55.410712,-26.60787],[-55.412433,-26.605889],[-55.415076,-26.605639],[-55.418414,-26.606823],[-55.419871,-26.606744],[-55.423589,-26.605756],[-55.425133,-26.606071],[-55.427331,-26.604782],[-55.432421,-26.602766],[-55.440037,-26.598874],[-55.44305,-26.59846],[-55.445974,-26.598456],[-55.451675,-26.598662],[-55.455931,-26.599187],[-55.46133,-26.598234],[-55.465016,-26.596144],[-55.470177,-26.594498],[-55.475262,-26.591334],[-55.489542,-26.583412],[-55.496037,-26.577495],[-55.497789,-26.576485],[-55.504391,-26.574266],[-55.505896,-26.574105],[-55.507243,-26.573515],[-55.509528,-26.573079],[-55.510665,-26.57203],[-55.512534,-26.565581],[-55.514332,-26.561298],[-55.515896,-26.559875],[-55.517497,-26.548828],[-55.517567,-26.545489],[-55.523636,-26.530214],[-55.524624,-26.528789],[-55.52494,-26.526978],[-55.52482,-26.525343],[-55.523606,-26.522812],[-55.522073,-26.521667],[-55.521912,-26.520339],[-55.526017,-26.489395],[-55.52745,-26.480179],[-55.528162,-26.478439],[-55.527865,-26.477502],[-55.528994,-26.469145],[-55.53244,-26.445508],[-55.534913,-26.431117],[-55.535226,-26.394199],[-55.535165,-26.393775],[-55.534626,-26.393494],[-55.534913,-26.392955],[-55.534276,-26.392411],[-55.535645,-26.389884],[-55.537721,-26.388741],[-55.538214,-26.38745],[-55.53875,-26.387375],[-55.538471,-26.386875],[-55.538947,-26.386916],[-55.53901,-26.386696],[-55.538418,-26.385606],[-55.539685,-26.384378],[-55.539821,-26.383752],[-55.539291,-26.382225],[-55.538478,-26.381675],[-55.538266,-26.380202],[-55.537415,-26.378988],[-55.537792,-26.376315],[-55.537401,-26.375855],[-55.53777,-26.375101],[-55.534352,-26.370168],[-55.532539,-26.368958],[-55.531454,-26.368726],[-55.532806,-26.355603],[-55.531096,-26.352552],[-55.517175,-26.352583],[-55.506617,-26.356778],[-55.501301,-26.35341],[-55.498236,-26.350111],[-55.495831,-26.3543],[-55.488437,-26.36482],[-55.487338,-26.365829],[-55.477202,-26.378247],[-55.476009,-26.378916],[-55.475736,-26.379969],[-55.459668,-26.401016],[-55.459314,-26.401862],[-55.459484,-26.40365],[-55.458787,-26.405173],[-55.458279,-26.407465],[-55.451563,-26.414172],[-55.449685,-26.415763],[-55.449002,-26.415958],[-55.444813,-26.423392],[-55.443858,-26.425824],[-55.441384,-26.429647],[-55.438795,-26.431704],[-55.436345,-26.431474],[-55.43478,-26.432134],[-55.43341,-26.433292],[-55.428156,-26.436367],[-55.427046,-26.437307],[-55.425906,-26.437335],[-55.417987,-26.440168],[-55.417053,-26.44121],[-55.416568,-26.441105],[-55.416098,-26.442187],[-55.416352,-26.443057],[-55.415274,-26.443289],[-55.414666,-26.443837],[-55.414037,-26.443586],[-55.41121,-26.444534],[-55.411603,-26.445893],[-55.410026,-26.447293],[-55.410855,-26.447356],[-55.411274,-26.448421],[-55.410176,-26.448427],[-55.410178,-26.44891],[-55.409437,-26.448532],[-55.409577,-26.449319],[-55.408907,-26.448891],[-55.408672,-26.449625],[-55.408284,-26.448839],[-55.406906,-26.449668],[-55.407229,-26.450141],[-55.407059,-26.450433],[-55.406352,-26.450244],[-55.405732,-26.450842],[-55.405378,-26.450567],[-55.403225,-26.450611],[-55.401373,-26.452779],[-55.400493,-26.452968],[-55.399978,-26.454619],[-55.39971,-26.454359],[-55.398686,-26.454528],[-55.398521,-26.456968],[-55.398795,-26.457278],[-55.398438,-26.457621],[-55.39879,-26.458076],[-55.398748,-26.458672],[-55.399176,-26.458974],[-55.399488,-26.458283],[-55.399759,-26.459058],[-55.40177,-26.459861],[-55.401765,-26.459477],[-55.402953,-26.459121],[-55.402706,-26.460287],[-55.402897,-26.460781],[-55.403728,-26.461178],[-55.405064,-26.461148],[-55.405259,-26.461498],[-55.40489,-26.46185],[-55.405223,-26.462481],[-55.404774,-26.463339],[-55.405012,-26.464099],[-55.404077,-26.465037],[-55.402631,-26.465422],[-55.40259,-26.466067],[-55.401662,-26.467623],[-55.401314,-26.467732],[-55.400927,-26.467349],[-55.398273,-26.467671],[-55.397557,-26.468841],[-55.397935,-26.469035],[-55.39732,-26.46966],[-55.396917,-26.470833],[-55.397185,-26.471446],[-55.397645,-26.471392],[-55.397427,-26.471755],[-55.397851,-26.471891],[-55.397811,-26.472148],[-55.395772,-26.472197],[-55.395304,-26.472503],[-55.395292,-26.473767],[-55.394323,-26.475259],[-55.393906,-26.47534],[-55.394537,-26.475817],[-55.3945,-26.477017],[-55.393809,-26.477176],[-55.394225,-26.477573],[-55.393948,-26.478008],[-55.392009,-26.47911],[-55.392583,-26.481586],[-55.393003,-26.48182],[-55.392436,-26.48222],[-55.392952,-26.482334],[-55.392741,-26.482707],[-55.393748,-26.48321],[-55.393637,-26.483859],[-55.392834,-26.483489],[-55.392146,-26.484447],[-55.39119,-26.484197],[-55.391104,-26.484494],[-55.391522,-26.484783],[-55.390986,-26.485147],[-55.390404,-26.483479],[-55.388972,-26.484443],[-55.387506,-26.486182],[-55.387595,-26.487884],[-55.387263,-26.489406],[-55.387056,-26.489553],[-55.386819,-26.489284],[-55.38669,-26.488592],[-55.38649,-26.489063],[-55.385701,-26.489497],[-55.386165,-26.49022],[-55.385589,-26.491324],[-55.385124,-26.491038],[-55.384811,-26.49122],[-55.384509,-26.492372],[-55.384116,-26.492665],[-55.384259,-26.493263],[-55.381382,-26.493867],[-55.381844,-26.494084],[-55.380813,-26.494695],[-55.380045,-26.497115],[-55.380311,-26.49775],[-55.379986,-26.498558],[-55.380788,-26.499867],[-55.3804,-26.500414],[-55.380795,-26.501073],[-55.379934,-26.501663],[-55.379421,-26.501436],[-55.37919,-26.502088],[-55.379763,-26.502144],[-55.379702,-26.502685],[-55.378728,-26.50229],[-55.376793,-26.503284],[-55.376462,-26.502472],[-55.373744,-26.502324],[-55.372516,-26.50268],[-55.371555,-26.50206],[-55.37125,-26.502724],[-55.370169,-26.502874],[-55.369731,-26.502603],[-55.369486,-26.501201],[-55.367306,-26.501321],[-55.365181,-26.500303],[-55.362732,-26.501006],[-55.362091,-26.502195],[-55.361358,-26.501131],[-55.360192,-26.500381],[-55.359629,-26.501404],[-55.358497,-26.501585],[-55.357554,-26.502617],[-55.35673,-26.502765],[-55.356493,-26.503029],[-55.356682,-26.503482],[-55.359943,-26.505885],[-55.359181,-26.505741],[-55.358612,-26.50652],[-55.356725,-26.50713],[-55.356057,-26.508842],[-55.356235,-26.509629],[-55.356861,-26.510282],[-55.358752,-26.510407],[-55.359008,-26.510844],[-55.359482,-26.510506],[-55.360131,-26.511055],[-55.360802,-26.510318],[-55.361538,-26.510309],[-55.362383,-26.511153],[-55.361361,-26.513507],[-55.36226,-26.514207],[-55.362228,-26.514528],[-55.361797,-26.514843],[-55.361525,-26.51451],[-55.360651,-26.514672],[-55.361056,-26.515665],[-55.360243,-26.515502],[-55.358875,-26.51731],[-55.357286,-26.517729],[-55.357233,-26.518627],[-55.355754,-26.518303],[-55.355434,-26.517333],[-55.354359,-26.517231],[-55.353252,-26.516081],[-55.353193,-26.515642],[-55.352773,-26.515913],[-55.351847,-26.515911],[-55.351437,-26.51397],[-55.350361,-26.511895],[-55.349716,-26.512623],[-55.348553,-26.512289],[-55.348111,-26.513367],[-55.347655,-26.513624],[-55.347014,-26.5133],[-55.346713,-26.512345],[-55.345104,-26.512836],[-55.344186,-26.512767],[-55.343095,-26.511707],[-55.34145,-26.511403],[-55.340159,-26.511451],[-55.339547,-26.512054],[-55.338158,-26.511929],[-55.337561,-26.514409],[-55.338363,-26.515849],[-55.337279,-26.516631],[-55.338087,-26.518541],[-55.337838,-26.519282],[-55.338674,-26.520168],[-55.338829,-26.521361],[-55.338387,-26.522092],[-55.338502,-26.522418],[-55.339339,-26.522613],[-55.339295,-26.523578],[-55.339612,-26.523704],[-55.340559,-26.523814],[-55.340445,-26.523321],[-55.341717,-26.523453],[-55.342004,-26.522946],[-55.342934,-26.522772],[-55.343376,-26.52354],[-55.345067,-26.52365],[-55.345387,-26.525125],[-55.345278,-26.527109],[-55.346085,-26.527507],[-55.346644,-26.528326],[-55.346868,-26.530175],[-55.346545,-26.530527],[-55.344338,-26.530195],[-55.341845,-26.529137],[-55.340855,-26.529319],[-55.338245,-26.527998],[-55.33713,-26.528057],[-55.335195,-26.529596],[-55.335481,-26.530349],[-55.334289,-26.531319],[-55.332577,-26.531285],[-55.330922,-26.53169],[-55.329981,-26.531237],[-55.329281,-26.532691],[-55.327541,-26.534083],[-55.327304,-26.533697],[-55.327311,-26.531359],[-55.32682,-26.5306],[-55.326168,-26.530294],[-55.325635,-26.52925],[-55.326593,-26.528746],[-55.32713,-26.528044],[-55.327174,-26.527025],[-55.327764,-26.526625],[-55.327837,-26.526179],[-55.325664,-26.525897],[-55.325438,-26.524256],[-55.324593,-26.523636],[-55.32391,-26.524305],[-55.322863,-26.524194],[-55.322169,-26.524741],[-55.321648,-26.526499],[-55.322315,-26.527013],[-55.322468,-26.527669],[-55.321864,-26.528054],[-55.320428,-26.528218],[-55.32001,-26.529332],[-55.319345,-26.529582],[-55.319455,-26.530888],[-55.320254,-26.531335],[-55.319477,-26.531958],[-55.319198,-26.533778],[-55.319609,-26.53427],[-55.320476,-26.533698],[-55.323951,-26.53428],[-55.324851,-26.537884],[-55.326002,-26.539757],[-55.326181,-26.541596],[-55.325118,-26.542292],[-55.323288,-26.542645],[-55.323586,-26.541796],[-55.322611,-26.540435],[-55.323064,-26.539722],[-55.322988,-26.539256],[-55.320911,-26.538921],[-55.320307,-26.539609],[-55.319195,-26.539821],[-55.318149,-26.539606],[-55.316416,-26.541088],[-55.31607,-26.541107],[-55.31571,-26.540543],[-55.314301,-26.5416],[-55.313388,-26.541838],[-55.313274,-26.542256],[-55.312563,-26.542063],[-55.310367,-26.543634],[-55.309502,-26.54454],[-55.309201,-26.545539],[-55.310991,-26.545768],[-55.310326,-26.546843],[-55.310611,-26.54746],[-55.311479,-26.547669],[-55.311833,-26.549163],[-55.310106,-26.55004],[-55.309937,-26.550341],[-55.310267,-26.551459],[-55.309731,-26.551859],[-55.308883,-26.551587],[-55.308521,-26.552788],[-55.308855,-26.55406],[-55.309836,-26.554108],[-55.309493,-26.554894],[-55.308675,-26.555128],[-55.309938,-26.555784],[-55.309701,-26.556878],[-55.31015,-26.557113],[-55.311054,-26.556731],[-55.310768,-26.558398],[-55.310031,-26.558845],[-55.310323,-26.559805],[-55.310739,-26.560253],[-55.312194,-26.559205],[-55.313483,-26.559265],[-55.314276,-26.55834],[-55.314627,-26.558331],[-55.31518,-26.558974],[-55.315122,-26.559767],[-55.316299,-26.559312],[-55.317472,-26.560648],[-55.318368,-26.563101],[-55.316568,-26.563865],[-55.316361,-26.563099],[-55.315811,-26.562655],[-55.315484,-26.562538],[-55.314802,-26.563054],[-55.314561,-26.562568],[-55.311909,-26.561891],[-55.311192,-26.562835],[-55.310838,-26.564113],[-55.307418,-26.565738],[-55.307444,-26.566496],[-55.308146,-26.567985],[-55.310668,-26.568899],[-55.310749,-26.571541],[-55.313526,-26.569976],[-55.314315,-26.569832],[-55.315004,-26.572286],[-55.31477,-26.572753],[-55.313729,-26.573458],[-55.312234,-26.57344],[-55.31064,-26.574965],[-55.306792,-26.57426],[-55.30571,-26.573376],[-55.305802,-26.572001],[-55.305426,-26.571617],[-55.303815,-26.571873],[-55.302525,-26.572558],[-55.301967,-26.572497],[-55.301754,-26.572043],[-55.302033,-26.570182],[-55.301625,-26.568679],[-55.300911,-26.567876],[-55.300011,-26.567892],[-55.299392,-26.569004],[-55.298757,-26.572305],[-55.298876,-26.575439],[-55.300253,-26.575031],[-55.30027,-26.575279],[-55.299458,-26.575694],[-55.299334,-26.576216],[-55.299988,-26.576626],[-55.30027,-26.577581],[-55.298657,-26.581069],[-55.298435,-26.583792],[-55.299783,-26.585415],[-55.297513,-26.587026],[-55.296935,-26.587006],[-55.295664,-26.585799],[-55.294948,-26.586179],[-55.294574,-26.587452],[-55.296221,-26.588631],[-55.295544,-26.590167],[-55.294496,-26.589906],[-55.293855,-26.590183],[-55.293149,-26.589971],[-55.290767,-26.590136],[-55.290266,-26.590573],[-55.288888,-26.590922],[-55.288285,-26.590707],[-55.286243,-26.591179],[-55.286698,-26.592146],[-55.285545,-26.592172],[-55.284161,-26.592657],[-55.284543,-26.593726],[-55.286537,-26.594459],[-55.28631,-26.59512],[-55.284898,-26.596696],[-55.285114,-26.598576],[-55.285842,-26.599086],[-55.285839,-26.599397],[-55.283994,-26.600043],[-55.284821,-26.60189],[-55.283478,-26.601634],[-55.283217,-26.602466],[-55.282332,-26.602659],[-55.281169,-26.601981],[-55.279807,-26.602881],[-55.277813,-26.602622],[-55.276262,-26.603574],[-55.275152,-26.603867],[-55.275094,-26.60407],[-55.276073,-26.604596],[-55.27521,-26.60621],[-55.275973,-26.607853],[-55.274732,-26.608037],[-55.272656,-26.60886],[-55.271432,-26.608552],[-55.270397,-26.60872],[-55.270239,-26.608957],[-55.270599,-26.609553],[-55.268887,-26.610155],[-55.269061,-26.612143],[-55.268334,-26.61217],[-55.266981,-26.611508],[-55.26588,-26.612379],[-55.266354,-26.613157],[-55.265654,-26.613654],[-55.265837,-26.615479],[-55.263772,-26.614913],[-55.262057,-26.615889],[-55.26161,-26.617161],[-55.263849,-26.619242],[-55.26417,-26.62004],[-55.26269,-26.620776],[-55.261381,-26.620823],[-55.25955,-26.618964],[-55.258882,-26.61678],[-55.257651,-26.618372],[-55.254945,-26.619837],[-55.255121,-26.620489],[-55.25694,-26.623021],[-55.2551,-26.622867],[-55.253827,-26.623484],[-55.252528,-26.623639],[-55.250932,-26.623155],[-55.24864,-26.62138],[-55.24641,-26.621384],[-55.24532,-26.622043],[-55.245688,-26.623307],[-55.245297,-26.624218],[-55.243697,-26.624956],[-55.242753,-26.624462],[-55.24125,-26.622787],[-55.240556,-26.622517],[-55.24,-26.622483],[-55.239212,-26.622915],[-55.237146,-26.622948],[-55.236793,-26.623589],[-55.237792,-26.624306],[-55.238,-26.626863],[-55.236237,-26.62759],[-55.23617,-26.627914],[-55.236742,-26.628161],[-55.236098,-26.628595],[-55.236601,-26.629287],[-55.235478,-26.631164],[-55.234448,-26.631097],[-55.23286,-26.629272],[-55.232184,-26.629016],[-55.231345,-26.629339],[-55.229863,-26.63086],[-55.230204,-26.631193],[-55.231535,-26.631332],[-55.233269,-26.631972],[-55.23504,-26.633975],[-55.234248,-26.634854],[-55.235347,-26.635798],[-55.233315,-26.637925],[-55.233468,-26.638392],[-55.234629,-26.639178],[-55.234451,-26.640318],[-55.233902,-26.640776],[-55.233891,-26.641733],[-55.235482,-26.641834],[-55.236875,-26.641354],[-55.237058,-26.642332],[-55.236212,-26.644758],[-55.236927,-26.644559],[-55.237747,-26.643771],[-55.238377,-26.645146],[-55.241406,-26.645951],[-55.241619,-26.647307],[-55.24025,-26.648175],[-55.241034,-26.648934],[-55.241679,-26.650337],[-55.243477,-26.651591],[-55.2448,-26.652095],[-55.243811,-26.653527],[-55.246099,-26.654002],[-55.246148,-26.655537],[-55.246686,-26.656767],[-55.245124,-26.657776],[-55.245772,-26.65875],[-55.245474,-26.66006],[-55.246498,-26.661878],[-55.24657,-26.66256],[-55.246106,-26.663087],[-55.245499,-26.662042],[-55.244875,-26.662765],[-55.244494,-26.662796],[-55.241807,-26.661892],[-55.239817,-26.66212],[-55.237939,-26.66188],[-55.236572,-26.661236],[-55.235052,-26.663374],[-55.234366,-26.662888],[-55.231837,-26.663244],[-55.231719,-26.663523],[-55.2327,-26.664243],[-55.232889,-26.664905],[-55.232649,-26.66566],[-55.231597,-26.666951],[-55.231542,-26.66811],[-55.230332,-26.667075],[-55.229611,-26.666917],[-55.229351,-26.668214],[-55.228249,-26.669392],[-55.222724,-26.671963],[-55.222885,-26.673003],[-55.22362,-26.67396],[-55.223639,-26.675386],[-55.224219,-26.675867],[-55.223969,-26.676672],[-55.225117,-26.67726],[-55.224598,-26.679501],[-55.226392,-26.680597],[-55.226553,-26.681028],[-55.225587,-26.681851],[-55.224108,-26.682027],[-55.223517,-26.68132],[-55.222716,-26.68191],[-55.221881,-26.681245],[-55.220836,-26.681444],[-55.220294,-26.682579],[-55.221495,-26.682594],[-55.221732,-26.6834],[-55.223347,-26.683917],[-55.223483,-26.684492],[-55.220259,-26.685652],[-55.21925,-26.687418],[-55.217218,-26.688575],[-55.216787,-26.689242],[-55.219501,-26.690964],[-55.220067,-26.690601],[-55.220572,-26.689343],[-55.222036,-26.689962],[-55.222851,-26.691055],[-55.223904,-26.691488],[-55.224707,-26.693218],[-55.22538,-26.694007],[-55.22619,-26.694419],[-55.225825,-26.695488],[-55.225282,-26.695955],[-55.225502,-26.69636],[-55.226909,-26.696766],[-55.226643,-26.695742],[-55.228023,-26.694776],[-55.228332,-26.69584],[-55.229972,-26.697205],[-55.229969,-26.698022],[-55.228921,-26.700469],[-55.229523,-26.70081],[-55.230455,-26.700768],[-55.231058,-26.700396],[-55.231677,-26.698202],[-55.234232,-26.69715],[-55.235538,-26.698042],[-55.236827,-26.696686],[-55.238279,-26.696532],[-55.238199,-26.695272],[-55.239072,-26.694611],[-55.24075,-26.69451],[-55.242476,-26.696463],[-55.242572,-26.69511],[-55.243825,-26.694223],[-55.243741,-26.693319],[-55.244234,-26.693289],[-55.244639,-26.69383],[-55.244632,-26.694876],[-55.245807,-26.695556],[-55.24646,-26.697243],[-55.248348,-26.698132],[-55.248377,-26.698702],[-55.247373,-26.699373],[-55.242333,-26.69968],[-55.240576,-26.701588],[-55.240458,-26.702137],[-55.242618,-26.701405],[-55.247726,-26.702979],[-55.249175,-26.704454],[-55.248284,-26.706336],[-55.247015,-26.707498],[-55.243299,-26.709482],[-55.242484,-26.710827],[-55.24039,-26.712618],[-55.238647,-26.714602],[-55.235583,-26.715128],[-55.23513,-26.714993],[-55.233804,-26.712861],[-55.232186,-26.711919],[-55.23103,-26.711924],[-55.228596,-26.712796],[-55.227105,-26.712972],[-55.224938,-26.712491],[-55.225005,-26.710045],[-55.223873,-26.707118],[-55.225238,-26.706168],[-55.227727,-26.705979],[-55.227835,-26.705506],[-55.225363,-26.704684],[-55.220485,-26.705795],[-55.219021,-26.70728],[-55.217274,-26.707135],[-55.216775,-26.706836],[-55.216544,-26.704796],[-55.218965,-26.703805],[-55.220678,-26.702663],[-55.22243,-26.6994],[-55.222088,-26.698773],[-55.2202,-26.698599],[-55.21869,-26.698828],[-55.215824,-26.700928],[-55.215723,-26.703598],[-55.213617,-26.705202],[-55.213273,-26.707772],[-55.211971,-26.707892],[-55.211718,-26.70639],[-55.211235,-26.705795],[-55.20742,-26.705791],[-55.205674,-26.70626],[-55.204768,-26.70564],[-55.204197,-26.705735],[-55.203579,-26.706453],[-55.203756,-26.707991],[-55.202867,-26.708793],[-55.202903,-26.709808],[-55.203589,-26.710991],[-55.205915,-26.71235],[-55.205087,-26.714053],[-55.205016,-26.714869],[-55.208188,-26.717596],[-55.208081,-26.718016],[-55.206537,-26.718327],[-55.206969,-26.719332],[-55.207656,-26.719775],[-55.208919,-26.719837],[-55.209651,-26.718334],[-55.213299,-26.715149],[-55.213989,-26.713069],[-55.214711,-26.712636],[-55.215312,-26.713001],[-55.215419,-26.714027],[-55.215775,-26.714337],[-55.217575,-26.713782],[-55.218299,-26.714167],[-55.217917,-26.715519],[-55.216606,-26.715262],[-55.215793,-26.715524],[-55.215721,-26.71736],[-55.216145,-26.717949],[-55.216999,-26.718777],[-55.217725,-26.719052],[-55.219248,-26.717709],[-55.221704,-26.717292],[-55.222325,-26.71776],[-55.222503,-26.720287],[-55.221516,-26.721033],[-55.219454,-26.721676],[-55.216766,-26.723524],[-55.214403,-26.724026],[-55.213891,-26.723033],[-55.213145,-26.72268],[-55.210985,-26.724496],[-55.209287,-26.725408],[-55.208644,-26.725407],[-55.207571,-26.724731],[-55.205542,-26.726762],[-55.202392,-26.729145],[-55.202206,-26.72993],[-55.203119,-26.730054],[-55.203699,-26.730589],[-55.203095,-26.731611],[-55.202124,-26.731494],[-55.200571,-26.730367],[-55.196315,-26.72841],[-55.194728,-26.728234],[-55.191927,-26.729225],[-55.191708,-26.72974],[-55.191851,-26.733883],[-55.190789,-26.73731],[-55.191307,-26.73812],[-55.192602,-26.738693],[-55.195958,-26.738743],[-55.198289,-26.738379],[-55.198814,-26.73877],[-55.198988,-26.739414],[-55.198981,-26.741925],[-55.197773,-26.742908],[-55.197508,-26.7436],[-55.197282,-26.747322],[-55.196863,-26.747637],[-55.196159,-26.747654],[-55.195609,-26.745891],[-55.194707,-26.74568],[-55.192991,-26.746904],[-55.192437,-26.748471],[-55.19263,-26.751484],[-55.193871,-26.753447],[-55.195395,-26.754556],[-55.197338,-26.755385],[-55.197868,-26.756006],[-55.197716,-26.756489],[-55.196052,-26.757506],[-55.194361,-26.759874],[-55.212297,-26.762222],[-55.266341,-26.76222],[-55.268731,-26.762983],[-55.271205,-26.76472],[-55.27228,-26.76613],[-55.274247,-26.770734],[-55.275134,-26.771795],[-55.288254,-26.778974],[-55.293364,-26.783764],[-55.293428,-26.783387],[-55.292466,-26.782392],[-55.292311,-26.781528],[-55.292993,-26.781215],[-55.2933,-26.779725],[-55.294414,-26.780028],[-55.295231,-26.779631],[-55.296429,-26.779912],[-55.296728,-26.779008],[-55.297272,-26.778645],[-55.297005,-26.77754],[-55.297816,-26.776855],[-55.298968,-26.776702],[-55.299261,-26.77638],[-55.298536,-26.773592],[-55.299024,-26.77288],[-55.298641,-26.771905],[-55.297931,-26.771589],[-55.297862,-26.769905],[-55.298126,-26.769719],[-55.298814,-26.76998],[-55.299888,-26.769911],[-55.299138,-26.767926],[-55.299617,-26.767647],[-55.300119,-26.767865],[-55.301289,-26.766823],[-55.301469,-26.766216],[-55.301028,-26.765723],[-55.301642,-26.764981],[-55.302143,-26.764839],[-55.302961,-26.763048],[-55.305254,-26.763319],[-55.306853,-26.762155],[-55.309084,-26.762421],[-55.30979,-26.762222],[-55.310084,-26.761151],[-55.311089,-26.761335],[-55.312031,-26.75973],[-55.314168,-26.757964],[-55.315848,-26.755827],[-55.316391,-26.755806],[-55.317176,-26.756447],[-55.318845,-26.754517],[-55.319774,-26.754316],[-55.31994,-26.753763],[-55.320639,-26.753496],[-55.320776,-26.754242],[-55.321734,-26.754615],[-55.32214,-26.75447],[-55.322553,-26.75494],[-55.323788,-26.754558],[-55.324316,-26.755106],[-55.325658,-26.755139],[-55.32557,-26.755463],[-55.326066,-26.755812],[-55.325724,-26.755939],[-55.326323,-26.756546],[-55.326709,-26.755693],[-55.327075,-26.7566],[-55.327238,-26.756232],[-55.327605,-26.756422],[-55.327408,-26.757047],[-55.327739,-26.757308],[-55.328852,-26.757425],[-55.329481,-26.757125],[-55.330649,-26.758218],[-55.331793,-26.758358],[-55.332214,-26.758065],[-55.332749,-26.758125],[-55.333447,-26.757384],[-55.334001,-26.755748],[-55.334768,-26.755075],[-55.335177,-26.753555],[-55.335823,-26.752529],[-55.33548,-26.751951],[-55.335875,-26.751685],[-55.3363,-26.75188],[-55.336321,-26.750874],[-55.337471,-26.750661],[-55.33776,-26.749825],[-55.337461,-26.749578],[-55.337118,-26.749845],[-55.336965,-26.748078],[-55.338171,-26.748115],[-55.338301,-26.747625],[-55.337705,-26.747211],[-55.339016,-26.746726],[-55.339969,-26.745297],[-55.340312,-26.745319],[-55.340288,-26.745775],[-55.34094,-26.744808],[-55.343145,-26.744292],[-55.343505,-26.744481],[-55.343972,-26.743309],[-55.34476,-26.742555],[-55.345794,-26.742116],[-55.346289,-26.741435],[-55.346362,-26.740579],[-55.345754,-26.740089],[-55.345941,-26.739825],[-55.347155,-26.740407],[-55.348468,-26.739344],[-55.350795,-26.739294],[-55.351609,-26.738925],[-55.352443,-26.73925],[-55.354813,-26.738736],[-55.358193,-26.737543],[-55.357531,-26.736886],[-55.358075,-26.736779],[-55.358577,-26.737236],[-55.359257,-26.736987],[-55.359475,-26.736737],[-55.359112,-26.735807],[-55.359968,-26.735357]]]}}]}
