{"type":"FeatureCollection","name":"distrito","features":[{"type":"Feature","properties":{"clave":"3-19","nombre":"Juan de Mena"},"geometry":{"type":"Polygon","coordinates":[[[-56.776604,-25.098609],[-56.837437,-25.050275],[-56.83902,-25.049265],[-56.841394,-25.049123],[-56.844245,-25.047108],[-56.846615,-25.046867],[-56.84924,-25.047145],[-56.849841,-25.046734],[-56.851379,-25.046533],[-56.852392,-25.045712],[-56.854755,-25.046261],[-56.855618,-25.045751],[-56.856894,-25.045581],[-56.858994,-25.045958],[-56.860703,-25.045106],[-56.861322,-25.043941],[-56.86363,-25.042119],[-56.865131,-25.041606],[-56.867036,-25.041653],[-56.868169,-25.041369],[-56.868509,-25.039455],[-56.869672,-25.039321],[-56.87046,-25.038739],[-56.87155,-25.036419],[-56.873314,-25.035666],[-56.874476,-25.035807],[-56.874515,-25.034335],[-56.875103,-25.033451],[-56.875864,-25.033013],[-56.877751,-25.033832],[-56.878851,-25.033612],[-56.879639,-25.0341],[-56.879896,-25.033974],[-56.880416,-25.034543],[-56.881449,-25.034702],[-56.882093,-25.03463],[-56.882623,-25.034116],[-56.883471,-25.03446],[-56.886707,-25.033708],[-56.890379,-25.032149],[-56.892123,-25.032218],[-56.89512,-25.031271],[-56.899762,-25.028985],[-56.900385,-25.027329],[-56.902103,-25.026598],[-56.904739,-25.027864],[-56.9055,-25.027585],[-56.90602,-25.02693],[-56.906962,-25.027035],[-56.908104,-25.026751],[-56.908872,-25.027352],[-56.908105,-25.028232],[-56.909374,-25.027921],[-56.909788,-25.028789],[-56.910502,-25.029092],[-56.910765,-25.027972],[-56.911138,-25.027769],[-56.912307,-25.028795],[-56.912289,-25.027738],[-56.914039,-25.027193],[-56.91503,-25.028006],[-56.915384,-25.02732],[-56.915188,-25.026588],[-56.915912,-25.026634],[-56.916428,-25.027311],[-56.916788,-25.025921],[-56.916085,-25.025509],[-56.916152,-25.025148],[-56.917691,-25.02519],[-56.917628,-25.024725],[-56.917012,-25.024173],[-56.917548,-25.023704],[-56.918298,-25.024441],[-56.918949,-25.02422],[-56.919333,-25.024549],[-56.919659,-25.024089],[-56.919608,-25.022603],[-56.920845,-25.023299],[-56.921338,-25.023056],[-56.921664,-25.023666],[-56.922171,-25.023219],[-56.92278,-25.023188],[-56.92248,-25.022808],[-56.922874,-25.022555],[-56.923917,-25.023125],[-56.924257,-25.022407],[-56.924894,-25.023144],[-56.925441,-25.021721],[-56.9259,-25.021356],[-56.926283,-25.021781],[-56.926276,-25.02276],[-56.926766,-25.022919],[-56.927407,-25.02207],[-56.928095,-25.022581],[-56.928925,-25.021863],[-56.929625,-25.021719],[-56.929138,-25.021059],[-56.929573,-25.020793],[-56.930602,-25.021548],[-56.932021,-25.021508],[-56.932119,-25.022023],[-56.932998,-25.022849],[-56.934438,-25.022489],[-56.936196,-25.02384],[-56.936883,-25.023804],[-56.936902,-25.022833],[-56.937718,-25.022901],[-56.938227,-25.023407],[-56.938685,-25.022834],[-56.93908,-25.022852],[-56.939283,-25.023073],[-56.939042,-25.024834],[-56.939813,-25.025404],[-56.940855,-25.024117],[-56.940357,-25.02329],[-56.940574,-25.022527],[-56.940922,-25.02241],[-56.94161,-25.02283],[-56.941427,-25.023882],[-56.942049,-25.024059],[-56.943102,-25.022975],[-56.94293,-25.02181],[-56.943326,-25.022014],[-56.943631,-25.022867],[-56.94305,-25.024466],[-56.944215,-25.025103],[-56.94539,-25.023216],[-56.946032,-25.023013],[-56.946545,-25.022394],[-56.947649,-25.022657],[-56.947982,-25.021767],[-56.948613,-25.02202],[-56.948505,-25.022878],[-56.949682,-25.022156],[-56.951322,-25.022468],[-56.952089,-25.021791],[-56.952653,-25.021954],[-56.952919,-25.022405],[-56.952791,-25.022961],[-56.951437,-25.023954],[-56.951568,-25.024405],[-56.95309,-25.024189],[-56.953423,-25.023151],[-56.954046,-25.02265],[-56.95436,-25.022921],[-56.954398,-25.023914],[-56.955237,-25.022957],[-56.956514,-25.022461],[-56.956652,-25.023752],[-56.95923,-25.023378],[-56.95958,-25.022796],[-56.959386,-25.02094],[-56.959968,-25.020353],[-56.960128,-25.019423],[-56.961858,-25.019414],[-56.96173,-25.020177],[-56.961973,-25.020408],[-56.96321,-25.019947],[-56.964035,-25.020444],[-56.963871,-25.019157],[-56.964129,-25.018814],[-56.964662,-25.019099],[-56.965027,-25.020259],[-56.965299,-25.020327],[-56.96619,-25.019158],[-56.965758,-25.018119],[-56.96608,-25.017839],[-56.966526,-25.018124],[-56.966911,-25.019682],[-56.967882,-25.019772],[-56.968359,-25.019583],[-56.96887,-25.018779],[-56.968167,-25.017713],[-56.968316,-25.017506],[-56.969169,-25.017605],[-56.970104,-25.019628],[-56.97112,-25.018491],[-56.97228,-25.019954],[-56.974444,-25.020677],[-56.975757,-25.020569],[-56.976436,-25.021431],[-56.976912,-25.021291],[-56.977098,-25.020582],[-56.976506,-25.018871],[-56.976996,-25.018812],[-56.978314,-25.019467],[-56.979045,-25.019214],[-56.97943,-25.018533],[-56.978725,-25.017485],[-56.978965,-25.017083],[-56.981697,-25.017503],[-56.982213,-25.018836],[-56.983565,-25.019856],[-56.98569,-25.020258],[-56.987483,-25.018664],[-56.989417,-25.018425],[-56.990287,-25.017929],[-56.991433,-25.01773],[-56.991813,-25.01601],[-56.992346,-25.016204],[-56.992852,-25.017184],[-56.993385,-25.017477],[-56.996632,-25.015987],[-56.996918,-25.014782],[-56.997278,-25.01452],[-56.998262,-25.014583],[-56.999804,-25.015766],[-57.000552,-25.015712],[-57.001754,-25.013883],[-57.004592,-25.013639],[-57.004527,-25.012443],[-57.005058,-25.012023],[-57.006567,-25.012659],[-57.008416,-25.012817],[-57.006508,-25.013738],[-57.005143,-25.013991],[-57.005633,-25.014962],[-57.006803,-25.01568],[-57.007531,-25.015432],[-57.007861,-25.01424],[-57.009793,-25.012704],[-57.01033,-25.012885],[-57.010275,-25.01475],[-57.011463,-25.015002],[-57.012043,-25.014555],[-57.012334,-25.013797],[-57.012172,-25.013137],[-57.011314,-25.01237],[-57.011379,-25.012031],[-57.011934,-25.011823],[-57.012952,-25.012261],[-57.013398,-25.012975],[-57.012531,-25.015011],[-57.013063,-25.016045],[-57.014329,-25.016203],[-57.015976,-25.014849],[-57.016232,-25.015833],[-57.015139,-25.017152],[-57.015158,-25.017522],[-57.018101,-25.020104],[-57.01863,-25.020267],[-57.020343,-25.018731],[-57.021778,-25.018781],[-57.022265,-25.018469],[-57.022282,-25.016866],[-57.023091,-25.013732],[-57.024262,-25.013877],[-57.025364,-25.015633],[-57.026746,-25.015285],[-57.028569,-25.013682],[-57.028592,-25.011767],[-57.029894,-25.01034],[-57.028449,-25.009518],[-57.028766,-25.008728],[-57.029672,-25.00875],[-57.030565,-25.008294],[-57.031118,-25.008439],[-57.032528,-25.009816],[-57.032315,-25.011676],[-57.032767,-25.012674],[-57.033979,-25.013432],[-57.035298,-25.013373],[-57.035717,-25.0128],[-57.035442,-25.009408],[-57.035986,-25.006749],[-57.036467,-25.005931],[-57.037208,-25.005669],[-57.038931,-25.007199],[-57.039695,-25.007091],[-57.039794,-25.00659],[-57.038604,-25.004594],[-57.038981,-25.004129],[-57.039551,-25.00407],[-57.03952,-25.003275],[-57.040762,-25.002995],[-57.048154,-25.003458],[-57.051617,-25.002834],[-57.053263,-25.001831],[-57.053309,-25.000756],[-57.052439,-25.000332],[-57.050529,-25.00091],[-57.048837,-25.002735],[-57.047967,-25.002609],[-57.047393,-25.002171],[-57.047377,-25.000853],[-57.049178,-24.999904],[-57.049379,-24.999339],[-57.048369,-24.996256],[-57.047002,-24.99538],[-57.046971,-24.994983],[-57.051954,-24.992633],[-57.052513,-24.991725],[-57.051736,-24.991152],[-57.048949,-24.99169],[-57.047823,-24.991451],[-57.045369,-24.989858],[-57.044802,-24.988422],[-57.045043,-24.987772],[-57.045811,-24.98755],[-57.045959,-24.988855],[-57.046378,-24.989203],[-57.048559,-24.987111],[-57.051711,-24.986036],[-57.052316,-24.98516],[-57.052595,-24.983037],[-57.052059,-24.982468],[-57.050312,-24.981877],[-57.049761,-24.982031],[-57.049481,-24.982469],[-57.049637,-24.983851],[-57.049249,-24.984289],[-57.044676,-24.983202],[-57.044101,-24.982683],[-57.044194,-24.982055],[-57.045693,-24.981798],[-57.046057,-24.981369],[-57.041771,-24.978647],[-57.042042,-24.976963],[-57.041429,-24.976186],[-57.039728,-24.975563],[-57.038944,-24.975798],[-57.038393,-24.976458],[-57.038378,-24.978142],[-57.039838,-24.979167],[-57.039179,-24.98044],[-57.038915,-24.98235],[-57.038046,-24.982879],[-57.036936,-24.982866],[-57.036027,-24.982311],[-57.037043,-24.979294],[-57.036484,-24.978007],[-57.035645,-24.977434],[-57.035024,-24.977895],[-57.035079,-24.979714],[-57.034676,-24.980572],[-57.033472,-24.979859],[-57.032727,-24.977353],[-57.032059,-24.977046],[-57.030568,-24.977489],[-57.031252,-24.97888],[-57.031165,-24.979372],[-57.028634,-24.980416],[-57.027959,-24.980027],[-57.028641,-24.978664],[-57.027236,-24.976934],[-57.026537,-24.976519],[-57.025155,-24.976587],[-57.024589,-24.97721],[-57.024744,-24.977906],[-57.02674,-24.978384],[-57.02705,-24.979039],[-57.026615,-24.979427],[-57.025606,-24.979093],[-57.024752,-24.979364],[-57.02462,-24.980037],[-57.025319,-24.981265],[-57.024077,-24.982209],[-57.023332,-24.981938],[-57.022812,-24.980629],[-57.02313,-24.978344],[-57.02247,-24.97829],[-57.021864,-24.97913],[-57.021197,-24.979378],[-57.020972,-24.979107],[-57.021282,-24.977856],[-57.020824,-24.977482],[-57.019426,-24.977672],[-57.018549,-24.978394],[-57.018883,-24.979026],[-57.020304,-24.980164],[-57.020374,-24.980936],[-57.019807,-24.981099],[-57.018418,-24.980787],[-57.016819,-24.981786],[-57.014971,-24.981298],[-57.014761,-24.980427],[-57.013775,-24.980214],[-57.013542,-24.979641],[-57.012285,-24.979217],[-57.011702,-24.97863],[-57.011617,-24.977821],[-57.012626,-24.975722],[-57.010025,-24.973306],[-57.010367,-24.973116],[-57.011554,-24.973274],[-57.011919,-24.972913],[-57.010102,-24.970859],[-57.010343,-24.970308],[-57.010959,-24.970696],[-57.012052,-24.970497],[-57.01266,-24.971125],[-57.013168,-24.970795],[-57.012397,-24.969928],[-57.012321,-24.96903],[-57.011271,-24.968799],[-57.011162,-24.968032],[-57.011491,-24.967806],[-57.012083,-24.968275],[-57.012428,-24.967738],[-57.013455,-24.968126],[-57.014287,-24.966519],[-57.01548,-24.965769],[-57.015291,-24.965552],[-57.014114,-24.965787],[-57.014757,-24.964803],[-57.013765,-24.965142],[-57.013267,-24.964956],[-57.013161,-24.964672],[-57.013745,-24.964365],[-57.013814,-24.964008],[-57.012626,-24.963132],[-57.013151,-24.961981],[-57.014579,-24.962053],[-57.015314,-24.96147],[-57.014502,-24.961028],[-57.012928,-24.961037],[-57.012732,-24.960527],[-57.011845,-24.959962],[-57.010304,-24.960134],[-57.010085,-24.959985],[-57.010411,-24.959439],[-57.009667,-24.959195],[-57.009279,-24.958644],[-57.007539,-24.958351],[-57.007445,-24.95747],[-57.008715,-24.956793],[-57.00791,-24.956431],[-57.006808,-24.956951],[-57.007124,-24.95579],[-57.006753,-24.954806],[-57.006901,-24.9543],[-57.005278,-24.953356],[-57.005443,-24.951961],[-57.004918,-24.951943],[-57.004326,-24.95248],[-57.004115,-24.952982],[-57.004543,-24.953776],[-57.003655,-24.954151],[-57.003332,-24.95365],[-57.00315,-24.951713],[-57.002272,-24.952553],[-57.001788,-24.951284],[-57.000794,-24.950331],[-57.001179,-24.949654],[-57.001811,-24.950778],[-57.002166,-24.950751],[-57.001631,-24.949162],[-57.002949,-24.948773],[-57.00301,-24.946533],[-57.003677,-24.946448],[-57.00401,-24.945689],[-57.004616,-24.94535],[-57.004203,-24.944827],[-57.004428,-24.944113],[-57.0038,-24.943463],[-57.004522,-24.943084],[-57.00446,-24.94214],[-57.003092,-24.941061],[-57.002069,-24.941237],[-57.001645,-24.941043],[-57.001869,-24.94065],[-57.003375,-24.940004],[-57.003717,-24.939214],[-57.003401,-24.938898],[-57.0026,-24.939349],[-57.001277,-24.939322],[-57.001233,-24.939078],[-57.002027,-24.938568],[-57.00186,-24.937213],[-57.000784,-24.936577],[-57.000057,-24.935655],[-56.999474,-24.935759],[-56.999601,-24.936559],[-56.999002,-24.936188],[-56.998731,-24.936315],[-56.998453,-24.937087],[-56.997557,-24.936735],[-56.997473,-24.936247],[-56.998265,-24.936021],[-56.998797,-24.935258],[-56.998658,-24.935059],[-56.997292,-24.935281],[-56.996893,-24.934671],[-56.998357,-24.934644],[-56.998798,-24.934256],[-56.998078,-24.933682],[-56.998128,-24.932838],[-56.997464,-24.932418],[-56.99771,-24.931614],[-56.996874,-24.931013],[-56.997041,-24.930368],[-56.996424,-24.929916],[-56.99451,-24.929519],[-56.994976,-24.930639],[-56.99368,-24.93207],[-56.99267,-24.931993],[-56.991536,-24.930602],[-56.991171,-24.928597],[-56.99189,-24.928281],[-56.992696,-24.927347],[-56.993821,-24.927184],[-56.993927,-24.92638],[-56.994493,-24.925649],[-56.993359,-24.924746],[-56.992298,-24.9254],[-56.991715,-24.925342],[-56.991641,-24.922587],[-56.990949,-24.922583],[-56.990316,-24.923012],[-56.989179,-24.922479],[-56.989112,-24.921178],[-56.990346,-24.9207],[-56.991232,-24.92125],[-56.991798,-24.920957],[-56.991365,-24.920085],[-56.989902,-24.919724],[-56.989473,-24.91869],[-56.990783,-24.918017],[-56.990918,-24.91617],[-56.990322,-24.916166],[-56.99012,-24.91711],[-56.988552,-24.917087],[-56.988379,-24.916631],[-56.98936,-24.914549],[-56.987995,-24.913867],[-56.986777,-24.914034],[-56.985687,-24.913167],[-56.986342,-24.911709],[-56.988109,-24.911772],[-56.986955,-24.91053],[-56.987844,-24.91035],[-56.989178,-24.909383],[-56.989164,-24.908408],[-56.988534,-24.908358],[-56.987969,-24.909017],[-56.987457,-24.908476],[-56.98525,-24.908959],[-56.984565,-24.908281],[-56.985159,-24.907613],[-56.984888,-24.906218],[-56.984623,-24.906272],[-56.984235,-24.907437],[-56.983768,-24.907563],[-56.983389,-24.907414],[-56.983809,-24.906958],[-56.983293,-24.905459],[-56.982164,-24.906384],[-56.981224,-24.906587],[-56.979523,-24.906199],[-56.978921,-24.905269],[-56.978796,-24.904162],[-56.979506,-24.904108],[-56.980323,-24.903246],[-56.982152,-24.902772],[-56.982582,-24.902356],[-56.981771,-24.90125],[-56.9805,-24.901859],[-56.979549,-24.901805],[-56.97901,-24.901417],[-56.979139,-24.901141],[-56.980815,-24.901309],[-56.981194,-24.900911],[-56.979053,-24.900279],[-56.978852,-24.8998],[-56.979217,-24.89924],[-56.982115,-24.89939],[-56.982768,-24.89901],[-56.982424,-24.898392],[-56.981329,-24.898893],[-56.980901,-24.898626],[-56.980304,-24.897344],[-56.98045,-24.896206],[-56.981011,-24.896242],[-56.982084,-24.896897],[-56.984594,-24.897448],[-56.98597,-24.897232],[-56.986699,-24.896654],[-56.986191,-24.895881],[-56.986314,-24.895312],[-56.987942,-24.894617],[-56.987056,-24.893777],[-56.98822,-24.893493],[-56.987104,-24.892585],[-56.98833,-24.892585],[-56.988593,-24.892025],[-56.987052,-24.890643],[-56.987958,-24.890391],[-56.987728,-24.889858],[-56.988036,-24.888833],[-56.984996,-24.888878],[-56.984578,-24.888291],[-56.985523,-24.888322],[-56.985416,-24.887595],[-56.986438,-24.886936],[-56.985571,-24.885983],[-56.984788,-24.886773],[-56.983768,-24.886493],[-56.983163,-24.88559],[-56.983491,-24.884886],[-56.984339,-24.88569],[-56.984857,-24.885717],[-56.984569,-24.885062],[-56.984806,-24.883229],[-56.986563,-24.882366],[-56.986677,-24.881328],[-56.986169,-24.880948],[-56.98539,-24.881368],[-56.984529,-24.881237],[-56.983712,-24.879729],[-56.983954,-24.87921],[-56.983631,-24.878889],[-56.983023,-24.878519],[-56.981584,-24.878925],[-56.981085,-24.878026],[-56.980058,-24.877909],[-56.97962,-24.877547],[-56.978773,-24.875204],[-56.97782,-24.875289],[-56.977461,-24.874698],[-56.976149,-24.874625],[-56.976271,-24.873849],[-56.974552,-24.872602],[-56.974213,-24.871441],[-56.973063,-24.871193],[-56.973018,-24.870398],[-56.973567,-24.86977],[-56.973063,-24.869156],[-56.972628,-24.869116],[-56.970924,-24.870362],[-56.969518,-24.869598],[-56.968126,-24.870668],[-56.967192,-24.870266],[-56.966519,-24.870948],[-56.965294,-24.870428],[-56.963289,-24.870703],[-56.962722,-24.870346],[-56.962657,-24.869109],[-56.962245,-24.868662],[-56.96082,-24.86811],[-56.957585,-24.867893],[-56.956579,-24.867319],[-56.955651,-24.865273],[-56.954112,-24.863688],[-56.953951,-24.861177],[-56.953135,-24.859569],[-56.951431,-24.858313],[-56.95057,-24.855765],[-56.947798,-24.851871],[-56.947123,-24.849956],[-56.946946,-24.847458],[-56.947729,-24.845998],[-56.948192,-24.845674],[-56.949319,-24.843279],[-56.860323,-24.875747],[-56.842861,-24.877233],[-56.834655,-24.875149],[-56.812222,-24.868367],[-56.767447,-24.866964],[-56.756484,-24.870489],[-56.749103,-24.873426],[-56.747821,-24.874561],[-56.737418,-24.88657],[-56.736299,-24.886735],[-56.736383,-24.887706],[-56.735332,-24.889018],[-56.735597,-24.890383],[-56.733894,-24.890894],[-56.73331,-24.892171],[-56.733495,-24.895287],[-56.733016,-24.895607],[-56.728019,-24.894803],[-56.727475,-24.894084],[-56.726758,-24.891952],[-56.723635,-24.890668],[-56.720094,-24.888079],[-56.718882,-24.886451],[-56.717157,-24.883178],[-56.716322,-24.883041],[-56.714834,-24.883395],[-56.714188,-24.883114],[-56.713946,-24.882282],[-56.71466,-24.881132],[-56.714382,-24.879682],[-56.713881,-24.879379],[-56.712094,-24.879895],[-56.711366,-24.879749],[-56.711091,-24.87908],[-56.711365,-24.877225],[-56.710847,-24.876406],[-56.707784,-24.876346],[-56.706429,-24.877296],[-56.705104,-24.877542],[-56.704442,-24.878105],[-56.704223,-24.879364],[-56.702344,-24.879912],[-56.701403,-24.880944],[-56.699945,-24.880038],[-56.699514,-24.880168],[-56.69967,-24.880886],[-56.699433,-24.881102],[-56.69702,-24.880407],[-56.695963,-24.879154],[-56.695233,-24.879523],[-56.69461,-24.880361],[-56.694065,-24.880441],[-56.693486,-24.879772],[-56.693397,-24.878291],[-56.693081,-24.878001],[-56.690238,-24.87911],[-56.689171,-24.878729],[-56.688964,-24.87718],[-56.689246,-24.874787],[-56.688788,-24.872059],[-56.689401,-24.87145],[-56.688279,-24.87068],[-56.687253,-24.870845],[-56.686775,-24.870402],[-56.686824,-24.869702],[-56.686454,-24.869236],[-56.684737,-24.868785],[-56.633632,-24.957785],[-56.632658,-24.95885],[-56.624577,-24.964246],[-56.624195,-24.965973],[-56.624371,-24.966764],[-56.622278,-24.967436],[-56.6227,-24.968706],[-56.622056,-24.968763],[-56.621246,-24.968318],[-56.619671,-24.968355],[-56.617938,-24.96882],[-56.616962,-24.969576],[-56.617141,-24.970389],[-56.618573,-24.970555],[-56.618692,-24.973527],[-56.616915,-24.975753],[-56.617082,-24.976964],[-56.616756,-24.977997],[-56.61385,-24.980188],[-56.611959,-24.980378],[-56.609398,-24.981667],[-56.608217,-24.981686],[-56.606822,-24.982374],[-56.606198,-24.983036],[-56.605215,-24.98329],[-56.605115,-24.984509],[-56.604048,-24.985021],[-56.603332,-24.986207],[-56.600966,-24.98658],[-56.599945,-24.986053],[-56.598459,-24.986361],[-56.597517,-24.985929],[-56.595035,-24.986456],[-56.593653,-24.985783],[-56.592243,-24.986814],[-56.591165,-24.986255],[-56.589778,-24.986224],[-56.589459,-24.987158],[-56.586691,-24.987367],[-56.585662,-24.988019],[-56.583267,-24.987678],[-56.581866,-24.988316],[-56.580974,-24.988123],[-56.580558,-24.989265],[-56.5793,-24.991108],[-56.578282,-24.991543],[-56.57783,-24.992427],[-56.576946,-24.992339],[-56.576376,-24.993068],[-56.574415,-24.993347],[-56.572228,-24.994809],[-56.569827,-24.995294],[-56.568602,-24.99595],[-56.567788,-24.996823],[-56.566642,-24.996955],[-56.564893,-24.997682],[-56.564484,-24.997337],[-56.56168,-25.166074],[-56.584649,-25.1659],[-56.605493,-25.164618],[-56.612846,-25.165307],[-56.620441,-25.167111],[-56.622407,-25.165778],[-56.623639,-25.163549],[-56.625354,-25.164223],[-56.627316,-25.163782],[-56.628795,-25.161331],[-56.63027,-25.159773],[-56.63175,-25.156876],[-56.63592,-25.156217],[-56.641568,-25.152884],[-56.645493,-25.152],[-56.776604,-25.098609]]]}}]}
