{"type":"FeatureCollection","name":"distrito","features":[{"type":"Feature","properties":{"clave":"3-7","nombre":"Atyrá"},"geometry":{"type":"Polygon","coordinates":[[[-57.162801,-25.358429],[-57.169955,-25.35133],[-57.183076,-25.342662],[-57.186332,-25.342223],[-57.186996,-25.344096],[-57.189878,-25.349583],[-57.190508,-25.352101],[-57.189069,-25.35418],[-57.188973,-25.354799],[-57.189267,-25.356004],[-57.189153,-25.357287],[-57.189724,-25.359512],[-57.190445,-25.360288],[-57.190447,-25.360676],[-57.193353,-25.359841],[-57.19998,-25.360606],[-57.205561,-25.352698],[-57.212768,-25.355857],[-57.212262,-25.345263],[-57.221929,-25.337357],[-57.225266,-25.336323],[-57.219438,-25.329932],[-57.219913,-25.329638],[-57.216054,-25.321874],[-57.209041,-25.31856],[-57.207446,-25.317161],[-57.205215,-25.316516],[-57.203379,-25.315523],[-57.200155,-25.31474],[-57.19954,-25.312853],[-57.19838,-25.312426],[-57.197104,-25.311235],[-57.193878,-25.309305],[-57.193559,-25.308877],[-57.193211,-25.30662],[-57.192637,-25.30584],[-57.19273,-25.304763],[-57.192105,-25.304354],[-57.192165,-25.30362],[-57.190934,-25.30299],[-57.190553,-25.301566],[-57.189921,-25.301285],[-57.189435,-25.300583],[-57.189278,-25.299509],[-57.189556,-25.298231],[-57.188657,-25.29722],[-57.188812,-25.29688],[-57.189214,-25.296881],[-57.188911,-25.296697],[-57.188965,-25.294831],[-57.190088,-25.29384],[-57.190568,-25.292546],[-57.190558,-25.29212],[-57.190151,-25.291918],[-57.190198,-25.290952],[-57.18971,-25.289971],[-57.189732,-25.289295],[-57.189244,-25.288762],[-57.188913,-25.289181],[-57.188668,-25.289007],[-57.188009,-25.289211],[-57.188099,-25.288717],[-57.187576,-25.288585],[-57.1873,-25.287446],[-57.187811,-25.287589],[-57.188142,-25.286788],[-57.18801,-25.28619],[-57.187726,-25.286343],[-57.18754,-25.286029],[-57.187211,-25.286136],[-57.186213,-25.285525],[-57.186171,-25.285132],[-57.185812,-25.285152],[-57.184815,-25.283994],[-57.18345,-25.283428],[-57.1825,-25.281974],[-57.181522,-25.281654],[-57.181294,-25.280895],[-57.181621,-25.280338],[-57.181047,-25.279009],[-57.181257,-25.278303],[-57.180558,-25.277407],[-57.179634,-25.276888],[-57.178151,-25.26914],[-57.179017,-25.267697],[-57.182431,-25.268388],[-57.186585,-25.268076],[-57.190022,-25.26622],[-57.194641,-25.264587],[-57.197819,-25.263808],[-57.186496,-25.250362],[-57.182154,-25.234099],[-57.17674,-25.211325],[-57.175227,-25.211408],[-57.171773,-25.212211],[-57.169561,-25.201392],[-57.169709,-25.19939],[-57.168549,-25.196605],[-57.156385,-25.180967],[-57.151071,-25.135259],[-57.151008,-25.129589],[-57.149483,-25.1303],[-57.149136,-25.131923],[-57.147594,-25.131661],[-57.145078,-25.132914],[-57.144174,-25.132377],[-57.142777,-25.132346],[-57.142331,-25.132653],[-57.141647,-25.134551],[-57.14031,-25.134103],[-57.139059,-25.134516],[-57.13904,-25.135042],[-57.139834,-25.136225],[-57.139717,-25.136795],[-57.137175,-25.137866],[-57.136421,-25.137422],[-57.135315,-25.137351],[-57.134387,-25.138011],[-57.133077,-25.138009],[-57.132625,-25.138488],[-57.131913,-25.138682],[-57.131724,-25.138926],[-57.132208,-25.139648],[-57.131225,-25.140318],[-57.131415,-25.141406],[-57.131001,-25.141248],[-57.130843,-25.142025],[-57.131086,-25.142833],[-57.131705,-25.14327],[-57.130804,-25.144075],[-57.130841,-25.144933],[-57.130444,-25.145836],[-57.129825,-25.146266],[-57.129607,-25.147557],[-57.126968,-25.149172],[-57.125635,-25.14901],[-57.124743,-25.151607],[-57.123904,-25.152109],[-57.123806,-25.152728],[-57.122554,-25.152946],[-57.121474,-25.15422],[-57.120731,-25.154212],[-57.112204,-25.191658],[-57.11252,-25.192066],[-57.111795,-25.193056],[-57.111941,-25.194546],[-57.111378,-25.195607],[-57.111367,-25.196605],[-57.11022,-25.197992],[-57.109732,-25.199122],[-57.108997,-25.199483],[-57.10775,-25.199475],[-57.106293,-25.200957],[-57.106462,-25.202127],[-57.105987,-25.20336],[-57.105862,-25.205523],[-57.10461,-25.207357],[-57.104755,-25.209276],[-57.104088,-25.209696],[-57.102771,-25.20976],[-57.101684,-25.210231],[-57.099715,-25.209695],[-57.097746,-25.211854],[-57.098619,-25.212626],[-57.099118,-25.213628],[-57.09856,-25.214992],[-57.100223,-25.216553],[-57.099117,-25.218965],[-57.099385,-25.219548],[-57.100277,-25.220035],[-57.100681,-25.220874],[-57.100274,-25.221751],[-57.100323,-25.222861],[-57.101383,-25.223416],[-57.103522,-25.223419],[-57.104449,-25.224272],[-57.106134,-25.225133],[-57.106986,-25.22753],[-57.108676,-25.230161],[-57.108064,-25.232176],[-57.109997,-25.233484],[-57.111847,-25.234263],[-57.1134,-25.234366],[-57.123234,-25.248097],[-57.12737,-25.251875],[-57.130636,-25.259891],[-57.129766,-25.26461],[-57.12882,-25.267],[-57.12916,-25.267388],[-57.128932,-25.26839],[-57.129092,-25.269849],[-57.128071,-25.270563],[-57.127802,-25.271525],[-57.128655,-25.273904],[-57.128654,-25.275656],[-57.129483,-25.27682],[-57.129309,-25.277886],[-57.12954,-25.278604],[-57.128871,-25.280564],[-57.128239,-25.281395],[-57.128399,-25.283093],[-57.127812,-25.283735],[-57.127738,-25.284696],[-57.127807,-25.285446],[-57.128263,-25.285807],[-57.12878,-25.287369],[-57.129733,-25.294895],[-57.129539,-25.30831],[-57.131064,-25.316251],[-57.133445,-25.319216],[-57.126195,-25.324311],[-57.128589,-25.329398],[-57.12561,-25.330813],[-57.125921,-25.335455],[-57.125116,-25.339262],[-57.125562,-25.34054],[-57.127737,-25.34471],[-57.128626,-25.344276],[-57.129796,-25.34474],[-57.130242,-25.344346],[-57.130854,-25.344368],[-57.132549,-25.34569],[-57.133824,-25.34596],[-57.134308,-25.345801],[-57.135843,-25.34626],[-57.135967,-25.346743],[-57.137626,-25.347306],[-57.137984,-25.348588],[-57.138574,-25.348678],[-57.139018,-25.349513],[-57.140161,-25.349837],[-57.141281,-25.351123],[-57.144983,-25.352943],[-57.147816,-25.353659],[-57.148476,-25.354227],[-57.149184,-25.355581],[-57.149535,-25.355355],[-57.151437,-25.355533],[-57.154545,-25.356469],[-57.156649,-25.357546],[-57.162801,-25.358429]]]}}]}
