{"type":"FeatureCollection","name":"distrito","features":[{"type":"Feature","properties":{"clave":"9-27","nombre":"Yaguarón"},"geometry":{"type":"Polygon","coordinates":[[[-57.270334,-25.677134],[-57.271587,-25.67636],[-57.27314,-25.676298],[-57.273359,-25.674126],[-57.27404,-25.673741],[-57.274403,-25.672769],[-57.275428,-25.673278],[-57.275857,-25.674455],[-57.276404,-25.674427],[-57.276683,-25.673691],[-57.27767,-25.672822],[-57.276952,-25.671035],[-57.278076,-25.670853],[-57.278608,-25.670174],[-57.279353,-25.670453],[-57.279416,-25.670082],[-57.278881,-25.669528],[-57.279702,-25.669057],[-57.278743,-25.66863],[-57.277803,-25.668758],[-57.27784,-25.667692],[-57.279977,-25.66735],[-57.280945,-25.666133],[-57.281512,-25.665888],[-57.282501,-25.666672],[-57.282653,-25.667579],[-57.28358,-25.668566],[-57.284667,-25.667788],[-57.285577,-25.668409],[-57.286169,-25.667703],[-57.289123,-25.66721],[-57.289467,-25.667268],[-57.289588,-25.667931],[-57.29016,-25.6684],[-57.290696,-25.668462],[-57.291472,-25.66805],[-57.291406,-25.668799],[-57.290664,-25.66997],[-57.289725,-25.670035],[-57.288966,-25.670673],[-57.289578,-25.670889],[-57.289534,-25.671697],[-57.290521,-25.672648],[-57.290835,-25.672593],[-57.290914,-25.67188],[-57.291619,-25.672167],[-57.292088,-25.673087],[-57.291943,-25.673963],[-57.293055,-25.673695],[-57.293728,-25.673016],[-57.295426,-25.673744],[-57.295429,-25.67257],[-57.296785,-25.673565],[-57.297056,-25.671655],[-57.297487,-25.67169],[-57.298172,-25.672339],[-57.29856,-25.671688],[-57.299198,-25.671759],[-57.299608,-25.673235],[-57.301759,-25.673162],[-57.301887,-25.673979],[-57.301595,-25.674784],[-57.301796,-25.676002],[-57.30217,-25.676164],[-57.302508,-25.675224],[-57.303557,-25.675118],[-57.304509,-25.674462],[-57.305565,-25.674676],[-57.305871,-25.675122],[-57.306499,-25.674381],[-57.306901,-25.67494],[-57.307734,-25.674875],[-57.307872,-25.674427],[-57.307218,-25.673724],[-57.307717,-25.672328],[-57.308286,-25.672643],[-57.309055,-25.672113],[-57.310203,-25.672169],[-57.310553,-25.671862],[-57.310326,-25.671076],[-57.311467,-25.670889],[-57.311345,-25.670149],[-57.310409,-25.669902],[-57.310506,-25.669297],[-57.311529,-25.669011],[-57.313558,-25.6699],[-57.314281,-25.669172],[-57.314089,-25.668337],[-57.314438,-25.667979],[-57.315258,-25.668361],[-57.315517,-25.669512],[-57.316639,-25.669618],[-57.317785,-25.669358],[-57.31927,-25.669716],[-57.319839,-25.671209],[-57.320481,-25.671091],[-57.321571,-25.669829],[-57.322296,-25.669628],[-57.322647,-25.670038],[-57.322342,-25.671502],[-57.324034,-25.671841],[-57.325035,-25.671586],[-57.32536,-25.670746],[-57.326411,-25.670188],[-57.326667,-25.670436],[-57.326446,-25.671217],[-57.327168,-25.67183],[-57.327862,-25.670745],[-57.327913,-25.669878],[-57.328215,-25.669543],[-57.329254,-25.669328],[-57.329388,-25.668389],[-57.329801,-25.668442],[-57.330432,-25.669154],[-57.331291,-25.669193],[-57.331411,-25.668434],[-57.331796,-25.668311],[-57.333679,-25.668433],[-57.335224,-25.669121],[-57.336272,-25.668301],[-57.335611,-25.667589],[-57.336155,-25.666942],[-57.337035,-25.667202],[-57.337116,-25.66834],[-57.337778,-25.669377],[-57.338727,-25.668747],[-57.339169,-25.669337],[-57.339847,-25.667891],[-57.340371,-25.668644],[-57.340959,-25.668073],[-57.343441,-25.668722],[-57.344361,-25.66788],[-57.345701,-25.667344],[-57.346087,-25.666716],[-57.346992,-25.66675],[-57.347548,-25.666297],[-57.348652,-25.666543],[-57.34908,-25.665377],[-57.349898,-25.665203],[-57.350404,-25.665482],[-57.350914,-25.664153],[-57.35158,-25.664499],[-57.351841,-25.664038],[-57.351193,-25.663403],[-57.351299,-25.662631],[-57.350714,-25.661878],[-57.350959,-25.661372],[-57.35245,-25.661377],[-57.353355,-25.662445],[-57.353765,-25.662494],[-57.354658,-25.662004],[-57.354214,-25.661694],[-57.354501,-25.66111],[-57.354816,-25.661096],[-57.355189,-25.661718],[-57.355409,-25.660255],[-57.356499,-25.659385],[-57.356908,-25.659795],[-57.356826,-25.660856],[-57.357251,-25.661004],[-57.358242,-25.660519],[-57.357917,-25.659775],[-57.358725,-25.659285],[-57.360352,-25.660843],[-57.361414,-25.660804],[-57.361885,-25.65953],[-57.3637,-25.660243],[-57.364643,-25.659306],[-57.364242,-25.658097],[-57.364473,-25.657266],[-57.365108,-25.656827],[-57.365399,-25.65702],[-57.365429,-25.657801],[-57.366216,-25.658061],[-57.366634,-25.658904],[-57.367487,-25.658008],[-57.368456,-25.657915],[-57.367925,-25.65714],[-57.368172,-25.656259],[-57.36776,-25.655641],[-57.367869,-25.655271],[-57.368367,-25.6551],[-57.369136,-25.655511],[-57.36979,-25.65535],[-57.370124,-25.65689],[-57.371064,-25.657299],[-57.371319,-25.656867],[-57.370575,-25.65609],[-57.371391,-25.65551],[-57.371088,-25.654671],[-57.373617,-25.654209],[-57.373632,-25.653256],[-57.375458,-25.652448],[-57.375015,-25.65146],[-57.376648,-25.65047],[-57.376401,-25.649391],[-57.377609,-25.649094],[-57.379419,-25.647957],[-57.379885,-25.647445],[-57.38008,-25.646538],[-57.382198,-25.646619],[-57.382032,-25.645511],[-57.380469,-25.644875],[-57.381119,-25.643135],[-57.382178,-25.641988],[-57.382256,-25.641402],[-57.385138,-25.640829],[-57.385921,-25.640928],[-57.386795,-25.639304],[-57.387393,-25.638998],[-57.388168,-25.639027],[-57.386954,-25.6381],[-57.386875,-25.637473],[-57.386523,-25.637199],[-57.385636,-25.637309],[-57.384203,-25.636667],[-57.383228,-25.636665],[-57.382357,-25.635995],[-57.381196,-25.636978],[-57.380214,-25.635969],[-57.377799,-25.635686],[-57.377222,-25.635317],[-57.376068,-25.633939],[-57.375689,-25.632802],[-57.374822,-25.631982],[-57.373117,-25.629147],[-57.3729,-25.627522],[-57.371323,-25.625341],[-57.371201,-25.624438],[-57.370384,-25.624318],[-57.369181,-25.62475],[-57.368674,-25.622828],[-57.364929,-25.622621],[-57.364505,-25.62236],[-57.363187,-25.620092],[-57.360513,-25.617024],[-57.359499,-25.616968],[-57.359482,-25.618724],[-57.358998,-25.619145],[-57.358204,-25.619066],[-57.355131,-25.615976],[-57.345863,-25.612783],[-57.343032,-25.609611],[-57.343119,-25.609051],[-57.343713,-25.608734],[-57.343612,-25.608228],[-57.344334,-25.606294],[-57.344167,-25.605712],[-57.343593,-25.605375],[-57.343607,-25.604562],[-57.343211,-25.604848],[-57.343703,-25.603329],[-57.343425,-25.602829],[-57.344127,-25.601247],[-57.342952,-25.598852],[-57.343391,-25.598201],[-57.343923,-25.595504],[-57.34375,-25.592836],[-57.343218,-25.591519],[-57.344027,-25.589499],[-57.343547,-25.587179],[-57.342028,-25.584094],[-57.339964,-25.58288],[-57.336791,-25.5831],[-57.336229,-25.58297],[-57.336118,-25.582618],[-57.335338,-25.58327],[-57.335114,-25.584593],[-57.334807,-25.584698],[-57.334536,-25.584247],[-57.333985,-25.584163],[-57.333949,-25.583472],[-57.333485,-25.582877],[-57.332747,-25.582865],[-57.332977,-25.582508],[-57.332603,-25.582531],[-57.332368,-25.581407],[-57.330736,-25.578901],[-57.328906,-25.565517],[-57.32602,-25.551356],[-57.324094,-25.546202],[-57.322905,-25.528435],[-57.320221,-25.51582],[-57.318265,-25.510015],[-57.317095,-25.497762],[-57.306434,-25.497861],[-57.290127,-25.501512],[-57.264099,-25.506531],[-57.25906,-25.508094],[-57.253918,-25.50929],[-57.230752,-25.52678],[-57.22363,-25.539153],[-57.21807,-25.551109],[-57.222931,-25.552583],[-57.216493,-25.562232],[-57.207339,-25.572725],[-57.20162,-25.577266],[-57.198534,-25.580914],[-57.195695,-25.583149],[-57.186912,-25.586885],[-57.183951,-25.591445],[-57.186619,-25.603456],[-57.184417,-25.603708],[-57.18091,-25.605066],[-57.183181,-25.612206],[-57.183484,-25.615836],[-57.181531,-25.616772],[-57.182509,-25.619711],[-57.182987,-25.628455],[-57.184478,-25.635322],[-57.17825,-25.639159],[-57.179167,-25.650013],[-57.178973,-25.650297],[-57.179401,-25.651583],[-57.181498,-25.651413],[-57.182042,-25.652018],[-57.182583,-25.651683],[-57.183158,-25.651809],[-57.183334,-25.651014],[-57.186997,-25.651677],[-57.189024,-25.653296],[-57.189723,-25.653286],[-57.190016,-25.653796],[-57.190559,-25.653953],[-57.191041,-25.655203],[-57.192807,-25.656655],[-57.194815,-25.659632],[-57.195775,-25.659879],[-57.195943,-25.660389],[-57.197017,-25.65981],[-57.1978,-25.660061],[-57.197977,-25.659637],[-57.198635,-25.659997],[-57.198811,-25.659645],[-57.199094,-25.659938],[-57.199573,-25.659567],[-57.199803,-25.659842],[-57.201316,-25.660079],[-57.20236,-25.660037],[-57.203215,-25.659629],[-57.203978,-25.660148],[-57.204593,-25.660147],[-57.204636,-25.660594],[-57.20639,-25.661413],[-57.206912,-25.661412],[-57.207151,-25.660956],[-57.207589,-25.660883],[-57.208697,-25.661875],[-57.209344,-25.662073],[-57.210628,-25.662021],[-57.211753,-25.661103],[-57.213235,-25.661232],[-57.213976,-25.661014],[-57.215393,-25.660172],[-57.216354,-25.66064],[-57.216373,-25.659507],[-57.216936,-25.659357],[-57.217887,-25.659694],[-57.219392,-25.661092],[-57.222396,-25.66087],[-57.222824,-25.660454],[-57.22279,-25.659325],[-57.223331,-25.658458],[-57.224532,-25.658596],[-57.227837,-25.657191],[-57.230195,-25.657196],[-57.231571,-25.65686],[-57.236566,-25.659958],[-57.239518,-25.661304],[-57.242401,-25.663362],[-57.244752,-25.665733],[-57.247922,-25.666356],[-57.254751,-25.669121],[-57.255139,-25.669635],[-57.255246,-25.67219],[-57.255868,-25.672568],[-57.257129,-25.672656],[-57.261438,-25.671813],[-57.26435,-25.672056],[-57.264828,-25.67183],[-57.267189,-25.671854],[-57.270054,-25.675997],[-57.270334,-25.677134]]]}}]}
