{"type":"FeatureCollection","name":"distrito","features":[{"type":"Feature","properties":{"clave":"7-21","nombre":"General Artigas"},"geometry":{"type":"Polygon","coordinates":[[[-56.186902,-27.039449],[-56.245082,-27.061785],[-56.247421,-27.063769],[-56.251457,-27.065376],[-56.253134,-27.066506],[-56.255017,-27.067257],[-56.256258,-27.068535],[-56.256835,-27.068548],[-56.257757,-27.069125],[-56.25849,-27.068667],[-56.259259,-27.068635],[-56.259899,-27.069118],[-56.26081,-27.069305],[-56.261855,-27.071569],[-56.262572,-27.072065],[-56.264482,-27.072506],[-56.264858,-27.071037],[-56.265435,-27.071268],[-56.266202,-27.072281],[-56.26777,-27.071274],[-56.26959,-27.071611],[-56.270768,-27.072384],[-56.271397,-27.072316],[-56.271848,-27.071697],[-56.273029,-27.071448],[-56.275858,-27.073544],[-56.277312,-27.076717],[-56.278069,-27.076432],[-56.279375,-27.077618],[-56.280836,-27.077908],[-56.281296,-27.078587],[-56.281836,-27.078473],[-56.282258,-27.078968],[-56.282668,-27.07882],[-56.283146,-27.077684],[-56.283147,-27.077409],[-56.282225,-27.076798],[-56.282304,-27.075948],[-56.283408,-27.075825],[-56.284959,-27.076184],[-56.286025,-27.075785],[-56.286394,-27.077152],[-56.286238,-27.077887],[-56.285659,-27.078253],[-56.285296,-27.079584],[-56.285281,-27.080445],[-56.285614,-27.080676],[-56.286962,-27.080438],[-56.287373,-27.080056],[-56.288446,-27.080032],[-56.289094,-27.079421],[-56.289856,-27.079373],[-56.290173,-27.080219],[-56.29057,-27.080228],[-56.290913,-27.079563],[-56.290874,-27.079238],[-56.290256,-27.078886],[-56.290432,-27.078473],[-56.29122,-27.078099],[-56.291495,-27.079011],[-56.292209,-27.078726],[-56.292429,-27.077883],[-56.293298,-27.077791],[-56.292932,-27.076797],[-56.293721,-27.076291],[-56.293808,-27.075617],[-56.29294,-27.075465],[-56.294134,-27.073731],[-56.293945,-27.073419],[-56.293161,-27.073245],[-56.294088,-27.071747],[-56.295569,-27.071734],[-56.296325,-27.070761],[-56.29895,-27.071618],[-56.299751,-27.071355],[-56.299367,-27.070315],[-56.300212,-27.070091],[-56.300553,-27.068117],[-56.300425,-27.067788],[-56.29928,-27.067444],[-56.298904,-27.066953],[-56.29921,-27.066677],[-56.30096,-27.066486],[-56.300833,-27.066036],[-56.300014,-27.065987],[-56.299729,-27.06566],[-56.30002,-27.065328],[-56.301203,-27.065357],[-56.301545,-27.063463],[-56.30235,-27.063104],[-56.302484,-27.064053],[-56.303503,-27.063784],[-56.304235,-27.064483],[-56.304838,-27.064597],[-56.305198,-27.063762],[-56.30635,-27.064501],[-56.30658,-27.063358],[-56.307042,-27.062789],[-56.308244,-27.063977],[-56.308669,-27.063457],[-56.308674,-27.062647],[-56.308979,-27.062504],[-56.309599,-27.062563],[-56.310336,-27.063294],[-56.311632,-27.063947],[-56.313069,-27.064141],[-56.313428,-27.063899],[-56.313669,-27.062233],[-56.314335,-27.061864],[-56.316145,-27.062609],[-56.317388,-27.061792],[-56.31776,-27.061941],[-56.317646,-27.062837],[-56.317916,-27.062986],[-56.319235,-27.061858],[-56.319748,-27.061766],[-56.32039,-27.062098],[-56.320763,-27.062753],[-56.3222,-27.0629],[-56.32311,-27.062405],[-56.324612,-27.063093],[-56.325201,-27.062414],[-56.326074,-27.062861],[-56.326869,-27.062734],[-56.326919,-27.061837],[-56.327625,-27.061928],[-56.328267,-27.062456],[-56.32969,-27.061949],[-56.330461,-27.062557],[-56.330756,-27.06243],[-56.330588,-27.06189],[-56.33087,-27.061763],[-56.333861,-27.063253],[-56.334913,-27.063206],[-56.335504,-27.063539],[-56.335722,-27.063389],[-56.335426,-27.062746],[-56.335605,-27.062504],[-56.337081,-27.06287],[-56.337361,-27.062065],[-56.338324,-27.062432],[-56.338952,-27.061994],[-56.339953,-27.062039],[-56.340387,-27.06128],[-56.340914,-27.061693],[-56.341478,-27.061359],[-56.342017,-27.06145],[-56.342412,-27.060197],[-56.34336,-27.059586],[-56.342896,-27.05838],[-56.344075,-27.0577],[-56.345024,-27.057688],[-56.345692,-27.058296],[-56.346333,-27.057858],[-56.34686,-27.058604],[-56.34872,-27.058085],[-56.352171,-27.058482],[-56.353556,-27.058032],[-56.355028,-27.056673],[-56.356581,-27.057119],[-56.357556,-27.057049],[-56.358648,-27.057886],[-56.359481,-27.057356],[-56.360199,-27.057367],[-56.36128,-27.058675],[-56.361831,-27.05856],[-56.362407,-27.057697],[-56.364728,-27.057371],[-56.365317,-27.056727],[-56.365817,-27.056898],[-56.366229,-27.057507],[-56.366832,-27.057598],[-56.368422,-27.056998],[-56.36986,-27.057386],[-56.371051,-27.056718],[-56.373528,-27.0573],[-56.374424,-27.056241],[-56.375782,-27.055492],[-56.376757,-27.055456],[-56.377424,-27.054731],[-56.380031,-27.056496],[-56.38044,-27.055956],[-56.381518,-27.056011],[-56.38171,-27.055632],[-56.382389,-27.055527],[-56.38253,-27.055159],[-56.383261,-27.055054],[-56.385007,-27.055661],[-56.385907,-27.056694],[-56.38642,-27.056451],[-56.38687,-27.056772],[-56.387549,-27.056277],[-56.388178,-27.056552],[-56.388767,-27.056148],[-56.389909,-27.056319],[-56.390167,-27.056617],[-56.39146,-27.055523],[-56.393036,-27.054934],[-56.393589,-27.055324],[-56.395321,-27.055264],[-56.397336,-27.055777],[-56.398108,-27.0565],[-56.400558,-27.05622],[-56.401587,-27.057218],[-56.403126,-27.057261],[-56.404126,-27.056903],[-56.404973,-27.057108],[-56.406295,-27.056968],[-56.407461,-27.056472],[-56.408372,-27.056677],[-56.411091,-27.056281],[-56.411757,-27.05567],[-56.411422,-27.054936],[-56.411638,-27.054165],[-56.411314,-27.052855],[-56.413417,-27.052518],[-56.41434,-27.052091],[-56.414841,-27.052251],[-56.414945,-27.053078],[-56.415705,-27.054042],[-56.416746,-27.054971],[-56.417864,-27.055452],[-56.419506,-27.055288],[-56.419955,-27.05554],[-56.42075,-27.055056],[-56.421622,-27.055088],[-56.422086,-27.055674],[-56.422419,-27.05557],[-56.422831,-27.055971],[-56.424975,-27.056415],[-56.426666,-27.055423],[-56.427385,-27.055583],[-56.427832,-27.05495],[-56.428437,-27.055638],[-56.429874,-27.055739],[-56.432283,-27.054608],[-56.432793,-27.05317],[-56.43488,-27.051602],[-56.437354,-27.050781],[-56.437538,-27.047689],[-56.436752,-27.046541],[-56.437198,-27.04508],[-56.438541,-27.043641],[-56.438642,-27.0431],[-56.436863,-27.039932],[-56.436977,-27.039426],[-56.438168,-27.038676],[-56.440414,-27.038947],[-56.442041,-27.038208],[-56.441936,-27.037335],[-56.440006,-27.035374],[-56.439348,-27.033858],[-56.43977,-27.033271],[-56.441232,-27.033049],[-56.440957,-27.03128],[-56.44149,-27.029141],[-56.439768,-27.027811],[-56.439251,-27.026387],[-56.439798,-27.024845],[-56.439806,-27.02311],[-56.440635,-27.021177],[-56.443014,-27.018907],[-56.442754,-27.017598],[-56.443315,-27.016309],[-56.464733,-27.00678],[-56.539702,-26.966099],[-56.541035,-26.960813],[-56.541127,-26.938283],[-56.561993,-26.912292],[-56.600574,-26.888159],[-56.614398,-26.894816],[-56.63204,-26.914781],[-56.644792,-26.925692],[-56.64703,-26.926496],[-56.656861,-26.755197],[-56.658796,-26.726242],[-56.65793,-26.725756],[-56.656942,-26.722418],[-56.656076,-26.722122],[-56.654775,-26.722557],[-56.654658,-26.723184],[-56.655199,-26.725055],[-56.654984,-26.726535],[-56.654093,-26.72753],[-56.65252,-26.728127],[-56.651114,-26.72825],[-56.65004,-26.727827],[-56.649097,-26.725793],[-56.647998,-26.724843],[-56.646361,-26.724324],[-56.6457,-26.724715],[-56.645667,-26.725586],[-56.647645,-26.727411],[-56.648574,-26.728885],[-56.648985,-26.730321],[-56.648808,-26.731991],[-56.648351,-26.732974],[-56.647423,-26.733581],[-56.642857,-26.733999],[-56.641391,-26.734938],[-56.640913,-26.735813],[-56.640853,-26.736774],[-56.642071,-26.73889],[-56.642375,-26.740218],[-56.641281,-26.743145],[-56.640102,-26.744113],[-56.639246,-26.744201],[-56.63849,-26.743775],[-56.637744,-26.740902],[-56.636836,-26.739198],[-56.636305,-26.739065],[-56.635834,-26.739606],[-56.635637,-26.741303],[-56.635171,-26.741744],[-56.632683,-26.741661],[-56.6308,-26.740432],[-56.629665,-26.742307],[-56.627497,-26.744712],[-56.626895,-26.744797],[-56.624779,-26.743559],[-56.624216,-26.744076],[-56.623722,-26.746603],[-56.623234,-26.747297],[-56.622421,-26.747746],[-56.620925,-26.747878],[-56.619958,-26.747505],[-56.619808,-26.745121],[-56.619319,-26.744659],[-56.618575,-26.744558],[-56.617743,-26.745174],[-56.618274,-26.747464],[-56.617997,-26.748141],[-56.61696,-26.748197],[-56.616289,-26.746962],[-56.615715,-26.746843],[-56.613577,-26.747899],[-56.612639,-26.748004],[-56.61109,-26.747607],[-56.610247,-26.746955],[-56.610448,-26.744405],[-56.609808,-26.743049],[-56.608361,-26.742417],[-56.605841,-26.742437],[-56.604109,-26.740902],[-56.602697,-26.740375],[-56.601988,-26.740652],[-56.601436,-26.741707],[-56.601735,-26.742205],[-56.60341,-26.74309],[-56.603507,-26.743686],[-56.603193,-26.744159],[-56.60059,-26.74514],[-56.597711,-26.747683],[-56.593762,-26.748814],[-56.591461,-26.750419],[-56.589837,-26.7505],[-56.589434,-26.750201],[-56.58931,-26.749483],[-56.589604,-26.749014],[-56.591212,-26.748973],[-56.591887,-26.748686],[-56.591921,-26.747766],[-56.590954,-26.747167],[-56.588751,-26.746836],[-56.587769,-26.747171],[-56.587522,-26.747536],[-56.586752,-26.75041],[-56.585979,-26.751527],[-56.585049,-26.751253],[-56.584098,-26.750294],[-56.583272,-26.746648],[-56.582388,-26.746654],[-56.582213,-26.749259],[-56.581876,-26.750012],[-56.580644,-26.75097],[-56.578601,-26.75174],[-56.577085,-26.754634],[-56.574841,-26.756252],[-56.573014,-26.758359],[-56.572231,-26.758768],[-56.571168,-26.758643],[-56.569652,-26.756566],[-56.567855,-26.756105],[-56.567339,-26.756699],[-56.568261,-26.758322],[-56.567925,-26.759166],[-56.566215,-26.758434],[-56.565267,-26.75858],[-56.564908,-26.760791],[-56.564189,-26.761321],[-56.563134,-26.760966],[-56.562015,-26.758506],[-56.561377,-26.758157],[-56.56093,-26.758787],[-56.560734,-26.759956],[-56.558457,-26.760333],[-56.556284,-26.761576],[-56.555106,-26.761279],[-56.553899,-26.75984],[-56.552621,-26.759628],[-56.552122,-26.76001],[-56.551464,-26.762139],[-56.550735,-26.762557],[-56.549904,-26.762563],[-56.549214,-26.762204],[-56.549057,-26.761545],[-56.549941,-26.759814],[-56.550011,-26.75888],[-56.548998,-26.757454],[-56.546724,-26.75668],[-56.5449,-26.757938],[-56.54067,-26.757355],[-56.539553,-26.757528],[-56.538309,-26.758675],[-56.537996,-26.760579],[-56.53835,-26.761311],[-56.54061,-26.762425],[-56.540984,-26.763654],[-56.540071,-26.76436],[-56.537535,-26.764117],[-56.53717,-26.764269],[-56.536921,-26.76509],[-56.53818,-26.767757],[-56.539872,-26.768205],[-56.540782,-26.768827],[-56.540902,-26.76954],[-56.540442,-26.770257],[-56.538796,-26.770563],[-56.537169,-26.770445],[-56.536612,-26.769991],[-56.536014,-26.767985],[-56.535098,-26.76758],[-56.534036,-26.767848],[-56.533855,-26.768619],[-56.534481,-26.770282],[-56.533972,-26.771418],[-56.53208,-26.772139],[-56.529825,-26.772122],[-56.528762,-26.773216],[-56.529622,-26.774298],[-56.529794,-26.775151],[-56.528916,-26.776494],[-56.528594,-26.778055],[-56.528038,-26.778897],[-56.526872,-26.779457],[-56.52573,-26.779178],[-56.525399,-26.778432],[-56.525482,-26.776108],[-56.524966,-26.775627],[-56.524431,-26.775644],[-56.524183,-26.777832],[-56.523428,-26.778683],[-56.522435,-26.778761],[-56.519906,-26.777949],[-56.518441,-26.778278],[-56.518421,-26.778829],[-56.520058,-26.779606],[-56.520773,-26.780299],[-56.520706,-26.78117],[-56.520172,-26.781484],[-56.516189,-26.779895],[-56.514781,-26.777904],[-56.514114,-26.777581],[-56.513505,-26.777864],[-56.513186,-26.780662],[-56.512296,-26.780785],[-56.509976,-26.779987],[-56.508777,-26.780195],[-56.508513,-26.781792],[-56.510872,-26.783389],[-56.511229,-26.784316],[-56.510282,-26.785116],[-56.50716,-26.785697],[-56.507262,-26.787968],[-56.506452,-26.788981],[-56.505335,-26.789582],[-56.502791,-26.78899],[-56.502458,-26.790976],[-56.501521,-26.792092],[-56.500988,-26.792036],[-56.49983,-26.790966],[-56.498702,-26.790493],[-56.498199,-26.790956],[-56.497901,-26.792187],[-56.497247,-26.792736],[-56.494833,-26.793088],[-56.492653,-26.794105],[-56.491325,-26.794376],[-56.489599,-26.793914],[-56.489084,-26.793573],[-56.488895,-26.793004],[-56.489726,-26.791296],[-56.489753,-26.789833],[-56.49125,-26.787771],[-56.491281,-26.787121],[-56.49093,-26.786623],[-56.488045,-26.786451],[-56.486447,-26.785303],[-56.485284,-26.785235],[-56.484542,-26.786054],[-56.484519,-26.788383],[-56.483949,-26.788914],[-56.480921,-26.786849],[-56.479942,-26.786651],[-56.478546,-26.786827],[-56.477889,-26.786486],[-56.478033,-26.783922],[-56.477635,-26.78309],[-56.47697,-26.782555],[-56.475853,-26.782641],[-56.474192,-26.7837],[-56.473021,-26.783547],[-56.472366,-26.782872],[-56.472481,-26.78192],[-56.475794,-26.779711],[-56.476321,-26.778923],[-56.475783,-26.778655],[-56.47268,-26.778918],[-56.472203,-26.779278],[-56.471705,-26.780684],[-56.471078,-26.780957],[-56.47047,-26.780788],[-56.469951,-26.780014],[-56.469316,-26.777574],[-56.471572,-26.776612],[-56.471903,-26.775589],[-56.47129,-26.774981],[-56.469625,-26.774447],[-56.469053,-26.772833],[-56.468537,-26.772407],[-56.467449,-26.772448],[-56.465577,-26.773831],[-56.464493,-26.7738],[-56.461701,-26.773027],[-56.459202,-26.774024],[-56.458103,-26.774087],[-56.457362,-26.774834],[-56.457644,-26.77637],[-56.457429,-26.777132],[-56.457116,-26.777244],[-56.45654,-26.776749],[-56.455866,-26.776634],[-56.453825,-26.77761],[-56.453336,-26.77755],[-56.453211,-26.777075],[-56.454707,-26.774869],[-56.454536,-26.773825],[-56.453716,-26.773732],[-56.452042,-26.774859],[-56.451264,-26.775041],[-56.450449,-26.774753],[-56.449859,-26.773929],[-56.449787,-26.772588],[-56.450987,-26.770859],[-56.450979,-26.76992],[-56.449945,-26.76984],[-56.449183,-26.771155],[-56.448007,-26.771584],[-56.445984,-26.771106],[-56.444762,-26.77032],[-56.443917,-26.770123],[-56.442797,-26.770475],[-56.442243,-26.771249],[-56.443778,-26.772145],[-56.44412,-26.772805],[-56.443953,-26.773473],[-56.443085,-26.773551],[-56.440096,-26.77199],[-56.438526,-26.771921],[-56.438086,-26.772484],[-56.4388,-26.774328],[-56.438773,-26.775082],[-56.436706,-26.776049],[-56.436505,-26.775475],[-56.436833,-26.77386],[-56.436415,-26.773425],[-56.432717,-26.77416],[-56.430987,-26.774884],[-56.430345,-26.774556],[-56.430753,-26.77328],[-56.430563,-26.772693],[-56.429996,-26.772609],[-56.427252,-26.773537],[-56.426189,-26.773348],[-56.426149,-26.77286],[-56.427928,-26.771387],[-56.427867,-26.770763],[-56.427334,-26.770323],[-56.426335,-26.770351],[-56.423938,-26.771127],[-56.422252,-26.772339],[-56.421615,-26.772183],[-56.421884,-26.769692],[-56.421675,-26.769009],[-56.420986,-26.768641],[-56.418932,-26.768664],[-56.41626,-26.766549],[-56.416148,-26.765795],[-56.417224,-26.764106],[-56.416924,-26.763166],[-56.416378,-26.762857],[-56.415821,-26.762819],[-56.414379,-26.763562],[-56.413566,-26.763672],[-56.411543,-26.762602],[-56.410196,-26.762583],[-56.409429,-26.763605],[-56.409894,-26.765372],[-56.409711,-26.765922],[-56.408947,-26.766334],[-56.407997,-26.766082],[-56.406271,-26.764332],[-56.40816,-26.763216],[-56.40831,-26.762512],[-56.408035,-26.761929],[-56.407236,-26.761794],[-56.404828,-26.762768],[-56.404332,-26.76269],[-56.403788,-26.76206],[-56.403734,-26.759058],[-56.405787,-26.757071],[-56.405591,-26.755919],[-56.405035,-26.75579],[-56.403263,-26.756157],[-56.40129,-26.755765],[-56.399838,-26.756057],[-56.399085,-26.755837],[-56.398713,-26.753448],[-56.40024,-26.752019],[-56.400105,-26.751205],[-56.399496,-26.751049],[-56.398023,-26.752203],[-56.397629,-26.752026],[-56.398092,-26.750303],[-56.397933,-26.749359],[-56.397088,-26.749017],[-56.395034,-26.748886],[-56.394308,-26.748427],[-56.394403,-26.747651],[-56.396078,-26.746236],[-56.396153,-26.745428],[-56.39578,-26.744903],[-56.393206,-26.74375],[-56.391823,-26.743974],[-56.39109,-26.745163],[-56.391215,-26.747588],[-56.390635,-26.748104],[-56.389935,-26.748169],[-56.38934,-26.747715],[-56.38887,-26.746088],[-56.386153,-26.746148],[-56.3866,-26.744164],[-56.384235,-26.743698],[-56.383603,-26.743244],[-56.383767,-26.741123],[-56.383071,-26.740293],[-56.382289,-26.740353],[-56.381103,-26.741364],[-56.380394,-26.741541],[-56.379619,-26.741317],[-56.378822,-26.739896],[-56.37818,-26.73941],[-56.377372,-26.739524],[-56.375536,-26.740581],[-56.370807,-26.739404],[-56.369778,-26.738479],[-56.368696,-26.735707],[-56.367875,-26.734593],[-56.366114,-26.733808],[-56.361626,-26.733179],[-56.361358,-26.732148],[-56.360158,-26.731931],[-56.359667,-26.731549],[-56.359152,-26.729701],[-56.357011,-26.729149],[-56.356298,-26.727634],[-56.356935,-26.725565],[-56.356364,-26.72479],[-56.354285,-26.724744],[-56.353063,-26.7244],[-56.35234,-26.724979],[-56.352865,-26.726088],[-56.354761,-26.727081],[-56.355583,-26.727915],[-56.355577,-26.728705],[-56.354793,-26.729234],[-56.350796,-26.728638],[-56.34951,-26.726881],[-56.348758,-26.726462],[-56.346859,-26.726462],[-56.345755,-26.726859],[-56.345418,-26.727814],[-56.345775,-26.731323],[-56.345159,-26.73188],[-56.344317,-26.731642],[-56.34338,-26.729927],[-56.342102,-26.728964],[-56.341615,-26.726858],[-56.340774,-26.726357],[-56.340278,-26.726982],[-56.340021,-26.728439],[-56.338917,-26.729603],[-56.338663,-26.731552],[-56.337818,-26.732054],[-56.337154,-26.731482],[-56.337058,-26.727193],[-56.336644,-26.72618],[-56.334056,-26.72559],[-56.332642,-26.724816],[-56.332055,-26.724881],[-56.331407,-26.727979],[-56.332423,-26.731257],[-56.332118,-26.732059],[-56.331525,-26.732476],[-56.330803,-26.731967],[-56.330654,-26.729709],[-56.327828,-26.727727],[-56.324683,-26.727049],[-56.321757,-26.728051],[-56.321259,-26.727701],[-56.320411,-26.725534],[-56.319673,-26.72512],[-56.318766,-26.725233],[-56.318468,-26.725954],[-56.318677,-26.727896],[-56.318089,-26.728742],[-56.317377,-26.729113],[-56.315342,-26.728896],[-56.31363,-26.729115],[-56.314018,-26.733512],[-56.313204,-26.736013],[-56.312131,-26.737669],[-56.249995,-26.807325],[-56.240956,-26.817826],[-56.240098,-26.819857],[-56.239637,-26.8226],[-56.231859,-26.879568],[-56.229497,-26.879127],[-56.227529,-26.879042],[-56.226684,-26.879337],[-56.225588,-26.878292],[-56.222212,-26.878444],[-56.22072,-26.877397],[-56.219364,-26.8776],[-56.218313,-26.878514],[-56.217585,-26.878306],[-56.217394,-26.877916],[-56.216524,-26.878177],[-56.216474,-26.877696],[-56.216219,-26.87765],[-56.215694,-26.878015],[-56.214737,-26.877302],[-56.214277,-26.877278],[-56.210348,-26.878379],[-56.209326,-26.878102],[-56.207612,-26.878521],[-56.204941,-26.878147],[-56.203686,-26.878763],[-56.201654,-26.878162],[-56.197651,-26.878632],[-56.19664,-26.879261],[-56.176304,-26.885279],[-56.158691,-26.884933],[-56.128586,-26.929809],[-56.130131,-26.933655],[-56.131313,-26.937844],[-56.137021,-26.936723],[-56.158599,-26.928759],[-56.158318,-26.930089],[-56.158918,-26.932404],[-56.158544,-26.934609],[-56.158967,-26.93495],[-56.159702,-26.937491],[-56.158045,-26.940352],[-56.157751,-26.942982],[-56.157176,-26.943963],[-56.154938,-26.946247],[-56.152029,-26.946993],[-56.150884,-26.947753],[-56.145751,-26.948896],[-56.141919,-26.951116],[-56.139805,-26.951974],[-56.13671,-26.954659],[-56.135904,-26.955828],[-56.13561,-26.957099],[-56.135589,-26.959907],[-56.134266,-26.961632],[-56.134432,-26.962247],[-56.133847,-26.964234],[-56.13264,-26.965707],[-56.132463,-26.966419],[-56.133237,-26.97074],[-56.134475,-26.97214],[-56.117997,-26.983299],[-56.110719,-26.97302],[-56.110335,-26.970853],[-56.103926,-26.969458],[-56.100521,-26.973214],[-56.095988,-26.971083],[-56.093343,-26.971017],[-56.093322,-26.969884],[-56.091408,-26.970291],[-56.089643,-26.98458],[-56.082106,-26.981881],[-56.077882,-26.988765],[-56.077848,-26.989229],[-56.077208,-26.989803],[-56.077261,-26.990097],[-56.078333,-26.990682],[-56.07841,-26.992163],[-56.078952,-26.992591],[-56.079747,-26.992695],[-56.080392,-26.993679],[-56.080114,-26.994146],[-56.081472,-26.99509],[-56.081286,-26.995508],[-56.07975,-26.996415],[-56.080249,-26.997149],[-56.081809,-26.997913],[-56.081405,-26.998881],[-56.082424,-26.999199],[-56.083225,-26.999155],[-56.08359,-26.998814],[-56.084003,-26.999056],[-56.084165,-27.000677],[-56.086327,-27.002091],[-56.085695,-27.002809],[-56.08582,-27.003031],[-56.086658,-27.00282],[-56.08736,-27.002025],[-56.087267,-27.003234],[-56.087691,-27.003273],[-56.087982,-27.002697],[-56.087892,-27.001708],[-56.08818,-27.001534],[-56.089172,-27.002619],[-56.090012,-27.002345],[-56.089986,-27.003342],[-56.08942,-27.004544],[-56.090795,-27.004494],[-56.091405,-27.005234],[-56.092034,-27.004922],[-56.09276,-27.004967],[-56.093055,-27.005371],[-56.09247,-27.005733],[-56.092352,-27.006161],[-56.093732,-27.006951],[-56.094727,-27.006822],[-56.094698,-27.007873],[-56.096519,-27.007627],[-56.096736,-27.008139],[-56.097023,-27.008041],[-56.097047,-27.00634],[-56.097548,-27.006208],[-56.09888,-27.006582],[-56.099234,-27.006291],[-56.099036,-27.00568],[-56.097796,-27.005063],[-56.098187,-27.003824],[-56.099742,-27.004475],[-56.100408,-27.003843],[-56.100379,-27.004583],[-56.101496,-27.004522],[-56.101694,-27.00437],[-56.101395,-27.003131],[-56.101773,-27.002944],[-56.102711,-27.004087],[-56.103927,-27.003915],[-56.103708,-27.004586],[-56.103967,-27.004759],[-56.105396,-27.004628],[-56.106208,-27.003839],[-56.107083,-27.004427],[-56.107271,-27.00469],[-56.106734,-27.005761],[-56.107766,-27.005677],[-56.107886,-27.005894],[-56.106868,-27.006547],[-56.106845,-27.006858],[-56.107142,-27.007041],[-56.108294,-27.006773],[-56.108395,-27.008001],[-56.109828,-27.008737],[-56.110827,-27.008666],[-56.111015,-27.009106],[-56.110613,-27.010245],[-56.111908,-27.009188],[-56.1126,-27.009111],[-56.113254,-27.009422],[-56.113255,-27.010086],[-56.114269,-27.010042],[-56.114024,-27.01126],[-56.11482,-27.011143],[-56.11492,-27.012421],[-56.115792,-27.012056],[-56.116111,-27.013254],[-56.11736,-27.012143],[-56.118915,-27.012477],[-56.118763,-27.012959],[-56.117433,-27.013822],[-56.117642,-27.014763],[-56.118534,-27.014876],[-56.117575,-27.015927],[-56.11837,-27.016686],[-56.117365,-27.016815],[-56.117292,-27.017627],[-56.116985,-27.017774],[-56.116602,-27.017537],[-56.116482,-27.01778],[-56.116845,-27.01826],[-56.118761,-27.018069],[-56.118929,-27.019741],[-56.119553,-27.020295],[-56.118786,-27.020493],[-56.119492,-27.021441],[-56.119391,-27.022456],[-56.120314,-27.023257],[-56.120043,-27.023526],[-56.118917,-27.023523],[-56.11922,-27.024184],[-56.118469,-27.024559],[-56.119546,-27.025071],[-56.118024,-27.025648],[-56.119217,-27.027321],[-56.118475,-27.028107],[-56.119347,-27.030256],[-56.119482,-27.031381],[-56.119183,-27.031758],[-56.118294,-27.031644],[-56.118167,-27.032122],[-56.118893,-27.033065],[-56.118938,-27.033752],[-56.119488,-27.033791],[-56.119539,-27.034112],[-56.118888,-27.035309],[-56.117558,-27.036722],[-56.117421,-27.037345],[-56.116334,-27.037293],[-56.116071,-27.037544],[-56.116274,-27.038281],[-56.115927,-27.038694],[-56.116067,-27.039331],[-56.115583,-27.039604],[-56.115941,-27.040156],[-56.115931,-27.041285],[-56.117238,-27.040882],[-56.117339,-27.041212],[-56.116752,-27.041904],[-56.118299,-27.041972],[-56.118171,-27.042409],[-56.11689,-27.042582],[-56.1166,-27.042982],[-56.116839,-27.043209],[-56.11811,-27.043158],[-56.118285,-27.043931],[-56.117902,-27.044534],[-56.116933,-27.044785],[-56.117385,-27.045298],[-56.116725,-27.045714],[-56.116771,-27.046346],[-56.115964,-27.045957],[-56.115104,-27.046227],[-56.115002,-27.047278],[-56.116115,-27.047109],[-56.116346,-27.047603],[-56.11453,-27.04802],[-56.116323,-27.048781],[-56.115669,-27.049955],[-56.115913,-27.051071],[-56.115699,-27.051905],[-56.116822,-27.051185],[-56.117387,-27.052001],[-56.1182,-27.051735],[-56.117947,-27.052573],[-56.118168,-27.053329],[-56.117658,-27.053944],[-56.117859,-27.054135],[-56.118579,-27.053918],[-56.118652,-27.054171],[-56.117866,-27.05571],[-56.12042,-27.055884],[-56.120518,-27.055226],[-56.120808,-27.055191],[-56.121553,-27.055832],[-56.121452,-27.057051],[-56.122355,-27.057219],[-56.122612,-27.056688],[-56.123033,-27.056803],[-56.123664,-27.05757],[-56.123272,-27.058082],[-56.12406,-27.058398],[-56.123278,-27.059346],[-56.124308,-27.0597],[-56.125165,-27.060554],[-56.124848,-27.060827],[-56.123707,-27.060531],[-56.123734,-27.062274],[-56.124212,-27.062191],[-56.124542,-27.0625],[-56.124858,-27.061956],[-56.124711,-27.061373],[-56.125516,-27.061301],[-56.125797,-27.062567],[-56.126473,-27.062305],[-56.127016,-27.064086],[-56.127523,-27.064112],[-56.128295,-27.064848],[-56.12832,-27.065173],[-56.127684,-27.065688],[-56.127756,-27.066145],[-56.128244,-27.066355],[-56.12885,-27.065736],[-56.129231,-27.065752],[-56.128506,-27.067007],[-56.128752,-27.067731],[-56.129628,-27.068115],[-56.129399,-27.068304],[-56.128346,-27.067963],[-56.128185,-27.068635],[-56.129798,-27.070238],[-56.129569,-27.071027],[-56.129752,-27.071827],[-56.129525,-27.072024],[-56.128729,-27.071735],[-56.128603,-27.072294],[-56.128999,-27.073397],[-56.128666,-27.073711],[-56.129402,-27.073716],[-56.129525,-27.073956],[-56.128301,-27.074463],[-56.129704,-27.075415],[-56.128522,-27.076753],[-56.127621,-27.076828],[-56.127474,-27.077148],[-56.128877,-27.078303],[-56.129024,-27.078787],[-56.130149,-27.079106],[-56.130641,-27.078513],[-56.131666,-27.078515],[-56.131463,-27.079376],[-56.130596,-27.079984],[-56.13089,-27.081349],[-56.129914,-27.082147],[-56.130685,-27.083293],[-56.129517,-27.08344],[-56.129016,-27.083811],[-56.130023,-27.085722],[-56.130387,-27.085688],[-56.13104,-27.084939],[-56.131521,-27.084996],[-56.131584,-27.085755],[-56.130562,-27.086434],[-56.130411,-27.086889],[-56.131802,-27.08697],[-56.132109,-27.087292],[-56.130607,-27.087915],[-56.131777,-27.088857],[-56.131734,-27.089926],[-56.129886,-27.090682],[-56.128983,-27.090325],[-56.127821,-27.091044],[-56.129014,-27.091449],[-56.129327,-27.091879],[-56.127643,-27.092284],[-56.127662,-27.094374],[-56.129224,-27.094316],[-56.12933,-27.094651],[-56.128429,-27.095395],[-56.126746,-27.095172],[-56.126632,-27.095812],[-56.127437,-27.096165],[-56.127578,-27.097109],[-56.128143,-27.097289],[-56.12906,-27.098549],[-56.128092,-27.099193],[-56.127906,-27.099675],[-56.129107,-27.102612],[-56.128697,-27.103287],[-56.128626,-27.10451],[-56.129627,-27.105346],[-56.129175,-27.106034],[-56.130387,-27.10601],[-56.130751,-27.107055],[-56.133212,-27.108614],[-56.132023,-27.10983],[-56.133492,-27.109938],[-56.133429,-27.111161],[-56.134691,-27.112252],[-56.135228,-27.111565],[-56.135414,-27.110677],[-56.135962,-27.111152],[-56.136451,-27.110816],[-56.13667,-27.109826],[-56.137608,-27.108653],[-56.137715,-27.107246],[-56.137099,-27.105434],[-56.138678,-27.102788],[-56.138624,-27.101549],[-56.139057,-27.100974],[-56.140701,-27.100001],[-56.140624,-27.098377],[-56.143115,-27.097225],[-56.143178,-27.096867],[-56.142753,-27.096634],[-56.142848,-27.096105],[-56.144026,-27.09391],[-56.146026,-27.093098],[-56.14766,-27.091588],[-56.148109,-27.091407],[-56.14913,-27.091606],[-56.151103,-27.08944],[-56.151853,-27.089162],[-56.153193,-27.089209],[-56.153883,-27.088513],[-56.154532,-27.088694],[-56.156115,-27.086741],[-56.157019,-27.086463],[-56.157611,-27.08698],[-56.158462,-27.086559],[-56.158906,-27.08681],[-56.160204,-27.085869],[-56.160318,-27.085303],[-56.161221,-27.085025],[-56.161923,-27.084296],[-56.163946,-27.083196],[-56.164601,-27.083313],[-56.165791,-27.082565],[-56.166134,-27.081668],[-56.166545,-27.081855],[-56.168204,-27.080903],[-56.168381,-27.080344],[-56.169648,-27.080245],[-56.170033,-27.079849],[-56.170428,-27.078427],[-56.171143,-27.07805],[-56.171736,-27.076704],[-56.17147,-27.076307],[-56.171799,-27.073423],[-56.172558,-27.072267],[-56.17278,-27.069933],[-56.173604,-27.069218],[-56.173379,-27.063585],[-56.174215,-27.062187],[-56.174175,-27.061076],[-56.174678,-27.05954],[-56.175006,-27.058959],[-56.177101,-27.0575],[-56.177645,-27.056451],[-56.178636,-27.053094],[-56.179952,-27.050556],[-56.180604,-27.046836],[-56.182887,-27.044046],[-56.184417,-27.043364],[-56.186258,-27.041917],[-56.186902,-27.039449]]]}}]}
