{"type":"FeatureCollection","name":"distrito","features":[{"type":"Feature","properties":{"clave":"3-31","nombre":"San José Obrero"},"geometry":{"type":"Polygon","coordinates":[[[-56.900538,-25.027184],[-56.899762,-25.028985],[-56.895089,-25.031285],[-56.892123,-25.032218],[-56.890379,-25.032149],[-56.887141,-25.033591],[-56.884423,-25.034266],[-56.883471,-25.03446],[-56.882623,-25.034116],[-56.882093,-25.03463],[-56.881449,-25.034702],[-56.880416,-25.034543],[-56.879896,-25.033974],[-56.879639,-25.0341],[-56.878851,-25.033612],[-56.877751,-25.033832],[-56.875864,-25.033013],[-56.875103,-25.033451],[-56.874515,-25.034335],[-56.874476,-25.035807],[-56.873314,-25.035666],[-56.87155,-25.036419],[-56.87046,-25.038739],[-56.869672,-25.039321],[-56.868509,-25.039455],[-56.868169,-25.041369],[-56.867036,-25.041653],[-56.865131,-25.041606],[-56.86363,-25.042119],[-56.861322,-25.043941],[-56.860703,-25.045106],[-56.858994,-25.045958],[-56.856894,-25.045581],[-56.855618,-25.045751],[-56.854755,-25.046261],[-56.852392,-25.045712],[-56.851379,-25.046533],[-56.849841,-25.046734],[-56.84924,-25.047145],[-56.846615,-25.046867],[-56.844245,-25.047108],[-56.841394,-25.049123],[-56.83902,-25.049265],[-56.837437,-25.050275],[-56.776604,-25.098609],[-56.750842,-25.109113],[-56.787843,-25.117552],[-56.801205,-25.119349],[-56.803804,-25.122071],[-56.805414,-25.122999],[-56.806973,-25.122906],[-56.809007,-25.121378],[-56.809843,-25.122065],[-56.810719,-25.122103],[-56.811126,-25.123187],[-56.812017,-25.123396],[-56.811954,-25.12382],[-56.812607,-25.124589],[-56.812609,-25.125573],[-56.814148,-25.127688],[-56.815091,-25.128109],[-56.816021,-25.128106],[-56.815944,-25.129162],[-56.816373,-25.129502],[-56.816109,-25.129831],[-56.816725,-25.130857],[-56.817105,-25.131002],[-56.817277,-25.13177],[-56.817773,-25.132068],[-56.821227,-25.131851],[-56.821027,-25.13293],[-56.821361,-25.134628],[-56.821786,-25.134891],[-56.821817,-25.136078],[-56.82422,-25.138411],[-56.824925,-25.140503],[-56.825807,-25.141488],[-56.825989,-25.14273],[-56.826935,-25.14358],[-56.82695,-25.144248],[-56.827991,-25.14555],[-56.828641,-25.145063],[-56.828384,-25.144661],[-56.828545,-25.144327],[-56.830741,-25.143377],[-56.831392,-25.141652],[-56.83275,-25.141333],[-56.832693,-25.140299],[-56.833103,-25.140074],[-56.834308,-25.141087],[-56.835229,-25.141034],[-56.835679,-25.141928],[-56.837013,-25.141641],[-56.837019,-25.142047],[-56.836334,-25.142349],[-56.836139,-25.142796],[-56.836821,-25.14388],[-56.838098,-25.144613],[-56.837646,-25.146374],[-56.838055,-25.146735],[-56.838547,-25.146655],[-56.839051,-25.145644],[-56.840004,-25.145116],[-56.840289,-25.144128],[-56.84095,-25.143492],[-56.841316,-25.141952],[-56.842799,-25.141417],[-56.842745,-25.140333],[-56.843197,-25.139322],[-56.842724,-25.138062],[-56.843013,-25.137457],[-56.843791,-25.137182],[-56.844725,-25.137395],[-56.844891,-25.138732],[-56.845553,-25.13899],[-56.847971,-25.136834],[-56.849007,-25.134636],[-56.850266,-25.134701],[-56.851971,-25.135958],[-56.852552,-25.135773],[-56.853336,-25.134564],[-56.855172,-25.135058],[-56.855481,-25.134571],[-56.854797,-25.133075],[-56.855645,-25.132214],[-56.856937,-25.132328],[-56.857649,-25.132974],[-56.857721,-25.133995],[-56.856934,-25.135155],[-56.857226,-25.13557],[-56.857856,-25.135602],[-56.85855,-25.135124],[-56.859186,-25.13508],[-56.860127,-25.136237],[-56.861444,-25.13664],[-56.862363,-25.136487],[-56.862969,-25.135901],[-56.874201,-25.176305],[-56.890394,-25.196572],[-56.890688,-25.198191],[-56.894341,-25.204543],[-56.89366,-25.209214],[-56.893683,-25.218333],[-56.89589,-25.225998],[-56.900713,-25.22688],[-56.903464,-25.239945],[-56.903024,-25.240035],[-56.90326,-25.241194],[-56.9109,-25.237414],[-56.91709,-25.233616],[-56.918289,-25.233609],[-56.923985,-25.228831],[-56.93834,-25.219849],[-56.939477,-25.219317],[-56.942515,-25.220557],[-56.947905,-25.211755],[-56.946292,-25.210869],[-56.9323,-25.177972],[-56.937001,-25.176032],[-56.933766,-25.173703],[-56.929911,-25.164156],[-56.928754,-25.162615],[-56.928164,-25.163114],[-56.916767,-25.147041],[-56.90864,-25.134064],[-56.909824,-25.134203],[-56.909816,-25.132785],[-56.910113,-25.132501],[-56.911446,-25.133174],[-56.911624,-25.131811],[-56.912219,-25.131269],[-56.912761,-25.131265],[-56.913707,-25.132033],[-56.914353,-25.13127],[-56.915409,-25.131203],[-56.917888,-25.129836],[-56.918442,-25.129841],[-56.918888,-25.130379],[-56.919296,-25.130366],[-56.919743,-25.129666],[-56.920655,-25.129052],[-56.9209,-25.128461],[-56.922068,-25.12862],[-56.922384,-25.127667],[-56.923147,-25.128859],[-56.923562,-25.127433],[-56.924584,-25.128084],[-56.925508,-25.127587],[-56.926252,-25.127854],[-56.926609,-25.126757],[-56.92786,-25.126514],[-56.929092,-25.127151],[-56.92907,-25.127819],[-56.929617,-25.127743],[-56.930613,-25.126438],[-56.92977,-25.125368],[-56.930209,-25.125251],[-56.931215,-25.125811],[-56.931518,-25.125707],[-56.930908,-25.124384],[-56.932236,-25.124782],[-56.933368,-25.123956],[-56.935043,-25.124255],[-56.935649,-25.123519],[-56.936627,-25.123488],[-56.93706,-25.123172],[-56.936529,-25.121745],[-56.938711,-25.121172],[-56.939058,-25.119637],[-56.937416,-25.118219],[-56.937582,-25.117839],[-56.9389,-25.117267],[-56.939114,-25.116747],[-56.938003,-25.116322],[-56.937948,-25.115844],[-56.939053,-25.114964],[-56.940525,-25.115407],[-56.940756,-25.114766],[-56.940381,-25.113899],[-56.938639,-25.113812],[-56.938636,-25.112837],[-56.938106,-25.112335],[-56.93823,-25.112119],[-56.93945,-25.111464],[-56.940718,-25.111668],[-56.942028,-25.111452],[-56.942156,-25.111104],[-56.941774,-25.110657],[-56.942354,-25.110436],[-56.944392,-25.111453],[-56.945289,-25.11265],[-56.946266,-25.112975],[-56.946872,-25.113729],[-56.948411,-25.113306],[-56.948384,-25.112181],[-56.948823,-25.111784],[-56.949503,-25.111784],[-56.950211,-25.112457],[-56.950605,-25.11243],[-56.950652,-25.111112],[-56.952173,-25.112246],[-56.952027,-25.111094],[-56.951051,-25.109902],[-56.952388,-25.108656],[-56.952148,-25.108394],[-56.950835,-25.108371],[-56.95018,-25.10782],[-56.950231,-25.107526],[-56.951588,-25.107048],[-56.952043,-25.105811],[-56.95042,-25.10465],[-56.950905,-25.10419],[-56.938809,-25.078501],[-56.910611,-25.029028],[-56.909859,-25.028856],[-56.909374,-25.027921],[-56.908105,-25.028232],[-56.908872,-25.027352],[-56.908104,-25.026751],[-56.906962,-25.027035],[-56.90602,-25.02693],[-56.9055,-25.027585],[-56.904739,-25.027864],[-56.902103,-25.026598],[-56.900538,-25.027184]]]}}]}
