{"type":"FeatureCollection","name":"distrito","features":[{"type":"Feature","properties":{"clave":"2-29","nombre":"Villa del Rosario"},"geometry":{"type":"Polygon","coordinates":[[[-56.968229,-24.557122],[-57.025193,-24.658201],[-57.018769,-24.665768],[-57.0152,-24.672906],[-57.0152,-24.674048],[-57.018626,-24.677332],[-57.024479,-24.684613],[-57.025479,-24.687183],[-57.025764,-24.691323],[-57.025764,-24.693607],[-57.025193,-24.697034],[-57.025479,-24.698319],[-57.029762,-24.706885],[-57.033188,-24.711882],[-57.033474,-24.713309],[-57.033474,-24.714594],[-57.004635,-24.719734],[-57.005261,-24.732474],[-57.005546,-24.748036],[-57.001263,-24.756031],[-57.000978,-24.759743],[-57.003405,-24.760456],[-57.010272,-24.775738],[-57.011696,-24.780227],[-57.010912,-24.782589],[-57.010843,-24.785379],[-57.011762,-24.785546],[-57.012735,-24.78514],[-57.015764,-24.783184],[-57.021502,-24.784001],[-57.022611,-24.783856],[-57.024172,-24.783021],[-57.027579,-24.782889],[-57.028314,-24.783133],[-57.029112,-24.784018],[-57.02936,-24.785305],[-57.028753,-24.786402],[-57.029213,-24.78707],[-57.031316,-24.787788],[-57.033684,-24.787277],[-57.034731,-24.788288],[-57.035198,-24.789643],[-57.036199,-24.78995],[-57.037701,-24.789733],[-57.038386,-24.789927],[-57.036998,-24.791571],[-57.037328,-24.792334],[-57.038276,-24.791995],[-57.03906,-24.791101],[-57.039487,-24.789434],[-57.039023,-24.788658],[-57.039679,-24.788391],[-57.040102,-24.788572],[-57.040606,-24.789953],[-57.041052,-24.790314],[-57.042624,-24.788842],[-57.043429,-24.789117],[-57.043409,-24.791063],[-57.042827,-24.793014],[-57.043175,-24.793551],[-57.045758,-24.793578],[-57.046684,-24.791654],[-57.047194,-24.791288],[-57.047849,-24.791541],[-57.048222,-24.792507],[-57.047194,-24.794295],[-57.047238,-24.794891],[-57.047944,-24.79504],[-57.049447,-24.793545],[-57.050349,-24.7935],[-57.050303,-24.795039],[-57.049462,-24.795609],[-57.048227,-24.795921],[-57.048018,-24.796323],[-57.048773,-24.797158],[-57.05034,-24.797487],[-57.049846,-24.798336],[-57.049992,-24.798801],[-57.05197,-24.798186],[-57.052381,-24.798407],[-57.052439,-24.798922],[-57.050551,-24.800562],[-57.049545,-24.800693],[-57.048094,-24.800387],[-57.047518,-24.800703],[-57.047184,-24.801733],[-57.048311,-24.802513],[-57.048363,-24.803231],[-57.047339,-24.803345],[-57.045556,-24.802763],[-57.044507,-24.803594],[-57.046004,-24.806204],[-57.049395,-24.805028],[-57.050295,-24.805407],[-57.050237,-24.806387],[-57.0494,-24.806893],[-57.047789,-24.806564],[-57.046526,-24.807084],[-57.0464,-24.80885],[-57.045839,-24.809401],[-57.044182,-24.807536],[-57.043364,-24.807058],[-57.042589,-24.807514],[-57.042497,-24.808765],[-57.042051,-24.809257],[-57.041292,-24.809185],[-57.040454,-24.808052],[-57.039945,-24.808043],[-57.039706,-24.808391],[-57.039804,-24.80905],[-57.040287,-24.809569],[-57.042799,-24.81063],[-57.042363,-24.811632],[-57.042616,-24.812219],[-57.043166,-24.812264],[-57.04444,-24.811713],[-57.044928,-24.811948],[-57.044709,-24.81263],[-57.042736,-24.813922],[-57.042867,-24.814509],[-57.044047,-24.81459],[-57.046305,-24.813311],[-57.047035,-24.813586],[-57.047426,-24.81318],[-57.047002,-24.81243],[-57.047375,-24.812037],[-57.048643,-24.812967],[-57.049398,-24.814602],[-57.0492,-24.816322],[-57.048596,-24.816932],[-57.045808,-24.81696],[-57.04476,-24.817696],[-57.043686,-24.81701],[-57.043215,-24.817344],[-57.043803,-24.818387],[-57.046689,-24.819597],[-57.046515,-24.82022],[-57.044903,-24.820604],[-57.042321,-24.819106],[-57.041338,-24.819165],[-57.040985,-24.820632],[-57.041055,-24.822181],[-57.043483,-24.822537],[-57.043671,-24.823657],[-57.044206,-24.823964],[-57.045451,-24.823043],[-57.046172,-24.822916],[-57.046145,-24.824117],[-57.044983,-24.825106],[-57.04472,-24.825725],[-57.045467,-24.826226],[-57.047279,-24.826343],[-57.047528,-24.826691],[-57.047266,-24.82716],[-57.045689,-24.827603],[-57.043586,-24.827049],[-57.042314,-24.828602],[-57.042033,-24.827975],[-57.042113,-24.826539],[-57.041244,-24.826349],[-57.040058,-24.82704],[-57.039403,-24.827872],[-57.03984,-24.828639],[-57.043589,-24.83067],[-57.042518,-24.831732],[-57.040449,-24.831362],[-57.03995,-24.831764],[-57.041767,-24.833145],[-57.04396,-24.831672],[-57.045739,-24.83183],[-57.047119,-24.831441],[-57.049106,-24.833156],[-57.048495,-24.833974],[-57.046215,-24.835578],[-57.046067,-24.836278],[-57.046437,-24.836562],[-57.049396,-24.836597],[-57.050226,-24.834068],[-57.051004,-24.833454],[-57.051676,-24.833562],[-57.053391,-24.834641],[-57.055956,-24.834423],[-57.056383,-24.834969],[-57.056532,-24.836419],[-57.056997,-24.836829],[-57.057869,-24.836919],[-57.058788,-24.836016],[-57.059649,-24.836038],[-57.059676,-24.837018],[-57.058453,-24.838721],[-57.058838,-24.839091],[-57.060235,-24.839429],[-57.060437,-24.83993],[-57.059916,-24.840513],[-57.058772,-24.84064],[-57.057643,-24.839322],[-57.057208,-24.839281],[-57.056966,-24.839575],[-57.057036,-24.840654],[-57.057496,-24.84153],[-57.060018,-24.84287],[-57.059823,-24.843778],[-57.059247,-24.844361],[-57.058371,-24.844397],[-57.056679,-24.843797],[-57.056618,-24.841467],[-57.055928,-24.840962],[-57.055271,-24.841079],[-57.053609,-24.84327],[-57.052442,-24.843912],[-57.052599,-24.845632],[-57.051923,-24.845682],[-57.050367,-24.844508],[-57.049748,-24.844491],[-57.049737,-24.845466],[-57.050608,-24.84752],[-57.050139,-24.847891],[-57.048695,-24.84804],[-57.048317,-24.84884],[-57.04889,-24.849797],[-57.050546,-24.850776],[-57.04864,-24.851711],[-57.048246,-24.85219],[-57.048656,-24.852538],[-57.049915,-24.852763],[-57.051439,-24.851914],[-57.052086,-24.8519],[-57.052,-24.853038],[-57.050284,-24.853788],[-57.050087,-24.854226],[-57.050654,-24.854637],[-57.051378,-24.854668],[-57.053592,-24.853638],[-57.053768,-24.854013],[-57.053434,-24.855783],[-57.052849,-24.856253],[-57.05033,-24.855558],[-57.048355,-24.856065],[-57.048364,-24.856977],[-57.050172,-24.858733],[-57.049799,-24.859446],[-57.048768,-24.859492],[-57.046068,-24.858599],[-57.045384,-24.858784],[-57.046065,-24.86026],[-57.04762,-24.86194],[-57.047625,-24.862707],[-57.047991,-24.862834],[-57.050578,-24.860706],[-57.051228,-24.858832],[-57.053736,-24.858456],[-57.053248,-24.861346],[-57.05032,-24.862399],[-57.050116,-24.863172],[-57.052965,-24.864742],[-57.053715,-24.862484],[-57.054521,-24.861982],[-57.05539,-24.861941],[-57.056437,-24.862686],[-57.057237,-24.865594],[-57.055472,-24.865197],[-57.052111,-24.865573],[-57.049058,-24.867024],[-57.048588,-24.868333],[-57.046756,-24.86833],[-57.046054,-24.868583],[-57.045782,-24.869003],[-57.046004,-24.869693],[-57.047462,-24.870691],[-57.04509,-24.871988],[-57.045398,-24.872859],[-57.045016,-24.873957],[-57.046097,-24.874751],[-57.046171,-24.87546],[-57.04478,-24.875641],[-57.042419,-24.873659],[-57.041581,-24.873881],[-57.041004,-24.874649],[-57.041181,-24.875633],[-57.043193,-24.878008],[-57.042919,-24.878568],[-57.041069,-24.878546],[-57.041004,-24.879367],[-57.042166,-24.880085],[-57.044775,-24.880089],[-57.044964,-24.880743],[-57.044249,-24.881362],[-57.042572,-24.881769],[-57.041987,-24.88139],[-57.041076,-24.880054],[-57.040363,-24.87995],[-57.039529,-24.880867],[-57.039445,-24.882267],[-57.041022,-24.883097],[-57.042689,-24.883088],[-57.042921,-24.883801],[-57.041789,-24.88424],[-57.040629,-24.884095],[-57.038688,-24.882701],[-57.037931,-24.882507],[-57.036937,-24.884313],[-57.036881,-24.885076],[-57.037916,-24.886683],[-57.036775,-24.888233],[-57.036749,-24.889064],[-57.037075,-24.889547],[-57.038387,-24.889646],[-57.041143,-24.887884],[-57.041923,-24.888046],[-57.042272,-24.888434],[-57.042349,-24.890859],[-57.043891,-24.892132],[-57.043705,-24.892597],[-57.041911,-24.89276],[-57.04162,-24.893054],[-57.041653,-24.893894],[-57.042755,-24.896382],[-57.042277,-24.896468],[-57.039804,-24.895412],[-57.038985,-24.89543],[-57.038198,-24.895837],[-57.037731,-24.895701],[-57.036489,-24.894275],[-57.03528,-24.893923],[-57.034763,-24.892266],[-57.033317,-24.891575],[-57.03084,-24.891417],[-57.03042,-24.892068],[-57.030953,-24.893991],[-57.032825,-24.894393],[-57.032321,-24.896696],[-57.03155,-24.897193],[-57.031729,-24.897676],[-57.033324,-24.897987],[-57.034242,-24.897829],[-57.034452,-24.897255],[-57.03414,-24.894844],[-57.034949,-24.89455],[-57.035547,-24.894916],[-57.036632,-24.897494],[-57.036628,-24.898339],[-57.03724,-24.899327],[-57.036781,-24.900059],[-57.037643,-24.90014],[-57.040054,-24.899291],[-57.040745,-24.899376],[-57.040317,-24.900993],[-57.040508,-24.901837],[-57.039838,-24.902451],[-57.038787,-24.902682],[-57.037397,-24.901508],[-57.037388,-24.902402],[-57.038217,-24.904249],[-57.039493,-24.903797],[-57.040538,-24.903896],[-57.04112,-24.902225],[-57.042053,-24.901778],[-57.044228,-24.901389],[-57.044542,-24.899614],[-57.045024,-24.899072],[-57.045463,-24.899126],[-57.046407,-24.900264],[-57.047109,-24.900571],[-57.048499,-24.899433],[-57.048684,-24.899902],[-57.048345,-24.901036],[-57.048955,-24.901853],[-57.047754,-24.903145],[-57.047541,-24.903763],[-57.048793,-24.903989],[-57.050927,-24.903171],[-57.051698,-24.903563],[-57.052214,-24.90485],[-57.050757,-24.905916],[-57.050165,-24.90686],[-57.050847,-24.907619],[-57.054076,-24.90801],[-57.055062,-24.906759],[-57.055655,-24.906727],[-57.056056,-24.907422],[-57.055297,-24.910173],[-57.055773,-24.91071],[-57.056432,-24.91047],[-57.057197,-24.909228],[-57.057564,-24.907806],[-57.057355,-24.905801],[-57.06051,-24.905041],[-57.061672,-24.905253],[-57.061849,-24.906598],[-57.060603,-24.907091],[-57.060412,-24.907448],[-57.061032,-24.907895],[-57.062242,-24.907565],[-57.062597,-24.907971],[-57.061042,-24.908405],[-57.0589,-24.908063],[-57.057829,-24.909476],[-57.058378,-24.91079],[-57.058334,-24.911603],[-57.059492,-24.911431],[-57.060104,-24.91172],[-57.060104,-24.91312],[-57.059197,-24.913269],[-57.05731,-24.912836],[-57.056704,-24.913252],[-57.057429,-24.914146],[-57.058405,-24.914457],[-57.060587,-24.913499],[-57.063119,-24.913033],[-57.063754,-24.913628],[-57.062769,-24.9153],[-57.062064,-24.916113],[-57.05994,-24.91652],[-57.059951,-24.917455],[-57.059681,-24.917653],[-57.059311,-24.917622],[-57.058937,-24.916954],[-57.056761,-24.91597],[-57.055083,-24.916237],[-57.054726,-24.916603],[-57.055502,-24.918075],[-57.055185,-24.918725],[-57.053899,-24.918496],[-57.053102,-24.917918],[-57.052871,-24.917168],[-57.052294,-24.916997],[-57.051875,-24.917403],[-57.051771,-24.919273],[-57.050934,-24.919802],[-57.050677,-24.920389],[-57.050985,-24.92093],[-57.051475,-24.92112],[-57.052691,-24.920713],[-57.053403,-24.92093],[-57.052802,-24.923373],[-57.056771,-24.922044],[-57.058225,-24.924337],[-57.058693,-24.92398],[-57.059233,-24.922806],[-57.059709,-24.922643],[-57.060403,-24.923668],[-57.059777,-24.925027],[-57.0603,-24.925271],[-57.06203,-24.925063],[-57.062283,-24.9256],[-57.062066,-24.926824],[-57.06149,-24.927397],[-57.060263,-24.927872],[-57.06087,-24.928495],[-57.060813,-24.929104],[-57.060452,-24.929236],[-57.059307,-24.928545],[-57.058738,-24.929959],[-57.058434,-24.929634],[-57.058116,-24.927792],[-57.057118,-24.927038],[-57.057742,-24.926053],[-57.057621,-24.925773],[-57.056141,-24.925991],[-57.054625,-24.926989],[-57.054129,-24.927644],[-57.053555,-24.927427],[-57.052954,-24.926457],[-57.052461,-24.926344],[-57.052628,-24.927328],[-57.054189,-24.929297],[-57.054446,-24.929328],[-57.055219,-24.928438],[-57.055902,-24.928768],[-57.056044,-24.929951],[-57.055637,-24.931129],[-57.057091,-24.93112],[-57.057249,-24.931544],[-57.055118,-24.932033],[-57.054443,-24.932828],[-57.053769,-24.931189],[-57.052602,-24.930381],[-57.051548,-24.93044],[-57.051541,-24.92914],[-57.050786,-24.929108],[-57.050211,-24.930224],[-57.050381,-24.931222],[-57.05257,-24.932806],[-57.051448,-24.934694],[-57.050898,-24.935001],[-57.050082,-24.934482],[-57.049864,-24.932798],[-57.047512,-24.932108],[-57.04718,-24.932623],[-57.047284,-24.933571],[-57.048831,-24.935656],[-57.048893,-24.937011],[-57.04738,-24.93796],[-57.046057,-24.937423],[-57.045311,-24.93839],[-57.044966,-24.937798],[-57.045237,-24.936787],[-57.044662,-24.936669],[-57.043741,-24.938096],[-57.044081,-24.93895],[-57.045011,-24.939677],[-57.044904,-24.940069],[-57.04349,-24.940151],[-57.042756,-24.939795],[-57.042521,-24.939321],[-57.042687,-24.938061],[-57.042201,-24.93765],[-57.041311,-24.938711],[-57.040327,-24.939154],[-57.040972,-24.940337],[-57.03969,-24.941087],[-57.03973,-24.941353],[-57.040269,-24.941629],[-57.041616,-24.941375],[-57.042146,-24.941538],[-57.041717,-24.943299],[-57.043081,-24.94389],[-57.043067,-24.944568],[-57.044359,-24.945059],[-57.041868,-24.94553],[-57.041261,-24.945972],[-57.040299,-24.945219],[-57.038987,-24.946045],[-57.039788,-24.947269],[-57.040464,-24.947639],[-57.041623,-24.94721],[-57.042432,-24.947318],[-57.043234,-24.946816],[-57.043206,-24.948085],[-57.042294,-24.948749],[-57.042485,-24.949006],[-57.043446,-24.948848],[-57.04451,-24.947665],[-57.045027,-24.947868],[-57.045252,-24.948748],[-57.04438,-24.950311],[-57.044876,-24.951507],[-57.04464,-24.952022],[-57.043726,-24.951675],[-57.042886,-24.950194],[-57.041212,-24.950009],[-57.040393,-24.950375],[-57.03959,-24.949752],[-57.039564,-24.950543],[-57.040112,-24.951951],[-57.038606,-24.951577],[-57.038389,-24.951852],[-57.039245,-24.952385],[-57.040398,-24.952615],[-57.040619,-24.95299],[-57.038667,-24.954327],[-57.03697,-24.952128],[-57.037162,-24.950615],[-57.036202,-24.950805],[-57.035465,-24.951153],[-57.03519,-24.951713],[-57.035618,-24.953416],[-57.035433,-24.953781],[-57.034293,-24.953515],[-57.033868,-24.952933],[-57.033976,-24.952242],[-57.033725,-24.952201],[-57.03297,-24.953267],[-57.033864,-24.954513],[-57.033727,-24.954969],[-57.033203,-24.955019],[-57.031717,-24.954333],[-57.031335,-24.954473],[-57.031917,-24.955403],[-57.033297,-24.956076],[-57.03407,-24.955421],[-57.035099,-24.955475],[-57.034996,-24.957276],[-57.032852,-24.957286],[-57.031546,-24.958289],[-57.030489,-24.957323],[-57.030165,-24.958045],[-57.029388,-24.957919],[-57.02825,-24.959594],[-57.027366,-24.958113],[-57.026646,-24.957757],[-57.025081,-24.958647],[-57.025791,-24.959703],[-57.024647,-24.959193],[-57.024311,-24.959387],[-57.024165,-24.960846],[-57.025735,-24.961121],[-57.026263,-24.961491],[-57.025774,-24.961947],[-57.023977,-24.962259],[-57.023701,-24.962846],[-57.026634,-24.963072],[-57.026795,-24.96337],[-57.026071,-24.964137],[-57.026074,-24.964621],[-57.027135,-24.964074],[-57.02788,-24.962755],[-57.029686,-24.962976],[-57.029997,-24.96336],[-57.029122,-24.964692],[-57.029948,-24.965288],[-57.029658,-24.965762],[-57.030391,-24.966385],[-57.029166,-24.966909],[-57.028941,-24.967334],[-57.030289,-24.968463],[-57.031477,-24.96825],[-57.031606,-24.969067],[-57.032726,-24.969094],[-57.031249,-24.970201],[-57.03049,-24.970215],[-57.029679,-24.969515],[-57.029206,-24.969732],[-57.029069,-24.970838],[-57.030136,-24.970842],[-57.030373,-24.971249],[-57.028915,-24.971989],[-57.029614,-24.972915],[-57.02862,-24.973584],[-57.028289,-24.974238],[-57.028821,-24.974469],[-57.030164,-24.973913],[-57.030755,-24.974215],[-57.030399,-24.974559],[-57.029323,-24.974748],[-57.02903,-24.975272],[-57.028548,-24.975435],[-57.02799,-24.975277],[-57.028044,-24.974609],[-57.027627,-24.974532],[-57.026976,-24.975702],[-57.028609,-24.976862],[-57.029235,-24.976902],[-57.030134,-24.976455],[-57.030568,-24.977489],[-57.032059,-24.977046],[-57.032579,-24.977218],[-57.033325,-24.979602],[-57.034373,-24.980572],[-57.0348,-24.980514],[-57.035017,-24.980089],[-57.035118,-24.977705],[-57.035544,-24.977438],[-57.036072,-24.977619],[-57.036709,-24.978319],[-57.037059,-24.979596],[-57.036027,-24.982311],[-57.036936,-24.982866],[-57.038349,-24.982811],[-57.038915,-24.98235],[-57.039179,-24.98044],[-57.039838,-24.979167],[-57.038378,-24.978142],[-57.038261,-24.976986],[-57.03875,-24.975947],[-57.039899,-24.975563],[-57.041825,-24.976525],[-57.042058,-24.977297],[-57.041647,-24.978331],[-57.041934,-24.978827],[-57.046057,-24.981369],[-57.045693,-24.981798],[-57.044194,-24.982055],[-57.044101,-24.982683],[-57.044676,-24.983202],[-57.049249,-24.984289],[-57.049637,-24.983851],[-57.049481,-24.982469],[-57.049761,-24.982031],[-57.050312,-24.981877],[-57.052059,-24.982468],[-57.052595,-24.983037],[-57.052316,-24.98516],[-57.051711,-24.986036],[-57.048559,-24.987111],[-57.046378,-24.989203],[-57.045959,-24.988855],[-57.045811,-24.98755],[-57.045043,-24.987772],[-57.044802,-24.988422],[-57.045369,-24.989858],[-57.047823,-24.991451],[-57.048949,-24.99169],[-57.051736,-24.991152],[-57.052513,-24.991725],[-57.051954,-24.992633],[-57.046971,-24.994983],[-57.047002,-24.99538],[-57.048369,-24.996256],[-57.049379,-24.999339],[-57.049178,-24.999904],[-57.047377,-25.000853],[-57.047393,-25.002171],[-57.047967,-25.002609],[-57.048837,-25.002735],[-57.050529,-25.00091],[-57.052439,-25.000332],[-57.053309,-25.000756],[-57.053263,-25.001831],[-57.051617,-25.002834],[-57.048154,-25.003458],[-57.040762,-25.002995],[-57.039799,-25.003162],[-57.039411,-25.003506],[-57.039551,-25.00407],[-57.042036,-25.006305],[-57.043295,-25.007],[-57.045764,-25.00769],[-57.04665,-25.009175],[-57.046433,-25.010584],[-57.042846,-25.01264],[-57.042722,-25.013728],[-57.043577,-25.014974],[-57.044618,-25.015199],[-57.046419,-25.015054],[-57.048547,-25.014363],[-57.050161,-25.013274],[-57.052816,-25.009593],[-57.054025,-25.005231],[-57.054739,-25.004594],[-57.055935,-25.00495],[-57.057334,-25.007076],[-57.058623,-25.007374],[-57.061356,-25.006537],[-57.066075,-25.003591],[-57.067395,-25.003663],[-57.068219,-25.004033],[-57.068623,-25.00475],[-57.068516,-25.008218],[-57.068936,-25.00918],[-57.070893,-25.010213],[-57.073285,-25.010483],[-57.074077,-25.011259],[-57.074451,-25.013395],[-57.073801,-25.016204],[-57.074267,-25.017071],[-57.075323,-25.016871],[-57.076162,-25.016221],[-57.082509,-25.009507],[-57.087011,-25.006398],[-57.090396,-25.005606],[-57.095971,-25.005191],[-57.098192,-25.005894],[-57.103678,-25.010618],[-57.104145,-25.011964],[-57.104099,-25.012754],[-57.103203,-25.018403],[-57.103716,-25.019166],[-57.104322,-25.019211],[-57.109227,-25.016575],[-57.111103,-25.012767],[-57.112236,-25.011348],[-57.118863,-25.007162],[-57.120742,-25.006596],[-57.123864,-25.007821],[-57.124703,-25.007554],[-57.125091,-25.007116],[-57.12568,-25.005883],[-57.12622,-25.002866],[-57.127259,-25.000928],[-57.131167,-24.996707],[-57.133557,-24.994655],[-57.134673,-24.992938],[-57.137399,-24.986654],[-57.137874,-24.981375],[-57.138882,-24.980042],[-57.146662,-24.981028],[-57.149271,-24.981703],[-57.150234,-24.982325],[-57.151758,-24.984021],[-57.152845,-24.984192],[-57.154056,-24.98368],[-57.15539,-24.98246],[-57.160999,-24.973513],[-57.162022,-24.972803],[-57.163234,-24.97314],[-57.165814,-24.975544],[-57.167212,-24.975967],[-57.169013,-24.975599],[-57.173729,-24.972731],[-57.174784,-24.972535],[-57.176213,-24.972728],[-57.177642,-24.97358],[-57.178762,-24.97468],[-57.180098,-24.975243],[-57.182611,-24.973998],[-57.184038,-24.972917],[-57.186239,-24.970481],[-57.187572,-24.969603],[-57.188845,-24.969263],[-57.192571,-24.969398],[-57.193098,-24.96872],[-57.193221,-24.967871],[-57.192909,-24.966738],[-57.191944,-24.965353],[-57.186011,-24.963662],[-57.185079,-24.96318],[-57.184426,-24.962305],[-57.184549,-24.961655],[-57.18641,-24.96046],[-57.188021,-24.958395],[-57.189941,-24.954884],[-57.191115,-24.951541],[-57.192045,-24.950492],[-57.193007,-24.950292],[-57.193815,-24.950575],[-57.194346,-24.952611],[-57.194844,-24.953292],[-57.198042,-24.953541],[-57.199658,-24.954474],[-57.199535,-24.955237],[-57.199008,-24.955576],[-57.196494,-24.956117],[-57.195719,-24.957391],[-57.196406,-24.959743],[-57.199082,-24.962909],[-57.199673,-24.964037],[-57.199736,-24.964661],[-57.199056,-24.966644],[-57.199181,-24.967095],[-57.200798,-24.968312],[-57.200583,-24.969726],[-57.199622,-24.970973],[-57.199748,-24.971682],[-57.201208,-24.972303],[-57.203506,-24.972499],[-57.211916,-24.969511],[-57.212661,-24.969822],[-57.212663,-24.970445],[-57.21195,-24.971015],[-57.209622,-24.97198],[-57.20922,-24.972658],[-57.209594,-24.973479],[-57.21183,-24.973729],[-57.213568,-24.973334],[-57.214219,-24.972737],[-57.215799,-24.970612],[-57.220479,-24.966063],[-57.222213,-24.963288],[-57.22252,-24.961192],[-57.222239,-24.960172],[-57.22171,-24.959437],[-57.219255,-24.95814],[-57.218383,-24.956836],[-57.218474,-24.95545],[-57.219031,-24.954857],[-57.220087,-24.954797],[-57.220926,-24.955107],[-57.223226,-24.956888],[-57.224315,-24.958186],[-57.226497,-24.962486],[-57.227616,-24.963361],[-57.228206,-24.963446],[-57.229944,-24.962964],[-57.232672,-24.960639],[-57.235428,-24.95718],[-57.237506,-24.956071],[-57.238779,-24.9561],[-57.240085,-24.956776],[-57.243035,-24.957195],[-57.248688,-24.958572],[-57.251918,-24.958738],[-57.253282,-24.957747],[-57.253436,-24.957178],[-57.253062,-24.956587],[-57.252471,-24.956218],[-57.24946,-24.956137],[-57.247596,-24.955661],[-57.247004,-24.954642],[-57.247343,-24.95368],[-57.248553,-24.953081],[-57.250509,-24.95311],[-57.253492,-24.954491],[-57.256256,-24.954599],[-57.257124,-24.954286],[-57.258674,-24.953064],[-57.26019,-24.950686],[-57.26106,-24.950884],[-57.262088,-24.952548],[-57.262585,-24.952746],[-57.26364,-24.952405],[-57.264228,-24.95133],[-57.264101,-24.950142],[-57.262389,-24.948217],[-57.261764,-24.946182],[-57.261822,-24.944199],[-57.262812,-24.942558],[-57.263742,-24.942105],[-57.265915,-24.941817],[-57.271938,-24.942059],[-57.2757,-24.942865],[-57.275232,-24.941748],[-57.273912,-24.940955],[-57.27362,-24.940478],[-57.274021,-24.93772],[-57.273321,-24.936643],[-57.270042,-24.935588],[-57.268293,-24.934018],[-57.267731,-24.933842],[-57.265426,-24.935013],[-57.263953,-24.935192],[-57.2637,-24.934963],[-57.263815,-24.934079],[-57.264898,-24.933069],[-57.269761,-24.931363],[-57.269686,-24.930376],[-57.266995,-24.929092],[-57.266545,-24.928401],[-57.266331,-24.926715],[-57.269082,-24.924028],[-57.267046,-24.925161],[-57.24383,-24.935],[-57.238986,-24.936028],[-57.233891,-24.936036],[-57.228671,-24.935363],[-57.223572,-24.932765],[-57.219336,-24.926653],[-57.216592,-24.920651],[-57.216824,-24.911078],[-57.21967,-24.904729],[-57.22426,-24.901096],[-57.230715,-24.898707],[-57.242264,-24.896534],[-57.249341,-24.894825],[-57.254428,-24.891642],[-57.259757,-24.885631],[-57.260616,-24.880699],[-57.259864,-24.877413],[-57.257869,-24.874021],[-57.255256,-24.87142],[-57.253634,-24.867683],[-57.253997,-24.863262],[-57.257468,-24.86014],[-57.265038,-24.857522],[-57.273602,-24.855578],[-57.287009,-24.853403],[-57.291723,-24.851466],[-57.295564,-24.84772],[-57.298409,-24.84318],[-57.300133,-24.837289],[-57.298504,-24.831286],[-57.295517,-24.828063],[-57.291287,-24.824446],[-57.275752,-24.816767],[-57.270033,-24.813151],[-57.265434,-24.810102],[-57.261203,-24.80535],[-57.254725,-24.793973],[-57.252104,-24.786843],[-57.248615,-24.779822],[-57.246369,-24.774159],[-57.24077,-24.766523],[-57.236543,-24.762109],[-57.232066,-24.756792],[-57.228951,-24.749996],[-57.227455,-24.745808],[-57.226572,-24.738273],[-57.228545,-24.731248],[-57.231631,-24.723309],[-57.234583,-24.709879],[-57.23358,-24.703762],[-57.230346,-24.69912],[-57.227118,-24.697197],[-57.214217,-24.695631],[-57.2069,-24.696097],[-57.196238,-24.698261],[-57.188671,-24.697819],[-57.1816,-24.69641],[-57.176512,-24.694605],[-57.172417,-24.692456],[-57.16956,-24.689628],[-57.17005,-24.684529],[-57.171902,-24.67886],[-57.174622,-24.673076],[-57.175975,-24.665087],[-57.174728,-24.659764],[-57.16976,-24.653877],[-57.166652,-24.647874],[-57.164659,-24.640344],[-57.158316,-24.623923],[-57.157441,-24.618256],[-57.160656,-24.612306],[-57.165852,-24.605048],[-57.17303,-24.597561],[-57.185408,-24.587689],[-57.190109,-24.582187],[-57.193073,-24.576064],[-57.194797,-24.569149],[-57.193922,-24.563938],[-57.191435,-24.558446],[-57.187958,-24.552788],[-57.180642,-24.547355],[-57.174816,-24.544982],[-57.169484,-24.541475],[-57.162167,-24.534117],[-57.16154,-24.528284],[-57.163638,-24.522844],[-57.167719,-24.517967],[-57.171677,-24.513881],[-57.17823,-24.506056],[-57.185528,-24.501008],[-57.191218,-24.496241],[-57.194061,-24.493401],[-57.194799,-24.490004],[-57.194419,-24.484676],[-57.192183,-24.479468],[-57.187103,-24.476981],[-57.171871,-24.474222],[-57.166545,-24.472982],[-57.162332,-24.470268],[-57.157995,-24.466646],[-57.150926,-24.456344],[-57.149308,-24.44898],[-57.151407,-24.444277],[-57.157954,-24.434299],[-57.162896,-24.427154],[-57.167715,-24.421707],[-57.173638,-24.40884],[-57.180055,-24.396824],[-57.181411,-24.393309],[-57.180531,-24.383281],[-57.177552,-24.375919],[-57.174577,-24.371731],[-57.169623,-24.367375],[-57.165533,-24.361825],[-57.164042,-24.355937],[-57.16958,-24.33491],[-57.175619,-24.31972],[-57.178086,-24.315635],[-57.180308,-24.312634],[-57.194262,-24.301056],[-57.198583,-24.296633],[-57.202528,-24.289827],[-57.204374,-24.284785],[-57.206462,-24.27594],[-57.205957,-24.269596],[-57.204586,-24.26132],[-57.201224,-24.261329],[-57.200349,-24.261791],[-57.19741,-24.261952],[-57.196065,-24.262903],[-57.194885,-24.262881],[-57.191252,-24.264015],[-57.182257,-24.265837],[-57.181278,-24.26568],[-57.180411,-24.266295],[-57.179011,-24.266654],[-57.175797,-24.26631],[-57.174807,-24.265945],[-57.172276,-24.264819],[-57.169672,-24.262988],[-57.164301,-24.262703],[-57.133466,-24.346742],[-57.132566,-24.346371],[-57.117206,-24.34504],[-57.109761,-24.34395],[-57.108127,-24.343056],[-57.107593,-24.345094],[-57.106281,-24.344692],[-57.102986,-24.342947],[-57.100933,-24.341208],[-57.099703,-24.340544],[-57.090831,-24.337157],[-57.064154,-24.325491],[-57.063252,-24.328363],[-57.063287,-24.330611],[-57.067362,-24.334262],[-57.067008,-24.337193],[-57.069867,-24.337439],[-57.063117,-24.374505],[-57.049212,-24.378309],[-57.048055,-24.376777],[-57.042594,-24.371356],[-57.00015,-24.342475],[-56.992738,-24.335678],[-56.987993,-24.333307],[-56.981306,-24.332318],[-56.972678,-24.332119],[-56.967501,-24.336268],[-56.960166,-24.339033],[-56.955635,-24.341601],[-56.95434,-24.344961],[-56.950887,-24.34911],[-56.943765,-24.354839],[-56.920428,-24.37255],[-56.945386,-24.396651],[-56.94767,-24.394652],[-56.95124,-24.389798],[-56.954095,-24.38837],[-56.957379,-24.385372],[-56.959949,-24.38166],[-56.96209,-24.379947],[-56.962661,-24.380232],[-56.964232,-24.382659],[-56.967087,-24.385087],[-56.968515,-24.387085],[-56.975367,-24.393795],[-56.97651,-24.395651],[-56.97965,-24.404217],[-56.985647,-24.407644],[-56.98736,-24.407501],[-56.988645,-24.408072],[-56.990215,-24.409357],[-56.99664,-24.412212],[-57.000066,-24.414068],[-57.001922,-24.414354],[-57.005063,-24.415639],[-57.006776,-24.416638],[-57.007918,-24.41778],[-57.007633,-24.418637],[-57.007062,-24.418494],[-57.006776,-24.420636],[-57.003064,-24.424919],[-56.998781,-24.428345],[-56.992357,-24.442907],[-56.989787,-24.449475],[-56.989787,-24.45076],[-56.990358,-24.452616],[-56.991786,-24.454329],[-56.994213,-24.458326],[-56.994927,-24.460611],[-56.994784,-24.467035],[-56.995069,-24.470033],[-56.995926,-24.472889],[-56.998639,-24.479456],[-56.997639,-24.481455],[-56.997211,-24.525427],[-56.985789,-24.532851],[-56.982458,-24.535926],[-56.968229,-24.557122]]]}}]}
