{"type":"FeatureCollection","name":"distrito","features":[{"type":"Feature","properties":{"clave":"17-1","nombre":"Loma Plata"},"geometry":{"type":"Polygon","coordinates":[[[-59.933295,-22.634872],[-59.93292,-22.611542],[-59.923521,-22.611829],[-59.923047,-22.589398],[-59.957885,-22.58949],[-59.953426,-22.527917],[-59.953142,-22.518525],[-59.953398,-22.501963],[-59.954786,-22.501938],[-59.95416,-22.497633],[-59.955555,-22.492894],[-59.953364,-22.49115],[-59.953439,-22.466968],[-59.969061,-22.466849],[-59.991474,-22.467149],[-59.991241,-22.35116],[-59.972812,-22.350678],[-59.969289,-22.349068],[-59.880212,-22.348001],[-59.838741,-22.347806],[-59.838311,-22.348146],[-59.838247,-22.349024],[-59.781199,-22.349328],[-59.739024,-22.349135],[-59.739257,-22.260018],[-59.739024,-22.232725],[-59.738752,-22.23235],[-59.738854,-22.193303],[-59.738584,-22.178351],[-59.739402,-22.175244],[-59.739699,-22.171211],[-59.739354,-22.163104],[-59.739657,-22.133419],[-59.739419,-22.108179],[-59.740028,-22.055499],[-59.416363,-22.056525],[-59.412897,-22.05682],[-59.367744,-22.076224],[-59.336595,-22.170403],[-59.614392,-22.335895],[-59.614445,-22.341085],[-59.639235,-22.368607],[-59.639723,-22.388855],[-59.626237,-22.427976],[-59.711801,-22.427974],[-59.712167,-22.467009],[-59.747181,-22.466983],[-59.747184,-22.500433],[-59.75167,-22.500902],[-59.75177,-22.525403],[-59.787933,-22.566777],[-59.806222,-22.588327],[-59.818425,-22.603377],[-59.818874,-22.603487],[-59.843758,-22.634372],[-59.869022,-22.672279],[-59.878739,-22.672291],[-59.897841,-22.67308],[-59.91616,-22.673429],[-59.915582,-22.635369],[-59.933295,-22.634872]]]}}]}
