{"type":"FeatureCollection","name":"distrito","features":[{"type":"Feature","properties":{"clave":"6-17","nombre":"Yuty"},"geometry":{"type":"Polygon","coordinates":[[[-56.302127,-26.722416],[-56.303273,-26.721411],[-56.304451,-26.721372],[-56.30602,-26.72263],[-56.307471,-26.722989],[-56.30865,-26.724362],[-56.308739,-26.725338],[-56.306948,-26.727672],[-56.307285,-26.728938],[-56.30838,-26.728808],[-56.310294,-26.727544],[-56.31115,-26.728221],[-56.311518,-26.729717],[-56.314594,-26.728924],[-56.317553,-26.729078],[-56.318677,-26.727896],[-56.318591,-26.725476],[-56.319548,-26.725101],[-56.320411,-26.725534],[-56.321259,-26.727701],[-56.321757,-26.728051],[-56.322235,-26.728048],[-56.323622,-26.727256],[-56.325262,-26.72707],[-56.32766,-26.727659],[-56.329796,-26.728901],[-56.33072,-26.729827],[-56.330792,-26.731926],[-56.331409,-26.732475],[-56.331903,-26.732329],[-56.332423,-26.731257],[-56.331407,-26.727979],[-56.332055,-26.724881],[-56.332642,-26.724816],[-56.334056,-26.72559],[-56.336644,-26.72618],[-56.337058,-26.727193],[-56.337154,-26.731482],[-56.337818,-26.732054],[-56.338663,-26.731552],[-56.338917,-26.729603],[-56.340021,-26.728439],[-56.340278,-26.726982],[-56.340774,-26.726357],[-56.341615,-26.726858],[-56.342102,-26.728964],[-56.34338,-26.729927],[-56.344317,-26.731642],[-56.345159,-26.73188],[-56.345775,-26.731323],[-56.345418,-26.727814],[-56.345755,-26.726859],[-56.346859,-26.726462],[-56.348758,-26.726462],[-56.34951,-26.726881],[-56.350796,-26.728638],[-56.354793,-26.729234],[-56.355577,-26.728705],[-56.355583,-26.727915],[-56.354761,-26.727081],[-56.352865,-26.726088],[-56.35234,-26.724979],[-56.353063,-26.7244],[-56.354285,-26.724744],[-56.356364,-26.72479],[-56.356935,-26.725565],[-56.356298,-26.727634],[-56.357011,-26.729149],[-56.359152,-26.729701],[-56.359667,-26.731549],[-56.360158,-26.731931],[-56.361358,-26.732148],[-56.361626,-26.733179],[-56.366114,-26.733808],[-56.367875,-26.734593],[-56.368696,-26.735707],[-56.369778,-26.738479],[-56.370807,-26.739404],[-56.375536,-26.740581],[-56.377372,-26.739524],[-56.37818,-26.73941],[-56.378822,-26.739896],[-56.379619,-26.741317],[-56.380394,-26.741541],[-56.381103,-26.741364],[-56.382289,-26.740353],[-56.383071,-26.740293],[-56.383767,-26.741123],[-56.383603,-26.743244],[-56.384235,-26.743698],[-56.3866,-26.744164],[-56.386153,-26.746148],[-56.38887,-26.746088],[-56.38934,-26.747715],[-56.389935,-26.748169],[-56.390635,-26.748104],[-56.391215,-26.747588],[-56.39109,-26.745163],[-56.391823,-26.743974],[-56.393206,-26.74375],[-56.39578,-26.744903],[-56.396153,-26.745428],[-56.396078,-26.746236],[-56.394403,-26.747651],[-56.394308,-26.748427],[-56.395034,-26.748886],[-56.397088,-26.749017],[-56.397933,-26.749359],[-56.398092,-26.750303],[-56.397629,-26.752026],[-56.398023,-26.752203],[-56.399496,-26.751049],[-56.400105,-26.751205],[-56.40024,-26.752019],[-56.398713,-26.753448],[-56.399085,-26.755837],[-56.399838,-26.756057],[-56.40129,-26.755765],[-56.403263,-26.756157],[-56.405035,-26.75579],[-56.405591,-26.755919],[-56.405787,-26.757071],[-56.403734,-26.759058],[-56.403788,-26.76206],[-56.404332,-26.76269],[-56.404828,-26.762768],[-56.407236,-26.761794],[-56.408035,-26.761929],[-56.40831,-26.762512],[-56.40816,-26.763216],[-56.406271,-26.764332],[-56.407997,-26.766082],[-56.408947,-26.766334],[-56.409711,-26.765922],[-56.409894,-26.765372],[-56.409429,-26.763605],[-56.410196,-26.762583],[-56.411543,-26.762602],[-56.413566,-26.763672],[-56.414379,-26.763562],[-56.415821,-26.762819],[-56.416378,-26.762857],[-56.416924,-26.763166],[-56.417224,-26.764106],[-56.416148,-26.765795],[-56.41626,-26.766549],[-56.418932,-26.768664],[-56.420986,-26.768641],[-56.421675,-26.769009],[-56.421884,-26.769692],[-56.421615,-26.772183],[-56.422252,-26.772339],[-56.423938,-26.771127],[-56.426335,-26.770351],[-56.427334,-26.770323],[-56.427867,-26.770763],[-56.427928,-26.771387],[-56.426149,-26.77286],[-56.426189,-26.773348],[-56.427252,-26.773537],[-56.429996,-26.772609],[-56.430563,-26.772693],[-56.430753,-26.77328],[-56.430345,-26.774556],[-56.430987,-26.774884],[-56.432717,-26.77416],[-56.436415,-26.773425],[-56.436833,-26.77386],[-56.436505,-26.775475],[-56.436706,-26.776049],[-56.438773,-26.775082],[-56.4388,-26.774328],[-56.438086,-26.772484],[-56.438526,-26.771921],[-56.440096,-26.77199],[-56.443085,-26.773551],[-56.443953,-26.773473],[-56.44412,-26.772805],[-56.443778,-26.772145],[-56.442243,-26.771249],[-56.442797,-26.770475],[-56.443917,-26.770123],[-56.444762,-26.77032],[-56.445984,-26.771106],[-56.448007,-26.771584],[-56.449183,-26.771155],[-56.449945,-26.76984],[-56.450979,-26.76992],[-56.450987,-26.770859],[-56.449787,-26.772588],[-56.449859,-26.773929],[-56.450449,-26.774753],[-56.451264,-26.775041],[-56.452042,-26.774859],[-56.453716,-26.773732],[-56.454536,-26.773825],[-56.454707,-26.774869],[-56.453211,-26.777075],[-56.453336,-26.77755],[-56.453825,-26.77761],[-56.455866,-26.776634],[-56.45654,-26.776749],[-56.457116,-26.777244],[-56.457429,-26.777132],[-56.457644,-26.77637],[-56.457362,-26.774834],[-56.458103,-26.774087],[-56.459202,-26.774024],[-56.461701,-26.773027],[-56.464493,-26.7738],[-56.465577,-26.773831],[-56.467449,-26.772448],[-56.468537,-26.772407],[-56.469053,-26.772833],[-56.469625,-26.774447],[-56.47129,-26.774981],[-56.471903,-26.775589],[-56.471572,-26.776612],[-56.469316,-26.777574],[-56.469951,-26.780014],[-56.47047,-26.780788],[-56.471078,-26.780957],[-56.471705,-26.780684],[-56.472203,-26.779278],[-56.47268,-26.778918],[-56.475783,-26.778655],[-56.476321,-26.778923],[-56.475794,-26.779711],[-56.472481,-26.78192],[-56.472366,-26.782872],[-56.473021,-26.783547],[-56.474192,-26.7837],[-56.475853,-26.782641],[-56.47697,-26.782555],[-56.477635,-26.78309],[-56.478033,-26.783922],[-56.477889,-26.786486],[-56.478546,-26.786827],[-56.479942,-26.786651],[-56.480921,-26.786849],[-56.483949,-26.788914],[-56.484519,-26.788383],[-56.484542,-26.786054],[-56.485284,-26.785235],[-56.486447,-26.785303],[-56.488045,-26.786451],[-56.49093,-26.786623],[-56.491281,-26.787121],[-56.49125,-26.787771],[-56.489753,-26.789833],[-56.489726,-26.791296],[-56.488895,-26.793004],[-56.489084,-26.793573],[-56.489599,-26.793914],[-56.491325,-26.794376],[-56.492653,-26.794105],[-56.494833,-26.793088],[-56.497247,-26.792736],[-56.497901,-26.792187],[-56.498199,-26.790956],[-56.498702,-26.790493],[-56.49983,-26.790966],[-56.500988,-26.792036],[-56.501521,-26.792092],[-56.502458,-26.790976],[-56.502791,-26.78899],[-56.505335,-26.789582],[-56.506452,-26.788981],[-56.507262,-26.787968],[-56.50716,-26.785697],[-56.510282,-26.785116],[-56.511229,-26.784316],[-56.510872,-26.783389],[-56.508513,-26.781792],[-56.508777,-26.780195],[-56.509976,-26.779987],[-56.512296,-26.780785],[-56.513186,-26.780662],[-56.513505,-26.777864],[-56.514114,-26.777581],[-56.514781,-26.777904],[-56.516189,-26.779895],[-56.520172,-26.781484],[-56.520706,-26.78117],[-56.520773,-26.780299],[-56.520058,-26.779606],[-56.518421,-26.778829],[-56.518441,-26.778278],[-56.519906,-26.777949],[-56.522435,-26.778761],[-56.523428,-26.778683],[-56.524183,-26.777832],[-56.524431,-26.775644],[-56.524966,-26.775627],[-56.525482,-26.776108],[-56.525399,-26.778432],[-56.52573,-26.779178],[-56.526872,-26.779457],[-56.528038,-26.778897],[-56.528594,-26.778055],[-56.528916,-26.776494],[-56.529794,-26.775151],[-56.529622,-26.774298],[-56.528762,-26.773216],[-56.529825,-26.772122],[-56.53208,-26.772139],[-56.533972,-26.771418],[-56.534481,-26.770282],[-56.533855,-26.768619],[-56.534036,-26.767848],[-56.535098,-26.76758],[-56.536014,-26.767985],[-56.536612,-26.769991],[-56.537169,-26.770445],[-56.538796,-26.770563],[-56.540442,-26.770257],[-56.540902,-26.76954],[-56.540782,-26.768827],[-56.539872,-26.768205],[-56.53818,-26.767757],[-56.536921,-26.76509],[-56.53717,-26.764269],[-56.537535,-26.764117],[-56.540071,-26.76436],[-56.540984,-26.763654],[-56.54061,-26.762425],[-56.53835,-26.761311],[-56.537996,-26.760579],[-56.538309,-26.758675],[-56.539553,-26.757528],[-56.54067,-26.757355],[-56.5449,-26.757938],[-56.546724,-26.75668],[-56.548998,-26.757454],[-56.550011,-26.75888],[-56.549941,-26.759814],[-56.549057,-26.761545],[-56.549214,-26.762204],[-56.549904,-26.762563],[-56.550735,-26.762557],[-56.551464,-26.762139],[-56.552122,-26.76001],[-56.552621,-26.759628],[-56.553899,-26.75984],[-56.555106,-26.761279],[-56.556284,-26.761576],[-56.558457,-26.760333],[-56.560734,-26.759956],[-56.56093,-26.758787],[-56.561377,-26.758157],[-56.562015,-26.758506],[-56.563134,-26.760966],[-56.564189,-26.761321],[-56.564908,-26.760791],[-56.565267,-26.75858],[-56.566215,-26.758434],[-56.567925,-26.759166],[-56.568261,-26.758322],[-56.567339,-26.756699],[-56.567855,-26.756105],[-56.569652,-26.756566],[-56.571168,-26.758643],[-56.572231,-26.758768],[-56.573014,-26.758359],[-56.574841,-26.756252],[-56.577085,-26.754634],[-56.578601,-26.75174],[-56.580644,-26.75097],[-56.581876,-26.750012],[-56.582213,-26.749259],[-56.582388,-26.746654],[-56.583272,-26.746648],[-56.584098,-26.750294],[-56.585049,-26.751253],[-56.585979,-26.751527],[-56.586752,-26.75041],[-56.587522,-26.747536],[-56.587769,-26.747171],[-56.588751,-26.746836],[-56.590954,-26.747167],[-56.591921,-26.747766],[-56.591887,-26.748686],[-56.591212,-26.748973],[-56.589604,-26.749014],[-56.58931,-26.749483],[-56.589434,-26.750201],[-56.589837,-26.7505],[-56.591461,-26.750419],[-56.593762,-26.748814],[-56.597711,-26.747683],[-56.60059,-26.74514],[-56.603193,-26.744159],[-56.603507,-26.743686],[-56.60341,-26.74309],[-56.601735,-26.742205],[-56.601436,-26.741707],[-56.601988,-26.740652],[-56.602697,-26.740375],[-56.604109,-26.740902],[-56.605841,-26.742437],[-56.608361,-26.742417],[-56.609808,-26.743049],[-56.610448,-26.744405],[-56.610247,-26.746955],[-56.61109,-26.747607],[-56.612639,-26.748004],[-56.613577,-26.747899],[-56.615715,-26.746843],[-56.616289,-26.746962],[-56.61696,-26.748197],[-56.617997,-26.748141],[-56.618274,-26.747464],[-56.617743,-26.745174],[-56.618575,-26.744558],[-56.619319,-26.744659],[-56.619808,-26.745121],[-56.619958,-26.747505],[-56.620925,-26.747878],[-56.622421,-26.747746],[-56.623234,-26.747297],[-56.623722,-26.746603],[-56.624216,-26.744076],[-56.624779,-26.743559],[-56.626895,-26.744797],[-56.627497,-26.744712],[-56.629665,-26.742307],[-56.6308,-26.740432],[-56.632683,-26.741661],[-56.635171,-26.741744],[-56.635637,-26.741303],[-56.635834,-26.739606],[-56.636305,-26.739065],[-56.636836,-26.739198],[-56.637744,-26.740902],[-56.63849,-26.743775],[-56.639246,-26.744201],[-56.640102,-26.744113],[-56.641281,-26.743145],[-56.642375,-26.740218],[-56.642071,-26.73889],[-56.640853,-26.736774],[-56.640913,-26.735813],[-56.641391,-26.734938],[-56.642857,-26.733999],[-56.647423,-26.733581],[-56.648351,-26.732974],[-56.648808,-26.731991],[-56.648985,-26.730321],[-56.648574,-26.728885],[-56.647645,-26.727411],[-56.645667,-26.725586],[-56.6457,-26.724715],[-56.646564,-26.724338],[-56.648651,-26.725228],[-56.649674,-26.727316],[-56.650411,-26.728031],[-56.651355,-26.728259],[-56.652772,-26.728069],[-56.654093,-26.72753],[-56.654984,-26.726535],[-56.655199,-26.725055],[-56.654658,-26.723184],[-56.654775,-26.722557],[-56.656463,-26.722119],[-56.657315,-26.723042],[-56.65795,-26.725793],[-56.658606,-26.726218],[-56.659322,-26.726198],[-56.659787,-26.725964],[-56.660561,-26.724539],[-56.662076,-26.723017],[-56.661626,-26.721124],[-56.662085,-26.718977],[-56.661398,-26.718275],[-56.660376,-26.71825],[-56.659064,-26.718938],[-56.657467,-26.720469],[-56.656358,-26.720678],[-56.655458,-26.720301],[-56.654982,-26.718878],[-56.656404,-26.716877],[-56.656225,-26.713757],[-56.655333,-26.712207],[-56.653445,-26.711236],[-56.653295,-26.710586],[-56.65361,-26.709697],[-56.655638,-26.707621],[-56.655639,-26.706276],[-56.654274,-26.706028],[-56.653187,-26.706577],[-56.652834,-26.708282],[-56.652163,-26.709012],[-56.650739,-26.709008],[-56.649662,-26.708125],[-56.649,-26.705429],[-56.649714,-26.703042],[-56.649541,-26.701697],[-56.650522,-26.70039],[-56.65061,-26.699496],[-56.64987,-26.697905],[-56.647648,-26.697137],[-56.647169,-26.696002],[-56.648164,-26.694962],[-56.650113,-26.694714],[-56.650209,-26.693563],[-56.648204,-26.690448],[-56.652099,-26.687893],[-56.652449,-26.686847],[-56.651829,-26.685875],[-56.650333,-26.685586],[-56.649926,-26.685707],[-56.649527,-26.686375],[-56.648719,-26.688801],[-56.64779,-26.68879],[-56.646612,-26.687789],[-56.645975,-26.68605],[-56.646531,-26.685351],[-56.647921,-26.684596],[-56.647918,-26.683563],[-56.646905,-26.682558],[-56.644055,-26.682059],[-56.643225,-26.681185],[-56.643271,-26.680413],[-56.643722,-26.679737],[-56.645207,-26.678956],[-56.645305,-26.678355],[-56.645042,-26.678034],[-56.643974,-26.678018],[-56.642437,-26.679432],[-56.641557,-26.682341],[-56.639932,-26.681836],[-56.639182,-26.681017],[-56.638075,-26.680572],[-56.63709,-26.68093],[-56.636352,-26.682125],[-56.635717,-26.682313],[-56.635073,-26.681476],[-56.63295,-26.681487],[-56.632353,-26.680636],[-56.632516,-26.680119],[-56.633163,-26.679644],[-56.635562,-26.67936],[-56.635426,-26.678717],[-56.633166,-26.678691],[-56.631763,-26.677569],[-56.631394,-26.677568],[-56.630237,-26.678766],[-56.628486,-26.678264],[-56.627586,-26.678552],[-56.626268,-26.679564],[-56.624886,-26.679166],[-56.624237,-26.680076],[-56.623223,-26.680074],[-56.621933,-26.679594],[-56.621658,-26.678951],[-56.621844,-26.67862],[-56.62399,-26.678232],[-56.625728,-26.675668],[-56.624924,-26.674588],[-56.623564,-26.674336],[-56.622824,-26.674935],[-56.622425,-26.677068],[-56.621732,-26.677439],[-56.621341,-26.677334],[-56.621134,-26.677085],[-56.621714,-26.675864],[-56.621557,-26.6746],[-56.620752,-26.673935],[-56.619945,-26.673933],[-56.618468,-26.674488],[-56.618764,-26.675587],[-56.6186,-26.676353],[-56.616983,-26.677053],[-56.61652,-26.677673],[-56.617018,-26.680451],[-56.616809,-26.680968],[-56.615885,-26.681214],[-56.615586,-26.680965],[-56.615357,-26.68057],[-56.615664,-26.678458],[-56.614352,-26.677709],[-56.61366,-26.677893],[-56.613681,-26.678328],[-56.614829,-26.679782],[-56.614504,-26.680568],[-56.61372,-26.680462],[-56.612317,-26.679402],[-56.611971,-26.679463],[-56.610789,-26.681097],[-56.609819,-26.681488],[-56.608967,-26.681278],[-56.608278,-26.68051],[-56.607021,-26.676943],[-56.606399,-26.676858],[-56.605106,-26.677476],[-56.604598,-26.677433],[-56.604254,-26.676894],[-56.604329,-26.67534],[-56.605116,-26.674472],[-56.605212,-26.673478],[-56.604013,-26.673226],[-56.602722,-26.673368],[-56.602054,-26.672993],[-56.603028,-26.671442],[-56.602846,-26.670737],[-56.600561,-26.671228],[-56.600378,-26.670813],[-56.601557,-26.670008],[-56.602114,-26.669036],[-56.601957,-26.667896],[-56.601497,-26.667377],[-56.598318,-26.66656],[-56.597441,-26.666661],[-56.596678,-26.667426],[-56.597525,-26.669251],[-56.597615,-26.669914],[-56.597244,-26.670369],[-56.596528,-26.670678],[-56.595214,-26.670467],[-56.594521,-26.670941],[-56.593345,-26.670938],[-56.591712,-26.669753],[-56.591416,-26.668674],[-56.591813,-26.667205],[-56.591239,-26.666685],[-56.589118,-26.666576],[-56.586886,-26.66516],[-56.586402,-26.665262],[-56.586559,-26.666464],[-56.586074,-26.666712],[-56.584577,-26.666003],[-56.582504,-26.665603],[-56.581124,-26.664522],[-56.581103,-26.664025],[-56.581703,-26.663757],[-56.583429,-26.664757],[-56.584167,-26.664779],[-56.584446,-26.664138],[-56.584286,-26.66362],[-56.583758,-26.663059],[-56.581686,-26.662245],[-56.581641,-26.661892],[-56.58185,-26.661562],[-56.584158,-26.660802],[-56.584991,-26.660121],[-56.585361,-26.65977],[-56.585435,-26.658465],[-56.584927,-26.658525],[-56.583447,-26.659681],[-56.582594,-26.659679],[-56.582227,-26.659284],[-56.582738,-26.658146],[-56.582556,-26.657565],[-56.581129,-26.65696],[-56.580304,-26.655529],[-56.579682,-26.65534],[-56.578874,-26.655669],[-56.579194,-26.656395],[-56.579769,-26.656811],[-56.579398,-26.657328],[-56.577115,-26.657384],[-56.576192,-26.657712],[-56.575687,-26.657027],[-56.575341,-26.656985],[-56.574091,-26.658431],[-56.573144,-26.658801],[-56.573148,-26.657683],[-56.574261,-26.656174],[-56.573801,-26.655903],[-56.572392,-26.656396],[-56.571932,-26.656208],[-56.571065,-26.653864],[-56.571297,-26.653409],[-56.572891,-26.652606],[-56.573493,-26.651966],[-56.573634,-26.651034],[-56.572716,-26.650016],[-56.572024,-26.650055],[-56.572526,-26.651549],[-56.572409,-26.652004],[-56.571577,-26.652519],[-56.570978,-26.65231],[-56.571259,-26.651338],[-56.570962,-26.650487],[-56.570133,-26.650133],[-56.569741,-26.650173],[-56.569232,-26.650772],[-56.568587,-26.650667],[-56.567924,-26.649214],[-56.567302,-26.649026],[-56.566932,-26.649191],[-56.566789,-26.650599],[-56.565449,-26.651341],[-56.564065,-26.651399],[-56.563952,-26.65086],[-56.564714,-26.650406],[-56.564716,-26.650095],[-56.564163,-26.649804],[-56.56271,-26.650006],[-56.560976,-26.651285],[-56.5601,-26.651221],[-56.560125,-26.650703],[-56.561375,-26.649588],[-56.561168,-26.649235],[-56.559901,-26.649107],[-56.55965,-26.648298],[-56.558961,-26.647757],[-56.559519,-26.64662],[-56.559289,-26.646267],[-56.557656,-26.645288],[-56.557288,-26.645183],[-56.55611,-26.645635],[-56.555835,-26.645282],[-56.555521,-26.643148],[-56.55631,-26.6417],[-56.55599,-26.640974],[-56.554861,-26.640846],[-56.554233,-26.642336],[-56.553149,-26.642394],[-56.552189,-26.640361],[-56.551912,-26.64036],[-56.551332,-26.641187],[-56.550665,-26.641019],[-56.55039,-26.640521],[-56.550769,-26.638016],[-56.550403,-26.63729],[-56.548628,-26.637242],[-56.547584,-26.638959],[-56.547007,-26.638978],[-56.546709,-26.638687],[-56.547289,-26.637756],[-56.547109,-26.636616],[-56.546326,-26.636282],[-56.544252,-26.636296],[-56.543447,-26.635797],[-56.543267,-26.634594],[-56.543776,-26.634182],[-56.544167,-26.634328],[-56.545015,-26.635553],[-56.545568,-26.635783],[-56.546284,-26.635412],[-56.545875,-26.633836],[-56.547057,-26.632224],[-56.546483,-26.631539],[-56.543457,-26.633145],[-56.542512,-26.633266],[-56.541522,-26.632828],[-56.54157,-26.632352],[-56.544252,-26.630454],[-56.544438,-26.629958],[-56.54421,-26.629315],[-56.543012,-26.629249],[-56.54183,-26.630716],[-56.541461,-26.630797],[-56.540749,-26.630319],[-56.539579,-26.62874],[-56.538819,-26.628759],[-56.538148,-26.629337],[-56.537112,-26.629064],[-56.536199,-26.626844],[-56.533065,-26.626503],[-56.532694,-26.627164],[-56.53384,-26.628701],[-56.5337,-26.629177],[-56.532433,-26.628883],[-56.530203,-26.627508],[-56.526788,-26.628408],[-56.526328,-26.628138],[-56.526242,-26.62648],[-56.525714,-26.62596],[-56.525392,-26.625959],[-56.525159,-26.626559],[-56.525428,-26.6283],[-56.524713,-26.628422],[-56.524234,-26.627219],[-56.524446,-26.625998],[-56.524241,-26.625417],[-56.523711,-26.625581],[-56.522828,-26.627235],[-56.522459,-26.627234],[-56.521173,-26.62609],[-56.520182,-26.626149],[-56.518409,-26.625563],[-56.51714,-26.625869],[-56.516121,-26.626964],[-56.515406,-26.627251],[-56.514922,-26.627043],[-56.515366,-26.625718],[-56.515045,-26.625365],[-56.511559,-26.626534],[-56.511008,-26.625973],[-56.510828,-26.625081],[-56.511891,-26.62436],[-56.511685,-26.62409],[-56.510349,-26.623878],[-56.510051,-26.623442],[-56.510729,-26.621248],[-56.51032,-26.619838],[-56.50979,-26.619774],[-56.507291,-26.622148],[-56.506737,-26.622291],[-56.506461,-26.622166],[-56.506395,-26.621461],[-56.507275,-26.620429],[-56.507232,-26.619745],[-56.506656,-26.619577],[-56.50513,-26.620898],[-56.504138,-26.621018],[-56.503311,-26.620353],[-56.5029,-26.619564],[-56.502517,-26.617491],[-56.501734,-26.61724],[-56.500461,-26.618457],[-56.49864,-26.618534],[-56.498592,-26.619031],[-56.499509,-26.620153],[-56.499276,-26.620732],[-56.498055,-26.620603],[-56.497023,-26.61946],[-56.496235,-26.620307],[-56.494529,-26.62055],[-56.494566,-26.622435],[-56.495093,-26.623224],[-56.494999,-26.623638],[-56.494514,-26.623823],[-56.492421,-26.622966],[-56.491847,-26.622467],[-56.491368,-26.621139],[-56.49077,-26.62095],[-56.490493,-26.621032],[-56.48868,-26.624548],[-56.487986,-26.625001],[-56.487388,-26.624792],[-56.488299,-26.62206],[-56.488281,-26.620962],[-56.487732,-26.620028],[-56.487134,-26.619715],[-56.486512,-26.619651],[-56.48568,-26.620145],[-56.48701,-26.621724],[-56.487005,-26.622739],[-56.486636,-26.622821],[-56.484774,-26.621633],[-56.484175,-26.621548],[-56.483782,-26.621899],[-56.484007,-26.623122],[-56.483429,-26.623514],[-56.480369,-26.622301],[-56.479979,-26.621844],[-56.478551,-26.621548],[-56.477518,-26.620737],[-56.474385,-26.620269],[-56.473298,-26.621053],[-56.472722,-26.62103],[-56.47151,-26.619099],[-56.472159,-26.618127],[-56.473269,-26.617324],[-56.47346,-26.616061],[-56.472839,-26.615768],[-56.47164,-26.615909],[-56.469547,-26.614844],[-56.469134,-26.614408],[-56.468523,-26.61194],[-56.467901,-26.611876],[-56.466673,-26.61328],[-56.466305,-26.613299],[-56.465595,-26.61224],[-56.465272,-26.612239],[-56.464276,-26.613354],[-56.46317,-26.61335],[-56.463196,-26.61279],[-56.463959,-26.612213],[-56.463732,-26.611529],[-56.462626,-26.611359],[-56.461656,-26.611769],[-56.461338,-26.610753],[-56.46028,-26.610273],[-56.459432,-26.609399],[-56.457359,-26.609164],[-56.456554,-26.608663],[-56.456557,-26.608063],[-56.457136,-26.607568],[-56.459071,-26.607803],[-56.458776,-26.606828],[-56.45952,-26.605298],[-56.460271,-26.6024],[-56.460322,-26.601448],[-56.459519,-26.600699],[-56.458665,-26.600841],[-56.459302,-26.602604],[-56.459068,-26.603494],[-56.458607,-26.603451],[-56.458179,-26.601295],[-56.457673,-26.601085],[-56.457303,-26.601374],[-56.457457,-26.60297],[-56.456993,-26.60361],[-56.456026,-26.603524],[-56.45624,-26.601991],[-56.455736,-26.601513],[-56.455113,-26.601614],[-56.453934,-26.602376],[-56.453447,-26.60312],[-56.453255,-26.60457],[-56.452886,-26.604734],[-56.452356,-26.604753],[-56.450034,-26.60348],[-56.446629,-26.602369],[-56.445335,-26.60311],[-56.445078,-26.60373],[-56.445489,-26.604477],[-56.447125,-26.604525],[-56.445918,-26.606447],[-56.44709,-26.607197],[-56.447134,-26.607591],[-56.446117,-26.608209],[-56.44356,-26.608012],[-56.441645,-26.608461],[-56.440901,-26.609763],[-56.440463,-26.609823],[-56.44014,-26.609718],[-56.440562,-26.608353],[-56.438998,-26.607684],[-56.438379,-26.606956],[-56.438404,-26.606521],[-56.438915,-26.605715],[-56.4394,-26.605593],[-56.441214,-26.606864],[-56.441861,-26.606597],[-56.440634,-26.602946],[-56.439784,-26.602549],[-56.439617,-26.603564],[-56.438786,-26.603954],[-56.437845,-26.603142],[-56.43723,-26.601545],[-56.435921,-26.60069],[-56.436109,-26.599987],[-56.437879,-26.600843],[-56.43834,-26.600803],[-56.438573,-26.600348],[-56.436988,-26.599244],[-56.436998,-26.597318],[-56.436722,-26.597047],[-56.434285,-26.596022],[-56.434051,-26.596788],[-56.433588,-26.597097],[-56.432187,-26.596201],[-56.430987,-26.596589],[-56.429414,-26.597702],[-56.429074,-26.596623],[-56.427901,-26.596225],[-56.426754,-26.59506],[-56.426384,-26.595431],[-56.426634,-26.596178],[-56.426401,-26.596695],[-56.424973,-26.596503],[-56.423451,-26.596725],[-56.422095,-26.595911],[-56.421517,-26.596303],[-56.420773,-26.597729],[-56.420034,-26.597975],[-56.419759,-26.597746],[-56.419654,-26.595736],[-56.418136,-26.595129],[-56.417562,-26.594588],[-56.416686,-26.59475],[-56.415596,-26.59603],[-56.414767,-26.595944],[-56.414105,-26.594739],[-56.414847,-26.593789],[-56.414022,-26.592916],[-56.414006,-26.591673],[-56.413154,-26.591441],[-56.41186,-26.592203],[-56.412339,-26.593033],[-56.412011,-26.594192],[-56.412352,-26.595167],[-56.410786,-26.594933],[-56.410684,-26.596921],[-56.410219,-26.597541],[-56.408628,-26.597783],[-56.407779,-26.597033],[-56.406858,-26.596988],[-56.405658,-26.597377],[-56.405078,-26.598037],[-56.40519,-26.598721],[-56.40671,-26.598935],[-56.406754,-26.599287],[-56.40571,-26.600567],[-56.40637,-26.602207],[-56.405688,-26.604835],[-56.406447,-26.605086],[-56.407259,-26.604158],[-56.408691,-26.603459],[-56.409404,-26.60369],[-56.409907,-26.604521],[-56.410033,-26.606966],[-56.409036,-26.608142],[-56.407859,-26.608365],[-56.407448,-26.607659],[-56.406277,-26.606888],[-56.406074,-26.606059],[-56.404578,-26.605576],[-56.404067,-26.606423],[-56.405075,-26.607608],[-56.405003,-26.608105],[-56.403897,-26.608121],[-56.403133,-26.608698],[-56.402049,-26.608859],[-56.400894,-26.609434],[-56.400641,-26.60935],[-56.400552,-26.608625],[-56.399031,-26.608701],[-56.397011,-26.607243],[-56.396644,-26.606827],[-56.396696,-26.605605],[-56.395939,-26.605001],[-56.395669,-26.603777],[-56.395278,-26.603734],[-56.39428,-26.604994],[-56.393151,-26.604989],[-56.391372,-26.605727],[-56.391323,-26.606245],[-56.392122,-26.607843],[-56.391426,-26.60869],[-56.391307,-26.609373],[-56.392843,-26.610912],[-56.392379,-26.611449],[-56.390694,-26.612043],[-56.390395,-26.611793],[-56.389902,-26.609139],[-56.389373,-26.609033],[-56.388311,-26.609422],[-56.387953,-26.611658],[-56.387653,-26.61174],[-56.387286,-26.611489],[-56.387061,-26.61039],[-56.386693,-26.610285],[-56.384406,-26.611208],[-56.383162,-26.611182],[-56.382887,-26.610849],[-56.383005,-26.610394],[-56.384046,-26.60959],[-56.384003,-26.609072],[-56.383797,-26.608719],[-56.382877,-26.608487],[-56.382057,-26.610928],[-56.381709,-26.611279],[-56.380764,-26.61142],[-56.380282,-26.610941],[-56.38059,-26.609472],[-56.380087,-26.608641],[-56.377438,-26.608443],[-56.376336,-26.60763],[-56.373203,-26.607388],[-56.372901,-26.607884],[-56.372822,-26.609686],[-56.374244,-26.610998],[-56.374333,-26.611516],[-56.374055,-26.611888],[-56.372024,-26.612293],[-56.371652,-26.612933],[-56.372172,-26.614738],[-56.373483,-26.61522],[-56.373572,-26.615842],[-56.373317,-26.616152],[-56.372328,-26.615775],[-56.371843,-26.615917],[-56.371239,-26.616826],[-56.370685,-26.616927],[-56.370186,-26.615579],[-56.370357,-26.613819],[-56.368821,-26.612258],[-56.368015,-26.612234],[-56.367896,-26.612751],[-56.368904,-26.613916],[-56.369014,-26.614807],[-56.368505,-26.615178],[-56.366961,-26.615233],[-56.366773,-26.615854],[-56.367482,-26.616913],[-56.36741,-26.617307],[-56.36609,-26.61844],[-56.366478,-26.619146],[-56.36818,-26.619837],[-56.368501,-26.620232],[-56.368244,-26.62077],[-56.36776,-26.620768],[-56.365784,-26.619619],[-56.365369,-26.619742],[-56.364926,-26.620672],[-56.364557,-26.620588],[-56.363849,-26.619528],[-56.362577,-26.620351],[-56.361632,-26.620326],[-56.360049,-26.618869],[-56.36036,-26.616985],[-56.359836,-26.615802],[-56.358759,-26.61474],[-56.355816,-26.613505],[-56.354915,-26.613853],[-56.354792,-26.61522],[-56.354164,-26.616253],[-56.354455,-26.617849],[-56.354032,-26.619214],[-56.351095,-26.620983],[-56.350081,-26.621019],[-56.349414,-26.620644],[-56.348661,-26.619294],[-56.348831,-26.617741],[-56.351282,-26.616467],[-56.351154,-26.614561],[-56.34999,-26.612608],[-56.349047,-26.612273],[-56.348262,-26.612435],[-56.348434,-26.614611],[-56.347879,-26.615085],[-56.346572,-26.613856],[-56.344152,-26.613804],[-56.342567,-26.612885],[-56.340105,-26.612293],[-56.339403,-26.610053],[-56.339036,-26.609761],[-56.337768,-26.609776],[-56.337702,-26.609237],[-56.33847,-26.607998],[-56.3371,-26.605858],[-56.337889,-26.604784],[-56.339366,-26.60448],[-56.339323,-26.603983],[-56.338471,-26.603772],[-56.337833,-26.602567],[-56.336935,-26.602397],[-56.337311,-26.601115],[-56.335387,-26.599158],[-56.334772,-26.597912],[-56.333368,-26.597595],[-56.331916,-26.597671],[-56.332155,-26.596181],[-56.330823,-26.595304],[-56.331218,-26.594871],[-56.332463,-26.594732],[-56.332534,-26.594422],[-56.331593,-26.593796],[-56.331459,-26.593049],[-56.33335,-26.592727],[-56.333492,-26.592085],[-56.331976,-26.591249],[-56.330443,-26.589461],[-56.330792,-26.588862],[-56.331963,-26.589509],[-56.332802,-26.587918],[-56.334627,-26.58716],[-56.334792,-26.586436],[-56.333599,-26.585498],[-56.334987,-26.584531],[-56.335222,-26.58389],[-56.335178,-26.583413],[-56.334165,-26.583263],[-56.333959,-26.582993],[-56.334542,-26.581836],[-56.334247,-26.581068],[-56.331992,-26.58056],[-56.331674,-26.579709],[-56.331883,-26.579441],[-56.3352,-26.57956],[-56.336607,-26.579318],[-56.338456,-26.578436],[-56.339104,-26.577796],[-56.339226,-26.576741],[-56.338974,-26.576366],[-56.33619,-26.575691],[-56.335917,-26.57513],[-56.337557,-26.574371],[-56.337812,-26.574103],[-56.337796,-26.572922],[-56.338977,-26.571912],[-56.338951,-26.56837],[-56.338166,-26.568698],[-56.337043,-26.567636],[-56.336674,-26.567696],[-56.336323,-26.568668],[-56.33584,-26.568583],[-56.33559,-26.567919],[-56.334486,-26.567603],[-56.334059,-26.565861],[-56.337562,-26.565484],[-56.338053,-26.564347],[-56.339346,-26.563752],[-56.33903,-26.562632],[-56.339703,-26.561806],[-56.339454,-26.561018],[-56.339155,-26.560892],[-56.339059,-26.561575],[-56.338806,-26.561616],[-56.337684,-26.56043],[-56.337164,-26.558563],[-56.336132,-26.557833],[-56.33512,-26.557559],[-56.335123,-26.557],[-56.335541,-26.556504],[-56.336302,-26.556259],[-56.336875,-26.556863],[-56.337542,-26.556969],[-56.339558,-26.554907],[-56.340373,-26.553461],[-56.340352,-26.553067],[-56.339961,-26.552982],[-56.338392,-26.553452],[-56.338071,-26.553181],[-56.337689,-26.551522],[-56.33773,-26.55103],[-56.339028,-26.549544],[-56.340903,-26.549415],[-56.340966,-26.549001],[-56.340142,-26.548113],[-56.339414,-26.54659],[-56.339446,-26.546259],[-56.340341,-26.545656],[-56.340568,-26.543475],[-56.338484,-26.542719],[-56.338797,-26.541643],[-56.338462,-26.541117],[-56.337233,-26.54136],[-56.33619,-26.541024],[-56.336039,-26.540581],[-56.337394,-26.539952],[-56.337767,-26.539263],[-56.338049,-26.53827],[-56.337775,-26.537882],[-56.33458,-26.538116],[-56.334836,-26.536322],[-56.334226,-26.535518],[-56.33429,-26.535048],[-56.335889,-26.534752],[-56.336935,-26.534343],[-56.337029,-26.533984],[-56.336326,-26.533428],[-56.335811,-26.53221],[-56.334802,-26.53146],[-56.334626,-26.530023],[-56.333739,-26.529466],[-56.333712,-26.528886],[-56.334392,-26.528061],[-56.334366,-26.527287],[-56.332743,-26.526534],[-56.332286,-26.525896],[-56.330949,-26.523459],[-56.330163,-26.521246],[-56.33023,-26.520417],[-56.331425,-26.520782],[-56.332259,-26.519902],[-56.333758,-26.520793],[-56.335171,-26.520827],[-56.334997,-26.518948],[-56.336263,-26.517711],[-56.336427,-26.515916],[-56.335019,-26.515247],[-56.334898,-26.514832],[-56.335458,-26.513592],[-56.334939,-26.513037],[-56.333063,-26.513608],[-56.331414,-26.512081],[-56.328498,-26.511985],[-56.327547,-26.511759],[-56.327028,-26.511315],[-56.327003,-26.510348],[-56.328111,-26.509939],[-56.328481,-26.509499],[-56.328428,-26.508173],[-56.328706,-26.507842],[-56.330119,-26.507683],[-56.330397,-26.507381],[-56.329157,-26.504171],[-56.329235,-26.501298],[-56.328511,-26.499113],[-56.329069,-26.498259],[-56.328979,-26.497817],[-56.328736,-26.497484],[-56.327663,-26.497231],[-56.326186,-26.497721],[-56.325972,-26.497582],[-56.326561,-26.496645],[-56.325275,-26.496059],[-56.325125,-26.495479],[-56.326084,-26.49424],[-56.327307,-26.494992],[-56.328374,-26.496295],[-56.329203,-26.496299],[-56.329216,-26.494117],[-56.330143,-26.492906],[-56.33006,-26.491469],[-56.330461,-26.491139],[-56.331965,-26.491036],[-56.332912,-26.491924],[-56.334359,-26.49124],[-56.336106,-26.491691],[-56.335684,-26.490252],[-56.336362,-26.489758],[-56.336489,-26.489013],[-56.33585,-26.488043],[-56.335914,-26.487574],[-56.336869,-26.487026],[-56.338477,-26.485072],[-56.339212,-26.485297],[-56.339115,-26.486208],[-56.339421,-26.486292],[-56.340281,-26.486268],[-56.341759,-26.485474],[-56.342591,-26.484787],[-56.343919,-26.482826],[-56.343896,-26.482004],[-56.343684,-26.481561],[-56.343285,-26.481504],[-56.342087,-26.481774],[-56.340789,-26.483232],[-56.340452,-26.483176],[-56.340827,-26.48199],[-56.338739,-26.482118],[-56.338342,-26.481785],[-56.338837,-26.481096],[-56.338782,-26.479991],[-56.339371,-26.478862],[-56.336736,-26.478076],[-56.337423,-26.476146],[-56.337395,-26.475648],[-56.336785,-26.474872],[-56.337989,-26.4738],[-56.337141,-26.471669],[-56.337454,-26.470594],[-56.337093,-26.469377],[-56.33777,-26.469159],[-56.339119,-26.469331],[-56.339521,-26.468891],[-56.338038,-26.46521],[-56.338165,-26.464465],[-56.339191,-26.462122],[-56.340171,-26.462458],[-56.340627,-26.463233],[-56.341612,-26.462713],[-56.34327,-26.46261],[-56.342721,-26.461889],[-56.343429,-26.461644],[-56.343646,-26.461148],[-56.342576,-26.460563],[-56.342301,-26.46023],[-56.342488,-26.459789],[-56.343284,-26.460152],[-56.344605,-26.459882],[-56.345801,-26.460081],[-56.34617,-26.459834],[-56.346112,-26.459309],[-56.345013,-26.458171],[-56.344833,-26.457452],[-56.343209,-26.457113],[-56.342231,-26.45639],[-56.342233,-26.456004],[-56.344047,-26.455377],[-56.34411,-26.455156],[-56.34307,-26.454488],[-56.343288,-26.454047],[-56.344699,-26.454054],[-56.344885,-26.453806],[-56.344067,-26.451896],[-56.344223,-26.451455],[-56.345268,-26.451129],[-56.347457,-26.449398],[-56.347338,-26.448597],[-56.345281,-26.448781],[-56.344486,-26.448418],[-56.34587,-26.447844],[-56.34603,-26.44663],[-56.347784,-26.445781],[-56.348915,-26.446532],[-56.349498,-26.446535],[-56.351003,-26.446348],[-56.353677,-26.445449],[-56.353373,-26.445033],[-56.351841,-26.444612],[-56.351233,-26.443504],[-56.351213,-26.441626],[-56.350355,-26.441374],[-56.350449,-26.441015],[-56.351926,-26.440414],[-56.351958,-26.440138],[-56.351256,-26.439499],[-56.351814,-26.43848],[-56.351757,-26.437623],[-56.350594,-26.437066],[-56.350535,-26.436706],[-56.351738,-26.435634],[-56.351982,-26.435856],[-56.351822,-26.436905],[-56.352065,-26.437431],[-56.353078,-26.437381],[-56.35345,-26.436609],[-56.353454,-26.436029],[-56.352478,-26.434947],[-56.352176,-26.434007],[-56.351821,-26.431768],[-56.351916,-26.431243],[-56.352531,-26.430887],[-56.35226,-26.430057],[-56.352475,-26.429892],[-56.354129,-26.430397],[-56.354929,-26.430014],[-56.354779,-26.429378],[-56.352909,-26.429204],[-56.353957,-26.428325],[-56.353902,-26.427192],[-56.354859,-26.426008],[-56.355165,-26.426231],[-56.35476,-26.427279],[-56.355032,-26.427998],[-56.355646,-26.428028],[-56.355499,-26.426785],[-56.355714,-26.426703],[-56.357212,-26.427676],[-56.35804,-26.427763],[-56.357954,-26.426658],[-56.357344,-26.426075],[-56.35732,-26.424832],[-56.357692,-26.424115],[-56.358676,-26.423733],[-56.359232,-26.423155],[-56.358343,-26.422875],[-56.358319,-26.421825],[-56.357769,-26.421353],[-56.358184,-26.418372],[-56.359597,-26.41813],[-56.359757,-26.416943],[-56.360283,-26.416172],[-56.361139,-26.416645],[-56.361746,-26.417891],[-56.362144,-26.417865],[-56.362273,-26.416733],[-56.363849,-26.414668],[-56.364125,-26.414669],[-56.364411,-26.41572],[-56.367269,-26.414863],[-56.36836,-26.413086],[-56.367808,-26.413063],[-56.366281,-26.414548],[-56.365319,-26.413694],[-56.365598,-26.413302],[-56.366864,-26.413204],[-56.366455,-26.41227],[-56.367746,-26.411758],[-56.367296,-26.409912],[-56.366675,-26.409868],[-56.365588,-26.410795],[-56.36497,-26.410192],[-56.364973,-26.409715],[-56.365321,-26.409282],[-56.367646,-26.409002],[-56.367605,-26.407966],[-56.368385,-26.408404],[-56.369146,-26.408076],[-56.369562,-26.407664],[-56.369636,-26.406815],[-56.369488,-26.406595],[-56.368119,-26.406523],[-56.368924,-26.405779],[-56.368664,-26.405345],[-56.368154,-26.405382],[-56.367655,-26.405931],[-56.367146,-26.405889],[-56.367016,-26.405626],[-56.36766,-26.40513],[-56.367603,-26.404881],[-56.366556,-26.404482],[-56.36646,-26.403432],[-56.364623,-26.403621],[-56.364655,-26.402965],[-56.363666,-26.402659],[-56.363497,-26.401569],[-56.361956,-26.400945],[-56.362193,-26.400382],[-56.361544,-26.39908],[-56.362847,-26.397918],[-56.362327,-26.397063],[-56.36274,-26.396199],[-56.361474,-26.395891],[-56.360379,-26.396306],[-56.35942,-26.395817],[-56.359423,-26.395331],[-56.360705,-26.395297],[-56.36078,-26.394891],[-56.358801,-26.394475],[-56.357554,-26.393473],[-56.358561,-26.393083],[-56.358332,-26.392348],[-56.35733,-26.391805],[-56.358252,-26.391101],[-56.357216,-26.388721],[-56.356357,-26.388573],[-56.355704,-26.388032],[-56.355441,-26.38828],[-56.355554,-26.388792],[-56.35444,-26.390008],[-56.354092,-26.389717],[-56.354184,-26.38893],[-56.353791,-26.388889],[-56.352603,-26.390354],[-56.35199,-26.390587],[-56.351412,-26.389731],[-56.350433,-26.390199],[-56.34956,-26.389867],[-56.349696,-26.389107],[-56.349466,-26.388581],[-56.348564,-26.388367],[-56.348759,-26.387279],[-56.348498,-26.387174],[-56.347815,-26.387813],[-56.347126,-26.387869],[-56.346213,-26.387061],[-56.345982,-26.387207],[-56.346109,-26.388049],[-56.345789,-26.388144],[-56.345307,-26.387787],[-56.344697,-26.388471],[-56.34434,-26.387849],[-56.343299,-26.387918],[-56.343688,-26.387211],[-56.343336,-26.387047],[-56.342565,-26.387221],[-56.341389,-26.387931],[-56.34119,-26.388344],[-56.340739,-26.388416],[-56.34066,-26.386445],[-56.339485,-26.386934],[-56.339356,-26.388084],[-56.337392,-26.387514],[-56.337102,-26.386701],[-56.337569,-26.386644],[-56.338272,-26.387054],[-56.338906,-26.386547],[-56.338164,-26.3843],[-56.337597,-26.384733],[-56.337419,-26.385765],[-56.336552,-26.385414],[-56.336291,-26.386496],[-56.334475,-26.387117],[-56.333068,-26.385061],[-56.331018,-26.384215],[-56.330787,-26.384499],[-56.330928,-26.386441],[-56.330539,-26.386579],[-56.328026,-26.38438],[-56.328164,-26.383996],[-56.329255,-26.383546],[-56.328872,-26.382495],[-56.328367,-26.382475],[-56.327061,-26.383344],[-56.327208,-26.384779],[-56.326877,-26.384917],[-56.326009,-26.383811],[-56.326246,-26.383112],[-56.325452,-26.382741],[-56.325126,-26.38197],[-56.323999,-26.382087],[-56.323343,-26.381367],[-56.322564,-26.381678],[-56.322337,-26.380627],[-56.319369,-26.380053],[-56.319255,-26.37951],[-56.319766,-26.378498],[-56.319456,-26.378321],[-56.318173,-26.37856],[-56.318178,-26.377703],[-56.314794,-26.378492],[-56.312915,-26.377538],[-56.312681,-26.377799],[-56.312967,-26.378623],[-56.312788,-26.379287],[-56.311952,-26.37944],[-56.311742,-26.378932],[-56.312213,-26.377954],[-56.310622,-26.377754],[-56.310586,-26.377247],[-56.312629,-26.376592],[-56.312825,-26.376295],[-56.312577,-26.375647],[-56.312131,-26.375557],[-56.311757,-26.376308],[-56.310926,-26.375569],[-56.310485,-26.374622],[-56.309277,-26.375246],[-56.308956,-26.37367],[-56.308277,-26.373649],[-56.306767,-26.372697],[-56.305932,-26.372728],[-56.305984,-26.373743],[-56.304666,-26.373352],[-56.30408,-26.373926],[-56.302466,-26.374146],[-56.301924,-26.373863],[-56.302006,-26.373129],[-56.301367,-26.372881],[-56.300704,-26.373315],[-56.300466,-26.374118],[-56.299629,-26.374359],[-56.29897,-26.374181],[-56.298664,-26.373357],[-56.298354,-26.373251],[-56.297867,-26.373546],[-56.297355,-26.374558],[-56.296675,-26.37473],[-56.29619,-26.374587],[-56.295866,-26.373519],[-56.2954,-26.373499],[-56.294462,-26.374491],[-56.293898,-26.374524],[-56.293905,-26.373404],[-56.292214,-26.373676],[-56.292085,-26.37252],[-56.291678,-26.372378],[-56.289241,-26.373766],[-56.288868,-26.374534],[-56.289308,-26.375516],[-56.288139,-26.376227],[-56.287745,-26.37703],[-56.284886,-26.377646],[-56.283841,-26.377098],[-56.281454,-26.376719],[-56.281296,-26.37712],[-56.282086,-26.378209],[-56.280995,-26.378693],[-56.280299,-26.381262],[-56.278881,-26.381342],[-56.278806,-26.380957],[-56.279548,-26.380208],[-56.276931,-26.379495],[-56.276679,-26.379301],[-56.277015,-26.378411],[-56.275264,-26.378],[-56.273148,-26.379089],[-56.272474,-26.380566],[-56.271501,-26.380981],[-56.269345,-26.380013],[-56.267266,-26.380553],[-56.266307,-26.380129],[-56.265583,-26.380274],[-56.265095,-26.380854],[-56.265297,-26.381676],[-56.264803,-26.382721],[-56.26323,-26.383201],[-56.263948,-26.384184],[-56.263442,-26.385035],[-56.262029,-26.38537],[-56.261256,-26.385886],[-56.260055,-26.390434],[-56.24998,-26.391672],[-56.245257,-26.395877],[-56.242764,-26.399202],[-56.23717,-26.404181],[-56.236545,-26.40529],[-56.230832,-26.4096],[-56.224888,-26.411348],[-56.221547,-26.411887],[-56.218699,-26.412761],[-56.216591,-26.413752],[-56.216523,-26.415449],[-56.215108,-26.41964],[-56.213071,-26.42258],[-56.210641,-26.427787],[-56.200779,-26.432045],[-56.198502,-26.433167],[-56.19736,-26.434295],[-56.196607,-26.433837],[-56.195845,-26.434627],[-56.193567,-26.435863],[-56.184984,-26.437517],[-56.155267,-26.460888],[-56.155276,-26.464784],[-56.153665,-26.464707],[-56.152136,-26.46519],[-56.149459,-26.468288],[-56.147701,-26.469131],[-56.147492,-26.470556],[-56.145291,-26.471681],[-56.144645,-26.472408],[-56.14414,-26.473963],[-56.144278,-26.475219],[-56.143917,-26.476815],[-56.14327,-26.477398],[-56.142922,-26.478357],[-56.143144,-26.480403],[-56.142584,-26.483104],[-56.141423,-26.4846],[-56.141398,-26.485548],[-56.140301,-26.485745],[-56.139467,-26.486697],[-56.139527,-26.487939],[-56.138271,-26.489254],[-56.138392,-26.489864],[-56.136504,-26.492633],[-56.136376,-26.493391],[-56.1358,-26.493834],[-56.133501,-26.49429],[-56.131141,-26.494664],[-56.130287,-26.494546],[-56.129348,-26.495055],[-56.128369,-26.496137],[-56.126535,-26.496491],[-56.12457,-26.497368],[-56.124566,-26.498235],[-56.123273,-26.501987],[-56.122638,-26.502534],[-56.122418,-26.50326],[-56.121509,-26.503304],[-56.121427,-26.503515],[-56.121461,-26.505461],[-56.120727,-26.506879],[-56.121207,-26.507798],[-56.119126,-26.509415],[-56.118561,-26.510802],[-56.116265,-26.511763],[-56.115328,-26.514768],[-56.111765,-26.516619],[-56.110491,-26.517609],[-56.109481,-26.518826],[-56.108784,-26.520424],[-56.107889,-26.521024],[-56.107021,-26.523546],[-56.108186,-26.525278],[-56.108231,-26.526547],[-56.107292,-26.529146],[-56.105755,-26.52947],[-56.105441,-26.529829],[-56.103715,-26.535502],[-56.102849,-26.535663],[-56.099876,-26.53792],[-56.099687,-26.538492],[-56.098954,-26.538596],[-56.098206,-26.541214],[-56.098539,-26.542116],[-56.098298,-26.543277],[-56.098512,-26.544777],[-56.097938,-26.547442],[-56.096909,-26.547598],[-56.09608,-26.548703],[-56.095294,-26.549167],[-56.095496,-26.550112],[-56.094861,-26.550894],[-56.095222,-26.552255],[-56.096043,-26.55333],[-56.095827,-26.554389],[-56.096885,-26.555348],[-56.098946,-26.556522],[-56.099221,-26.556388],[-56.099447,-26.554936],[-56.100149,-26.554606],[-56.100647,-26.554989],[-56.10079,-26.557996],[-56.100264,-26.558051],[-56.098924,-26.557501],[-56.098736,-26.557992],[-56.09882,-26.558299],[-56.100939,-26.559554],[-56.100896,-26.5602],[-56.099924,-26.561128],[-56.100025,-26.561508],[-56.100707,-26.561485],[-56.102217,-26.560352],[-56.102771,-26.560717],[-56.103015,-26.562285],[-56.103405,-26.562066],[-56.10402,-26.56054],[-56.107134,-26.56209],[-56.106023,-26.563139],[-56.105935,-26.563761],[-56.106272,-26.564197],[-56.1076,-26.564467],[-56.107632,-26.564833],[-56.105201,-26.565472],[-56.104901,-26.566328],[-56.105504,-26.566919],[-56.107272,-26.566857],[-56.107934,-26.56809],[-56.109101,-26.569031],[-56.109782,-26.570399],[-56.109307,-26.570838],[-56.108154,-26.570492],[-56.107361,-26.56888],[-56.106819,-26.5688],[-56.1066,-26.569196],[-56.107748,-26.571618],[-56.109727,-26.571911],[-56.110081,-26.572211],[-56.109699,-26.573992],[-56.110971,-26.574532],[-56.11196,-26.577297],[-56.113508,-26.577537],[-56.113244,-26.578474],[-56.111983,-26.578895],[-56.111829,-26.579178],[-56.112658,-26.580307],[-56.113051,-26.58166],[-56.113545,-26.581721],[-56.114374,-26.580891],[-56.114963,-26.580832],[-56.115096,-26.582792],[-56.11486,-26.583283],[-56.113875,-26.583638],[-56.11238,-26.583479],[-56.111996,-26.583833],[-56.112713,-26.584768],[-56.115123,-26.585153],[-56.115584,-26.585643],[-56.115077,-26.587757],[-56.113814,-26.588725],[-56.113804,-26.589149],[-56.115535,-26.590085],[-56.115903,-26.589753],[-56.116104,-26.588405],[-56.116623,-26.588553],[-56.117429,-26.590941],[-56.119127,-26.592071],[-56.119308,-26.593643],[-56.120038,-26.594487],[-56.119744,-26.595858],[-56.121747,-26.595897],[-56.122514,-26.596394],[-56.122456,-26.596814],[-56.121715,-26.597306],[-56.121416,-26.5979],[-56.122304,-26.599702],[-56.12227,-26.600311],[-56.120932,-26.600718],[-56.12067,-26.601064],[-56.120829,-26.601602],[-56.12175,-26.601906],[-56.121714,-26.602158],[-56.121007,-26.602524],[-56.119828,-26.601713],[-56.119057,-26.601794],[-56.119323,-26.602514],[-56.121152,-26.603387],[-56.121113,-26.603811],[-56.119552,-26.604343],[-56.119178,-26.604824],[-56.119225,-26.605168],[-56.120512,-26.605537],[-56.120653,-26.605912],[-56.12035,-26.606312],[-56.118388,-26.60723],[-56.118314,-26.607843],[-56.118937,-26.608673],[-56.1189,-26.609255],[-56.116751,-26.609283],[-56.11607,-26.610709],[-56.116806,-26.612091],[-56.118056,-26.613322],[-56.118187,-26.613905],[-56.116413,-26.61356],[-56.115758,-26.614247],[-56.116324,-26.615266],[-56.117944,-26.615605],[-56.118031,-26.615904],[-56.116989,-26.616949],[-56.116765,-26.617575],[-56.117749,-26.619301],[-56.117295,-26.619985],[-56.115845,-26.620594],[-56.11556,-26.621468],[-56.115776,-26.624354],[-56.116953,-26.62679],[-56.118262,-26.628134],[-56.119234,-26.628551],[-56.120184,-26.628471],[-56.121335,-26.627585],[-56.121952,-26.627728],[-56.121985,-26.628216],[-56.12087,-26.629821],[-56.120978,-26.630463],[-56.121429,-26.630673],[-56.122366,-26.630458],[-56.123497,-26.628636],[-56.124181,-26.628464],[-56.125135,-26.62871],[-56.125359,-26.629325],[-56.125119,-26.630019],[-56.123948,-26.630467],[-56.123996,-26.631032],[-56.124381,-26.631526],[-56.126468,-26.631318],[-56.126932,-26.631768],[-56.126353,-26.632568],[-56.124808,-26.632752],[-56.12471,-26.633126],[-56.125214,-26.633554],[-56.128483,-26.632685],[-56.129492,-26.633241],[-56.130013,-26.634712],[-56.130441,-26.634818],[-56.133317,-26.63336],[-56.133855,-26.633349],[-56.13433,-26.633528],[-56.134867,-26.635292],[-56.135991,-26.635863],[-56.136931,-26.635548],[-56.138946,-26.633836],[-56.138631,-26.633238],[-56.136976,-26.633111],[-56.136978,-26.632691],[-56.137499,-26.63222],[-56.13842,-26.632253],[-56.140909,-26.633907],[-56.14133,-26.63376],[-56.141623,-26.632728],[-56.143945,-26.632512],[-56.145172,-26.633188],[-56.145575,-26.633723],[-56.145089,-26.635164],[-56.1452,-26.635824],[-56.146759,-26.636641],[-56.146692,-26.637079],[-56.145088,-26.63795],[-56.145157,-26.638325],[-56.1458,-26.638627],[-56.146519,-26.638572],[-56.147791,-26.637402],[-56.149453,-26.638418],[-56.149999,-26.638385],[-56.150401,-26.637927],[-56.150443,-26.636537],[-56.151164,-26.636708],[-56.153046,-26.639031],[-56.153763,-26.63885],[-56.154094,-26.637263],[-56.154925,-26.637408],[-56.154437,-26.639396],[-56.155789,-26.639919],[-56.157368,-26.641634],[-56.157138,-26.642017],[-56.15516,-26.642091],[-56.154975,-26.642383],[-56.15523,-26.642922],[-56.156815,-26.643387],[-56.157189,-26.643868],[-56.156562,-26.645512],[-56.156592,-26.64651],[-56.15587,-26.647173],[-56.155761,-26.647674],[-56.157149,-26.648504],[-56.158395,-26.647974],[-56.15887,-26.648383],[-56.158596,-26.64914],[-56.157296,-26.649818],[-56.157669,-26.651513],[-56.156335,-26.652137],[-56.156404,-26.652372],[-56.156986,-26.652593],[-56.159635,-26.65199],[-56.160224,-26.652147],[-56.160551,-26.652632],[-56.160288,-26.653565],[-56.158523,-26.654836],[-56.1586,-26.655446],[-56.161381,-26.657377],[-56.162875,-26.659078],[-56.163818,-26.658592],[-56.164364,-26.656518],[-56.164793,-26.656083],[-56.16526,-26.656199],[-56.165836,-26.657033],[-56.165717,-26.657858],[-56.165076,-26.658775],[-56.165096,-26.659204],[-56.165454,-26.659355],[-56.16629,-26.659198],[-56.167025,-26.658638],[-56.168098,-26.656743],[-56.168783,-26.65691],[-56.169122,-26.657544],[-56.169258,-26.659612],[-56.170383,-26.659835],[-56.171884,-26.659],[-56.172367,-26.659558],[-56.171785,-26.660277],[-56.169798,-26.660654],[-56.169054,-26.661277],[-56.169052,-26.66171],[-56.1715,-26.661381],[-56.172486,-26.661644],[-56.172889,-26.662306],[-56.172585,-26.664019],[-56.172829,-26.66445],[-56.173417,-26.664363],[-56.173826,-26.662456],[-56.1743,-26.662061],[-56.175564,-26.662529],[-56.177327,-26.664936],[-56.177897,-26.664827],[-56.178887,-26.663523],[-56.179176,-26.663818],[-56.179077,-26.664314],[-56.178165,-26.665618],[-56.177257,-26.666155],[-56.17724,-26.666755],[-56.177944,-26.666971],[-56.179923,-26.666346],[-56.181275,-26.667018],[-56.180761,-26.668238],[-56.178739,-26.66856],[-56.178476,-26.668979],[-56.178666,-26.669756],[-56.17991,-26.671343],[-56.180057,-26.672125],[-56.179859,-26.672752],[-56.178555,-26.674252],[-56.178263,-26.675537],[-56.178986,-26.676304],[-56.180861,-26.676563],[-56.181315,-26.676931],[-56.18101,-26.677837],[-56.179992,-26.6784],[-56.180242,-26.678875],[-56.182818,-26.678822],[-56.184094,-26.678062],[-56.184597,-26.678196],[-56.184799,-26.678748],[-56.184296,-26.682189],[-56.183586,-26.682388],[-56.181788,-26.682076],[-56.181387,-26.682294],[-56.181269,-26.682885],[-56.181922,-26.683783],[-56.183214,-26.684526],[-56.183905,-26.684345],[-56.185076,-26.683214],[-56.185532,-26.683298],[-56.185661,-26.683709],[-56.184376,-26.685007],[-56.182053,-26.685887],[-56.182262,-26.686579],[-56.183384,-26.68747],[-56.183217,-26.688115],[-56.182006,-26.689259],[-56.182103,-26.689661],[-56.183133,-26.690358],[-56.183195,-26.691022],[-56.181807,-26.692404],[-56.17897,-26.692871],[-56.178813,-26.693475],[-56.179619,-26.694888],[-56.179676,-26.69627],[-56.177662,-26.69638],[-56.177425,-26.696979],[-56.177631,-26.698244],[-56.176778,-26.699155],[-56.176216,-26.699161],[-56.175703,-26.698567],[-56.176448,-26.696743],[-56.176145,-26.696087],[-56.175279,-26.696231],[-56.174191,-26.697669],[-56.174311,-26.698744],[-56.175928,-26.700067],[-56.17573,-26.70072],[-56.175078,-26.701335],[-56.175153,-26.701832],[-56.177509,-26.702193],[-56.178523,-26.703431],[-56.178397,-26.703828],[-56.176789,-26.70432],[-56.175989,-26.705037],[-56.175596,-26.706033],[-56.175868,-26.707858],[-56.177857,-26.70866],[-56.180259,-26.708488],[-56.180774,-26.70897],[-56.181089,-26.710516],[-56.181665,-26.711137],[-56.182513,-26.71144],[-56.184558,-26.71128],[-56.1855,-26.710672],[-56.185497,-26.709453],[-56.185134,-26.708629],[-56.18357,-26.707343],[-56.18345,-26.706922],[-56.184015,-26.706438],[-56.184859,-26.706321],[-56.186021,-26.70733],[-56.187126,-26.709643],[-56.187662,-26.710179],[-56.188844,-26.710136],[-56.190365,-26.709215],[-56.190981,-26.7092],[-56.191505,-26.709885],[-56.191039,-26.711358],[-56.191738,-26.711678],[-56.192398,-26.711005],[-56.193095,-26.708788],[-56.193526,-26.708564],[-56.194464,-26.708949],[-56.194632,-26.710593],[-56.195306,-26.710908],[-56.196063,-26.710511],[-56.197023,-26.709397],[-56.197241,-26.707416],[-56.198543,-26.707446],[-56.201098,-26.708151],[-56.200782,-26.707459],[-56.199702,-26.706907],[-56.199393,-26.706327],[-56.199535,-26.705037],[-56.200344,-26.70431],[-56.201329,-26.704257],[-56.203587,-26.704992],[-56.205228,-26.705037],[-56.206321,-26.704628],[-56.207427,-26.702937],[-56.207241,-26.702403],[-56.206435,-26.701888],[-56.206543,-26.701334],[-56.207251,-26.701275],[-56.207919,-26.701617],[-56.209223,-26.703272],[-56.212489,-26.703218],[-56.212834,-26.702863],[-56.212707,-26.702135],[-56.211099,-26.701237],[-56.211102,-26.700303],[-56.214735,-26.698824],[-56.215321,-26.697564],[-56.215739,-26.697503],[-56.216052,-26.69764],[-56.217149,-26.700088],[-56.217916,-26.700756],[-56.219256,-26.700732],[-56.220776,-26.6999],[-56.221535,-26.699877],[-56.221628,-26.700645],[-56.221084,-26.701523],[-56.219137,-26.702027],[-56.218877,-26.702607],[-56.219613,-26.703429],[-56.220445,-26.703591],[-56.221934,-26.702358],[-56.222708,-26.702475],[-56.222983,-26.703285],[-56.222697,-26.705021],[-56.222865,-26.705257],[-56.223802,-26.705316],[-56.227501,-26.702727],[-56.228456,-26.702642],[-56.230382,-26.703194],[-56.232897,-26.70165],[-56.233248,-26.700672],[-56.232285,-26.699688],[-56.232275,-26.699038],[-56.233448,-26.698994],[-56.235469,-26.700337],[-56.236346,-26.700441],[-56.236756,-26.700073],[-56.236859,-26.699437],[-56.235767,-26.697666],[-56.235963,-26.696936],[-56.236914,-26.696539],[-56.238903,-26.696848],[-56.239855,-26.694365],[-56.240369,-26.694016],[-56.241452,-26.693959],[-56.24221,-26.694288],[-56.243056,-26.696148],[-56.244436,-26.695965],[-56.245895,-26.695183],[-56.246954,-26.695654],[-56.247131,-26.696291],[-56.246896,-26.697048],[-56.246033,-26.697622],[-56.244343,-26.697725],[-56.243805,-26.698454],[-56.243909,-26.699272],[-56.245058,-26.700776],[-56.246861,-26.700718],[-56.24786,-26.70169],[-56.249819,-26.702621],[-56.252037,-26.702637],[-56.255323,-26.701693],[-56.256381,-26.70103],[-56.257591,-26.699786],[-56.258512,-26.698179],[-56.259315,-26.697723],[-56.260663,-26.697906],[-56.262258,-26.698939],[-56.264847,-26.69912],[-56.265101,-26.699839],[-56.264759,-26.700424],[-56.262576,-26.700598],[-56.262407,-26.701603],[-56.262777,-26.702138],[-56.263897,-26.702667],[-56.266394,-26.701963],[-56.26724,-26.702197],[-56.267071,-26.703465],[-56.265304,-26.704914],[-56.265152,-26.705771],[-56.265963,-26.706326],[-56.267856,-26.705871],[-56.269242,-26.706162],[-56.269298,-26.707223],[-56.268092,-26.708445],[-56.26787,-26.709067],[-56.268253,-26.709656],[-56.269967,-26.710694],[-56.269967,-26.711813],[-56.269189,-26.712915],[-56.270156,-26.713448],[-56.271558,-26.713203],[-56.272811,-26.711539],[-56.274357,-26.71184],[-56.275043,-26.711645],[-56.275203,-26.710766],[-56.274632,-26.709431],[-56.274753,-26.709197],[-56.275506,-26.709142],[-56.276357,-26.709914],[-56.276232,-26.711326],[-56.278001,-26.71361],[-56.279851,-26.715082],[-56.282425,-26.715655],[-56.283525,-26.717132],[-56.283988,-26.718773],[-56.284832,-26.719044],[-56.288442,-26.718683],[-56.290239,-26.71945],[-56.293879,-26.720105],[-56.294511,-26.719548],[-56.294266,-26.718328],[-56.294498,-26.717585],[-56.295455,-26.717251],[-56.295944,-26.717668],[-56.296264,-26.718699],[-56.295598,-26.720637],[-56.295785,-26.721324],[-56.296926,-26.721632],[-56.299728,-26.721362],[-56.301357,-26.722318],[-56.302127,-26.722416]]]}}]}
