{"type":"FeatureCollection","name":"distrito","features":[{"type":"Feature","properties":{"clave":"7-1","nombre":"Alto Verá"},"geometry":{"type":"Polygon","coordinates":[[[-55.763131,-26.773869],[-55.805166,-26.796587],[-55.816257,-26.803022],[-55.843886,-26.817342],[-55.854169,-26.822983],[-55.886579,-26.742424],[-55.883213,-26.741531],[-55.882293,-26.74035],[-55.882038,-26.736728],[-55.883124,-26.734019],[-55.882751,-26.732066],[-55.883676,-26.73043],[-55.882851,-26.728004],[-55.883363,-26.726433],[-55.880252,-26.723993],[-55.879271,-26.723561],[-55.8792,-26.718808],[-55.881652,-26.717719],[-55.883142,-26.716261],[-55.883422,-26.715737],[-55.883264,-26.713563],[-55.883999,-26.711034],[-55.88256,-26.710894],[-55.880568,-26.710021],[-55.87993,-26.706376],[-55.880087,-26.704173],[-55.881245,-26.701957],[-55.880743,-26.696487],[-55.874699,-26.691897],[-55.860364,-26.673143],[-55.841071,-26.650968],[-55.836035,-26.64472],[-55.835991,-26.644508],[-55.837586,-26.643456],[-55.840569,-26.642518],[-55.842796,-26.64111],[-55.843243,-26.640541],[-55.84262,-26.637461],[-55.841536,-26.636739],[-55.841227,-26.635635],[-55.840322,-26.634364],[-55.839744,-26.632224],[-55.838777,-26.631458],[-55.838711,-26.629995],[-55.839848,-26.628452],[-55.841205,-26.62454],[-55.841026,-26.621568],[-55.841695,-26.620829],[-55.841614,-26.620007],[-55.842761,-26.615378],[-55.841959,-26.614641],[-55.842057,-26.613028],[-55.841679,-26.612535],[-55.84084,-26.61237],[-55.839424,-26.612518],[-55.83847,-26.612107],[-55.83694,-26.612107],[-55.833731,-26.608956],[-55.783429,-26.530218],[-55.805336,-26.488273],[-55.806587,-26.487647],[-55.812077,-26.483219],[-55.814848,-26.481762],[-55.816329,-26.48153],[-55.820414,-26.479659],[-55.823176,-26.479077],[-55.825591,-26.47949],[-55.827649,-26.478721],[-55.828291,-26.4779],[-55.830095,-26.478443],[-55.831052,-26.477286],[-55.831616,-26.477508],[-55.832116,-26.477065],[-55.835601,-26.477134],[-55.836992,-26.477552],[-55.838095,-26.477281],[-55.838588,-26.476847],[-55.839631,-26.477045],[-55.841547,-26.476194],[-55.842835,-26.476186],[-55.84324,-26.47605],[-55.845184,-26.473682],[-55.84768,-26.472122],[-55.850471,-26.471273],[-55.852529,-26.471127],[-55.855061,-26.472019],[-55.856392,-26.472084],[-55.861723,-26.471309],[-55.867259,-26.468139],[-55.868729,-26.466246],[-55.870495,-26.46501],[-55.874045,-26.460844],[-55.8769,-26.456456],[-55.87889,-26.45561],[-55.880484,-26.454457],[-55.880871,-26.453689],[-55.880332,-26.452795],[-55.878434,-26.452053],[-55.877656,-26.452408],[-55.876661,-26.454166],[-55.876333,-26.454154],[-55.87581,-26.452769],[-55.877176,-26.452364],[-55.877762,-26.4511],[-55.877415,-26.451102],[-55.876793,-26.451828],[-55.876142,-26.451828],[-55.876046,-26.451421],[-55.876774,-26.450921],[-55.87646,-26.449871],[-55.875382,-26.449985],[-55.874132,-26.449641],[-55.873585,-26.44918],[-55.87333,-26.44833],[-55.872106,-26.448257],[-55.871826,-26.44681],[-55.87327,-26.447219],[-55.873621,-26.447113],[-55.873613,-26.446761],[-55.872695,-26.445246],[-55.871869,-26.444648],[-55.871581,-26.444994],[-55.872297,-26.445423],[-55.872279,-26.445821],[-55.87081,-26.44636],[-55.870245,-26.44617],[-55.869658,-26.444888],[-55.87106,-26.444168],[-55.870318,-26.442844],[-55.869956,-26.442841],[-55.869871,-26.443477],[-55.868895,-26.444941],[-55.867889,-26.444165],[-55.866894,-26.444315],[-55.866994,-26.443355],[-55.865534,-26.442657],[-55.865157,-26.443002],[-55.866127,-26.443515],[-55.866095,-26.443907],[-55.864842,-26.443798],[-55.863318,-26.444138],[-55.863576,-26.44307],[-55.864612,-26.442636],[-55.864758,-26.442308],[-55.862745,-26.442558],[-55.862934,-26.441485],[-55.862471,-26.440177],[-55.86174,-26.440568],[-55.860457,-26.440039],[-55.859134,-26.440958],[-55.857369,-26.439721],[-55.855784,-26.439162],[-55.854944,-26.439819],[-55.8539,-26.43921],[-55.852485,-26.439524],[-55.85131,-26.439081],[-55.85061,-26.439771],[-55.850692,-26.440214],[-55.851641,-26.440984],[-55.852998,-26.441176],[-55.853414,-26.441508],[-55.852658,-26.443872],[-55.852132,-26.444062],[-55.850273,-26.44244],[-55.849699,-26.442535],[-55.849742,-26.442896],[-55.85064,-26.443414],[-55.85087,-26.443885],[-55.850087,-26.446975],[-55.849753,-26.447036],[-55.849097,-26.446507],[-55.84755,-26.446567],[-55.847176,-26.447837],[-55.846216,-26.448425],[-55.845295,-26.447673],[-55.845224,-26.446196],[-55.844602,-26.444814],[-55.842886,-26.443613],[-55.842239,-26.443617],[-55.84255,-26.445086],[-55.841767,-26.44573],[-55.839168,-26.446169],[-55.837351,-26.445383],[-55.837152,-26.444997],[-55.83769,-26.444122],[-55.837476,-26.442802],[-55.837873,-26.440828],[-55.837013,-26.440071],[-55.836545,-26.440447],[-55.836181,-26.442042],[-55.834795,-26.441389],[-55.835807,-26.439579],[-55.835766,-26.439384],[-55.834788,-26.439552],[-55.834512,-26.437993],[-55.835761,-26.438468],[-55.836349,-26.437511],[-55.835807,-26.437114],[-55.834917,-26.437405],[-55.834387,-26.437165],[-55.835608,-26.435329],[-55.835571,-26.434778],[-55.834025,-26.434928],[-55.832604,-26.434668],[-55.832707,-26.433938],[-55.833576,-26.433543],[-55.833501,-26.433136],[-55.832595,-26.432817],[-55.833048,-26.431661],[-55.831667,-26.431839],[-55.831199,-26.431005],[-55.829736,-26.430478],[-55.830013,-26.430016],[-55.830879,-26.430339],[-55.83117,-26.430178],[-55.829901,-26.427983],[-55.829857,-26.427306],[-55.830128,-26.427114],[-55.831173,-26.427601],[-55.83165,-26.427402],[-55.831713,-26.426463],[-55.832299,-26.425895],[-55.832102,-26.425221],[-55.830968,-26.425098],[-55.830933,-26.426127],[-55.830546,-26.426404],[-55.829249,-26.425251],[-55.828247,-26.42732],[-55.825583,-26.42876],[-55.82509,-26.42803],[-55.824375,-26.428028],[-55.821537,-26.426967],[-55.821773,-26.426382],[-55.823407,-26.425831],[-55.825451,-26.424539],[-55.825439,-26.422444],[-55.824068,-26.420239],[-55.823318,-26.420923],[-55.822909,-26.420861],[-55.822861,-26.418347],[-55.821682,-26.417858],[-55.821895,-26.416894],[-55.821585,-26.416381],[-55.819233,-26.415577],[-55.818939,-26.414396],[-55.820402,-26.413654],[-55.821561,-26.41467],[-55.822095,-26.414603],[-55.822146,-26.413763],[-55.820855,-26.41262],[-55.820071,-26.411277],[-55.823202,-26.41045],[-55.823629,-26.410539],[-55.824363,-26.411606],[-55.824747,-26.411636],[-55.825387,-26.410463],[-55.825341,-26.409221],[-55.822399,-26.407775],[-55.820301,-26.405781],[-55.819699,-26.404042],[-55.820742,-26.401419],[-55.818066,-26.399366],[-55.815135,-26.396534],[-55.814731,-26.396671],[-55.814762,-26.397723],[-55.813024,-26.398394],[-55.813024,-26.399374],[-55.812444,-26.39955],[-55.811475,-26.399022],[-55.810749,-26.397576],[-55.810298,-26.397749],[-55.810728,-26.39852],[-55.810531,-26.398766],[-55.807955,-26.397734],[-55.808015,-26.397035],[-55.808784,-26.396797],[-55.808966,-26.396438],[-55.808473,-26.395264],[-55.80704,-26.395794],[-55.806703,-26.397299],[-55.805852,-26.397089],[-55.805742,-26.396763],[-55.806274,-26.396162],[-55.805886,-26.394827],[-55.806796,-26.394659],[-55.807184,-26.394197],[-55.807309,-26.391224],[-55.807038,-26.388951],[-55.805263,-26.387374],[-55.804065,-26.387062],[-55.803047,-26.388836],[-55.80201,-26.389599],[-55.801287,-26.388758],[-55.799195,-26.388646],[-55.79987,-26.389947],[-55.798849,-26.390665],[-55.795345,-26.388988],[-55.795526,-26.391053],[-55.794388,-26.391422],[-55.793867,-26.391341],[-55.793278,-26.390623],[-55.791546,-26.390703],[-55.791162,-26.390822],[-55.790634,-26.39195],[-55.788687,-26.392119],[-55.78762,-26.39104],[-55.78657,-26.391063],[-55.783655,-26.389968],[-55.782002,-26.390916],[-55.781379,-26.390937],[-55.779771,-26.3917],[-55.779726,-26.392368],[-55.778423,-26.393914],[-55.776586,-26.394002],[-55.775042,-26.392648],[-55.774079,-26.392468],[-55.769721,-26.393614],[-55.766044,-26.39383],[-55.765242,-26.390325],[-55.763844,-26.387067],[-55.76301,-26.386193],[-55.763194,-26.384367],[-55.762979,-26.383525],[-55.763316,-26.382048],[-55.762617,-26.380471],[-55.761861,-26.379832],[-55.760668,-26.379984],[-55.758865,-26.381463],[-55.758475,-26.380742],[-55.758118,-26.38073],[-55.756175,-26.383313],[-55.755953,-26.384706],[-55.754332,-26.386294],[-55.75342,-26.386277],[-55.750667,-26.383572],[-55.745681,-26.38291],[-55.743624,-26.380229],[-55.742755,-26.379643],[-55.739634,-26.378903],[-55.737332,-26.379717],[-55.736625,-26.379657],[-55.734961,-26.377485],[-55.734172,-26.374877],[-55.734285,-26.373759],[-55.732522,-26.371658],[-55.732097,-26.370715],[-55.732368,-26.369995],[-55.730818,-26.369174],[-55.729457,-26.36955],[-55.72886,-26.370366],[-55.727537,-26.371099],[-55.726758,-26.37199],[-55.726398,-26.373102],[-55.725919,-26.373387],[-55.722869,-26.373057],[-55.720988,-26.372047],[-55.719949,-26.372372],[-55.720481,-26.367736],[-55.721116,-26.366203],[-55.719392,-26.364486],[-55.717589,-26.36205],[-55.716531,-26.361901],[-55.715741,-26.362738],[-55.714525,-26.362993],[-55.712167,-26.361595],[-55.711078,-26.361766],[-55.711141,-26.362331],[-55.710663,-26.362403],[-55.707198,-26.361144],[-55.705469,-26.361025],[-55.704589,-26.36131],[-55.704032,-26.360696],[-55.703507,-26.360709],[-55.702607,-26.361148],[-55.70234,-26.362066],[-55.701159,-26.363793],[-55.700204,-26.36443],[-55.697534,-26.361702],[-55.695967,-26.361191],[-55.694409,-26.361376],[-55.693756,-26.36118],[-55.692176,-26.359762],[-55.69194,-26.358356],[-55.690753,-26.35969],[-55.690425,-26.360915],[-55.688665,-26.360091],[-55.68809,-26.360871],[-55.688323,-26.361636],[-55.686613,-26.362117],[-55.684603,-26.360821],[-55.683749,-26.359066],[-55.683712,-26.358181],[-55.682667,-26.358271],[-55.680915,-26.358652],[-55.679932,-26.35951],[-55.679559,-26.360544],[-55.678599,-26.36068],[-55.678574,-26.361226],[-55.67714,-26.362359],[-55.676247,-26.362446],[-55.675618,-26.361551],[-55.674964,-26.361612],[-55.674722,-26.36296],[-55.671193,-26.363848],[-55.667652,-26.36553],[-55.667365,-26.366263],[-55.667927,-26.367961],[-55.667274,-26.369436],[-55.667601,-26.36999],[-55.66826,-26.370082],[-55.668193,-26.370478],[-55.666891,-26.37215],[-55.666157,-26.37379],[-55.666354,-26.375038],[-55.663449,-26.377927],[-55.663149,-26.379017],[-55.662256,-26.379193],[-55.661237,-26.378507],[-55.660182,-26.375956],[-55.659353,-26.374901],[-55.659032,-26.373634],[-55.658645,-26.373314],[-55.656662,-26.373638],[-55.655994,-26.373253],[-55.655108,-26.372026],[-55.654413,-26.372205],[-55.653533,-26.372002],[-55.652385,-26.372741],[-55.65171,-26.372757],[-55.651159,-26.373605],[-55.650013,-26.373766],[-55.650271,-26.374477],[-55.649063,-26.374948],[-55.64884,-26.376025],[-55.647469,-26.377154],[-55.646762,-26.378845],[-55.644252,-26.380505],[-55.643345,-26.380663],[-55.641862,-26.381841],[-55.641535,-26.384009],[-55.640691,-26.385256],[-55.637804,-26.387196],[-55.633997,-26.390523],[-55.63269,-26.392207],[-55.654602,-26.481492],[-55.655353,-26.483273],[-55.655943,-26.488181],[-55.654815,-26.490283],[-55.647604,-26.507894],[-55.643327,-26.519403],[-55.634807,-26.533365],[-55.61311,-26.570272],[-55.622911,-26.576338],[-55.643154,-26.588131],[-55.631803,-26.605644],[-55.60816,-26.645734],[-55.588554,-26.680427],[-55.751131,-26.766954],[-55.763131,-26.773869]]]}}]}
