{"type":"FeatureCollection","name":"distrito","features":[{"type":"Feature","properties":{"clave":"2-1","nombre":"25 de Diciembre"},"geometry":{"type":"Polygon","coordinates":[[[-56.702344,-24.879912],[-56.704223,-24.879364],[-56.704647,-24.877866],[-56.705199,-24.877497],[-56.706429,-24.877296],[-56.70747,-24.87644],[-56.710847,-24.876406],[-56.711365,-24.877225],[-56.711091,-24.87908],[-56.711366,-24.879749],[-56.712094,-24.879895],[-56.713881,-24.879379],[-56.714382,-24.879682],[-56.71466,-24.881132],[-56.713946,-24.882282],[-56.714188,-24.883114],[-56.714834,-24.883395],[-56.716322,-24.883041],[-56.717157,-24.883178],[-56.718882,-24.886451],[-56.720094,-24.888079],[-56.723635,-24.890668],[-56.726758,-24.891952],[-56.727475,-24.894084],[-56.728019,-24.894803],[-56.733016,-24.895607],[-56.733495,-24.895287],[-56.73331,-24.892171],[-56.733894,-24.890894],[-56.735597,-24.890383],[-56.735332,-24.889018],[-56.736383,-24.887706],[-56.736299,-24.886735],[-56.737418,-24.88657],[-56.747821,-24.874561],[-56.749103,-24.873426],[-56.756484,-24.870489],[-56.767447,-24.866964],[-56.812222,-24.868367],[-56.834655,-24.875149],[-56.842861,-24.877233],[-56.860323,-24.875747],[-56.949319,-24.843279],[-56.948192,-24.845674],[-56.947729,-24.845998],[-56.946946,-24.847458],[-56.947123,-24.849956],[-56.947798,-24.851871],[-56.95057,-24.855765],[-56.951431,-24.858313],[-56.953135,-24.859569],[-56.953951,-24.861177],[-56.954112,-24.863688],[-56.955651,-24.865273],[-56.956579,-24.867319],[-56.957585,-24.867893],[-56.96082,-24.86811],[-56.962245,-24.868662],[-56.962657,-24.869109],[-56.962722,-24.870346],[-56.963289,-24.870703],[-56.965294,-24.870428],[-56.966519,-24.870948],[-56.967192,-24.870266],[-56.968126,-24.870668],[-56.969518,-24.869598],[-56.970924,-24.870362],[-56.972628,-24.869116],[-56.973063,-24.869156],[-56.973567,-24.86977],[-56.973018,-24.870398],[-56.973063,-24.871193],[-56.974213,-24.871441],[-56.974552,-24.872602],[-56.976271,-24.873849],[-56.976149,-24.874625],[-56.977461,-24.874698],[-56.97782,-24.875289],[-56.978773,-24.875204],[-56.97962,-24.877547],[-56.980058,-24.877909],[-56.981085,-24.878026],[-56.981584,-24.878925],[-56.983023,-24.878519],[-56.983631,-24.878889],[-56.983954,-24.87921],[-56.983712,-24.879729],[-56.984529,-24.881237],[-56.98539,-24.881368],[-56.986169,-24.880948],[-56.986677,-24.881328],[-56.986563,-24.882366],[-56.984806,-24.883229],[-56.984569,-24.885062],[-56.984857,-24.885717],[-56.984339,-24.88569],[-56.983491,-24.884886],[-56.983163,-24.88559],[-56.983768,-24.886493],[-56.984788,-24.886773],[-56.985571,-24.885983],[-56.986438,-24.886936],[-56.985416,-24.887595],[-56.985523,-24.888322],[-56.984578,-24.888291],[-56.984996,-24.888878],[-56.988036,-24.888833],[-56.987728,-24.889858],[-56.987958,-24.890391],[-56.987052,-24.890643],[-56.988593,-24.892025],[-56.98833,-24.892585],[-56.987104,-24.892585],[-56.98822,-24.893493],[-56.987056,-24.893777],[-56.987942,-24.894617],[-56.986314,-24.895312],[-56.986191,-24.895881],[-56.986699,-24.896654],[-56.98597,-24.897232],[-56.984594,-24.897448],[-56.982084,-24.896897],[-56.981011,-24.896242],[-56.98045,-24.896206],[-56.980304,-24.897344],[-56.980901,-24.898626],[-56.981329,-24.898893],[-56.982424,-24.898392],[-56.982768,-24.89901],[-56.982115,-24.89939],[-56.979217,-24.89924],[-56.978852,-24.8998],[-56.979053,-24.900279],[-56.981194,-24.900911],[-56.980815,-24.901309],[-56.979139,-24.901141],[-56.97901,-24.901417],[-56.979549,-24.901805],[-56.9805,-24.901859],[-56.981771,-24.90125],[-56.982582,-24.902356],[-56.982152,-24.902772],[-56.980323,-24.903246],[-56.979506,-24.904108],[-56.978796,-24.904162],[-56.978921,-24.905269],[-56.979523,-24.906199],[-56.981224,-24.906587],[-56.982164,-24.906384],[-56.983293,-24.905459],[-56.983809,-24.906958],[-56.983389,-24.907414],[-56.983768,-24.907563],[-56.984235,-24.907437],[-56.984623,-24.906272],[-56.984888,-24.906218],[-56.985159,-24.907613],[-56.984565,-24.908281],[-56.98525,-24.908959],[-56.987457,-24.908476],[-56.987969,-24.909017],[-56.988534,-24.908358],[-56.989164,-24.908408],[-56.989178,-24.909383],[-56.987844,-24.91035],[-56.986955,-24.91053],[-56.988109,-24.911772],[-56.986342,-24.911709],[-56.985687,-24.913167],[-56.986777,-24.914034],[-56.987995,-24.913867],[-56.98936,-24.914549],[-56.988379,-24.916631],[-56.988552,-24.917087],[-56.99012,-24.91711],[-56.990322,-24.916166],[-56.990918,-24.91617],[-56.990783,-24.918017],[-56.989473,-24.91869],[-56.989902,-24.919724],[-56.991365,-24.920085],[-56.991798,-24.920957],[-56.991232,-24.92125],[-56.990346,-24.9207],[-56.989112,-24.921178],[-56.989179,-24.922479],[-56.990316,-24.923012],[-56.990949,-24.922583],[-56.991641,-24.922587],[-56.991715,-24.925342],[-56.992298,-24.9254],[-56.993359,-24.924746],[-56.994493,-24.925649],[-56.993927,-24.92638],[-56.993821,-24.927184],[-56.992696,-24.927347],[-56.99189,-24.928281],[-56.991171,-24.928597],[-56.991536,-24.930602],[-56.99267,-24.931993],[-56.99368,-24.93207],[-56.994976,-24.930639],[-56.99451,-24.929519],[-56.996424,-24.929916],[-56.997041,-24.930368],[-56.996874,-24.931013],[-56.99771,-24.931614],[-56.997464,-24.932418],[-56.998128,-24.932838],[-56.998078,-24.933682],[-56.998798,-24.934256],[-56.998357,-24.934644],[-56.996893,-24.934671],[-56.997292,-24.935281],[-56.998658,-24.935059],[-56.998797,-24.935258],[-56.998265,-24.936021],[-56.997473,-24.936247],[-56.997557,-24.936735],[-56.998453,-24.937087],[-56.998731,-24.936315],[-56.999002,-24.936188],[-56.999601,-24.936559],[-56.999474,-24.935759],[-57.000057,-24.935655],[-57.000784,-24.936577],[-57.00186,-24.937213],[-57.002027,-24.938568],[-57.001233,-24.939078],[-57.001277,-24.939322],[-57.0026,-24.939349],[-57.003401,-24.938898],[-57.003717,-24.939214],[-57.003375,-24.940004],[-57.001869,-24.94065],[-57.001645,-24.941043],[-57.002069,-24.941237],[-57.003092,-24.941061],[-57.00446,-24.94214],[-57.004522,-24.943084],[-57.0038,-24.943463],[-57.004428,-24.944113],[-57.004203,-24.944827],[-57.004616,-24.94535],[-57.00401,-24.945689],[-57.003677,-24.946448],[-57.00301,-24.946533],[-57.002949,-24.948773],[-57.001631,-24.949162],[-57.002166,-24.950751],[-57.001811,-24.950778],[-57.001179,-24.949654],[-57.000794,-24.950331],[-57.001788,-24.951284],[-57.002272,-24.952553],[-57.00315,-24.951713],[-57.003332,-24.95365],[-57.003655,-24.954151],[-57.004543,-24.953776],[-57.004115,-24.952982],[-57.004326,-24.95248],[-57.004918,-24.951943],[-57.005443,-24.951961],[-57.005278,-24.953356],[-57.006901,-24.9543],[-57.006753,-24.954806],[-57.007124,-24.95579],[-57.006808,-24.956951],[-57.00791,-24.956431],[-57.008715,-24.956793],[-57.007445,-24.95747],[-57.007539,-24.958351],[-57.009279,-24.958644],[-57.009667,-24.959195],[-57.010411,-24.959439],[-57.010085,-24.959985],[-57.010304,-24.960134],[-57.011845,-24.959962],[-57.012732,-24.960527],[-57.012928,-24.961037],[-57.014502,-24.961028],[-57.015314,-24.96147],[-57.014579,-24.962053],[-57.013151,-24.961981],[-57.012626,-24.963132],[-57.013814,-24.964008],[-57.013745,-24.964365],[-57.013161,-24.964672],[-57.013267,-24.964956],[-57.013765,-24.965142],[-57.014757,-24.964803],[-57.014114,-24.965787],[-57.015291,-24.965552],[-57.01548,-24.965769],[-57.014287,-24.966519],[-57.013359,-24.968176],[-57.012428,-24.967738],[-57.012083,-24.968275],[-57.01124,-24.967847],[-57.011271,-24.968799],[-57.012321,-24.96903],[-57.012397,-24.969928],[-57.013168,-24.970795],[-57.01266,-24.971125],[-57.012052,-24.970497],[-57.010959,-24.970696],[-57.010343,-24.970308],[-57.010157,-24.971157],[-57.011919,-24.972913],[-57.011554,-24.973274],[-57.010367,-24.973116],[-57.010025,-24.973306],[-57.012626,-24.975722],[-57.011617,-24.977821],[-57.011702,-24.97863],[-57.012285,-24.979217],[-57.013542,-24.979641],[-57.013775,-24.980214],[-57.014761,-24.980427],[-57.014847,-24.981212],[-57.016819,-24.981786],[-57.018418,-24.980787],[-57.02025,-24.98104],[-57.020483,-24.980552],[-57.020304,-24.980164],[-57.018883,-24.979026],[-57.018549,-24.978394],[-57.019426,-24.977672],[-57.020544,-24.977455],[-57.021282,-24.977856],[-57.020972,-24.979107],[-57.021197,-24.979378],[-57.021864,-24.97913],[-57.02247,-24.97829],[-57.02313,-24.978344],[-57.022788,-24.98034],[-57.023006,-24.981324],[-57.023425,-24.982051],[-57.024411,-24.982114],[-57.025319,-24.981265],[-57.02462,-24.980037],[-57.024752,-24.979364],[-57.025606,-24.979093],[-57.026615,-24.979427],[-57.02705,-24.979039],[-57.02674,-24.978384],[-57.024744,-24.977906],[-57.024643,-24.977079],[-57.025458,-24.976497],[-57.026964,-24.976709],[-57.028579,-24.978542],[-57.028634,-24.979102],[-57.027982,-24.979887],[-57.028176,-24.980267],[-57.029271,-24.980312],[-57.031208,-24.979327],[-57.030208,-24.976514],[-57.028609,-24.976862],[-57.027334,-24.976131],[-57.026958,-24.975517],[-57.027627,-24.974532],[-57.028044,-24.974609],[-57.02799,-24.975277],[-57.028548,-24.975435],[-57.02903,-24.975272],[-57.029323,-24.974748],[-57.030399,-24.974559],[-57.030755,-24.974215],[-57.030164,-24.973913],[-57.028821,-24.974469],[-57.028289,-24.974238],[-57.02862,-24.973584],[-57.029614,-24.972915],[-57.028915,-24.971989],[-57.030373,-24.971249],[-57.030136,-24.970842],[-57.029069,-24.970838],[-57.029206,-24.969732],[-57.029679,-24.969515],[-57.03049,-24.970215],[-57.031249,-24.970201],[-57.032726,-24.969094],[-57.031606,-24.969067],[-57.031477,-24.96825],[-57.030289,-24.968463],[-57.028941,-24.967334],[-57.029166,-24.966909],[-57.030391,-24.966385],[-57.029658,-24.965762],[-57.029948,-24.965288],[-57.029122,-24.964692],[-57.029997,-24.96336],[-57.029686,-24.962976],[-57.02788,-24.962755],[-57.027135,-24.964074],[-57.026074,-24.964621],[-57.026071,-24.964137],[-57.026795,-24.96337],[-57.026634,-24.963072],[-57.023701,-24.962846],[-57.023977,-24.962259],[-57.025774,-24.961947],[-57.026263,-24.961491],[-57.025735,-24.961121],[-57.024165,-24.960846],[-57.024311,-24.959387],[-57.024647,-24.959193],[-57.025791,-24.959703],[-57.025081,-24.958647],[-57.026646,-24.957757],[-57.027366,-24.958113],[-57.02825,-24.959594],[-57.029388,-24.957919],[-57.030165,-24.958045],[-57.030489,-24.957323],[-57.031546,-24.958289],[-57.032852,-24.957286],[-57.034996,-24.957276],[-57.035099,-24.955475],[-57.03407,-24.955421],[-57.033297,-24.956076],[-57.031917,-24.955403],[-57.031335,-24.954473],[-57.031717,-24.954333],[-57.033203,-24.955019],[-57.033727,-24.954969],[-57.033864,-24.954513],[-57.03297,-24.953267],[-57.033725,-24.952201],[-57.033976,-24.952242],[-57.033868,-24.952933],[-57.034293,-24.953515],[-57.035433,-24.953781],[-57.035618,-24.953416],[-57.03519,-24.951713],[-57.035465,-24.951153],[-57.036202,-24.950805],[-57.037162,-24.950615],[-57.03697,-24.952128],[-57.038667,-24.954327],[-57.040619,-24.95299],[-57.040398,-24.952615],[-57.039245,-24.952385],[-57.038389,-24.951852],[-57.038606,-24.951577],[-57.040112,-24.951951],[-57.039564,-24.950543],[-57.03959,-24.949752],[-57.040393,-24.950375],[-57.041212,-24.950009],[-57.042886,-24.950194],[-57.043848,-24.951788],[-57.04439,-24.952063],[-57.044775,-24.951905],[-57.04438,-24.950311],[-57.045252,-24.948748],[-57.045027,-24.947868],[-57.04451,-24.947665],[-57.043446,-24.948848],[-57.042485,-24.949006],[-57.042294,-24.948749],[-57.043206,-24.948085],[-57.043234,-24.946816],[-57.042432,-24.947318],[-57.041623,-24.94721],[-57.040464,-24.947639],[-57.039788,-24.947269],[-57.038987,-24.946045],[-57.040299,-24.945219],[-57.041261,-24.945972],[-57.041868,-24.94553],[-57.044359,-24.945059],[-57.043067,-24.944568],[-57.043081,-24.94389],[-57.041717,-24.943299],[-57.042146,-24.941538],[-57.041616,-24.941375],[-57.040269,-24.941629],[-57.03973,-24.941353],[-57.03969,-24.941087],[-57.040972,-24.940337],[-57.040327,-24.939154],[-57.041311,-24.938711],[-57.042201,-24.93765],[-57.042687,-24.938061],[-57.042521,-24.939321],[-57.042756,-24.939795],[-57.04349,-24.940151],[-57.044904,-24.940069],[-57.045011,-24.939677],[-57.044081,-24.93895],[-57.043741,-24.938096],[-57.044662,-24.936669],[-57.045237,-24.936787],[-57.044966,-24.937798],[-57.045311,-24.93839],[-57.046057,-24.937423],[-57.04738,-24.93796],[-57.048893,-24.937011],[-57.048831,-24.935656],[-57.047284,-24.933571],[-57.04718,-24.932623],[-57.047512,-24.932108],[-57.049864,-24.932798],[-57.050082,-24.934482],[-57.050898,-24.935001],[-57.051448,-24.934694],[-57.05257,-24.932806],[-57.050381,-24.931222],[-57.050211,-24.930224],[-57.050786,-24.929108],[-57.051541,-24.92914],[-57.051548,-24.93044],[-57.052602,-24.930381],[-57.053769,-24.931189],[-57.054443,-24.932828],[-57.055118,-24.932033],[-57.057249,-24.931544],[-57.057091,-24.93112],[-57.055637,-24.931129],[-57.056044,-24.929951],[-57.055902,-24.928768],[-57.055219,-24.928438],[-57.054446,-24.929328],[-57.054189,-24.929297],[-57.052628,-24.927328],[-57.052461,-24.926344],[-57.052954,-24.926457],[-57.053555,-24.927427],[-57.054129,-24.927644],[-57.054625,-24.926989],[-57.056141,-24.925991],[-57.057621,-24.925773],[-57.057742,-24.926053],[-57.057118,-24.927038],[-57.058116,-24.927792],[-57.058434,-24.929634],[-57.058738,-24.929959],[-57.059307,-24.928545],[-57.060452,-24.929236],[-57.060879,-24.929028],[-57.06087,-24.928495],[-57.060263,-24.927872],[-57.061893,-24.927104],[-57.062283,-24.9256],[-57.061939,-24.925013],[-57.059861,-24.925149],[-57.060403,-24.923668],[-57.059619,-24.922598],[-57.058225,-24.924337],[-57.056771,-24.922044],[-57.052802,-24.923373],[-57.053403,-24.92093],[-57.052691,-24.920713],[-57.051475,-24.92112],[-57.050985,-24.92093],[-57.050677,-24.920389],[-57.050934,-24.919802],[-57.051771,-24.919273],[-57.051875,-24.917403],[-57.052294,-24.916997],[-57.052871,-24.917168],[-57.053102,-24.917918],[-57.053899,-24.918496],[-57.055185,-24.918725],[-57.055502,-24.918075],[-57.054726,-24.916603],[-57.055083,-24.916237],[-57.056761,-24.91597],[-57.058937,-24.916954],[-57.059311,-24.917622],[-57.059681,-24.917653],[-57.059951,-24.917455],[-57.05994,-24.91652],[-57.062064,-24.916113],[-57.062769,-24.9153],[-57.063754,-24.913628],[-57.063119,-24.913033],[-57.060587,-24.913499],[-57.058405,-24.914457],[-57.057429,-24.914146],[-57.056704,-24.913252],[-57.05731,-24.912836],[-57.059197,-24.913269],[-57.060104,-24.91312],[-57.060104,-24.91172],[-57.059492,-24.911431],[-57.058334,-24.911603],[-57.058378,-24.91079],[-57.057829,-24.909476],[-57.0589,-24.908063],[-57.061042,-24.908405],[-57.062597,-24.907971],[-57.062242,-24.907565],[-57.061032,-24.907895],[-57.060412,-24.907448],[-57.060603,-24.907091],[-57.061849,-24.906598],[-57.061672,-24.905253],[-57.06051,-24.905041],[-57.057355,-24.905801],[-57.057564,-24.907806],[-57.057197,-24.909228],[-57.056432,-24.91047],[-57.055773,-24.91071],[-57.055297,-24.910173],[-57.056056,-24.907422],[-57.055655,-24.906727],[-57.055062,-24.906759],[-57.054076,-24.90801],[-57.050847,-24.907619],[-57.050165,-24.90686],[-57.050757,-24.905916],[-57.052214,-24.90485],[-57.051698,-24.903563],[-57.050927,-24.903171],[-57.048793,-24.903989],[-57.047541,-24.903763],[-57.047754,-24.903145],[-57.048955,-24.901853],[-57.048345,-24.901036],[-57.048684,-24.899902],[-57.048499,-24.899433],[-57.047109,-24.900571],[-57.046407,-24.900264],[-57.045463,-24.899126],[-57.045024,-24.899072],[-57.044542,-24.899614],[-57.044228,-24.901389],[-57.042053,-24.901778],[-57.04112,-24.902225],[-57.040538,-24.903896],[-57.039493,-24.903797],[-57.038217,-24.904249],[-57.037388,-24.902402],[-57.037397,-24.901508],[-57.038787,-24.902682],[-57.039838,-24.902451],[-57.040508,-24.901837],[-57.040317,-24.900993],[-57.040745,-24.899376],[-57.040054,-24.899291],[-57.037643,-24.90014],[-57.036781,-24.900059],[-57.03724,-24.899327],[-57.036628,-24.898339],[-57.036632,-24.897494],[-57.035547,-24.894916],[-57.034949,-24.89455],[-57.03414,-24.894844],[-57.034452,-24.897255],[-57.034242,-24.897829],[-57.033324,-24.897987],[-57.031729,-24.897676],[-57.03155,-24.897193],[-57.032321,-24.896696],[-57.032825,-24.894393],[-57.030953,-24.893991],[-57.03042,-24.892068],[-57.03084,-24.891417],[-57.033317,-24.891575],[-57.034763,-24.892266],[-57.03528,-24.893923],[-57.036489,-24.894275],[-57.037731,-24.895701],[-57.038198,-24.895837],[-57.038985,-24.89543],[-57.039804,-24.895412],[-57.042277,-24.896468],[-57.042755,-24.896382],[-57.041653,-24.893894],[-57.04162,-24.893054],[-57.041911,-24.89276],[-57.043705,-24.892597],[-57.043891,-24.892132],[-57.042349,-24.890859],[-57.042272,-24.888434],[-57.041828,-24.888001],[-57.041026,-24.887911],[-57.037977,-24.88975],[-57.037075,-24.889547],[-57.03671,-24.888815],[-57.036902,-24.887948],[-57.037901,-24.886837],[-57.03681,-24.884841],[-57.03777,-24.882556],[-57.038688,-24.882701],[-57.040629,-24.884095],[-57.042108,-24.88419],[-57.04299,-24.883702],[-57.042689,-24.883088],[-57.041352,-24.883174],[-57.039513,-24.882353],[-57.039402,-24.881323],[-57.039915,-24.880284],[-57.040636,-24.87986],[-57.040988,-24.879981],[-57.042572,-24.881769],[-57.044249,-24.881362],[-57.045001,-24.88064],[-57.044775,-24.880089],[-57.042166,-24.880085],[-57.041004,-24.879367],[-57.041069,-24.878546],[-57.042919,-24.878568],[-57.043193,-24.878008],[-57.041181,-24.875633],[-57.041066,-24.874432],[-57.041776,-24.873754],[-57.042419,-24.873659],[-57.04478,-24.875641],[-57.046079,-24.875546],[-57.046153,-24.874832],[-57.045016,-24.873957],[-57.045398,-24.872859],[-57.04509,-24.871988],[-57.047462,-24.870691],[-57.046004,-24.869693],[-57.045782,-24.869003],[-57.046054,-24.868583],[-57.046756,-24.86833],[-57.048588,-24.868333],[-57.049058,-24.867024],[-57.052111,-24.865573],[-57.055472,-24.865197],[-57.057237,-24.865594],[-57.056437,-24.862686],[-57.05539,-24.861941],[-57.054521,-24.861982],[-57.053715,-24.862484],[-57.052965,-24.864742],[-57.050116,-24.863172],[-57.05032,-24.862399],[-57.053248,-24.861346],[-57.053736,-24.858456],[-57.051228,-24.858832],[-57.050578,-24.860706],[-57.047991,-24.862834],[-57.047625,-24.862707],[-57.04762,-24.86194],[-57.046065,-24.86026],[-57.045384,-24.858784],[-57.046068,-24.858599],[-57.048768,-24.859492],[-57.049799,-24.859446],[-57.050172,-24.858733],[-57.048364,-24.856977],[-57.048355,-24.856065],[-57.05033,-24.855558],[-57.052274,-24.856239],[-57.053341,-24.856004],[-57.053708,-24.853701],[-57.051378,-24.854668],[-57.050654,-24.854637],[-57.050087,-24.854226],[-57.050284,-24.853788],[-57.052,-24.853038],[-57.052086,-24.8519],[-57.051439,-24.851914],[-57.049915,-24.852763],[-57.048328,-24.852362],[-57.04864,-24.851711],[-57.050546,-24.850776],[-57.04889,-24.849797],[-57.048414,-24.849201],[-57.048331,-24.848501],[-57.048808,-24.847977],[-57.050139,-24.847891],[-57.050608,-24.84752],[-57.049737,-24.845466],[-57.049816,-24.844418],[-57.050628,-24.844662],[-57.051692,-24.845583],[-57.052599,-24.845632],[-57.052442,-24.843912],[-57.053609,-24.84327],[-57.054315,-24.842032],[-57.055405,-24.841025],[-57.056153,-24.840989],[-57.056542,-24.841291],[-57.056679,-24.843797],[-57.058772,-24.844442],[-57.05957,-24.844121],[-57.060018,-24.84287],[-57.057496,-24.84153],[-57.056941,-24.839828],[-57.057072,-24.839363],[-57.057441,-24.839263],[-57.058678,-24.840608],[-57.059809,-24.840545],[-57.060296,-24.840233],[-57.060235,-24.839429],[-57.058734,-24.839046],[-57.058431,-24.838599],[-57.059608,-24.837149],[-57.05975,-24.836187],[-57.058911,-24.835966],[-57.057869,-24.836919],[-57.057167,-24.836902],[-57.056532,-24.836419],[-57.056129,-24.8345],[-57.053391,-24.834641],[-57.051219,-24.833431],[-57.050288,-24.833946],[-57.049396,-24.836597],[-57.046222,-24.836481],[-57.046073,-24.835862],[-57.046494,-24.835239],[-57.048495,-24.833974],[-57.049056,-24.833089],[-57.046963,-24.831437],[-57.045739,-24.83183],[-57.04396,-24.831672],[-57.041975,-24.833104],[-57.041301,-24.832992],[-57.040038,-24.831935],[-57.040082,-24.831493],[-57.042518,-24.831732],[-57.043155,-24.831329],[-57.04357,-24.830575],[-57.040552,-24.829172],[-57.039393,-24.827971],[-57.039782,-24.827244],[-57.041244,-24.826349],[-57.042207,-24.826688],[-57.042033,-24.827975],[-57.042314,-24.828602],[-57.043586,-24.827049],[-57.045689,-24.827603],[-57.047435,-24.826993],[-57.047279,-24.826343],[-57.045467,-24.826226],[-57.04472,-24.825725],[-57.044983,-24.825106],[-57.046145,-24.824117],[-57.046172,-24.822916],[-57.045451,-24.823043],[-57.044418,-24.823923],[-57.043969,-24.823887],[-57.043637,-24.823576],[-57.043483,-24.822537],[-57.041055,-24.822181],[-57.041026,-24.820307],[-57.041338,-24.819165],[-57.0419,-24.819011],[-57.044903,-24.820604],[-57.046515,-24.82022],[-57.046689,-24.819597],[-57.043706,-24.818324],[-57.043218,-24.817674],[-57.043273,-24.817236],[-57.043686,-24.81701],[-57.04476,-24.817696],[-57.045808,-24.81696],[-57.048596,-24.816932],[-57.0492,-24.816322],[-57.049399,-24.814922],[-57.048826,-24.813238],[-57.047563,-24.812046],[-57.047036,-24.812245],[-57.047426,-24.81318],[-57.047035,-24.813586],[-57.046305,-24.813311],[-57.044047,-24.81459],[-57.042867,-24.814509],[-57.042736,-24.813922],[-57.044709,-24.81263],[-57.044928,-24.811948],[-57.04444,-24.811713],[-57.043166,-24.812264],[-57.042616,-24.812219],[-57.042363,-24.811632],[-57.042799,-24.81063],[-57.040179,-24.809488],[-57.039804,-24.80905],[-57.039741,-24.808278],[-57.040454,-24.808052],[-57.041292,-24.809185],[-57.042051,-24.809257],[-57.042497,-24.808765],[-57.042589,-24.807514],[-57.043364,-24.807058],[-57.044182,-24.807536],[-57.045839,-24.809401],[-57.0464,-24.80885],[-57.046526,-24.807084],[-57.047789,-24.806564],[-57.049169,-24.806911],[-57.050099,-24.806541],[-57.050349,-24.805498],[-57.049395,-24.805028],[-57.046004,-24.806204],[-57.044527,-24.803486],[-57.045556,-24.802763],[-57.047339,-24.803345],[-57.048363,-24.803231],[-57.048311,-24.802513],[-57.047184,-24.801733],[-57.047518,-24.800703],[-57.048094,-24.800387],[-57.049545,-24.800693],[-57.050683,-24.800508],[-57.052213,-24.799225],[-57.052435,-24.798511],[-57.051787,-24.798204],[-57.049992,-24.798801],[-57.049846,-24.798336],[-57.05034,-24.797487],[-57.048773,-24.797158],[-57.048059,-24.796408],[-57.048227,-24.795921],[-57.050226,-24.79513],[-57.050433,-24.793802],[-57.050287,-24.793427],[-57.049651,-24.79345],[-57.048064,-24.794981],[-57.047238,-24.794891],[-57.047194,-24.794295],[-57.048214,-24.792715],[-57.048119,-24.791965],[-57.047664,-24.791401],[-57.046843,-24.791433],[-57.045758,-24.793578],[-57.043175,-24.793551],[-57.042827,-24.793014],[-57.043409,-24.791063],[-57.043366,-24.789027],[-57.042431,-24.788946],[-57.041052,-24.790314],[-57.040606,-24.789953],[-57.040102,-24.788572],[-57.039439,-24.788378],[-57.039023,-24.788658],[-57.039487,-24.789434],[-57.03906,-24.791101],[-57.038276,-24.791995],[-57.037328,-24.792334],[-57.036998,-24.791571],[-57.038386,-24.789927],[-57.037701,-24.789733],[-57.036199,-24.78995],[-57.035198,-24.789643],[-57.034731,-24.788288],[-57.033684,-24.787277],[-57.031316,-24.787788],[-57.029213,-24.78707],[-57.028753,-24.786402],[-57.029299,-24.785603],[-57.029283,-24.784578],[-57.028874,-24.783634],[-57.028118,-24.783024],[-57.024172,-24.783021],[-57.022611,-24.783856],[-57.021502,-24.784001],[-57.015764,-24.783184],[-57.012735,-24.78514],[-57.011762,-24.785546],[-57.010843,-24.785379],[-57.010912,-24.782589],[-57.011696,-24.780227],[-57.010272,-24.775738],[-57.003405,-24.760456],[-57.000978,-24.759743],[-57.001263,-24.756031],[-57.005546,-24.748036],[-57.005261,-24.732474],[-57.004635,-24.719734],[-56.963375,-24.728157],[-56.901557,-24.736438],[-56.890849,-24.728014],[-56.900129,-24.712738],[-56.904983,-24.7056],[-56.90584,-24.698747],[-56.906982,-24.695178],[-56.907124,-24.690324],[-56.902984,-24.684613],[-56.896417,-24.6829],[-56.894275,-24.681329],[-56.887137,-24.684899],[-56.872004,-24.691323],[-56.860582,-24.698604],[-56.858528,-24.697996],[-56.857154,-24.698162],[-56.855873,-24.697575],[-56.851571,-24.697404],[-56.850381,-24.696734],[-56.844803,-24.691542],[-56.845261,-24.691124],[-56.846451,-24.691209],[-56.847732,-24.692047],[-56.851484,-24.693138],[-56.852125,-24.693055],[-56.852492,-24.692303],[-56.851304,-24.690545],[-56.845817,-24.686274],[-56.845636,-24.684266],[-56.846416,-24.682803],[-56.847606,-24.682554],[-56.849895,-24.68264],[-56.851452,-24.681888],[-56.852551,-24.681053],[-56.853927,-24.678462],[-56.855484,-24.677543],[-56.857407,-24.677127],[-56.85997,-24.677296],[-56.862074,-24.678135],[-56.865003,-24.678639],[-56.866377,-24.67747],[-56.86647,-24.676299],[-56.867478,-24.675714],[-56.868668,-24.675799],[-56.872326,-24.678395],[-56.873974,-24.678898],[-56.875255,-24.678481],[-56.88167,-24.670708],[-56.88483,-24.668745],[-56.885745,-24.668829],[-56.887576,-24.668245],[-56.888401,-24.667074],[-56.888677,-24.665235],[-56.889758,-24.663511],[-56.886339,-24.662853],[-56.8816,-24.661152],[-56.880255,-24.660331],[-56.879424,-24.658867],[-56.879745,-24.657228],[-56.878403,-24.654651],[-56.875327,-24.655175],[-56.873981,-24.655935],[-56.872572,-24.656109],[-56.871099,-24.655464],[-56.865788,-24.649839],[-56.864829,-24.647789],[-56.864447,-24.645857],[-56.86336,-24.643865],[-56.862786,-24.641054],[-56.861314,-24.640233],[-56.860609,-24.640408],[-56.859712,-24.641227],[-56.858879,-24.641402],[-56.857662,-24.64064],[-56.855868,-24.641458],[-56.855163,-24.641457],[-56.854587,-24.641047],[-56.853895,-24.641508],[-56.853684,-24.643019],[-56.853001,-24.64345],[-56.851978,-24.643233],[-56.851139,-24.642489],[-56.850983,-24.641817],[-56.849669,-24.642919],[-56.848462,-24.643253],[-56.847807,-24.642677],[-56.845262,-24.642315],[-56.842717,-24.642408],[-56.840336,-24.6429],[-56.834712,-24.645389],[-56.83131,-24.648172],[-56.829997,-24.648014],[-56.828367,-24.646894],[-56.826958,-24.645738],[-56.826394,-24.644185],[-56.824129,-24.643784],[-56.823478,-24.644653],[-56.821031,-24.645768],[-56.81614,-24.644644],[-56.809212,-24.643518],[-56.792499,-24.642378],[-56.784102,-24.642777],[-56.78092,-24.643728],[-56.778346,-24.646192],[-56.777123,-24.648101],[-56.776553,-24.649932],[-56.776812,-24.651405],[-56.778508,-24.653358],[-56.778723,-24.654911],[-56.773803,-24.661996],[-56.767985,-24.671777],[-56.758994,-24.673252],[-56.755345,-24.671757],[-56.753991,-24.670903],[-56.752254,-24.666112],[-56.752257,-24.664622],[-56.750881,-24.661317],[-56.752116,-24.654985],[-56.752935,-24.653123],[-56.752532,-24.650887],[-56.748463,-24.646782],[-56.746008,-24.645885],[-56.745199,-24.648267],[-56.742969,-24.651413],[-56.737376,-24.653744],[-56.735741,-24.656401],[-56.734576,-24.656399],[-56.734453,-24.657537],[-56.734836,-24.658497],[-56.73417,-24.65868],[-56.733742,-24.667994],[-56.728844,-24.670594],[-56.727621,-24.670219],[-56.722337,-24.662757],[-56.719087,-24.657535],[-56.71734,-24.65295],[-56.710624,-24.648884],[-56.706309,-24.643622],[-56.704115,-24.643025],[-56.702785,-24.645831],[-56.702532,-24.647335],[-56.700293,-24.649577],[-56.704528,-24.653874],[-56.705864,-24.655918],[-56.70586,-24.657552],[-56.707409,-24.660177],[-56.708836,-24.661617],[-56.710122,-24.662142],[-56.712267,-24.662016],[-56.713839,-24.662411],[-56.716263,-24.665552],[-56.716118,-24.666466],[-56.715115,-24.667379],[-56.713686,-24.666985],[-56.713258,-24.66633],[-56.713835,-24.664371],[-56.713693,-24.663848],[-56.712833,-24.664631],[-56.711403,-24.664366],[-56.710401,-24.664757],[-56.710826,-24.666587],[-56.710539,-24.66724],[-56.708251,-24.666843],[-56.708248,-24.668412],[-56.707388,-24.669325],[-56.706243,-24.669453],[-56.705386,-24.66919],[-56.704533,-24.666967],[-56.702243,-24.667485],[-56.701241,-24.668006],[-56.701238,-24.669443],[-56.699949,-24.669964],[-56.698382,-24.667608],[-56.696666,-24.667605],[-56.69666,-24.669826],[-56.695797,-24.671916],[-56.694795,-24.672175],[-56.693794,-24.672042],[-56.689215,-24.673078],[-56.685778,-24.675031],[-56.68478,-24.673722],[-56.684211,-24.672414],[-56.684071,-24.671107],[-56.683074,-24.669668],[-56.683078,-24.668099],[-56.680511,-24.665088],[-56.679512,-24.664563],[-56.678225,-24.66456],[-56.677364,-24.665604],[-56.676505,-24.665864],[-56.675929,-24.6673],[-56.67507,-24.66769],[-56.671792,-24.663501],[-56.669075,-24.663364],[-56.668654,-24.660227],[-56.667511,-24.660094],[-56.667076,-24.662184],[-56.666219,-24.661921],[-56.665938,-24.65996],[-56.66294,-24.657862],[-56.661224,-24.657858],[-56.660508,-24.658249],[-56.661078,-24.659034],[-56.662791,-24.660083],[-56.663075,-24.661129],[-56.662786,-24.662174],[-56.661927,-24.662434],[-56.660641,-24.661908],[-56.65893,-24.660205],[-56.658352,-24.662295],[-56.657638,-24.662032],[-56.657355,-24.660724],[-56.656928,-24.660201],[-56.657788,-24.659288],[-56.65822,-24.658243],[-56.657793,-24.65772],[-56.657078,-24.657587],[-56.656073,-24.658892],[-56.654928,-24.659281],[-56.655069,-24.660196],[-56.655924,-24.661244],[-56.656207,-24.662421],[-56.658352,-24.662556],[-56.659063,-24.663995],[-56.657489,-24.664253],[-56.656061,-24.663597],[-56.654273,-24.663527],[-56.653275,-24.662349],[-56.652852,-24.660387],[-56.652136,-24.660516],[-56.651561,-24.661561],[-56.650989,-24.661821],[-56.649847,-24.661034],[-56.647423,-24.658284],[-56.647852,-24.658285],[-56.650422,-24.65999],[-56.651136,-24.660122],[-56.651853,-24.659732],[-56.650569,-24.658422],[-56.650143,-24.657245],[-56.648002,-24.655802],[-56.647282,-24.657761],[-56.646424,-24.657889],[-56.645996,-24.657366],[-56.646427,-24.656582],[-56.643994,-24.65723],[-56.642853,-24.656182],[-56.642431,-24.653698],[-56.640856,-24.654609],[-56.639429,-24.653429],[-56.637997,-24.65421],[-56.635854,-24.653682],[-56.633993,-24.65407],[-56.631422,-24.653279],[-56.629563,-24.653275],[-56.62928,-24.652359],[-56.62957,-24.650922],[-56.628856,-24.650529],[-56.627139,-24.651047],[-56.625422,-24.651173],[-56.62114,-24.64868],[-56.616921,-24.648865],[-56.614922,-24.648076],[-56.612492,-24.647677],[-56.607353,-24.644789],[-56.605353,-24.644261],[-56.604208,-24.644781],[-56.603064,-24.644778],[-56.600635,-24.643987],[-56.59978,-24.64307],[-56.595064,-24.642535],[-56.593783,-24.640702],[-56.591637,-24.640957],[-56.589779,-24.640691],[-56.589782,-24.639907],[-56.592072,-24.639129],[-56.592647,-24.638085],[-56.591361,-24.63782],[-56.590071,-24.638862],[-56.588785,-24.638728],[-56.587637,-24.639901],[-56.586353,-24.638983],[-56.58579,-24.636498],[-56.584501,-24.637148],[-56.580645,-24.6357],[-56.578501,-24.635432],[-56.576502,-24.634773],[-56.573363,-24.632804],[-56.56743,-24.632852],[-56.565001,-24.632192],[-56.561999,-24.632183],[-56.561859,-24.631399],[-56.563006,-24.630357],[-56.562722,-24.629833],[-56.561577,-24.630222],[-56.560283,-24.632309],[-56.558282,-24.632172],[-56.557279,-24.632823],[-56.55699,-24.633606],[-56.555128,-24.634385],[-56.55499,-24.633077],[-56.555281,-24.631641],[-56.554712,-24.630855],[-56.553709,-24.631505],[-56.553285,-24.630067],[-56.553431,-24.629152],[-56.552288,-24.629018],[-56.55157,-24.6298],[-56.550569,-24.629928],[-56.549428,-24.629271],[-56.550138,-24.63058],[-56.550136,-24.631233],[-56.551563,-24.632022],[-56.553135,-24.632157],[-56.554272,-24.63399],[-56.554694,-24.635952],[-56.553687,-24.637648],[-56.552111,-24.638688],[-56.549823,-24.638812],[-56.547673,-24.640243],[-56.544243,-24.639841],[-56.542108,-24.63709],[-56.540531,-24.638131],[-56.541815,-24.639049],[-56.540947,-24.641661],[-56.542661,-24.642319],[-56.542513,-24.643756],[-56.540933,-24.645712],[-56.539387,-24.646881],[-56.562544,-24.678307],[-56.568268,-24.705683],[-56.564505,-24.717779],[-56.556132,-24.73449],[-56.555732,-24.736349],[-56.554209,-24.739483],[-56.552849,-24.744365],[-56.54619,-24.752834],[-56.546321,-24.753327],[-56.545372,-24.754512],[-56.538868,-24.770441],[-56.539592,-24.770917],[-56.541227,-24.77104],[-56.542596,-24.771694],[-56.543947,-24.771247],[-56.545585,-24.771762],[-56.546368,-24.770473],[-56.547475,-24.769727],[-56.550679,-24.771389],[-56.551452,-24.77285],[-56.551467,-24.773992],[-56.553192,-24.774995],[-56.553312,-24.776567],[-56.553962,-24.778014],[-56.556078,-24.778314],[-56.558576,-24.779301],[-56.559928,-24.780208],[-56.560762,-24.781276],[-56.563033,-24.785722],[-56.563131,-24.787456],[-56.564482,-24.789167],[-56.568992,-24.791709],[-56.569784,-24.792971],[-56.571008,-24.79283],[-56.573621,-24.793339],[-56.574915,-24.794169],[-56.576662,-24.794607],[-56.577999,-24.795659],[-56.578895,-24.795991],[-56.582227,-24.795973],[-56.584955,-24.795479],[-56.59104,-24.795799],[-56.59149,-24.796301],[-56.591285,-24.797244],[-56.593324,-24.798889],[-56.593224,-24.800252],[-56.593857,-24.800941],[-56.596685,-24.801102],[-56.597062,-24.801554],[-56.59752,-24.801583],[-56.599855,-24.800916],[-56.601099,-24.802166],[-56.602984,-24.802288],[-56.605036,-24.803617],[-56.607263,-24.80369],[-56.608426,-24.803084],[-56.60967,-24.803678],[-56.611194,-24.803091],[-56.612566,-24.80342],[-56.614675,-24.803312],[-56.615632,-24.803843],[-56.617111,-24.805278],[-56.618113,-24.805497],[-56.619498,-24.806404],[-56.621217,-24.808102],[-56.624508,-24.807902],[-56.625141,-24.808608],[-56.624798,-24.809524],[-56.626266,-24.810408],[-56.627749,-24.810769],[-56.630582,-24.810591],[-56.632862,-24.812506],[-56.634682,-24.81257],[-56.635137,-24.812973],[-56.635783,-24.813055],[-56.636125,-24.813892],[-56.63688,-24.813632],[-56.637784,-24.813914],[-56.64018,-24.815631],[-56.64105,-24.813867],[-56.640607,-24.808696],[-56.641175,-24.807158],[-56.642853,-24.8072],[-56.644323,-24.806269],[-56.645244,-24.806302],[-56.647944,-24.804783],[-56.648492,-24.80413],[-56.650128,-24.804539],[-56.654655,-24.802509],[-56.655644,-24.802418],[-56.664085,-24.80373],[-56.665792,-24.803422],[-56.66651,-24.802801],[-56.66784,-24.802742],[-56.668761,-24.803024],[-56.670399,-24.802716],[-56.676179,-24.803803],[-56.677848,-24.805146],[-56.680848,-24.806182],[-56.684287,-24.808959],[-56.687431,-24.81002],[-56.685887,-24.817137],[-56.685244,-24.821636],[-56.684428,-24.834123],[-56.683463,-24.837796],[-56.683605,-24.842016],[-56.6832,-24.847013],[-56.681687,-24.851557],[-56.680974,-24.856678],[-56.680881,-24.859808],[-56.681318,-24.862362],[-56.68315,-24.866602],[-56.684547,-24.867913],[-56.684737,-24.868785],[-56.686454,-24.869236],[-56.686824,-24.869702],[-56.686775,-24.870402],[-56.687253,-24.870845],[-56.688279,-24.87068],[-56.689401,-24.87145],[-56.688788,-24.872059],[-56.689246,-24.874787],[-56.689091,-24.87867],[-56.690238,-24.87911],[-56.693081,-24.878001],[-56.693397,-24.878291],[-56.693486,-24.879772],[-56.694065,-24.880441],[-56.69461,-24.880361],[-56.695233,-24.879523],[-56.695963,-24.879154],[-56.696721,-24.880248],[-56.699329,-24.881107],[-56.699643,-24.880994],[-56.699599,-24.880069],[-56.70015,-24.880079],[-56.701403,-24.880944],[-56.702344,-24.879912]]]}}]}
