{"type":"FeatureCollection","name":"distrito","features":[{"type":"Feature","properties":{"clave":"7-37","nombre":"Natalio"},"geometry":{"type":"Polygon","coordinates":[[[-55.150045,-26.877486],[-55.150708,-26.876327],[-55.151662,-26.875547],[-55.15412,-26.874389],[-55.15814,-26.870012],[-55.159501,-26.869361],[-55.160659,-26.869272],[-55.16117,-26.869521],[-55.162006,-26.875103],[-55.162604,-26.876299],[-55.163115,-26.876513],[-55.165052,-26.876008],[-55.167531,-26.874632],[-55.171043,-26.873767],[-55.171732,-26.873314],[-55.173332,-26.87142],[-55.172399,-26.869436],[-55.173758,-26.866133],[-55.17401,-26.862258],[-55.174859,-26.861427],[-55.176851,-26.861005],[-55.17846,-26.859833],[-55.179201,-26.856914],[-55.179243,-26.854963],[-55.179951,-26.853069],[-55.181855,-26.852734],[-55.184653,-26.853212],[-55.186684,-26.852377],[-55.187913,-26.851181],[-55.187959,-26.850306],[-55.187162,-26.849308],[-55.183441,-26.845873],[-55.181861,-26.844938],[-55.180178,-26.844328],[-55.177551,-26.844406],[-55.171045,-26.842526],[-55.170796,-26.842153],[-55.17165,-26.839624],[-55.173452,-26.838509],[-55.177703,-26.839658],[-55.181604,-26.838619],[-55.185651,-26.839264],[-55.187854,-26.838864],[-55.189887,-26.837557],[-55.189282,-26.835394],[-55.188513,-26.83425],[-55.188324,-26.832204],[-55.188647,-26.829585],[-55.188058,-26.828784],[-55.188196,-26.825545],[-55.187712,-26.819836],[-55.186602,-26.818036],[-55.185934,-26.815716],[-55.184571,-26.813431],[-55.184339,-26.811656],[-55.185838,-26.804748],[-55.186868,-26.802988],[-55.188193,-26.799129],[-55.192674,-26.796747],[-55.194532,-26.797567],[-55.194613,-26.799099],[-55.193583,-26.801474],[-55.191615,-26.803949],[-55.191531,-26.805608],[-55.191717,-26.806087],[-55.193423,-26.806705],[-55.194775,-26.807778],[-55.195447,-26.807934],[-55.19657,-26.807637],[-55.199594,-26.806014],[-55.201057,-26.80554],[-55.204248,-26.805554],[-55.207971,-26.8067],[-55.2081,-26.807688],[-55.207391,-26.808656],[-55.204436,-26.811413],[-55.203357,-26.811936],[-55.203144,-26.812599],[-55.205305,-26.816191],[-55.206284,-26.818946],[-55.209087,-26.819734],[-55.210061,-26.81908],[-55.211147,-26.817459],[-55.211869,-26.816957],[-55.213201,-26.816827],[-55.215251,-26.817095],[-55.215798,-26.816661],[-55.215697,-26.815699],[-55.214602,-26.813566],[-55.211257,-26.811084],[-55.21087,-26.810543],[-55.210937,-26.809982],[-55.212802,-26.807263],[-55.214397,-26.805769],[-55.215075,-26.804341],[-55.216564,-26.804075],[-55.218475,-26.804497],[-55.218962,-26.804217],[-55.219502,-26.802952],[-55.219075,-26.798829],[-55.219484,-26.797303],[-55.221032,-26.795705],[-55.222947,-26.79534],[-55.223927,-26.794279],[-55.223671,-26.791525],[-55.224588,-26.789625],[-55.223702,-26.788921],[-55.219156,-26.788726],[-55.218362,-26.789572],[-55.218615,-26.790622],[-55.219344,-26.790856],[-55.221567,-26.790504],[-55.221337,-26.790985],[-55.219433,-26.791939],[-55.217932,-26.791133],[-55.215696,-26.788665],[-55.212803,-26.788101],[-55.211616,-26.78575],[-55.210708,-26.780954],[-55.210291,-26.780525],[-55.207939,-26.779933],[-55.205264,-26.781439],[-55.203972,-26.781501],[-55.201242,-26.782253],[-55.198134,-26.783702],[-55.19664,-26.783691],[-55.196022,-26.783182],[-55.195116,-26.781328],[-55.19296,-26.779354],[-55.191924,-26.779038],[-55.190431,-26.77959],[-55.189546,-26.77944],[-55.18948,-26.778781],[-55.190178,-26.777899],[-55.190575,-26.775967],[-55.189259,-26.77447],[-55.186663,-26.774688],[-55.184654,-26.774351],[-55.183152,-26.775422],[-55.182423,-26.775213],[-55.181707,-26.774209],[-55.181141,-26.774029],[-55.179135,-26.775898],[-55.178643,-26.775969],[-55.177025,-26.774642],[-55.173674,-26.774469],[-55.173826,-26.774004],[-55.176314,-26.772704],[-55.179165,-26.772256],[-55.180523,-26.771694],[-55.183295,-26.769515],[-55.184923,-26.76893],[-55.186865,-26.766792],[-55.188063,-26.767223],[-55.189144,-26.768327],[-55.190517,-26.768647],[-55.191895,-26.769884],[-55.192759,-26.770094],[-55.194169,-26.769931],[-55.197135,-26.768264],[-55.197397,-26.767558],[-55.197188,-26.766137],[-55.196383,-26.765244],[-55.193838,-26.764649],[-55.19341,-26.764272],[-55.193306,-26.763535],[-55.193894,-26.760489],[-55.196052,-26.757506],[-55.197716,-26.756489],[-55.197868,-26.756006],[-55.197338,-26.755385],[-55.195395,-26.754556],[-55.193871,-26.753447],[-55.19263,-26.751484],[-55.192353,-26.748903],[-55.192991,-26.746904],[-55.194707,-26.74568],[-55.195609,-26.745891],[-55.196159,-26.747654],[-55.196863,-26.747637],[-55.197282,-26.747322],[-55.197508,-26.7436],[-55.197773,-26.742908],[-55.198981,-26.741925],[-55.198988,-26.739414],[-55.198814,-26.73877],[-55.198289,-26.738379],[-55.195958,-26.738743],[-55.192918,-26.738758],[-55.190987,-26.737804],[-55.190799,-26.737008],[-55.191851,-26.733883],[-55.191787,-26.729376],[-55.194728,-26.728234],[-55.196315,-26.72841],[-55.200571,-26.730367],[-55.202124,-26.731494],[-55.203095,-26.731611],[-55.203699,-26.730589],[-55.203119,-26.730054],[-55.202206,-26.72993],[-55.202392,-26.729145],[-55.205542,-26.726762],[-55.207571,-26.724731],[-55.208644,-26.725407],[-55.209287,-26.725408],[-55.210985,-26.724496],[-55.213145,-26.72268],[-55.213891,-26.723033],[-55.214403,-26.724026],[-55.216766,-26.723524],[-55.219454,-26.721676],[-55.221516,-26.721033],[-55.222503,-26.720287],[-55.222325,-26.71776],[-55.221704,-26.717292],[-55.219248,-26.717709],[-55.217725,-26.719052],[-55.216999,-26.718777],[-55.216145,-26.717949],[-55.215721,-26.71736],[-55.215793,-26.715524],[-55.216606,-26.715262],[-55.217917,-26.715519],[-55.218299,-26.714167],[-55.217575,-26.713782],[-55.215775,-26.714337],[-55.215419,-26.714027],[-55.215312,-26.713001],[-55.214711,-26.712636],[-55.213989,-26.713069],[-55.213299,-26.715149],[-55.209651,-26.718334],[-55.208919,-26.719837],[-55.207326,-26.719616],[-55.206537,-26.718327],[-55.208081,-26.718016],[-55.208188,-26.717596],[-55.204954,-26.714674],[-55.205915,-26.71235],[-55.203589,-26.710991],[-55.202903,-26.709808],[-55.202867,-26.708793],[-55.203756,-26.707991],[-55.203681,-26.706176],[-55.204453,-26.705631],[-55.205674,-26.70626],[-55.20742,-26.705791],[-55.211235,-26.705795],[-55.211718,-26.70639],[-55.211971,-26.707892],[-55.213273,-26.707772],[-55.213617,-26.705202],[-55.215723,-26.703598],[-55.215824,-26.700928],[-55.21869,-26.698828],[-55.2202,-26.698599],[-55.222088,-26.698773],[-55.22243,-26.6994],[-55.220678,-26.702663],[-55.218965,-26.703805],[-55.216544,-26.704796],[-55.216775,-26.706836],[-55.217274,-26.707135],[-55.219021,-26.70728],[-55.220485,-26.705795],[-55.225363,-26.704684],[-55.227835,-26.705506],[-55.227727,-26.705979],[-55.225238,-26.706168],[-55.223873,-26.707118],[-55.225005,-26.710045],[-55.224938,-26.712491],[-55.227105,-26.712972],[-55.228596,-26.712796],[-55.23103,-26.711924],[-55.232186,-26.711919],[-55.233804,-26.712861],[-55.23513,-26.714993],[-55.235583,-26.715128],[-55.238647,-26.714602],[-55.24039,-26.712618],[-55.242484,-26.710827],[-55.243299,-26.709482],[-55.247454,-26.707163],[-55.249169,-26.704834],[-55.24908,-26.704268],[-55.247726,-26.702979],[-55.245507,-26.702396],[-55.244164,-26.701717],[-55.242399,-26.7014],[-55.240458,-26.702137],[-55.240576,-26.701588],[-55.242333,-26.69968],[-55.247373,-26.699373],[-55.248377,-26.698702],[-55.248348,-26.698132],[-55.24646,-26.697243],[-55.245807,-26.695556],[-55.244632,-26.694876],[-55.244639,-26.69383],[-55.244234,-26.693289],[-55.243741,-26.693319],[-55.243825,-26.694223],[-55.242572,-26.69511],[-55.242476,-26.696463],[-55.24075,-26.69451],[-55.239072,-26.694611],[-55.238199,-26.695272],[-55.238279,-26.696532],[-55.236827,-26.696686],[-55.235538,-26.698042],[-55.234232,-26.69715],[-55.231677,-26.698202],[-55.231058,-26.700396],[-55.230455,-26.700768],[-55.229523,-26.70081],[-55.228921,-26.700469],[-55.229969,-26.698022],[-55.229972,-26.697205],[-55.228332,-26.69584],[-55.228023,-26.694776],[-55.226643,-26.695742],[-55.226909,-26.696766],[-55.225502,-26.69636],[-55.225282,-26.695955],[-55.225825,-26.695488],[-55.22619,-26.694419],[-55.22538,-26.694007],[-55.224707,-26.693218],[-55.223904,-26.691488],[-55.222851,-26.691055],[-55.222036,-26.689962],[-55.220572,-26.689343],[-55.220067,-26.690601],[-55.219501,-26.690964],[-55.216787,-26.689242],[-55.217218,-26.688575],[-55.21925,-26.687418],[-55.220259,-26.685652],[-55.223483,-26.684492],[-55.223347,-26.683917],[-55.221732,-26.6834],[-55.221495,-26.682594],[-55.220294,-26.682579],[-55.220836,-26.681444],[-55.221881,-26.681245],[-55.222716,-26.68191],[-55.223517,-26.68132],[-55.224108,-26.682027],[-55.225587,-26.681851],[-55.226553,-26.681028],[-55.226392,-26.680597],[-55.224598,-26.679501],[-55.225117,-26.67726],[-55.223969,-26.676672],[-55.224219,-26.675867],[-55.223639,-26.675386],[-55.22362,-26.67396],[-55.222817,-26.672831],[-55.222804,-26.671797],[-55.228096,-26.669503],[-55.229351,-26.668214],[-55.229611,-26.666917],[-55.230332,-26.667075],[-55.231542,-26.66811],[-55.231597,-26.666951],[-55.232649,-26.66566],[-55.232889,-26.664905],[-55.2327,-26.664243],[-55.231732,-26.663365],[-55.234366,-26.662888],[-55.235052,-26.663374],[-55.235566,-26.662961],[-55.236477,-26.661248],[-55.237939,-26.66188],[-55.239817,-26.66212],[-55.241807,-26.661892],[-55.244494,-26.662796],[-55.244875,-26.662765],[-55.245499,-26.662042],[-55.245975,-26.663031],[-55.246478,-26.662952],[-55.246563,-26.662032],[-55.245444,-26.659884],[-55.245772,-26.65875],[-55.245124,-26.657776],[-55.246686,-26.656767],[-55.246148,-26.655537],[-55.246008,-26.653874],[-55.243745,-26.653418],[-55.244798,-26.652424],[-55.2448,-26.652095],[-55.243477,-26.651591],[-55.241679,-26.650337],[-55.241034,-26.648934],[-55.24025,-26.648175],[-55.241619,-26.647307],[-55.241406,-26.645951],[-55.238377,-26.645146],[-55.237747,-26.643771],[-55.236927,-26.644559],[-55.236212,-26.644758],[-55.237058,-26.642332],[-55.236765,-26.641285],[-55.235662,-26.641809],[-55.233891,-26.641733],[-55.233902,-26.640776],[-55.234451,-26.640318],[-55.234629,-26.639178],[-55.233468,-26.638392],[-55.233315,-26.637925],[-55.235347,-26.635798],[-55.234248,-26.634854],[-55.234978,-26.633839],[-55.233269,-26.631972],[-55.229904,-26.630996],[-55.230777,-26.629802],[-55.232184,-26.629016],[-55.23286,-26.629272],[-55.23429,-26.630987],[-55.235327,-26.631253],[-55.236601,-26.629287],[-55.236098,-26.628595],[-55.236742,-26.628161],[-55.23617,-26.627914],[-55.236237,-26.62759],[-55.238,-26.626863],[-55.237792,-26.624306],[-55.236847,-26.623757],[-55.236577,-26.622707],[-55.236976,-26.622211],[-55.236375,-26.621797],[-55.236085,-26.621053],[-55.235446,-26.621266],[-55.234912,-26.620817],[-55.235076,-26.619353],[-55.234731,-26.618179],[-55.234039,-26.617462],[-55.232652,-26.617138],[-55.230411,-26.617859],[-55.230124,-26.617644],[-55.230344,-26.617249],[-55.22978,-26.616583],[-55.229296,-26.616546],[-55.229172,-26.616246],[-55.228701,-26.616462],[-55.227007,-26.615732],[-55.226065,-26.616542],[-55.225378,-26.616249],[-55.223715,-26.616305],[-55.223359,-26.61561],[-55.222515,-26.615852],[-55.221079,-26.615396],[-55.219325,-26.615622],[-55.218456,-26.615115],[-55.218582,-26.613943],[-55.217443,-26.612877],[-55.217654,-26.612406],[-55.216406,-26.612029],[-55.215507,-26.610574],[-55.214027,-26.609608],[-55.213697,-26.608954],[-55.213223,-26.608966],[-55.211753,-26.607805],[-55.21074,-26.605874],[-55.210299,-26.60414],[-55.209707,-26.603667],[-55.208345,-26.604761],[-55.20623,-26.607542],[-55.204551,-26.608721],[-55.204195,-26.610946],[-55.188274,-26.604484],[-55.173241,-26.604243],[-55.157684,-26.599204],[-55.147647,-26.607861],[-55.144794,-26.611285],[-55.138916,-26.614611],[-55.13017,-26.614122],[-55.121452,-26.614508],[-55.118764,-26.615411],[-55.116959,-26.623827],[-55.111214,-26.627374],[-55.110561,-26.628119],[-55.11067,-26.62929],[-55.113042,-26.636623],[-55.111366,-26.654536],[-55.115429,-26.664722],[-55.115471,-26.665715],[-55.108183,-26.671747],[-55.109849,-26.671963],[-55.105007,-26.68458],[-55.096929,-26.701599],[-55.096079,-26.701434],[-55.095439,-26.701999],[-55.094255,-26.702159],[-55.093607,-26.702687],[-55.090242,-26.702457],[-55.088318,-26.702034],[-55.085831,-26.702154],[-55.083175,-26.703215],[-55.080162,-26.703368],[-55.079449,-26.703891],[-55.079557,-26.704718],[-55.07724,-26.705134],[-55.077051,-26.705542],[-55.075077,-26.704865],[-55.074421,-26.703028],[-55.073002,-26.704431],[-55.072212,-26.705927],[-55.071353,-26.706764],[-55.071239,-26.707449],[-55.069644,-26.708316],[-55.067464,-26.707943],[-55.066732,-26.707468],[-55.066213,-26.705602],[-55.065778,-26.705596],[-55.065313,-26.706276],[-55.065485,-26.707221],[-55.065005,-26.707048],[-55.064116,-26.707419],[-55.063572,-26.708287],[-55.063133,-26.708286],[-55.062527,-26.708936],[-55.06171,-26.708867],[-55.061745,-26.709679],[-55.06043,-26.71055],[-55.060209,-26.711635],[-55.058599,-26.71294],[-55.058111,-26.712432],[-55.057138,-26.713439],[-55.055637,-26.713969],[-55.05519,-26.715231],[-55.054504,-26.715095],[-55.055013,-26.715725],[-55.054483,-26.716214],[-55.054615,-26.716631],[-55.054036,-26.717268],[-55.053835,-26.718105],[-55.054827,-26.718263],[-55.055071,-26.718889],[-55.054781,-26.720244],[-55.053592,-26.721062],[-55.05451,-26.721562],[-55.054946,-26.723279],[-55.05568,-26.723767],[-55.056192,-26.723553],[-55.056375,-26.724038],[-55.056139,-26.724468],[-55.056681,-26.72495],[-55.056833,-26.725854],[-55.055839,-26.725322],[-55.056196,-26.725778],[-55.054421,-26.72671],[-55.053948,-26.728225],[-55.053429,-26.727464],[-55.052367,-26.727955],[-55.051514,-26.726991],[-55.051799,-26.726142],[-55.05107,-26.725617],[-55.049952,-26.725435],[-55.049749,-26.726091],[-55.049279,-26.725917],[-55.048212,-26.726801],[-55.047648,-26.726685],[-55.047083,-26.72591],[-55.04551,-26.72689],[-55.044986,-26.72686],[-55.044948,-26.728755],[-55.044374,-26.728652],[-55.043357,-26.729866],[-55.042435,-26.730011],[-55.041577,-26.729589],[-55.041565,-26.729864],[-55.040757,-26.730245],[-55.040665,-26.730867],[-55.039736,-26.73066],[-55.039912,-26.731587],[-55.038921,-26.732052],[-55.039007,-26.732875],[-55.038391,-26.733836],[-55.038906,-26.734223],[-55.039127,-26.735543],[-55.039556,-26.736118],[-55.03905,-26.736643],[-55.039653,-26.737694],[-55.039544,-26.73971],[-55.037185,-26.742706],[-55.036079,-26.742505],[-55.035416,-26.742789],[-55.034092,-26.742685],[-55.033464,-26.741697],[-55.032809,-26.741512],[-55.030623,-26.742028],[-55.029838,-26.741579],[-55.02759,-26.741372],[-55.024121,-26.74187],[-55.023205,-26.741591],[-55.020756,-26.741728],[-55.018965,-26.741468],[-55.01868,-26.742281],[-55.018966,-26.743034],[-55.01854,-26.743277],[-55.017779,-26.743185],[-55.016791,-26.743681],[-55.016702,-26.743305],[-55.016426,-26.74336],[-55.015106,-26.744501],[-55.014038,-26.746052],[-55.013916,-26.746687],[-55.014563,-26.747224],[-55.014382,-26.747961],[-55.015319,-26.747983],[-55.015692,-26.748377],[-55.015646,-26.749383],[-55.015007,-26.750204],[-55.014541,-26.750369],[-55.013632,-26.749797],[-55.010762,-26.751322],[-55.010878,-26.754451],[-55.011314,-26.755545],[-55.010835,-26.757569],[-55.010269,-26.757985],[-55.009488,-26.757997],[-55.008683,-26.757074],[-55.007621,-26.757172],[-55.00632,-26.758056],[-55.005433,-26.759194],[-55.005193,-26.760987],[-55.004729,-26.761716],[-55.002149,-26.76214],[-55.001339,-26.761826],[-54.999399,-26.76369],[-55.002306,-26.764972],[-55.002231,-26.765806],[-55.001615,-26.766668],[-55.00018,-26.767686],[-54.999277,-26.770169],[-54.999281,-26.770688],[-54.999716,-26.771023],[-55.002416,-26.771684],[-55.002913,-26.772183],[-55.002728,-26.773349],[-55.001539,-26.775593],[-55.00162,-26.776565],[-55.002328,-26.776827],[-55.003457,-26.776613],[-55.005089,-26.775174],[-55.005852,-26.773659],[-55.006583,-26.76964],[-55.008719,-26.770256],[-55.009696,-26.771687],[-55.011379,-26.773272],[-55.010977,-26.776886],[-55.011169,-26.778716],[-55.011826,-26.780097],[-55.011234,-26.780775],[-55.011405,-26.782289],[-55.009662,-26.783587],[-55.007526,-26.784392],[-55.007929,-26.784947],[-55.01003,-26.786264],[-55.010065,-26.788324],[-55.017018,-26.78869],[-55.027501,-26.790051],[-55.041837,-26.794138],[-55.053897,-26.798339],[-55.060491,-26.802507],[-55.068199,-26.807883],[-55.084487,-26.829966],[-55.090559,-26.835492],[-55.098391,-26.839486],[-55.106244,-26.842183],[-55.119354,-26.847457],[-55.128888,-26.853459],[-55.1396,-26.864142],[-55.144023,-26.870595],[-55.146681,-26.878925],[-55.148829,-26.878404],[-55.150045,-26.877486]]]}}]}
