{"type":"FeatureCollection","name":"distrito","features":[{"type":"Feature","properties":{"clave":"7-3","nombre":"Bella Vista"},"geometry":{"type":"Polygon","coordinates":[[[-55.535433,-27.095821],[-55.647965,-26.994747],[-55.645658,-26.989688],[-55.646013,-26.986974],[-55.642488,-26.98342],[-55.641161,-26.982324],[-55.638688,-26.981036],[-55.633826,-26.979003],[-55.61354,-26.961238],[-55.612729,-26.960039],[-55.611681,-26.959189],[-55.610273,-26.959048],[-55.607496,-26.957143],[-55.605605,-26.956899],[-55.604443,-26.955543],[-55.603045,-26.954554],[-55.597754,-26.952308],[-55.57961,-26.946872],[-55.616689,-26.913829],[-55.637888,-26.895337],[-55.668452,-26.867867],[-55.680072,-26.856641],[-55.699111,-26.83916],[-55.693613,-26.834724],[-55.696101,-26.83186],[-55.761764,-26.773016],[-55.751131,-26.766954],[-55.509422,-26.983646],[-55.497321,-26.977036],[-55.493981,-26.976693],[-55.490715,-26.977507],[-55.48631,-26.973412],[-55.475925,-26.949879],[-55.472854,-26.946804],[-55.470837,-26.946204],[-55.469745,-26.947989],[-55.468141,-26.948937],[-55.463956,-26.948558],[-55.46083,-26.950338],[-55.458871,-26.952916],[-55.457799,-26.955405],[-55.452527,-26.959436],[-55.452198,-26.960597],[-55.453112,-26.961555],[-55.453156,-26.962043],[-55.450178,-26.963247],[-55.447202,-26.962032],[-55.448254,-26.958812],[-55.448448,-26.956422],[-55.445153,-26.95282],[-55.444008,-26.952618],[-55.441906,-26.954562],[-55.437771,-26.955654],[-55.435247,-26.959697],[-55.432329,-26.9624],[-55.429867,-26.962661],[-55.426789,-26.964541],[-55.426223,-26.966836],[-55.426669,-26.968836],[-55.431834,-26.971944],[-55.432587,-26.972855],[-55.432477,-26.974976],[-55.431241,-26.976948],[-55.42908,-26.978774],[-55.424182,-26.981716],[-55.420562,-26.982669],[-55.416798,-26.982365],[-55.415666,-26.982659],[-55.41205,-26.9876],[-55.417323,-26.991106],[-55.424488,-26.997115],[-55.429747,-27.004232],[-55.436531,-27.010671],[-55.444188,-27.022795],[-55.450662,-27.035836],[-55.452754,-27.041938],[-55.456543,-27.058332],[-55.455759,-27.071621],[-55.455079,-27.074825],[-55.45366,-27.077562],[-55.453988,-27.080816],[-55.45262,-27.084258],[-55.45268,-27.08795],[-55.449857,-27.093759],[-55.449116,-27.097082],[-55.452452,-27.102372],[-55.45863,-27.107152],[-55.467685,-27.109847],[-55.484358,-27.109309],[-55.510134,-27.103835],[-55.531918,-27.101683],[-55.537614,-27.096518],[-55.535433,-27.095821]]]}}]}
