{"type":"FeatureCollection","name":"distrito","features":[{"type":"Feature","properties":{"clave":"12-29","nombre":"Villalbín"},"geometry":{"type":"Polygon","coordinates":[[[-57.812567,-27.209314],[-57.847519,-27.246664],[-57.863325,-27.247697],[-57.865879,-27.251183],[-57.875252,-27.269875],[-57.874248,-27.27537],[-57.87235,-27.276978],[-57.876837,-27.275668],[-57.882246,-27.275003],[-57.887313,-27.275812],[-57.891457,-27.278834],[-57.893612,-27.283444],[-57.89722,-27.292985],[-57.901016,-27.296534],[-57.906094,-27.298603],[-57.909039,-27.298794],[-57.913387,-27.297925],[-57.924189,-27.294491],[-57.934172,-27.291692],[-57.944746,-27.289309],[-57.953317,-27.286833],[-57.961056,-27.283417],[-57.968786,-27.27895],[-57.978149,-27.272894],[-57.984007,-27.269911],[-57.990814,-27.267761],[-57.995984,-27.266778],[-58.00358,-27.254076],[-58.010319,-27.248601],[-58.014583,-27.244728],[-58.017551,-27.2395],[-58.01101,-27.202519],[-58.011555,-27.192262],[-58.010584,-27.164573],[-58.000311,-27.12608],[-57.998431,-27.120223],[-57.985849,-27.055285],[-57.981671,-27.055134],[-57.977584,-27.055475],[-57.975294,-27.054641],[-57.965077,-27.061969],[-57.901749,-27.082718],[-57.830418,-27.105243],[-57.781868,-27.194812],[-57.7855,-27.211832],[-57.786493,-27.210235],[-57.786811,-27.207513],[-57.787695,-27.206504],[-57.787843,-27.205485],[-57.789521,-27.204669],[-57.791223,-27.204149],[-57.791664,-27.20426],[-57.793232,-27.205283],[-57.794267,-27.207113],[-57.794579,-27.207188],[-57.795778,-27.207127],[-57.797723,-27.206191],[-57.79848,-27.206445],[-57.799128,-27.206234],[-57.800525,-27.206922],[-57.801308,-27.206651],[-57.805116,-27.203612],[-57.805328,-27.205447],[-57.80801,-27.209549],[-57.809317,-27.208966],[-57.812567,-27.209314]]]}}]}
