{"type":"FeatureCollection","name":"distrito","features":[{"type":"Feature","properties":{"clave":"7-29","nombre":"Jesús"},"geometry":{"type":"Polygon","coordinates":[[[-55.806551,-27.075553],[-55.829321,-27.095275],[-55.834405,-27.100237],[-55.839515,-27.104514],[-55.840555,-27.10553],[-55.840658,-27.105986],[-55.87044,-27.079581],[-55.871236,-27.077712],[-55.872713,-27.077318],[-55.873966,-27.075572],[-55.876404,-27.075763],[-55.878446,-27.075518],[-55.878538,-27.074015],[-55.879163,-27.072052],[-55.877785,-27.070732],[-55.878157,-27.069896],[-55.877924,-27.067772],[-55.878146,-27.066167],[-55.877738,-27.062147],[-55.876639,-27.060084],[-55.876056,-27.058003],[-55.875167,-27.05657],[-55.868758,-27.054018],[-55.864884,-27.051283],[-55.861773,-27.050901],[-55.857556,-27.051224],[-55.855922,-27.050759],[-55.855078,-27.044988],[-55.822887,-27.011457],[-55.811983,-27.018813],[-55.786451,-26.992066],[-55.767162,-27.009489],[-55.76684,-27.012466],[-55.747678,-27.010758],[-55.745405,-27.023571],[-55.744414,-27.022324],[-55.744499,-27.021228],[-55.744097,-27.020349],[-55.740476,-27.01727],[-55.73871,-27.01483],[-55.737672,-27.014528],[-55.737149,-27.013846],[-55.737006,-27.013547],[-55.737434,-27.012837],[-55.736992,-27.01198],[-55.737141,-27.010379],[-55.736322,-27.009731],[-55.735707,-27.008665],[-55.733188,-27.00908],[-55.731425,-27.009037],[-55.729478,-27.008731],[-55.727644,-27.007696],[-55.72614,-27.008158],[-55.726424,-27.009244],[-55.724272,-27.008766],[-55.724684,-27.010946],[-55.723925,-27.011721],[-55.722589,-27.011573],[-55.721885,-27.010619],[-55.721462,-27.01048],[-55.719182,-27.012136],[-55.715222,-27.013247],[-55.715313,-27.015247],[-55.714488,-27.018702],[-55.715274,-27.019561],[-55.712871,-27.021789],[-55.711492,-27.022165],[-55.709604,-27.023703],[-55.706849,-27.025067],[-55.70423,-27.024404],[-55.702711,-27.023464],[-55.703003,-27.024124],[-55.702881,-27.02579],[-55.704071,-27.026587],[-55.704148,-27.027097],[-55.700989,-27.02942],[-55.703365,-27.032247],[-55.704484,-27.034701],[-55.702265,-27.035283],[-55.700195,-27.03456],[-55.69976,-27.035528],[-55.700059,-27.036512],[-55.700663,-27.037018],[-55.70209,-27.037022],[-55.703771,-27.036482],[-55.703097,-27.039373],[-55.702555,-27.039794],[-55.700399,-27.040191],[-55.698923,-27.04177],[-55.696064,-27.042299],[-55.694991,-27.042946],[-55.694894,-27.043343],[-55.697426,-27.044339],[-55.70071,-27.043721],[-55.70472,-27.043897],[-55.705387,-27.044375],[-55.70549,-27.045228],[-55.705006,-27.04601],[-55.702247,-27.04767],[-55.701731,-27.048443],[-55.698399,-27.048718],[-55.694804,-27.048407],[-55.69418,-27.048725],[-55.694165,-27.049114],[-55.69539,-27.049579],[-55.697012,-27.051538],[-55.698889,-27.052861],[-55.69857,-27.053608],[-55.695961,-27.05388],[-55.693889,-27.05237],[-55.692897,-27.052398],[-55.691934,-27.05309],[-55.689447,-27.050384],[-55.686841,-27.048451],[-55.685411,-27.048075],[-55.681881,-27.048108],[-55.681841,-27.048453],[-55.683089,-27.05016],[-55.682272,-27.050861],[-55.681926,-27.053705],[-55.681368,-27.054259],[-55.679263,-27.055062],[-55.676736,-27.057359],[-55.677355,-27.057892],[-55.677888,-27.057913],[-55.680378,-27.057196],[-55.68225,-27.057493],[-55.683093,-27.059312],[-55.685284,-27.060583],[-55.685162,-27.06152],[-55.683586,-27.06427],[-55.684204,-27.064902],[-55.685547,-27.064799],[-55.687137,-27.064007],[-55.689692,-27.060937],[-55.6903,-27.060794],[-55.690175,-27.062093],[-55.690829,-27.062725],[-55.691157,-27.064588],[-55.69161,-27.065152],[-55.692821,-27.065311],[-55.693642,-27.065895],[-55.696669,-27.064902],[-55.698037,-27.065804],[-55.701562,-27.066215],[-55.701834,-27.066547],[-55.701683,-27.066858],[-55.700078,-27.06895],[-55.700028,-27.071682],[-55.699419,-27.073519],[-55.698085,-27.074379],[-55.697275,-27.074471],[-55.696983,-27.074303],[-55.696725,-27.072787],[-55.694749,-27.070333],[-55.693558,-27.069976],[-55.692084,-27.070209],[-55.688626,-27.071971],[-55.688141,-27.072542],[-55.689421,-27.07476],[-55.692609,-27.075695],[-55.692255,-27.077716],[-55.689826,-27.077891],[-55.685481,-27.07678],[-55.685047,-27.076184],[-55.684117,-27.069164],[-55.685767,-27.067994],[-55.68607,-27.06724],[-55.6833,-27.066704],[-55.68144,-27.066999],[-55.680404,-27.067516],[-55.678442,-27.070213],[-55.676862,-27.07484],[-55.675761,-27.076228],[-55.671314,-27.076005],[-55.666538,-27.074034],[-55.665728,-27.074175],[-55.666064,-27.076877],[-55.666915,-27.076408],[-55.668314,-27.076273],[-55.66909,-27.079062],[-55.66917,-27.081614],[-55.671019,-27.085384],[-55.672629,-27.084576],[-55.67412,-27.084426],[-55.674897,-27.083989],[-55.676882,-27.080979],[-55.677905,-27.079935],[-55.678329,-27.07989],[-55.678579,-27.083612],[-55.678868,-27.084108],[-55.679561,-27.084576],[-55.683394,-27.085418],[-55.683435,-27.086604],[-55.682933,-27.087142],[-55.674243,-27.088015],[-55.673349,-27.088893],[-55.673163,-27.090407],[-55.674212,-27.092528],[-55.678178,-27.095903],[-55.679503,-27.098911],[-55.680516,-27.098822],[-55.682755,-27.096028],[-55.684164,-27.091943],[-55.685756,-27.091003],[-55.697026,-27.09282],[-55.697804,-27.093881],[-55.69998,-27.09502],[-55.700609,-27.097824],[-55.699619,-27.102374],[-55.698105,-27.102853],[-55.697077,-27.102745],[-55.695867,-27.103935],[-55.693247,-27.104685],[-55.690322,-27.100065],[-55.689722,-27.099418],[-55.689227,-27.099315],[-55.688385,-27.100525],[-55.686349,-27.101641],[-55.68375,-27.103724],[-55.683959,-27.104746],[-55.687115,-27.105368],[-55.687914,-27.106231],[-55.686524,-27.107107],[-55.684866,-27.108935],[-55.683239,-27.109677],[-55.683009,-27.110481],[-55.683236,-27.111537],[-55.684138,-27.110912],[-55.684911,-27.111944],[-55.685922,-27.111421],[-55.686264,-27.110914],[-55.686961,-27.110844],[-55.687049,-27.110357],[-55.68777,-27.110928],[-55.688036,-27.110114],[-55.688971,-27.109955],[-55.689691,-27.110174],[-55.690081,-27.109889],[-55.690743,-27.110058],[-55.691623,-27.10979],[-55.692806,-27.110596],[-55.694116,-27.112923],[-55.694511,-27.11276],[-55.694355,-27.111802],[-55.694726,-27.111462],[-55.694974,-27.11165],[-55.69494,-27.112435],[-55.696382,-27.112249],[-55.698467,-27.113781],[-55.699132,-27.113277],[-55.699525,-27.112355],[-55.699279,-27.111956],[-55.698307,-27.112177],[-55.698834,-27.111415],[-55.699184,-27.109694],[-55.698074,-27.106664],[-55.699361,-27.104902],[-55.699961,-27.10521],[-55.70062,-27.105031],[-55.700594,-27.105617],[-55.701331,-27.105344],[-55.702161,-27.106128],[-55.702493,-27.105874],[-55.701998,-27.105206],[-55.702282,-27.104933],[-55.702835,-27.105507],[-55.703576,-27.105586],[-55.704092,-27.105993],[-55.707215,-27.105823],[-55.708948,-27.106128],[-55.709984,-27.105695],[-55.71328,-27.106005],[-55.716105,-27.104659],[-55.716172,-27.106302],[-55.716488,-27.10654],[-55.715717,-27.107494],[-55.716409,-27.107853],[-55.715665,-27.108518],[-55.717023,-27.109442],[-55.717743,-27.109607],[-55.719348,-27.109739],[-55.721219,-27.109219],[-55.722586,-27.108225],[-55.722869,-27.107284],[-55.723587,-27.107282],[-55.723214,-27.106466],[-55.721952,-27.106477],[-55.722742,-27.105766],[-55.72197,-27.104816],[-55.723193,-27.104222],[-55.723158,-27.102606],[-55.723625,-27.101978],[-55.72303,-27.101874],[-55.723187,-27.101243],[-55.722671,-27.100214],[-55.723997,-27.100027],[-55.724332,-27.099394],[-55.723845,-27.099128],[-55.725272,-27.097105],[-55.726252,-27.096541],[-55.726062,-27.095957],[-55.726593,-27.0951],[-55.726383,-27.093843],[-55.725945,-27.09388],[-55.725421,-27.094425],[-55.724199,-27.093268],[-55.725525,-27.092021],[-55.725516,-27.091614],[-55.724066,-27.091024],[-55.724062,-27.090008],[-55.722432,-27.08988],[-55.722144,-27.089196],[-55.724627,-27.087237],[-55.724697,-27.086529],[-55.7253,-27.086219],[-55.725302,-27.08593],[-55.723884,-27.084938],[-55.724171,-27.084335],[-55.724853,-27.084147],[-55.725803,-27.082942],[-55.725511,-27.081536],[-55.726193,-27.080179],[-55.729276,-27.08036],[-55.730518,-27.080263],[-55.730872,-27.079878],[-55.730744,-27.077882],[-55.730973,-27.077261],[-55.730199,-27.075137],[-55.730851,-27.073441],[-55.73153,-27.073213],[-55.731387,-27.072747],[-55.731893,-27.072562],[-55.733781,-27.073179],[-55.734301,-27.072642],[-55.734749,-27.072696],[-55.735491,-27.072255],[-55.736451,-27.072905],[-55.736823,-27.073797],[-55.737738,-27.073891],[-55.740243,-27.073372],[-55.740587,-27.073696],[-55.742599,-27.074102],[-55.744797,-27.073151],[-55.74597,-27.073202],[-55.745765,-27.072397],[-55.746111,-27.072301],[-55.746339,-27.072556],[-55.746532,-27.07221],[-55.745863,-27.071743],[-55.746067,-27.071538],[-55.747213,-27.071765],[-55.748883,-27.071157],[-55.749259,-27.071481],[-55.748579,-27.073302],[-55.751982,-27.076497],[-55.750324,-27.07822],[-55.756669,-27.083936],[-55.771039,-27.071072],[-55.773451,-27.072817],[-55.777393,-27.076688],[-55.780627,-27.073782],[-55.781172,-27.073774],[-55.784564,-27.077351],[-55.787392,-27.079709],[-55.798188,-27.070011],[-55.806551,-27.075553]]]}}]}
