{"type":"FeatureCollection","name":"distrito","features":[{"type":"Feature","properties":{"clave":"11-27","nombre":"San Lorenzo"},"geometry":{"type":"Polygon","coordinates":[[[-57.516204,-25.38927],[-57.517328,-25.38959],[-57.517486,-25.388199],[-57.519225,-25.388506],[-57.519074,-25.387473],[-57.519735,-25.387165],[-57.519294,-25.386108],[-57.520538,-25.385419],[-57.521287,-25.386727],[-57.523275,-25.385767],[-57.519709,-25.379711],[-57.520392,-25.379397],[-57.518315,-25.376478],[-57.520196,-25.375641],[-57.52151,-25.378127],[-57.524223,-25.376931],[-57.525539,-25.379488],[-57.52689,-25.378878],[-57.529162,-25.383209],[-57.53192,-25.38204],[-57.526884,-25.372394],[-57.532456,-25.370617],[-57.532187,-25.369736],[-57.539084,-25.367882],[-57.54064,-25.367174],[-57.540277,-25.365921],[-57.545436,-25.365396],[-57.550058,-25.36571],[-57.550153,-25.36544],[-57.550883,-25.365528],[-57.550969,-25.363885],[-57.553327,-25.363803],[-57.553109,-25.367516],[-57.556386,-25.367841],[-57.55682,-25.367629],[-57.556903,-25.366824],[-57.565181,-25.363192],[-57.570313,-25.355539],[-57.562601,-25.356821],[-57.557797,-25.35625],[-57.551873,-25.35695],[-57.551026,-25.349914],[-57.545441,-25.340335],[-57.540107,-25.332411],[-57.53468,-25.334717],[-57.534119,-25.333151],[-57.527539,-25.33376],[-57.527164,-25.325075],[-57.528156,-25.324922],[-57.528018,-25.324662],[-57.523431,-25.320839],[-57.521477,-25.32353],[-57.519511,-25.321459],[-57.519989,-25.320814],[-57.518843,-25.320113],[-57.51797,-25.318772],[-57.521677,-25.31579],[-57.52575,-25.311356],[-57.528656,-25.307281],[-57.531194,-25.304349],[-57.533283,-25.302656],[-57.534228,-25.299124],[-57.535964,-25.295795],[-57.532616,-25.297551],[-57.531269,-25.297473],[-57.529643,-25.29655],[-57.528331,-25.296616],[-57.526179,-25.30014],[-57.525212,-25.300975],[-57.524521,-25.30038],[-57.523651,-25.301202],[-57.52384,-25.301383],[-57.521859,-25.30312],[-57.520534,-25.301567],[-57.516025,-25.30415],[-57.514718,-25.301632],[-57.51227,-25.302722],[-57.511421,-25.302669],[-57.51014,-25.304718],[-57.508363,-25.306396],[-57.501744,-25.310077],[-57.501071,-25.310094],[-57.49761,-25.311404],[-57.496208,-25.311306],[-57.49566,-25.311769],[-57.495554,-25.311455],[-57.494787,-25.311575],[-57.494311,-25.311321],[-57.493148,-25.313785],[-57.493318,-25.314089],[-57.491987,-25.315503],[-57.489816,-25.316328],[-57.488544,-25.316071],[-57.486204,-25.317665],[-57.485549,-25.317227],[-57.480668,-25.318486],[-57.480757,-25.31961],[-57.477506,-25.32277],[-57.474983,-25.324464],[-57.474052,-25.324727],[-57.472931,-25.324609],[-57.470987,-25.323413],[-57.470432,-25.323532],[-57.469818,-25.322895],[-57.469609,-25.323601],[-57.470313,-25.324555],[-57.470077,-25.326896],[-57.470725,-25.32994],[-57.471493,-25.330409],[-57.473079,-25.330703],[-57.473495,-25.331164],[-57.473414,-25.331684],[-57.47451,-25.332829],[-57.477365,-25.333731],[-57.477593,-25.335324],[-57.476862,-25.335376],[-57.478047,-25.336683],[-57.478349,-25.338167],[-57.479624,-25.339076],[-57.479959,-25.338972],[-57.479988,-25.339583],[-57.481069,-25.339936],[-57.483204,-25.342335],[-57.483694,-25.344533],[-57.483515,-25.345149],[-57.482631,-25.345946],[-57.481441,-25.346202],[-57.481267,-25.346473],[-57.481531,-25.347154],[-57.482116,-25.347617],[-57.482108,-25.348252],[-57.483231,-25.348367],[-57.485192,-25.349829],[-57.4867,-25.352212],[-57.486975,-25.354107],[-57.487571,-25.355473],[-57.48705,-25.356341],[-57.487559,-25.356909],[-57.484143,-25.361805],[-57.484548,-25.362916],[-57.484665,-25.366998],[-57.48419,-25.37023],[-57.483179,-25.372668],[-57.483069,-25.373638],[-57.483905,-25.378376],[-57.483334,-25.382601],[-57.48385,-25.385617],[-57.485391,-25.390644],[-57.484838,-25.394379],[-57.482815,-25.397731],[-57.482366,-25.401704],[-57.481795,-25.402674],[-57.484556,-25.402515],[-57.484586,-25.401931],[-57.498353,-25.399935],[-57.499395,-25.4018],[-57.503255,-25.40068],[-57.503817,-25.401764],[-57.504439,-25.401364],[-57.506052,-25.403318],[-57.507338,-25.403111],[-57.51446,-25.394086],[-57.516204,-25.38927]]]}}]}
