{"type":"FeatureCollection","name":"distrito","features":[{"type":"Feature","properties":{"clave":"13-6","nombre":"Cerro Corá"},"geometry":{"type":"Polygon","coordinates":[[[-56.130164,-23.045634],[-56.130038,-23.044258],[-56.130439,-23.042874],[-56.132153,-23.041162],[-56.294387,-22.687641],[-56.293604,-22.687023],[-56.292805,-22.685642],[-56.291666,-22.685637],[-56.291419,-22.68648],[-56.290878,-22.686103],[-56.289446,-22.68326],[-56.290814,-22.68197],[-56.290114,-22.679971],[-56.288434,-22.677791],[-56.288368,-22.676571],[-56.287046,-22.674298],[-56.286336,-22.673743],[-56.283187,-22.672718],[-56.282715,-22.672318],[-56.282128,-22.670811],[-56.282913,-22.669397],[-56.281537,-22.667837],[-56.280756,-22.667671],[-56.278887,-22.668733],[-56.278833,-22.67006],[-56.277641,-22.670701],[-56.276685,-22.669888],[-56.275878,-22.668322],[-56.276381,-22.667542],[-56.276105,-22.667284],[-56.275044,-22.667478],[-56.273906,-22.668439],[-56.272471,-22.668387],[-56.271951,-22.669103],[-56.271493,-22.668943],[-56.271151,-22.668363],[-56.269304,-22.668387],[-56.269072,-22.667473],[-56.26964,-22.664599],[-56.269344,-22.664114],[-56.267381,-22.665063],[-56.266388,-22.666043],[-56.265849,-22.666022],[-56.26543,-22.665541],[-56.265257,-22.664886],[-56.265561,-22.664155],[-56.266766,-22.663221],[-56.267679,-22.662991],[-56.267923,-22.661366],[-56.26733,-22.661476],[-56.267103,-22.661109],[-56.267335,-22.660537],[-56.266531,-22.660361],[-56.266586,-22.65883],[-56.266167,-22.658892],[-56.265297,-22.658246],[-56.265553,-22.657457],[-56.26457,-22.655772],[-56.264722,-22.655114],[-56.266077,-22.654605],[-56.265857,-22.654026],[-56.264959,-22.653719],[-56.266022,-22.652428],[-56.265917,-22.652066],[-56.265325,-22.651494],[-56.264916,-22.650386],[-56.26334,-22.650306],[-56.263226,-22.6497],[-56.264057,-22.649072],[-56.264247,-22.648016],[-56.264614,-22.647792],[-56.268382,-22.648523],[-56.268844,-22.648222],[-56.269364,-22.648301],[-56.269525,-22.647521],[-56.268474,-22.647624],[-56.267947,-22.647369],[-56.267197,-22.645608],[-56.266654,-22.645367],[-56.26269,-22.644797],[-56.262061,-22.644433],[-56.263172,-22.643165],[-56.263436,-22.641386],[-56.262603,-22.639905],[-56.261325,-22.639466],[-56.261073,-22.638846],[-56.261223,-22.638494],[-56.262489,-22.637778],[-56.26257,-22.636947],[-56.262097,-22.635305],[-56.259621,-22.634734],[-56.25903,-22.634053],[-56.258753,-22.632914],[-56.258898,-22.632373],[-56.261055,-22.632699],[-56.261505,-22.632461],[-56.258892,-22.630724],[-56.255372,-22.630017],[-56.254688,-22.629476],[-56.253965,-22.628158],[-56.253172,-22.627595],[-56.253448,-22.626132],[-56.254343,-22.626308],[-56.254746,-22.625791],[-56.254725,-22.624503],[-56.254362,-22.623707],[-56.254878,-22.622697],[-56.254172,-22.622373],[-56.254272,-22.621317],[-56.253635,-22.621278],[-56.253448,-22.622284],[-56.25086,-22.623045],[-56.249838,-22.623103],[-56.248164,-22.62263],[-56.245961,-22.621802],[-56.245788,-22.62036],[-56.245289,-22.619626],[-56.243541,-22.618765],[-56.242789,-22.617876],[-56.241929,-22.617772],[-56.239962,-22.616146],[-56.239656,-22.615205],[-56.239811,-22.614668],[-56.24143,-22.613186],[-56.241512,-22.611899],[-56.242042,-22.611499],[-56.241969,-22.610668],[-56.242358,-22.610245],[-56.242573,-22.609072],[-56.241959,-22.608468],[-56.239668,-22.60801],[-56.239319,-22.607114],[-56.238579,-22.606686],[-56.239228,-22.605759],[-56.238974,-22.605076],[-56.240044,-22.603418],[-56.239829,-22.60204],[-56.23918,-22.601883],[-56.237086,-22.603043],[-56.236517,-22.602982],[-56.236201,-22.602574],[-56.23629,-22.601025],[-56.235261,-22.598739],[-56.235769,-22.59815],[-56.234998,-22.597785],[-56.236299,-22.596693],[-56.23652,-22.594594],[-56.235833,-22.593254],[-56.235655,-22.591763],[-56.234044,-22.590707],[-56.233923,-22.589184],[-56.232276,-22.588626],[-56.230772,-22.585398],[-56.229749,-22.584539],[-56.230219,-22.583693],[-56.228656,-22.582172],[-56.228981,-22.58179],[-56.230377,-22.582099],[-56.230739,-22.581947],[-56.230089,-22.580228],[-56.229103,-22.579947],[-56.229694,-22.578008],[-56.227028,-22.578113],[-56.226864,-22.5779],[-56.227226,-22.577301],[-56.226716,-22.57728],[-56.226268,-22.576736],[-56.226694,-22.576024],[-56.225342,-22.575788],[-56.222408,-22.576943],[-56.222185,-22.577954],[-56.221071,-22.579204],[-56.219036,-22.579199],[-56.217816,-22.580665],[-56.214658,-22.581133],[-56.214108,-22.58183],[-56.213473,-22.58208],[-56.21257,-22.581719],[-56.212226,-22.580091],[-56.210425,-22.579053],[-56.209148,-22.57957],[-56.208381,-22.580732],[-56.207411,-22.580967],[-56.205274,-22.58092],[-56.203629,-22.580379],[-56.202635,-22.579687],[-56.2011,-22.579783],[-56.201622,-22.577017],[-56.199748,-22.575689],[-56.200056,-22.572936],[-56.199519,-22.570638],[-56.200373,-22.569509],[-56.200494,-22.568629],[-56.199178,-22.566965],[-56.198048,-22.563684],[-56.198729,-22.562568],[-56.198697,-22.561389],[-56.198331,-22.560777],[-56.195275,-22.560902],[-56.194391,-22.560261],[-56.195444,-22.559331],[-56.194772,-22.556545],[-56.193957,-22.555755],[-56.195029,-22.554112],[-56.194482,-22.552447],[-56.19505,-22.550743],[-56.195856,-22.549997],[-56.197111,-22.549913],[-56.197603,-22.548746],[-56.198479,-22.548091],[-56.197789,-22.546813],[-56.197647,-22.545413],[-56.196803,-22.544857],[-56.194033,-22.544184],[-56.193477,-22.54382],[-56.192544,-22.542623],[-56.192473,-22.541498],[-56.191135,-22.540434],[-56.189502,-22.53983],[-56.188791,-22.539266],[-56.186861,-22.539058],[-56.18532,-22.536462],[-56.184188,-22.536004],[-56.184706,-22.53533],[-56.184701,-22.534846],[-56.182355,-22.533823],[-56.182111,-22.532999],[-56.181134,-22.53234],[-56.081146,-22.592051],[-55.997373,-22.562012],[-55.947077,-22.567724],[-55.937737,-22.550401],[-55.880135,-22.54824],[-55.839331,-22.563075],[-55.825374,-22.612983],[-55.826403,-22.613458],[-55.824931,-22.614768],[-55.81875,-22.624866],[-55.837329,-22.632667],[-55.847383,-22.636398],[-55.864988,-22.650589],[-55.821381,-22.707067],[-55.929061,-22.777918],[-55.928939,-22.778491],[-55.929193,-22.778768],[-55.931042,-22.779521],[-55.93117,-22.779915],[-55.9297,-22.780004],[-55.929805,-22.781075],[-55.92873,-22.781231],[-55.928268,-22.782316],[-55.931545,-22.783187],[-55.932355,-22.781716],[-55.933356,-22.781826],[-55.932514,-22.783144],[-55.93264,-22.784197],[-55.933899,-22.784485],[-55.935466,-22.785386],[-55.93428,-22.786001],[-55.933109,-22.788906],[-55.935383,-22.78926],[-55.934974,-22.790012],[-55.935748,-22.790899],[-55.936859,-22.790897],[-55.938819,-22.790049],[-55.939273,-22.790202],[-55.938719,-22.793601],[-55.938534,-22.79396],[-55.937645,-22.79409],[-55.937241,-22.795286],[-55.936539,-22.795995],[-55.936455,-22.79784],[-55.937042,-22.798233],[-55.9383,-22.798257],[-55.939032,-22.796569],[-55.940621,-22.795419],[-55.94128,-22.795352],[-55.941543,-22.795923],[-55.941136,-22.797633],[-55.942061,-22.799284],[-55.942226,-22.801439],[-55.942831,-22.802278],[-55.943722,-22.802371],[-55.943657,-22.800946],[-55.944668,-22.799995],[-55.945168,-22.798803],[-55.945519,-22.798684],[-55.946135,-22.799929],[-55.947643,-22.800879],[-55.948435,-22.801027],[-55.949536,-22.800478],[-55.94987,-22.800568],[-55.950372,-22.801401],[-55.950394,-22.802801],[-55.951324,-22.80452],[-55.952528,-22.805601],[-55.952771,-22.806262],[-55.951197,-22.807027],[-55.950359,-22.80673],[-55.949604,-22.806829],[-55.9492,-22.807515],[-55.949332,-22.808178],[-55.951587,-22.810246],[-55.953109,-22.810993],[-55.953968,-22.810888],[-55.955268,-22.809127],[-55.956176,-22.809272],[-55.956922,-22.809921],[-55.957032,-22.810562],[-55.956441,-22.81132],[-55.956466,-22.812345],[-55.95554,-22.812859],[-55.95597,-22.813954],[-55.957571,-22.814274],[-55.957102,-22.815363],[-55.957233,-22.81628],[-55.95646,-22.818947],[-55.956596,-22.821315],[-55.955791,-22.822095],[-55.955597,-22.823054],[-55.95624,-22.824113],[-55.956333,-22.825056],[-55.956931,-22.8258],[-55.956623,-22.826217],[-55.955358,-22.826433],[-55.955391,-22.826754],[-55.956259,-22.827192],[-55.956841,-22.82803],[-55.957564,-22.828291],[-55.958867,-22.826739],[-55.958851,-22.825999],[-55.958228,-22.825335],[-55.958297,-22.825024],[-55.958791,-22.824997],[-55.959481,-22.825991],[-55.959929,-22.826161],[-55.961276,-22.824349],[-55.961607,-22.825433],[-55.962109,-22.825983],[-55.963382,-22.826361],[-55.964572,-22.826251],[-55.964905,-22.827666],[-55.964338,-22.829456],[-55.966042,-22.830248],[-55.966701,-22.83134],[-55.967979,-22.832235],[-55.968737,-22.832252],[-55.96945,-22.831501],[-55.972148,-22.830516],[-55.974217,-22.830717],[-55.972118,-22.832207],[-55.97186,-22.833604],[-55.97135,-22.834492],[-55.973716,-22.836646],[-55.973272,-22.840392],[-55.97411,-22.847269],[-55.974691,-22.848203],[-55.975376,-22.848497],[-55.975929,-22.848165],[-55.976003,-22.845261],[-55.976988,-22.845001],[-55.979013,-22.846752],[-55.980992,-22.849225],[-55.982185,-22.849836],[-55.983262,-22.851019],[-55.983858,-22.851177],[-55.98448,-22.850286],[-55.984639,-22.847868],[-55.98514,-22.847227],[-55.986018,-22.846949],[-55.988204,-22.850835],[-55.989471,-22.851043],[-55.990499,-22.850344],[-55.991162,-22.850284],[-55.99388,-22.851886],[-55.994807,-22.852917],[-55.995562,-22.853272],[-55.99723,-22.852119],[-55.99554,-22.850508],[-55.997738,-22.849422],[-55.999443,-22.850355],[-55.999664,-22.851655],[-56.000829,-22.852701],[-56.002965,-22.853233],[-56.004091,-22.854445],[-56.005228,-22.854199],[-56.00563,-22.854521],[-56.005608,-22.855354],[-56.004357,-22.854807],[-56.003688,-22.855082],[-56.002402,-22.856988],[-56.003859,-22.860168],[-56.004885,-22.859985],[-56.005797,-22.860173],[-56.006416,-22.859645],[-56.010979,-22.858135],[-56.012878,-22.859611],[-56.01492,-22.860098],[-56.015118,-22.860547],[-56.013357,-22.860538],[-56.013013,-22.860849],[-56.0139,-22.863305],[-56.013548,-22.863413],[-56.012604,-22.862964],[-56.011887,-22.863427],[-56.012191,-22.864903],[-56.012954,-22.865878],[-56.012006,-22.866269],[-56.011804,-22.866845],[-56.012553,-22.868191],[-56.013397,-22.868244],[-56.013174,-22.869073],[-56.013464,-22.869897],[-56.012401,-22.87204],[-56.012627,-22.872538],[-56.015342,-22.874369],[-56.016871,-22.876235],[-56.017876,-22.876806],[-56.019523,-22.873906],[-56.020881,-22.87386],[-56.021214,-22.872961],[-56.023392,-22.873881],[-56.023466,-22.875376],[-56.026142,-22.878467],[-56.02607,-22.878907],[-56.02487,-22.879017],[-56.02493,-22.880613],[-56.02554,-22.8816],[-56.025306,-22.883159],[-56.026523,-22.884644],[-56.028754,-22.884594],[-56.029048,-22.885897],[-56.0293,-22.886],[-56.030548,-22.885559],[-56.030567,-22.88461],[-56.032599,-22.884557],[-56.03271,-22.885202],[-56.031723,-22.885487],[-56.031076,-22.887318],[-56.031385,-22.887591],[-56.033721,-22.887278],[-56.034102,-22.887458],[-56.035169,-22.889211],[-56.033932,-22.890408],[-56.033644,-22.891767],[-56.036026,-22.892932],[-56.03673,-22.892864],[-56.036987,-22.892279],[-56.036896,-22.891527],[-56.036123,-22.89077],[-56.036222,-22.889941],[-56.038102,-22.887181],[-56.041151,-22.885543],[-56.042551,-22.885568],[-56.043719,-22.885101],[-56.044601,-22.883751],[-56.048566,-22.879359],[-56.049593,-22.880043],[-56.050383,-22.880041],[-56.051141,-22.880902],[-56.05129,-22.881926],[-56.052169,-22.882353],[-56.052369,-22.882834],[-56.051396,-22.883937],[-56.050729,-22.885743],[-56.051029,-22.885965],[-56.053074,-22.885955],[-56.053669,-22.886767],[-56.053474,-22.887066],[-56.052394,-22.886577],[-56.052274,-22.887655],[-56.050932,-22.887901],[-56.050867,-22.888383],[-56.051293,-22.888945],[-56.052776,-22.889445],[-56.053095,-22.890618],[-56.054261,-22.891338],[-56.054485,-22.892884],[-56.056932,-22.89346],[-56.058456,-22.892958],[-56.058268,-22.895005],[-56.058921,-22.897101],[-56.059905,-22.896855],[-56.062469,-22.896928],[-56.062306,-22.898341],[-56.063417,-22.898253],[-56.064436,-22.899589],[-56.066134,-22.899908],[-56.0664,-22.900266],[-56.065925,-22.901206],[-56.066341,-22.901877],[-56.065286,-22.903825],[-56.066836,-22.90467],[-56.068654,-22.904489],[-56.069246,-22.906494],[-56.070106,-22.906531],[-56.072059,-22.905717],[-56.071592,-22.905175],[-56.069945,-22.904824],[-56.070082,-22.904436],[-56.070861,-22.904121],[-56.07135,-22.903541],[-56.072628,-22.903362],[-56.072937,-22.90451],[-56.074212,-22.904505],[-56.074138,-22.907571],[-56.072778,-22.908346],[-56.071802,-22.910471],[-56.070521,-22.911059],[-56.069786,-22.911842],[-56.071149,-22.913517],[-56.071637,-22.913663],[-56.072215,-22.913241],[-56.071471,-22.912055],[-56.072873,-22.911605],[-56.073078,-22.910875],[-56.073944,-22.91033],[-56.074832,-22.910228],[-56.075591,-22.911231],[-56.076038,-22.911251],[-56.076854,-22.909519],[-56.076139,-22.908891],[-56.077157,-22.90837],[-56.077658,-22.907585],[-56.076481,-22.906404],[-56.077526,-22.905955],[-56.077732,-22.905065],[-56.07976,-22.906271],[-56.080443,-22.907468],[-56.082315,-22.906815],[-56.08257,-22.908428],[-56.083964,-22.909766],[-56.082003,-22.910691],[-56.080344,-22.910797],[-56.07979,-22.911363],[-56.079766,-22.911919],[-56.080642,-22.912307],[-56.081589,-22.911931],[-56.082637,-22.912394],[-56.083644,-22.911845],[-56.084625,-22.912012],[-56.08464,-22.912718],[-56.082958,-22.913053],[-56.082406,-22.914197],[-56.083526,-22.914235],[-56.088123,-22.916415],[-56.088242,-22.91818],[-56.087453,-22.920502],[-56.08922,-22.921786],[-56.089144,-22.922201],[-56.088334,-22.922683],[-56.088228,-22.923241],[-56.089112,-22.923536],[-56.089587,-22.924069],[-56.088619,-22.924495],[-56.088637,-22.925743],[-56.088272,-22.926644],[-56.088877,-22.927004],[-56.089825,-22.926485],[-56.090217,-22.926675],[-56.090747,-22.927508],[-56.090728,-22.928238],[-56.091376,-22.929165],[-56.090712,-22.929679],[-56.089114,-22.929469],[-56.088504,-22.930407],[-56.089093,-22.93083],[-56.091046,-22.930647],[-56.091842,-22.931207],[-56.09158,-22.932123],[-56.090611,-22.932167],[-56.089248,-22.93321],[-56.090769,-22.935275],[-56.091977,-22.935623],[-56.092095,-22.936407],[-56.091002,-22.937408],[-56.089962,-22.937863],[-56.089455,-22.938916],[-56.088584,-22.939768],[-56.088625,-22.940113],[-56.089336,-22.941182],[-56.090245,-22.941117],[-56.090668,-22.941475],[-56.090733,-22.942558],[-56.090271,-22.94356],[-56.091024,-22.944503],[-56.093629,-22.944306],[-56.094337,-22.944738],[-56.094388,-22.94557],[-56.09357,-22.9467],[-56.093823,-22.947045],[-56.097174,-22.947797],[-56.097242,-22.948289],[-56.09634,-22.949754],[-56.097421,-22.950769],[-56.099547,-22.950048],[-56.100843,-22.950543],[-56.100989,-22.951892],[-56.100417,-22.953357],[-56.101206,-22.954854],[-56.101334,-22.955717],[-56.100464,-22.956124],[-56.099428,-22.95546],[-56.098649,-22.956038],[-56.098248,-22.956826],[-56.099844,-22.957231],[-56.100846,-22.958978],[-56.103374,-22.960563],[-56.103045,-22.961392],[-56.103265,-22.961892],[-56.104464,-22.961961],[-56.106908,-22.964482],[-56.108618,-22.965188],[-56.108383,-22.966319],[-56.10871,-22.967347],[-56.109185,-22.967894],[-56.110196,-22.96794],[-56.11013,-22.968869],[-56.111156,-22.969666],[-56.111497,-22.970352],[-56.110345,-22.97138],[-56.110551,-22.972618],[-56.108333,-22.975501],[-56.108961,-22.975908],[-56.11053,-22.975611],[-56.111299,-22.97632],[-56.11336,-22.976816],[-56.113792,-22.977466],[-56.112761,-22.978693],[-56.11306,-22.983266],[-56.111422,-22.983802],[-56.110876,-22.983653],[-56.110114,-22.983016],[-56.109066,-22.980901],[-56.107424,-22.981442],[-56.105427,-22.983678],[-56.104343,-22.984172],[-56.104204,-22.987366],[-56.103215,-22.988248],[-56.102596,-22.99018],[-56.102132,-22.990676],[-56.101257,-22.990848],[-56.100688,-22.99181],[-56.098152,-22.99341],[-56.096513,-22.993995],[-56.096518,-22.99435],[-56.098282,-22.995241],[-56.098333,-22.995674],[-56.09612,-22.996555],[-56.094742,-22.996524],[-56.095099,-22.997722],[-56.093435,-22.998083],[-56.091765,-22.999853],[-56.09222,-23.001462],[-56.091654,-23.002348],[-56.091654,-23.002872],[-56.093015,-23.004281],[-56.095793,-23.003999],[-56.096863,-23.003219],[-56.097124,-23.001585],[-56.099508,-23.001284],[-56.099194,-23.002773],[-56.10039,-23.0051],[-56.101416,-23.005851],[-56.10268,-23.005649],[-56.103144,-23.00596],[-56.102729,-23.008084],[-56.103082,-23.009202],[-56.103882,-23.009988],[-56.105655,-23.010544],[-56.105385,-23.01096],[-56.103937,-23.010879],[-56.104525,-23.011776],[-56.104549,-23.012905],[-56.104008,-23.013162],[-56.102926,-23.012942],[-56.101399,-23.0137],[-56.100064,-23.01547],[-56.099962,-23.016063],[-56.10128,-23.016971],[-56.103004,-23.017411],[-56.10379,-23.018077],[-56.105342,-23.021365],[-56.10686,-23.023485],[-56.105686,-23.024639],[-56.106087,-23.025698],[-56.108309,-23.026826],[-56.109712,-23.02578],[-56.110217,-23.025766],[-56.111458,-23.030197],[-56.11227,-23.030261],[-56.114129,-23.029544],[-56.114553,-23.029717],[-56.114462,-23.032218],[-56.113095,-23.032552],[-56.111428,-23.036306],[-56.110663,-23.037099],[-56.109773,-23.03746],[-56.109801,-23.03784],[-56.115321,-23.039155],[-56.115896,-23.040756],[-56.117107,-23.03983],[-56.117755,-23.039833],[-56.118282,-23.04033],[-56.118407,-23.042267],[-56.119394,-23.042495],[-56.120144,-23.043294],[-56.120457,-23.04495],[-56.122644,-23.044457],[-56.123965,-23.045125],[-56.124163,-23.045746],[-56.123012,-23.046371],[-56.122304,-23.049736],[-56.125363,-23.04957],[-56.125614,-23.04932],[-56.124243,-23.048826],[-56.124074,-23.048417],[-56.124887,-23.047765],[-56.126493,-23.047117],[-56.126961,-23.047172],[-56.127719,-23.048284],[-56.130164,-23.045634]]]}}]}
