{"type":"FeatureCollection","name":"distrito","features":[{"type":"Feature","properties":{"clave":"1-7","nombre":"San Lázaro"},"geometry":{"type":"Polygon","coordinates":[[[-57.962244,-22.162072],[-57.958388,-22.142998],[-57.956142,-22.137162],[-57.955934,-22.135428],[-57.956166,-22.133553],[-57.957509,-22.129114],[-57.95942,-22.125196],[-57.960973,-22.122856],[-57.96292,-22.120721],[-57.970411,-22.11556],[-57.974538,-22.113204],[-57.985951,-22.108158],[-57.990167,-22.104637],[-57.991915,-22.102205],[-57.992733,-22.100028],[-57.993374,-22.097057],[-57.993784,-22.092601],[-57.993034,-22.086919],[-57.98958,-22.087323],[-57.988113,-22.087816],[-57.987164,-22.088756],[-57.986122,-22.090497],[-57.984581,-22.09099],[-57.98274,-22.090612],[-57.980733,-22.090895],[-57.974475,-22.089817],[-57.970704,-22.090363],[-57.968937,-22.089963],[-57.966205,-22.088335],[-57.965532,-22.08674],[-57.965036,-22.082357],[-57.963848,-22.080648],[-57.96173,-22.079156],[-57.959918,-22.079347],[-57.95931,-22.07992],[-57.958604,-22.080751],[-57.957837,-22.083222],[-57.956334,-22.085674],[-57.955117,-22.086982],[-57.953797,-22.087536],[-57.951957,-22.087298],[-57.951091,-22.086093],[-57.950316,-22.083789],[-57.949723,-22.083151],[-57.948076,-22.082434],[-57.946115,-22.08235],[-57.942589,-22.082827],[-57.940732,-22.083664],[-57.939075,-22.085133],[-57.937788,-22.087037],[-57.936463,-22.090541],[-57.937632,-22.096817],[-57.936967,-22.099969],[-57.935973,-22.101668],[-57.931951,-22.105115],[-57.929727,-22.106157],[-57.926619,-22.106862],[-57.922598,-22.10679],[-57.921991,-22.107755],[-57.922004,-22.109788],[-57.92292,-22.111151],[-57.924968,-22.113172],[-57.92716,-22.114646],[-57.928841,-22.116854],[-57.930085,-22.119566],[-57.930017,-22.120456],[-57.929724,-22.120616],[-57.928891,-22.120738],[-57.925897,-22.120249],[-57.921441,-22.121259],[-57.916636,-22.121191],[-57.913794,-22.121528],[-57.9113,-22.122526],[-57.907859,-22.125034],[-57.90595,-22.125546],[-57.902638,-22.125176],[-57.892985,-22.122329],[-57.889139,-22.122829],[-57.887528,-22.123958],[-57.887384,-22.128458],[-57.88612,-22.130136],[-57.884821,-22.130233],[-57.881087,-22.129088],[-57.879126,-22.129121],[-57.875525,-22.12971],[-57.872211,-22.129023],[-57.871252,-22.129118],[-57.870005,-22.129807],[-57.868693,-22.131106],[-57.865451,-22.136078],[-57.863918,-22.137188],[-57.862682,-22.137439],[-57.862255,-22.13721],[-57.862236,-22.136407],[-57.863654,-22.134525],[-57.864005,-22.133425],[-57.863715,-22.131015],[-57.862665,-22.130049],[-57.858401,-22.129674],[-57.853437,-22.127419],[-57.851375,-22.12734],[-57.848243,-22.127794],[-57.845971,-22.127304],[-57.843432,-22.125728],[-57.838251,-22.1214],[-57.836029,-22.119966],[-57.8349,-22.11961],[-57.830872,-22.119645],[-57.828071,-22.12025],[-57.825067,-22.121467],[-57.823082,-22.122886],[-57.82273,-22.123774],[-57.823581,-22.125843],[-57.823839,-22.127711],[-57.8219,-22.132373],[-57.820916,-22.135707],[-57.819855,-22.137736],[-57.818445,-22.138782],[-57.812018,-22.14026],[-57.810374,-22.141194],[-57.80894,-22.14298],[-57.805257,-22.150528],[-57.804009,-22.151049],[-57.799934,-22.150247],[-57.798221,-22.148874],[-57.797568,-22.147635],[-57.797707,-22.14547],[-57.797368,-22.143896],[-57.79655,-22.142658],[-57.794315,-22.141426],[-57.792117,-22.139219],[-57.791156,-22.137033],[-57.79068,-22.133115],[-57.789596,-22.130984],[-57.78378,-22.128473],[-57.779251,-22.124958],[-57.777645,-22.125341],[-57.775221,-22.127105],[-57.773438,-22.127971],[-57.770019,-22.128769],[-57.768346,-22.129572],[-57.767321,-22.130665],[-57.765362,-22.134469],[-57.764362,-22.135228],[-57.762853,-22.135732],[-57.761299,-22.135807],[-57.758284,-22.135116],[-57.754106,-22.135429],[-57.752584,-22.136064],[-57.748986,-22.138786],[-57.747973,-22.139025],[-57.746717,-22.138543],[-57.744293,-22.135853],[-57.739386,-22.13453],[-57.738175,-22.133532],[-57.737949,-22.132765],[-57.738389,-22.128906],[-57.737691,-22.125774],[-57.737227,-22.125067],[-57.73503,-22.123379],[-57.734209,-22.12093],[-57.73441,-22.120017],[-57.735089,-22.119435],[-57.738953,-22.118487],[-57.740676,-22.117504],[-57.741605,-22.116212],[-57.74223,-22.114367],[-57.742013,-22.112385],[-57.740175,-22.106516],[-57.738174,-22.102817],[-57.736548,-22.10114],[-57.733941,-22.099878],[-57.73145,-22.099505],[-57.730057,-22.099895],[-57.729413,-22.100919],[-57.728824,-22.103744],[-57.722189,-22.111471],[-57.719756,-22.11327],[-57.718268,-22.113661],[-57.717158,-22.11353],[-57.716265,-22.112649],[-57.715686,-22.111102],[-57.715635,-22.11023],[-57.716457,-22.106681],[-57.715271,-22.104111],[-57.714015,-22.103381],[-57.708367,-22.102637],[-57.706395,-22.101494],[-57.704514,-22.099447],[-57.704424,-22.097351],[-57.70784,-22.092504],[-57.707835,-22.091397],[-57.707293,-22.090807],[-57.703255,-22.091683],[-57.699483,-22.091921],[-57.693512,-22.089963],[-57.691286,-22.088455],[-57.689858,-22.08828],[-57.688499,-22.089262],[-57.687194,-22.091322],[-57.685554,-22.093159],[-57.680563,-22.097154],[-57.678408,-22.100623],[-57.676559,-22.102004],[-57.675008,-22.102512],[-57.673914,-22.10253],[-57.67169,-22.101505],[-57.669311,-22.101352],[-57.667318,-22.102291],[-57.665811,-22.105517],[-57.664973,-22.106158],[-57.663261,-22.106196],[-57.660099,-22.104687],[-57.657814,-22.104312],[-57.656547,-22.104611],[-57.654448,-22.106656],[-57.652674,-22.107066],[-57.650532,-22.106717],[-57.647814,-22.105265],[-57.646433,-22.104845],[-57.644102,-22.104823],[-57.639811,-22.106096],[-57.637813,-22.106031],[-57.632883,-22.102694],[-57.627264,-22.101108],[-57.625357,-22.100243],[-57.621923,-22.097908],[-57.620345,-22.096111],[-57.618707,-22.094993],[-57.616358,-22.094265],[-57.610732,-22.094697],[-57.610021,-22.095337],[-57.609898,-22.096164],[-57.610846,-22.098997],[-57.612285,-22.102005],[-57.613439,-22.108487],[-57.612641,-22.110852],[-57.609417,-22.113511],[-57.608929,-22.114222],[-57.608618,-22.115714],[-57.608669,-22.116541],[-57.610485,-22.118426],[-57.612209,-22.121126],[-57.612664,-22.123559],[-57.612303,-22.124536],[-57.61167,-22.124714],[-57.610971,-22.124423],[-57.608649,-22.122779],[-57.607301,-22.122725],[-57.605719,-22.123734],[-57.605516,-22.124489],[-57.606748,-22.127068],[-57.606835,-22.128825],[-57.606521,-22.129436],[-57.604387,-22.131025],[-57.599676,-22.130834],[-57.598567,-22.13106],[-57.597555,-22.131759],[-57.597099,-22.132614],[-57.597008,-22.133604],[-57.597517,-22.13418],[-57.599488,-22.135162],[-57.600922,-22.136738],[-57.601579,-22.13842],[-57.601173,-22.13975],[-57.599874,-22.140138],[-57.598953,-22.139776],[-57.597277,-22.137415],[-57.595132,-22.136316],[-57.59399,-22.136289],[-57.593009,-22.136767],[-57.592631,-22.137568],[-57.592794,-22.138452],[-57.594515,-22.14047],[-57.594713,-22.142244],[-57.593831,-22.143666],[-57.592265,-22.144674],[-57.590836,-22.144341],[-57.590262,-22.143588],[-57.58944,-22.140416],[-57.588676,-22.139709],[-57.587866,-22.139459],[-57.585632,-22.13991],[-57.584286,-22.140538],[-57.584067,-22.141172],[-57.584165,-22.141835],[-57.585935,-22.144209],[-57.586451,-22.146245],[-57.585483,-22.149884],[-57.585446,-22.152572],[-57.587124,-22.155565],[-57.58807,-22.158105],[-57.587975,-22.16564],[-57.587097,-22.168109],[-57.583869,-22.170144],[-57.582653,-22.171554],[-57.581978,-22.17315],[-57.580858,-22.17465],[-57.579118,-22.175776],[-57.577042,-22.176289],[-57.571076,-22.175881],[-57.569808,-22.176224],[-57.566722,-22.178065],[-57.564899,-22.178441],[-57.558297,-22.177547],[-57.557631,-22.177671],[-57.556105,-22.178862],[-57.556999,-22.180334],[-57.557578,-22.182798],[-57.559003,-22.183625],[-57.561132,-22.183572],[-57.561847,-22.183913],[-57.563413,-22.185985],[-57.563341,-22.187201],[-57.563802,-22.188103],[-57.560853,-22.192404],[-57.559711,-22.196252],[-57.558202,-22.199464],[-57.555092,-22.202822],[-57.554488,-22.20384],[-57.55368,-22.207872],[-57.55364,-22.213013],[-57.553381,-22.214323],[-57.551831,-22.218471],[-57.549453,-22.223167],[-57.54816,-22.224486],[-57.548016,-22.22824],[-57.546774,-22.22974],[-57.546226,-22.231178],[-57.546013,-22.234088],[-57.548266,-22.241967],[-57.548155,-22.2425],[-57.545301,-22.245288],[-57.541694,-22.247301],[-57.540682,-22.251338],[-57.539389,-22.252747],[-57.538759,-22.254366],[-57.538046,-22.25501],[-57.534624,-22.255378],[-57.532775,-22.256021],[-57.530697,-22.256109],[-57.528158,-22.256659],[-57.527394,-22.257095],[-57.525948,-22.25902],[-57.521625,-22.260154],[-57.518472,-22.261926],[-57.51037,-22.263293],[-57.50834,-22.266082],[-57.506948,-22.269009],[-57.505693,-22.270395],[-57.504526,-22.274008],[-57.503054,-22.275864],[-57.501621,-22.27857],[-57.500911,-22.281449],[-57.499419,-22.284561],[-57.49933,-22.289408],[-57.499791,-22.291431],[-57.506138,-22.305328],[-57.509865,-22.306337],[-57.51036,-22.306579],[-57.510943,-22.307567],[-57.510261,-22.310392],[-57.512283,-22.316637],[-57.514353,-22.381431],[-57.514821,-22.381538],[-57.515247,-22.382512],[-57.517747,-22.382924],[-57.518683,-22.383938],[-57.519153,-22.383701],[-57.518985,-22.383029],[-57.519238,-22.382865],[-57.520289,-22.38353],[-57.521218,-22.382687],[-57.521645,-22.382686],[-57.522162,-22.384351],[-57.523503,-22.385033],[-57.524647,-22.387067],[-57.525315,-22.386979],[-57.526122,-22.387613],[-57.526004,-22.388553],[-57.526959,-22.388441],[-57.52725,-22.388793],[-57.527819,-22.391284],[-57.528372,-22.39149],[-57.528425,-22.391856],[-57.529463,-22.392647],[-57.532403,-22.393758],[-57.533396,-22.394455],[-57.534679,-22.394713],[-57.535865,-22.393783],[-57.537339,-22.393425],[-57.537859,-22.394273],[-57.539136,-22.39454],[-57.539422,-22.394859],[-57.540272,-22.396758],[-57.54147,-22.396691],[-57.543274,-22.397209],[-57.54476,-22.398049],[-57.546572,-22.397387],[-57.54715,-22.396464],[-57.546838,-22.396045],[-57.547202,-22.395299],[-57.547727,-22.395401],[-57.548558,-22.396315],[-57.550172,-22.39649],[-57.549972,-22.397281],[-57.55064,-22.39745],[-57.551634,-22.397415],[-57.552147,-22.397116],[-57.552384,-22.396275],[-57.552696,-22.396174],[-57.553384,-22.396827],[-57.55378,-22.397011],[-57.554475,-22.396805],[-57.554883,-22.397513],[-57.556677,-22.39818],[-57.556758,-22.398771],[-57.556339,-22.399256],[-57.557009,-22.399574],[-57.556977,-22.400062],[-57.557697,-22.400466],[-57.558133,-22.400514],[-57.55817,-22.400031],[-57.559167,-22.399612],[-57.559162,-22.398858],[-57.55955,-22.39882],[-57.560015,-22.39937],[-57.560667,-22.39953],[-57.562577,-22.399194],[-57.562761,-22.399008],[-57.562359,-22.398553],[-57.562684,-22.398489],[-57.563945,-22.398746],[-57.56394,-22.399338],[-57.564456,-22.399824],[-57.565723,-22.399946],[-57.566241,-22.401195],[-57.566961,-22.40122],[-57.567557,-22.400884],[-57.567688,-22.401588],[-57.569144,-22.400973],[-57.569794,-22.401454],[-57.570363,-22.40109],[-57.570226,-22.401601],[-57.57074,-22.401825],[-57.571413,-22.400766],[-57.572255,-22.40145],[-57.573755,-22.401015],[-57.574311,-22.401533],[-57.574559,-22.400204],[-57.574962,-22.400496],[-57.575382,-22.400413],[-57.576058,-22.399096],[-57.576103,-22.398423],[-57.575347,-22.397224],[-57.575426,-22.396867],[-57.57654,-22.396403],[-57.576298,-22.39606],[-57.576931,-22.39534],[-57.577839,-22.395671],[-57.57863,-22.394507],[-57.579044,-22.394352],[-57.579995,-22.394611],[-57.581128,-22.394241],[-57.581689,-22.393516],[-57.581837,-22.392662],[-57.582241,-22.392362],[-57.583263,-22.392124],[-57.584127,-22.392459],[-57.585377,-22.391895],[-57.586384,-22.390631],[-57.585735,-22.390263],[-57.585849,-22.389522],[-57.58699,-22.389097],[-57.587086,-22.388569],[-57.587877,-22.388118],[-57.588122,-22.386514],[-57.588459,-22.386165],[-57.588088,-22.385272],[-57.588282,-22.384734],[-57.58908,-22.384573],[-57.589254,-22.385128],[-57.589711,-22.385013],[-57.589731,-22.384173],[-57.590045,-22.383941],[-57.591127,-22.384299],[-57.591322,-22.383553],[-57.591701,-22.383398],[-57.592508,-22.383878],[-57.59269,-22.383128],[-57.593114,-22.383108],[-57.594377,-22.384282],[-57.594511,-22.384959],[-57.595914,-22.385587],[-57.596728,-22.385561],[-57.597245,-22.384945],[-57.597096,-22.383505],[-57.597483,-22.383259],[-57.598077,-22.383591],[-57.598472,-22.383278],[-57.598958,-22.383326],[-57.599201,-22.383817],[-57.599728,-22.38382],[-57.60049,-22.3823],[-57.60135,-22.38226],[-57.601648,-22.381758],[-57.602839,-22.381162],[-57.603587,-22.380319],[-57.603535,-22.379836],[-57.604238,-22.380127],[-57.604588,-22.379262],[-57.605284,-22.379468],[-57.604808,-22.378322],[-57.605405,-22.377403],[-57.60617,-22.377125],[-57.606317,-22.37646],[-57.607227,-22.376633],[-57.607611,-22.375814],[-57.609737,-22.375499],[-57.609962,-22.375064],[-57.61239,-22.373433],[-57.612445,-22.373113],[-57.611772,-22.372817],[-57.613278,-22.37226],[-57.613188,-22.371682],[-57.615299,-22.372384],[-57.615744,-22.372422],[-57.615848,-22.371767],[-57.617491,-22.372104],[-57.618479,-22.371585],[-57.617829,-22.370974],[-57.618733,-22.369556],[-57.619364,-22.370132],[-57.62034,-22.370088],[-57.620597,-22.369816],[-57.620521,-22.369179],[-57.620966,-22.368712],[-57.621894,-22.368533],[-57.622634,-22.36759],[-57.623696,-22.367469],[-57.625223,-22.366437],[-57.625739,-22.367036],[-57.626928,-22.367352],[-57.627881,-22.367209],[-57.628899,-22.367498],[-57.629631,-22.367179],[-57.630568,-22.368856],[-57.631429,-22.367967],[-57.631996,-22.369478],[-57.632907,-22.367835],[-57.635073,-22.367009],[-57.637011,-22.367141],[-57.637831,-22.366736],[-57.638313,-22.367023],[-57.638599,-22.366159],[-57.640346,-22.366012],[-57.641026,-22.36512],[-57.642554,-22.364698],[-57.64392,-22.365827],[-57.645568,-22.366073],[-57.646976,-22.365665],[-57.647816,-22.365987],[-57.648423,-22.366676],[-57.648904,-22.366168],[-57.649564,-22.366238],[-57.649734,-22.365036],[-57.650565,-22.364364],[-57.651008,-22.364398],[-57.651053,-22.364809],[-57.651378,-22.364934],[-57.653697,-22.364207],[-57.653509,-22.36474],[-57.655842,-22.364722],[-57.656649,-22.365378],[-57.656916,-22.36502],[-57.65725,-22.365091],[-57.657274,-22.365678],[-57.658294,-22.365502],[-57.658595,-22.365926],[-57.658316,-22.366464],[-57.659192,-22.366248],[-57.660438,-22.366424],[-57.662261,-22.367415],[-57.664065,-22.369228],[-57.665901,-22.36838],[-57.667109,-22.368416],[-57.667343,-22.367769],[-57.66901,-22.367265],[-57.670404,-22.368967],[-57.671653,-22.3687],[-57.672801,-22.368948],[-57.672489,-22.368226],[-57.672955,-22.367958],[-57.675196,-22.369177],[-57.6762,-22.368703],[-57.676363,-22.369778],[-57.676835,-22.370385],[-57.677842,-22.370535],[-57.678618,-22.371728],[-57.679793,-22.371913],[-57.679678,-22.372704],[-57.680959,-22.372482],[-57.681608,-22.371919],[-57.682919,-22.372596],[-57.683239,-22.372228],[-57.682987,-22.371593],[-57.684403,-22.372544],[-57.685447,-22.372364],[-57.687354,-22.373792],[-57.687897,-22.372624],[-57.688528,-22.372685],[-57.69123,-22.373974],[-57.691967,-22.374685],[-57.692315,-22.375406],[-57.691907,-22.375968],[-57.692084,-22.376188],[-57.694204,-22.376057],[-57.69462,-22.376335],[-57.694714,-22.377275],[-57.696559,-22.377131],[-57.697381,-22.379011],[-57.699099,-22.380174],[-57.700357,-22.380502],[-57.700638,-22.381255],[-57.700579,-22.382927],[-57.701497,-22.383058],[-57.702007,-22.383878],[-57.703422,-22.384437],[-57.704288,-22.384428],[-57.704526,-22.384066],[-57.704362,-22.38343],[-57.704667,-22.383131],[-57.707098,-22.382253],[-57.708726,-22.381857],[-57.710906,-22.381775],[-57.712729,-22.380638],[-57.713558,-22.381434],[-57.714054,-22.38154],[-57.715291,-22.380509],[-57.716569,-22.380467],[-57.715787,-22.379283],[-57.71691,-22.378],[-57.718144,-22.377895],[-57.719988,-22.378515],[-57.721521,-22.37774],[-57.721996,-22.378031],[-57.723226,-22.380479],[-57.724245,-22.381156],[-57.724082,-22.38173],[-57.724387,-22.38256],[-57.725992,-22.382874],[-57.726126,-22.384025],[-57.725866,-22.384541],[-57.726455,-22.384669],[-57.727657,-22.384113],[-57.728986,-22.385024],[-57.729537,-22.386182],[-57.730436,-22.386575],[-57.730516,-22.387325],[-57.731953,-22.386551],[-57.734024,-22.38753],[-57.734374,-22.388021],[-57.734608,-22.386561],[-57.735154,-22.386315],[-57.737224,-22.387051],[-57.736844,-22.387513],[-57.737048,-22.387833],[-57.737808,-22.388064],[-57.739056,-22.387914],[-57.739233,-22.388713],[-57.740293,-22.388708],[-57.741129,-22.389503],[-57.741384,-22.389308],[-57.741414,-22.388314],[-57.743324,-22.38934],[-57.744397,-22.387338],[-57.745141,-22.388162],[-57.745923,-22.390367],[-57.748037,-22.389846],[-57.74959,-22.390345],[-57.749761,-22.391858],[-57.749289,-22.392176],[-57.748591,-22.391795],[-57.748354,-22.391968],[-57.748603,-22.392613],[-57.748429,-22.393277],[-57.74977,-22.393447],[-57.749353,-22.393806],[-57.749446,-22.394122],[-57.750052,-22.394227],[-57.750274,-22.39363],[-57.750891,-22.394653],[-57.751105,-22.39364],[-57.751773,-22.393881],[-57.752398,-22.393625],[-57.753264,-22.394045],[-57.753287,-22.395084],[-57.752376,-22.397184],[-57.753095,-22.397849],[-57.752393,-22.398119],[-57.753456,-22.398616],[-57.753289,-22.398969],[-57.753993,-22.399151],[-57.753576,-22.399649],[-57.754767,-22.40071],[-57.754631,-22.40183],[-57.75495,-22.402434],[-57.754737,-22.403158],[-57.755893,-22.40374],[-57.754565,-22.405119],[-57.756671,-22.408443],[-57.757574,-22.408637],[-57.757331,-22.409682],[-57.756861,-22.410059],[-57.756917,-22.410501],[-57.75769,-22.411148],[-57.758388,-22.411289],[-57.759127,-22.411114],[-57.759714,-22.410565],[-57.760145,-22.412997],[-57.760862,-22.413021],[-57.761348,-22.412495],[-57.761878,-22.413626],[-57.762831,-22.414538],[-57.765051,-22.413728],[-57.765121,-22.415277],[-57.766443,-22.416179],[-57.765949,-22.414185],[-57.768465,-22.413708],[-57.768626,-22.413468],[-57.767433,-22.412714],[-57.767152,-22.410886],[-57.771433,-22.409299],[-57.772028,-22.408677],[-57.772219,-22.406754],[-57.771648,-22.404492],[-57.772323,-22.404185],[-57.773878,-22.404812],[-57.77358,-22.406505],[-57.773838,-22.407275],[-57.775614,-22.406657],[-57.777338,-22.406462],[-57.777497,-22.40375],[-57.776526,-22.397623],[-57.776708,-22.396664],[-57.777413,-22.395865],[-57.778056,-22.395999],[-57.778639,-22.397538],[-57.780092,-22.396648],[-57.780589,-22.396944],[-57.784068,-22.397226],[-57.784976,-22.39696],[-57.78665,-22.394925],[-57.787171,-22.39481],[-57.787587,-22.395107],[-57.788845,-22.397576],[-57.789529,-22.397983],[-57.790544,-22.397704],[-57.792073,-22.398493],[-57.792195,-22.401141],[-57.792452,-22.401538],[-57.793442,-22.401645],[-57.794804,-22.401178],[-57.796282,-22.400027],[-57.797016,-22.399787],[-57.799575,-22.400433],[-57.801624,-22.398694],[-57.801901,-22.397934],[-57.802056,-22.3946],[-57.801579,-22.393036],[-57.800689,-22.391871],[-57.800644,-22.391063],[-57.802194,-22.390694],[-57.802624,-22.391115],[-57.80258,-22.392695],[-57.802943,-22.393091],[-57.805287,-22.393763],[-57.806831,-22.394738],[-57.807653,-22.395754],[-57.807993,-22.396722],[-57.807832,-22.399024],[-57.805095,-22.402073],[-57.805407,-22.402942],[-57.80775,-22.403216],[-57.808725,-22.403037],[-57.811213,-22.400699],[-57.811645,-22.399192],[-57.81238,-22.399101],[-57.813359,-22.399569],[-57.813802,-22.402104],[-57.814448,-22.402672],[-57.815063,-22.402644],[-57.816913,-22.401167],[-57.817082,-22.400221],[-57.816079,-22.398013],[-57.816217,-22.396408],[-57.81659,-22.396207],[-57.819469,-22.396702],[-57.819634,-22.402149],[-57.819212,-22.40322],[-57.818587,-22.403783],[-57.816437,-22.404329],[-57.816627,-22.4049],[-57.817701,-22.405579],[-57.819752,-22.40624],[-57.819715,-22.406812],[-57.819183,-22.40735],[-57.815839,-22.408183],[-57.815843,-22.408869],[-57.817589,-22.41054],[-57.821233,-22.411605],[-57.823427,-22.4127],[-57.825332,-22.413132],[-57.827327,-22.412636],[-57.831254,-22.413146],[-57.833107,-22.412871],[-57.838209,-22.411142],[-57.839492,-22.410959],[-57.843757,-22.412307],[-57.844517,-22.41206],[-57.845454,-22.409734],[-57.847052,-22.402628],[-57.845519,-22.399055],[-57.840895,-22.399223],[-57.835199,-22.398815],[-57.832309,-22.398093],[-57.829614,-22.396969],[-57.827431,-22.395544],[-57.822661,-22.391011],[-57.819275,-22.386579],[-57.817436,-22.383097],[-57.817149,-22.381332],[-57.817487,-22.378282],[-57.818309,-22.376841],[-57.821354,-22.373316],[-57.827738,-22.370289],[-57.833364,-22.366281],[-57.840531,-22.362314],[-57.845881,-22.357481],[-57.849067,-22.355025],[-57.864581,-22.344902],[-57.86698,-22.34306],[-57.872493,-22.336915],[-57.877699,-22.329258],[-57.879156,-22.326689],[-57.879635,-22.324767],[-57.87967,-22.322667],[-57.879463,-22.320838],[-57.878713,-22.318833],[-57.877576,-22.317515],[-57.877028,-22.31633],[-57.877296,-22.311988],[-57.882332,-22.300723],[-57.882794,-22.2962],[-57.882845,-22.288706],[-57.883309,-22.284408],[-57.884162,-22.279562],[-57.885408,-22.274758],[-57.887007,-22.271457],[-57.891251,-22.267233],[-57.894087,-22.265573],[-57.896686,-22.265148],[-57.898944,-22.265135],[-57.902923,-22.265705],[-57.904694,-22.266382],[-57.927043,-22.27617],[-57.932405,-22.277964],[-57.937763,-22.279076],[-57.943855,-22.279772],[-57.946993,-22.279343],[-57.949589,-22.27846],[-57.951789,-22.277079],[-57.953779,-22.273775],[-57.955954,-22.268784],[-57.958537,-22.258945],[-57.959097,-22.254647],[-57.959163,-22.242767],[-57.959434,-22.239387],[-57.960054,-22.236732],[-57.961361,-22.234078],[-57.962868,-22.232009],[-57.967851,-22.228737],[-57.970194,-22.226988],[-57.971349,-22.225712],[-57.971736,-22.222774],[-57.971714,-22.212499],[-57.972122,-22.2077],[-57.972462,-22.192892],[-57.971394,-22.187465],[-57.964736,-22.175029],[-57.963191,-22.171429],[-57.962244,-22.162072]]]}}]}
