{"type":"FeatureCollection","name":"distrito","features":[{"type":"Feature","properties":{"clave":"6-7","nombre":"Yegros"},"geometry":{"type":"Polygon","coordinates":[[[-56.41405,-26.592087],[-56.414022,-26.592916],[-56.414847,-26.593789],[-56.414126,-26.595092],[-56.414767,-26.595944],[-56.415596,-26.59603],[-56.416686,-26.59475],[-56.417562,-26.594588],[-56.418136,-26.595129],[-56.419654,-26.595736],[-56.419759,-26.597746],[-56.420034,-26.597975],[-56.420773,-26.597729],[-56.421517,-26.596303],[-56.422095,-26.595911],[-56.423451,-26.596725],[-56.424973,-26.596503],[-56.426401,-26.596695],[-56.426634,-26.596178],[-56.426384,-26.595431],[-56.426754,-26.59506],[-56.427901,-26.596225],[-56.429074,-26.596623],[-56.429414,-26.597702],[-56.430987,-26.596589],[-56.432187,-26.596201],[-56.433588,-26.597097],[-56.434051,-26.596788],[-56.434285,-26.596022],[-56.436722,-26.597047],[-56.436998,-26.597318],[-56.436988,-26.599244],[-56.438573,-26.600348],[-56.43834,-26.600803],[-56.437879,-26.600843],[-56.436109,-26.599987],[-56.435921,-26.60069],[-56.43723,-26.601545],[-56.437845,-26.603142],[-56.438786,-26.603954],[-56.439617,-26.603564],[-56.439784,-26.602549],[-56.440634,-26.602946],[-56.441861,-26.606597],[-56.441214,-26.606864],[-56.4394,-26.605593],[-56.438915,-26.605715],[-56.438404,-26.606521],[-56.438379,-26.606956],[-56.438998,-26.607684],[-56.440562,-26.608353],[-56.44014,-26.609718],[-56.440463,-26.609823],[-56.440901,-26.609763],[-56.441645,-26.608461],[-56.44356,-26.608012],[-56.446117,-26.608209],[-56.447134,-26.607591],[-56.44709,-26.607197],[-56.445918,-26.606447],[-56.447125,-26.604525],[-56.445489,-26.604477],[-56.445078,-26.60373],[-56.445335,-26.60311],[-56.446629,-26.602369],[-56.450034,-26.60348],[-56.452356,-26.604753],[-56.452886,-26.604734],[-56.453255,-26.60457],[-56.453447,-26.60312],[-56.453934,-26.602376],[-56.455113,-26.601614],[-56.455736,-26.601513],[-56.45624,-26.601991],[-56.456026,-26.603524],[-56.456993,-26.60361],[-56.457457,-26.60297],[-56.457303,-26.601374],[-56.457673,-26.601085],[-56.458179,-26.601295],[-56.458607,-26.603451],[-56.459068,-26.603494],[-56.459302,-26.602604],[-56.458665,-26.600841],[-56.459887,-26.600866],[-56.460322,-26.601448],[-56.460271,-26.6024],[-56.45952,-26.605298],[-56.458776,-26.606828],[-56.459071,-26.607803],[-56.457136,-26.607568],[-56.456557,-26.608063],[-56.456554,-26.608663],[-56.457359,-26.609164],[-56.459432,-26.609399],[-56.46028,-26.610273],[-56.461338,-26.610753],[-56.461656,-26.611769],[-56.462626,-26.611359],[-56.463732,-26.611529],[-56.463959,-26.612213],[-56.463196,-26.61279],[-56.46317,-26.61335],[-56.464276,-26.613354],[-56.465272,-26.612239],[-56.465595,-26.61224],[-56.466305,-26.613299],[-56.466673,-26.61328],[-56.467901,-26.611876],[-56.468523,-26.61194],[-56.469134,-26.614408],[-56.469547,-26.614844],[-56.47164,-26.615909],[-56.472839,-26.615768],[-56.47346,-26.616061],[-56.473269,-26.617324],[-56.472159,-26.618127],[-56.47151,-26.619099],[-56.472722,-26.62103],[-56.473298,-26.621053],[-56.474385,-26.620269],[-56.477518,-26.620737],[-56.478551,-26.621548],[-56.479979,-26.621844],[-56.480369,-26.622301],[-56.483429,-26.623514],[-56.484007,-26.623122],[-56.483782,-26.621899],[-56.484175,-26.621548],[-56.484774,-26.621633],[-56.486636,-26.622821],[-56.487005,-26.622739],[-56.48701,-26.621724],[-56.48568,-26.620145],[-56.486512,-26.619651],[-56.487134,-26.619715],[-56.487732,-26.620028],[-56.488281,-26.620962],[-56.488299,-26.62206],[-56.487388,-26.624792],[-56.487986,-26.625001],[-56.48868,-26.624548],[-56.490493,-26.621032],[-56.49077,-26.62095],[-56.491368,-26.621139],[-56.491847,-26.622467],[-56.492421,-26.622966],[-56.494514,-26.623823],[-56.494999,-26.623638],[-56.495093,-26.623224],[-56.494566,-26.622435],[-56.494529,-26.62055],[-56.496235,-26.620307],[-56.497023,-26.61946],[-56.498055,-26.620603],[-56.499276,-26.620732],[-56.499509,-26.620153],[-56.498592,-26.619031],[-56.49864,-26.618534],[-56.500461,-26.618457],[-56.501734,-26.61724],[-56.502517,-26.617491],[-56.5029,-26.619564],[-56.503311,-26.620353],[-56.504138,-26.621018],[-56.50513,-26.620898],[-56.506656,-26.619577],[-56.507232,-26.619745],[-56.507275,-26.620429],[-56.506395,-26.621461],[-56.506461,-26.622166],[-56.506737,-26.622291],[-56.507291,-26.622148],[-56.50979,-26.619774],[-56.51032,-26.619838],[-56.510729,-26.621248],[-56.510051,-26.623442],[-56.510349,-26.623878],[-56.511685,-26.62409],[-56.511891,-26.62436],[-56.510828,-26.625081],[-56.511008,-26.625973],[-56.511559,-26.626534],[-56.515045,-26.625365],[-56.515366,-26.625718],[-56.514922,-26.627043],[-56.515406,-26.627251],[-56.516121,-26.626964],[-56.51714,-26.625869],[-56.518409,-26.625563],[-56.520182,-26.626149],[-56.521173,-26.62609],[-56.522459,-26.627234],[-56.522828,-26.627235],[-56.523711,-26.625581],[-56.524241,-26.625417],[-56.524446,-26.625998],[-56.524234,-26.627219],[-56.524713,-26.628422],[-56.525428,-26.6283],[-56.525159,-26.626559],[-56.525392,-26.625959],[-56.525714,-26.62596],[-56.526242,-26.62648],[-56.526328,-26.628138],[-56.526788,-26.628408],[-56.530203,-26.627508],[-56.532433,-26.628883],[-56.5337,-26.629177],[-56.53384,-26.628701],[-56.532694,-26.627164],[-56.533065,-26.626503],[-56.536199,-26.626844],[-56.537112,-26.629064],[-56.538148,-26.629337],[-56.538819,-26.628759],[-56.539579,-26.62874],[-56.540749,-26.630319],[-56.541461,-26.630797],[-56.54183,-26.630716],[-56.543012,-26.629249],[-56.54421,-26.629315],[-56.544438,-26.629958],[-56.544252,-26.630454],[-56.54157,-26.632352],[-56.541522,-26.632828],[-56.542512,-26.633266],[-56.543457,-26.633145],[-56.546483,-26.631539],[-56.547057,-26.632224],[-56.545875,-26.633836],[-56.546284,-26.635412],[-56.545568,-26.635783],[-56.545015,-26.635553],[-56.544167,-26.634328],[-56.543776,-26.634182],[-56.543267,-26.634594],[-56.543447,-26.635797],[-56.544252,-26.636296],[-56.546326,-26.636282],[-56.547109,-26.636616],[-56.547289,-26.637756],[-56.546709,-26.638687],[-56.547007,-26.638978],[-56.547584,-26.638959],[-56.548628,-26.637242],[-56.550403,-26.63729],[-56.550769,-26.638016],[-56.55039,-26.640521],[-56.550665,-26.641019],[-56.551332,-26.641187],[-56.551912,-26.64036],[-56.552189,-26.640361],[-56.553149,-26.642394],[-56.554233,-26.642336],[-56.554861,-26.640846],[-56.55599,-26.640974],[-56.55631,-26.6417],[-56.555521,-26.643148],[-56.555835,-26.645282],[-56.55611,-26.645635],[-56.557288,-26.645183],[-56.557656,-26.645288],[-56.559289,-26.646267],[-56.559519,-26.64662],[-56.558961,-26.647757],[-56.55965,-26.648298],[-56.559901,-26.649107],[-56.561168,-26.649235],[-56.561375,-26.649588],[-56.560125,-26.650703],[-56.5601,-26.651221],[-56.560976,-26.651285],[-56.56271,-26.650006],[-56.564163,-26.649804],[-56.564716,-26.650095],[-56.564714,-26.650406],[-56.563952,-26.65086],[-56.564065,-26.651399],[-56.565449,-26.651341],[-56.566789,-26.650599],[-56.566932,-26.649191],[-56.567302,-26.649026],[-56.567924,-26.649214],[-56.568587,-26.650667],[-56.569232,-26.650772],[-56.569741,-26.650173],[-56.570133,-26.650133],[-56.570962,-26.650487],[-56.571259,-26.651338],[-56.570978,-26.65231],[-56.571577,-26.652519],[-56.572409,-26.652004],[-56.572526,-26.651549],[-56.572024,-26.650055],[-56.572716,-26.650016],[-56.573634,-26.651034],[-56.573493,-26.651966],[-56.572891,-26.652606],[-56.571297,-26.653409],[-56.571065,-26.653864],[-56.571932,-26.656208],[-56.572392,-26.656396],[-56.573801,-26.655903],[-56.574261,-26.656174],[-56.573148,-26.657683],[-56.573144,-26.658801],[-56.574091,-26.658431],[-56.575341,-26.656985],[-56.575687,-26.657027],[-56.576192,-26.657712],[-56.577115,-26.657384],[-56.579398,-26.657328],[-56.579769,-26.656811],[-56.579194,-26.656395],[-56.578874,-26.655669],[-56.579682,-26.65534],[-56.580304,-26.655529],[-56.581129,-26.65696],[-56.582556,-26.657565],[-56.582738,-26.658146],[-56.582227,-26.659284],[-56.582594,-26.659679],[-56.583447,-26.659681],[-56.584927,-26.658525],[-56.585435,-26.658465],[-56.585361,-26.65977],[-56.584991,-26.660121],[-56.584158,-26.660802],[-56.58185,-26.661562],[-56.581641,-26.661892],[-56.581686,-26.662245],[-56.583758,-26.663059],[-56.584286,-26.66362],[-56.584446,-26.664138],[-56.584167,-26.664779],[-56.583429,-26.664757],[-56.581703,-26.663757],[-56.581103,-26.664025],[-56.581124,-26.664522],[-56.582504,-26.665603],[-56.584577,-26.666003],[-56.586074,-26.666712],[-56.586559,-26.666464],[-56.586402,-26.665262],[-56.586886,-26.66516],[-56.589118,-26.666576],[-56.591239,-26.666685],[-56.591813,-26.667205],[-56.591416,-26.668674],[-56.591712,-26.669753],[-56.593345,-26.670938],[-56.594521,-26.670941],[-56.595214,-26.670467],[-56.596528,-26.670678],[-56.597244,-26.670369],[-56.597615,-26.669914],[-56.597525,-26.669251],[-56.596678,-26.667426],[-56.597441,-26.666661],[-56.598318,-26.66656],[-56.601497,-26.667377],[-56.601957,-26.667896],[-56.602114,-26.669036],[-56.601557,-26.670008],[-56.600378,-26.670813],[-56.600561,-26.671228],[-56.602846,-26.670737],[-56.603028,-26.671442],[-56.602054,-26.672993],[-56.602722,-26.673368],[-56.604013,-26.673226],[-56.605212,-26.673478],[-56.605116,-26.674472],[-56.604329,-26.67534],[-56.604254,-26.676894],[-56.604598,-26.677433],[-56.605106,-26.677476],[-56.606399,-26.676858],[-56.607021,-26.676943],[-56.608278,-26.68051],[-56.608967,-26.681278],[-56.609819,-26.681488],[-56.610789,-26.681097],[-56.611971,-26.679463],[-56.612317,-26.679402],[-56.61372,-26.680462],[-56.614504,-26.680568],[-56.614829,-26.679782],[-56.613681,-26.678328],[-56.61366,-26.677893],[-56.614352,-26.677709],[-56.615664,-26.678458],[-56.615357,-26.68057],[-56.615586,-26.680965],[-56.615885,-26.681214],[-56.616809,-26.680968],[-56.617018,-26.680451],[-56.616518,-26.678088],[-56.616706,-26.677301],[-56.6186,-26.676353],[-56.618764,-26.675587],[-56.618468,-26.674488],[-56.618907,-26.674158],[-56.620752,-26.673935],[-56.621557,-26.6746],[-56.621739,-26.675388],[-56.621134,-26.677085],[-56.621341,-26.677334],[-56.621732,-26.677439],[-56.622425,-26.677068],[-56.622824,-26.674935],[-56.623564,-26.674336],[-56.624924,-26.674588],[-56.625728,-26.675668],[-56.62399,-26.678232],[-56.621844,-26.67862],[-56.621658,-26.678951],[-56.621933,-26.679594],[-56.623223,-26.680074],[-56.624237,-26.680076],[-56.624886,-26.679166],[-56.626268,-26.679564],[-56.627586,-26.678552],[-56.628486,-26.678264],[-56.630237,-26.678766],[-56.631394,-26.677568],[-56.631763,-26.677569],[-56.633166,-26.678691],[-56.635426,-26.678717],[-56.635562,-26.67936],[-56.633163,-26.679644],[-56.632516,-26.680119],[-56.632353,-26.680636],[-56.63295,-26.681487],[-56.635073,-26.681476],[-56.637103,-26.678989],[-56.637449,-26.677988],[-56.637628,-26.674955],[-56.636069,-26.672599],[-56.636511,-26.671571],[-56.638064,-26.669936],[-56.63812,-26.669543],[-56.637385,-26.668945],[-56.63568,-26.668611],[-56.635893,-26.667131],[-56.637245,-26.665677],[-56.638545,-26.665269],[-56.641056,-26.665533],[-56.647875,-26.662579],[-56.650166,-26.66203],[-56.658184,-26.66223],[-56.659056,-26.662936],[-56.659106,-26.664146],[-56.655304,-26.667681],[-56.654884,-26.668632],[-56.654924,-26.669594],[-56.655634,-26.670783],[-56.656523,-26.6713],[-56.658295,-26.671733],[-56.659989,-26.671669],[-56.662885,-26.670868],[-56.663984,-26.67032],[-56.664751,-26.669527],[-56.665232,-26.668327],[-56.665339,-26.666703],[-56.664322,-26.66354],[-56.665612,-26.661629],[-56.667685,-26.661471],[-56.669644,-26.661724],[-56.670215,-26.661256],[-56.670209,-26.660457],[-56.669577,-26.659625],[-56.668551,-26.658914],[-56.666002,-26.658253],[-56.666036,-26.657264],[-56.666922,-26.656698],[-56.669585,-26.656632],[-56.671289,-26.656148],[-56.672162,-26.655491],[-56.673038,-26.653457],[-56.673835,-26.652637],[-56.674837,-26.653068],[-56.675777,-26.656605],[-56.676963,-26.657425],[-56.678306,-26.657216],[-56.679378,-26.656356],[-56.679877,-26.653314],[-56.680642,-26.652467],[-56.682173,-26.652566],[-56.685417,-26.654726],[-56.686283,-26.654629],[-56.687339,-26.654017],[-56.688362,-26.653956],[-56.690329,-26.653112],[-56.692276,-26.652999],[-56.693637,-26.653634],[-56.694024,-26.65423],[-56.694606,-26.656728],[-56.695289,-26.657931],[-56.696683,-26.658566],[-56.697587,-26.658441],[-56.69828,-26.657725],[-56.698622,-26.655667],[-56.698996,-26.655103],[-56.700229,-26.654578],[-56.702484,-26.654695],[-56.703611,-26.653741],[-56.703676,-26.652689],[-56.703176,-26.651699],[-56.700903,-26.649717],[-56.700888,-26.648128],[-56.70145,-26.647271],[-56.702935,-26.646855],[-56.704808,-26.647766],[-56.705758,-26.648892],[-56.707025,-26.652141],[-56.707855,-26.652512],[-56.708818,-26.652483],[-56.709639,-26.651875],[-56.71032,-26.650269],[-56.71061,-26.648577],[-56.711611,-26.64759],[-56.712895,-26.647417],[-56.715715,-26.648145],[-56.717509,-26.647611],[-56.718476,-26.646006],[-56.719221,-26.64329],[-56.720437,-26.642466],[-56.722445,-26.642298],[-56.72341,-26.641853],[-56.724184,-26.639101],[-56.72532,-26.638169],[-56.726448,-26.637932],[-56.727979,-26.638129],[-56.731275,-26.640076],[-56.732408,-26.639108],[-56.732581,-26.638065],[-56.732095,-26.636899],[-56.730875,-26.636261],[-56.728512,-26.635732],[-56.727195,-26.63461],[-56.726475,-26.631796],[-56.726793,-26.629278],[-56.728916,-26.626311],[-56.730472,-26.625443],[-56.731605,-26.625292],[-56.732641,-26.625578],[-56.73489,-26.627059],[-56.736878,-26.627658],[-56.738629,-26.628989],[-56.739365,-26.628868],[-56.739416,-26.627717],[-56.737751,-26.624071],[-56.73823,-26.622767],[-56.73906,-26.622258],[-56.74061,-26.622067],[-56.743342,-26.623043],[-56.744444,-26.623875],[-56.745563,-26.62636],[-56.746169,-26.626876],[-56.750509,-26.627132],[-56.752803,-26.628486],[-56.753297,-26.629566],[-56.753057,-26.630355],[-56.750748,-26.631241],[-56.750116,-26.632048],[-56.750181,-26.632648],[-56.750997,-26.633191],[-56.751866,-26.635107],[-56.752556,-26.63551],[-56.753325,-26.635502],[-56.759194,-26.633363],[-56.762633,-26.630679],[-56.765585,-26.630449],[-56.766629,-26.631227],[-56.766603,-26.632148],[-56.766074,-26.632887],[-56.763419,-26.634088],[-56.7633,-26.635131],[-56.763511,-26.635465],[-56.764476,-26.635797],[-56.76831,-26.635713],[-56.768879,-26.636332],[-56.76899,-26.638246],[-56.769641,-26.638423],[-56.770438,-26.638145],[-56.770746,-26.637242],[-56.770441,-26.634687],[-56.771249,-26.631659],[-56.77113,-26.629902],[-56.77045,-26.627418],[-56.769825,-26.626207],[-56.768473,-26.625235],[-56.766516,-26.624649],[-56.764187,-26.624388],[-56.763511,-26.623556],[-56.763367,-26.622784],[-56.763807,-26.6218],[-56.76531,-26.620516],[-56.766944,-26.619964],[-56.769716,-26.619824],[-56.770728,-26.619469],[-56.771209,-26.618648],[-56.771146,-26.617298],[-56.771585,-26.616892],[-56.772413,-26.616894],[-56.773518,-26.617582],[-56.777467,-26.619114],[-56.780748,-26.618609],[-56.784581,-26.620168],[-56.785618,-26.620011],[-56.78812,-26.618697],[-56.789103,-26.618802],[-56.789636,-26.619119],[-56.789925,-26.620139],[-56.788207,-26.623293],[-56.788604,-26.624092],[-56.789278,-26.624414],[-56.790561,-26.624158],[-56.791625,-26.62355],[-56.793474,-26.621138],[-56.794903,-26.620612],[-56.79784,-26.62048],[-56.79934,-26.620902],[-56.799544,-26.622388],[-56.800222,-26.622849],[-56.803548,-26.623161],[-56.805526,-26.622798],[-56.806081,-26.621566],[-56.80586,-26.620288],[-56.801519,-26.61654],[-56.800969,-26.615776],[-56.801001,-26.615022],[-56.802238,-26.614081],[-56.806271,-26.612759],[-56.806626,-26.611563],[-56.80649,-26.610565],[-56.806155,-26.610145],[-56.804,-26.60927],[-56.80409,-26.608318],[-56.804844,-26.60803],[-56.807107,-26.608458],[-56.810039,-26.608146],[-56.810729,-26.607754],[-56.812028,-26.606053],[-56.814369,-26.603926],[-56.813769,-26.601492],[-56.814236,-26.598264],[-56.813707,-26.594354],[-56.813898,-26.592882],[-56.814814,-26.591696],[-56.818185,-26.590197],[-56.820488,-26.588078],[-56.821687,-26.586382],[-56.821941,-26.584879],[-56.821628,-26.583692],[-56.819836,-26.582132],[-56.818831,-26.57995],[-56.818345,-26.569277],[-56.818188,-26.568401],[-56.817435,-26.567154],[-56.816145,-26.566611],[-56.814476,-26.566726],[-56.812459,-26.567739],[-56.810126,-26.569492],[-56.808457,-26.57],[-56.807324,-26.569746],[-56.807106,-26.568242],[-56.808589,-26.566289],[-56.809976,-26.565388],[-56.813189,-26.564173],[-56.814324,-26.563073],[-56.817551,-26.553647],[-56.818876,-26.551441],[-56.820894,-26.549236],[-56.82121,-26.548356],[-56.821309,-26.545895],[-56.820651,-26.543998],[-56.820966,-26.543602],[-56.822226,-26.54312],[-56.824147,-26.54287],[-56.826255,-26.543157],[-56.827104,-26.54355],[-56.828015,-26.544856],[-56.82886,-26.548311],[-56.829426,-26.549102],[-56.830086,-26.549414],[-56.831597,-26.549389],[-56.833394,-26.548059],[-56.834404,-26.546196],[-56.834405,-26.54495],[-56.833622,-26.542114],[-56.83375,-26.540872],[-56.836115,-26.537728],[-56.837313,-26.536741],[-56.838573,-26.536232],[-56.840366,-26.536519],[-56.841845,-26.537455],[-56.843102,-26.538928],[-56.844954,-26.542668],[-56.845771,-26.543491],[-56.84681,-26.543605],[-56.847818,-26.543123],[-56.848434,-26.54176],[-56.84729,-26.540881],[-56.847174,-26.537815],[-56.847442,-26.535432],[-56.844721,-26.534443],[-56.844024,-26.533575],[-56.84435,-26.53286],[-56.845713,-26.531703],[-56.846848,-26.529396],[-56.848739,-26.528954],[-56.849114,-26.528423],[-56.848693,-26.527708],[-56.846153,-26.526448],[-56.842047,-26.52574],[-56.841963,-26.525328],[-56.842361,-26.524776],[-56.843856,-26.52365],[-56.843713,-26.522697],[-56.842919,-26.52223],[-56.84151,-26.522218],[-56.840776,-26.521805],[-56.839996,-26.519843],[-56.839466,-26.519474],[-56.837358,-26.51997],[-56.836455,-26.519406],[-56.836649,-26.51855],[-56.83895,-26.518108],[-56.840167,-26.517579],[-56.841711,-26.516205],[-56.843157,-26.515567],[-56.843459,-26.514722],[-56.842702,-26.51354],[-56.842104,-26.510647],[-56.840985,-26.509952],[-56.838708,-26.510329],[-56.836863,-26.511833],[-56.835755,-26.512178],[-56.834291,-26.5116],[-56.832699,-26.509791],[-56.832376,-26.50888],[-56.832281,-26.50797],[-56.832813,-26.505977],[-56.832539,-26.504287],[-56.832166,-26.503939],[-56.831564,-26.503668],[-56.830287,-26.503926],[-56.828913,-26.505182],[-56.829369,-26.506233],[-56.830884,-26.507719],[-56.830955,-26.508402],[-56.829665,-26.509852],[-56.829648,-26.512724],[-56.829262,-26.513243],[-56.828358,-26.513556],[-56.827082,-26.513555],[-56.824747,-26.512772],[-56.8229,-26.510218],[-56.82005,-26.504911],[-56.819994,-26.502386],[-56.821392,-26.497262],[-56.821401,-26.495768],[-56.820004,-26.495604],[-56.818924,-26.493674],[-56.816555,-26.491634],[-56.81533,-26.489519],[-56.811707,-26.487158],[-56.809337,-26.487323],[-56.805576,-26.489853],[-56.79594,-26.492734],[-56.576863,-26.478297],[-56.546014,-26.479377],[-56.441563,-26.413562],[-56.434169,-26.39252],[-56.422731,-26.388935],[-56.423468,-26.382955],[-56.42329,-26.3796],[-56.424978,-26.378641],[-56.420455,-26.36522],[-56.419541,-26.365911],[-56.418171,-26.366316],[-56.417052,-26.366339],[-56.414834,-26.367066],[-56.412981,-26.366954],[-56.411033,-26.36738],[-56.408277,-26.369156],[-56.406586,-26.369623],[-56.404753,-26.371128],[-56.403212,-26.374395],[-56.402529,-26.375236],[-56.401414,-26.376211],[-56.400539,-26.376564],[-56.398481,-26.376154],[-56.397282,-26.376478],[-56.39667,-26.376358],[-56.394829,-26.374165],[-56.391785,-26.373529],[-56.389457,-26.371935],[-56.388295,-26.371682],[-56.385694,-26.374018],[-56.383683,-26.374786],[-56.382717,-26.375938],[-56.379463,-26.376808],[-56.378865,-26.376792],[-56.377778,-26.375934],[-56.376161,-26.376609],[-56.373434,-26.38071],[-56.372254,-26.380948],[-56.371773,-26.381447],[-56.371286,-26.381409],[-56.371064,-26.381891],[-56.370237,-26.382131],[-56.370001,-26.38269],[-56.370236,-26.383829],[-56.369426,-26.384313],[-56.369996,-26.384703],[-56.369707,-26.385163],[-56.369032,-26.384984],[-56.36927,-26.385648],[-56.368047,-26.386],[-56.367225,-26.38559],[-56.366949,-26.385796],[-56.367908,-26.387268],[-56.367556,-26.387483],[-56.36669,-26.386842],[-56.366721,-26.387231],[-56.366202,-26.387702],[-56.366976,-26.388965],[-56.36746,-26.388859],[-56.367754,-26.389366],[-56.366498,-26.389835],[-56.367452,-26.390214],[-56.367295,-26.390741],[-56.368167,-26.390366],[-56.36876,-26.390459],[-56.368382,-26.39127],[-56.369295,-26.391156],[-56.369568,-26.391491],[-56.3696,-26.39174],[-56.368555,-26.391695],[-56.368279,-26.391973],[-56.369487,-26.392195],[-56.369098,-26.392875],[-56.369934,-26.392852],[-56.370142,-26.393128],[-56.369667,-26.393582],[-56.370799,-26.393619],[-56.369572,-26.394859],[-56.370528,-26.394945],[-56.370095,-26.395715],[-56.370286,-26.396912],[-56.371098,-26.397281],[-56.370624,-26.397586],[-56.370309,-26.398912],[-56.369405,-26.399165],[-56.369393,-26.399387],[-56.370216,-26.399648],[-56.370303,-26.400014],[-56.368871,-26.400405],[-56.369665,-26.401902],[-56.370227,-26.401729],[-56.37017,-26.40223],[-56.370805,-26.40272],[-56.371148,-26.404171],[-56.370693,-26.404977],[-56.369581,-26.40485],[-56.370154,-26.405701],[-56.369188,-26.40595],[-56.369636,-26.406815],[-56.369562,-26.407664],[-56.368385,-26.408404],[-56.367421,-26.408048],[-56.367646,-26.409002],[-56.365321,-26.409282],[-56.364973,-26.409715],[-56.36497,-26.410192],[-56.365588,-26.410795],[-56.366675,-26.409868],[-56.367296,-26.409912],[-56.367746,-26.411758],[-56.366455,-26.41227],[-56.366864,-26.413204],[-56.365598,-26.413302],[-56.36541,-26.413881],[-56.366281,-26.414548],[-56.367808,-26.413063],[-56.36836,-26.413086],[-56.368358,-26.413335],[-56.366922,-26.415089],[-56.364411,-26.41572],[-56.364125,-26.414669],[-56.363356,-26.415025],[-56.362087,-26.417146],[-56.362144,-26.417865],[-56.361746,-26.417891],[-56.361139,-26.416645],[-56.360283,-26.416172],[-56.359757,-26.416943],[-56.359597,-26.41813],[-56.358184,-26.418372],[-56.357769,-26.421353],[-56.358319,-26.421825],[-56.358343,-26.422875],[-56.359232,-26.423155],[-56.358676,-26.423733],[-56.357692,-26.424115],[-56.35732,-26.424832],[-56.357344,-26.426075],[-56.357954,-26.426658],[-56.35804,-26.427763],[-56.357212,-26.427676],[-56.355714,-26.426703],[-56.355499,-26.426785],[-56.355646,-26.428028],[-56.355032,-26.427998],[-56.35476,-26.427279],[-56.355165,-26.426231],[-56.354859,-26.426008],[-56.354428,-26.426283],[-56.353902,-26.427192],[-56.353957,-26.428325],[-56.352909,-26.429204],[-56.354779,-26.429378],[-56.354929,-26.430014],[-56.354129,-26.430397],[-56.352475,-26.429892],[-56.352257,-26.430471],[-56.352531,-26.430887],[-56.351916,-26.431243],[-56.351821,-26.431768],[-56.352478,-26.434947],[-56.353454,-26.436029],[-56.35345,-26.436609],[-56.353078,-26.437381],[-56.352065,-26.437431],[-56.351822,-26.436905],[-56.351982,-26.435856],[-56.351738,-26.435634],[-56.350535,-26.436706],[-56.350594,-26.437066],[-56.351757,-26.437623],[-56.351814,-26.43848],[-56.351256,-26.439499],[-56.351958,-26.440138],[-56.351926,-26.440414],[-56.350449,-26.441015],[-56.350355,-26.441374],[-56.351213,-26.441626],[-56.351233,-26.443504],[-56.351841,-26.444612],[-56.353373,-26.445033],[-56.353677,-26.445449],[-56.351003,-26.446348],[-56.349498,-26.446535],[-56.348915,-26.446532],[-56.348182,-26.445866],[-56.347108,-26.445999],[-56.34603,-26.44663],[-56.34587,-26.447844],[-56.344486,-26.448418],[-56.345281,-26.448781],[-56.347338,-26.448597],[-56.347457,-26.449398],[-56.345268,-26.451129],[-56.344223,-26.451455],[-56.344067,-26.451896],[-56.344885,-26.453806],[-56.344699,-26.454054],[-56.343288,-26.454047],[-56.34307,-26.454488],[-56.34411,-26.455156],[-56.344047,-26.455377],[-56.342326,-26.455811],[-56.342231,-26.45639],[-56.343209,-26.457113],[-56.344833,-26.457452],[-56.345013,-26.458171],[-56.346112,-26.459309],[-56.34617,-26.459834],[-56.345801,-26.460081],[-56.344605,-26.459882],[-56.343284,-26.460152],[-56.342488,-26.459789],[-56.342301,-26.46023],[-56.342576,-26.460563],[-56.343646,-26.461148],[-56.343429,-26.461644],[-56.342721,-26.461889],[-56.34327,-26.46261],[-56.341612,-26.462713],[-56.340627,-26.463233],[-56.340171,-26.462458],[-56.339191,-26.462122],[-56.338165,-26.464465],[-56.338038,-26.46521],[-56.339521,-26.468891],[-56.339119,-26.469331],[-56.33777,-26.469159],[-56.337093,-26.469377],[-56.337454,-26.470594],[-56.337141,-26.471669],[-56.337989,-26.4738],[-56.336785,-26.474872],[-56.337395,-26.475648],[-56.337423,-26.476146],[-56.336736,-26.478076],[-56.339371,-26.478862],[-56.338782,-26.479991],[-56.338837,-26.481096],[-56.338342,-26.481785],[-56.338739,-26.482118],[-56.340827,-26.48199],[-56.340452,-26.483176],[-56.340789,-26.483232],[-56.342087,-26.481774],[-56.343285,-26.481504],[-56.343684,-26.481561],[-56.343896,-26.482004],[-56.343919,-26.482826],[-56.342591,-26.484787],[-56.341759,-26.485474],[-56.340281,-26.486268],[-56.339421,-26.486292],[-56.339115,-26.486208],[-56.339212,-26.485297],[-56.338477,-26.485072],[-56.336869,-26.487026],[-56.335914,-26.487574],[-56.33585,-26.488043],[-56.336489,-26.489013],[-56.336362,-26.489758],[-56.335684,-26.490252],[-56.336106,-26.491691],[-56.334359,-26.49124],[-56.332912,-26.491924],[-56.331965,-26.491036],[-56.330461,-26.491139],[-56.33006,-26.491469],[-56.330143,-26.492906],[-56.329216,-26.494117],[-56.329203,-26.496299],[-56.328374,-26.496295],[-56.327307,-26.494992],[-56.326084,-26.49424],[-56.325125,-26.495479],[-56.325275,-26.496059],[-56.326561,-26.496645],[-56.325972,-26.497582],[-56.326186,-26.497721],[-56.327663,-26.497231],[-56.328736,-26.497484],[-56.328979,-26.497817],[-56.329069,-26.498259],[-56.328511,-26.499113],[-56.329235,-26.501298],[-56.329157,-26.504171],[-56.330397,-26.507381],[-56.330119,-26.507683],[-56.328706,-26.507842],[-56.328428,-26.508173],[-56.328481,-26.509499],[-56.328111,-26.509939],[-56.327003,-26.510348],[-56.327028,-26.511315],[-56.327547,-26.511759],[-56.328498,-26.511985],[-56.331414,-26.512081],[-56.333063,-26.513608],[-56.334939,-26.513037],[-56.335458,-26.513592],[-56.334898,-26.514832],[-56.335019,-26.515247],[-56.336427,-26.515916],[-56.336263,-26.517711],[-56.334997,-26.518948],[-56.335171,-26.520827],[-56.333758,-26.520793],[-56.332259,-26.519902],[-56.331425,-26.520782],[-56.33023,-26.520417],[-56.330163,-26.521246],[-56.330949,-26.523459],[-56.332286,-26.525896],[-56.332743,-26.526534],[-56.334366,-26.527287],[-56.334392,-26.528061],[-56.333712,-26.528886],[-56.333739,-26.529466],[-56.334626,-26.530023],[-56.334802,-26.53146],[-56.335811,-26.53221],[-56.336326,-26.533428],[-56.337029,-26.533984],[-56.336935,-26.534343],[-56.335889,-26.534752],[-56.33429,-26.535048],[-56.334226,-26.535518],[-56.334836,-26.536322],[-56.33458,-26.538116],[-56.337775,-26.537882],[-56.338049,-26.53827],[-56.337767,-26.539263],[-56.337394,-26.539952],[-56.336039,-26.540581],[-56.33619,-26.541024],[-56.337233,-26.54136],[-56.338462,-26.541117],[-56.338797,-26.541643],[-56.338484,-26.542719],[-56.340568,-26.543475],[-56.340341,-26.545656],[-56.339446,-26.546259],[-56.339414,-26.54659],[-56.340142,-26.548113],[-56.340966,-26.549001],[-56.340903,-26.549415],[-56.339028,-26.549544],[-56.33773,-26.55103],[-56.337689,-26.551522],[-56.338071,-26.553181],[-56.338392,-26.553452],[-56.339961,-26.552982],[-56.340352,-26.553067],[-56.340373,-26.553461],[-56.339558,-26.554907],[-56.337542,-26.556969],[-56.336875,-26.556863],[-56.336302,-26.556259],[-56.335541,-26.556504],[-56.335123,-26.557],[-56.33512,-26.557559],[-56.336132,-26.557833],[-56.337164,-26.558563],[-56.337684,-26.56043],[-56.338806,-26.561616],[-56.339059,-26.561575],[-56.339155,-26.560892],[-56.339454,-26.561018],[-56.339703,-26.561806],[-56.33903,-26.562632],[-56.339346,-26.563752],[-56.338053,-26.564347],[-56.337562,-26.565484],[-56.334059,-26.565861],[-56.334486,-26.567603],[-56.33559,-26.567919],[-56.33584,-26.568583],[-56.336323,-26.568668],[-56.336674,-26.567696],[-56.337043,-26.567636],[-56.338166,-26.568698],[-56.338951,-26.56837],[-56.338977,-26.571912],[-56.337796,-26.572922],[-56.337812,-26.574103],[-56.337557,-26.574371],[-56.335917,-26.57513],[-56.33619,-26.575691],[-56.338974,-26.576366],[-56.339226,-26.576741],[-56.339104,-26.577796],[-56.338456,-26.578436],[-56.336607,-26.579318],[-56.3352,-26.57956],[-56.331883,-26.579441],[-56.331674,-26.579709],[-56.331992,-26.58056],[-56.334247,-26.581068],[-56.334542,-26.581836],[-56.333959,-26.582993],[-56.334165,-26.583263],[-56.335178,-26.583413],[-56.335222,-26.58389],[-56.334987,-26.584531],[-56.333599,-26.585498],[-56.334792,-26.586436],[-56.334627,-26.58716],[-56.332802,-26.587918],[-56.331963,-26.589509],[-56.330792,-26.588862],[-56.330443,-26.589461],[-56.331976,-26.591249],[-56.333492,-26.592085],[-56.33335,-26.592727],[-56.331459,-26.593049],[-56.331593,-26.593796],[-56.332534,-26.594422],[-56.332463,-26.594732],[-56.331218,-26.594871],[-56.330823,-26.595304],[-56.332155,-26.596181],[-56.331916,-26.597671],[-56.333368,-26.597595],[-56.334772,-26.597912],[-56.335387,-26.599158],[-56.337311,-26.601115],[-56.336935,-26.602397],[-56.337833,-26.602567],[-56.338311,-26.603605],[-56.339323,-26.603983],[-56.339436,-26.604273],[-56.337889,-26.604784],[-56.337147,-26.605651],[-56.337395,-26.606543],[-56.337832,-26.606731],[-56.33847,-26.607998],[-56.337702,-26.609237],[-56.337768,-26.609776],[-56.339036,-26.609761],[-56.339403,-26.610053],[-56.340105,-26.612293],[-56.342567,-26.612885],[-56.344152,-26.613804],[-56.346572,-26.613856],[-56.347879,-26.615085],[-56.348434,-26.614611],[-56.348262,-26.612435],[-56.349047,-26.612273],[-56.34999,-26.612608],[-56.351154,-26.614561],[-56.351282,-26.616467],[-56.348831,-26.617741],[-56.348661,-26.619294],[-56.349414,-26.620644],[-56.350081,-26.621019],[-56.351095,-26.620983],[-56.354032,-26.619214],[-56.354455,-26.617849],[-56.354164,-26.616253],[-56.354792,-26.61522],[-56.354915,-26.613853],[-56.355816,-26.613505],[-56.358759,-26.61474],[-56.359836,-26.615802],[-56.36036,-26.616985],[-56.360049,-26.618869],[-56.361632,-26.620326],[-56.362577,-26.620351],[-56.363849,-26.619528],[-56.364557,-26.620588],[-56.364926,-26.620672],[-56.365369,-26.619742],[-56.365784,-26.619619],[-56.36776,-26.620768],[-56.368244,-26.62077],[-56.368501,-26.620232],[-56.36818,-26.619837],[-56.366478,-26.619146],[-56.36609,-26.61844],[-56.36741,-26.617307],[-56.367482,-26.616913],[-56.366773,-26.615854],[-56.366961,-26.615233],[-56.368505,-26.615178],[-56.369014,-26.614807],[-56.368904,-26.613916],[-56.367896,-26.612751],[-56.368015,-26.612234],[-56.368821,-26.612258],[-56.370357,-26.613819],[-56.370186,-26.615579],[-56.370685,-26.616927],[-56.371239,-26.616826],[-56.371843,-26.615917],[-56.372328,-26.615775],[-56.373317,-26.616152],[-56.373572,-26.615842],[-56.373483,-26.61522],[-56.372172,-26.614738],[-56.371652,-26.612933],[-56.372024,-26.612293],[-56.374055,-26.611888],[-56.374333,-26.611516],[-56.374244,-26.610998],[-56.372822,-26.609686],[-56.372901,-26.607884],[-56.373203,-26.607388],[-56.376336,-26.60763],[-56.377438,-26.608443],[-56.380087,-26.608641],[-56.38059,-26.609472],[-56.380282,-26.610941],[-56.380764,-26.61142],[-56.381709,-26.611279],[-56.382057,-26.610928],[-56.382877,-26.608487],[-56.383797,-26.608719],[-56.384003,-26.609072],[-56.384046,-26.60959],[-56.383005,-26.610394],[-56.382887,-26.610849],[-56.383162,-26.611182],[-56.384406,-26.611208],[-56.386693,-26.610285],[-56.387061,-26.61039],[-56.387286,-26.611489],[-56.387653,-26.61174],[-56.387953,-26.611658],[-56.388311,-26.609422],[-56.389373,-26.609033],[-56.389902,-26.609139],[-56.390395,-26.611793],[-56.390694,-26.612043],[-56.392379,-26.611449],[-56.392843,-26.610912],[-56.391307,-26.609373],[-56.391426,-26.60869],[-56.392122,-26.607843],[-56.391323,-26.606245],[-56.391372,-26.605727],[-56.393151,-26.604989],[-56.39428,-26.604994],[-56.395278,-26.603734],[-56.395669,-26.603777],[-56.395939,-26.605001],[-56.396696,-26.605605],[-56.396644,-26.606827],[-56.397011,-26.607243],[-56.399031,-26.608701],[-56.400552,-26.608625],[-56.400641,-26.60935],[-56.400894,-26.609434],[-56.402049,-26.608859],[-56.403133,-26.608698],[-56.403897,-26.608121],[-56.405003,-26.608105],[-56.405075,-26.607608],[-56.404067,-26.606423],[-56.404578,-26.605576],[-56.406074,-26.606059],[-56.406277,-26.606888],[-56.407448,-26.607659],[-56.407859,-26.608365],[-56.409036,-26.608142],[-56.410033,-26.606966],[-56.409907,-26.604521],[-56.409404,-26.60369],[-56.408691,-26.603459],[-56.407259,-26.604158],[-56.406447,-26.605086],[-56.405688,-26.604835],[-56.40637,-26.602207],[-56.40571,-26.600567],[-56.406754,-26.599287],[-56.40671,-26.598935],[-56.40519,-26.598721],[-56.405078,-26.598037],[-56.405658,-26.597377],[-56.406858,-26.596988],[-56.407779,-26.597033],[-56.408628,-26.597783],[-56.410219,-26.597541],[-56.410684,-26.596921],[-56.410786,-26.594933],[-56.412352,-26.595167],[-56.412011,-26.594192],[-56.412361,-26.593282],[-56.411904,-26.592534],[-56.412022,-26.591955],[-56.413707,-26.591464],[-56.41405,-26.592087]]]}}]}
