{"type":"FeatureCollection","name":"distrito","features":[{"type":"Feature","properties":{"clave":"10-27","nombre":"San Alberto"},"geometry":{"type":"Polygon","coordinates":[[[-54.967538,-25.065041],[-54.96968,-25.066612],[-54.974819,-25.071751],[-54.975912,-25.071433],[-54.978529,-25.06965],[-54.979715,-25.065545],[-54.979268,-25.063896],[-54.978567,-25.057829],[-54.977885,-25.054976],[-54.975512,-25.052958],[-54.975685,-25.050884],[-54.97634,-25.050026],[-54.977793,-25.049355],[-54.980283,-25.047277],[-54.982007,-25.044687],[-54.984387,-25.042444],[-54.986991,-25.039293],[-54.988721,-25.035759],[-54.997393,-25.027856],[-55.000027,-25.023996],[-55.000964,-25.023069],[-55.002069,-25.022723],[-55.004731,-25.022759],[-55.01013,-25.021974],[-55.013655,-25.021014],[-55.018574,-25.018101],[-55.020155,-25.017445],[-55.022123,-25.017114],[-55.023239,-25.01564],[-55.023777,-25.013598],[-55.024544,-25.012443],[-55.026484,-25.013069],[-55.032414,-25.014055],[-55.034792,-25.0155],[-55.035541,-25.015667],[-55.042116,-25.015258],[-55.047363,-25.014388],[-55.049316,-25.013642],[-55.056322,-25.009427],[-55.057014,-25.007879],[-55.057879,-25.000153],[-55.064269,-24.996829],[-55.066074,-24.994315],[-55.067522,-24.99312],[-55.068041,-24.992007],[-55.068402,-24.990355],[-55.068293,-24.988278],[-55.06797,-24.986955],[-55.066576,-24.985317],[-55.06657,-24.983552],[-55.06353,-24.980935],[-55.060565,-24.979723],[-55.059735,-24.978971],[-55.059104,-24.977821],[-55.059044,-24.974932],[-55.058732,-24.97374],[-55.059726,-24.970973],[-55.059946,-24.966854],[-55.059433,-24.965318],[-55.058226,-24.963293],[-55.056945,-24.959498],[-55.056528,-24.954397],[-55.056807,-24.951543],[-55.055193,-24.94764],[-55.054821,-24.945568],[-55.055301,-24.944491],[-55.055147,-24.943324],[-55.053986,-24.941097],[-55.052243,-24.939996],[-55.050197,-24.940018],[-55.048162,-24.940515],[-55.047329,-24.940143],[-55.045396,-24.930675],[-55.044786,-24.929715],[-55.044944,-24.928895],[-55.04411,-24.924185],[-55.042497,-24.921839],[-55.041809,-24.920043],[-55.041708,-24.918692],[-55.042061,-24.915316],[-55.042286,-24.915197],[-55.041789,-24.912125],[-55.039983,-24.904107],[-55.029041,-24.848298],[-55.023955,-24.849833],[-55.022966,-24.850497],[-55.021031,-24.850359],[-55.019203,-24.850921],[-55.017048,-24.852495],[-55.016156,-24.854221],[-55.014129,-24.854898],[-55.012135,-24.854863],[-55.011569,-24.855085],[-55.011021,-24.856446],[-55.009558,-24.85779],[-55.009345,-24.858717],[-55.008879,-24.859184],[-55.008773,-24.860641],[-55.006618,-24.863605],[-55.005924,-24.863076],[-55.004772,-24.863264],[-55.001684,-24.864356],[-54.998475,-24.864674],[-54.995737,-24.865761],[-54.994828,-24.865708],[-54.993946,-24.865967],[-54.993366,-24.866524],[-54.99184,-24.866508],[-54.99103,-24.867124],[-54.990044,-24.8668],[-54.98884,-24.867623],[-54.987236,-24.867497],[-54.986516,-24.867718],[-54.98559,-24.869412],[-54.983862,-24.870332],[-54.982935,-24.871524],[-54.983124,-24.872822],[-54.982718,-24.873426],[-54.983048,-24.874194],[-54.982093,-24.874822],[-54.980383,-24.87817],[-54.979761,-24.881741],[-54.979371,-24.882247],[-54.979991,-24.882914],[-54.978686,-24.883763],[-54.976596,-24.883707],[-54.975617,-24.882592],[-54.975873,-24.88228],[-54.975485,-24.881837],[-54.974982,-24.882132],[-54.974286,-24.882015],[-54.973341,-24.88123],[-54.971764,-24.880626],[-54.96922,-24.881544],[-54.966925,-24.881658],[-54.96127,-24.886807],[-54.961823,-24.887829],[-54.961583,-24.888258],[-54.960361,-24.888758],[-54.959317,-24.888708],[-54.95878,-24.889165],[-54.899018,-24.943808],[-54.896769,-24.940436],[-54.895091,-24.939397],[-54.892966,-24.939322],[-54.891299,-24.938567],[-54.888928,-24.936715],[-54.88863,-24.935677],[-54.882628,-24.931683],[-54.879985,-24.929379],[-54.878588,-24.9288],[-54.877654,-24.928895],[-54.872685,-24.927389],[-54.871678,-24.926783],[-54.870651,-24.92536],[-54.869289,-24.924564],[-54.868091,-24.922417],[-54.866858,-24.92174],[-54.866281,-24.920928],[-54.866035,-24.919377],[-54.866541,-24.916184],[-54.866183,-24.915019],[-54.865177,-24.913871],[-54.864277,-24.910695],[-54.864504,-24.909411],[-54.8613,-24.907104],[-54.860126,-24.907313],[-54.857987,-24.906321],[-54.857272,-24.906712],[-54.856041,-24.906798],[-54.855267,-24.906444],[-54.854491,-24.906636],[-54.852781,-24.906016],[-54.852389,-24.905541],[-54.851914,-24.903598],[-54.849593,-24.902057],[-54.848972,-24.900924],[-54.847085,-24.899624],[-54.844966,-24.89897],[-54.840203,-24.896026],[-54.838777,-24.894137],[-54.837854,-24.889818],[-54.837844,-24.885706],[-54.837013,-24.885351],[-54.83636,-24.884186],[-54.834929,-24.883836],[-54.834108,-24.883296],[-54.832797,-24.880356],[-54.831988,-24.880002],[-54.831218,-24.87907],[-54.828586,-24.878639],[-54.828442,-24.878321],[-54.828812,-24.877541],[-54.828365,-24.876361],[-54.828097,-24.876483],[-54.828165,-24.8775],[-54.827677,-24.877732],[-54.826719,-24.876923],[-54.826197,-24.875855],[-54.825368,-24.87573],[-54.82388,-24.874937],[-54.821516,-24.874704],[-54.819357,-24.874049],[-54.819011,-24.873588],[-54.8192,-24.872625],[-54.818624,-24.872296],[-54.817865,-24.872822],[-54.817436,-24.87385],[-54.816906,-24.873982],[-54.816708,-24.872882],[-54.815395,-24.872114],[-54.815286,-24.871304],[-54.81503,-24.87149],[-54.815149,-24.872494],[-54.814845,-24.872986],[-54.812959,-24.872584],[-54.812546,-24.872081],[-54.81356,-24.871288],[-54.813553,-24.870963],[-54.812466,-24.870825],[-54.810818,-24.869817],[-54.810361,-24.869941],[-54.810294,-24.870716],[-54.809517,-24.871125],[-54.809161,-24.87112],[-54.808829,-24.870582],[-54.807061,-24.871247],[-54.805588,-24.873049],[-54.805019,-24.873212],[-54.804874,-24.871779],[-54.803489,-24.870468],[-54.804053,-24.869496],[-54.804838,-24.869837],[-54.805274,-24.869162],[-54.80354,-24.868487],[-54.802772,-24.868467],[-54.802906,-24.867764],[-54.803633,-24.867504],[-54.802963,-24.866849],[-54.802891,-24.865498],[-54.801809,-24.866345],[-54.80025,-24.865911],[-54.798973,-24.864425],[-54.79904,-24.863492],[-54.798346,-24.863197],[-54.798029,-24.863305],[-54.798283,-24.863819],[-54.798089,-24.864326],[-54.796846,-24.865143],[-54.795728,-24.866449],[-54.795164,-24.866414],[-54.795875,-24.865381],[-54.795624,-24.864895],[-54.793995,-24.86446],[-54.791455,-24.864847],[-54.790626,-24.864519],[-54.790515,-24.864016],[-54.791493,-24.863164],[-54.79374,-24.862096],[-54.794234,-24.861476],[-54.794934,-24.861346],[-54.795517,-24.859572],[-54.795228,-24.858385],[-54.79418,-24.857647],[-54.793743,-24.856422],[-54.794205,-24.855098],[-54.794111,-24.851143],[-54.794563,-24.848983],[-54.793167,-24.849996],[-54.79097,-24.852577],[-54.789789,-24.852604],[-54.787101,-24.851914],[-54.784355,-24.852957],[-54.782624,-24.853265],[-54.781592,-24.85311],[-54.780811,-24.852611],[-54.779753,-24.852699],[-54.778627,-24.852375],[-54.777796,-24.852783],[-54.776671,-24.852762],[-54.775874,-24.851657],[-54.776103,-24.84977],[-54.775373,-24.850662],[-54.77402,-24.851476],[-54.773481,-24.853405],[-54.772918,-24.854276],[-54.77177,-24.854792],[-54.769375,-24.855144],[-54.768166,-24.854648],[-54.766293,-24.85262],[-54.765188,-24.85208],[-54.762952,-24.852128],[-54.760045,-24.852784],[-54.757477,-24.854424],[-54.756048,-24.85392],[-54.755083,-24.853905],[-54.75442,-24.853065],[-54.753072,-24.853176],[-54.751942,-24.855311],[-54.750846,-24.856152],[-54.749221,-24.856719],[-54.74586,-24.856822],[-54.742625,-24.855315],[-54.737204,-24.854999],[-54.736352,-24.855694],[-54.731511,-24.857196],[-54.730109,-24.858344],[-54.72768,-24.859507],[-54.727083,-24.860175],[-54.723444,-24.86243],[-54.720628,-24.866097],[-54.720231,-24.868456],[-54.719233,-24.870901],[-54.717539,-24.871687],[-54.716885,-24.872918],[-54.714294,-24.873687],[-54.713227,-24.874731],[-54.71222,-24.874973],[-54.711368,-24.874242],[-54.711062,-24.875],[-54.709236,-24.87448],[-54.708068,-24.875595],[-54.707356,-24.875656],[-54.704801,-24.873645],[-54.704007,-24.871742],[-54.704001,-24.870153],[-54.704466,-24.868878],[-54.705845,-24.867861],[-54.70753,-24.865274],[-54.708727,-24.864191],[-54.709301,-24.862814],[-54.710246,-24.861615],[-54.710993,-24.859212],[-54.713013,-24.857672],[-54.715081,-24.856639],[-54.716541,-24.854901],[-54.718235,-24.853491],[-54.71922,-24.852292],[-54.719207,-24.85101],[-54.719618,-24.850186],[-54.721755,-24.848359],[-54.723457,-24.847938],[-54.725211,-24.847911],[-54.728337,-24.846826],[-54.732999,-24.84793],[-54.735113,-24.847872],[-54.737166,-24.847208],[-54.737188,-24.846947],[-54.736702,-24.846871],[-54.738346,-24.846034],[-54.738514,-24.845522],[-54.737582,-24.843608],[-54.738152,-24.841996],[-54.737868,-24.841396],[-54.738961,-24.84112],[-54.739767,-24.840536],[-54.740233,-24.839604],[-54.740938,-24.839006],[-54.741011,-24.83823],[-54.74089,-24.837877],[-54.739654,-24.840227],[-54.738649,-24.8406],[-54.737536,-24.840425],[-54.735769,-24.843012],[-54.73542,-24.844216],[-54.734,-24.845255],[-54.731699,-24.845094],[-54.731274,-24.844614],[-54.730493,-24.844448],[-54.729404,-24.843046],[-54.72896,-24.842872],[-54.725946,-24.843833],[-54.724557,-24.839064],[-54.724144,-24.83862],[-54.724419,-24.841039],[-54.72399,-24.842914],[-54.721876,-24.845391],[-54.721266,-24.845901],[-54.718572,-24.846925],[-54.718373,-24.848068],[-54.717174,-24.849458],[-54.713113,-24.851242],[-54.711609,-24.8514],[-54.710614,-24.852472],[-54.707157,-24.854224],[-54.705587,-24.855739],[-54.704519,-24.858106],[-54.703899,-24.858809],[-54.694905,-24.86614],[-54.68803,-24.870538],[-54.684627,-24.873356],[-54.68163,-24.873129],[-54.680424,-24.872252],[-54.679581,-24.872149],[-54.678956,-24.87167],[-54.678105,-24.869797],[-54.678056,-24.86819],[-54.679752,-24.86586],[-54.681112,-24.865037],[-54.683902,-24.864981],[-54.685352,-24.864634],[-54.687494,-24.863629],[-54.689049,-24.862507],[-54.69007,-24.861485],[-54.690832,-24.859881],[-54.692377,-24.858668],[-54.693011,-24.85689],[-54.694354,-24.855805],[-54.698319,-24.851439],[-54.698698,-24.850583],[-54.696665,-24.849256],[-54.695323,-24.848834],[-54.695387,-24.848438],[-54.696406,-24.847474],[-54.69561,-24.847055],[-54.695576,-24.846771],[-54.695798,-24.846241],[-54.696456,-24.845827],[-54.696646,-24.845041],[-54.6953,-24.843187],[-54.695079,-24.84192],[-54.694369,-24.841869],[-54.693811,-24.842424],[-54.693274,-24.844081],[-54.693905,-24.847381],[-54.692893,-24.84881],[-54.691595,-24.849909],[-54.690022,-24.852241],[-54.689469,-24.854773],[-54.688632,-24.856827],[-54.687588,-24.858169],[-54.686553,-24.858781],[-54.68266,-24.859725],[-54.670679,-24.800399],[-54.666836,-24.782268],[-54.666376,-24.781268],[-54.66656,-24.780576],[-54.665415,-24.775057],[-54.666773,-24.775872],[-54.667489,-24.778027],[-54.668689,-24.78009],[-54.674136,-24.781479],[-54.675467,-24.783829],[-54.675909,-24.784039],[-54.680528,-24.783587],[-54.689185,-24.779948],[-54.712595,-24.781148],[-54.72288,-24.782277],[-54.726179,-24.78097],[-54.728797,-24.779507],[-54.734549,-24.771217],[-54.735839,-24.770036],[-54.741914,-24.767768],[-54.74611,-24.767501],[-54.756335,-24.766166],[-54.756598,-24.763881],[-54.751741,-24.760335],[-54.750011,-24.759627],[-54.748602,-24.75953],[-54.74676,-24.758101],[-54.745278,-24.757472],[-54.743544,-24.756991],[-54.740143,-24.756864],[-54.738658,-24.756387],[-54.735167,-24.756713],[-54.733114,-24.75547],[-54.731772,-24.756283],[-54.730772,-24.756495],[-54.728634,-24.755402],[-54.727737,-24.754554],[-54.72725,-24.753941],[-54.72729,-24.751744],[-54.727738,-24.749932],[-54.727554,-24.749517],[-54.72835,-24.748691],[-54.728498,-24.748041],[-54.723884,-24.733768],[-54.722269,-24.731743],[-54.720995,-24.730762],[-54.717485,-24.72923],[-54.715439,-24.726083],[-54.71525,-24.725304],[-54.714407,-24.72495],[-54.714724,-24.724334],[-54.712016,-24.723734],[-54.710194,-24.722992],[-54.70793,-24.720018],[-54.70839,-24.719457],[-54.707957,-24.718539],[-54.704305,-24.716299],[-54.702299,-24.713993],[-54.700698,-24.713612],[-54.699457,-24.711878],[-54.699133,-24.710921],[-54.698044,-24.702713],[-54.697558,-24.701744],[-54.696274,-24.700388],[-54.694059,-24.700088],[-54.69284,-24.700466],[-54.691514,-24.700031],[-54.689525,-24.698434],[-54.687403,-24.697841],[-54.685177,-24.695708],[-54.682689,-24.694384],[-54.681982,-24.693353],[-54.681481,-24.693381],[-54.680545,-24.694102],[-54.679726,-24.693765],[-54.678987,-24.694056],[-54.676297,-24.692597],[-54.675364,-24.693336],[-54.674618,-24.692833],[-54.674635,-24.693537],[-54.673327,-24.693945],[-54.672283,-24.695035],[-54.671243,-24.695281],[-54.669912,-24.697697],[-54.668986,-24.697439],[-54.667546,-24.698288],[-54.666773,-24.698312],[-54.666083,-24.698883],[-54.663511,-24.699516],[-54.661973,-24.69909],[-54.660838,-24.699447],[-54.660426,-24.699883],[-54.660832,-24.700553],[-54.660555,-24.700792],[-54.659297,-24.699617],[-54.6588,-24.70002],[-54.657947,-24.699808],[-54.657393,-24.700465],[-54.654882,-24.701232],[-54.655078,-24.701748],[-54.6561,-24.702541],[-54.656478,-24.704061],[-54.655397,-24.706397],[-54.655038,-24.707971],[-54.655499,-24.709332],[-54.656701,-24.711001],[-54.656488,-24.712549],[-54.655711,-24.714178],[-54.653615,-24.713433],[-54.650917,-24.711958],[-54.650049,-24.710363],[-54.647981,-24.708147],[-54.645168,-24.704516],[-54.644662,-24.70346],[-54.643842,-24.702785],[-54.642932,-24.70285],[-54.640635,-24.704158],[-54.639208,-24.704155],[-54.638836,-24.703794],[-54.638796,-24.702159],[-54.638315,-24.70168],[-54.634103,-24.701279],[-54.633003,-24.70047],[-54.631343,-24.700731],[-54.63113,-24.701133],[-54.631147,-24.701971],[-54.631732,-24.703144],[-54.633724,-24.706654],[-54.636088,-24.707002],[-54.636625,-24.707565],[-54.636523,-24.708308],[-54.634895,-24.709784],[-54.632993,-24.709294],[-54.629735,-24.706915],[-54.626421,-24.705889],[-54.625295,-24.706094],[-54.623315,-24.708005],[-54.619318,-24.707833],[-54.615111,-24.707076],[-54.613388,-24.705777],[-54.610792,-24.702715],[-54.610266,-24.696964],[-54.608522,-24.695839],[-54.602233,-24.69511],[-54.599451,-24.696238],[-54.597337,-24.696531],[-54.595067,-24.695363],[-54.592082,-24.69467],[-54.588897,-24.694815],[-54.586922,-24.694251],[-54.583338,-24.692267],[-54.582167,-24.692482],[-54.579258,-24.694183],[-54.577963,-24.693975],[-54.574809,-24.691933],[-54.573373,-24.691543],[-54.569682,-24.691727],[-54.565472,-24.68993],[-54.56256,-24.689993],[-54.559952,-24.689375],[-54.555164,-24.69075],[-54.549586,-24.693758],[-54.544301,-24.693514],[-54.540413,-24.6924],[-54.536398,-24.691861],[-54.532615,-24.694215],[-54.529154,-24.700567],[-54.525297,-24.703708],[-54.518765,-24.703981],[-54.512272,-24.701508],[-54.507954,-24.69932],[-54.504421,-24.698763],[-54.503804,-24.702363],[-54.502927,-24.712186],[-54.499098,-24.719593],[-54.495473,-24.720275],[-54.491971,-24.717356],[-54.49037,-24.712972],[-54.488641,-24.710826],[-54.485641,-24.709611],[-54.483203,-24.710113],[-54.478916,-24.70643],[-54.476453,-24.706886],[-54.473539,-24.709452],[-54.472537,-24.711801],[-54.472163,-24.7234],[-54.466979,-24.722696],[-54.463943,-24.721173],[-54.456508,-24.721047],[-54.451573,-24.721816],[-54.446841,-24.720496],[-54.443583,-24.718126],[-54.442995,-24.711508],[-54.443616,-24.702758],[-54.442937,-24.698474],[-54.441738,-24.697123],[-54.439134,-24.697009],[-54.431598,-24.69814],[-54.42897,-24.699146],[-54.425065,-24.698939],[-54.423809,-24.696606],[-54.423601,-24.692371],[-54.423982,-24.688205],[-54.422702,-24.68335],[-54.414963,-24.679505],[-54.412103,-24.680646],[-54.403045,-24.688684],[-54.401625,-24.690621],[-54.397794,-24.690554],[-54.39415,-24.68881],[-54.391256,-24.687919],[-54.388422,-24.6878],[-54.38213,-24.691752],[-54.374845,-24.695547],[-54.354493,-24.703752],[-54.345807,-24.70766],[-54.360863,-24.721446],[-54.372403,-24.739802],[-54.380025,-24.755495],[-54.392993,-24.787364],[-54.398873,-24.805107],[-54.400712,-24.825888],[-54.403228,-24.841491],[-54.407591,-24.850384],[-54.421716,-24.882014],[-54.423139,-24.887775],[-54.447173,-24.887135],[-54.475818,-24.887968],[-54.504599,-24.888392],[-54.509739,-24.888821],[-54.520447,-24.88568],[-54.541862,-24.877827],[-54.550999,-24.872635],[-54.561951,-24.867861],[-54.573443,-24.867703],[-54.585987,-24.867907],[-54.589689,-24.869832],[-54.603395,-24.879255],[-54.612246,-24.883824],[-54.617119,-24.887873],[-54.626567,-24.88906],[-54.629991,-24.884924],[-54.633661,-24.881254],[-54.635089,-24.8764],[-54.635517,-24.870689],[-54.637373,-24.864978],[-54.641942,-24.859839],[-54.645902,-24.857847],[-54.654389,-24.856911],[-54.661126,-24.858329],[-54.667355,-24.865264],[-54.671495,-24.872545],[-54.676355,-24.877783],[-54.682286,-24.878421],[-54.686874,-24.877381],[-54.691576,-24.875694],[-54.698165,-24.876259],[-54.707058,-24.878526],[-54.715697,-24.87801],[-54.72083,-24.87494],[-54.724413,-24.874061],[-54.727266,-24.876459],[-54.729098,-24.881703],[-54.729971,-24.883152],[-54.731636,-24.883412],[-54.733857,-24.883182],[-54.735189,-24.884169],[-54.738195,-24.888464],[-54.73958,-24.893526],[-54.740142,-24.89796],[-54.741278,-24.899091],[-54.744256,-24.899693],[-54.744546,-24.903155],[-54.746162,-24.90441],[-54.747037,-24.905772],[-54.747339,-24.90859],[-54.750307,-24.91364],[-54.751034,-24.917961],[-54.752023,-24.919222],[-54.755227,-24.921382],[-54.757209,-24.924788],[-54.758006,-24.927937],[-54.75935,-24.931315],[-54.76002,-24.936804],[-54.759892,-24.941916],[-54.760321,-24.942672],[-54.76059,-24.944391],[-54.762892,-24.94638],[-54.764073,-24.948302],[-54.766847,-24.950041],[-54.767827,-24.951545],[-54.772503,-24.954183],[-54.773495,-24.955561],[-54.781876,-24.951701],[-54.780428,-24.944778],[-54.780199,-24.942058],[-54.789027,-24.940113],[-54.790992,-24.939945],[-54.791037,-24.941388],[-54.791737,-24.942509],[-54.793312,-24.943471],[-54.795481,-24.943657],[-54.79593,-24.944841],[-54.796365,-24.945132],[-54.796625,-24.944874],[-54.796884,-24.945799],[-54.797807,-24.946137],[-54.798424,-24.946927],[-54.799297,-24.947401],[-54.802563,-24.950888],[-54.804839,-24.952118],[-54.806545,-24.952075],[-54.807652,-24.952872],[-54.809693,-24.9552],[-54.812759,-24.95663],[-54.815771,-24.95408],[-54.842001,-24.978059],[-54.843211,-24.980432],[-54.844157,-24.981326],[-54.844544,-24.984008],[-54.845402,-24.985984],[-54.845755,-24.988002],[-54.845598,-24.990852],[-54.845955,-24.992297],[-54.846529,-24.992711],[-54.847219,-24.994098],[-54.847878,-24.994717],[-54.8482,-24.996437],[-54.849525,-24.997878],[-54.849807,-24.999069],[-54.851359,-25.00105],[-54.851505,-25.002072],[-54.863738,-25.003453],[-54.864193,-25.001258],[-54.864854,-25.000346],[-54.866781,-24.999529],[-54.871481,-24.998509],[-54.875868,-24.998693],[-54.882507,-25.000016],[-54.886403,-25.001246],[-54.892153,-25.002125],[-54.891149,-25.002707],[-54.891165,-25.003509],[-54.898846,-25.011388],[-54.900663,-25.013426],[-54.900996,-25.014262],[-54.902729,-25.01536],[-54.909443,-25.021955],[-54.915023,-25.029228],[-54.923454,-25.036996],[-54.923808,-25.037105],[-54.924768,-25.036583],[-54.929686,-25.040997],[-54.930005,-25.041375],[-54.928642,-25.0438],[-54.9399,-25.05402],[-54.949457,-25.059154],[-54.95526,-25.059331],[-54.95683,-25.060473],[-54.9594,-25.061329],[-54.961542,-25.064042],[-54.967538,-25.065041]]]}}]}
