{"type":"FeatureCollection","name":"distrito","features":[{"type":"Feature","properties":{"clave":"12-1","nombre":"Alberdi"},"geometry":{"type":"Polygon","coordinates":[[[-58.142941,-26.197944],[-58.145801,-26.195477],[-58.151798,-26.189455],[-58.153593,-26.188047],[-58.156935,-26.186131],[-58.158493,-26.184794],[-58.159249,-26.183603],[-58.159316,-26.182788],[-58.159219,-26.181616],[-58.158095,-26.179695],[-58.155774,-26.178331],[-58.154084,-26.177888],[-58.151655,-26.177717],[-58.147215,-26.177941],[-58.143359,-26.178431],[-58.134903,-26.180911],[-58.127551,-26.184245],[-58.123565,-26.185697],[-58.120511,-26.186224],[-58.118327,-26.185744],[-58.115715,-26.184253],[-58.11469,-26.183135],[-58.114492,-26.181895],[-58.11497,-26.180083],[-58.117617,-26.173861],[-58.1191,-26.169172],[-58.119414,-26.167233],[-58.119031,-26.161801],[-58.117722,-26.156169],[-58.115891,-26.150409],[-58.115063,-26.148155],[-58.110844,-26.142155],[-58.104544,-26.135354],[-58.098796,-26.130519],[-58.095274,-26.128001],[-58.094209,-26.125613],[-58.089769,-26.126885],[-58.035254,-26.162517],[-58.024329,-26.156564],[-58.022942,-26.159287],[-58.000321,-26.176082],[-58.027544,-26.202069],[-58.009547,-26.211117],[-58.018789,-26.219326],[-58.01984,-26.239674],[-58.025469,-26.25041],[-58.042048,-26.248322],[-58.064032,-26.241989],[-58.072516,-26.238411],[-58.088464,-26.223222],[-58.091413,-26.222292],[-58.100727,-26.222614],[-58.101204,-26.222607],[-58.101264,-26.222234],[-58.105381,-26.222758],[-58.106821,-26.22007],[-58.110028,-26.216471],[-58.114163,-26.212784],[-58.118601,-26.209775],[-58.125955,-26.205653],[-58.134094,-26.202705],[-58.138478,-26.200692],[-58.142941,-26.197944]]]}}]}
