{"type":"FeatureCollection","name":"distrito","features":[{"type":"Feature","properties":{"clave":"4-23","nombre":"Natalicio Talavera"},"geometry":{"type":"Polygon","coordinates":[[[-56.31414,-25.679944],[-56.318614,-25.678904],[-56.319396,-25.677951],[-56.320736,-25.67383],[-56.321718,-25.671957],[-56.322955,-25.670771],[-56.325336,-25.669666],[-56.327167,-25.666505],[-56.327651,-25.664824],[-56.327703,-25.663239],[-56.326746,-25.660751],[-56.327341,-25.658542],[-56.328941,-25.657985],[-56.332139,-25.657449],[-56.33405,-25.655326],[-56.335414,-25.654317],[-56.33727,-25.646695],[-56.33993,-25.645592],[-56.340581,-25.644972],[-56.341309,-25.642076],[-56.340043,-25.640725],[-56.338579,-25.640091],[-56.338675,-25.638349],[-56.338118,-25.637606],[-56.337953,-25.636332],[-56.338583,-25.635553],[-56.339208,-25.635534],[-56.340436,-25.636067],[-56.340826,-25.635699],[-56.340983,-25.634684],[-56.340748,-25.634114],[-56.33939,-25.633796],[-56.33895,-25.632473],[-56.337896,-25.632649],[-56.33601,-25.630908],[-56.331256,-25.629278],[-56.329822,-25.628048],[-56.32877,-25.626379],[-56.327896,-25.625747],[-56.327479,-25.62566],[-56.3271,-25.626215],[-56.325286,-25.624903],[-56.323611,-25.625391],[-56.323165,-25.625907],[-56.322621,-25.625432],[-56.32169,-25.625699],[-56.31997,-25.625064],[-56.318914,-25.626204],[-56.319114,-25.627017],[-56.31942,-25.627289],[-56.320574,-25.626861],[-56.3209,-25.628162],[-56.319851,-25.629526],[-56.319056,-25.629879],[-56.319169,-25.630892],[-56.318613,-25.631176],[-56.318354,-25.631755],[-56.317768,-25.631296],[-56.316774,-25.632041],[-56.316337,-25.630763],[-56.316171,-25.631505],[-56.31548,-25.631548],[-56.315278,-25.631067],[-56.314638,-25.631034],[-56.314038,-25.629979],[-56.313132,-25.630299],[-56.312088,-25.63008],[-56.311579,-25.630733],[-56.310374,-25.629921],[-56.310055,-25.630824],[-56.30885,-25.630163],[-56.308202,-25.63052],[-56.304684,-25.630207],[-56.303841,-25.631039],[-56.30385,-25.63163],[-56.304276,-25.632178],[-56.304023,-25.632664],[-56.302515,-25.632514],[-56.302011,-25.632979],[-56.302805,-25.63331],[-56.303019,-25.633757],[-56.301976,-25.634014],[-56.301598,-25.634458],[-56.301386,-25.63607],[-56.301067,-25.63612],[-56.300826,-25.635385],[-56.299771,-25.635302],[-56.298967,-25.636661],[-56.2981,-25.63667],[-56.298339,-25.637733],[-56.299715,-25.637438],[-56.300016,-25.637898],[-56.299722,-25.638696],[-56.298256,-25.639541],[-56.296899,-25.639129],[-56.296217,-25.63961],[-56.295357,-25.638361],[-56.29396,-25.639835],[-56.293656,-25.639755],[-56.294022,-25.639102],[-56.293968,-25.638485],[-56.293054,-25.638992],[-56.292539,-25.63798],[-56.293366,-25.637525],[-56.293383,-25.63704],[-56.29311,-25.636829],[-56.291808,-25.636902],[-56.290874,-25.635796],[-56.291071,-25.636806],[-56.289608,-25.637271],[-56.290125,-25.635294],[-56.28786,-25.63451],[-56.286934,-25.634545],[-56.286394,-25.635368],[-56.285575,-25.634486],[-56.284689,-25.635202],[-56.283987,-25.634071],[-56.282393,-25.634627],[-56.281459,-25.6336],[-56.280866,-25.633558],[-56.279842,-25.635611],[-56.279508,-25.635767],[-56.278977,-25.635161],[-56.278456,-25.635198],[-56.278781,-25.636471],[-56.278013,-25.636821],[-56.277772,-25.635915],[-56.27719,-25.636607],[-56.276784,-25.636684],[-56.275764,-25.635552],[-56.274046,-25.635058],[-56.273111,-25.634293],[-56.271537,-25.633918],[-56.27132,-25.633996],[-56.271491,-25.634429],[-56.272499,-25.635129],[-56.270627,-25.636221],[-56.271465,-25.636304],[-56.271737,-25.636659],[-56.27114,-25.63739],[-56.270912,-25.636838],[-56.270536,-25.636823],[-56.270295,-25.638474],[-56.269344,-25.637814],[-56.267896,-25.638226],[-56.268557,-25.638871],[-56.268526,-25.639225],[-56.266965,-25.639021],[-56.266122,-25.639737],[-56.26521,-25.63993],[-56.265233,-25.640926],[-56.263413,-25.640628],[-56.263596,-25.641416],[-56.263102,-25.641741],[-56.262712,-25.641739],[-56.262053,-25.640739],[-56.261215,-25.640512],[-56.25914,-25.641708],[-56.260019,-25.639916],[-56.259745,-25.639745],[-56.25792,-25.640129],[-56.257767,-25.639171],[-56.258318,-25.639003],[-56.259083,-25.639269],[-56.259504,-25.638983],[-56.258725,-25.638573],[-56.257526,-25.638475],[-56.257648,-25.637401],[-56.257165,-25.636061],[-56.258438,-25.63595],[-56.258313,-25.635136],[-56.257199,-25.635144],[-56.257679,-25.634779],[-56.257552,-25.634202],[-56.258407,-25.633918],[-56.258351,-25.633629],[-56.257412,-25.633545],[-56.257921,-25.633037],[-56.257866,-25.632538],[-56.256532,-25.632146],[-56.256067,-25.632958],[-56.255685,-25.633082],[-56.255834,-25.631891],[-56.255056,-25.631901],[-56.254542,-25.630945],[-56.252671,-25.631911],[-56.25189,-25.631902],[-56.251455,-25.629792],[-56.252554,-25.629319],[-56.252682,-25.629017],[-56.251026,-25.628214],[-56.250195,-25.628557],[-56.249901,-25.627057],[-56.247986,-25.627625],[-56.247876,-25.6272],[-56.249433,-25.626454],[-56.249569,-25.626089],[-56.247853,-25.626143],[-56.246503,-25.625468],[-56.247778,-25.625389],[-56.247989,-25.624794],[-56.247212,-25.624397],[-56.247084,-25.623954],[-56.248021,-25.624018],[-56.247338,-25.623066],[-56.247759,-25.622264],[-56.246673,-25.621821],[-56.246376,-25.62032],[-56.245623,-25.621048],[-56.246207,-25.621954],[-56.245067,-25.621813],[-56.244366,-25.622811],[-56.243813,-25.621368],[-56.243183,-25.621076],[-56.242848,-25.621539],[-56.243379,-25.622066],[-56.24286,-25.622704],[-56.24137,-25.622362],[-56.239732,-25.622512],[-56.240014,-25.623105],[-56.238813,-25.623252],[-56.238507,-25.623883],[-56.237711,-25.624136],[-56.240728,-25.654276],[-56.244633,-25.653958],[-56.249413,-25.704339],[-56.250737,-25.704503],[-56.254622,-25.705818],[-56.257583,-25.708045],[-56.25944,-25.710253],[-56.29165,-25.707671],[-56.291667,-25.707242],[-56.291025,-25.70658],[-56.291499,-25.705761],[-56.294557,-25.703798],[-56.2974,-25.701514],[-56.297004,-25.701024],[-56.297187,-25.700592],[-56.299197,-25.698886],[-56.300115,-25.698579],[-56.301355,-25.697338],[-56.302365,-25.695695],[-56.302682,-25.69395],[-56.302656,-25.690938],[-56.303398,-25.68965],[-56.303887,-25.687187],[-56.304366,-25.686485],[-56.30623,-25.685284],[-56.309397,-25.682559],[-56.311606,-25.681237],[-56.31414,-25.679944]]]}}]}
