{"type":"FeatureCollection","name":"distrito","features":[{"type":"Feature","properties":{"clave":"6-3","nombre":"Buena Vista"},"geometry":{"type":"Polygon","coordinates":[[[-56.08603,-26.289941],[-56.097854,-26.285858],[-56.098351,-26.285144],[-56.099631,-26.282276],[-56.100684,-26.278861],[-56.102032,-26.276639],[-56.103263,-26.271401],[-56.106742,-26.268109],[-56.108637,-26.265037],[-56.109309,-26.26473],[-56.109944,-26.265055],[-56.110442,-26.264913],[-56.112029,-26.26291],[-56.11374,-26.261981],[-56.114827,-26.259911],[-56.114936,-26.257127],[-56.116466,-26.255831],[-56.117187,-26.254043],[-56.118191,-26.254023],[-56.119887,-26.253442],[-56.121721,-26.253602],[-56.12322,-26.252988],[-56.124038,-26.25209],[-56.124883,-26.251784],[-56.125252,-26.251222],[-56.126939,-26.250198],[-56.12935,-26.24684],[-56.132057,-26.245593],[-56.13336,-26.245325],[-56.133862,-26.244877],[-56.133985,-26.242963],[-56.134595,-26.242633],[-56.135222,-26.242659],[-56.136224,-26.2443],[-56.137678,-26.244421],[-56.137475,-26.244926],[-56.13625,-26.245546],[-56.137724,-26.245658],[-56.13689,-26.246529],[-56.137518,-26.246975],[-56.137387,-26.247724],[-56.137998,-26.247958],[-56.137883,-26.248829],[-56.138156,-26.249042],[-56.138882,-26.249119],[-56.139801,-26.24842],[-56.139329,-26.247803],[-56.140298,-26.247006],[-56.140801,-26.248584],[-56.141095,-26.248414],[-56.141205,-26.247381],[-56.141828,-26.247358],[-56.142795,-26.248957],[-56.143365,-26.24808],[-56.143661,-26.248051],[-56.143269,-26.249195],[-56.14347,-26.24962],[-56.143977,-26.249718],[-56.144824,-26.249358],[-56.145387,-26.249749],[-56.145252,-26.248579],[-56.145465,-26.248323],[-56.146062,-26.248394],[-56.145913,-26.247725],[-56.146757,-26.247473],[-56.146182,-26.247108],[-56.148287,-26.246196],[-56.147795,-26.246075],[-56.148006,-26.24553],[-56.147623,-26.245239],[-56.148399,-26.244056],[-56.147637,-26.243844],[-56.147553,-26.24351],[-56.148597,-26.242789],[-56.147738,-26.242382],[-56.148033,-26.240298],[-56.147391,-26.240962],[-56.147242,-26.240524],[-56.148249,-26.239252],[-56.149154,-26.23951],[-56.150097,-26.237466],[-56.150799,-26.237687],[-56.150973,-26.237282],[-56.150668,-26.236011],[-56.149994,-26.235448],[-56.150371,-26.234831],[-56.148851,-26.234673],[-56.147677,-26.232725],[-56.147669,-26.2324],[-56.148455,-26.232039],[-56.148545,-26.231566],[-56.14746,-26.230805],[-56.148139,-26.230624],[-56.147568,-26.229772],[-56.147751,-26.22938],[-56.147426,-26.227762],[-56.146892,-26.227145],[-56.146306,-26.226957],[-56.146499,-26.226542],[-56.145846,-26.225866],[-56.145776,-26.224452],[-56.146093,-26.224021],[-56.14671,-26.224137],[-56.147735,-26.22339],[-56.147629,-26.222775],[-56.14887,-26.221586],[-56.148397,-26.220608],[-56.148981,-26.219822],[-56.148682,-26.219088],[-56.149371,-26.218776],[-56.149087,-26.217186],[-56.149456,-26.216691],[-56.150261,-26.216976],[-56.150274,-26.216502],[-56.150943,-26.216659],[-56.150583,-26.215831],[-56.151464,-26.215629],[-56.150809,-26.215155],[-56.151494,-26.214879],[-56.152064,-26.213528],[-56.151546,-26.213119],[-56.151499,-26.212568],[-56.150707,-26.212171],[-56.151828,-26.21076],[-56.150763,-26.207386],[-56.149726,-26.206716],[-56.150458,-26.205501],[-56.150294,-26.204706],[-56.14904,-26.203556],[-56.149064,-26.202811],[-56.148563,-26.201684],[-56.149047,-26.199927],[-56.147545,-26.199985],[-56.146741,-26.200653],[-56.144269,-26.199176],[-56.143213,-26.198849],[-56.14269,-26.197383],[-56.143468,-26.196038],[-56.142791,-26.194951],[-56.142531,-26.193125],[-56.142211,-26.192956],[-56.142951,-26.191529],[-56.142904,-26.189868],[-56.141128,-26.189776],[-56.139418,-26.190457],[-56.138831,-26.189898],[-56.137807,-26.189874],[-56.136938,-26.189254],[-56.136431,-26.189454],[-56.136256,-26.18907],[-56.134828,-26.189115],[-56.134982,-26.188475],[-56.134134,-26.188109],[-56.134281,-26.187514],[-56.133808,-26.18706],[-56.134161,-26.18647],[-56.133213,-26.186207],[-56.132399,-26.185376],[-56.130804,-26.185181],[-56.13098,-26.184677],[-56.130058,-26.184391],[-56.130116,-26.183837],[-56.129427,-26.183191],[-56.129594,-26.182605],[-56.128954,-26.182204],[-56.129693,-26.181545],[-56.127008,-26.180992],[-56.126376,-26.17925],[-56.125838,-26.179269],[-56.125212,-26.17978],[-56.125317,-26.181031],[-56.12504,-26.181237],[-56.121778,-26.181222],[-56.122169,-26.181662],[-56.121812,-26.182021],[-56.119466,-26.181244],[-56.118713,-26.181853],[-56.118433,-26.180687],[-56.117611,-26.179621],[-56.117771,-26.17917],[-56.116989,-26.178818],[-56.117337,-26.17756],[-56.116834,-26.177273],[-56.116557,-26.176657],[-56.115956,-26.176446],[-56.11602,-26.174667],[-56.114957,-26.173501],[-56.115388,-26.173052],[-56.114752,-26.172118],[-56.114186,-26.170241],[-56.114525,-26.169011],[-56.113866,-26.166483],[-56.114384,-26.166098],[-56.114247,-26.165619],[-56.11471,-26.165576],[-56.115441,-26.164881],[-56.115416,-26.163111],[-56.114545,-26.162993],[-56.114474,-26.162473],[-56.113968,-26.162168],[-56.102037,-26.159866],[-56.079332,-26.160262],[-56.05626,-26.156608],[-56.035557,-26.155752],[-56.021741,-26.162129],[-56.022534,-26.162474],[-56.022714,-26.163099],[-56.023892,-26.162466],[-56.023084,-26.163729],[-56.024536,-26.164167],[-56.024704,-26.164466],[-56.023815,-26.165413],[-56.024484,-26.166153],[-56.023891,-26.16666],[-56.024071,-26.166886],[-56.024937,-26.166703],[-56.025048,-26.16692],[-56.024269,-26.167646],[-56.024384,-26.168103],[-56.023891,-26.168271],[-56.024381,-26.16883],[-56.023764,-26.168875],[-56.023622,-26.169141],[-56.025008,-26.17082],[-56.024694,-26.171044],[-56.024042,-26.170502],[-56.023567,-26.170738],[-56.023464,-26.171203],[-56.02427,-26.17184],[-56.023812,-26.172126],[-56.024779,-26.1723],[-56.026126,-26.171492],[-56.026119,-26.173121],[-56.026665,-26.173089],[-56.027294,-26.17424],[-56.025961,-26.174271],[-56.025781,-26.175381],[-56.027122,-26.175986],[-56.0266,-26.177066],[-56.026904,-26.178481],[-56.028592,-26.178284],[-56.028685,-26.178903],[-56.028123,-26.17955],[-56.028877,-26.179343],[-56.029806,-26.17971],[-56.029908,-26.180465],[-56.030381,-26.180567],[-56.030731,-26.179662],[-56.031586,-26.179537],[-56.031783,-26.180297],[-56.032494,-26.180229],[-56.032576,-26.180925],[-56.032998,-26.180183],[-56.033338,-26.180732],[-56.032465,-26.181498],[-56.033613,-26.181501],[-56.033321,-26.181878],[-56.032304,-26.181966],[-56.032329,-26.182205],[-56.03428,-26.182246],[-56.033761,-26.183208],[-56.036296,-26.18313],[-56.036442,-26.184219],[-56.037427,-26.18368],[-56.03778,-26.184472],[-56.038081,-26.183932],[-56.038586,-26.184401],[-56.038541,-26.184879],[-56.037763,-26.18551],[-56.038009,-26.185751],[-56.039037,-26.185708],[-56.038142,-26.186172],[-56.037959,-26.186559],[-56.038959,-26.187676],[-56.039878,-26.187312],[-56.039877,-26.187786],[-56.039382,-26.188365],[-56.040477,-26.188174],[-56.04026,-26.19057],[-56.041066,-26.190543],[-56.040084,-26.191923],[-56.040796,-26.191932],[-56.041944,-26.191186],[-56.042604,-26.191425],[-56.042858,-26.192311],[-56.043203,-26.191587],[-56.042807,-26.190903],[-56.043745,-26.190507],[-56.043999,-26.190906],[-56.043459,-26.191417],[-56.044245,-26.191558],[-56.043579,-26.192194],[-56.044425,-26.192381],[-56.045342,-26.191434],[-56.046086,-26.191331],[-56.046275,-26.190524],[-56.046564,-26.190499],[-56.046769,-26.191389],[-56.048039,-26.191944],[-56.04869,-26.192693],[-56.047091,-26.192881],[-56.047501,-26.19459],[-56.047996,-26.19505],[-56.047241,-26.19555],[-56.048443,-26.195612],[-56.048908,-26.19511],[-56.048753,-26.194396],[-56.049915,-26.193965],[-56.050693,-26.195045],[-56.05198,-26.195356],[-56.051015,-26.195607],[-56.050962,-26.196094],[-56.052297,-26.196482],[-56.052412,-26.196943],[-56.051672,-26.197169],[-56.052353,-26.198153],[-56.053712,-26.197421],[-56.054425,-26.197882],[-56.055097,-26.197548],[-56.055577,-26.198057],[-56.056136,-26.198078],[-56.055546,-26.199059],[-56.054944,-26.199267],[-56.055821,-26.200365],[-56.05472,-26.200958],[-56.055843,-26.201729],[-56.054497,-26.202036],[-56.054923,-26.203131],[-56.055682,-26.203046],[-56.055662,-26.203393],[-56.05478,-26.204047],[-56.056509,-26.204573],[-56.05636,-26.203682],[-56.056648,-26.203395],[-56.058028,-26.204023],[-56.058272,-26.20472],[-56.057308,-26.205169],[-56.057921,-26.20553],[-56.058783,-26.205174],[-56.059104,-26.206445],[-56.058133,-26.20657],[-56.059186,-26.207421],[-56.058742,-26.208158],[-56.060159,-26.209436],[-56.05916,-26.210689],[-56.05665,-26.210844],[-56.054815,-26.211617],[-56.053215,-26.212776],[-56.051895,-26.214781],[-56.050312,-26.214333],[-56.049322,-26.214628],[-56.04675,-26.214553],[-56.023312,-26.227596],[-56.021309,-26.228485],[-56.020685,-26.228119],[-56.019575,-26.228207],[-56.017977,-26.229234],[-56.016583,-26.229134],[-56.016307,-26.229814],[-56.015073,-26.230866],[-56.027606,-26.247727],[-56.033901,-26.270442],[-56.040685,-26.285471],[-56.049793,-26.281779],[-56.050483,-26.282298],[-56.050729,-26.283229],[-56.054827,-26.285572],[-56.058344,-26.286336],[-56.060542,-26.286269],[-56.062827,-26.286595],[-56.065878,-26.288155],[-56.06731,-26.287834],[-56.069516,-26.28854],[-56.070671,-26.289536],[-56.071512,-26.291884],[-56.071979,-26.292257],[-56.072018,-26.291571],[-56.072539,-26.29111],[-56.074103,-26.291075],[-56.077298,-26.290007],[-56.080567,-26.290231],[-56.082262,-26.290653],[-56.08603,-26.289941]]]}}]}
