{"type":"FeatureCollection","name":"distrito","features":[{"type":"Feature","properties":{"clave":"1-1","nombre":"Belén"},"geometry":{"type":"Polygon","coordinates":[[[-57.29579,-23.491251],[-57.29648,-23.489693],[-57.29548,-23.489658],[-57.294576,-23.488748],[-57.29518,-23.487803],[-57.294363,-23.487109],[-57.294692,-23.486367],[-57.29442,-23.485523],[-57.294627,-23.484416],[-57.293987,-23.484332],[-57.293746,-23.483985],[-57.294264,-23.482886],[-57.294964,-23.482939],[-57.295652,-23.482143],[-57.295499,-23.48068],[-57.295099,-23.480568],[-57.294919,-23.480893],[-57.294329,-23.480957],[-57.293628,-23.480394],[-57.293174,-23.478191],[-57.292442,-23.47742],[-57.292411,-23.476941],[-57.29251,-23.476598],[-57.292961,-23.476986],[-57.29315,-23.476597],[-57.293266,-23.474686],[-57.292835,-23.474262],[-57.292066,-23.474598],[-57.291685,-23.474093],[-57.291693,-23.473199],[-57.29235,-23.471969],[-57.291848,-23.470918],[-57.292754,-23.469498],[-57.292812,-23.468355],[-57.292541,-23.467949],[-57.322726,-23.46331],[-57.340557,-23.459221],[-57.339796,-23.45616],[-57.336869,-23.452355],[-57.337364,-23.452092],[-57.329887,-23.438757],[-57.325944,-23.439818],[-57.32471,-23.436054],[-57.311647,-23.436884],[-57.312605,-23.429829],[-57.313552,-23.429894],[-57.315078,-23.418179],[-57.312298,-23.417742],[-57.313209,-23.411054],[-57.316211,-23.410038],[-57.319113,-23.407797],[-57.323577,-23.408392],[-57.324317,-23.408223],[-57.326036,-23.408439],[-57.326509,-23.408074],[-57.323511,-23.407251],[-57.321092,-23.406188],[-57.318058,-23.404375],[-57.279567,-23.3767],[-57.276715,-23.375015],[-57.273734,-23.373797],[-57.270135,-23.373009],[-57.267296,-23.372824],[-57.224652,-23.374702],[-57.140822,-23.354675],[-57.138474,-23.393588],[-57.138699,-23.396038],[-57.139302,-23.39735],[-57.139823,-23.3977],[-57.141793,-23.398796],[-57.14287,-23.398702],[-57.142328,-23.399303],[-57.142781,-23.401506],[-57.143394,-23.402196],[-57.144268,-23.402263],[-57.144229,-23.403107],[-57.145436,-23.403962],[-57.14526,-23.404263],[-57.143697,-23.403953],[-57.142734,-23.404311],[-57.14256,-23.40558],[-57.143782,-23.406505],[-57.143832,-23.407446],[-57.145037,-23.407388],[-57.145354,-23.408073],[-57.144864,-23.408183],[-57.143987,-23.409115],[-57.14305,-23.409322],[-57.143366,-23.410386],[-57.143224,-23.411514],[-57.144225,-23.411961],[-57.145232,-23.413203],[-57.145767,-23.413229],[-57.145741,-23.414078],[-57.144684,-23.413958],[-57.14452,-23.414465],[-57.144894,-23.415107],[-57.14567,-23.415132],[-57.146269,-23.415664],[-57.145036,-23.416806],[-57.145031,-23.417611],[-57.144473,-23.41852],[-57.145428,-23.419811],[-57.145276,-23.420536],[-57.145844,-23.420709],[-57.14607,-23.42043],[-57.146658,-23.418649],[-57.147668,-23.418968],[-57.14783,-23.419734],[-57.147372,-23.420745],[-57.147301,-23.422085],[-57.146327,-23.42372],[-57.146187,-23.424833],[-57.146536,-23.425606],[-57.146095,-23.427191],[-57.145439,-23.426554],[-57.145064,-23.426695],[-57.144653,-23.427843],[-57.144681,-23.428477],[-57.145485,-23.429496],[-57.146429,-23.430493],[-57.147964,-23.431112],[-57.148546,-23.432113],[-57.148757,-23.4341],[-57.148055,-23.435072],[-57.148638,-23.435868],[-57.148454,-23.437589],[-57.147467,-23.439794],[-57.147587,-23.441549],[-57.150932,-23.445996],[-57.153361,-23.451484],[-57.155772,-23.452815],[-57.156293,-23.455526],[-57.156985,-23.456781],[-57.15699,-23.458254],[-57.154528,-23.462783],[-57.155224,-23.465237],[-57.15658,-23.466805],[-57.156985,-23.467775],[-57.157367,-23.471556],[-57.155951,-23.474904],[-57.154973,-23.475948],[-57.152519,-23.476533],[-57.148187,-23.476617],[-57.147236,-23.476482],[-57.146124,-23.475622],[-57.146013,-23.478346],[-57.146415,-23.479589],[-57.14877,-23.482945],[-57.149631,-23.483129],[-57.150232,-23.482653],[-57.150432,-23.481727],[-57.150028,-23.480008],[-57.150544,-23.479611],[-57.151634,-23.47961],[-57.153355,-23.480825],[-57.154043,-23.480666],[-57.155847,-23.478866],[-57.156851,-23.478891],[-57.159203,-23.480079],[-57.161729,-23.481822],[-57.162474,-23.481768],[-57.163133,-23.481185],[-57.163246,-23.48018],[-57.162328,-23.479282],[-57.161065,-23.478649],[-57.159316,-23.478439],[-57.158914,-23.477963],[-57.158971,-23.477408],[-57.160031,-23.476957],[-57.160546,-23.476057],[-57.161922,-23.475739],[-57.163155,-23.475817],[-57.163987,-23.476186],[-57.164389,-23.476741],[-57.164476,-23.47764],[-57.163789,-23.478752],[-57.163905,-23.479704],[-57.16445,-23.48002],[-57.165396,-23.479834],[-57.166168,-23.477929],[-57.167944,-23.476473],[-57.168113,-23.474833],[-57.169347,-23.475308],[-57.169778,-23.475968],[-57.169779,-23.476815],[-57.168865,-23.479566],[-57.167977,-23.48036],[-57.167978,-23.481048],[-57.168437,-23.481391],[-57.170472,-23.481072],[-57.171618,-23.480356],[-57.172278,-23.480435],[-57.172796,-23.481598],[-57.173397,-23.481412],[-57.175458,-23.478501],[-57.175457,-23.477787],[-57.174251,-23.476413],[-57.174422,-23.475752],[-57.175196,-23.475433],[-57.17686,-23.476357],[-57.177377,-23.477282],[-57.177465,-23.478287],[-57.178039,-23.478762],[-57.179473,-23.479025],[-57.180219,-23.479553],[-57.180652,-23.481563],[-57.180539,-23.483176],[-57.181514,-23.483545],[-57.182001,-23.483201],[-57.18223,-23.482434],[-57.181855,-23.480821],[-57.182112,-23.480186],[-57.183058,-23.480185],[-57.18432,-23.480686],[-57.185699,-23.482192],[-57.186416,-23.482376],[-57.18696,-23.481978],[-57.187389,-23.481105],[-57.187128,-23.479386],[-57.187357,-23.478619],[-57.187901,-23.478116],[-57.188876,-23.478353],[-57.18945,-23.478987],[-57.189567,-23.480389],[-57.189998,-23.481261],[-57.190773,-23.481789],[-57.191805,-23.481893],[-57.192807,-23.480728],[-57.192577,-23.479882],[-57.19183,-23.479116],[-57.190797,-23.478615],[-57.190223,-23.477875],[-57.190365,-23.47732],[-57.190967,-23.477266],[-57.192259,-23.478508],[-57.193091,-23.478771],[-57.195097,-23.478451],[-57.196015,-23.478688],[-57.196704,-23.479401],[-57.197223,-23.480776],[-57.197739,-23.481145],[-57.198542,-23.481277],[-57.199115,-23.480985],[-57.199428,-23.47908],[-57.200029,-23.478736],[-57.200546,-23.478867],[-57.200919,-23.47929],[-57.20092,-23.479898],[-57.199947,-23.481248],[-57.199977,-23.481909],[-57.200465,-23.48257],[-57.20167,-23.482965],[-57.203246,-23.482408],[-57.203989,-23.480714],[-57.20482,-23.480554],[-57.205509,-23.480897],[-57.205825,-23.481611],[-57.204911,-23.483463],[-57.205285,-23.484494],[-57.20626,-23.484784],[-57.20775,-23.484094],[-57.20795,-23.483195],[-57.207144,-23.481265],[-57.207286,-23.48063],[-57.209005,-23.479676],[-57.209119,-23.479094],[-57.208572,-23.478011],[-57.208629,-23.477534],[-57.20946,-23.477295],[-57.211756,-23.478641],[-57.213164,-23.480887],[-57.213625,-23.482235],[-57.214085,-23.482896],[-57.214716,-23.483001],[-57.215518,-23.482312],[-57.215857,-23.479482],[-57.216429,-23.478873],[-57.217203,-23.478819],[-57.21815,-23.479293],[-57.219185,-23.480561],[-57.220073,-23.480401],[-57.220301,-23.479634],[-57.219036,-23.477652],[-57.218921,-23.476886],[-57.219465,-23.476647],[-57.220613,-23.477148],[-57.221071,-23.477041],[-57.221386,-23.476618],[-57.221069,-23.47556],[-57.222787,-23.474262],[-57.224049,-23.474683],[-57.224626,-23.476904],[-57.225172,-23.47767],[-57.225861,-23.477881],[-57.22672,-23.477588],[-57.227178,-23.477085],[-57.227374,-23.474388],[-57.227832,-23.474122],[-57.230185,-23.475071],[-57.230787,-23.474938],[-57.23136,-23.474673],[-57.231987,-23.472979],[-57.232446,-23.472873],[-57.232877,-23.473136],[-57.233166,-23.474855],[-57.231394,-23.477846],[-57.231596,-23.478666],[-57.232457,-23.47914],[-57.234349,-23.479164],[-57.235755,-23.479638],[-57.236472,-23.479584],[-57.237016,-23.479292],[-57.237273,-23.478551],[-57.23707,-23.477652],[-57.237384,-23.476938],[-57.23919,-23.476565],[-57.239734,-23.47622],[-57.23979,-23.475533],[-57.239101,-23.475058],[-57.236808,-23.475193],[-57.236376,-23.474215],[-57.239012,-23.473418],[-57.239814,-23.472782],[-57.240846,-23.472622],[-57.241678,-23.472885],[-57.242685,-23.475211],[-57.243374,-23.475686],[-57.245727,-23.476528],[-57.247017,-23.476632],[-57.247847,-23.475784],[-57.248477,-23.475572],[-57.250142,-23.476389],[-57.251638,-23.479401],[-57.252356,-23.479691],[-57.254477,-23.479397],[-57.255219,-23.479106],[-57.255794,-23.47839],[-57.256883,-23.478071],[-57.26236,-23.478485],[-57.263221,-23.478986],[-57.262883,-23.481975],[-57.263486,-23.48282],[-57.264147,-23.483163],[-57.267215,-23.483501],[-57.267703,-23.483924],[-57.267392,-23.485722],[-57.266163,-23.488052],[-57.264681,-23.492418],[-57.264801,-23.495168],[-57.265694,-23.49715],[-57.266672,-23.498418],[-57.267734,-23.498998],[-57.268996,-23.499154],[-57.270171,-23.498756],[-57.271258,-23.497722],[-57.271914,-23.496029],[-57.271729,-23.489629],[-57.272187,-23.488993],[-57.273621,-23.489097],[-57.273968,-23.490947],[-57.275692,-23.49232],[-57.278473,-23.49242],[-57.279592,-23.492841],[-57.285995,-23.496612],[-57.287487,-23.496926],[-57.288661,-23.496501],[-57.289232,-23.495336],[-57.288996,-23.492031],[-57.289453,-23.491475],[-57.293496,-23.49152],[-57.29579,-23.491251]]]}}]}
