{"type":"FeatureCollection","name":"distrito","features":[{"type":"Feature","properties":{"clave":"14-14","nombre":"Puerto Adela"},"geometry":{"type":"Polygon","coordinates":[[[-54.604294,-24.520419],[-54.604982,-24.519401],[-54.606132,-24.518444],[-54.606779,-24.518188],[-54.607963,-24.518257],[-54.609672,-24.515459],[-54.611941,-24.513567],[-54.603578,-24.472279],[-54.637158,-24.441454],[-54.634143,-24.439574],[-54.625596,-24.431009],[-54.6239,-24.428595],[-54.620971,-24.425588],[-54.615929,-24.422543],[-54.612351,-24.421007],[-54.604407,-24.419229],[-54.603881,-24.418864],[-54.602433,-24.416476],[-54.599292,-24.414328],[-54.597627,-24.411336],[-54.597478,-24.409827],[-54.597046,-24.409468],[-54.596314,-24.407199],[-54.595776,-24.407082],[-54.59576,-24.406053],[-54.594769,-24.406092],[-54.594587,-24.405759],[-54.594299,-24.405958],[-54.594057,-24.405272],[-54.593837,-24.405382],[-54.59394,-24.405067],[-54.593082,-24.404833],[-54.593143,-24.404197],[-54.592516,-24.4043],[-54.591819,-24.40289],[-54.591008,-24.402042],[-54.590279,-24.401787],[-54.588935,-24.400014],[-54.588431,-24.39965],[-54.587597,-24.399722],[-54.586327,-24.398718],[-54.584347,-24.395789],[-54.581503,-24.390382],[-54.578991,-24.38345],[-54.577247,-24.380303],[-54.57666,-24.379811],[-54.57368,-24.378626],[-54.571273,-24.378104],[-54.56983,-24.378776],[-54.567717,-24.381667],[-54.566207,-24.384436],[-54.564101,-24.384931],[-54.562786,-24.38477],[-54.561583,-24.386149],[-54.560335,-24.386955],[-54.555702,-24.388559],[-54.55545,-24.388826],[-54.555352,-24.390458],[-54.554724,-24.39108],[-54.55409,-24.390781],[-54.553271,-24.389698],[-54.551488,-24.389592],[-54.550682,-24.389904],[-54.550058,-24.39058],[-54.549983,-24.392091],[-54.547087,-24.393384],[-54.540598,-24.393248],[-54.539752,-24.391975],[-54.539381,-24.388927],[-54.536249,-24.389973],[-54.535757,-24.390953],[-54.533669,-24.392368],[-54.532314,-24.392585],[-54.531553,-24.391724],[-54.530913,-24.391461],[-54.530209,-24.391711],[-54.529004,-24.39365],[-54.528065,-24.394054],[-54.518927,-24.39469],[-54.512255,-24.397672],[-54.510175,-24.397823],[-54.506418,-24.399724],[-54.50481,-24.399653],[-54.49758,-24.401217],[-54.496439,-24.398833],[-54.496632,-24.398046],[-54.495534,-24.398263],[-54.495213,-24.39796],[-54.495849,-24.396309],[-54.495352,-24.394956],[-54.492227,-24.394634],[-54.489111,-24.395052],[-54.48693,-24.392222],[-54.486502,-24.390342],[-54.485734,-24.390415],[-54.483002,-24.391931],[-54.481088,-24.393772],[-54.480087,-24.393782],[-54.478189,-24.392871],[-54.477577,-24.393434],[-54.476394,-24.393608],[-54.475818,-24.392976],[-54.474844,-24.393095],[-54.473512,-24.392116],[-54.471856,-24.391465],[-54.470101,-24.39168],[-54.469821,-24.391057],[-54.469341,-24.390958],[-54.46812,-24.391683],[-54.467566,-24.390347],[-54.46698,-24.390441],[-54.466543,-24.390032],[-54.465467,-24.390388],[-54.464469,-24.390353],[-54.463023,-24.388714],[-54.462912,-24.387462],[-54.461203,-24.386828],[-54.460116,-24.385759],[-54.458868,-24.385891],[-54.458219,-24.385253],[-54.457115,-24.38513],[-54.456905,-24.384215],[-54.455524,-24.385108],[-54.454745,-24.384671],[-54.454083,-24.384894],[-54.454151,-24.385708],[-54.453012,-24.386971],[-54.451306,-24.386928],[-54.449461,-24.387403],[-54.448663,-24.388024],[-54.451297,-24.383064],[-54.456122,-24.379472],[-54.459086,-24.379668],[-54.468149,-24.372657],[-54.490005,-24.354397],[-54.497024,-24.339011],[-54.498826,-24.33418],[-54.497193,-24.332648],[-54.493103,-24.330247],[-54.492132,-24.330488],[-54.489325,-24.330121],[-54.487946,-24.329376],[-54.483165,-24.324247],[-54.480349,-24.322892],[-54.478664,-24.320864],[-54.477047,-24.320169],[-54.476074,-24.319264],[-54.473906,-24.319075],[-54.470291,-24.317512],[-54.466346,-24.316954],[-54.464959,-24.317098],[-54.464075,-24.316681],[-54.45826,-24.31551],[-54.457861,-24.314777],[-54.45659,-24.314421],[-54.455937,-24.313747],[-54.452568,-24.311759],[-54.449531,-24.309266],[-54.448919,-24.307937],[-54.447858,-24.307814],[-54.447182,-24.308295],[-54.446991,-24.308174],[-54.445984,-24.309753],[-54.44136,-24.31028],[-54.440621,-24.310682],[-54.440433,-24.311216],[-54.44098,-24.312272],[-54.443619,-24.313599],[-54.446054,-24.315607],[-54.446721,-24.31718],[-54.448699,-24.318351],[-54.449664,-24.322487],[-54.449561,-24.323198],[-54.449021,-24.323641],[-54.445345,-24.324269],[-54.443417,-24.322283],[-54.44115,-24.320954],[-54.439629,-24.320459],[-54.436042,-24.320218],[-54.435074,-24.319881],[-54.434321,-24.319101],[-54.434046,-24.317002],[-54.432345,-24.313864],[-54.431774,-24.311882],[-54.430614,-24.311019],[-54.430027,-24.311036],[-54.429537,-24.311425],[-54.429557,-24.314047],[-54.428992,-24.315382],[-54.425745,-24.317223],[-54.425881,-24.318267],[-54.427681,-24.319769],[-54.428293,-24.320786],[-54.429424,-24.325458],[-54.430993,-24.327547],[-54.429809,-24.328809],[-54.429991,-24.329759],[-54.431168,-24.330289],[-54.433696,-24.330359],[-54.434078,-24.331088],[-54.429761,-24.333122],[-54.422704,-24.338856],[-54.420795,-24.339672],[-54.415772,-24.341039],[-54.413128,-24.34224],[-54.412677,-24.343121],[-54.413463,-24.344827],[-54.413364,-24.347],[-54.414483,-24.348874],[-54.414355,-24.349138],[-54.412736,-24.349205],[-54.412348,-24.349655],[-54.412397,-24.350418],[-54.413448,-24.352534],[-54.413494,-24.353582],[-54.412545,-24.353968],[-54.409566,-24.354034],[-54.406774,-24.354514],[-54.405908,-24.354915],[-54.405526,-24.355527],[-54.405681,-24.356265],[-54.407406,-24.357802],[-54.409452,-24.361293],[-54.410934,-24.361752],[-54.4139,-24.361762],[-54.415935,-24.36242],[-54.417364,-24.363225],[-54.418178,-24.364245],[-54.416904,-24.370135],[-54.415876,-24.372072],[-54.413831,-24.374307],[-54.412388,-24.376818],[-54.411629,-24.377496],[-54.411021,-24.377345],[-54.408823,-24.375606],[-54.407967,-24.374193],[-54.407026,-24.373364],[-54.404218,-24.372973],[-54.400731,-24.371325],[-54.400354,-24.370488],[-54.400181,-24.367737],[-54.398907,-24.363116],[-54.398122,-24.361636],[-54.397204,-24.36098],[-54.395274,-24.361425],[-54.394717,-24.362142],[-54.395196,-24.363125],[-54.396532,-24.364497],[-54.396869,-24.365356],[-54.396823,-24.366086],[-54.396004,-24.366866],[-54.394719,-24.367332],[-54.393127,-24.367336],[-54.394117,-24.366744],[-54.394294,-24.366228],[-54.393784,-24.364748],[-54.393438,-24.364697],[-54.39264,-24.366014],[-54.388859,-24.368409],[-54.387518,-24.368733],[-54.386319,-24.370418],[-54.385176,-24.371148],[-54.384117,-24.372447],[-54.384519,-24.3737],[-54.384399,-24.374975],[-54.382888,-24.37392],[-54.382348,-24.37387],[-54.381621,-24.374471],[-54.380144,-24.376954],[-54.375685,-24.37935],[-54.37563,-24.380595],[-54.375194,-24.381066],[-54.375524,-24.38187],[-54.37516,-24.382356],[-54.375909,-24.383294],[-54.375963,-24.384644],[-54.376533,-24.385764],[-54.376372,-24.387029],[-54.376709,-24.387495],[-54.376734,-24.388331],[-54.377897,-24.388671],[-54.377065,-24.390733],[-54.376278,-24.390706],[-54.375281,-24.389903],[-54.374025,-24.390287],[-54.372019,-24.390167],[-54.368163,-24.388642],[-54.36474,-24.388682],[-54.363457,-24.388213],[-54.361915,-24.388371],[-54.360099,-24.389143],[-54.357347,-24.38881],[-54.356251,-24.387889],[-54.35615,-24.3855],[-54.355177,-24.384142],[-54.355234,-24.381571],[-54.353816,-24.377146],[-54.350559,-24.37797],[-54.349451,-24.379475],[-54.348801,-24.379888],[-54.347212,-24.379874],[-54.345897,-24.37907],[-54.344601,-24.377685],[-54.343442,-24.375634],[-54.343047,-24.375397],[-54.34349,-24.376338],[-54.343039,-24.377233],[-54.34346,-24.377786],[-54.34341,-24.378963],[-54.342365,-24.379369],[-54.341576,-24.37931],[-54.340684,-24.378117],[-54.340314,-24.37807],[-54.34015,-24.379601],[-54.338922,-24.380491],[-54.338324,-24.38025],[-54.338207,-24.380754],[-54.339665,-24.383397],[-54.339636,-24.384502],[-54.340121,-24.386171],[-54.339381,-24.387386],[-54.340129,-24.387999],[-54.340003,-24.389008],[-54.340675,-24.390202],[-54.340492,-24.3937],[-54.34113,-24.39479],[-54.341037,-24.396345],[-54.340023,-24.397194],[-54.337234,-24.397231],[-54.336503,-24.397516],[-54.33482,-24.399074],[-54.334693,-24.399772],[-54.334982,-24.400494],[-54.333757,-24.401511],[-54.334626,-24.401891],[-54.334968,-24.402507],[-54.334535,-24.403523],[-54.33454,-24.406078],[-54.335979,-24.407574],[-54.341739,-24.40958],[-54.345085,-24.4093],[-54.346482,-24.41015],[-54.346525,-24.410783],[-54.344768,-24.412232],[-54.340837,-24.413314],[-54.336506,-24.412728],[-54.333299,-24.411665],[-54.331863,-24.410719],[-54.329871,-24.410783],[-54.326976,-24.409229],[-54.325814,-24.409367],[-54.323804,-24.410861],[-54.32244,-24.410458],[-54.322073,-24.411449],[-54.322918,-24.414284],[-54.322522,-24.41791],[-54.320143,-24.419736],[-54.317821,-24.420809],[-54.316478,-24.421891],[-54.316394,-24.424227],[-54.317449,-24.425288],[-54.317783,-24.426332],[-54.317755,-24.426877],[-54.316868,-24.428085],[-54.316909,-24.429525],[-54.314731,-24.431043],[-54.314372,-24.432502],[-54.309458,-24.439749],[-54.312029,-24.44197],[-54.321035,-24.452039],[-54.324027,-24.462219],[-54.326957,-24.475335],[-54.328446,-24.487829],[-54.335034,-24.499178],[-54.336422,-24.51482],[-54.334469,-24.529205],[-54.337188,-24.529039],[-54.356967,-24.525699],[-54.382219,-24.51565],[-54.388003,-24.514849],[-54.403721,-24.526962],[-54.414878,-24.524901],[-54.419946,-24.52132],[-54.4263,-24.520206],[-54.43189,-24.522039],[-54.438339,-24.519703],[-54.442885,-24.521003],[-54.444271,-24.525531],[-54.451739,-24.52495],[-54.456401,-24.520523],[-54.457634,-24.518678],[-54.459578,-24.517372],[-54.462875,-24.51721],[-54.465179,-24.516272],[-54.466612,-24.517355],[-54.468754,-24.517065],[-54.469458,-24.51895],[-54.471294,-24.519171],[-54.471284,-24.522619],[-54.472924,-24.525199],[-54.477788,-24.524959],[-54.478728,-24.52675],[-54.478042,-24.527895],[-54.478974,-24.529503],[-54.479736,-24.529584],[-54.480812,-24.530267],[-54.482147,-24.530484],[-54.482733,-24.529967],[-54.483018,-24.528276],[-54.485787,-24.528769],[-54.486246,-24.528353],[-54.485493,-24.527825],[-54.486502,-24.527452],[-54.487965,-24.528175],[-54.488437,-24.529661],[-54.488298,-24.530323],[-54.488858,-24.530493],[-54.490046,-24.52931],[-54.491531,-24.528956],[-54.49172,-24.528261],[-54.491333,-24.526937],[-54.490038,-24.527225],[-54.489362,-24.526595],[-54.489394,-24.526218],[-54.491363,-24.525426],[-54.492611,-24.525618],[-54.494608,-24.525424],[-54.49476,-24.525174],[-54.494118,-24.524098],[-54.49303,-24.523476],[-54.493256,-24.523127],[-54.49521,-24.522948],[-54.494156,-24.521716],[-54.494309,-24.521353],[-54.495035,-24.521207],[-54.49653,-24.522536],[-54.500157,-24.521328],[-54.500336,-24.522414],[-54.50081,-24.522648],[-54.501859,-24.519226],[-54.504259,-24.518621],[-54.504904,-24.518108],[-54.506726,-24.517994],[-54.50743,-24.517265],[-54.508549,-24.518024],[-54.510658,-24.517648],[-54.512744,-24.516049],[-54.514545,-24.516534],[-54.514956,-24.516008],[-54.515556,-24.513879],[-54.514145,-24.513815],[-54.513836,-24.513413],[-54.514426,-24.512674],[-54.515688,-24.511968],[-54.515575,-24.51091],[-54.514971,-24.510241],[-54.515746,-24.509351],[-54.516543,-24.509315],[-54.516929,-24.510291],[-54.517499,-24.510463],[-54.518532,-24.509596],[-54.518509,-24.506603],[-54.519596,-24.505281],[-54.51954,-24.504178],[-54.519086,-24.503417],[-54.520186,-24.502984],[-54.521395,-24.503523],[-54.522618,-24.503448],[-54.522771,-24.504728],[-54.520921,-24.505469],[-54.52076,-24.506135],[-54.52102,-24.506486],[-54.52169,-24.506461],[-54.522735,-24.50582],[-54.524217,-24.505975],[-54.526958,-24.504747],[-54.525521,-24.501497],[-54.526029,-24.501221],[-54.52708,-24.501473],[-54.529651,-24.500463],[-54.531268,-24.501112],[-54.531406,-24.502464],[-54.531,-24.503333],[-54.531574,-24.503369],[-54.532648,-24.502823],[-54.53367,-24.503007],[-54.534962,-24.50444],[-54.534611,-24.506064],[-54.535839,-24.507618],[-54.536861,-24.507536],[-54.537293,-24.507872],[-54.537159,-24.509143],[-54.538596,-24.510849],[-54.537515,-24.51196],[-54.53668,-24.514018],[-54.536024,-24.51463],[-54.535327,-24.514628],[-54.535165,-24.514873],[-54.535777,-24.515578],[-54.537266,-24.515937],[-54.537238,-24.516532],[-54.5364,-24.517159],[-54.53634,-24.517573],[-54.538337,-24.520025],[-54.542341,-24.523759],[-54.542758,-24.525278],[-54.543476,-24.525935],[-54.542491,-24.527151],[-54.543547,-24.528423],[-54.543718,-24.530136],[-54.544408,-24.530928],[-54.544028,-24.532082],[-54.544273,-24.533142],[-54.546083,-24.533185],[-54.547305,-24.532496],[-54.549349,-24.533789],[-54.549832,-24.533724],[-54.551539,-24.530259],[-54.551187,-24.528055],[-54.551673,-24.527215],[-54.552229,-24.527084],[-54.553832,-24.528545],[-54.554761,-24.528204],[-54.5554,-24.529681],[-54.554106,-24.532074],[-54.554806,-24.533846],[-54.554289,-24.535674],[-54.553681,-24.536283],[-54.553883,-24.536435],[-54.555356,-24.53654],[-54.556526,-24.536243],[-54.55791,-24.536884],[-54.558154,-24.532514],[-54.559765,-24.532049],[-54.560932,-24.5351],[-54.563211,-24.535313],[-54.563584,-24.536908],[-54.564436,-24.537274],[-54.564865,-24.536676],[-54.564645,-24.535666],[-54.565379,-24.535037],[-54.564445,-24.534191],[-54.563532,-24.531712],[-54.56347,-24.530078],[-54.564103,-24.527506],[-54.565737,-24.52774],[-54.566756,-24.527292],[-54.566923,-24.529231],[-54.567809,-24.529588],[-54.567419,-24.528512],[-54.567724,-24.52724],[-54.569087,-24.525285],[-54.569887,-24.52509],[-54.571727,-24.52526],[-54.572955,-24.524842],[-54.574624,-24.525659],[-54.575309,-24.525665],[-54.577517,-24.524726],[-54.582398,-24.524777],[-54.584183,-24.523596],[-54.587898,-24.524969],[-54.589421,-24.525214],[-54.590439,-24.52579],[-54.591799,-24.524395],[-54.591769,-24.522711],[-54.596397,-24.523245],[-54.596301,-24.522206],[-54.598658,-24.520934],[-54.598837,-24.521388],[-54.599679,-24.521208],[-54.600198,-24.521875],[-54.600867,-24.522129],[-54.601167,-24.521588],[-54.601685,-24.521628],[-54.602463,-24.522209],[-54.602571,-24.522671],[-54.60391,-24.523274],[-54.604294,-24.520419]]]}}]}
