{"type":"FeatureCollection","name":"distrito","features":[{"type":"Feature","properties":{"clave":"11-23","nombre":"Ñemby"},"geometry":{"type":"Polygon","coordinates":[[[-57.546897,-25.40958],[-57.547762,-25.410373],[-57.550718,-25.407172],[-57.551233,-25.407344],[-57.557463,-25.396742],[-57.559525,-25.394187],[-57.560742,-25.394757],[-57.562005,-25.394837],[-57.562569,-25.395269],[-57.564041,-25.394042],[-57.567652,-25.388648],[-57.571716,-25.384699],[-57.572035,-25.384823],[-57.57207,-25.384228],[-57.571554,-25.383863],[-57.57133,-25.382791],[-57.569818,-25.382287],[-57.570096,-25.381474],[-57.569156,-25.381112],[-57.569202,-25.379872],[-57.568615,-25.379241],[-57.567777,-25.379074],[-57.5685,-25.377478],[-57.568304,-25.376708],[-57.567307,-25.37633],[-57.567511,-25.374976],[-57.567194,-25.373841],[-57.568223,-25.372331],[-57.568155,-25.370674],[-57.569046,-25.369979],[-57.568438,-25.368626],[-57.56899,-25.366946],[-57.56866,-25.364892],[-57.567004,-25.363418],[-57.567432,-25.361612],[-57.56709,-25.361084],[-57.566741,-25.360982],[-57.565181,-25.363192],[-57.556903,-25.366824],[-57.55682,-25.367629],[-57.556386,-25.367841],[-57.553109,-25.367516],[-57.553327,-25.363803],[-57.550969,-25.363885],[-57.550883,-25.365528],[-57.550153,-25.36544],[-57.550058,-25.36571],[-57.545436,-25.365396],[-57.540277,-25.365921],[-57.54064,-25.367174],[-57.539084,-25.367882],[-57.532187,-25.369736],[-57.532456,-25.370617],[-57.526884,-25.372394],[-57.53192,-25.38204],[-57.529162,-25.383209],[-57.52689,-25.378878],[-57.525539,-25.379488],[-57.524223,-25.376931],[-57.52151,-25.378127],[-57.520196,-25.375641],[-57.518315,-25.376478],[-57.520392,-25.379397],[-57.519709,-25.379711],[-57.523275,-25.385767],[-57.521287,-25.386727],[-57.520538,-25.385419],[-57.519294,-25.386108],[-57.519735,-25.387165],[-57.519074,-25.387473],[-57.519225,-25.388506],[-57.517486,-25.388199],[-57.517328,-25.38959],[-57.516204,-25.38927],[-57.51446,-25.394086],[-57.507338,-25.403111],[-57.515805,-25.401856],[-57.516734,-25.405156],[-57.511545,-25.405976],[-57.511626,-25.406583],[-57.508501,-25.407085],[-57.508785,-25.40835],[-57.515323,-25.407345],[-57.511017,-25.424137],[-57.512245,-25.424353],[-57.513807,-25.425779],[-57.515008,-25.426378],[-57.515997,-25.42732],[-57.516106,-25.427797],[-57.517208,-25.428425],[-57.51841,-25.430093],[-57.519494,-25.430502],[-57.519581,-25.43099],[-57.520001,-25.430997],[-57.521265,-25.432731],[-57.523119,-25.434309],[-57.525449,-25.435239],[-57.525857,-25.436002],[-57.526786,-25.436289],[-57.527034,-25.437002],[-57.526877,-25.437987],[-57.528131,-25.43871],[-57.528884,-25.440295],[-57.530878,-25.441658],[-57.531509,-25.443107],[-57.53255,-25.443091],[-57.532796,-25.443603],[-57.534512,-25.443699],[-57.535795,-25.441965],[-57.537262,-25.429491],[-57.538991,-25.418901],[-57.541252,-25.410414],[-57.544253,-25.412887],[-57.54594,-25.41203],[-57.546489,-25.409888],[-57.546897,-25.40958]]]}}]}
