{"type":"FeatureCollection","name":"distrito","features":[{"type":"Feature","properties":{"clave":"12-0","nombre":"Pilar"},"geometry":{"type":"Polygon","coordinates":[[[-58.289587,-26.903682],[-58.38371,-26.893794],[-58.385315,-26.892457],[-58.378632,-26.885209],[-58.379207,-26.870719],[-58.371613,-26.864251],[-58.369444,-26.863369],[-58.366563,-26.863139],[-58.36326,-26.863816],[-58.353952,-26.867775],[-58.348935,-26.8695],[-58.344344,-26.870705],[-58.339315,-26.871526],[-58.334995,-26.871309],[-58.330379,-26.87045],[-58.326045,-26.869072],[-58.32257,-26.867298],[-58.319801,-26.864357],[-58.318616,-26.86153],[-58.31815,-26.858568],[-58.318542,-26.855081],[-58.319799,-26.851844],[-58.32191,-26.847697],[-58.327148,-26.842499],[-58.335129,-26.837673],[-58.349991,-26.832147],[-58.354452,-26.828462],[-58.357023,-26.821944],[-58.357661,-26.816158],[-58.355829,-26.810633],[-58.351814,-26.807187],[-58.346754,-26.80486],[-58.341884,-26.803718],[-58.337291,-26.803603],[-58.324044,-26.805365],[-58.319529,-26.806827],[-58.312713,-26.808309],[-58.309334,-26.808405],[-58.30638,-26.807981],[-58.304213,-26.807162],[-58.302039,-26.805828],[-58.297826,-26.80219],[-58.295436,-26.800728],[-58.283873,-26.795867],[-58.282347,-26.794462],[-58.281103,-26.792719],[-58.278954,-26.79285],[-58.278976,-26.792024],[-58.278696,-26.791801],[-58.275704,-26.791909],[-58.275115,-26.793472],[-58.274571,-26.793612],[-58.273852,-26.793163],[-58.27343,-26.793753],[-58.272588,-26.79414],[-58.272404,-26.794773],[-58.271282,-26.794928],[-58.270647,-26.794658],[-58.270294,-26.793592],[-58.268694,-26.793448],[-58.267736,-26.792613],[-58.267246,-26.79315],[-58.26593,-26.793513],[-58.264384,-26.793157],[-58.264037,-26.792768],[-58.264501,-26.79205],[-58.263263,-26.792174],[-58.263146,-26.791286],[-58.262695,-26.791132],[-58.262551,-26.791594],[-58.26201,-26.791738],[-58.261533,-26.792325],[-58.260595,-26.792198],[-58.259883,-26.792863],[-58.259922,-26.793215],[-58.260808,-26.793081],[-58.260528,-26.793593],[-58.258582,-26.79399],[-58.258216,-26.793763],[-58.256973,-26.794279],[-58.255771,-26.794218],[-58.255612,-26.794964],[-58.25505,-26.795583],[-58.255607,-26.796007],[-58.255566,-26.796531],[-58.2551,-26.7969],[-58.255311,-26.798032],[-58.25388,-26.798514],[-58.254023,-26.798043],[-58.253716,-26.797928],[-58.252863,-26.798541],[-58.252934,-26.798937],[-58.251822,-26.79938],[-58.251076,-26.800132],[-58.250947,-26.800837],[-58.251586,-26.801423],[-58.249556,-26.801535],[-58.248622,-26.801963],[-58.248021,-26.803454],[-58.247475,-26.803382],[-58.24739,-26.802751],[-58.246799,-26.803239],[-58.246468,-26.802732],[-58.245704,-26.802472],[-58.245603,-26.802784],[-58.244896,-26.802949],[-58.245407,-26.803459],[-58.245145,-26.80361],[-58.244576,-26.803362],[-58.244563,-26.802581],[-58.244102,-26.802599],[-58.244144,-26.803222],[-58.242945,-26.803273],[-58.242484,-26.803624],[-58.241412,-26.806107],[-58.240768,-26.805937],[-58.240547,-26.806517],[-58.239755,-26.80665],[-58.23764,-26.80605],[-58.236987,-26.806421],[-58.237426,-26.80677],[-58.236744,-26.806992],[-58.236414,-26.806115],[-58.235758,-26.806712],[-58.235122,-26.806731],[-58.235234,-26.80729],[-58.235827,-26.807668],[-58.235652,-26.808315],[-58.235144,-26.80827],[-58.234914,-26.807771],[-58.233582,-26.807489],[-58.233355,-26.808105],[-58.233899,-26.808511],[-58.23323,-26.808946],[-58.233119,-26.809543],[-58.231969,-26.810166],[-58.231173,-26.810223],[-58.232062,-26.81096],[-58.232031,-26.811525],[-58.232579,-26.811732],[-58.23285,-26.812276],[-58.231894,-26.812713],[-58.231837,-26.813305],[-58.230792,-26.813025],[-58.23045,-26.813186],[-58.231264,-26.813955],[-58.230707,-26.81433],[-58.231469,-26.815037],[-58.23064,-26.815161],[-58.230792,-26.815575],[-58.230336,-26.816189],[-58.23084,-26.81711],[-58.231965,-26.818021],[-58.231162,-26.818795],[-58.231754,-26.818903],[-58.231594,-26.81959],[-58.232325,-26.81994],[-58.231906,-26.820549],[-58.231182,-26.820727],[-58.231885,-26.821479],[-58.231019,-26.821622],[-58.231655,-26.821973],[-58.23066,-26.82283],[-58.230469,-26.823743],[-58.2297,-26.823818],[-58.229372,-26.824994],[-58.228609,-26.825033],[-58.227852,-26.825581],[-58.227369,-26.826853],[-58.226653,-26.826896],[-58.22626,-26.827292],[-58.225816,-26.827169],[-58.224885,-26.82831],[-58.221416,-26.829112],[-58.220935,-26.830245],[-58.219894,-26.830994],[-58.219416,-26.831052],[-58.218919,-26.830677],[-58.217771,-26.830823],[-58.21712,-26.831772],[-58.216172,-26.832285],[-58.216091,-26.832697],[-58.21522,-26.833115],[-58.214565,-26.832994],[-58.213706,-26.834252],[-58.212986,-26.834524],[-58.213181,-26.835845],[-58.212476,-26.83675],[-58.211982,-26.838108],[-58.211252,-26.838335],[-58.210227,-26.840294],[-58.208683,-26.84103],[-58.207801,-26.842044],[-58.207471,-26.843405],[-58.207524,-26.846036],[-58.20632,-26.848329],[-58.204611,-26.848501],[-58.203706,-26.850082],[-58.202875,-26.850326],[-58.202267,-26.85096],[-58.200451,-26.851369],[-58.200419,-26.852511],[-58.20003,-26.853105],[-58.196646,-26.856715],[-58.164255,-26.913798],[-58.150764,-26.935858],[-58.068285,-26.989042],[-58.060155,-26.987696],[-58.009561,-27.018194],[-58.012214,-27.018334],[-58.013193,-27.019705],[-58.015398,-27.020594],[-58.016999,-27.022668],[-58.017894,-27.024472],[-58.018471,-27.027538],[-58.017115,-27.028256],[-58.014174,-27.028592],[-58.010809,-27.030741],[-58.010157,-27.031573],[-58.00744,-27.032418],[-58.007401,-27.033009],[-58.008091,-27.033988],[-58.009994,-27.03547],[-58.01136,-27.035814],[-58.013549,-27.034893],[-58.016499,-27.035462],[-58.017023,-27.035104],[-58.017859,-27.035177],[-58.018456,-27.035606],[-58.021837,-27.035306],[-58.024464,-27.034224],[-58.02653,-27.034248],[-58.028077,-27.035221],[-58.029083,-27.034741],[-58.03319,-27.034475],[-58.034407,-27.032971],[-58.038132,-27.031841],[-58.040313,-27.030094],[-58.041977,-27.029412],[-58.044588,-27.028999],[-58.045605,-27.029661],[-58.046967,-27.029611],[-58.04776,-27.02992],[-58.047719,-27.030196],[-58.04851,-27.03019],[-58.052415,-27.029531],[-58.054206,-27.028377],[-58.055261,-27.028447],[-58.056047,-27.027891],[-58.057241,-27.028669],[-58.060569,-27.027384],[-58.062505,-27.027645],[-58.063997,-27.027398],[-58.065785,-27.025928],[-58.068062,-27.025163],[-58.07051,-27.023728],[-58.071824,-27.023324],[-58.075523,-27.024083],[-58.077445,-27.025249],[-58.083213,-27.026425],[-58.084081,-27.025316],[-58.086583,-27.025021],[-58.087891,-27.023949],[-58.09093,-27.022312],[-58.094579,-27.022519],[-58.098061,-27.019069],[-58.098001,-27.017495],[-58.098878,-27.017252],[-58.099896,-27.018031],[-58.10082,-27.018181],[-58.101849,-27.01778],[-58.102369,-27.016988],[-58.103114,-27.016825],[-58.104395,-27.017523],[-58.104807,-27.019173],[-58.105601,-27.019521],[-58.108314,-27.018398],[-58.111433,-27.018255],[-58.112702,-27.017734],[-58.113099,-27.017927],[-58.113065,-27.018911],[-58.113508,-27.019301],[-58.115988,-27.018967],[-58.11787,-27.018204],[-58.118604,-27.0169],[-58.119326,-27.014415],[-58.121805,-27.011837],[-58.12257,-27.011477],[-58.124017,-27.011439],[-58.125423,-27.012335],[-58.126179,-27.012374],[-58.127291,-27.012121],[-58.128776,-27.011094],[-58.130178,-27.011498],[-58.131562,-27.011302],[-58.133335,-27.011694],[-58.136095,-27.010448],[-58.137547,-27.010111],[-58.137926,-27.009688],[-58.138193,-27.008251],[-58.140178,-27.007386],[-58.141762,-27.007225],[-58.142743,-27.007451],[-58.143544,-27.009124],[-58.144276,-27.009678],[-58.14714,-27.009903],[-58.14841,-27.010619],[-58.149871,-27.010061],[-58.150666,-27.009215],[-58.151645,-27.006778],[-58.151012,-27.004269],[-58.151152,-27.002589],[-58.149296,-27.001377],[-58.148389,-27.001398],[-58.147997,-27.000457],[-58.146834,-26.99997],[-58.147329,-26.998734],[-58.146442,-26.998105],[-58.145368,-26.99587],[-58.145475,-26.995251],[-58.146515,-26.994096],[-58.146356,-26.992323],[-58.146967,-26.989741],[-58.149853,-26.987713],[-58.151597,-26.985578],[-58.153491,-26.985269],[-58.155393,-26.982518],[-58.157059,-26.981516],[-58.162941,-26.981436],[-58.165438,-26.981835],[-58.166544,-26.982322],[-58.16821,-26.98239],[-58.1691,-26.982224],[-58.169811,-26.981031],[-58.170651,-26.980884],[-58.172142,-26.981671],[-58.172833,-26.983845],[-58.173824,-26.983864],[-58.175283,-26.983021],[-58.176731,-26.981479],[-58.177772,-26.981403],[-58.179458,-26.980513],[-58.181719,-26.9784],[-58.183416,-26.978187],[-58.184815,-26.976817],[-58.184923,-26.975322],[-58.186233,-26.975514],[-58.186651,-26.975321],[-58.188407,-26.971645],[-58.187984,-26.969423],[-58.187631,-26.96911],[-58.186811,-26.969411],[-58.186097,-26.969272],[-58.184764,-26.96783],[-58.184486,-26.966483],[-58.183543,-26.966811],[-58.182874,-26.966244],[-58.183218,-26.96555],[-58.18486,-26.964647],[-58.184839,-26.962192],[-58.185237,-26.961344],[-58.187294,-26.960352],[-58.187711,-26.959662],[-58.186787,-26.959043],[-58.186562,-26.95951],[-58.185948,-26.959438],[-58.184799,-26.958306],[-58.184572,-26.956881],[-58.186419,-26.954808],[-58.184372,-26.95427],[-58.183795,-26.953137],[-58.184704,-26.952511],[-58.184998,-26.950762],[-58.184728,-26.95057],[-58.183772,-26.950876],[-58.182672,-26.950677],[-58.18232,-26.950197],[-58.182074,-26.94848],[-58.182236,-26.948158],[-58.1837,-26.947906],[-58.18464,-26.946829],[-58.186402,-26.946403],[-58.18668,-26.945922],[-58.18637,-26.945076],[-58.187708,-26.944826],[-58.188271,-26.944392],[-58.18845,-26.942161],[-58.188049,-26.940183],[-58.187564,-26.939889],[-58.18699,-26.94035],[-58.186754,-26.9399],[-58.186997,-26.939451],[-58.188191,-26.938877],[-58.188003,-26.938427],[-58.187111,-26.937992],[-58.187257,-26.937292],[-58.187811,-26.936971],[-58.188518,-26.937579],[-58.189256,-26.937419],[-58.189863,-26.936001],[-58.189456,-26.935138],[-58.190141,-26.93455],[-58.190701,-26.934911],[-58.191125,-26.934569],[-58.191047,-26.934172],[-58.190272,-26.933574],[-58.189751,-26.932098],[-58.190381,-26.93184],[-58.190747,-26.932455],[-58.191887,-26.933168],[-58.192377,-26.933163],[-58.19251,-26.932684],[-58.192125,-26.931622],[-58.190993,-26.931812],[-58.191477,-26.93044],[-58.19172,-26.930438],[-58.191728,-26.931169],[-58.192953,-26.930672],[-58.193111,-26.931582],[-58.193714,-26.931676],[-58.194063,-26.929999],[-58.193636,-26.928332],[-58.193956,-26.928338],[-58.194651,-26.929271],[-58.195238,-26.92942],[-58.194994,-26.927084],[-58.196438,-26.927266],[-58.196156,-26.928527],[-58.196787,-26.928531],[-58.197387,-26.92816],[-58.198613,-26.926209],[-58.196981,-26.924761],[-58.196972,-26.923465],[-58.198099,-26.921727],[-58.198479,-26.921683],[-58.199705,-26.922846],[-58.200275,-26.924033],[-58.200874,-26.92424],[-58.200559,-26.922257],[-58.202346,-26.921497],[-58.202913,-26.923184],[-58.203307,-26.922757],[-58.204215,-26.920054],[-58.206001,-26.919741],[-58.205753,-26.92061],[-58.205925,-26.920803],[-58.206411,-26.920649],[-58.20768,-26.918743],[-58.207826,-26.917464],[-58.207588,-26.916636],[-58.208294,-26.916548],[-58.209299,-26.917488],[-58.2101,-26.917332],[-58.210231,-26.91608],[-58.211984,-26.915009],[-58.211896,-26.914744],[-58.210928,-26.914513],[-58.210956,-26.913948],[-58.212623,-26.913817],[-58.212924,-26.912261],[-58.214256,-26.913274],[-58.215379,-26.912922],[-58.216365,-26.911789],[-58.216777,-26.912549],[-58.217385,-26.912534],[-58.217601,-26.912099],[-58.2174,-26.910417],[-58.218127,-26.911133],[-58.218657,-26.911178],[-58.21902,-26.910701],[-58.219071,-26.909532],[-58.219755,-26.909476],[-58.220129,-26.908949],[-58.219788,-26.90605],[-58.219584,-26.905808],[-58.218955,-26.906125],[-58.218454,-26.905811],[-58.218788,-26.90517],[-58.219471,-26.905197],[-58.220658,-26.904295],[-58.220308,-26.903107],[-58.220947,-26.902438],[-58.220624,-26.901047],[-58.220916,-26.900694],[-58.22185,-26.901504],[-58.222954,-26.901332],[-58.222561,-26.900289],[-58.224401,-26.898274],[-58.225098,-26.898377],[-58.225613,-26.898829],[-58.225655,-26.899153],[-58.224717,-26.899098],[-58.225139,-26.900062],[-58.228748,-26.900218],[-58.229145,-26.899944],[-58.229792,-26.898351],[-58.230721,-26.898633],[-58.229885,-26.899333],[-58.230136,-26.899783],[-58.230498,-26.899819],[-58.231459,-26.898887],[-58.230605,-26.897493],[-58.23049,-26.89653],[-58.231048,-26.896417],[-58.2321,-26.89687],[-58.23369,-26.896345],[-58.233652,-26.896916],[-58.232798,-26.897012],[-58.232524,-26.897466],[-58.23317,-26.898965],[-58.23445,-26.899131],[-58.234489,-26.898732],[-58.234051,-26.898274],[-58.234418,-26.895719],[-58.235008,-26.894884],[-58.235449,-26.895103],[-58.235543,-26.896945],[-58.235847,-26.897467],[-58.236459,-26.897506],[-58.236953,-26.897167],[-58.237817,-26.89735],[-58.238761,-26.896258],[-58.244381,-26.901183],[-58.255319,-26.908945],[-58.260004,-26.908603],[-58.289587,-26.903682]]]}}]}
