{"type":"FeatureCollection","name":"distrito","features":[{"type":"Feature","properties":{"clave":"8-15","nombre":"Villa Florida"},"geometry":{"type":"Polygon","coordinates":[[[-57.115286,-26.383745],[-57.105213,-26.38535],[-57.10296,-26.384363],[-57.100933,-26.382742],[-57.099721,-26.381095],[-57.09896,-26.379321],[-57.09758,-26.377979],[-57.094174,-26.376891],[-57.087511,-26.376557],[-57.087854,-26.376148],[-57.086989,-26.376147],[-57.084808,-26.37703],[-57.081709,-26.377695],[-57.073699,-26.378012],[-57.071329,-26.379031],[-57.068015,-26.383564],[-57.066938,-26.385531],[-57.065561,-26.394793],[-57.063366,-26.398993],[-57.062205,-26.400175],[-57.060649,-26.401184],[-57.0582,-26.402009],[-57.053036,-26.40181],[-57.048879,-26.400831],[-57.047004,-26.40076],[-57.044505,-26.401539],[-57.043191,-26.402847],[-57.042371,-26.404653],[-57.042549,-26.409627],[-57.043084,-26.411985],[-57.04228,-26.413247],[-57.040253,-26.413681],[-57.035688,-26.412575],[-57.0338,-26.412527],[-57.032295,-26.413088],[-57.030752,-26.414154],[-57.029343,-26.416978],[-57.023405,-26.417063],[-57.017067,-26.417986],[-57.014772,-26.41757],[-57.009062,-26.413317],[-57.0043,-26.411414],[-57.002018,-26.411063],[-56.998695,-26.412049],[-56.998101,-26.413202],[-56.998083,-26.417397],[-56.997351,-26.418656],[-56.996131,-26.419516],[-56.996395,-26.42018],[-56.997517,-26.420736],[-56.995562,-26.422921],[-56.995125,-26.423991],[-56.995405,-26.427327],[-56.995818,-26.428776],[-56.996755,-26.429408],[-56.999317,-26.432198],[-57.002875,-26.434456],[-57.003272,-26.435336],[-57.003276,-26.437449],[-57.001591,-26.440478],[-57.001059,-26.442582],[-56.999683,-26.445137],[-56.999082,-26.445656],[-56.997619,-26.445932],[-56.997033,-26.446722],[-56.997329,-26.447476],[-56.999413,-26.44981],[-57.001514,-26.451164],[-57.002909,-26.451349],[-57.003984,-26.450866],[-57.005753,-26.449182],[-57.006896,-26.44911],[-57.00772,-26.449981],[-57.007888,-26.451476],[-57.007486,-26.451837],[-57.005377,-26.452279],[-57.005202,-26.453047],[-57.00701,-26.454649],[-57.009313,-26.454275],[-57.009714,-26.454491],[-57.009581,-26.455227],[-57.007746,-26.456997],[-57.008077,-26.457616],[-57.009793,-26.45748],[-57.00988,-26.459119],[-57.009131,-26.459534],[-57.008027,-26.458965],[-57.0067,-26.459706],[-57.007961,-26.461032],[-57.007897,-26.46162],[-57.007429,-26.462023],[-57.007516,-26.463108],[-57.006394,-26.464333],[-57.006688,-26.466487],[-57.007649,-26.468333],[-57.007126,-26.469024],[-57.007418,-26.46976],[-57.007192,-26.470807],[-57.007739,-26.471767],[-57.007773,-26.473033],[-57.008228,-26.474062],[-57.009871,-26.475597],[-57.010878,-26.475701],[-57.011902,-26.475377],[-57.012621,-26.475782],[-57.01344,-26.476662],[-57.013781,-26.477746],[-57.014923,-26.479276],[-57.017158,-26.480432],[-57.01924,-26.482987],[-57.020718,-26.484156],[-57.024058,-26.485329],[-57.025067,-26.486859],[-57.030592,-26.48824],[-57.031562,-26.488023],[-57.032981,-26.489016],[-57.033229,-26.489986],[-57.034183,-26.490645],[-57.034539,-26.492415],[-57.035015,-26.492776],[-57.035187,-26.493873],[-57.035673,-26.494713],[-57.03612,-26.494902],[-57.037028,-26.497141],[-57.036977,-26.498726],[-57.036415,-26.499615],[-57.036778,-26.5018],[-57.03617,-26.503146],[-57.036002,-26.504654],[-57.036568,-26.50538],[-57.05272,-26.502247],[-57.053962,-26.502607],[-57.056483,-26.504137],[-57.060134,-26.504767],[-57.061425,-26.503584],[-57.064513,-26.504039],[-57.065062,-26.503113],[-57.065934,-26.502787],[-57.068619,-26.503567],[-57.06956,-26.503323],[-57.07148,-26.50427],[-57.073498,-26.504445],[-57.07502,-26.505221],[-57.076186,-26.504642],[-57.077914,-26.504339],[-57.080826,-26.504464],[-57.081938,-26.504892],[-57.083733,-26.506561],[-57.08529,-26.506578],[-57.086674,-26.507047],[-57.090134,-26.509045],[-57.091934,-26.508759],[-57.093004,-26.509192],[-57.093966,-26.508555],[-57.094322,-26.508925],[-57.095814,-26.508946],[-57.096263,-26.508395],[-57.097938,-26.50783],[-57.098921,-26.508069],[-57.103524,-26.508029],[-57.107228,-26.506591],[-57.109029,-26.506382],[-57.164867,-26.525678],[-57.167063,-26.526267],[-57.169941,-26.526498],[-57.172457,-26.529186],[-57.172941,-26.532088],[-57.172554,-26.53333],[-57.172983,-26.534106],[-57.178873,-26.533083],[-57.179714,-26.532644],[-57.180668,-26.531604],[-57.181324,-26.531554],[-57.181758,-26.532131],[-57.181657,-26.533147],[-57.182599,-26.534767],[-57.182227,-26.535336],[-57.18151,-26.535395],[-57.181483,-26.536014],[-57.18316,-26.538215],[-57.1848,-26.538917],[-57.1852,-26.539571],[-57.185039,-26.540583],[-57.186726,-26.541064],[-57.186861,-26.542472],[-57.187292,-26.543239],[-57.192511,-26.548333],[-57.193528,-26.550422],[-57.193723,-26.552869],[-57.194556,-26.552651],[-57.195748,-26.551765],[-57.196234,-26.550725],[-57.196747,-26.550517],[-57.19795,-26.551075],[-57.198817,-26.550433],[-57.2009,-26.551125],[-57.202513,-26.551128],[-57.202782,-26.550766],[-57.202493,-26.550103],[-57.200362,-26.548846],[-57.200281,-26.547781],[-57.200989,-26.546981],[-57.202704,-26.547312],[-57.203851,-26.548945],[-57.20547,-26.548681],[-57.206066,-26.54901],[-57.206559,-26.552363],[-57.208576,-26.552414],[-57.209154,-26.553131],[-57.210682,-26.554073],[-57.20965,-26.55542],[-57.20946,-26.556625],[-57.208873,-26.557646],[-57.207613,-26.558064],[-57.207262,-26.559798],[-57.206372,-26.560282],[-57.206589,-26.56109],[-57.206402,-26.562178],[-57.207134,-26.562565],[-57.207008,-26.5635],[-57.207446,-26.564307],[-57.207771,-26.564582],[-57.208954,-26.564567],[-57.209222,-26.564133],[-57.208413,-26.56371],[-57.208486,-26.56343],[-57.210081,-26.563229],[-57.211044,-26.56386],[-57.210516,-26.565012],[-57.211859,-26.565755],[-57.212059,-26.564924],[-57.213059,-26.564159],[-57.213706,-26.56479],[-57.21309,-26.566141],[-57.213944,-26.566167],[-57.214317,-26.566713],[-57.214605,-26.566477],[-57.214632,-26.56538],[-57.215063,-26.565158],[-57.215552,-26.565907],[-57.215868,-26.565532],[-57.216706,-26.565892],[-57.217482,-26.565444],[-57.218125,-26.565434],[-57.218239,-26.56575],[-57.217645,-26.566613],[-57.218905,-26.566868],[-57.219241,-26.567653],[-57.217654,-26.568992],[-57.217369,-26.570044],[-57.218778,-26.571144],[-57.220307,-26.570843],[-57.221092,-26.570332],[-57.221428,-26.569659],[-57.221011,-26.569253],[-57.22134,-26.568774],[-57.221175,-26.567533],[-57.221928,-26.566078],[-57.223874,-26.566531],[-57.225101,-26.56619],[-57.22852,-26.566826],[-57.228988,-26.56739],[-57.228809,-26.567932],[-57.229129,-26.56845],[-57.231364,-26.568934],[-57.23129,-26.569828],[-57.230217,-26.570927],[-57.230253,-26.571369],[-57.230787,-26.571712],[-57.232094,-26.571217],[-57.232759,-26.570237],[-57.232932,-26.569085],[-57.235439,-26.56728],[-57.23685,-26.567918],[-57.239217,-26.568375],[-57.239007,-26.570032],[-57.239414,-26.570316],[-57.239642,-26.571521],[-57.240312,-26.571872],[-57.245371,-26.570717],[-57.250664,-26.568995],[-57.253171,-26.565534],[-57.252578,-26.564723],[-57.252637,-26.563491],[-57.253441,-26.560746],[-57.253407,-26.559514],[-57.252721,-26.559095],[-57.247616,-26.559188],[-57.246836,-26.558686],[-57.246243,-26.557679],[-57.246209,-26.556671],[-57.246923,-26.555466],[-57.252116,-26.553105],[-57.253111,-26.552179],[-57.25401,-26.55061],[-57.25438,-26.548873],[-57.254154,-26.545458],[-57.252784,-26.545181],[-57.250391,-26.546865],[-57.249021,-26.546923],[-57.247992,-26.546029],[-57.245741,-26.541581],[-57.24465,-26.540519],[-57.242687,-26.539907],[-57.241318,-26.540189],[-57.240635,-26.541142],[-57.240115,-26.544496],[-57.238071,-26.545993],[-57.2363,-26.546095],[-57.234914,-26.545152],[-57.232024,-26.538885],[-57.232906,-26.537192],[-57.23556,-26.536043],[-57.239487,-26.535389],[-57.241974,-26.533941],[-57.242968,-26.532745],[-57.243625,-26.529608],[-57.242958,-26.528266],[-57.241019,-26.526825],[-57.239631,-26.524737],[-57.239178,-26.519711],[-57.234549,-26.515719],[-57.232991,-26.511866],[-57.233582,-26.510922],[-57.23901,-26.512184],[-57.241244,-26.512303],[-57.243793,-26.510494],[-57.248975,-26.503308],[-57.251243,-26.498464],[-57.250907,-26.490384],[-57.250402,-26.48895],[-57.24885,-26.487722],[-57.247163,-26.487684],[-57.244886,-26.48859],[-57.243385,-26.490028],[-57.242661,-26.492532],[-57.242033,-26.497578],[-57.24108,-26.499302],[-57.239621,-26.499345],[-57.238389,-26.498691],[-57.236054,-26.493568],[-57.232809,-26.489636],[-57.231168,-26.489351],[-57.229938,-26.489846],[-57.229439,-26.490913],[-57.230357,-26.493946],[-57.230544,-26.496489],[-57.229773,-26.4985],[-57.228681,-26.499322],[-57.227451,-26.500062],[-57.223851,-26.500191],[-57.221068,-26.499375],[-57.218057,-26.49778],[-57.217917,-26.496181],[-57.219054,-26.494949],[-57.222741,-26.492113],[-57.225149,-26.487925],[-57.226737,-26.484232],[-57.22764,-26.480088],[-57.22728,-26.478365],[-57.226,-26.476399],[-57.224297,-26.475964],[-57.222301,-26.476828],[-57.218979,-26.479459],[-57.215392,-26.486478],[-57.213481,-26.488285],[-57.21102,-26.488822],[-57.208787,-26.48862],[-57.207371,-26.487187],[-57.20682,-26.484973],[-57.207454,-26.482388],[-57.210769,-26.475902],[-57.210672,-26.472826],[-57.209802,-26.47049],[-57.208341,-26.468892],[-57.205569,-26.467771],[-57.200135,-26.468286],[-57.194267,-26.46924],[-57.189087,-26.468278],[-57.186548,-26.46752],[-57.185597,-26.466114],[-57.185131,-26.463185],[-57.187956,-26.450884],[-57.18803,-26.448761],[-57.186463,-26.446456],[-57.181284,-26.443458],[-57.180532,-26.442022],[-57.180587,-26.440119],[-57.183618,-26.436533],[-57.184499,-26.434456],[-57.1844,-26.432777],[-57.183553,-26.431394],[-57.182139,-26.430412],[-57.177946,-26.429104],[-57.176394,-26.427466],[-57.174016,-26.420947],[-57.171411,-26.415618],[-57.170586,-26.412256],[-57.162101,-26.40721],[-57.160392,-26.406597],[-57.159026,-26.406906],[-57.156843,-26.409123],[-57.154045,-26.411341],[-57.151825,-26.41199],[-57.149331,-26.411808],[-57.148613,-26.411163],[-57.147585,-26.409164],[-57.14584,-26.406859],[-57.141601,-26.404433],[-57.134305,-26.403296],[-57.130505,-26.40297],[-57.127746,-26.403074],[-57.125973,-26.402645],[-57.125351,-26.400922],[-57.125575,-26.399097],[-57.127679,-26.393341],[-57.126576,-26.388425],[-57.124461,-26.384143],[-57.121616,-26.381965],[-57.119928,-26.382017],[-57.115286,-26.383745]]]}}]}
