{"type":"FeatureCollection","name":"distrito","features":[{"type":"Feature","properties":{"clave":"7-31","nombre":"José Leandro Oviedo"},"geometry":{"type":"Polygon","coordinates":[[[-56.234371,-26.800725],[-56.235594,-26.800746],[-56.238979,-26.801804],[-56.241957,-26.801968],[-56.243118,-26.801529],[-56.244774,-26.801464],[-56.245772,-26.800726],[-56.247011,-26.80103],[-56.248839,-26.799777],[-56.252322,-26.798714],[-56.252839,-26.800134],[-56.253441,-26.80068],[-56.255431,-26.801237],[-56.312131,-26.737669],[-56.313204,-26.736013],[-56.314018,-26.733512],[-56.31363,-26.729115],[-56.311518,-26.729717],[-56.31115,-26.728221],[-56.310294,-26.727544],[-56.30838,-26.728808],[-56.307285,-26.728938],[-56.306921,-26.728286],[-56.307017,-26.727492],[-56.308841,-26.724973],[-56.307471,-26.722989],[-56.30602,-26.72263],[-56.304172,-26.721307],[-56.303273,-26.721411],[-56.301859,-26.722451],[-56.299728,-26.721362],[-56.296926,-26.721632],[-56.295999,-26.721443],[-56.295598,-26.720637],[-56.296264,-26.718699],[-56.295651,-26.717301],[-56.294922,-26.717266],[-56.294498,-26.717585],[-56.294266,-26.718328],[-56.294511,-26.719548],[-56.293879,-26.720105],[-56.290239,-26.71945],[-56.288442,-26.718683],[-56.284832,-26.719044],[-56.283988,-26.718773],[-56.283525,-26.717132],[-56.282425,-26.715655],[-56.279851,-26.715082],[-56.277653,-26.713211],[-56.276232,-26.711326],[-56.276357,-26.709914],[-56.275641,-26.709188],[-56.275044,-26.709126],[-56.274632,-26.709431],[-56.275203,-26.710766],[-56.275043,-26.711645],[-56.274357,-26.71184],[-56.273154,-26.711468],[-56.272484,-26.711664],[-56.27177,-26.712969],[-56.270901,-26.713484],[-56.270156,-26.713448],[-56.269189,-26.712915],[-56.269967,-26.711813],[-56.270012,-26.710807],[-56.269809,-26.710435],[-56.268253,-26.709656],[-56.26787,-26.709067],[-56.268092,-26.708445],[-56.269298,-26.707223],[-56.269242,-26.706162],[-56.268277,-26.70585],[-56.265831,-26.706311],[-56.265135,-26.705703],[-56.265304,-26.704914],[-56.267071,-26.703465],[-56.26724,-26.702197],[-56.266394,-26.701963],[-56.263897,-26.702667],[-56.262777,-26.702138],[-56.262373,-26.701495],[-56.262576,-26.700598],[-56.264759,-26.700424],[-56.265101,-26.699839],[-56.264847,-26.69912],[-56.262258,-26.698939],[-56.260663,-26.697906],[-56.259315,-26.697723],[-56.258512,-26.698179],[-56.257591,-26.699786],[-56.256381,-26.70103],[-56.255323,-26.701693],[-56.252037,-26.702637],[-56.249819,-26.702621],[-56.24786,-26.70169],[-56.246861,-26.700718],[-56.245058,-26.700776],[-56.243909,-26.699272],[-56.243805,-26.698454],[-56.244343,-26.697725],[-56.246033,-26.697622],[-56.246896,-26.697048],[-56.247131,-26.696291],[-56.246954,-26.695654],[-56.245895,-26.695183],[-56.244436,-26.695965],[-56.243056,-26.696148],[-56.242391,-26.694551],[-56.241635,-26.693982],[-56.240369,-26.694016],[-56.239855,-26.694365],[-56.238903,-26.696848],[-56.236914,-26.696539],[-56.235963,-26.696936],[-56.235767,-26.697666],[-56.236859,-26.699437],[-56.236756,-26.700073],[-56.236346,-26.700441],[-56.235469,-26.700337],[-56.233448,-26.698994],[-56.232275,-26.699038],[-56.232285,-26.699688],[-56.233248,-26.700672],[-56.232897,-26.70165],[-56.230382,-26.703194],[-56.228456,-26.702642],[-56.22758,-26.702696],[-56.22362,-26.705342],[-56.222697,-26.705021],[-56.222983,-26.703285],[-56.222708,-26.702475],[-56.221934,-26.702358],[-56.220445,-26.703591],[-56.219613,-26.703429],[-56.218877,-26.702607],[-56.219137,-26.702027],[-56.221084,-26.701523],[-56.221628,-26.700645],[-56.221535,-26.699877],[-56.220776,-26.6999],[-56.219256,-26.700732],[-56.217916,-26.700756],[-56.217149,-26.700088],[-56.216052,-26.69764],[-56.215321,-26.697564],[-56.214735,-26.698824],[-56.212496,-26.699615],[-56.210971,-26.700546],[-56.211099,-26.701237],[-56.212707,-26.702135],[-56.212834,-26.702863],[-56.212489,-26.703218],[-56.209223,-26.703272],[-56.207919,-26.701617],[-56.207251,-26.701275],[-56.206543,-26.701334],[-56.206435,-26.701888],[-56.207323,-26.702503],[-56.207408,-26.703108],[-56.206115,-26.704776],[-56.205228,-26.705037],[-56.203145,-26.704967],[-56.201329,-26.704257],[-56.200344,-26.70431],[-56.199535,-26.705037],[-56.199393,-26.706327],[-56.199702,-26.706907],[-56.200782,-26.707459],[-56.201098,-26.708151],[-56.198543,-26.707446],[-56.197241,-26.707416],[-56.197023,-26.709397],[-56.196063,-26.710511],[-56.195306,-26.710908],[-56.194632,-26.710593],[-56.194464,-26.708949],[-56.19333,-26.708604],[-56.192398,-26.711005],[-56.191738,-26.711678],[-56.191019,-26.711281],[-56.19149,-26.710052],[-56.19129,-26.709369],[-56.190471,-26.709174],[-56.188934,-26.710105],[-56.187662,-26.710179],[-56.187126,-26.709643],[-56.186021,-26.70733],[-56.184859,-26.706321],[-56.183858,-26.706509],[-56.183446,-26.707067],[-56.185229,-26.70877],[-56.185526,-26.710618],[-56.184739,-26.711236],[-56.182447,-26.711435],[-56.181252,-26.710783],[-56.180774,-26.70897],[-56.180376,-26.708557],[-56.178038,-26.708679],[-56.176329,-26.708136],[-56.175742,-26.707654],[-56.175596,-26.706033],[-56.174525,-26.706446],[-56.173612,-26.707312],[-56.173344,-26.705099],[-56.172269,-26.704564],[-56.172047,-26.704983],[-56.171347,-26.704943],[-56.170575,-26.705999],[-56.171028,-26.706092],[-56.171581,-26.706989],[-56.170948,-26.706972],[-56.170956,-26.707504],[-56.1703,-26.708042],[-56.169275,-26.707571],[-56.168813,-26.708616],[-56.168337,-26.708929],[-56.168903,-26.709984],[-56.168371,-26.710139],[-56.168216,-26.711249],[-56.167546,-26.710983],[-56.167062,-26.711752],[-56.167348,-26.71207],[-56.167072,-26.712438],[-56.167724,-26.713061],[-56.168318,-26.712703],[-56.168672,-26.712809],[-56.168875,-26.71309],[-56.168643,-26.713513],[-56.169287,-26.713661],[-56.170184,-26.714601],[-56.169498,-26.715545],[-56.170079,-26.716054],[-56.170082,-26.716699],[-56.169652,-26.716909],[-56.169261,-26.716613],[-56.168546,-26.716772],[-56.168417,-26.717796],[-56.168765,-26.718529],[-56.16791,-26.719463],[-56.168294,-26.720526],[-56.168691,-26.720131],[-56.169177,-26.720206],[-56.169213,-26.720915],[-56.168674,-26.721192],[-56.169123,-26.721921],[-56.168706,-26.722645],[-56.168278,-26.722291],[-56.167792,-26.723006],[-56.167743,-26.723759],[-56.166546,-26.723879],[-56.166692,-26.724164],[-56.166223,-26.724215],[-56.165795,-26.724881],[-56.165108,-26.724349],[-56.165019,-26.725129],[-56.164327,-26.724389],[-56.163508,-26.724931],[-56.163246,-26.725552],[-56.163723,-26.726223],[-56.163641,-26.727202],[-56.164292,-26.727707],[-56.163559,-26.727924],[-56.163636,-26.728457],[-56.162782,-26.728362],[-56.163098,-26.728991],[-56.162373,-26.72965],[-56.16269,-26.729959],[-56.163463,-26.729864],[-56.162867,-26.730669],[-56.163241,-26.731023],[-56.162921,-26.731757],[-56.163067,-26.732548],[-56.163798,-26.732769],[-56.163345,-26.733209],[-56.162329,-26.73351],[-56.162455,-26.733975],[-56.16357,-26.73498],[-56.163822,-26.735694],[-56.163079,-26.737712],[-56.16333,-26.738061],[-56.163145,-26.738909],[-56.165555,-26.740426],[-56.16623,-26.740358],[-56.167992,-26.748871],[-56.209357,-26.771602],[-56.207309,-26.780239],[-56.212982,-26.782948],[-56.211623,-26.78614],[-56.216608,-26.78846],[-56.217052,-26.788265],[-56.218464,-26.789027],[-56.221307,-26.789929],[-56.222797,-26.790024],[-56.225428,-26.790734],[-56.226826,-26.790186],[-56.231013,-26.78993],[-56.231949,-26.789101],[-56.234371,-26.800725]]]}}]}
