{"type":"FeatureCollection","name":"distrito","features":[{"type":"Feature","properties":{"clave":"2-15","nombre":"Itacurubí del Rosario"},"geometry":{"type":"Polygon","coordinates":[[[-56.851139,-24.642489],[-56.851978,-24.643233],[-56.853001,-24.64345],[-56.853684,-24.643019],[-56.853895,-24.641508],[-56.854587,-24.641047],[-56.855163,-24.641457],[-56.855868,-24.641458],[-56.857662,-24.64064],[-56.858879,-24.641402],[-56.859712,-24.641227],[-56.860609,-24.640408],[-56.861314,-24.640233],[-56.862786,-24.641054],[-56.86336,-24.643865],[-56.864447,-24.645857],[-56.864829,-24.647789],[-56.865788,-24.649839],[-56.871099,-24.655464],[-56.872572,-24.656109],[-56.873981,-24.655935],[-56.875327,-24.655175],[-56.878403,-24.654651],[-56.879745,-24.657228],[-56.879424,-24.658867],[-56.880255,-24.660331],[-56.8816,-24.661152],[-56.886339,-24.662853],[-56.889758,-24.663511],[-56.888677,-24.665235],[-56.888401,-24.667074],[-56.887576,-24.668245],[-56.885745,-24.668829],[-56.88483,-24.668745],[-56.88167,-24.670708],[-56.875255,-24.678481],[-56.873974,-24.678898],[-56.872326,-24.678395],[-56.868668,-24.675799],[-56.867478,-24.675714],[-56.86647,-24.676299],[-56.866377,-24.67747],[-56.865003,-24.678639],[-56.862074,-24.678135],[-56.85997,-24.677296],[-56.857407,-24.677127],[-56.855484,-24.677543],[-56.853927,-24.678462],[-56.852551,-24.681053],[-56.851452,-24.681888],[-56.849895,-24.68264],[-56.847606,-24.682554],[-56.846416,-24.682803],[-56.845636,-24.684266],[-56.845817,-24.686274],[-56.851304,-24.690545],[-56.852492,-24.692303],[-56.852125,-24.693055],[-56.851484,-24.693138],[-56.847732,-24.692047],[-56.846451,-24.691209],[-56.845261,-24.691124],[-56.844803,-24.691542],[-56.850381,-24.696734],[-56.851571,-24.697404],[-56.855873,-24.697575],[-56.857154,-24.698162],[-56.858528,-24.697996],[-56.860582,-24.698604],[-56.872004,-24.691323],[-56.887137,-24.684899],[-56.894275,-24.681329],[-56.896417,-24.6829],[-56.902984,-24.684613],[-56.907124,-24.690324],[-56.906982,-24.695178],[-56.90584,-24.698747],[-56.904983,-24.7056],[-56.900129,-24.712738],[-56.890849,-24.728014],[-56.901557,-24.736438],[-56.963375,-24.728157],[-57.004635,-24.719734],[-57.033474,-24.714594],[-57.033188,-24.711882],[-57.029762,-24.706885],[-57.025479,-24.698319],[-57.025193,-24.697034],[-57.025764,-24.693607],[-57.025764,-24.691323],[-57.025479,-24.687183],[-57.024479,-24.684613],[-57.018626,-24.677332],[-57.0152,-24.674048],[-57.0152,-24.672906],[-57.018769,-24.665768],[-57.025193,-24.658201],[-56.972798,-24.564831],[-56.968229,-24.557122],[-56.982458,-24.535926],[-56.913697,-24.520688],[-56.916267,-24.495989],[-56.917267,-24.489279],[-56.916817,-24.484674],[-56.886286,-24.494276],[-56.867155,-24.49756],[-56.853735,-24.49242],[-56.841171,-24.49242],[-56.833319,-24.500415],[-56.807907,-24.500272],[-56.79777,-24.493848],[-56.800054,-24.481427],[-56.776926,-24.472432],[-56.757795,-24.45787],[-56.73886,-24.459096],[-56.738881,-24.459368],[-56.735856,-24.458406],[-56.735445,-24.457877],[-56.734149,-24.457382],[-56.733409,-24.456514],[-56.7309,-24.454924],[-56.729871,-24.454945],[-56.728472,-24.454283],[-56.726166,-24.453823],[-56.720399,-24.454589],[-56.714261,-24.454763],[-56.712489,-24.455477],[-56.709936,-24.455473],[-56.707296,-24.456994],[-56.704082,-24.457855],[-56.701158,-24.457677],[-56.698898,-24.455618],[-56.693502,-24.455381],[-56.681925,-24.456943],[-56.680483,-24.457337],[-56.676029,-24.459793],[-56.674112,-24.460453],[-56.67267,-24.460468],[-56.666373,-24.458851],[-56.663819,-24.458845],[-56.66217,-24.459672],[-56.660352,-24.461515],[-56.657837,-24.462544],[-56.657585,-24.464318],[-56.656822,-24.464863],[-56.654267,-24.465101],[-56.653485,-24.464909],[-56.649209,-24.462298],[-56.648077,-24.462241],[-56.647914,-24.461333],[-56.646846,-24.46041],[-56.646418,-24.458918],[-56.644834,-24.458657],[-56.643461,-24.459303],[-56.641214,-24.4596],[-56.6393,-24.459112],[-56.635607,-24.456503],[-56.633364,-24.45553],[-56.628748,-24.452676],[-56.623408,-24.448914],[-56.622751,-24.447461],[-56.611154,-24.437158],[-56.63338,-24.499778],[-56.640023,-24.511851],[-56.612632,-24.521262],[-56.579511,-24.533324],[-56.598102,-24.553281],[-56.599908,-24.555927],[-56.600469,-24.558024],[-56.601849,-24.558583],[-56.601495,-24.559901],[-56.602475,-24.56031],[-56.6029,-24.561643],[-56.604602,-24.562334],[-56.605222,-24.563356],[-56.606391,-24.563612],[-56.608254,-24.565319],[-56.609455,-24.565761],[-56.612966,-24.565043],[-56.616011,-24.566595],[-56.617182,-24.566358],[-56.617894,-24.566825],[-56.619406,-24.567109],[-56.622853,-24.569448],[-56.623668,-24.570674],[-56.626491,-24.573151],[-56.62955,-24.578455],[-56.630541,-24.584189],[-56.630378,-24.585804],[-56.629521,-24.586977],[-56.630522,-24.587584],[-56.631916,-24.587832],[-56.634847,-24.589225],[-56.636192,-24.589522],[-56.640022,-24.589016],[-56.645703,-24.591288],[-56.647046,-24.592077],[-56.647338,-24.592678],[-56.648219,-24.592165],[-56.648484,-24.593778],[-56.649021,-24.594181],[-56.648849,-24.594384],[-56.649238,-24.595256],[-56.654177,-24.596379],[-56.65829,-24.598668],[-56.660804,-24.598457],[-56.662848,-24.598877],[-56.663853,-24.600708],[-56.664658,-24.601198],[-56.664987,-24.601953],[-56.666063,-24.60252],[-56.668522,-24.602306],[-56.672348,-24.601456],[-56.673257,-24.601517],[-56.676381,-24.605561],[-56.683493,-24.613144],[-56.684007,-24.614319],[-56.68482,-24.615039],[-56.687338,-24.619944],[-56.688977,-24.625091],[-56.694155,-24.63165],[-56.695105,-24.633507],[-56.698801,-24.638943],[-56.700501,-24.640702],[-56.701586,-24.641035],[-56.704115,-24.643025],[-56.706309,-24.643622],[-56.710624,-24.648884],[-56.71734,-24.65295],[-56.719087,-24.657535],[-56.722337,-24.662757],[-56.727621,-24.670219],[-56.728844,-24.670594],[-56.733742,-24.667994],[-56.73417,-24.65868],[-56.734836,-24.658497],[-56.734453,-24.657537],[-56.734576,-24.656399],[-56.735741,-24.656401],[-56.737376,-24.653744],[-56.742969,-24.651413],[-56.745199,-24.648267],[-56.746008,-24.645885],[-56.748463,-24.646782],[-56.752532,-24.650887],[-56.752935,-24.653123],[-56.752116,-24.654985],[-56.750881,-24.661317],[-56.752257,-24.664622],[-56.752254,-24.666112],[-56.753991,-24.670903],[-56.755345,-24.671757],[-56.758994,-24.673252],[-56.767985,-24.671777],[-56.773803,-24.661996],[-56.778723,-24.654911],[-56.778508,-24.653358],[-56.776812,-24.651405],[-56.776553,-24.649932],[-56.777123,-24.648101],[-56.778346,-24.646192],[-56.78092,-24.643728],[-56.784102,-24.642777],[-56.792499,-24.642378],[-56.809212,-24.643518],[-56.81614,-24.644644],[-56.821031,-24.645768],[-56.823478,-24.644653],[-56.824129,-24.643784],[-56.826394,-24.644185],[-56.826958,-24.645738],[-56.828367,-24.646894],[-56.829997,-24.648014],[-56.83131,-24.648172],[-56.834712,-24.645389],[-56.840336,-24.6429],[-56.842717,-24.642408],[-56.845262,-24.642315],[-56.847807,-24.642677],[-56.848462,-24.643253],[-56.849669,-24.642919],[-56.850983,-24.641817],[-56.851139,-24.642489]]]}}]}
