{"type":"FeatureCollection","name":"distrito","features":[{"type":"Feature","properties":{"clave":"15-3","nombre":"José Falcón"},"geometry":{"type":"Polygon","coordinates":[[[-57.723665,-25.266357],[-57.724991,-25.262161],[-57.72601,-25.260801],[-57.729785,-25.258343],[-57.730016,-25.257063],[-57.728989,-25.255539],[-57.72822,-25.255094],[-57.727361,-25.255418],[-57.725973,-25.256747],[-57.725254,-25.25709],[-57.724287,-25.257115],[-57.723172,-25.256129],[-57.722577,-25.255106],[-57.722609,-25.253423],[-57.723064,-25.252633],[-57.723852,-25.252615],[-57.725344,-25.253955],[-57.726418,-25.254089],[-57.727084,-25.249966],[-57.7286,-25.246573],[-57.729188,-25.246432],[-57.729507,-25.246643],[-57.730325,-25.247683],[-57.732021,-25.248979],[-57.733846,-25.251486],[-57.735088,-25.252345],[-57.738349,-25.253816],[-57.740595,-25.25362],[-57.741207,-25.252771],[-57.7407,-25.25169],[-57.73809,-25.2497],[-57.735767,-25.246787],[-57.736057,-25.244244],[-57.739024,-25.242466],[-57.739565,-25.241461],[-57.73928,-25.240523],[-57.73699,-25.239837],[-57.735214,-25.238208],[-57.734925,-25.236916],[-57.735812,-25.234415],[-57.736888,-25.233606],[-57.737712,-25.233624],[-57.73841,-25.233996],[-57.738722,-25.234763],[-57.738621,-25.235615],[-57.73767,-25.237403],[-57.737943,-25.237879],[-57.73832,-25.23794],[-57.739654,-25.237532],[-57.741937,-25.237353],[-57.743107,-25.236786],[-57.743127,-25.236107],[-57.741984,-25.233457],[-57.742492,-25.232708],[-57.743837,-25.233161],[-57.747098,-25.23521],[-57.747661,-25.235388],[-57.748408,-25.235056],[-57.749658,-25.233985],[-57.749891,-25.233402],[-57.749467,-25.23317],[-57.748425,-25.233578],[-57.747557,-25.233436],[-57.744822,-25.231588],[-57.743977,-25.229955],[-57.744241,-25.228369],[-57.745026,-25.227761],[-57.745802,-25.227758],[-57.74764,-25.22941],[-57.748814,-25.229723],[-57.748724,-25.227926],[-57.749344,-25.227701],[-57.751051,-25.228155],[-57.751682,-25.22776],[-57.751145,-25.224635],[-57.751508,-25.223987],[-57.752304,-25.223654],[-57.754804,-25.224027],[-57.755215,-25.223812],[-57.755246,-25.222909],[-57.753549,-25.221451],[-57.754191,-25.220089],[-57.755021,-25.219609],[-57.755826,-25.219546],[-57.758423,-25.220561],[-57.759221,-25.21999],[-57.760013,-25.217108],[-57.759653,-25.216199],[-57.75774,-25.216029],[-57.753472,-25.217488],[-57.751548,-25.217508],[-57.750702,-25.217034],[-57.750535,-25.21644],[-57.751257,-25.215916],[-57.752869,-25.216483],[-57.753243,-25.216301],[-57.751984,-25.213498],[-57.752378,-25.212552],[-57.753129,-25.212622],[-57.755412,-25.21451],[-57.756327,-25.214571],[-57.756598,-25.214329],[-57.756704,-25.212756],[-57.757414,-25.210451],[-57.755833,-25.208578],[-57.755071,-25.208316],[-57.75327,-25.208387],[-57.751129,-25.209623],[-57.750124,-25.209787],[-57.748532,-25.206717],[-57.748906,-25.205808],[-57.749643,-25.205432],[-57.753243,-25.206271],[-57.754601,-25.205595],[-57.754389,-25.204944],[-57.752513,-25.204856],[-57.751475,-25.203514],[-57.749794,-25.202809],[-57.749334,-25.202259],[-57.749298,-25.195685],[-57.749591,-25.195366],[-57.750519,-25.195214],[-57.754147,-25.196781],[-57.755959,-25.196773],[-57.756003,-25.196147],[-57.755294,-25.195605],[-57.755324,-25.19533],[-57.756698,-25.194796],[-57.757081,-25.193797],[-57.756173,-25.193331],[-57.753619,-25.193534],[-57.752758,-25.192764],[-57.752602,-25.192011],[-57.753361,-25.191242],[-57.754833,-25.190611],[-57.756796,-25.190656],[-57.757136,-25.189032],[-57.75867,-25.187179],[-57.758654,-25.185941],[-57.758015,-25.184851],[-57.756815,-25.183976],[-57.754642,-25.183178],[-57.752688,-25.181355],[-57.752478,-25.178281],[-57.753203,-25.176805],[-57.753855,-25.176185],[-57.754452,-25.176181],[-57.755406,-25.17918],[-57.756416,-25.17979],[-57.757621,-25.179943],[-57.75797,-25.179824],[-57.758062,-25.179168],[-57.756558,-25.177692],[-57.75657,-25.176941],[-57.757788,-25.176106],[-57.759926,-25.176345],[-57.76122,-25.175632],[-57.760897,-25.171987],[-57.761269,-25.171522],[-57.762276,-25.171581],[-57.764249,-25.170732],[-57.76492,-25.170781],[-57.7674,-25.17276],[-57.768397,-25.172959],[-57.76936,-25.170795],[-57.771258,-25.170141],[-57.77196,-25.169221],[-57.771589,-25.168399],[-57.769578,-25.16823],[-57.769107,-25.167902],[-57.769998,-25.166593],[-57.769949,-25.164737],[-57.770738,-25.164324],[-57.772535,-25.164056],[-57.773848,-25.162783],[-57.775962,-25.161776],[-57.775934,-25.161045],[-57.775262,-25.159647],[-57.777,-25.158448],[-57.776563,-25.155678],[-57.778621,-25.153469],[-57.78,-25.152513],[-57.782297,-25.152556],[-57.784602,-25.151729],[-57.786766,-25.151941],[-57.788235,-25.153709],[-57.789368,-25.154137],[-57.79095,-25.155368],[-57.79172,-25.155387],[-57.79224,-25.154285],[-57.790292,-25.152909],[-57.78967,-25.151591],[-57.789639,-25.150628],[-57.790124,-25.14981],[-57.791292,-25.149753],[-57.792996,-25.151723],[-57.794561,-25.150229],[-57.796639,-25.149401],[-57.797026,-25.148663],[-57.79779,-25.148185],[-57.798441,-25.148405],[-57.798908,-25.149702],[-57.799365,-25.149942],[-57.801114,-25.149631],[-57.801998,-25.149074],[-57.802578,-25.148227],[-57.802516,-25.147339],[-57.801537,-25.145777],[-57.801849,-25.145075],[-57.80274,-25.145464],[-57.80352,-25.147253],[-57.805105,-25.148173],[-57.805494,-25.147563],[-57.805469,-25.146439],[-57.804949,-25.143833],[-57.806997,-25.142251],[-57.809368,-25.142649],[-57.809933,-25.143323],[-57.811099,-25.14643],[-57.812198,-25.147649],[-57.812917,-25.147777],[-57.813311,-25.147151],[-57.813373,-25.144036],[-57.814419,-25.14324],[-57.816691,-25.142799],[-57.817398,-25.140942],[-57.817314,-25.139391],[-57.817668,-25.138808],[-57.818114,-25.138785],[-57.82159,-25.141926],[-57.822267,-25.142041],[-57.822628,-25.141734],[-57.823956,-25.139434],[-57.823974,-25.138324],[-57.823038,-25.136281],[-57.823021,-25.135544],[-57.824598,-25.134303],[-57.826294,-25.130598],[-57.82753,-25.130676],[-57.827517,-25.132355],[-57.828428,-25.132615],[-57.829871,-25.130794],[-57.829993,-25.12906],[-57.831258,-25.128679],[-57.831841,-25.12915],[-57.833677,-25.13219],[-57.835238,-25.132035],[-57.836778,-25.131503],[-57.836881,-25.130848],[-57.835162,-25.129479],[-57.834985,-25.127465],[-57.835533,-25.127007],[-57.837946,-25.126985],[-57.839805,-25.126069],[-57.840139,-25.12536],[-57.839588,-25.12494],[-57.837031,-25.12473],[-57.836888,-25.123805],[-57.838225,-25.12323],[-57.840374,-25.123312],[-57.840602,-25.122211],[-57.840185,-25.120674],[-57.840648,-25.120323],[-57.84207,-25.120454],[-57.844202,-25.121328],[-57.845074,-25.120978],[-57.845354,-25.120094],[-57.843802,-25.118173],[-57.844354,-25.117337],[-57.845663,-25.11716],[-57.847872,-25.118362],[-57.848607,-25.118078],[-57.848697,-25.117359],[-57.848154,-25.116367],[-57.845107,-25.114606],[-57.843686,-25.112428],[-57.844216,-25.111826],[-57.847351,-25.110972],[-57.850683,-25.109449],[-57.851021,-25.109025],[-57.851136,-25.108581],[-57.850699,-25.108036],[-57.847799,-25.108031],[-57.847202,-25.107505],[-57.847348,-25.106526],[-57.847927,-25.105977],[-57.848705,-25.105741],[-57.850372,-25.105851],[-57.850974,-25.105184],[-57.850622,-25.104848],[-57.849508,-25.10495],[-57.848768,-25.104613],[-57.848002,-25.103068],[-57.84729,-25.102662],[-57.846774,-25.101907],[-57.846992,-25.101366],[-57.848676,-25.100851],[-57.848777,-25.099039],[-57.848105,-25.097306],[-57.84852,-25.097083],[-57.849699,-25.097679],[-57.852982,-25.09821],[-57.854173,-25.09893],[-57.854953,-25.098675],[-57.855937,-25.096423],[-57.855246,-25.09631],[-57.854083,-25.097224],[-57.852868,-25.096861],[-57.851084,-25.09426],[-57.850939,-25.093615],[-57.851805,-25.093355],[-57.853302,-25.093593],[-57.855305,-25.092416],[-57.856487,-25.091178],[-57.858831,-25.090186],[-57.859729,-25.088677],[-57.859483,-25.088173],[-57.858249,-25.087853],[-57.856311,-25.088601],[-57.855587,-25.088239],[-57.855432,-25.087755],[-57.85976,-25.085391],[-57.860219,-25.084779],[-57.860897,-25.081848],[-57.861357,-25.081425],[-57.861904,-25.081516],[-57.862321,-25.08213],[-57.862788,-25.08424],[-57.86424,-25.084128],[-57.865816,-25.083022],[-57.867394,-25.083289],[-57.869006,-25.084073],[-57.87037,-25.084013],[-57.870737,-25.083411],[-57.870185,-25.081513],[-57.870579,-25.080686],[-57.87154,-25.080661],[-57.872542,-25.082341],[-57.872928,-25.082656],[-57.873637,-25.08258],[-57.875591,-25.081278],[-57.877439,-25.081123],[-57.878187,-25.078738],[-57.880063,-25.078157],[-57.88081,-25.078302],[-57.881783,-25.079132],[-57.882306,-25.079075],[-57.882536,-25.078672],[-57.882117,-25.07705],[-57.883042,-25.075885],[-57.88406,-25.075591],[-57.88447,-25.075853],[-57.884959,-25.076988],[-57.88689,-25.07659],[-57.887833,-25.076847],[-57.888652,-25.077528],[-57.888529,-25.078435],[-57.888136,-25.078879],[-57.886758,-25.079341],[-57.886306,-25.079765],[-57.886053,-25.080461],[-57.886393,-25.081247],[-57.887595,-25.081169],[-57.888209,-25.079774],[-57.888859,-25.07918],[-57.890196,-25.078765],[-57.890654,-25.079405],[-57.890816,-25.081259],[-57.890576,-25.082079],[-57.890835,-25.082543],[-57.891395,-25.082521],[-57.892748,-25.080019],[-57.893415,-25.079647],[-57.894292,-25.080865],[-57.894891,-25.082967],[-57.895218,-25.083419],[-57.895849,-25.083614],[-57.896752,-25.083223],[-57.897086,-25.082596],[-57.896159,-25.081096],[-57.896167,-25.080496],[-57.898775,-25.07924],[-57.903843,-25.077991],[-57.906965,-25.079815],[-57.907372,-25.079876],[-57.907918,-25.079484],[-57.908362,-25.077804],[-57.908208,-25.077244],[-57.906073,-25.077483],[-57.905019,-25.075761],[-57.905081,-25.074572],[-57.905687,-25.073771],[-57.906444,-25.073355],[-57.906967,-25.073321],[-57.908238,-25.07445],[-57.91068,-25.07468],[-57.91258,-25.075786],[-57.91437,-25.075966],[-57.916161,-25.077831],[-57.919244,-25.076568],[-57.921485,-25.074273],[-57.923583,-25.073267],[-57.923631,-25.074655],[-57.92476,-25.075264],[-57.925393,-25.077112],[-57.927773,-25.077028],[-57.929611,-25.077894],[-57.93124,-25.07803],[-57.931854,-25.077786],[-57.932322,-25.076572],[-57.932353,-25.075941],[-57.931733,-25.075313],[-57.931834,-25.074744],[-57.934255,-25.072154],[-57.9348,-25.072151],[-57.935256,-25.072717],[-57.935444,-25.074671],[-57.936885,-25.075368],[-57.940738,-25.07193],[-57.941715,-25.071681],[-57.942882,-25.072351],[-57.943659,-25.073488],[-57.94313,-25.076365],[-57.943149,-25.077153],[-57.943643,-25.077918],[-57.946163,-25.077553],[-57.949744,-25.07884],[-57.952866,-25.080606],[-57.953674,-25.080129],[-57.953917,-25.079478],[-57.95286,-25.078502],[-57.953528,-25.075685],[-57.954437,-25.075567],[-57.955826,-25.076517],[-57.957137,-25.076974],[-57.957928,-25.076625],[-57.95596,-25.074724],[-57.956079,-25.073798],[-57.956741,-25.072885],[-57.957503,-25.072958],[-57.958271,-25.073529],[-57.958764,-25.075009],[-57.960337,-25.075569],[-57.960496,-25.076811],[-57.960865,-25.07715],[-57.961188,-25.077101],[-57.962006,-25.076026],[-57.962853,-25.075937],[-57.963778,-25.078166],[-57.964546,-25.078803],[-57.96496,-25.078346],[-57.964981,-25.076125],[-57.965526,-25.075293],[-57.966739,-25.075399],[-57.966752,-25.075937],[-57.966112,-25.076909],[-57.966145,-25.077707],[-57.966625,-25.078148],[-57.967294,-25.078248],[-57.967958,-25.077977],[-57.968231,-25.076507],[-57.968638,-25.076258],[-57.970423,-25.076774],[-57.971753,-25.07774],[-57.971755,-25.078734],[-57.971078,-25.078956],[-57.970283,-25.077437],[-57.969494,-25.077357],[-57.969757,-25.079115],[-57.96834,-25.080108],[-57.968265,-25.081187],[-57.96912,-25.082051],[-57.970859,-25.082899],[-57.972612,-25.082145],[-57.974254,-25.082734],[-57.974783,-25.083629],[-57.974032,-25.084635],[-57.974006,-25.085355],[-57.974607,-25.085951],[-57.975359,-25.086182],[-57.976373,-25.085667],[-57.978175,-25.083676],[-57.97899,-25.083614],[-57.979798,-25.084083],[-57.981259,-25.083658],[-57.982494,-25.082334],[-57.984625,-25.083467],[-57.985619,-25.083365],[-57.986012,-25.082947],[-57.985968,-25.081365],[-57.986565,-25.079901],[-57.989059,-25.081736],[-57.990854,-25.081764],[-57.991369,-25.081336],[-57.991253,-25.080872],[-57.99029,-25.080214],[-57.98985,-25.07938],[-57.990712,-25.075653],[-57.991188,-25.074836],[-57.991887,-25.074642],[-57.992571,-25.074911],[-57.994231,-25.076466],[-57.994782,-25.076017],[-57.994815,-25.074492],[-57.995816,-25.074117],[-57.99742,-25.072617],[-57.998186,-25.072725],[-57.999097,-25.074373],[-57.999681,-25.074165],[-57.999673,-25.072945],[-58.000198,-25.072097],[-57.999956,-25.070206],[-58.00107,-25.066163],[-58.000506,-25.065986],[-57.999529,-25.066731],[-57.998808,-25.066802],[-57.9978,-25.066542],[-57.997357,-25.066071],[-57.99701,-25.065061],[-57.99774,-25.064633],[-57.998971,-25.06456],[-57.99957,-25.063046],[-57.999358,-25.062526],[-57.99894,-25.062415],[-57.997394,-25.063045],[-57.996778,-25.062928],[-57.996762,-25.062323],[-57.997399,-25.062121],[-57.997761,-25.061598],[-57.996106,-25.059704],[-57.998261,-25.057352],[-57.998174,-25.056824],[-57.996952,-25.055793],[-57.997009,-25.055129],[-57.997815,-25.053681],[-57.99839,-25.053444],[-57.999485,-25.054765],[-58.000359,-25.054704],[-58.000648,-25.054144],[-57.999801,-25.052457],[-58.001173,-25.052044],[-58.002156,-25.049542],[-58.003669,-25.049106],[-58.004261,-25.048639],[-58.003966,-25.048186],[-58.002197,-25.047508],[-58.001894,-25.046965],[-58.002561,-25.04569],[-58.002883,-25.045508],[-58.004052,-25.045755],[-58.004498,-25.045421],[-58.003806,-25.043493],[-58.004358,-25.041834],[-58.003588,-25.040957],[-58.004858,-25.039477],[-58.004572,-25.039006],[-58.003089,-25.038446],[-58.002765,-25.037693],[-58.004677,-25.036999],[-58.005942,-25.034942],[-58.007749,-25.03522],[-58.008472,-25.036319],[-58.0103,-25.037905],[-58.010729,-25.039881],[-58.011297,-25.040794],[-58.012512,-25.04057],[-58.012916,-25.039943],[-58.012761,-25.038988],[-58.012123,-25.038286],[-58.012235,-25.037889],[-58.01292,-25.037842],[-58.014868,-25.03855],[-58.015152,-25.038878],[-58.014781,-25.041057],[-58.016104,-25.041967],[-58.016686,-25.041369],[-58.016057,-25.039782],[-58.016338,-25.038152],[-58.016763,-25.037648],[-58.017545,-25.037923],[-58.01735,-25.040165],[-58.017615,-25.040523],[-58.018445,-25.040594],[-58.020049,-25.0391],[-58.021186,-25.040568],[-58.022639,-25.041173],[-58.02366,-25.040459],[-58.023768,-25.03969],[-58.023243,-25.0383],[-58.023696,-25.037779],[-58.024506,-25.037861],[-58.025176,-25.03834],[-58.026246,-25.037728],[-58.027751,-25.037976],[-58.028103,-25.037736],[-58.028184,-25.036309],[-58.028571,-25.035909],[-58.031526,-25.035655],[-58.032346,-25.036255],[-58.031446,-25.038101],[-58.03165,-25.039234],[-58.032318,-25.039288],[-58.03373,-25.038229],[-58.034517,-25.038053],[-58.035079,-25.038519],[-58.034784,-25.039653],[-58.035133,-25.040321],[-58.035644,-25.040356],[-58.03769,-25.039383],[-58.038154,-25.039912],[-58.038116,-25.04033],[-58.037248,-25.041235],[-58.037732,-25.04197],[-58.038675,-25.040923],[-58.039364,-25.040796],[-58.040384,-25.04218],[-58.042045,-25.041704],[-58.043137,-25.042481],[-58.044863,-25.042986],[-58.046866,-25.041712],[-58.046989,-25.0414],[-58.046371,-25.039806],[-58.046741,-25.038943],[-58.048021,-25.038253],[-58.048938,-25.038154],[-58.049061,-25.038736],[-58.048692,-25.039593],[-58.049988,-25.040455],[-58.053332,-25.040026],[-58.054951,-25.040415],[-58.054959,-25.041541],[-58.053574,-25.041236],[-58.052525,-25.04182],[-58.052581,-25.042125],[-58.053494,-25.04263],[-58.054177,-25.043759],[-58.054711,-25.043605],[-58.05639,-25.042075],[-58.057468,-25.042047],[-58.057012,-25.043866],[-58.058259,-25.045845],[-58.058552,-25.045891],[-58.058892,-25.045359],[-58.059447,-25.042533],[-58.060564,-25.041084],[-58.061424,-25.040481],[-58.061832,-25.040479],[-58.06361,-25.041632],[-58.065957,-25.040974],[-58.06646,-25.041161],[-58.06631,-25.044856],[-58.066705,-25.045248],[-58.068797,-25.045437],[-58.068775,-25.043753],[-58.071123,-25.043843],[-58.070493,-25.041992],[-58.070746,-25.041077],[-58.071716,-25.040857],[-58.073136,-25.039994],[-58.07464,-25.039839],[-58.074193,-25.038415],[-58.074542,-25.037648],[-58.075145,-25.037578],[-58.076327,-25.038025],[-58.077264,-25.037773],[-58.077397,-25.035285],[-58.076988,-25.034976],[-58.075112,-25.034994],[-58.074253,-25.034339],[-58.074092,-25.033764],[-58.074452,-25.033328],[-58.076344,-25.033947],[-58.078805,-25.032299],[-58.077546,-25.02997],[-58.077911,-25.029679],[-58.078906,-25.029693],[-58.079259,-25.029265],[-58.078912,-25.029012],[-58.077267,-25.02898],[-58.076814,-25.028294],[-58.077599,-25.027486],[-58.079539,-25.027123],[-58.079982,-25.026497],[-58.080097,-25.02529],[-58.079536,-25.024375],[-58.078222,-25.023276],[-58.078068,-25.022415],[-58.078867,-25.021669],[-58.079473,-25.021609],[-58.081167,-25.02378],[-58.081932,-25.023974],[-58.082669,-25.02363],[-58.082994,-25.022575],[-58.082086,-25.021452],[-58.084128,-25.019197],[-58.084081,-25.018331],[-58.08317,-25.018019],[-58.082888,-25.017627],[-58.083973,-25.016809],[-58.083893,-25.015238],[-58.084663,-25.014902],[-58.086744,-25.015843],[-58.088313,-25.015238],[-58.08791,-25.014654],[-58.086046,-25.014553],[-58.085408,-25.0131],[-58.085631,-25.012311],[-58.086887,-25.012066],[-58.088868,-25.012706],[-58.090811,-25.011945],[-58.091151,-25.011278],[-58.090454,-25.01032],[-58.090245,-25.008998],[-58.090964,-25.008654],[-58.092459,-25.009538],[-58.094237,-25.008886],[-58.094812,-25.008941],[-58.095397,-25.01016],[-58.096506,-25.010886],[-58.096146,-25.011437],[-58.094703,-25.012363],[-58.094753,-25.013326],[-58.095297,-25.013415],[-58.097276,-25.011955],[-58.098338,-25.011861],[-58.098563,-25.012381],[-58.097539,-25.013224],[-58.097484,-25.013998],[-58.099635,-25.014747],[-58.100413,-25.0146],[-58.100429,-25.011648],[-58.100698,-25.011288],[-58.101275,-25.011657],[-58.101517,-25.013509],[-58.102299,-25.01389],[-58.10304,-25.013487],[-58.103091,-25.01257],[-58.103574,-25.012554],[-58.104011,-25.013093],[-58.104609,-25.01325],[-58.105629,-25.012055],[-58.106179,-25.011833],[-58.107209,-25.013081],[-58.107074,-25.015667],[-58.107847,-25.015966],[-58.108832,-25.015837],[-58.11017,-25.014446],[-58.110973,-25.014619],[-58.111625,-25.015221],[-58.111425,-25.016131],[-58.110352,-25.016651],[-58.110055,-25.017105],[-58.110315,-25.017601],[-58.112475,-25.017394],[-58.112929,-25.018072],[-58.112669,-25.019386],[-58.112899,-25.019572],[-58.114104,-25.018448],[-58.117032,-25.019022],[-58.117749,-25.018558],[-58.118371,-25.01699],[-58.11838,-25.013503],[-58.118638,-25.012896],[-58.120037,-25.013145],[-58.121143,-25.012696],[-58.122807,-25.012823],[-58.124911,-25.012429],[-58.125478,-25.012709],[-58.125297,-25.013971],[-58.125578,-25.014739],[-58.127343,-25.015043],[-58.127639,-25.014672],[-58.12637,-25.013369],[-58.126375,-25.01255],[-58.126949,-25.012339],[-58.127599,-25.012672],[-58.129174,-25.014258],[-58.129858,-25.014559],[-58.130175,-25.014231],[-58.128992,-25.012544],[-58.129506,-25.011496],[-58.130175,-25.010995],[-58.130644,-25.011188],[-58.131111,-25.012181],[-58.132548,-25.010729],[-58.134038,-25.010122],[-58.135541,-25.011271],[-58.137301,-25.011588],[-58.137774,-25.010661],[-58.136969,-25.009572],[-58.13482,-25.009413],[-58.134281,-25.009036],[-58.134896,-25.008382],[-58.137109,-25.007859],[-58.13772,-25.006812],[-58.137429,-25.006263],[-58.135971,-25.006113],[-58.136128,-25.004791],[-58.135568,-25.003623],[-58.136459,-25.00286],[-58.13594,-25.002252],[-58.13596,-25.001783],[-58.137693,-25.001504],[-58.138145,-25.000716],[-58.137747,-25.000357],[-58.136212,-25.000164],[-58.135484,-24.999619],[-58.135598,-24.997281],[-58.136223,-24.997092],[-58.136535,-24.998401],[-58.137173,-24.998774],[-58.138968,-24.997561],[-58.13929,-24.997234],[-58.139202,-24.996757],[-58.136988,-24.99675],[-58.136216,-24.996256],[-58.136574,-24.995896],[-58.138058,-24.995974],[-58.138677,-24.995689],[-58.138411,-24.995278],[-58.137234,-24.994752],[-58.137157,-24.994081],[-58.139477,-24.994168],[-58.139985,-24.993611],[-58.139607,-24.99094],[-58.137801,-24.989457],[-58.13776,-24.988705],[-58.138182,-24.987865],[-58.139244,-24.98766],[-58.140376,-24.988127],[-58.141282,-24.989193],[-58.14292,-24.989237],[-58.144117,-24.98989],[-58.144449,-24.989314],[-58.142662,-24.987587],[-58.142355,-24.986646],[-58.142891,-24.986491],[-58.143865,-24.987091],[-58.14628,-24.987053],[-58.14648,-24.986629],[-58.145716,-24.985029],[-58.146146,-24.984892],[-58.147224,-24.985343],[-58.147957,-24.983236],[-58.148443,-24.982636],[-58.149115,-24.982509],[-58.150663,-24.983192],[-58.153147,-24.981931],[-58.153492,-24.981472],[-58.153487,-24.980787],[-58.153014,-24.980585],[-58.152094,-24.981048],[-58.15028,-24.980237],[-58.150243,-24.977779],[-58.149541,-24.976188],[-58.149942,-24.975045],[-58.15063,-24.974595],[-58.151795,-24.974751],[-58.152609,-24.976284],[-58.153043,-24.97664],[-58.153855,-24.976579],[-58.154277,-24.975558],[-58.152959,-24.97521],[-58.152745,-24.974005],[-58.153039,-24.973371],[-58.15445,-24.9734],[-58.156148,-24.972668],[-58.157003,-24.973021],[-58.157856,-24.973958],[-58.158574,-24.974072],[-58.158229,-24.971506],[-58.159212,-24.970725],[-58.159811,-24.970719],[-58.160755,-24.971933],[-58.160893,-24.974131],[-58.161567,-24.974904],[-58.16255,-24.975427],[-58.162811,-24.974951],[-58.162358,-24.973677],[-58.162828,-24.973003],[-58.162363,-24.971414],[-58.16284,-24.971182],[-58.164034,-24.971392],[-58.164474,-24.970665],[-58.164246,-24.969357],[-58.166672,-24.969054],[-58.167931,-24.966915],[-58.169302,-24.966211],[-58.170537,-24.966191],[-58.171217,-24.966762],[-58.171221,-24.96723],[-58.170538,-24.967755],[-58.168988,-24.967374],[-58.168355,-24.967551],[-58.168434,-24.968482],[-58.170932,-24.969876],[-58.171618,-24.969797],[-58.17362,-24.968699],[-58.173872,-24.969114],[-58.172983,-24.970143],[-58.173234,-24.971076],[-58.173629,-24.971297],[-58.174865,-24.970293],[-58.176313,-24.971293],[-58.177265,-24.971348],[-58.177508,-24.971108],[-58.177401,-24.970291],[-58.17634,-24.9688],[-58.176238,-24.968206],[-58.176481,-24.967892],[-58.178034,-24.967436],[-58.17859,-24.967346],[-58.180559,-24.968904],[-58.181577,-24.969222],[-58.182185,-24.967751],[-58.182851,-24.967286],[-58.183929,-24.967234],[-58.183846,-24.968716],[-58.184142,-24.968803],[-58.184935,-24.968162],[-58.185654,-24.968009],[-58.186127,-24.969693],[-58.186903,-24.970505],[-58.187757,-24.970885],[-58.188605,-24.970568],[-58.188709,-24.96904],[-58.190807,-24.967763],[-58.191235,-24.966366],[-58.192725,-24.968163],[-58.193835,-24.967961],[-58.194626,-24.96692],[-58.194734,-24.966313],[-58.192868,-24.964575],[-58.193819,-24.96442],[-58.195229,-24.9649],[-58.195778,-24.96408],[-58.195974,-24.962104],[-58.194724,-24.959739],[-58.194999,-24.959336],[-58.196983,-24.959232],[-58.197841,-24.958247],[-58.197785,-24.957477],[-58.196779,-24.956554],[-58.197647,-24.954022],[-58.198647,-24.953261],[-58.199781,-24.954732],[-58.200908,-24.955143],[-58.203027,-24.954391],[-58.202956,-24.953693],[-58.201404,-24.953804],[-58.200736,-24.953658],[-58.200437,-24.953186],[-58.200397,-24.952639],[-58.201924,-24.949868],[-58.203344,-24.949268],[-58.204298,-24.948165],[-58.204724,-24.948159],[-58.205887,-24.95117],[-58.206435,-24.95167],[-58.20701,-24.95165],[-58.20727,-24.95144],[-58.207189,-24.948676],[-58.208462,-24.9484],[-58.208732,-24.951246],[-58.209043,-24.951618],[-58.209616,-24.951689],[-58.210023,-24.949041],[-58.210927,-24.948161],[-58.210851,-24.949966],[-58.211751,-24.950093],[-58.212706,-24.95099],[-58.217169,-24.95043],[-58.217707,-24.949923],[-58.215555,-24.947681],[-58.214195,-24.945586],[-58.214372,-24.945318],[-58.218395,-24.945689],[-58.21857,-24.945199],[-58.218265,-24.944166],[-58.218674,-24.943998],[-58.220393,-24.944401],[-58.2211,-24.943894],[-58.220357,-24.942173],[-58.22058,-24.941593],[-58.222568,-24.941675],[-58.223487,-24.942323],[-58.224481,-24.942128],[-58.224395,-24.941441],[-58.22302,-24.939555],[-58.22359,-24.93918],[-58.22509,-24.938889],[-58.224906,-24.938415],[-58.22407,-24.937813],[-58.224303,-24.936597],[-58.223696,-24.936231],[-58.221076,-24.936189],[-58.220281,-24.93557],[-58.219961,-24.934899],[-58.220798,-24.933994],[-58.221457,-24.93406],[-58.221711,-24.935004],[-58.222041,-24.935193],[-58.223706,-24.934954],[-58.224858,-24.934388],[-58.224905,-24.934121],[-58.221868,-24.933711],[-58.220598,-24.933178],[-58.220119,-24.932723],[-58.219662,-24.931389],[-58.220058,-24.930499],[-58.220914,-24.930286],[-58.221176,-24.930507],[-58.220693,-24.931588],[-58.221075,-24.932325],[-58.224084,-24.931713],[-58.224639,-24.930037],[-58.224421,-24.927566],[-58.224969,-24.926918],[-58.225937,-24.927225],[-58.226588,-24.928883],[-58.226965,-24.928968],[-58.230561,-24.926197],[-58.231407,-24.926101],[-58.230642,-24.927058],[-58.230532,-24.928156],[-58.230845,-24.929414],[-58.231798,-24.93009],[-58.233753,-24.928917],[-58.235482,-24.926919],[-58.236472,-24.927979],[-58.237011,-24.927871],[-58.237967,-24.926945],[-58.238359,-24.926942],[-58.238324,-24.928572],[-58.238754,-24.929014],[-58.23926,-24.929098],[-58.24151,-24.928022],[-58.242227,-24.928086],[-58.242328,-24.928354],[-58.241781,-24.928985],[-58.242203,-24.930272],[-58.242205,-24.932288],[-58.242613,-24.932285],[-58.243471,-24.931286],[-58.244613,-24.931231],[-58.245237,-24.933185],[-58.246006,-24.933312],[-58.250006,-24.931668],[-58.25042,-24.931991],[-58.250787,-24.933456],[-58.251665,-24.934445],[-58.252154,-24.934501],[-58.252497,-24.934157],[-58.252767,-24.932079],[-58.253303,-24.931661],[-58.255505,-24.931849],[-58.256315,-24.932777],[-58.255378,-24.933736],[-58.255131,-24.935488],[-58.256118,-24.935896],[-58.257638,-24.935647],[-58.257179,-24.937386],[-58.257385,-24.93838],[-58.258418,-24.938435],[-58.258724,-24.937882],[-58.259149,-24.937746],[-58.259805,-24.938367],[-58.259773,-24.939767],[-58.260374,-24.940683],[-58.261376,-24.939709],[-58.262176,-24.939509],[-58.262377,-24.939924],[-58.261915,-24.941116],[-58.261954,-24.941903],[-58.263027,-24.942845],[-58.263667,-24.943053],[-58.266247,-24.942496],[-58.266675,-24.942832],[-58.266285,-24.944372],[-58.266175,-24.946628],[-58.26641,-24.947027],[-58.266717,-24.946847],[-58.266966,-24.94545],[-58.267584,-24.945279],[-58.268159,-24.945438],[-58.268434,-24.946788],[-58.268831,-24.947245],[-58.270692,-24.946726],[-58.271397,-24.946869],[-58.271455,-24.947848],[-58.271017,-24.949406],[-58.27133,-24.949641],[-58.272866,-24.949391],[-58.273425,-24.949669],[-58.273731,-24.950899],[-58.275752,-24.953289],[-58.276455,-24.953194],[-58.277325,-24.951588],[-58.278404,-24.95177],[-58.278594,-24.952543],[-58.277517,-24.953394],[-58.277057,-24.954571],[-58.277405,-24.954807],[-58.278868,-24.953802],[-58.279893,-24.95376],[-58.279325,-24.955193],[-58.279629,-24.956199],[-58.280104,-24.956462],[-58.280706,-24.956294],[-58.281417,-24.95528],[-58.28181,-24.955469],[-58.28213,-24.956445],[-58.282619,-24.95616],[-58.283762,-24.956185],[-58.28482,-24.955437],[-58.28515,-24.955701],[-58.285269,-24.95669],[-58.28633,-24.95612],[-58.287152,-24.956676],[-58.289087,-24.957151],[-58.289356,-24.957832],[-58.289117,-24.958457],[-58.286754,-24.958132],[-58.286447,-24.95855],[-58.287914,-24.959563],[-58.288148,-24.960185],[-58.288035,-24.961916],[-58.288463,-24.962312],[-58.288728,-24.964119],[-58.289697,-24.964779],[-58.291941,-24.964882],[-58.292402,-24.96513],[-58.292419,-24.96672],[-58.292998,-24.967147],[-58.296127,-24.967566],[-58.295643,-24.968181],[-58.295361,-24.969443],[-58.29423,-24.97086],[-58.294314,-24.971305],[-58.296786,-24.971507],[-58.297013,-24.97181],[-58.296876,-24.972568],[-58.297903,-24.972824],[-58.297711,-24.973964],[-58.298027,-24.974525],[-58.299934,-24.973665],[-58.301771,-24.973979],[-58.30181,-24.974733],[-58.300051,-24.974563],[-58.299387,-24.975293],[-58.299279,-24.975946],[-58.30063,-24.976973],[-58.301345,-24.977068],[-58.302932,-24.975102],[-58.303928,-24.975075],[-58.304438,-24.975379],[-58.304527,-24.976125],[-58.302898,-24.978421],[-58.303447,-24.97941],[-58.304021,-24.979583],[-58.304428,-24.979387],[-58.305803,-24.97785],[-58.306782,-24.977858],[-58.3073,-24.978491],[-58.306572,-24.978902],[-58.306396,-24.979505],[-58.307835,-24.979589],[-58.307865,-24.981107],[-58.308605,-24.981144],[-58.308924,-24.980038],[-58.309378,-24.979764],[-58.310245,-24.979757],[-58.310472,-24.980119],[-58.309738,-24.981113],[-58.309853,-24.981797],[-58.310387,-24.981844],[-58.311276,-24.980787],[-58.312231,-24.980949],[-58.312057,-24.981424],[-58.310972,-24.982144],[-58.311152,-24.983104],[-58.311845,-24.983286],[-58.313603,-24.982508],[-58.314311,-24.982953],[-58.314798,-24.983814],[-58.314677,-24.985514],[-58.314037,-24.985425],[-58.313835,-24.984258],[-58.313365,-24.984008],[-58.313233,-24.985341],[-58.311424,-24.986013],[-58.310843,-24.986984],[-58.311032,-24.987136],[-58.311976,-24.986531],[-58.312332,-24.986714],[-58.312705,-24.988055],[-58.313888,-24.989242],[-58.314487,-24.989221],[-58.315479,-24.988626],[-58.316718,-24.988773],[-58.317685,-24.988399],[-58.320257,-24.989078],[-58.320323,-24.989555],[-58.319247,-24.989571],[-58.318859,-24.990058],[-58.318887,-24.99165],[-58.319527,-24.992586],[-58.320257,-24.992536],[-58.320978,-24.992042],[-58.321352,-24.991342],[-58.321398,-24.990262],[-58.323096,-24.989963],[-58.324195,-24.990289],[-58.324413,-24.990829],[-58.323978,-24.991623],[-58.322931,-24.991123],[-58.322705,-24.993328],[-58.322988,-24.993585],[-58.324132,-24.993255],[-58.325056,-24.993977],[-58.32648,-24.995874],[-58.326796,-24.996787],[-58.326036,-24.998064],[-58.326064,-24.998869],[-58.327006,-24.998936],[-58.328737,-24.997973],[-58.329422,-24.998031],[-58.329593,-24.998766],[-58.329048,-25.000338],[-58.329222,-25.000728],[-58.329854,-25.000969],[-58.330344,-25.000718],[-58.329955,-24.999376],[-58.330741,-24.99802],[-58.331076,-24.998148],[-58.3306,-24.99905],[-58.33074,-24.999456],[-58.331224,-24.999514],[-58.332865,-24.998837],[-58.333455,-25.000147],[-58.333787,-24.999879],[-58.333867,-24.99887],[-58.334373,-24.998496],[-58.335941,-24.998995],[-58.336928,-24.998655],[-58.336991,-24.998147],[-58.335731,-24.997131],[-58.336467,-24.996333],[-58.337477,-24.996113],[-58.337784,-24.997161],[-58.338126,-24.997294],[-58.338809,-24.99625],[-58.339822,-24.996653],[-58.34122,-24.9966],[-58.341789,-24.993431],[-58.341417,-24.993156],[-58.339843,-24.993111],[-58.33949,-24.992373],[-58.341721,-24.992107],[-58.340239,-24.990411],[-58.340256,-24.989984],[-58.340921,-24.989433],[-58.341536,-24.989464],[-58.342448,-24.990663],[-58.343614,-24.990716],[-58.344232,-24.990279],[-58.34258,-24.989564],[-58.343646,-24.989267],[-58.344167,-24.988696],[-58.343609,-24.986459],[-58.344421,-24.986305],[-58.344733,-24.985425],[-58.345314,-24.984946],[-58.346327,-24.985112],[-58.345375,-24.984191],[-58.346256,-24.982353],[-58.345138,-24.981884],[-58.346627,-24.981009],[-58.34685,-24.979408],[-58.345654,-24.978959],[-58.345582,-24.978678],[-58.347241,-24.976822],[-58.34597,-24.975817],[-58.347401,-24.975791],[-58.347033,-24.973781],[-58.348468,-24.97437],[-58.34935,-24.974071],[-58.349372,-24.973773],[-58.348565,-24.973201],[-58.348215,-24.972294],[-58.34863,-24.971604],[-58.349453,-24.972724],[-58.350222,-24.972484],[-58.350266,-24.972086],[-58.349384,-24.971221],[-58.349472,-24.970588],[-58.350612,-24.971266],[-58.351247,-24.970307],[-58.352561,-24.970278],[-58.353027,-24.968417],[-58.355039,-24.968493],[-58.356612,-24.969107],[-58.356841,-24.968721],[-58.356702,-24.967795],[-58.357791,-24.967674],[-58.358643,-24.966731],[-58.360851,-24.967241],[-58.36166,-24.967137],[-58.361749,-24.966532],[-58.36077,-24.965607],[-58.362517,-24.965785],[-58.363035,-24.963628],[-58.364174,-24.964352],[-58.364723,-24.964268],[-58.364552,-24.962138],[-58.365774,-24.961164],[-58.366062,-24.961267],[-58.366388,-24.962761],[-58.366845,-24.963104],[-58.367714,-24.962589],[-58.367735,-24.961469],[-58.368032,-24.961113],[-58.368814,-24.961205],[-58.369871,-24.961972],[-58.370613,-24.96207],[-58.371207,-24.961376],[-58.371226,-24.960931],[-58.37029,-24.961173],[-58.369846,-24.96006],[-58.36906,-24.959271],[-58.370371,-24.958755],[-58.372257,-24.958782],[-58.372581,-24.958446],[-58.372724,-24.957087],[-58.373204,-24.956529],[-58.373478,-24.956602],[-58.373305,-24.957713],[-58.373572,-24.95811],[-58.374305,-24.958098],[-58.375584,-24.957201],[-58.375841,-24.958295],[-58.376206,-24.958601],[-58.37894,-24.957613],[-58.379174,-24.957091],[-58.379007,-24.956253],[-58.380848,-24.956447],[-58.380632,-24.955227],[-58.381861,-24.954398],[-58.383676,-24.955468],[-58.385141,-24.953988],[-58.386133,-24.953461],[-58.387329,-24.954665],[-58.387704,-24.954637],[-58.387802,-24.953818],[-58.388137,-24.953685],[-58.389647,-24.954408],[-58.390028,-24.954319],[-58.389389,-24.953033],[-58.389577,-24.952232],[-58.390211,-24.952223],[-58.391263,-24.953165],[-58.393116,-24.95157],[-58.393214,-24.950454],[-58.39282,-24.949299],[-58.394116,-24.948723],[-58.393252,-24.94685],[-58.393362,-24.946341],[-58.394772,-24.947315],[-58.395109,-24.94711],[-58.395171,-24.945756],[-58.395517,-24.945192],[-58.397986,-24.945492],[-58.398011,-24.945232],[-58.396434,-24.944141],[-58.396721,-24.943143],[-58.397418,-24.942249],[-58.398131,-24.942293],[-58.399647,-24.94317],[-58.400381,-24.942928],[-58.400707,-24.941591],[-58.398011,-24.941193],[-58.397251,-24.939921],[-58.397272,-24.939328],[-58.399095,-24.938704],[-58.401646,-24.939788],[-58.402858,-24.938913],[-58.402584,-24.938288],[-58.400666,-24.938262],[-58.399735,-24.937893],[-58.399376,-24.936753],[-58.400823,-24.93688],[-58.401856,-24.936568],[-58.402138,-24.936176],[-58.401649,-24.935458],[-58.401675,-24.93494],[-58.402752,-24.933646],[-58.403643,-24.934206],[-58.4041,-24.93419],[-58.403816,-24.931908],[-58.404772,-24.931512],[-58.405301,-24.930115],[-58.407877,-24.929646],[-58.408324,-24.928747],[-58.408179,-24.92849],[-58.406947,-24.928672],[-58.406462,-24.92843],[-58.407143,-24.927683],[-58.406903,-24.926914],[-58.40812,-24.92613],[-58.40969,-24.925879],[-58.410283,-24.925084],[-58.410253,-24.924701],[-58.409846,-24.924456],[-58.407966,-24.924683],[-58.408677,-24.922834],[-58.409994,-24.923373],[-58.410422,-24.922577],[-58.411818,-24.922573],[-58.413526,-24.920336],[-58.414229,-24.922168],[-58.414874,-24.922584],[-58.415025,-24.920764],[-58.416504,-24.920509],[-58.416848,-24.920921],[-58.41695,-24.922659],[-58.417418,-24.922989],[-58.417875,-24.922669],[-58.418312,-24.92161],[-58.418688,-24.92212],[-58.419603,-24.922173],[-58.420246,-24.923083],[-58.420936,-24.923256],[-58.422067,-24.921847],[-58.422355,-24.921851],[-58.422933,-24.922995],[-58.425209,-24.921487],[-58.425606,-24.92162],[-58.425241,-24.922304],[-58.425388,-24.922673],[-58.426548,-24.92341],[-58.428105,-24.923809],[-58.428718,-24.923566],[-58.428838,-24.923189],[-58.428523,-24.92308],[-58.427931,-24.923484],[-58.427644,-24.923326],[-58.427102,-24.92109],[-58.428393,-24.920895],[-58.429555,-24.921936],[-58.430044,-24.922007],[-58.430106,-24.919879],[-58.431717,-24.918813],[-58.431353,-24.917962],[-58.433172,-24.915863],[-58.431756,-24.914694],[-58.432903,-24.914505],[-58.433424,-24.913932],[-58.433263,-24.9137],[-58.432425,-24.91367],[-58.432526,-24.912985],[-58.431887,-24.912315],[-58.431988,-24.911247],[-58.430605,-24.910243],[-58.432271,-24.909369],[-58.432695,-24.908923],[-58.432691,-24.908437],[-58.432141,-24.908225],[-58.431023,-24.908987],[-58.43026,-24.908661],[-58.430266,-24.908121],[-58.43168,-24.907763],[-58.431623,-24.906921],[-58.430318,-24.906636],[-58.428477,-24.904785],[-58.428758,-24.904253],[-58.42974,-24.903758],[-58.429554,-24.902928],[-58.428079,-24.903167],[-58.427703,-24.902523],[-58.42781,-24.901781],[-58.428783,-24.900303],[-58.428165,-24.899293],[-58.428161,-24.898937],[-58.428714,-24.898436],[-58.428432,-24.897541],[-58.429613,-24.896536],[-58.429212,-24.895832],[-58.4293,-24.895019],[-58.430644,-24.895076],[-58.430748,-24.894827],[-58.429931,-24.894077],[-58.430101,-24.893178],[-58.430397,-24.892872],[-58.431632,-24.892743],[-58.431732,-24.892029],[-58.432927,-24.890081],[-58.43554,-24.887764],[-58.436158,-24.887563],[-58.437185,-24.887749],[-58.437125,-24.886017],[-58.43849,-24.885573],[-58.438219,-24.884775],[-58.439139,-24.88401],[-58.438671,-24.882546],[-58.439738,-24.881964],[-58.439983,-24.881464],[-58.44143,-24.881048],[-58.440423,-24.880005],[-58.440732,-24.879365],[-58.441812,-24.878606],[-58.443594,-24.878154],[-58.445376,-24.878664],[-58.448144,-24.877824],[-58.449049,-24.878444],[-58.450387,-24.877939],[-58.451809,-24.878748],[-58.452113,-24.876986],[-58.451328,-24.876188],[-58.451448,-24.875918],[-58.452661,-24.875427],[-58.453474,-24.876269],[-58.453968,-24.876343],[-58.454567,-24.875902],[-58.453812,-24.873512],[-58.454194,-24.873408],[-58.454511,-24.874046],[-58.455289,-24.874274],[-58.456166,-24.873398],[-58.456617,-24.872303],[-58.457698,-24.872975],[-58.458203,-24.872915],[-58.457969,-24.871765],[-58.458871,-24.8719],[-58.459567,-24.871347],[-58.459447,-24.870521],[-58.458985,-24.86991],[-58.45913,-24.869663],[-58.459955,-24.869554],[-58.460901,-24.870418],[-58.462078,-24.869],[-58.462955,-24.868859],[-58.463102,-24.869828],[-58.463549,-24.869308],[-58.464231,-24.869739],[-58.465057,-24.868897],[-58.466305,-24.868557],[-58.466806,-24.866606],[-58.468092,-24.866576],[-58.468473,-24.866296],[-58.468607,-24.86518],[-58.470477,-24.864752],[-58.469237,-24.863456],[-58.470187,-24.863008],[-58.471242,-24.863947],[-58.471565,-24.862385],[-58.473009,-24.861943],[-58.473937,-24.860942],[-58.474578,-24.861183],[-58.47589,-24.862728],[-58.475723,-24.861567],[-58.475914,-24.86033],[-58.476303,-24.859922],[-58.476965,-24.860768],[-58.47765,-24.860639],[-58.479153,-24.861756],[-58.479463,-24.860998],[-58.479996,-24.860768],[-58.481009,-24.860771],[-58.481451,-24.86163],[-58.482319,-24.861164],[-58.483132,-24.861292],[-58.483606,-24.860828],[-58.484999,-24.86033],[-58.486038,-24.858753],[-58.487341,-24.858916],[-58.487842,-24.858401],[-58.490613,-24.857825],[-58.491051,-24.857808],[-58.492034,-24.858583],[-58.493555,-24.858283],[-58.494117,-24.859408],[-58.496733,-24.858129],[-58.497964,-24.857944],[-58.497541,-24.857065],[-58.498464,-24.856574],[-58.498557,-24.855849],[-58.499655,-24.855325],[-58.500091,-24.853981],[-58.501212,-24.853769],[-58.501995,-24.852695],[-58.502007,-24.850966],[-58.501353,-24.850694],[-58.477474,-24.827326],[-58.475596,-24.782094],[-58.475311,-24.780882],[-58.475293,-24.775615],[-58.476435,-24.748915],[-58.479878,-24.692036],[-58.479784,-24.689553],[-58.322056,-24.701439],[-58.259736,-24.702341],[-58.22786,-24.701869],[-58.207793,-24.702217],[-58.17192,-24.70122],[-58.171925,-24.704841],[-58.121295,-24.703918],[-58.118849,-24.746506],[-58.113881,-24.746055],[-58.114375,-24.825761],[-58.08908,-24.832106],[-58.073203,-24.838443],[-58.053361,-24.842973],[-58.053867,-24.838445],[-58.037488,-24.840709],[-58.032039,-24.85068],[-57.955039,-24.852022],[-57.954476,-24.848598],[-57.954756,-24.842993],[-57.955497,-24.840741],[-57.915458,-24.839357],[-57.914972,-24.946696],[-57.815257,-24.946246],[-57.815753,-25.064903],[-57.784006,-25.066257],[-57.781026,-25.071691],[-57.766155,-25.086191],[-57.768137,-25.090714],[-57.760693,-25.102492],[-57.743066,-25.102097],[-57.739107,-25.098297],[-57.736476,-25.097113],[-57.708682,-25.100595],[-57.697137,-25.100649],[-57.693462,-25.100427],[-57.690801,-25.100726],[-57.687889,-25.105176],[-57.685889,-25.106788],[-57.683835,-25.107786],[-57.685548,-25.141943],[-57.724241,-25.141943],[-57.718884,-25.152166],[-57.720379,-25.156293],[-57.721002,-25.157066],[-57.720819,-25.159326],[-57.71878,-25.161974],[-57.718588,-25.163706],[-57.717873,-25.164895],[-57.716481,-25.165643],[-57.714538,-25.165928],[-57.711838,-25.167906],[-57.710612,-25.168346],[-57.706427,-25.167342],[-57.705288,-25.166485],[-57.704571,-25.165045],[-57.703957,-25.164628],[-57.702446,-25.16456],[-57.7,-25.163308],[-57.699186,-25.163542],[-57.698293,-25.162711],[-57.697878,-25.163394],[-57.696492,-25.163229],[-57.695935,-25.163345],[-57.695573,-25.163943],[-57.694857,-25.164068],[-57.694409,-25.163776],[-57.69352,-25.164042],[-57.693707,-25.16471],[-57.693149,-25.165629],[-57.691342,-25.166039],[-57.691307,-25.167128],[-57.69174,-25.167139],[-57.691764,-25.167415],[-57.69088,-25.167635],[-57.69051,-25.168599],[-57.68917,-25.168343],[-57.688609,-25.167827],[-57.687486,-25.168383],[-57.687601,-25.167633],[-57.687347,-25.167449],[-57.686435,-25.168008],[-57.685327,-25.167982],[-57.684963,-25.168719],[-57.684058,-25.168195],[-57.684035,-25.168841],[-57.683478,-25.168631],[-57.68322,-25.169138],[-57.682398,-25.168934],[-57.682354,-25.168488],[-57.682067,-25.168408],[-57.6817,-25.169258],[-57.680435,-25.169106],[-57.680147,-25.169496],[-57.67949,-25.169603],[-57.679252,-25.170037],[-57.679865,-25.170612],[-57.679237,-25.17211],[-57.678312,-25.172177],[-57.67865,-25.172686],[-57.678464,-25.17294],[-57.677847,-25.172373],[-57.67748,-25.172578],[-57.676971,-25.173357],[-57.677555,-25.17386],[-57.677643,-25.174366],[-57.67687,-25.174459],[-57.676493,-25.174895],[-57.675975,-25.174807],[-57.675533,-25.175811],[-57.676201,-25.176002],[-57.676276,-25.176395],[-57.675514,-25.176954],[-57.675077,-25.176657],[-57.674806,-25.176835],[-57.675436,-25.177545],[-57.675218,-25.178409],[-57.67329,-25.178192],[-57.673836,-25.179187],[-57.67242,-25.179379],[-57.672272,-25.180829],[-57.67376,-25.181725],[-57.673018,-25.182501],[-57.672989,-25.183011],[-57.674121,-25.185503],[-57.672761,-25.186159],[-57.672665,-25.186882],[-57.673386,-25.188143],[-57.672124,-25.189192],[-57.672012,-25.192809],[-57.671643,-25.194626],[-57.671148,-25.195256],[-57.670282,-25.195571],[-57.668999,-25.195125],[-57.66794,-25.195207],[-57.666835,-25.194449],[-57.666098,-25.191048],[-57.666519,-25.18793],[-57.665941,-25.186655],[-57.665064,-25.186248],[-57.665275,-25.185186],[-57.664655,-25.184299],[-57.66425,-25.184224],[-57.663926,-25.184564],[-57.664093,-25.185385],[-57.663217,-25.185755],[-57.663794,-25.185974],[-57.663742,-25.186227],[-57.663322,-25.186527],[-57.662579,-25.186349],[-57.663079,-25.187133],[-57.662804,-25.187455],[-57.663069,-25.187855],[-57.662682,-25.188241],[-57.662267,-25.187331],[-57.66156,-25.187113],[-57.660993,-25.187386],[-57.661277,-25.187773],[-57.661084,-25.188117],[-57.660067,-25.188307],[-57.659446,-25.188829],[-57.659117,-25.188519],[-57.659173,-25.187954],[-57.65836,-25.187922],[-57.657852,-25.188208],[-57.65758,-25.187361],[-57.656465,-25.188142],[-57.655856,-25.187775],[-57.65571,-25.188471],[-57.654772,-25.188077],[-57.654425,-25.189276],[-57.654004,-25.189219],[-57.653813,-25.188669],[-57.653532,-25.18872],[-57.652373,-25.190246],[-57.648804,-25.190691],[-57.648119,-25.190446],[-57.647852,-25.191225],[-57.646529,-25.192067],[-57.646009,-25.194345],[-57.646893,-25.195088],[-57.647517,-25.196375],[-57.647249,-25.197115],[-57.647491,-25.197981],[-57.646297,-25.19902],[-57.646667,-25.19975],[-57.646161,-25.200534],[-57.645714,-25.200632],[-57.645504,-25.201133],[-57.643836,-25.201813],[-57.643582,-25.202234],[-57.644389,-25.203639],[-57.646495,-25.204988],[-57.647321,-25.205194],[-57.648809,-25.204928],[-57.649921,-25.205291],[-57.649929,-25.206734],[-57.651751,-25.208561],[-57.651587,-25.209026],[-57.652157,-25.20984],[-57.652215,-25.211025],[-57.653662,-25.211959],[-57.653788,-25.212407],[-57.655186,-25.213616],[-57.655137,-25.214062],[-57.656665,-25.215034],[-57.657747,-25.216728],[-57.657875,-25.21756],[-57.658835,-25.218187],[-57.659347,-25.220027],[-57.660114,-25.220236],[-57.661241,-25.221741],[-57.662039,-25.222105],[-57.661887,-25.223832],[-57.662235,-25.224465],[-57.663686,-25.224586],[-57.663877,-25.22515],[-57.66461,-25.225441],[-57.664455,-25.225841],[-57.66478,-25.226176],[-57.666437,-25.225785],[-57.666724,-25.226051],[-57.666306,-25.226688],[-57.667111,-25.227582],[-57.669197,-25.227828],[-57.669506,-25.228237],[-57.669476,-25.22903],[-57.671032,-25.2296],[-57.671285,-25.231484],[-57.67194,-25.231438],[-57.672211,-25.231851],[-57.671596,-25.233886],[-57.671192,-25.23393],[-57.670674,-25.233344],[-57.669549,-25.233799],[-57.669206,-25.233258],[-57.668845,-25.233515],[-57.668795,-25.234348],[-57.669111,-25.234644],[-57.669667,-25.234274],[-57.670404,-25.234549],[-57.671067,-25.234426],[-57.671834,-25.235332],[-57.670704,-25.235624],[-57.670814,-25.237102],[-57.673607,-25.238127],[-57.674327,-25.237554],[-57.674421,-25.238336],[-57.675101,-25.238875],[-57.674253,-25.240229],[-57.673655,-25.239826],[-57.673243,-25.239978],[-57.672775,-25.24154],[-57.672295,-25.241732],[-57.67177,-25.241409],[-57.671419,-25.241825],[-57.672131,-25.24279],[-57.672785,-25.242554],[-57.673012,-25.242116],[-57.674515,-25.242256],[-57.67516,-25.241944],[-57.676215,-25.242601],[-57.676089,-25.242934],[-57.67476,-25.243447],[-57.673612,-25.242961],[-57.673001,-25.243134],[-57.672906,-25.243653],[-57.674081,-25.244619],[-57.67412,-25.245405],[-57.674928,-25.244534],[-57.676243,-25.243796],[-57.677933,-25.243901],[-57.679147,-25.243377],[-57.679088,-25.244201],[-57.677909,-25.244915],[-57.678246,-25.245804],[-57.677106,-25.246026],[-57.677445,-25.246481],[-57.678981,-25.246369],[-57.678917,-25.24709],[-57.67916,-25.247193],[-57.680677,-25.24604],[-57.680499,-25.243835],[-57.682519,-25.243589],[-57.682874,-25.244018],[-57.682599,-25.245203],[-57.681489,-25.245499],[-57.681822,-25.246833],[-57.681279,-25.247159],[-57.68387,-25.247828],[-57.684774,-25.247026],[-57.686624,-25.246467],[-57.687326,-25.247378],[-57.687211,-25.248466],[-57.688158,-25.247464],[-57.68877,-25.245927],[-57.687012,-25.245508],[-57.686699,-25.245028],[-57.689178,-25.244459],[-57.689426,-25.245504],[-57.690487,-25.245774],[-57.68978,-25.246507],[-57.689808,-25.247539],[-57.690758,-25.248095],[-57.689924,-25.248784],[-57.691092,-25.248508],[-57.691752,-25.249275],[-57.692522,-25.249167],[-57.692653,-25.249735],[-57.694564,-25.251375],[-57.695038,-25.250796],[-57.695643,-25.251025],[-57.695896,-25.252031],[-57.694443,-25.252475],[-57.694612,-25.253004],[-57.695085,-25.253126],[-57.696325,-25.252613],[-57.697007,-25.252118],[-57.696625,-25.25152],[-57.697926,-25.251197],[-57.698141,-25.253135],[-57.69868,-25.253581],[-57.69948,-25.253542],[-57.699253,-25.254167],[-57.699792,-25.254559],[-57.699441,-25.254913],[-57.698581,-25.254096],[-57.698166,-25.254505],[-57.698336,-25.255212],[-57.699324,-25.255343],[-57.69936,-25.256419],[-57.698231,-25.2562],[-57.698147,-25.256444],[-57.698738,-25.25706],[-57.69811,-25.257454],[-57.699669,-25.257648],[-57.699703,-25.258383],[-57.700001,-25.258448],[-57.70042,-25.258005],[-57.7005,-25.257052],[-57.70108,-25.256589],[-57.702122,-25.257164],[-57.702312,-25.257581],[-57.703613,-25.258136],[-57.703629,-25.258713],[-57.704468,-25.259452],[-57.704868,-25.259462],[-57.705174,-25.258682],[-57.705519,-25.258708],[-57.706206,-25.260039],[-57.704431,-25.260474],[-57.704162,-25.261067],[-57.705141,-25.261585],[-57.705956,-25.261134],[-57.706592,-25.261344],[-57.70736,-25.261905],[-57.706766,-25.262582],[-57.706859,-25.262953],[-57.708128,-25.263862],[-57.707902,-25.264097],[-57.705768,-25.264045],[-57.704794,-25.264373],[-57.705373,-25.265017],[-57.704786,-25.265598],[-57.705414,-25.266882],[-57.704586,-25.267663],[-57.70475,-25.269844],[-57.705573,-25.270189],[-57.70701,-25.269616],[-57.711622,-25.269903],[-57.715635,-25.26902],[-57.716385,-25.268494],[-57.718931,-25.265073],[-57.720865,-25.265599],[-57.722256,-25.266861],[-57.723126,-25.266945],[-57.723665,-25.266357]]]}}]}
