{"type":"FeatureCollection","name":"distrito","features":[{"type":"Feature","properties":{"clave":"3-5","nombre":"Arroyos y Esteros"},"geometry":{"type":"Polygon","coordinates":[[[-57.123779,-25.138857],[-57.124678,-25.138702],[-57.125097,-25.139555],[-57.127445,-25.139693],[-57.128005,-25.140542],[-57.129213,-25.14041],[-57.131318,-25.14146],[-57.131225,-25.140318],[-57.132208,-25.139648],[-57.131724,-25.138926],[-57.131913,-25.138682],[-57.132625,-25.138488],[-57.133077,-25.138009],[-57.134387,-25.138011],[-57.135315,-25.137351],[-57.136421,-25.137422],[-57.137175,-25.137866],[-57.139717,-25.136795],[-57.139834,-25.136225],[-57.13904,-25.135042],[-57.139059,-25.134516],[-57.14031,-25.134103],[-57.141647,-25.134551],[-57.142512,-25.132445],[-57.144174,-25.132377],[-57.145078,-25.132914],[-57.147594,-25.131661],[-57.149136,-25.131923],[-57.149483,-25.1303],[-57.150928,-25.129695],[-57.151336,-25.128576],[-57.152685,-25.12818],[-57.153178,-25.127566],[-57.155189,-25.127246],[-57.15532,-25.125897],[-57.155861,-25.125436],[-57.157069,-25.125595],[-57.157333,-25.125385],[-57.157398,-25.124402],[-57.15852,-25.123245],[-57.159202,-25.123168],[-57.159161,-25.123601],[-57.15976,-25.123722],[-57.159779,-25.122386],[-57.159211,-25.121592],[-57.159452,-25.121248],[-57.159903,-25.121017],[-57.160313,-25.121794],[-57.160891,-25.121906],[-57.161205,-25.121418],[-57.161057,-25.12052],[-57.161498,-25.120366],[-57.161687,-25.120939],[-57.162034,-25.12097],[-57.162673,-25.119886],[-57.16347,-25.119483],[-57.163996,-25.119704],[-57.165191,-25.118718],[-57.16579,-25.118947],[-57.166179,-25.119719],[-57.16768,-25.119614],[-57.167615,-25.118313],[-57.168203,-25.118141],[-57.168853,-25.117413],[-57.169368,-25.118113],[-57.169767,-25.117968],[-57.169514,-25.117367],[-57.169964,-25.116188],[-57.16903,-25.116076],[-57.168525,-25.115716],[-57.168449,-25.113765],[-57.167524,-25.112759],[-57.168048,-25.111937],[-57.167711,-25.11126],[-57.168082,-25.110713],[-57.16808,-25.109458],[-57.167892,-25.109291],[-57.166364,-25.109735],[-57.16615,-25.109316],[-57.168792,-25.107962],[-57.169106,-25.107998],[-57.169357,-25.108752],[-57.169671,-25.108806],[-57.171173,-25.10786],[-57.171134,-25.107188],[-57.170444,-25.106276],[-57.170629,-25.104438],[-57.173294,-25.101753],[-57.175435,-25.101123],[-57.176839,-25.10118],[-57.177852,-25.100379],[-57.178128,-25.100483],[-57.178355,-25.10144],[-57.179207,-25.101439],[-57.181409,-25.099747],[-57.182713,-25.100238],[-57.183814,-25.099866],[-57.185131,-25.100375],[-57.18549,-25.100104],[-57.185512,-25.099277],[-57.18658,-25.098901],[-57.187126,-25.097916],[-57.189489,-25.097294],[-57.188855,-25.094825],[-57.189999,-25.094436],[-57.190641,-25.093012],[-57.191839,-25.092505],[-57.191361,-25.091639],[-57.191684,-25.09102],[-57.192501,-25.090517],[-57.19318,-25.089058],[-57.192704,-25.087803],[-57.194258,-25.08688],[-57.194795,-25.086062],[-57.196182,-25.086855],[-57.196896,-25.085942],[-57.19785,-25.085968],[-57.198147,-25.086225],[-57.199108,-25.085515],[-57.201969,-25.085899],[-57.202101,-25.085357],[-57.203377,-25.084723],[-57.203746,-25.084005],[-57.204418,-25.084388],[-57.204476,-25.08362],[-57.20572,-25.083699],[-57.2064,-25.083175],[-57.207742,-25.083949],[-57.207742,-25.084482],[-57.208483,-25.085131],[-57.209558,-25.084114],[-57.209684,-25.084764],[-57.209285,-25.08569],[-57.209925,-25.086398],[-57.210162,-25.085779],[-57.210701,-25.085666],[-57.211465,-25.085723],[-57.21114,-25.086473],[-57.211996,-25.08616],[-57.212406,-25.086657],[-57.213946,-25.086469],[-57.214512,-25.087886],[-57.2156,-25.087817],[-57.215941,-25.088155],[-57.216517,-25.088132],[-57.216744,-25.088624],[-57.218536,-25.088883],[-57.218036,-25.089534],[-57.218149,-25.089787],[-57.219289,-25.089807],[-57.220027,-25.08912],[-57.220792,-25.08971],[-57.220642,-25.090054],[-57.220066,-25.089942],[-57.220104,-25.090294],[-57.221269,-25.090441],[-57.220844,-25.091173],[-57.221071,-25.091801],[-57.221522,-25.091606],[-57.221696,-25.090919],[-57.22231,-25.09118],[-57.222461,-25.091568],[-57.224726,-25.090355],[-57.225015,-25.090607],[-57.225641,-25.090376],[-57.226017,-25.090786],[-57.226052,-25.089215],[-57.227041,-25.088699],[-57.228181,-25.088972],[-57.229433,-25.088456],[-57.229997,-25.088649],[-57.230535,-25.087984],[-57.230824,-25.08867],[-57.231125,-25.08876],[-57.231023,-25.088101],[-57.231236,-25.088033],[-57.233743,-25.08895],[-57.233717,-25.088232],[-57.234242,-25.088105],[-57.234669,-25.088357],[-57.235707,-25.087615],[-57.236096,-25.087817],[-57.23611,-25.088355],[-57.237012,-25.088751],[-57.238202,-25.088546],[-57.238316,-25.088979],[-57.237741,-25.089914],[-57.238919,-25.090093],[-57.239685,-25.090936],[-57.241475,-25.090125],[-57.241849,-25.089429],[-57.241126,-25.088947],[-57.242422,-25.087776],[-57.242723,-25.087897],[-57.242799,-25.088502],[-57.243489,-25.088844],[-57.243913,-25.088112],[-57.245204,-25.088624],[-57.245131,-25.089537],[-57.245846,-25.089662],[-57.246988,-25.090811],[-57.247638,-25.090296],[-57.246858,-25.088608],[-57.247033,-25.088323],[-57.249642,-25.08727],[-57.250903,-25.087725],[-57.25127,-25.087563],[-57.251132,-25.086657],[-57.251662,-25.086085],[-57.252017,-25.08606],[-57.252549,-25.086841],[-57.253188,-25.086058],[-57.252627,-25.084818],[-57.253089,-25.08411],[-57.254697,-25.084145],[-57.25561,-25.084515],[-57.256753,-25.083521],[-57.257965,-25.08332],[-57.259587,-25.083963],[-57.259765,-25.084272],[-57.259698,-25.084608],[-57.258772,-25.084907],[-57.258215,-25.085553],[-57.257368,-25.085228],[-57.256954,-25.085557],[-57.257454,-25.086254],[-57.258718,-25.086154],[-57.258452,-25.087201],[-57.258823,-25.088366],[-57.26054,-25.088531],[-57.261024,-25.089423],[-57.261868,-25.089736],[-57.262343,-25.089665],[-57.264079,-25.088064],[-57.265022,-25.088202],[-57.265199,-25.088571],[-57.264789,-25.090282],[-57.265052,-25.091147],[-57.26378,-25.091407],[-57.262944,-25.091241],[-57.262992,-25.091904],[-57.26241,-25.092084],[-57.261407,-25.091798],[-57.259681,-25.091931],[-57.259426,-25.092397],[-57.25996,-25.093522],[-57.259564,-25.094537],[-57.259749,-25.095318],[-57.260343,-25.095736],[-57.261273,-25.095632],[-57.261731,-25.09498],[-57.263008,-25.094829],[-57.2632,-25.093991],[-57.264222,-25.093803],[-57.264888,-25.094695],[-57.264584,-25.095701],[-57.26526,-25.096481],[-57.265914,-25.096471],[-57.266567,-25.095837],[-57.268098,-25.09535],[-57.269592,-25.096147],[-57.270911,-25.096396],[-57.271153,-25.094879],[-57.271449,-25.094664],[-57.272849,-25.09482],[-57.274697,-25.094082],[-57.275516,-25.094629],[-57.276211,-25.094674],[-57.276944,-25.093696],[-57.278262,-25.093582],[-57.279232,-25.093068],[-57.279619,-25.09249],[-57.279035,-25.091933],[-57.279441,-25.090723],[-57.278817,-25.090231],[-57.278744,-25.089728],[-57.279765,-25.08927],[-57.283374,-25.089906],[-57.285031,-25.090861],[-57.285523,-25.091474],[-57.286759,-25.091397],[-57.287772,-25.091702],[-57.289472,-25.093439],[-57.290506,-25.093996],[-57.291129,-25.094013],[-57.291455,-25.093715],[-57.291545,-25.092905],[-57.294053,-25.090127],[-57.293641,-25.089048],[-57.293522,-25.086061],[-57.295432,-25.081684],[-57.295972,-25.080715],[-57.29724,-25.080076],[-57.298004,-25.080206],[-57.299078,-25.081263],[-57.299677,-25.081278],[-57.299986,-25.080996],[-57.301595,-25.078065],[-57.302387,-25.075268],[-57.302672,-25.07267],[-57.303358,-25.071113],[-57.30443,-25.071144],[-57.304106,-25.072204],[-57.304507,-25.072964],[-57.308576,-25.072988],[-57.309992,-25.072572],[-57.314245,-25.073886],[-57.314374,-25.074498],[-57.313358,-25.074947],[-57.313341,-25.075526],[-57.31596,-25.076579],[-57.315581,-25.077622],[-57.314928,-25.07817],[-57.312841,-25.078869],[-57.311499,-25.079798],[-57.311246,-25.080196],[-57.311448,-25.08094],[-57.31292,-25.08135],[-57.314335,-25.08052],[-57.316967,-25.079886],[-57.319178,-25.077863],[-57.32199,-25.076434],[-57.322987,-25.075621],[-57.324163,-25.074031],[-57.325871,-25.07401],[-57.326925,-25.074504],[-57.327688,-25.074254],[-57.330042,-25.071652],[-57.335158,-25.069523],[-57.336448,-25.069702],[-57.337019,-25.072496],[-57.336366,-25.072796],[-57.334132,-25.072883],[-57.333663,-25.073976],[-57.333119,-25.074308],[-57.331373,-25.073485],[-57.330847,-25.07385],[-57.330903,-25.074446],[-57.333976,-25.075448],[-57.335845,-25.076519],[-57.340143,-25.077303],[-57.343273,-25.076502],[-57.347755,-25.074198],[-57.354755,-25.071652],[-57.359243,-25.071435],[-57.360632,-25.071844],[-57.36222,-25.073663],[-57.372969,-25.072372],[-57.374614,-25.071868],[-57.37587,-25.070659],[-57.377353,-25.069979],[-57.383583,-25.06908],[-57.385737,-25.066408],[-57.383998,-25.066525],[-57.381882,-25.065853],[-57.379889,-25.064499],[-57.376021,-25.059416],[-57.373771,-25.055231],[-57.371514,-25.048671],[-57.369515,-25.045281],[-57.367145,-25.042229],[-57.364652,-25.039856],[-57.361041,-25.037377],[-57.352197,-25.030038],[-57.350202,-25.02755],[-57.346705,-25.021336],[-57.344212,-25.018167],[-57.337111,-25.011392],[-57.332126,-25.005858],[-57.329381,-25.001335],[-57.326134,-24.994718],[-57.320643,-24.985221],[-57.319393,-24.982279],[-57.318014,-24.977189],[-57.314398,-24.971873],[-57.312526,-24.968368],[-57.311273,-24.963954],[-57.310694,-24.950822],[-57.307603,-24.941553],[-57.304273,-24.9329],[-57.299725,-24.92721],[-57.295796,-24.924145],[-57.28733,-24.919469],[-57.281754,-24.919144],[-57.272876,-24.921731],[-57.269082,-24.924028],[-57.266331,-24.926715],[-57.266545,-24.928401],[-57.266995,-24.929092],[-57.269686,-24.930376],[-57.269761,-24.931363],[-57.264898,-24.933069],[-57.264143,-24.933601],[-57.263641,-24.934556],[-57.263953,-24.935192],[-57.264709,-24.935173],[-57.267731,-24.933842],[-57.268293,-24.934018],[-57.270042,-24.935588],[-57.273321,-24.936643],[-57.274021,-24.93772],[-57.27362,-24.940478],[-57.273912,-24.940955],[-57.275232,-24.941748],[-57.2757,-24.942865],[-57.271938,-24.942059],[-57.265915,-24.941817],[-57.263742,-24.942105],[-57.262812,-24.942558],[-57.261822,-24.944199],[-57.261764,-24.946182],[-57.262389,-24.948217],[-57.264101,-24.950142],[-57.264228,-24.95133],[-57.26364,-24.952405],[-57.262585,-24.952746],[-57.262088,-24.952548],[-57.26106,-24.950884],[-57.26019,-24.950686],[-57.258674,-24.953064],[-57.257124,-24.954286],[-57.256256,-24.954599],[-57.253492,-24.954491],[-57.250509,-24.95311],[-57.248553,-24.953081],[-57.247343,-24.95368],[-57.247004,-24.954642],[-57.247596,-24.955661],[-57.24946,-24.956137],[-57.252471,-24.956218],[-57.253062,-24.956587],[-57.253436,-24.957178],[-57.253282,-24.957747],[-57.251918,-24.958738],[-57.248688,-24.958572],[-57.243035,-24.957195],[-57.240085,-24.956776],[-57.238779,-24.9561],[-57.237506,-24.956071],[-57.235428,-24.95718],[-57.232672,-24.960639],[-57.229944,-24.962964],[-57.228206,-24.963446],[-57.227616,-24.963361],[-57.226497,-24.962486],[-57.224315,-24.958186],[-57.223226,-24.956888],[-57.220926,-24.955107],[-57.220087,-24.954797],[-57.219031,-24.954857],[-57.218474,-24.95545],[-57.218383,-24.956836],[-57.219255,-24.95814],[-57.22171,-24.959437],[-57.222239,-24.960172],[-57.22252,-24.961192],[-57.222213,-24.963288],[-57.220479,-24.966063],[-57.215799,-24.970612],[-57.214219,-24.972737],[-57.21273,-24.973647],[-57.210153,-24.973704],[-57.209283,-24.972997],[-57.209622,-24.97198],[-57.21195,-24.971015],[-57.212663,-24.970445],[-57.212661,-24.969822],[-57.211916,-24.969511],[-57.203506,-24.972499],[-57.201208,-24.972303],[-57.199748,-24.971682],[-57.199622,-24.970973],[-57.200583,-24.969726],[-57.200798,-24.968312],[-57.199181,-24.967095],[-57.199056,-24.966644],[-57.199736,-24.964661],[-57.199673,-24.964037],[-57.199082,-24.962909],[-57.196406,-24.959743],[-57.195719,-24.957391],[-57.196494,-24.956117],[-57.199008,-24.955576],[-57.199535,-24.955237],[-57.199658,-24.954474],[-57.198042,-24.953541],[-57.194844,-24.953292],[-57.194346,-24.952611],[-57.193815,-24.950575],[-57.193007,-24.950292],[-57.192045,-24.950492],[-57.191115,-24.951541],[-57.189941,-24.954884],[-57.188021,-24.958395],[-57.18641,-24.96046],[-57.184549,-24.961655],[-57.184426,-24.962305],[-57.185079,-24.96318],[-57.186011,-24.963662],[-57.191944,-24.965353],[-57.192909,-24.966738],[-57.193221,-24.967871],[-57.193098,-24.96872],[-57.192571,-24.969398],[-57.188845,-24.969263],[-57.187572,-24.969603],[-57.186239,-24.970481],[-57.184038,-24.972917],[-57.182611,-24.973998],[-57.180098,-24.975243],[-57.178762,-24.97468],[-57.177642,-24.97358],[-57.176213,-24.972728],[-57.174784,-24.972535],[-57.173729,-24.972731],[-57.169013,-24.975599],[-57.167212,-24.975967],[-57.165814,-24.975544],[-57.163234,-24.97314],[-57.162022,-24.972803],[-57.160999,-24.973513],[-57.15539,-24.98246],[-57.154056,-24.98368],[-57.152845,-24.984192],[-57.151758,-24.984021],[-57.150234,-24.982325],[-57.149271,-24.981703],[-57.146662,-24.981028],[-57.138882,-24.980042],[-57.137874,-24.981375],[-57.137399,-24.986654],[-57.134673,-24.992938],[-57.133557,-24.994655],[-57.131167,-24.996707],[-57.127259,-25.000928],[-57.12622,-25.002866],[-57.12568,-25.005883],[-57.125091,-25.007116],[-57.124703,-25.007554],[-57.123864,-25.007821],[-57.120742,-25.006596],[-57.118863,-25.007162],[-57.112236,-25.011348],[-57.111103,-25.012767],[-57.109227,-25.016575],[-57.104322,-25.019211],[-57.103716,-25.019166],[-57.103203,-25.018403],[-57.104099,-25.012754],[-57.104145,-25.011964],[-57.103678,-25.010618],[-57.098192,-25.005894],[-57.096887,-25.005331],[-57.092585,-25.00532],[-57.089092,-25.005805],[-57.087011,-25.006398],[-57.082509,-25.009507],[-57.076162,-25.016221],[-57.075323,-25.016871],[-57.074267,-25.017071],[-57.073801,-25.016204],[-57.074451,-25.013395],[-57.073922,-25.010934],[-57.073285,-25.010483],[-57.070893,-25.010213],[-57.069153,-25.009437],[-57.068516,-25.008218],[-57.068623,-25.00475],[-57.068219,-25.004033],[-57.067395,-25.003663],[-57.065687,-25.003749],[-57.061356,-25.006537],[-57.058623,-25.007374],[-57.057334,-25.007076],[-57.055935,-25.00495],[-57.055143,-25.004611],[-57.054475,-25.004679],[-57.053823,-25.005813],[-57.052816,-25.009593],[-57.050161,-25.013274],[-57.048547,-25.014363],[-57.045146,-25.015199],[-57.043235,-25.01473],[-57.042691,-25.013005],[-57.043483,-25.012098],[-57.046433,-25.010584],[-57.046712,-25.009563],[-57.04623,-25.008272],[-57.0455,-25.007536],[-57.042875,-25.006828],[-57.039551,-25.00407],[-57.039156,-25.004075],[-57.038604,-25.004594],[-57.039794,-25.00659],[-57.039695,-25.007091],[-57.038931,-25.007199],[-57.037208,-25.005669],[-57.036467,-25.005931],[-57.035986,-25.006749],[-57.035442,-25.009408],[-57.035726,-25.01252],[-57.035531,-25.013247],[-57.033979,-25.013432],[-57.032767,-25.012674],[-57.032315,-25.011676],[-57.032528,-25.009816],[-57.031118,-25.008439],[-57.030565,-25.008294],[-57.029672,-25.00875],[-57.028766,-25.008728],[-57.028449,-25.009518],[-57.029894,-25.01034],[-57.028592,-25.011767],[-57.028569,-25.013682],[-57.026746,-25.015285],[-57.025364,-25.015633],[-57.024262,-25.013877],[-57.023091,-25.013732],[-57.022282,-25.016866],[-57.022265,-25.018469],[-57.021778,-25.018781],[-57.020343,-25.018731],[-57.01863,-25.020267],[-57.018101,-25.020104],[-57.015158,-25.017522],[-57.015139,-25.017152],[-57.016232,-25.015833],[-57.015976,-25.014849],[-57.014329,-25.016203],[-57.013063,-25.016045],[-57.012531,-25.015011],[-57.013398,-25.012975],[-57.012952,-25.012261],[-57.011934,-25.011823],[-57.011379,-25.012031],[-57.011314,-25.01237],[-57.012172,-25.013137],[-57.012334,-25.013797],[-57.012043,-25.014555],[-57.011463,-25.015002],[-57.010275,-25.01475],[-57.01033,-25.012885],[-57.009793,-25.012704],[-57.007861,-25.01424],[-57.007531,-25.015432],[-57.006803,-25.01568],[-57.005633,-25.014962],[-57.005143,-25.013991],[-57.006508,-25.013738],[-57.008416,-25.012817],[-57.006567,-25.012659],[-57.005058,-25.012023],[-57.004527,-25.012443],[-57.004592,-25.013639],[-57.001754,-25.013883],[-57.000552,-25.015712],[-56.999804,-25.015766],[-56.998262,-25.014583],[-56.997278,-25.01452],[-56.996918,-25.014782],[-56.996632,-25.015987],[-56.993385,-25.017477],[-56.992852,-25.017184],[-56.992346,-25.016204],[-56.991813,-25.01601],[-56.991433,-25.01773],[-56.990287,-25.017929],[-56.989417,-25.018425],[-56.987483,-25.018664],[-56.98569,-25.020258],[-56.983565,-25.019856],[-56.982213,-25.018836],[-56.981697,-25.017503],[-56.978965,-25.017083],[-56.978725,-25.017485],[-56.97943,-25.018533],[-56.979045,-25.019214],[-56.978314,-25.019467],[-56.976996,-25.018812],[-56.976506,-25.018871],[-56.977098,-25.020582],[-56.976912,-25.021291],[-56.976436,-25.021431],[-56.975757,-25.020569],[-56.974444,-25.020677],[-56.97228,-25.019954],[-56.97112,-25.018491],[-56.970104,-25.019628],[-56.969169,-25.017605],[-56.968316,-25.017506],[-56.968167,-25.017713],[-56.96887,-25.018779],[-56.968359,-25.019583],[-56.967882,-25.019772],[-56.966911,-25.019682],[-56.966526,-25.018124],[-56.96608,-25.017839],[-56.965758,-25.018119],[-56.96619,-25.019158],[-56.965299,-25.020327],[-56.965027,-25.020259],[-56.964662,-25.019099],[-56.964129,-25.018814],[-56.963871,-25.019157],[-56.964035,-25.020444],[-56.96321,-25.019947],[-56.961973,-25.020408],[-56.96173,-25.020177],[-56.961858,-25.019414],[-56.960128,-25.019423],[-56.959968,-25.020353],[-56.959386,-25.02094],[-56.95958,-25.022796],[-56.95923,-25.023378],[-56.956652,-25.023752],[-56.956514,-25.022461],[-56.955237,-25.022957],[-56.954398,-25.023914],[-56.95436,-25.022921],[-56.954046,-25.02265],[-56.953423,-25.023151],[-56.95309,-25.024189],[-56.951568,-25.024405],[-56.951437,-25.023954],[-56.952791,-25.022961],[-56.952919,-25.022405],[-56.952653,-25.021954],[-56.952089,-25.021791],[-56.951322,-25.022468],[-56.949682,-25.022156],[-56.948505,-25.022878],[-56.948613,-25.02202],[-56.947982,-25.021767],[-56.947649,-25.022657],[-56.946545,-25.022394],[-56.946032,-25.023013],[-56.94539,-25.023216],[-56.944215,-25.025103],[-56.94305,-25.024466],[-56.943631,-25.022867],[-56.943326,-25.022014],[-56.94293,-25.02181],[-56.943102,-25.022975],[-56.942049,-25.024059],[-56.941427,-25.023882],[-56.94161,-25.02283],[-56.940922,-25.02241],[-56.940574,-25.022527],[-56.940357,-25.02329],[-56.940855,-25.024117],[-56.939813,-25.025404],[-56.939042,-25.024834],[-56.939283,-25.023073],[-56.93908,-25.022852],[-56.938685,-25.022834],[-56.938227,-25.023407],[-56.937718,-25.022901],[-56.936902,-25.022833],[-56.936883,-25.023804],[-56.936196,-25.02384],[-56.934438,-25.022489],[-56.932998,-25.022849],[-56.932119,-25.022023],[-56.932021,-25.021508],[-56.930602,-25.021548],[-56.929573,-25.020793],[-56.929138,-25.021059],[-56.929625,-25.021719],[-56.928925,-25.021863],[-56.928095,-25.022581],[-56.927407,-25.02207],[-56.926766,-25.022919],[-56.926276,-25.02276],[-56.926283,-25.021781],[-56.9259,-25.021356],[-56.925441,-25.021721],[-56.924894,-25.023144],[-56.924257,-25.022407],[-56.923917,-25.023125],[-56.922874,-25.022555],[-56.92248,-25.022808],[-56.92278,-25.023188],[-56.922171,-25.023219],[-56.921664,-25.023666],[-56.921338,-25.023056],[-56.920845,-25.023299],[-56.919608,-25.022603],[-56.919659,-25.024089],[-56.919333,-25.024549],[-56.918949,-25.02422],[-56.918298,-25.024441],[-56.917548,-25.023704],[-56.917012,-25.024173],[-56.917628,-25.024725],[-56.917691,-25.02519],[-56.916152,-25.025148],[-56.916085,-25.025509],[-56.916788,-25.025921],[-56.916428,-25.027311],[-56.915912,-25.026634],[-56.915188,-25.026588],[-56.915384,-25.02732],[-56.91503,-25.028006],[-56.914039,-25.027193],[-56.912289,-25.027738],[-56.912307,-25.028795],[-56.911703,-25.028487],[-56.911284,-25.027828],[-56.910819,-25.027882],[-56.910611,-25.029028],[-56.938809,-25.078501],[-56.950905,-25.10419],[-56.952561,-25.104308],[-56.953144,-25.103603],[-56.951963,-25.102691],[-56.951144,-25.101648],[-56.951127,-25.101155],[-56.95438,-25.101021],[-56.954509,-25.099364],[-56.955012,-25.098488],[-56.956437,-25.097847],[-56.958433,-25.097631],[-56.958529,-25.097238],[-56.958184,-25.096827],[-56.956332,-25.096515],[-56.956351,-25.095793],[-56.957105,-25.095644],[-56.958467,-25.096209],[-56.959658,-25.095365],[-56.960096,-25.095717],[-56.960091,-25.097442],[-56.960801,-25.097641],[-56.961356,-25.097415],[-56.961586,-25.096945],[-56.961448,-25.095839],[-56.962314,-25.095668],[-56.962476,-25.095365],[-56.961447,-25.094584],[-56.961652,-25.093599],[-56.960883,-25.093279],[-56.961241,-25.093026],[-56.962921,-25.093171],[-56.962717,-25.091053],[-56.962334,-25.090168],[-56.963329,-25.089432],[-56.964018,-25.089369],[-56.96493,-25.09081],[-56.965449,-25.091054],[-56.965742,-25.090891],[-56.964878,-25.089649],[-56.964974,-25.088164],[-56.964028,-25.087834],[-56.964395,-25.086944],[-56.965476,-25.086448],[-56.966499,-25.087414],[-56.967612,-25.086828],[-56.968777,-25.087713],[-56.968983,-25.086972],[-56.968246,-25.085979],[-56.970291,-25.086413],[-56.968142,-25.083279],[-56.968982,-25.082109],[-56.969442,-25.082213],[-56.96986,-25.083062],[-56.970377,-25.082349],[-56.970364,-25.080859],[-56.969065,-25.07973],[-56.96912,-25.079382],[-56.971454,-25.079879],[-56.97206,-25.081536],[-56.972548,-25.081433],[-56.972896,-25.080913],[-56.972964,-25.080241],[-56.972394,-25.079446],[-56.973004,-25.078421],[-56.971937,-25.077865],[-56.971995,-25.075856],[-56.97295,-25.076041],[-56.974261,-25.075491],[-56.975856,-25.075626],[-56.976204,-25.075107],[-56.975994,-25.073969],[-56.976488,-25.073721],[-56.977829,-25.074191],[-56.979187,-25.075988],[-56.980094,-25.076051],[-56.980932,-25.075383],[-56.980621,-25.073243],[-56.981572,-25.072931],[-56.982911,-25.073062],[-56.984448,-25.07253],[-56.985834,-25.073144],[-56.986226,-25.074318],[-56.986938,-25.073465],[-56.988819,-25.074056],[-56.989036,-25.075659],[-56.989395,-25.076066],[-56.99047,-25.075109],[-56.991476,-25.074766],[-56.991436,-25.074553],[-56.990124,-25.074323],[-56.990056,-25.073853],[-56.990444,-25.073569],[-56.991263,-25.073614],[-56.992673,-25.07426],[-56.992945,-25.075493],[-56.994466,-25.076269],[-56.995135,-25.076301],[-56.996347,-25.075479],[-56.997171,-25.075384],[-56.997869,-25.075773],[-56.998383,-25.076807],[-56.998871,-25.076558],[-56.999243,-25.074716],[-56.999718,-25.074599],[-57.00056,-25.075547],[-56.999928,-25.076992],[-57.001194,-25.077588],[-57.001837,-25.076549],[-57.001207,-25.074897],[-57.002887,-25.07435],[-57.003211,-25.073822],[-57.00305,-25.073474],[-57.001461,-25.072978],[-57.001196,-25.072517],[-57.001483,-25.071998],[-57.003387,-25.072007],[-57.005056,-25.071569],[-57.005694,-25.071709],[-57.006906,-25.072422],[-57.007423,-25.07309],[-57.00708,-25.074775],[-57.008367,-25.074987],[-57.008766,-25.074617],[-57.008594,-25.072928],[-57.010475,-25.072079],[-57.011564,-25.070462],[-57.011413,-25.070006],[-57.009763,-25.069342],[-57.010145,-25.068507],[-57.011749,-25.068638],[-57.013603,-25.069897],[-57.014572,-25.069839],[-57.014941,-25.06964],[-57.014864,-25.069337],[-57.013823,-25.068547],[-57.013679,-25.068127],[-57.014135,-25.066913],[-57.015066,-25.066506],[-57.015657,-25.066885],[-57.015319,-25.067969],[-57.015499,-25.06889],[-57.016032,-25.068872],[-57.01674,-25.068317],[-57.017111,-25.068669],[-57.017013,-25.070209],[-57.017973,-25.069594],[-57.020985,-25.064835],[-57.020714,-25.064415],[-57.019758,-25.064934],[-57.018954,-25.064442],[-57.018527,-25.063517],[-57.01882,-25.062826],[-57.019857,-25.062816],[-57.021263,-25.06334],[-57.022096,-25.062301],[-57.02332,-25.063024],[-57.023676,-25.062256],[-57.024685,-25.061976],[-57.024845,-25.061606],[-57.023675,-25.060892],[-57.025023,-25.060897],[-57.025801,-25.059795],[-57.027911,-25.061122],[-57.028645,-25.062052],[-57.029483,-25.060742],[-57.031334,-25.059947],[-57.031843,-25.058899],[-57.03259,-25.058394],[-57.033374,-25.058854],[-57.033332,-25.059743],[-57.032883,-25.060453],[-57.03156,-25.060755],[-57.031547,-25.061139],[-57.034285,-25.062019],[-57.035076,-25.061987],[-57.038105,-25.060307],[-57.039461,-25.058997],[-57.038285,-25.05799],[-57.039689,-25.056477],[-57.04016,-25.056911],[-57.040144,-25.058076],[-57.040897,-25.060983],[-57.041904,-25.061606],[-57.042251,-25.062401],[-57.04236,-25.063828],[-57.041707,-25.064428],[-57.041444,-25.065607],[-57.042092,-25.066451],[-57.042107,-25.067242],[-57.042842,-25.068414],[-57.042431,-25.0711],[-57.037351,-25.078883],[-57.034021,-25.081438],[-57.030693,-25.087943],[-57.027652,-25.091513],[-57.029889,-25.095101],[-57.026603,-25.097273],[-57.027799,-25.101454],[-57.027806,-25.103757],[-57.027346,-25.105803],[-57.027372,-25.108968],[-57.028081,-25.111808],[-57.028594,-25.112246],[-57.029569,-25.114815],[-57.027769,-25.116799],[-57.033295,-25.119491],[-57.063979,-25.130684],[-57.102117,-25.143461],[-57.10338,-25.145004],[-57.105714,-25.144081],[-57.10714,-25.145304],[-57.107642,-25.144197],[-57.109562,-25.14327],[-57.110714,-25.142109],[-57.113035,-25.142906],[-57.115342,-25.142598],[-57.116344,-25.141802],[-57.1176,-25.141693],[-57.117835,-25.141214],[-57.120061,-25.139465],[-57.121815,-25.139481],[-57.122509,-25.140303],[-57.123871,-25.140455],[-57.124098,-25.139827],[-57.123779,-25.138857]]]}}]}
