{"type":"FeatureCollection","name":"distrito","features":[{"type":"Feature","properties":{"clave":"5-23","nombre":"Raúl Arsenio Oviedo"},"geometry":{"type":"Polygon","coordinates":[[[-55.683241,-25.267205],[-55.683389,-25.268026],[-55.683667,-25.267696],[-55.684135,-25.267926],[-55.684647,-25.26774],[-55.68489,-25.268218],[-55.684665,-25.268501],[-55.685288,-25.268875],[-55.685349,-25.26934],[-55.685572,-25.269223],[-55.68669,-25.269827],[-55.686669,-25.270611],[-55.687779,-25.270669],[-55.68836,-25.271363],[-55.68887,-25.271368],[-55.689072,-25.272011],[-55.689815,-25.272208],[-55.691349,-25.274183],[-55.69195,-25.274295],[-55.692189,-25.275118],[-55.692607,-25.275193],[-55.692677,-25.274694],[-55.693665,-25.275226],[-55.693699,-25.275714],[-55.69494,-25.275796],[-55.694957,-25.275499],[-55.694541,-25.275281],[-55.694766,-25.274986],[-55.695389,-25.27542],[-55.696006,-25.275152],[-55.696105,-25.275664],[-55.697627,-25.276378],[-55.697217,-25.276803],[-55.697397,-25.277101],[-55.698274,-25.277026],[-55.698841,-25.276591],[-55.700814,-25.276715],[-55.702012,-25.275882],[-55.702732,-25.275841],[-55.702937,-25.276152],[-55.703972,-25.275983],[-55.704489,-25.275286],[-55.705552,-25.274879],[-55.7059,-25.275211],[-55.707103,-25.27464],[-55.707491,-25.275099],[-55.707621,-25.27468],[-55.708395,-25.275142],[-55.708651,-25.274533],[-55.708913,-25.274796],[-55.709935,-25.274685],[-55.710654,-25.274167],[-55.711179,-25.27468],[-55.71205,-25.274612],[-55.712012,-25.274182],[-55.712372,-25.274397],[-55.713422,-25.274196],[-55.713695,-25.274856],[-55.714013,-25.274688],[-55.714743,-25.274922],[-55.71499,-25.27457],[-55.715984,-25.274906],[-55.716203,-25.275346],[-55.716502,-25.274892],[-55.71735,-25.275036],[-55.717874,-25.274785],[-55.707204,-25.238708],[-55.688051,-25.176289],[-55.687896,-25.173907],[-55.686789,-25.169423],[-55.714573,-25.128486],[-55.704394,-25.128181],[-55.705801,-25.111459],[-55.707895,-25.105369],[-55.708129,-25.103619],[-55.709492,-25.099495],[-55.710567,-25.098895],[-55.711463,-25.097824],[-55.713026,-25.097061],[-55.714919,-25.096883],[-55.717694,-25.097305],[-55.718808,-25.095635],[-55.720612,-25.094576],[-55.724762,-25.091194],[-55.727174,-25.087359],[-55.729061,-25.085542],[-55.728514,-25.083262],[-55.729111,-25.082479],[-55.728633,-25.081879],[-55.728225,-25.081907],[-55.728332,-25.081428],[-55.726816,-25.081949],[-55.724991,-25.081925],[-55.725121,-25.081656],[-55.724782,-25.081576],[-55.724744,-25.081173],[-55.723869,-25.081197],[-55.723993,-25.080765],[-55.723135,-25.080812],[-55.722834,-25.080322],[-55.722381,-25.080612],[-55.722123,-25.08013],[-55.721537,-25.080172],[-55.720278,-25.07962],[-55.718681,-25.079714],[-55.718797,-25.079228],[-55.717658,-25.078499],[-55.717241,-25.078666],[-55.717714,-25.078044],[-55.717338,-25.077476],[-55.71649,-25.077361],[-55.715978,-25.0768],[-55.715279,-25.077149],[-55.71538,-25.076416],[-55.714333,-25.075077],[-55.714691,-25.074894],[-55.714653,-25.0745],[-55.713983,-25.074378],[-55.714368,-25.074103],[-55.714324,-25.073453],[-55.713628,-25.073478],[-55.713777,-25.073016],[-55.713269,-25.072903],[-55.713097,-25.072283],[-55.712604,-25.072114],[-55.713005,-25.071592],[-55.711776,-25.071138],[-55.711636,-25.070477],[-55.711262,-25.070556],[-55.710997,-25.069946],[-55.711566,-25.069579],[-55.71067,-25.068706],[-55.71013,-25.068433],[-55.709242,-25.068889],[-55.709598,-25.068418],[-55.709009,-25.067434],[-55.709267,-25.06657],[-55.708564,-25.066698],[-55.708625,-25.066266],[-55.70795,-25.065868],[-55.708002,-25.065178],[-55.706963,-25.064973],[-55.706877,-25.064612],[-55.70724,-25.064532],[-55.706961,-25.064097],[-55.707222,-25.064089],[-55.707488,-25.063463],[-55.707049,-25.063294],[-55.707302,-25.062873],[-55.706965,-25.062706],[-55.707014,-25.062294],[-55.703978,-25.061207],[-55.703578,-25.060878],[-55.703621,-25.060359],[-55.702902,-25.059934],[-55.702288,-25.060078],[-55.702721,-25.059447],[-55.702033,-25.059188],[-55.7018,-25.05847],[-55.701993,-25.05823],[-55.701425,-25.057988],[-55.701377,-25.056534],[-55.700031,-25.055738],[-55.699752,-25.055159],[-55.699449,-25.055087],[-55.699284,-25.055743],[-55.698793,-25.056022],[-55.697581,-25.056067],[-55.697142,-25.05561],[-55.697013,-25.056037],[-55.696358,-25.055456],[-55.696623,-25.055156],[-55.696546,-25.054154],[-55.697007,-25.053754],[-55.696548,-25.053612],[-55.697055,-25.053351],[-55.697012,-25.052946],[-55.695719,-25.052944],[-55.695561,-25.052594],[-55.694764,-25.052379],[-55.694472,-25.051733],[-55.694758,-25.051323],[-55.694191,-25.050956],[-55.694626,-25.050816],[-55.694515,-25.050213],[-55.69326,-25.049363],[-55.693332,-25.048978],[-55.692664,-25.048259],[-55.691217,-25.047802],[-55.691049,-25.047176],[-55.690445,-25.047416],[-55.690784,-25.046801],[-55.690255,-25.046392],[-55.690419,-25.04583],[-55.690161,-25.04539],[-55.689174,-25.045027],[-55.689317,-25.044511],[-55.688481,-25.044139],[-55.688833,-25.043949],[-55.688399,-25.043318],[-55.688673,-25.043115],[-55.687692,-25.042531],[-55.687976,-25.041998],[-55.68752,-25.041957],[-55.686447,-25.041094],[-55.686663,-25.0399],[-55.686313,-25.039037],[-55.685269,-25.038431],[-55.685433,-25.03758],[-55.684833,-25.037091],[-55.68424,-25.037099],[-55.684719,-25.036635],[-55.683943,-25.036267],[-55.684313,-25.035883],[-55.683911,-25.035549],[-55.684474,-25.034603],[-55.684249,-25.034329],[-55.68363,-25.034396],[-55.683733,-25.033777],[-55.683273,-25.033875],[-55.68332,-25.03334],[-55.682903,-25.033312],[-55.683625,-25.032157],[-55.683564,-25.031727],[-55.682952,-25.031474],[-55.683066,-25.030969],[-55.682665,-25.03047],[-55.681506,-25.030098],[-55.682009,-25.029882],[-55.681798,-25.029547],[-55.679769,-25.029192],[-55.679926,-25.028661],[-55.679052,-25.028681],[-55.678534,-25.028128],[-55.678746,-25.027778],[-55.678459,-25.027259],[-55.677912,-25.02756],[-55.67796,-25.026489],[-55.677015,-25.025706],[-55.677528,-25.02516],[-55.677874,-25.025392],[-55.678826,-25.02401],[-55.679426,-25.023955],[-55.679194,-25.022534],[-55.68045,-25.022002],[-55.680977,-25.022229],[-55.681096,-25.021843],[-55.681876,-25.02204],[-55.682445,-25.021413],[-55.683888,-25.020998],[-55.683711,-25.020484],[-55.683956,-25.020313],[-55.684766,-25.021769],[-55.684972,-25.019683],[-55.686391,-25.019156],[-55.686989,-25.019382],[-55.687901,-25.018855],[-55.687608,-25.019645],[-55.687975,-25.019765],[-55.688674,-25.017914],[-55.689211,-25.017475],[-55.690752,-25.017699],[-55.692575,-25.017553],[-55.693396,-25.018642],[-55.696008,-25.019446],[-55.696549,-25.020146],[-55.697671,-25.02024],[-55.697515,-25.020679],[-55.697818,-25.02096],[-55.698304,-25.020739],[-55.69859,-25.021121],[-55.699284,-25.020418],[-55.699627,-25.020902],[-55.700037,-25.02086],[-55.700017,-25.020348],[-55.699398,-25.019995],[-55.699888,-25.019864],[-55.699987,-25.018915],[-55.700574,-25.018351],[-55.700167,-25.017125],[-55.698297,-25.0188],[-55.697198,-25.016524],[-55.695464,-25.015976],[-55.694605,-25.014944],[-55.689062,-25.011432],[-55.688034,-25.011197],[-55.676851,-25.011667],[-55.665611,-25.017287],[-55.654232,-25.023536],[-55.648726,-25.022999],[-55.635627,-25.036139],[-55.631023,-25.040074],[-55.629359,-25.040221],[-55.626715,-25.039754],[-55.614617,-25.039759],[-55.609386,-25.042063],[-55.60709,-25.036077],[-55.598829,-25.035864],[-55.598796,-25.037823],[-55.599974,-25.041631],[-55.599064,-25.044539],[-55.596664,-25.045744],[-55.591964,-25.050318],[-55.588986,-25.051238],[-55.588203,-25.051736],[-55.585786,-25.053894],[-55.584518,-25.055809],[-55.582749,-25.056691],[-55.581327,-25.058528],[-55.580596,-25.058937],[-55.578917,-25.061124],[-55.577376,-25.062527],[-55.575157,-25.063968],[-55.572749,-25.065042],[-55.568314,-25.065347],[-55.566359,-25.064461],[-55.564778,-25.064893],[-55.561492,-25.063367],[-55.55897,-25.064141],[-55.554316,-25.063974],[-55.552536,-25.065302],[-55.550377,-25.06594],[-55.546668,-25.06878],[-55.543589,-25.070113],[-55.542679,-25.071003],[-55.541147,-25.070979],[-55.539934,-25.071287],[-55.538127,-25.070913],[-55.536784,-25.07113],[-55.533298,-25.070265],[-55.531188,-25.070185],[-55.530407,-25.070602],[-55.52977,-25.071909],[-55.528156,-25.072453],[-55.527687,-25.072385],[-55.527302,-25.071916],[-55.526246,-25.072127],[-55.525456,-25.071442],[-55.522908,-25.071232],[-55.520654,-25.072098],[-55.519766,-25.073078],[-55.51823,-25.073645],[-55.517167,-25.074723],[-55.509325,-25.075561],[-55.507656,-25.075472],[-55.506882,-25.075902],[-55.505968,-25.077242],[-55.504421,-25.07757],[-55.50261,-25.078558],[-55.500489,-25.078966],[-55.499668,-25.079901],[-55.498643,-25.079895],[-55.497779,-25.080509],[-55.496501,-25.08084],[-55.49498,-25.080919],[-55.492333,-25.081948],[-55.491014,-25.082901],[-55.487868,-25.083677],[-55.486789,-25.083472],[-55.486015,-25.082778],[-55.48502,-25.082741],[-55.483162,-25.081331],[-55.480423,-25.081154],[-55.479707,-25.079924],[-55.478379,-25.079179],[-55.47764,-25.079329],[-55.476529,-25.078505],[-55.476249,-25.077667],[-55.475551,-25.077533],[-55.475724,-25.076673],[-55.474909,-25.075897],[-55.475426,-25.075731],[-55.475374,-25.075518],[-55.474573,-25.075424],[-55.474469,-25.074926],[-55.473896,-25.07479],[-55.473147,-25.073721],[-55.472423,-25.073826],[-55.472284,-25.074222],[-55.47095,-25.073864],[-55.470826,-25.0744],[-55.468845,-25.074994],[-55.468127,-25.074866],[-55.467955,-25.075383],[-55.467523,-25.075312],[-55.467138,-25.076023],[-55.466334,-25.076335],[-55.46613,-25.076804],[-55.460754,-25.078588],[-55.456448,-25.084169],[-55.45347,-25.086978],[-55.449924,-25.088281],[-55.446607,-25.090014],[-55.444516,-25.092511],[-55.442985,-25.09721],[-55.442931,-25.101496],[-55.442071,-25.108989],[-55.440742,-25.111654],[-55.438257,-25.1127],[-55.434485,-25.113142],[-55.428515,-25.110561],[-55.422944,-25.109001],[-55.418407,-25.110194],[-55.412198,-25.110985],[-55.406949,-25.110357],[-55.402366,-25.106807],[-55.39899,-25.113582],[-55.392452,-25.122285],[-55.382782,-25.124879],[-55.366968,-25.12493],[-55.363075,-25.134097],[-55.388691,-25.142119],[-55.389746,-25.142144],[-55.389771,-25.140204],[-55.412968,-25.140638],[-55.41258,-25.151681],[-55.416497,-25.152179],[-55.418148,-25.154697],[-55.403844,-25.199962],[-55.424101,-25.200288],[-55.418211,-25.225008],[-55.433294,-25.225353],[-55.434068,-25.226108],[-55.437956,-25.22766],[-55.441192,-25.230638],[-55.441523,-25.230163],[-55.445069,-25.228697],[-55.44693,-25.226022],[-55.44688,-25.225398],[-55.446295,-25.224688],[-55.446357,-25.223831],[-55.450501,-25.222037],[-55.451997,-25.22045],[-55.453793,-25.219245],[-55.454116,-25.218752],[-55.454154,-25.217638],[-55.454712,-25.216709],[-55.455603,-25.216419],[-55.456828,-25.218289],[-55.459588,-25.220796],[-55.460618,-25.224319],[-55.460834,-25.229468],[-55.463912,-25.228834],[-55.470128,-25.231676],[-55.476795,-25.233265],[-55.476931,-25.228176],[-55.477299,-25.227783],[-55.511065,-25.228502],[-55.510804,-25.237546],[-55.53089,-25.237978],[-55.532402,-25.239183],[-55.542382,-25.239612],[-55.541818,-25.251375],[-55.553096,-25.251612],[-55.555763,-25.252721],[-55.555627,-25.252992],[-55.564704,-25.254208],[-55.563886,-25.256358],[-55.557725,-25.267269],[-55.567412,-25.267306],[-55.578879,-25.269316],[-55.58515,-25.26906],[-55.594248,-25.265189],[-55.602623,-25.263527],[-55.626906,-25.271512],[-55.636475,-25.272076],[-55.644846,-25.270887],[-55.650065,-25.268672],[-55.65134,-25.268415],[-55.652289,-25.267726],[-55.654,-25.26752],[-55.655298,-25.266739],[-55.658217,-25.265957],[-55.6599,-25.265101],[-55.660134,-25.264374],[-55.661402,-25.26326],[-55.661855,-25.263264],[-55.662281,-25.262555],[-55.663413,-25.262613],[-55.665164,-25.26182],[-55.66528,-25.262392],[-55.666657,-25.262373],[-55.668931,-25.263249],[-55.669292,-25.263696],[-55.669765,-25.263447],[-55.669935,-25.26386],[-55.672705,-25.263628],[-55.673695,-25.263886],[-55.673222,-25.264096],[-55.673648,-25.264623],[-55.674386,-25.264083],[-55.674498,-25.264559],[-55.674966,-25.264849],[-55.675248,-25.264174],[-55.677368,-25.265155],[-55.677475,-25.264883],[-55.678115,-25.264912],[-55.678767,-25.266345],[-55.6803,-25.266014],[-55.680202,-25.266572],[-55.681447,-25.26751],[-55.681853,-25.267466],[-55.682004,-25.266742],[-55.682626,-25.267294],[-55.683241,-25.267205]]]}}]}
