{"type":"FeatureCollection","name":"distrito","features":[{"type":"Feature","properties":{"clave":"10-15","nombre":"Mbaracayú"},"geometry":{"type":"Polygon","coordinates":[[[-54.706157,-25.09178],[-54.713322,-25.101063],[-54.714919,-25.103812],[-54.71629,-25.104663],[-54.716682,-25.106024],[-54.718417,-25.108871],[-54.72322,-25.112411],[-54.724697,-25.113016],[-54.730248,-25.114288],[-54.738842,-25.115634],[-54.74,-25.115976],[-54.740952,-25.116817],[-54.743304,-25.116776],[-54.747115,-25.118657],[-54.742358,-25.118236],[-54.742277,-25.118419],[-54.759875,-25.123433],[-54.761076,-25.121279],[-54.776192,-25.13028],[-54.83969,-25.188544],[-54.866528,-25.212453],[-54.866709,-25.213142],[-54.863892,-25.227251],[-54.864662,-25.228291],[-54.864743,-25.229561],[-54.866095,-25.231381],[-54.868168,-25.236782],[-54.870364,-25.241056],[-54.869384,-25.244098],[-54.870987,-25.246039],[-54.872725,-25.251092],[-54.874878,-25.253366],[-54.877659,-25.251715],[-54.877894,-25.250913],[-54.877482,-25.249612],[-54.876769,-25.248907],[-54.876681,-25.248436],[-54.877047,-25.24795],[-54.876295,-25.247158],[-54.875404,-25.24487],[-54.873827,-25.243606],[-54.874359,-25.242933],[-54.873977,-25.242444],[-54.873662,-25.240932],[-54.872557,-25.240582],[-54.871918,-25.238835],[-54.871394,-25.238349],[-54.870864,-25.236897],[-54.871264,-25.236267],[-54.871068,-25.235262],[-54.871384,-25.234404],[-54.870488,-25.233065],[-54.871031,-25.23282],[-54.870288,-25.231762],[-54.870849,-25.231544],[-54.870549,-25.230728],[-54.871115,-25.230352],[-54.871006,-25.229886],[-54.871996,-25.229322],[-54.871576,-25.22914],[-54.871803,-25.2288],[-54.871476,-25.228696],[-54.871711,-25.228415],[-54.871143,-25.22694],[-54.871358,-25.226099],[-54.870832,-25.2256],[-54.871068,-25.224944],[-54.870607,-25.224328],[-54.870992,-25.223549],[-54.871878,-25.222979],[-54.872095,-25.221872],[-54.872662,-25.221266],[-54.872332,-25.220273],[-54.873017,-25.219443],[-54.872818,-25.218935],[-54.873151,-25.217162],[-54.874249,-25.217096],[-54.874777,-25.216472],[-54.87442,-25.215135],[-54.874884,-25.214831],[-54.874855,-25.213964],[-54.875348,-25.213533],[-54.874892,-25.212569],[-54.875235,-25.212281],[-54.87486,-25.211851],[-54.875193,-25.211558],[-54.874901,-25.210268],[-54.87531,-25.210043],[-54.87494,-25.209731],[-54.875245,-25.209501],[-54.875029,-25.208965],[-54.87535,-25.208401],[-54.874439,-25.206605],[-54.874103,-25.204204],[-54.872834,-25.202651],[-54.872615,-25.201849],[-54.872156,-25.201599],[-54.872384,-25.201002],[-54.872089,-25.198086],[-54.872313,-25.197692],[-54.872089,-25.196525],[-54.871479,-25.195663],[-54.871582,-25.195037],[-54.871164,-25.194588],[-54.87097,-25.193489],[-54.871335,-25.193278],[-54.87028,-25.192536],[-54.870447,-25.192078],[-54.869911,-25.192088],[-54.870108,-25.191716],[-54.869351,-25.190505],[-54.869007,-25.189227],[-54.868557,-25.189275],[-54.868782,-25.188488],[-54.86828,-25.187813],[-54.868078,-25.186736],[-54.867359,-25.186771],[-54.867884,-25.185812],[-54.867279,-25.185826],[-54.867378,-25.185259],[-54.866904,-25.184832],[-54.866908,-25.184187],[-54.866524,-25.184651],[-54.866247,-25.183731],[-54.866446,-25.183151],[-54.865601,-25.18248],[-54.866083,-25.18148],[-54.865639,-25.180842],[-54.865928,-25.180409],[-54.864978,-25.178996],[-54.864168,-25.178979],[-54.864704,-25.178721],[-54.864657,-25.178368],[-54.864124,-25.178361],[-54.864647,-25.177799],[-54.863929,-25.176629],[-54.864159,-25.175671],[-54.863431,-25.175507],[-54.864287,-25.17528],[-54.864072,-25.175024],[-54.864221,-25.17323],[-54.86709,-25.172089],[-54.867974,-25.17026],[-54.86865,-25.167616],[-54.869365,-25.166823],[-54.869721,-25.166558],[-54.870609,-25.166714],[-54.871273,-25.165907],[-54.872069,-25.165743],[-54.873019,-25.164921],[-54.872933,-25.163602],[-54.872064,-25.162172],[-54.872213,-25.161258],[-54.873152,-25.160455],[-54.872567,-25.158989],[-54.872842,-25.156673],[-54.87329,-25.156092],[-54.874253,-25.155871],[-54.87474,-25.155224],[-54.874838,-25.15323],[-54.87666,-25.153008],[-54.877414,-25.152383],[-54.877269,-25.150806],[-54.877584,-25.150083],[-54.877358,-25.149421],[-54.878009,-25.148744],[-54.878071,-25.147838],[-54.879273,-25.146497],[-54.878527,-25.144256],[-54.878364,-25.142354],[-54.877546,-25.141882],[-54.877423,-25.140964],[-54.877102,-25.140684],[-54.877347,-25.140164],[-54.87713,-25.139705],[-54.877811,-25.138731],[-54.878953,-25.138176],[-54.902426,-25.160117],[-54.902991,-25.161155],[-54.903231,-25.16386],[-54.924154,-25.174733],[-54.927686,-25.174358],[-54.9381,-25.179731],[-54.938894,-25.180112],[-54.940379,-25.180182],[-54.941803,-25.181181],[-54.953368,-25.166655],[-54.967452,-25.140663],[-54.967788,-25.138598],[-54.967698,-25.135758],[-54.949596,-25.059183],[-54.9399,-25.05402],[-54.928642,-25.0438],[-54.930005,-25.041375],[-54.929841,-25.041166],[-54.924768,-25.036583],[-54.923808,-25.037105],[-54.923454,-25.036996],[-54.915023,-25.029228],[-54.909443,-25.021955],[-54.902729,-25.01536],[-54.901038,-25.014306],[-54.900663,-25.013426],[-54.898846,-25.011388],[-54.891165,-25.003509],[-54.891149,-25.002707],[-54.892153,-25.002125],[-54.886403,-25.001246],[-54.882507,-25.000016],[-54.875868,-24.998693],[-54.871481,-24.998509],[-54.866781,-24.999529],[-54.864854,-25.000346],[-54.864193,-25.001258],[-54.863738,-25.003453],[-54.851505,-25.002072],[-54.851359,-25.00105],[-54.849807,-24.999069],[-54.849525,-24.997878],[-54.8482,-24.996437],[-54.847878,-24.994717],[-54.847219,-24.994098],[-54.846529,-24.992711],[-54.845955,-24.992297],[-54.845598,-24.990852],[-54.845755,-24.988002],[-54.845402,-24.985984],[-54.844544,-24.984008],[-54.844157,-24.981326],[-54.843211,-24.980432],[-54.842001,-24.978059],[-54.815771,-24.95408],[-54.812759,-24.95663],[-54.809693,-24.9552],[-54.807652,-24.952872],[-54.806545,-24.952075],[-54.804839,-24.952118],[-54.802563,-24.950888],[-54.799297,-24.947401],[-54.798424,-24.946927],[-54.797807,-24.946137],[-54.796884,-24.945799],[-54.796625,-24.944874],[-54.796365,-24.945132],[-54.79593,-24.944841],[-54.795481,-24.943657],[-54.793312,-24.943471],[-54.791737,-24.942509],[-54.791037,-24.941388],[-54.790992,-24.939945],[-54.790414,-24.939849],[-54.780199,-24.942058],[-54.780428,-24.944778],[-54.781876,-24.951701],[-54.773495,-24.955561],[-54.772503,-24.954183],[-54.767827,-24.951545],[-54.766847,-24.950041],[-54.764073,-24.948302],[-54.762892,-24.94638],[-54.76059,-24.944391],[-54.760321,-24.942672],[-54.759892,-24.941916],[-54.76002,-24.936804],[-54.75935,-24.931315],[-54.758006,-24.927937],[-54.757209,-24.924788],[-54.755227,-24.921382],[-54.752023,-24.919222],[-54.751034,-24.917961],[-54.750307,-24.91364],[-54.747339,-24.90859],[-54.747037,-24.905772],[-54.746162,-24.90441],[-54.744546,-24.903155],[-54.744256,-24.899693],[-54.741278,-24.899091],[-54.740142,-24.89796],[-54.73958,-24.893526],[-54.738195,-24.888464],[-54.735189,-24.884169],[-54.733857,-24.883182],[-54.731636,-24.883412],[-54.729971,-24.883152],[-54.729098,-24.881703],[-54.727266,-24.876459],[-54.724413,-24.874061],[-54.72083,-24.87494],[-54.715697,-24.87801],[-54.707058,-24.878526],[-54.698165,-24.876259],[-54.691576,-24.875694],[-54.686874,-24.877381],[-54.682286,-24.878421],[-54.676355,-24.877783],[-54.671495,-24.872545],[-54.667355,-24.865264],[-54.661126,-24.858329],[-54.654389,-24.856911],[-54.645902,-24.857847],[-54.641942,-24.859839],[-54.637373,-24.864978],[-54.635517,-24.870689],[-54.635089,-24.8764],[-54.633661,-24.881254],[-54.629991,-24.884924],[-54.626567,-24.88906],[-54.617119,-24.887873],[-54.612246,-24.883824],[-54.603395,-24.879255],[-54.589689,-24.869832],[-54.585987,-24.867907],[-54.573443,-24.867703],[-54.561951,-24.867861],[-54.550999,-24.872635],[-54.541862,-24.877827],[-54.520447,-24.88568],[-54.509739,-24.888821],[-54.504599,-24.888392],[-54.475818,-24.887968],[-54.447173,-24.887135],[-54.423139,-24.887775],[-54.428536,-24.909623],[-54.43567,-24.949688],[-54.439866,-24.966881],[-54.43964,-24.977766],[-54.445453,-24.999396],[-54.451381,-25.043072],[-54.456655,-25.063392],[-54.45802,-25.080013],[-54.456479,-25.084967],[-54.474904,-25.069564],[-54.481471,-25.067137],[-54.482042,-25.070992],[-54.482042,-25.073705],[-54.485326,-25.085983],[-54.486325,-25.094263],[-54.491322,-25.096405],[-54.504028,-25.091551],[-54.512023,-25.089695],[-54.521589,-25.085983],[-54.529155,-25.075989],[-54.534152,-25.073705],[-54.544574,-25.078987],[-54.55157,-25.077131],[-54.56599,-25.074133],[-54.574698,-25.074847],[-54.587262,-25.079701],[-54.592973,-25.080129],[-54.59697,-25.079844],[-54.604822,-25.078702],[-54.607678,-25.080843],[-54.61139,-25.086268],[-54.617529,-25.090694],[-54.622954,-25.088981],[-54.633661,-25.0807],[-54.641085,-25.075989],[-54.648795,-25.076274],[-54.653221,-25.077988],[-54.657218,-25.081557],[-54.662358,-25.088267],[-54.669211,-25.091979],[-54.671784,-25.09777],[-54.675128,-25.096297],[-54.680232,-25.093192],[-54.683944,-25.090432],[-54.688691,-25.088564],[-54.693723,-25.087815],[-54.700422,-25.089897],[-54.704443,-25.091538],[-54.706157,-25.09178]]]}}]}
