{"type":"FeatureCollection","name":"distrito","features":[{"type":"Feature","properties":{"clave":"5-3","nombre":"Caaguazú"},"geometry":{"type":"Polygon","coordinates":[[[-56.170154,-25.590222],[-56.170927,-25.590628],[-56.173016,-25.590315],[-56.174731,-25.590523],[-56.174738,-25.590289],[-56.177103,-25.590203],[-56.179847,-25.589446],[-56.181092,-25.588275],[-56.183007,-25.587437],[-56.184103,-25.586011],[-56.184438,-25.584939],[-56.185419,-25.584633],[-56.186546,-25.583605],[-56.190419,-25.584313],[-56.193371,-25.584049],[-56.195899,-25.58167],[-56.201991,-25.579347],[-56.204418,-25.577486],[-56.205814,-25.576898],[-56.20702,-25.575428],[-56.20793,-25.577072],[-56.208681,-25.577419],[-56.211689,-25.57763],[-56.212594,-25.578948],[-56.213008,-25.581389],[-56.213544,-25.581635],[-56.21462,-25.581447],[-56.217238,-25.578747],[-56.218402,-25.578397],[-56.220765,-25.578798],[-56.221619,-25.579683],[-56.221934,-25.580804],[-56.223436,-25.58125],[-56.226675,-25.579172],[-56.227536,-25.578983],[-56.22818,-25.578986],[-56.231182,-25.580266],[-56.232636,-25.579935],[-56.233822,-25.57926],[-56.236513,-25.578786],[-56.237375,-25.578398],[-56.238567,-25.576941],[-56.239484,-25.576363],[-56.244222,-25.575119],[-56.24553,-25.5722],[-56.248221,-25.571582],[-56.249993,-25.571835],[-56.25001,-25.572657],[-56.250882,-25.572878],[-56.251222,-25.572559],[-56.251994,-25.572848],[-56.252491,-25.57267],[-56.252564,-25.573808],[-56.253118,-25.574059],[-56.25313,-25.575373],[-56.253606,-25.575344],[-56.253669,-25.574784],[-56.253887,-25.574875],[-56.2555,-25.578003],[-56.256067,-25.57832],[-56.257144,-25.577064],[-56.258227,-25.576916],[-56.261121,-25.578876],[-56.261319,-25.579798],[-56.261011,-25.580271],[-56.261796,-25.580537],[-56.261758,-25.581119],[-56.262318,-25.580752],[-56.262197,-25.581243],[-56.264555,-25.582542],[-56.266095,-25.582044],[-56.267192,-25.582311],[-56.267363,-25.582064],[-56.268848,-25.582378],[-56.268627,-25.582639],[-56.268878,-25.582929],[-56.271,-25.582818],[-56.272062,-25.583284],[-56.273219,-25.584698],[-56.274435,-25.584966],[-56.276104,-25.58404],[-56.279335,-25.583613],[-56.280566,-25.584138],[-56.28186,-25.585233],[-56.283459,-25.584902],[-56.283828,-25.585319],[-56.283638,-25.586068],[-56.283906,-25.586408],[-56.286205,-25.586252],[-56.286866,-25.58598],[-56.287292,-25.585336],[-56.287609,-25.583225],[-56.289335,-25.580059],[-56.289674,-25.576963],[-56.290762,-25.575759],[-56.29172,-25.573804],[-56.29116,-25.571498],[-56.292119,-25.56925],[-56.291753,-25.568865],[-56.292372,-25.567901],[-56.292213,-25.567706],[-56.291144,-25.568234],[-56.290908,-25.567556],[-56.290026,-25.568062],[-56.28958,-25.566777],[-56.287662,-25.566596],[-56.287343,-25.566428],[-56.287108,-25.565533],[-56.286227,-25.565768],[-56.286444,-25.565141],[-56.285414,-25.565791],[-56.285471,-25.565114],[-56.286301,-25.564486],[-56.286145,-25.563785],[-56.285637,-25.563999],[-56.285399,-25.563831],[-56.284141,-25.564647],[-56.283264,-25.564204],[-56.281661,-25.564874],[-56.280995,-25.564776],[-56.280886,-25.565236],[-56.280379,-25.565256],[-56.278842,-25.563772],[-56.277417,-25.56362],[-56.277105,-25.562337],[-56.274732,-25.56228],[-56.274161,-25.560963],[-56.273696,-25.561719],[-56.272419,-25.561275],[-56.2716,-25.560133],[-56.272086,-25.559074],[-56.271394,-25.559021],[-56.27121,-25.558537],[-56.270914,-25.558874],[-56.271073,-25.559069],[-56.270404,-25.559527],[-56.269766,-25.559185],[-56.269852,-25.558287],[-56.268463,-25.558718],[-56.268311,-25.557435],[-56.267671,-25.557454],[-56.267668,-25.557987],[-56.267376,-25.557746],[-56.267013,-25.556074],[-56.268267,-25.555936],[-56.268568,-25.554682],[-56.267834,-25.554701],[-56.26768,-25.553707],[-56.269552,-25.552727],[-56.269559,-25.551612],[-56.268278,-25.551827],[-56.267108,-25.551455],[-56.267324,-25.551],[-56.267112,-25.550828],[-56.266017,-25.551039],[-56.266663,-25.550126],[-56.266453,-25.549569],[-56.265545,-25.549804],[-56.266004,-25.54889],[-56.265983,-25.548041],[-56.264201,-25.547382],[-56.263427,-25.547617],[-56.263592,-25.546724],[-56.262448,-25.54638],[-56.261242,-25.545213],[-56.261007,-25.544485],[-56.259733,-25.543535],[-56.25904,-25.543581],[-56.258929,-25.54438],[-56.258662,-25.5445],[-56.257545,-25.543939],[-56.25717,-25.544371],[-56.25616,-25.543883],[-56.256421,-25.544706],[-56.255807,-25.545019],[-56.2553,-25.545016],[-56.253895,-25.543871],[-56.253069,-25.543795],[-56.252584,-25.544664],[-56.251095,-25.544146],[-56.249542,-25.545068],[-56.249569,-25.54421],[-56.248497,-25.544164],[-56.248521,-25.543803],[-56.24785,-25.543551],[-56.247979,-25.543055],[-56.247307,-25.543034],[-56.247094,-25.543529],[-56.246779,-25.543528],[-56.246071,-25.542323],[-56.246055,-25.54156],[-56.245721,-25.541328],[-56.24557,-25.541842],[-56.245409,-25.540735],[-56.244884,-25.540696],[-56.244781,-25.540312],[-56.24512,-25.539822],[-56.244619,-25.539376],[-56.243359,-25.539275],[-56.242355,-25.538529],[-56.242613,-25.537673],[-56.242116,-25.536429],[-56.242661,-25.536621],[-56.242999,-25.536379],[-56.242749,-25.535994],[-56.241952,-25.535782],[-56.241892,-25.535321],[-56.242741,-25.533976],[-56.24258,-25.532751],[-56.243341,-25.531974],[-56.243153,-25.531784],[-56.242711,-25.532012],[-56.24234,-25.530863],[-56.243457,-25.530318],[-56.24319,-25.529323],[-56.243765,-25.528089],[-56.242868,-25.527168],[-56.242807,-25.526748],[-56.244006,-25.526564],[-56.24384,-25.526238],[-56.242749,-25.525948],[-56.242215,-25.523963],[-56.243034,-25.524063],[-56.24323,-25.522993],[-56.243824,-25.522044],[-56.244958,-25.52209],[-56.245868,-25.521142],[-56.245879,-25.519445],[-56.246833,-25.518077],[-56.248621,-25.517572],[-56.25,-25.516527],[-56.250643,-25.51555],[-56.250224,-25.514767],[-56.250668,-25.513966],[-56.250515,-25.51331],[-56.249954,-25.512928],[-56.24992,-25.511664],[-56.250098,-25.510653],[-56.250641,-25.510399],[-56.249578,-25.508881],[-56.248949,-25.508801],[-56.248702,-25.508018],[-56.248282,-25.507903],[-56.248979,-25.507315],[-56.248524,-25.506248],[-56.248739,-25.505445],[-56.247796,-25.50502],[-56.248391,-25.50394],[-56.247372,-25.502219],[-56.247148,-25.501148],[-56.246605,-25.500612],[-56.24665,-25.500011],[-56.24722,-25.499459],[-56.246281,-25.499018],[-56.246175,-25.498363],[-56.246458,-25.497819],[-56.24571,-25.497424],[-56.246475,-25.496819],[-56.246336,-25.496536],[-56.245465,-25.496413],[-56.245479,-25.49585],[-56.246133,-25.495408],[-56.244774,-25.494746],[-56.245487,-25.494504],[-56.245501,-25.493886],[-56.245109,-25.494084],[-56.244259,-25.493907],[-56.244212,-25.493379],[-56.243732,-25.493168],[-56.243946,-25.492641],[-56.243637,-25.492403],[-56.242157,-25.49355],[-56.241989,-25.493149],[-56.241085,-25.493518],[-56.240538,-25.492942],[-56.240481,-25.492441],[-56.24004,-25.492512],[-56.239666,-25.493001],[-56.238965,-25.492943],[-56.238872,-25.493379],[-56.238542,-25.493304],[-56.238205,-25.492648],[-56.237742,-25.493046],[-56.237061,-25.493006],[-56.237495,-25.492462],[-56.236437,-25.491793],[-56.237074,-25.491005],[-56.236776,-25.490595],[-56.236295,-25.490492],[-56.23597,-25.4912],[-56.234941,-25.490858],[-56.234727,-25.48972],[-56.233476,-25.489614],[-56.233676,-25.488132],[-56.233138,-25.48753],[-56.23373,-25.487496],[-56.233746,-25.486551],[-56.234401,-25.485845],[-56.234046,-25.485016],[-56.23514,-25.484658],[-56.234524,-25.483936],[-56.23542,-25.483195],[-56.235391,-25.48144],[-56.236373,-25.481381],[-56.237089,-25.480649],[-56.236951,-25.480266],[-56.2365,-25.4803],[-56.236012,-25.479897],[-56.23624,-25.478653],[-56.23555,-25.478404],[-56.234876,-25.478855],[-56.234763,-25.477772],[-56.23364,-25.477976],[-56.233782,-25.476076],[-56.233308,-25.474964],[-56.231703,-25.475392],[-56.230898,-25.47597],[-56.229632,-25.475199],[-56.228578,-25.47553],[-56.226878,-25.475039],[-56.226742,-25.474502],[-56.226014,-25.473962],[-56.225927,-25.473407],[-56.226378,-25.473082],[-56.225202,-25.47223],[-56.225688,-25.47136],[-56.224748,-25.471118],[-56.224687,-25.469672],[-56.224239,-25.469388],[-56.223742,-25.470304],[-56.222859,-25.47049],[-56.222224,-25.471087],[-56.220247,-25.470131],[-56.219164,-25.470389],[-56.217075,-25.469483],[-56.217,-25.469116],[-56.217656,-25.468514],[-56.217446,-25.46814],[-56.215466,-25.468425],[-56.214584,-25.467713],[-56.213493,-25.468762],[-56.212587,-25.468513],[-56.212174,-25.467719],[-56.211728,-25.467536],[-56.210423,-25.468746],[-56.209131,-25.468906],[-56.208966,-25.467077],[-56.207241,-25.466289],[-56.207569,-25.464972],[-56.206471,-25.46485],[-56.205742,-25.465773],[-56.205293,-25.464959],[-56.204834,-25.464757],[-56.203221,-25.466364],[-56.202676,-25.465183],[-56.201737,-25.464509],[-56.201168,-25.464879],[-56.200161,-25.464919],[-56.198614,-25.464003],[-56.197664,-25.462948],[-56.195825,-25.463382],[-56.194459,-25.46297],[-56.193896,-25.462249],[-56.194188,-25.462048],[-56.194961,-25.462179],[-56.195019,-25.461177],[-56.192759,-25.461606],[-56.19239,-25.461296],[-56.193296,-25.460711],[-56.193342,-25.4604],[-56.190865,-25.460469],[-56.190593,-25.459482],[-56.190966,-25.458846],[-56.189992,-25.45711],[-56.190729,-25.45712],[-56.191574,-25.458007],[-56.19188,-25.457918],[-56.191371,-25.456532],[-56.19047,-25.455581],[-56.190671,-25.455318],[-56.191689,-25.455665],[-56.191426,-25.454678],[-56.19052,-25.454474],[-56.190345,-25.454119],[-56.192092,-25.453495],[-56.192522,-25.452798],[-56.192358,-25.451774],[-56.191433,-25.450991],[-56.190408,-25.450865],[-56.189828,-25.449322],[-56.188823,-25.448515],[-56.187474,-25.445206],[-56.187034,-25.444933],[-56.186274,-25.444992],[-56.184713,-25.44255],[-56.183189,-25.441531],[-56.1822,-25.443154],[-56.180485,-25.443112],[-56.178889,-25.442215],[-56.17823,-25.443119],[-56.177837,-25.442583],[-56.177633,-25.441365],[-56.176727,-25.44107],[-56.176301,-25.441177],[-56.176305,-25.441673],[-56.175453,-25.441887],[-56.174647,-25.442636],[-56.173389,-25.443182],[-56.173094,-25.442723],[-56.171856,-25.442317],[-56.17172,-25.441576],[-56.171045,-25.440736],[-56.168628,-25.44069],[-56.167914,-25.437314],[-56.166959,-25.436079],[-56.165986,-25.43527],[-56.16547,-25.435164],[-56.164989,-25.435493],[-56.164034,-25.435064],[-56.16385,-25.434422],[-56.162529,-25.434048],[-56.161354,-25.434522],[-56.157565,-25.433986],[-56.156047,-25.434881],[-56.154661,-25.436601],[-56.154314,-25.435741],[-56.154459,-25.433018],[-56.153708,-25.430531],[-56.15174,-25.429158],[-56.14926,-25.428789],[-56.148319,-25.428367],[-56.149138,-25.427032],[-56.149149,-25.425199],[-56.150344,-25.424973],[-56.165111,-25.416175],[-56.182073,-25.40677],[-56.174635,-25.405178],[-56.137014,-25.394547],[-56.13338,-25.39501],[-56.129727,-25.394869],[-56.120579,-25.393152],[-56.118923,-25.395759],[-56.118963,-25.395971],[-56.119394,-25.395807],[-56.119543,-25.396517],[-56.118779,-25.396589],[-56.117976,-25.395866],[-56.117161,-25.395857],[-56.115459,-25.394799],[-56.114864,-25.393459],[-56.115616,-25.392425],[-56.115226,-25.392206],[-56.114859,-25.391089],[-56.114623,-25.391308],[-56.114213,-25.39108],[-56.114949,-25.390344],[-56.114906,-25.389811],[-56.113292,-25.388361],[-56.111401,-25.388223],[-56.111447,-25.387546],[-56.110874,-25.387096],[-56.108987,-25.387035],[-56.108287,-25.386241],[-56.107495,-25.38611],[-56.104583,-25.384428],[-56.102405,-25.38457],[-56.093165,-25.382012],[-56.094776,-25.354842],[-56.09408,-25.354346],[-56.093676,-25.35335],[-56.093714,-25.351003],[-56.093931,-25.349546],[-56.094292,-25.349078],[-56.095601,-25.34891],[-56.095922,-25.348596],[-56.096702,-25.344732],[-56.095443,-25.344155],[-56.09512,-25.342654],[-56.095069,-25.336811],[-56.094084,-25.335355],[-56.093751,-25.333912],[-56.091589,-25.331904],[-56.090679,-25.331563],[-56.090349,-25.331003],[-56.089559,-25.33111],[-56.087271,-25.330108],[-56.088352,-25.329076],[-56.088054,-25.328113],[-56.088647,-25.327362],[-56.088325,-25.32569],[-56.089564,-25.324596],[-56.090713,-25.321488],[-56.088952,-25.320018],[-56.088806,-25.318984],[-56.088135,-25.318451],[-56.088612,-25.317804],[-56.090136,-25.31775],[-56.089266,-25.317329],[-56.090512,-25.316109],[-56.09004,-25.315506],[-56.090369,-25.315219],[-56.089397,-25.314838],[-56.089354,-25.314057],[-56.088177,-25.313503],[-56.087503,-25.312497],[-56.088361,-25.311865],[-56.089511,-25.311949],[-56.090129,-25.311027],[-56.092084,-25.31117],[-56.093149,-25.309208],[-56.095464,-25.307082],[-56.097328,-25.307265],[-56.097939,-25.306709],[-56.098499,-25.306875],[-56.100002,-25.305896],[-56.098802,-25.304972],[-56.098863,-25.304746],[-56.096836,-25.304673],[-56.099684,-25.288258],[-56.099107,-25.286435],[-56.097796,-25.285766],[-56.099773,-25.285265],[-56.100552,-25.284123],[-56.103009,-25.282865],[-56.104851,-25.281002],[-56.105504,-25.27897],[-56.107063,-25.278876],[-56.108387,-25.277922],[-56.109171,-25.278008],[-56.11035,-25.276936],[-56.110961,-25.274533],[-56.112276,-25.272369],[-56.113552,-25.271343],[-56.114946,-25.270963],[-56.11616,-25.269945],[-56.117576,-25.267493],[-56.119011,-25.26668],[-56.122314,-25.266713],[-56.123309,-25.267211],[-56.124068,-25.267229],[-56.125079,-25.267989],[-56.12724,-25.267298],[-56.128,-25.267677],[-56.129248,-25.267427],[-56.129939,-25.268343],[-56.130812,-25.267378],[-56.13121,-25.268053],[-56.13164,-25.268037],[-56.131926,-25.268797],[-56.132743,-25.267976],[-56.133305,-25.267808],[-56.133974,-25.268141],[-56.134816,-25.267871],[-56.135731,-25.268639],[-56.137344,-25.267682],[-56.138939,-25.267439],[-56.139236,-25.267057],[-56.14081,-25.267689],[-56.143476,-25.267754],[-56.144618,-25.268253],[-56.145993,-25.267606],[-56.147319,-25.265374],[-56.147406,-25.264671],[-56.147136,-25.264041],[-56.145526,-25.262926],[-56.145091,-25.259415],[-56.144479,-25.259064],[-56.143476,-25.259185],[-56.140072,-25.260817],[-56.139165,-25.261846],[-56.138094,-25.262034],[-56.137512,-25.261687],[-56.137111,-25.260335],[-56.136476,-25.259473],[-56.134628,-25.259892],[-56.132851,-25.259443],[-56.130681,-25.260035],[-56.129956,-25.259959],[-56.129614,-25.259727],[-56.12874,-25.25717],[-56.127138,-25.255671],[-56.120634,-25.254431],[-56.119856,-25.25384],[-56.119585,-25.253197],[-56.119983,-25.252387],[-56.119103,-25.251451],[-56.119171,-25.251163],[-56.120096,-25.250342],[-56.122077,-25.250142],[-56.122493,-25.247869],[-56.124031,-25.245905],[-56.124265,-25.245129],[-56.123987,-25.244094],[-56.122387,-25.243777],[-56.121872,-25.243318],[-56.121677,-25.242509],[-56.122002,-25.24014],[-56.12285,-25.238118],[-56.125266,-25.235627],[-56.125172,-25.23512],[-56.124249,-25.234076],[-56.122629,-25.234202],[-56.123546,-25.232862],[-56.123294,-25.232418],[-56.118778,-25.231673],[-56.117967,-25.232355],[-56.117714,-25.232972],[-56.118296,-25.234745],[-56.118081,-25.234907],[-56.11639,-25.23463],[-56.114552,-25.23289],[-56.11196,-25.233678],[-56.11147,-25.233201],[-56.111038,-25.231564],[-56.112254,-25.230302],[-56.111905,-25.229917],[-56.109598,-25.230237],[-56.106051,-25.229642],[-56.103235,-25.228523],[-56.101568,-25.226793],[-56.100122,-25.226057],[-56.098946,-25.226398],[-56.098589,-25.227836],[-56.098276,-25.228005],[-56.096878,-25.227582],[-56.095309,-25.22787],[-56.094794,-25.227397],[-56.095194,-25.2267],[-56.095075,-25.226162],[-56.093647,-25.225769],[-56.093474,-25.224942],[-56.093164,-25.224877],[-56.089235,-25.226279],[-56.087408,-25.226589],[-56.08681,-25.226233],[-56.086153,-25.226893],[-56.085475,-25.226938],[-56.084289,-25.226606],[-56.081935,-25.224821],[-56.081414,-25.225324],[-56.080798,-25.227248],[-56.079235,-25.226105],[-56.076252,-25.224718],[-56.073844,-25.225195],[-56.072461,-25.224834],[-56.070757,-25.222625],[-56.071107,-25.222121],[-56.072646,-25.221621],[-56.072785,-25.220809],[-56.071639,-25.219194],[-56.070395,-25.218283],[-56.068843,-25.218066],[-56.066504,-25.216661],[-56.065172,-25.215401],[-56.063731,-25.216047],[-56.060731,-25.216073],[-56.060378,-25.214789],[-56.059768,-25.214681],[-56.059403,-25.21411],[-56.060614,-25.21149],[-56.05997,-25.209964],[-56.060299,-25.207862],[-56.059665,-25.206901],[-56.060154,-25.206118],[-56.058544,-25.204704],[-56.058441,-25.203918],[-56.059607,-25.202742],[-56.059465,-25.201102],[-56.060922,-25.20043],[-56.061029,-25.1989],[-56.060418,-25.195894],[-56.059342,-25.194194],[-56.059229,-25.193452],[-56.057171,-25.192329],[-56.05204,-25.191546],[-56.033654,-25.193793],[-56.030153,-25.19382],[-56.026407,-25.193208],[-56.018627,-25.193559],[-56.015001,-25.192889],[-56.011649,-25.19167],[-56.008982,-25.191156],[-56.003821,-25.189464],[-56.001446,-25.189276],[-55.997613,-25.188041],[-55.994697,-25.188052],[-55.993752,-25.189206],[-55.992844,-25.192275],[-55.991107,-25.195586],[-55.989211,-25.196891],[-55.989032,-25.197491],[-55.98809,-25.198432],[-55.98294,-25.199372],[-55.982659,-25.20021],[-55.981624,-25.200799],[-55.978437,-25.204114],[-55.977615,-25.204514],[-55.977035,-25.205914],[-55.976099,-25.206919],[-55.974086,-25.207393],[-55.972404,-25.208438],[-55.969464,-25.20834],[-55.968667,-25.208854],[-55.966373,-25.209312],[-55.967389,-25.214706],[-55.97048,-25.223897],[-55.972731,-25.232311],[-55.981992,-25.248403],[-55.981698,-25.251263],[-55.982742,-25.269456],[-55.98,-25.28426],[-55.981082,-25.287171],[-55.980966,-25.29033],[-55.981747,-25.292972],[-55.98187,-25.295727],[-55.979459,-25.298149],[-55.977559,-25.298804],[-55.975415,-25.300175],[-55.97174,-25.301725],[-55.968124,-25.304373],[-55.966911,-25.305651],[-55.963668,-25.306888],[-55.962805,-25.307487],[-55.957665,-25.308376],[-55.956589,-25.309736],[-55.955335,-25.310183],[-55.953423,-25.310441],[-55.947462,-25.308746],[-55.945653,-25.30853],[-55.943144,-25.308715],[-55.940068,-25.308192],[-55.939403,-25.308616],[-55.936803,-25.308385],[-55.935975,-25.308731],[-55.934264,-25.308755],[-55.932339,-25.309202],[-55.930574,-25.308963],[-55.927532,-25.309623],[-55.926764,-25.310407],[-55.92637,-25.311289],[-55.926473,-25.312401],[-55.925477,-25.313332],[-55.926066,-25.314822],[-55.925593,-25.315193],[-55.925651,-25.315912],[-55.925046,-25.315844],[-55.92449,-25.316517],[-55.924673,-25.317295],[-55.923253,-25.319371],[-55.92337,-25.319963],[-55.923026,-25.320303],[-55.923257,-25.320973],[-55.922399,-25.324529],[-55.922459,-25.326011],[-55.921721,-25.32815],[-55.922016,-25.329565],[-55.919639,-25.332121],[-55.919695,-25.332966],[-55.919394,-25.333122],[-55.919004,-25.334798],[-55.917524,-25.335383],[-55.917077,-25.335908],[-55.916658,-25.335865],[-55.91581,-25.336531],[-55.914119,-25.336717],[-55.913631,-25.337255],[-55.911393,-25.340684],[-55.909535,-25.345094],[-55.907846,-25.346075],[-55.90552,-25.348789],[-55.905359,-25.349298],[-55.905632,-25.34972],[-55.904995,-25.351156],[-55.905039,-25.351973],[-55.904027,-25.352702],[-55.903662,-25.35441],[-55.902545,-25.355372],[-55.901862,-25.355033],[-55.901479,-25.356137],[-55.900937,-25.356647],[-55.900825,-25.357929],[-55.898786,-25.35971],[-55.898198,-25.360794],[-55.897206,-25.361102],[-55.896129,-25.36458],[-55.8968,-25.366504],[-55.897004,-25.368785],[-55.896631,-25.36959],[-55.895467,-25.370485],[-55.89533,-25.371603],[-55.894182,-25.372958],[-55.893921,-25.374067],[-55.893021,-25.374751],[-55.892868,-25.375558],[-55.892436,-25.375478],[-55.892383,-25.376123],[-55.891944,-25.376345],[-55.892346,-25.377152],[-55.891882,-25.37751],[-55.892148,-25.378808],[-55.89257,-25.379082],[-55.891853,-25.379862],[-55.892172,-25.380885],[-55.891854,-25.381185],[-55.892197,-25.381368],[-55.891763,-25.381757],[-55.892091,-25.382378],[-55.892351,-25.382146],[-55.892214,-25.382817],[-55.892724,-25.383412],[-55.892432,-25.384566],[-55.892857,-25.384804],[-55.892875,-25.385224],[-55.89234,-25.386064],[-55.892922,-25.386601],[-55.892828,-25.387522],[-55.89242,-25.388056],[-55.892193,-25.387865],[-55.892393,-25.388304],[-55.891778,-25.388823],[-55.89186,-25.389799],[-55.891162,-25.390846],[-55.891406,-25.391209],[-55.890744,-25.391949],[-55.891049,-25.392113],[-55.890655,-25.392702],[-55.890958,-25.393047],[-55.890711,-25.394278],[-55.890912,-25.394546],[-55.890635,-25.394774],[-55.891167,-25.394999],[-55.890821,-25.395448],[-55.891486,-25.39618],[-55.891294,-25.396445],[-55.89184,-25.397749],[-55.893039,-25.39863],[-55.893532,-25.400859],[-55.893359,-25.401345],[-55.892828,-25.401495],[-55.893437,-25.40201],[-55.892664,-25.402442],[-55.892927,-25.402837],[-55.892766,-25.403183],[-55.891911,-25.403921],[-55.891929,-25.40431],[-55.892544,-25.404685],[-55.891351,-25.405976],[-55.8916,-25.406195],[-55.891188,-25.406557],[-55.891351,-25.407696],[-55.890803,-25.408125],[-55.891133,-25.408421],[-55.890813,-25.408744],[-55.891193,-25.408806],[-55.890866,-25.409209],[-55.890294,-25.40883],[-55.890179,-25.409592],[-55.89069,-25.409696],[-55.890218,-25.409895],[-55.890554,-25.410381],[-55.890008,-25.410458],[-55.890564,-25.410869],[-55.890184,-25.411177],[-55.890367,-25.411517],[-55.889949,-25.411491],[-55.889265,-25.412154],[-55.889501,-25.412879],[-55.888834,-25.413253],[-55.888834,-25.413591],[-55.888049,-25.413432],[-55.88868,-25.414994],[-55.888462,-25.415729],[-55.888832,-25.415858],[-55.887811,-25.417513],[-55.88827,-25.417666],[-55.887858,-25.418182],[-55.888243,-25.418391],[-55.887702,-25.418531],[-55.888121,-25.418885],[-55.887367,-25.419095],[-55.88739,-25.419415],[-55.886958,-25.41921],[-55.886702,-25.419615],[-55.887339,-25.419833],[-55.88721,-25.420419],[-55.885885,-25.421396],[-55.885514,-25.421361],[-55.885489,-25.422198],[-55.885874,-25.422355],[-55.885266,-25.422626],[-55.88517,-25.423062],[-55.884709,-25.423101],[-55.885126,-25.423505],[-55.884028,-25.423809],[-55.88361,-25.424243],[-55.883803,-25.425186],[-55.88321,-25.425164],[-55.883655,-25.425511],[-55.883475,-25.425835],[-55.883152,-25.425624],[-55.883376,-25.426463],[-55.882976,-25.426881],[-55.88318,-25.427317],[-55.882498,-25.427446],[-55.882176,-25.428678],[-55.881617,-25.42843],[-55.881336,-25.428917],[-55.88207,-25.429499],[-55.88184,-25.430036],[-55.882358,-25.430165],[-55.881843,-25.430707],[-55.881436,-25.430672],[-55.882119,-25.431078],[-55.88143,-25.431589],[-55.881811,-25.431879],[-55.881824,-25.43234],[-55.8812,-25.43352],[-55.880486,-25.43374],[-55.880273,-25.434504],[-55.879714,-25.435091],[-55.879424,-25.434377],[-55.878911,-25.435149],[-55.87917,-25.435805],[-55.878653,-25.435729],[-55.878469,-25.43605],[-55.878689,-25.436782],[-55.879561,-25.437246],[-55.879085,-25.437441],[-55.878385,-25.437097],[-55.878254,-25.4378],[-55.877575,-25.437621],[-55.877795,-25.43847],[-55.878101,-25.438625],[-55.877703,-25.438806],[-55.878257,-25.439031],[-55.877773,-25.439931],[-55.878398,-25.440077],[-55.877918,-25.440387],[-55.878033,-25.440926],[-55.877551,-25.441],[-55.87832,-25.44138],[-55.877812,-25.441706],[-55.878036,-25.442234],[-55.877279,-25.442664],[-55.877609,-25.443951],[-55.877282,-25.44431],[-55.877922,-25.444787],[-55.878558,-25.444703],[-55.878173,-25.446128],[-55.877515,-25.446342],[-55.877497,-25.446754],[-55.876115,-25.446608],[-55.876035,-25.447279],[-55.875283,-25.446964],[-55.875573,-25.447674],[-55.874839,-25.447635],[-55.873935,-25.449053],[-55.873963,-25.449803],[-55.87455,-25.449508],[-55.874631,-25.448771],[-55.8756,-25.449609],[-55.875277,-25.450301],[-55.875671,-25.450468],[-55.874994,-25.45089],[-55.875865,-25.451119],[-55.875375,-25.451658],[-55.875388,-25.452454],[-55.875556,-25.45263],[-55.875998,-25.452153],[-55.875986,-25.452987],[-55.876594,-25.452705],[-55.876872,-25.453202],[-55.876337,-25.453464],[-55.87664,-25.454405],[-55.876212,-25.454747],[-55.876776,-25.455159],[-55.876652,-25.456392],[-55.875916,-25.456735],[-55.875489,-25.45658],[-55.875962,-25.457353],[-55.876324,-25.457215],[-55.876357,-25.457707],[-55.875659,-25.457767],[-55.875577,-25.458311],[-55.875154,-25.45805],[-55.875282,-25.45869],[-55.874821,-25.459224],[-55.875383,-25.459592],[-55.874768,-25.459956],[-55.875187,-25.460361],[-55.87476,-25.460536],[-55.8743,-25.461441],[-55.87512,-25.462147],[-55.874964,-25.462708],[-55.87545,-25.462438],[-55.87586,-25.462773],[-55.875274,-25.462889],[-55.875072,-25.463123],[-55.875409,-25.463447],[-55.874704,-25.463837],[-55.875087,-25.464507],[-55.875744,-25.464386],[-55.875949,-25.464917],[-55.87492,-25.464867],[-55.874841,-25.465364],[-55.873894,-25.465429],[-55.873791,-25.466681],[-55.873256,-25.465846],[-55.872341,-25.466654],[-55.872201,-25.467483],[-55.871475,-25.467199],[-55.871931,-25.467902],[-55.871585,-25.46801],[-55.871613,-25.468285],[-55.872822,-25.469252],[-55.871889,-25.469085],[-55.871804,-25.469791],[-55.871033,-25.470289],[-55.871155,-25.470751],[-55.870305,-25.471018],[-55.870106,-25.471706],[-55.870527,-25.473134],[-55.869043,-25.473523],[-55.868232,-25.476169],[-55.867483,-25.476217],[-55.867006,-25.475896],[-55.865003,-25.477418],[-55.863226,-25.476783],[-55.861682,-25.476829],[-55.860973,-25.477677],[-55.861261,-25.478419],[-55.860811,-25.478829],[-55.860803,-25.47943],[-55.859906,-25.479183],[-55.858874,-25.479333],[-55.858816,-25.47969],[-55.859205,-25.480011],[-55.857991,-25.480423],[-55.857657,-25.48098],[-55.857957,-25.481948],[-55.856892,-25.481585],[-55.85666,-25.482006],[-55.856907,-25.48255],[-55.856276,-25.482403],[-55.856084,-25.483063],[-55.855076,-25.483368],[-55.855243,-25.483772],[-55.85466,-25.483678],[-55.854393,-25.484143],[-55.853928,-25.4841],[-55.85413,-25.485063],[-55.853713,-25.485498],[-55.852596,-25.485122],[-55.851852,-25.485182],[-55.85095,-25.486748],[-55.848891,-25.487292],[-55.848613,-25.488707],[-55.848118,-25.488762],[-55.847995,-25.488363],[-55.847791,-25.488507],[-55.847828,-25.488866],[-55.848444,-25.489276],[-55.847664,-25.489704],[-55.848092,-25.490058],[-55.847401,-25.491215],[-55.846321,-25.491194],[-55.845984,-25.491572],[-55.845436,-25.491127],[-55.845307,-25.491722],[-55.845754,-25.492063],[-55.845357,-25.492308],[-55.844998,-25.491687],[-55.844278,-25.491542],[-55.844448,-25.490805],[-55.843723,-25.491065],[-55.843204,-25.490601],[-55.842764,-25.491019],[-55.842177,-25.490423],[-55.84086,-25.490468],[-55.839051,-25.49111],[-55.837641,-25.491114],[-55.837404,-25.490431],[-55.835232,-25.489583],[-55.834341,-25.490248],[-55.833447,-25.491512],[-55.832251,-25.491392],[-55.832014,-25.490975],[-55.831085,-25.491555],[-55.830394,-25.491629],[-55.830408,-25.492528],[-55.830096,-25.492726],[-55.829907,-25.493627],[-55.82972,-25.493214],[-55.829147,-25.493805],[-55.829067,-25.493271],[-55.828548,-25.493401],[-55.828134,-25.492949],[-55.827904,-25.493552],[-55.828542,-25.493873],[-55.828266,-25.494466],[-55.828945,-25.494896],[-55.828667,-25.495422],[-55.829007,-25.495235],[-55.829039,-25.496233],[-55.829357,-25.496272],[-55.82905,-25.496807],[-55.829475,-25.49667],[-55.829231,-25.497282],[-55.829682,-25.497331],[-55.829719,-25.498026],[-55.829985,-25.497871],[-55.830271,-25.498081],[-55.829814,-25.498745],[-55.830406,-25.4994],[-55.830522,-25.501292],[-55.830945,-25.501734],[-55.832432,-25.50189],[-55.833266,-25.50252],[-55.834477,-25.502705],[-55.835453,-25.5033],[-55.840876,-25.503524],[-55.842422,-25.504922],[-55.842833,-25.504803],[-55.843155,-25.503641],[-55.844146,-25.503739],[-55.845355,-25.503135],[-55.847991,-25.503593],[-55.84871,-25.502877],[-55.850034,-25.503898],[-55.851346,-25.503638],[-55.853673,-25.505164],[-55.854969,-25.504926],[-55.856723,-25.505653],[-55.858304,-25.506776],[-55.859458,-25.507073],[-55.861149,-25.506856],[-55.862383,-25.507254],[-55.863683,-25.507151],[-55.864326,-25.507332],[-55.864964,-25.507978],[-55.866009,-25.507765],[-55.866481,-25.508126],[-55.868215,-25.5078],[-55.869651,-25.508326],[-55.870346,-25.507835],[-55.871398,-25.507893],[-55.87306,-25.507057],[-55.877316,-25.508606],[-55.878941,-25.508411],[-55.879677,-25.508999],[-55.880353,-25.508959],[-55.88159,-25.509574],[-55.888577,-25.509455],[-55.889863,-25.508824],[-55.89151,-25.50987],[-55.893248,-25.509834],[-55.895254,-25.510589],[-55.89852,-25.509923],[-55.900682,-25.510698],[-55.902255,-25.510597],[-55.903222,-25.511213],[-55.904892,-25.511122],[-55.907826,-25.510254],[-55.908695,-25.510518],[-55.909488,-25.511287],[-55.911186,-25.511151],[-55.911898,-25.510641],[-55.916199,-25.510384],[-55.921849,-25.508151],[-55.924262,-25.5082],[-55.925542,-25.507144],[-55.926669,-25.507089],[-55.927365,-25.507676],[-55.927978,-25.507758],[-55.929698,-25.507016],[-55.932358,-25.507582],[-55.93301,-25.507085],[-55.933995,-25.506966],[-55.935041,-25.507642],[-55.935581,-25.508612],[-55.936068,-25.508322],[-55.936462,-25.508447],[-55.939144,-25.510498],[-55.939883,-25.5104],[-55.947752,-25.513607],[-55.952744,-25.512004],[-55.954214,-25.511785],[-55.961076,-25.513861],[-55.96196,-25.514332],[-55.962579,-25.515208],[-55.964264,-25.51559],[-55.966589,-25.516875],[-55.967722,-25.517853],[-55.96886,-25.518083],[-55.9717,-25.51989],[-55.976348,-25.521178],[-55.978515,-25.520656],[-55.981347,-25.519407],[-55.982685,-25.517461],[-55.984049,-25.516532],[-55.984322,-25.515685],[-55.985407,-25.514785],[-55.986186,-25.513553],[-55.987189,-25.513032],[-55.988875,-25.511441],[-55.994308,-25.509912],[-55.995156,-25.508929],[-55.997067,-25.511502],[-55.997258,-25.512853],[-55.997949,-25.513986],[-55.999042,-25.514531],[-56.005377,-25.519866],[-56.008261,-25.521163],[-56.012412,-25.517069],[-56.087213,-25.562138],[-56.092359,-25.565127],[-56.093909,-25.56566],[-56.094479,-25.566495],[-56.124236,-25.584437],[-56.127201,-25.586166],[-56.128285,-25.586507],[-56.129052,-25.587333],[-56.133726,-25.590065],[-56.120886,-25.607682],[-56.154692,-25.599507],[-56.168045,-25.590707],[-56.170154,-25.590222]]]}}]}
