{"type":"FeatureCollection","name":"distrito","features":[{"type":"Feature","properties":{"clave":"2-33","nombre":"San José del Rosario"},"geometry":{"type":"Polygon","coordinates":[[[-57.100459,-24.340893],[-57.102986,-24.342947],[-57.106281,-24.344692],[-57.107593,-24.345094],[-57.108127,-24.343056],[-57.109761,-24.34395],[-57.117206,-24.34504],[-57.132566,-24.346371],[-57.133466,-24.346742],[-57.164301,-24.262703],[-57.16107,-24.263263],[-57.155785,-24.261134],[-57.153042,-24.256506],[-57.129417,-24.250551],[-57.123699,-24.239208],[-57.088954,-24.218275],[-57.021901,-24.182303],[-57.008917,-24.174639],[-56.993346,-24.169796],[-56.986365,-24.176337],[-56.984189,-24.177301],[-56.980436,-24.178471],[-56.970978,-24.180604],[-56.965199,-24.181016],[-56.962346,-24.181773],[-56.958667,-24.185283],[-56.95634,-24.186866],[-56.952887,-24.186659],[-56.949734,-24.187484],[-56.947031,-24.189962],[-56.945453,-24.192302],[-56.9441,-24.197053],[-56.929987,-24.19808],[-56.915349,-24.197935],[-56.896955,-24.200196],[-56.888322,-24.20019],[-56.856417,-24.201058],[-56.849061,-24.200776],[-56.836604,-24.19732],[-56.830298,-24.197175],[-56.827368,-24.199307],[-56.821438,-24.19868],[-56.814462,-24.195298],[-56.811618,-24.194675],[-56.809973,-24.195717],[-56.805611,-24.196946],[-56.800438,-24.200247],[-56.794674,-24.202955],[-56.790311,-24.204085],[-56.783361,-24.207186],[-56.776895,-24.210732],[-56.773824,-24.211715],[-56.768817,-24.212102],[-56.767789,-24.214866],[-56.766925,-24.216297],[-56.761749,-24.22014],[-56.759271,-24.221025],[-56.757386,-24.221318],[-56.750866,-24.223777],[-56.749518,-24.225058],[-56.748111,-24.228315],[-56.741469,-24.237833],[-56.739526,-24.239855],[-56.735266,-24.243106],[-56.732026,-24.247297],[-56.72728,-24.250548],[-56.726895,-24.254053],[-56.726191,-24.255879],[-56.72333,-24.259182],[-56.728372,-24.263664],[-56.746903,-24.295973],[-56.743398,-24.308924],[-56.757898,-24.336098],[-56.785163,-24.355928],[-56.789491,-24.349872],[-56.836005,-24.383995],[-56.838736,-24.377039],[-56.838465,-24.376813],[-56.840575,-24.374455],[-56.842132,-24.373927],[-56.846134,-24.378194],[-56.847886,-24.382174],[-56.856968,-24.392353],[-56.858078,-24.390651],[-56.859423,-24.390404],[-56.858849,-24.387969],[-56.859985,-24.387126],[-56.861165,-24.387204],[-56.863279,-24.386361],[-56.866128,-24.387213],[-56.867429,-24.387277],[-56.871096,-24.386747],[-56.875044,-24.387902],[-56.877276,-24.386314],[-56.878357,-24.386171],[-56.879706,-24.385372],[-56.880697,-24.385807],[-56.881213,-24.384719],[-56.88161,-24.384539],[-56.882008,-24.382832],[-56.882642,-24.382941],[-56.883118,-24.382652],[-56.88324,-24.379166],[-56.883875,-24.378656],[-56.885146,-24.376187],[-56.886732,-24.375827],[-56.8882,-24.374776],[-56.890738,-24.374231],[-56.893712,-24.373109],[-56.894228,-24.372599],[-56.894546,-24.371475],[-56.894982,-24.371222],[-56.89633,-24.371476],[-56.897637,-24.373653],[-56.899657,-24.375],[-56.90045,-24.376419],[-56.900171,-24.377579],[-56.900488,-24.378162],[-56.902629,-24.377581],[-56.903182,-24.380887],[-56.905837,-24.382849],[-56.907144,-24.384484],[-56.908016,-24.384701],[-56.910515,-24.382743],[-56.911825,-24.381326],[-56.9125,-24.379728],[-56.916569,-24.376368],[-56.919807,-24.37301],[-56.943765,-24.354839],[-56.950887,-24.34911],[-56.95434,-24.344961],[-56.955635,-24.341601],[-56.960166,-24.339033],[-56.967501,-24.336268],[-56.972678,-24.332119],[-56.981306,-24.332318],[-56.987993,-24.333307],[-56.992738,-24.335678],[-57.00015,-24.342475],[-57.042594,-24.371356],[-57.048055,-24.376777],[-57.049212,-24.378309],[-57.063117,-24.374505],[-57.069867,-24.337439],[-57.067008,-24.337193],[-57.067362,-24.334262],[-57.063287,-24.330611],[-57.063252,-24.328363],[-57.064154,-24.325491],[-57.090831,-24.337157],[-57.100459,-24.340893]]]}}]}
