{"type":"FeatureCollection","name":"distrito","features":[{"type":"Feature","properties":{"clave":"12-5","nombre":"Desmochados"},"geometry":{"type":"Polygon","coordinates":[[[-58.082502,-27.129722],[-58.085371,-27.130368],[-58.093217,-27.134122],[-58.098194,-27.135869],[-58.100534,-27.136249],[-58.103519,-27.136137],[-58.10691,-27.1365],[-58.10891,-27.137306],[-58.109591,-27.137876],[-58.113326,-27.136955],[-58.116451,-27.136811],[-58.120034,-27.134979],[-58.121563,-27.138139],[-58.121168,-27.141948],[-58.12148,-27.143064],[-58.122438,-27.144421],[-58.122935,-27.147126],[-58.122833,-27.148289],[-58.124362,-27.14846],[-58.125526,-27.150805],[-58.161869,-27.150612],[-58.16108,-27.149137],[-58.158843,-27.134971],[-58.161136,-27.135539],[-58.169961,-27.136799],[-58.191272,-27.139227],[-58.202098,-27.143017],[-58.22402,-27.132581],[-58.223886,-27.131232],[-58.239208,-27.130123],[-58.282411,-27.129864],[-58.259243,-27.06663],[-58.255656,-27.055887],[-58.203843,-27.060879],[-58.146167,-27.041413],[-58.105601,-27.019521],[-58.104985,-27.019408],[-58.104395,-27.017523],[-58.103114,-27.016825],[-58.102369,-27.016988],[-58.101849,-27.01778],[-58.10082,-27.018181],[-58.099896,-27.018031],[-58.098878,-27.017252],[-58.098001,-27.017495],[-58.098061,-27.019069],[-58.094579,-27.022519],[-58.09093,-27.022312],[-58.087891,-27.023949],[-58.086583,-27.025021],[-58.084081,-27.025316],[-58.083213,-27.026425],[-58.077445,-27.025249],[-58.075523,-27.024083],[-58.071824,-27.023324],[-58.07051,-27.023728],[-58.068062,-27.025163],[-58.065785,-27.025928],[-58.063997,-27.027398],[-58.062505,-27.027645],[-58.060569,-27.027384],[-58.057241,-27.028669],[-58.056047,-27.027891],[-58.055261,-27.028447],[-58.054206,-27.028377],[-58.052415,-27.029531],[-58.04851,-27.03019],[-58.047719,-27.030196],[-58.04776,-27.02992],[-58.046967,-27.029611],[-58.045605,-27.029661],[-58.044588,-27.028999],[-58.041977,-27.029412],[-58.040313,-27.030094],[-58.038132,-27.031841],[-58.034407,-27.032971],[-58.03319,-27.034475],[-58.029083,-27.034741],[-58.028077,-27.035221],[-58.02653,-27.034248],[-58.024464,-27.034224],[-58.021837,-27.035306],[-58.018456,-27.035606],[-58.017859,-27.035177],[-58.017023,-27.035104],[-58.016499,-27.035462],[-58.013549,-27.034893],[-58.011342,-27.035812],[-58.00809,-27.038892],[-58.006546,-27.039645],[-58.006144,-27.041276],[-58.007311,-27.042415],[-58.007492,-27.043216],[-58.006936,-27.045101],[-58.005794,-27.046485],[-58.003,-27.048599],[-58.002239,-27.049725],[-58.001416,-27.049609],[-58.000089,-27.050304],[-57.999362,-27.050016],[-57.996678,-27.050743],[-57.993722,-27.050294],[-57.992283,-27.05112],[-57.991996,-27.052452],[-57.990856,-27.053766],[-57.988151,-27.054368],[-57.985849,-27.055285],[-57.998431,-27.120223],[-58.001939,-27.132182],[-58.024207,-27.131597],[-58.027576,-27.132112],[-58.030706,-27.133068],[-58.032797,-27.132518],[-58.036815,-27.132159],[-58.038362,-27.13039],[-58.043377,-27.130446],[-58.04721,-27.128318],[-58.04873,-27.128672],[-58.059023,-27.128565],[-58.062379,-27.127571],[-58.064378,-27.126587],[-58.065688,-27.126428],[-58.068098,-27.126752],[-58.074724,-27.128513],[-58.078141,-27.130279],[-58.082502,-27.129722]]]}}]}
