{"type":"FeatureCollection","name":"distrito","features":[{"type":"Feature","properties":{"clave":"1-12","nombre":"Paso Horqueta"},"geometry":{"type":"Polygon","coordinates":[[[-57.408864,-23.277388],[-57.409482,-23.277779],[-57.409966,-23.277164],[-57.410552,-23.276945],[-57.411227,-23.277109],[-57.411903,-23.276887],[-57.412256,-23.277158],[-57.412235,-23.278034],[-57.412967,-23.279296],[-57.414,-23.279488],[-57.414249,-23.280517],[-57.414976,-23.281265],[-57.415598,-23.280414],[-57.415946,-23.280856],[-57.416538,-23.280592],[-57.417602,-23.281253],[-57.417895,-23.281944],[-57.418814,-23.281774],[-57.419191,-23.282613],[-57.42063,-23.283332],[-57.420736,-23.284939],[-57.421304,-23.285552],[-57.422821,-23.28525],[-57.423316,-23.284793],[-57.424049,-23.286304],[-57.424887,-23.285692],[-57.425636,-23.285681],[-57.425761,-23.286787],[-57.426219,-23.287589],[-57.425796,-23.288503],[-57.426112,-23.289157],[-57.426685,-23.289273],[-57.42738,-23.290206],[-57.428087,-23.289716],[-57.429543,-23.289373],[-57.430981,-23.289839],[-57.431613,-23.291147],[-57.431195,-23.293298],[-57.43126,-23.294662],[-57.433026,-23.29636],[-57.432866,-23.296862],[-57.432421,-23.297034],[-57.432282,-23.297911],[-57.432648,-23.298285],[-57.433862,-23.298074],[-57.433783,-23.298919],[-57.435019,-23.299267],[-57.435935,-23.300724],[-57.437149,-23.300571],[-57.437898,-23.300885],[-57.438131,-23.301427],[-57.439024,-23.301587],[-57.440167,-23.301326],[-57.440722,-23.30272],[-57.44147,-23.30247],[-57.443596,-23.303855],[-57.444184,-23.303049],[-57.444209,-23.302412],[-57.445271,-23.302752],[-57.44539,-23.302323],[-57.445638,-23.303004],[-57.446799,-23.302749],[-57.446957,-23.302119],[-57.44747,-23.301948],[-57.448656,-23.302194],[-57.448977,-23.303028],[-57.449453,-23.302789],[-57.449789,-23.30423],[-57.449563,-23.304665],[-57.449944,-23.304928],[-57.449363,-23.305232],[-57.451142,-23.305616],[-57.450666,-23.306928],[-57.451159,-23.307056],[-57.450582,-23.308439],[-57.451161,-23.309279],[-57.451949,-23.309766],[-57.453296,-23.309802],[-57.454013,-23.3104],[-57.45476,-23.310361],[-57.455348,-23.31252],[-57.456748,-23.312818],[-57.456683,-23.313587],[-57.45822,-23.313969],[-57.458483,-23.314466],[-57.458358,-23.315282],[-57.458994,-23.315311],[-57.459558,-23.314476],[-57.460367,-23.314972],[-57.460516,-23.317045],[-57.458754,-23.317446],[-57.459572,-23.318879],[-57.459391,-23.320668],[-57.460156,-23.32074],[-57.46154,-23.319842],[-57.462877,-23.320992],[-57.462568,-23.321642],[-57.460947,-23.32191],[-57.461067,-23.323121],[-57.462218,-23.323908],[-57.462828,-23.323935],[-57.464702,-23.321846],[-57.466205,-23.321983],[-57.468435,-23.323726],[-57.468229,-23.324494],[-57.466848,-23.324779],[-57.466551,-23.325308],[-57.467168,-23.326546],[-57.468707,-23.327646],[-57.469955,-23.328114],[-57.472337,-23.328425],[-57.473464,-23.327865],[-57.474631,-23.325429],[-57.476419,-23.323973],[-57.475856,-23.322408],[-57.476868,-23.322124],[-57.478225,-23.320598],[-57.478034,-23.319324],[-57.479963,-23.319792],[-57.481353,-23.320853],[-57.481266,-23.321693],[-57.480271,-23.32276],[-57.480418,-23.323583],[-57.481166,-23.323939],[-57.482102,-23.323745],[-57.485301,-23.321968],[-57.490753,-23.320034],[-57.489968,-23.31933],[-57.489143,-23.317923],[-57.488802,-23.316407],[-57.48887,-23.31479],[-57.491308,-23.308518],[-57.491636,-23.306552],[-57.491279,-23.300668],[-57.49155,-23.293229],[-57.491189,-23.286311],[-57.491586,-23.28276],[-57.493214,-23.279693],[-57.49967,-23.271958],[-57.510067,-23.261699],[-57.520839,-23.25278],[-57.524667,-23.250324],[-57.533063,-23.243891],[-57.53915,-23.238072],[-57.541075,-23.234998],[-57.542623,-23.230793],[-57.542849,-23.222305],[-57.543655,-23.218997],[-57.54493,-23.216323],[-57.546838,-23.213909],[-57.549047,-23.212022],[-57.552022,-23.210775],[-57.559982,-23.207851],[-57.568664,-23.204243],[-57.585476,-23.198653],[-57.58884,-23.19692],[-57.593074,-23.194253],[-57.595862,-23.192987],[-57.608194,-23.189823],[-57.611912,-23.18831],[-57.61479,-23.186523],[-57.617982,-23.184036],[-57.620744,-23.181356],[-57.628386,-23.170351],[-57.630239,-23.166066],[-57.632229,-23.157143],[-57.634293,-23.151222],[-57.635894,-23.148547],[-57.641181,-23.142112],[-57.642206,-23.139827],[-57.642672,-23.137169],[-57.642681,-23.135015],[-57.641911,-23.132073],[-57.640887,-23.130492],[-57.635725,-23.125446],[-57.631336,-23.119624],[-57.629771,-23.117236],[-57.628502,-23.114075],[-57.6271,-23.108128],[-57.627224,-23.104704],[-57.627984,-23.10107],[-57.630172,-23.096477],[-57.631915,-23.094478],[-57.634178,-23.092942],[-57.637099,-23.091698],[-57.640539,-23.090762],[-57.647602,-23.089663],[-57.653219,-23.089992],[-57.65587,-23.090532],[-57.664705,-23.093499],[-57.667017,-23.094004],[-57.67658,-23.09507],[-57.688221,-23.097449],[-57.692444,-23.097779],[-57.695909,-23.097858],[-57.70176,-23.097241],[-57.707027,-23.095451],[-57.714159,-23.092361],[-57.716618,-23.090435],[-57.719549,-23.087563],[-57.721626,-23.085052],[-57.72366,-23.081949],[-57.725078,-23.078884],[-57.727111,-23.072001],[-57.728802,-23.064388],[-57.729963,-23.061952],[-57.731485,-23.059845],[-57.734101,-23.057674],[-57.738205,-23.055215],[-57.738619,-23.051751],[-57.742702,-23.046295],[-57.747479,-23.038117],[-57.753383,-23.030137],[-57.754248,-23.027142],[-57.755626,-23.024077],[-57.755873,-23.022309],[-57.754664,-23.017813],[-57.753222,-23.014723],[-57.752543,-23.013927],[-57.750416,-23.012135],[-57.748336,-23.011674],[-57.742737,-23.01203],[-57.738115,-23.013729],[-57.733011,-23.014163],[-57.730764,-23.015036],[-57.726997,-23.015284],[-57.72337,-23.013964],[-57.71965,-23.014062],[-57.717268,-23.012813],[-57.716424,-23.01115],[-57.714601,-23.010869],[-57.711483,-23.009488],[-57.709217,-23.009254],[-57.707968,-23.008731],[-57.707061,-23.007972],[-57.705623,-23.007843],[-57.703652,-23.008186],[-57.702732,-23.007675],[-57.701504,-23.00773],[-57.700173,-23.007406],[-57.699872,-23.006735],[-57.700908,-23.004016],[-57.701467,-23.003724],[-57.702893,-23.003718],[-57.703297,-23.003319],[-57.702804,-23.001392],[-57.701429,-23.001186],[-57.699893,-23.000461],[-57.6995,-23.000662],[-57.699814,-23.002458],[-57.698646,-23.003402],[-57.69682,-23.002914],[-57.696248,-23.001941],[-57.695351,-23.001534],[-57.694701,-23.001577],[-57.694115,-23.002036],[-57.693518,-23.003429],[-57.692909,-23.00406],[-57.691274,-23.003787],[-57.690984,-23.002578],[-57.69034,-23.002531],[-57.689172,-23.004361],[-57.68912,-23.005752],[-57.688087,-23.006285],[-57.687748,-23.006106],[-57.68821,-23.005607],[-57.688066,-23.004781],[-57.68844,-23.004134],[-57.688054,-23.003666],[-57.686003,-23.004216],[-57.685745,-23.004854],[-57.685962,-23.005454],[-57.685512,-23.005732],[-57.684872,-23.005522],[-57.685321,-23.004829],[-57.685064,-23.00343],[-57.684556,-23.003622],[-57.683671,-23.004719],[-57.680602,-23.004262],[-57.678898,-23.002842],[-57.678352,-23.001318],[-57.676754,-23.000106],[-57.675952,-23.000177],[-57.676683,-23.001221],[-57.676057,-23.001915],[-57.674898,-23.002074],[-57.673303,-23.001462],[-57.672602,-23.000534],[-57.67216,-22.997935],[-57.671691,-22.997435],[-57.670047,-22.997636],[-57.669122,-22.997433],[-57.66874,-22.997773],[-57.668654,-22.998704],[-57.668349,-22.998759],[-57.665783,-22.998296],[-57.663655,-22.996489],[-57.662294,-22.996766],[-57.662891,-22.995783],[-57.660916,-22.995692],[-57.661163,-22.995235],[-57.660545,-22.993752],[-57.661064,-22.99216],[-57.660141,-22.991445],[-57.659543,-22.990382],[-57.658972,-22.990416],[-57.658781,-22.990733],[-57.659281,-22.992181],[-57.659979,-22.992209],[-57.659645,-22.993136],[-57.658424,-22.992965],[-57.658469,-22.9939],[-57.656619,-22.995082],[-57.656531,-22.99473],[-57.657669,-22.99328],[-57.65732,-22.992112],[-57.657012,-22.991951],[-57.656677,-22.992593],[-57.655734,-22.992733],[-57.655559,-22.992304],[-57.656371,-22.991727],[-57.655589,-22.99132],[-57.654171,-22.991493],[-57.653604,-22.992258],[-57.652989,-22.992071],[-57.652905,-22.991656],[-57.653453,-22.991012],[-57.652156,-22.9903],[-57.652448,-22.989955],[-57.651763,-22.989095],[-57.652237,-22.988764],[-57.651346,-22.98846],[-57.651128,-22.988267],[-57.651409,-22.987828],[-57.650561,-22.98765],[-57.649278,-22.986594],[-57.647759,-22.986411],[-57.648114,-22.985908],[-57.647358,-22.985252],[-57.647214,-22.984489],[-57.64539,-22.983399],[-57.644613,-22.983483],[-57.644291,-22.984252],[-57.643891,-22.984403],[-57.642419,-22.983303],[-57.639234,-22.983261],[-57.632604,-22.979729],[-57.630648,-22.980125],[-57.630388,-22.979354],[-57.630854,-22.977816],[-57.629248,-22.977823],[-57.62831,-22.979841],[-57.6279,-22.979824],[-57.626134,-22.97868],[-57.626659,-22.978077],[-57.626234,-22.977392],[-57.625752,-22.977331],[-57.625339,-22.977996],[-57.623954,-22.977704],[-57.623471,-22.976757],[-57.623552,-22.975998],[-57.623248,-22.975769],[-57.620177,-22.97682],[-57.620327,-22.976083],[-57.621773,-22.975192],[-57.621617,-22.973987],[-57.620715,-22.973231],[-57.620039,-22.973686],[-57.619379,-22.973629],[-57.618922,-22.973378],[-57.618907,-22.972994],[-57.61906,-22.972664],[-57.619666,-22.972684],[-57.61964,-22.971759],[-57.621011,-22.971062],[-57.62139,-22.970117],[-57.621174,-22.969923],[-57.618815,-22.97005],[-57.618638,-22.970945],[-57.618319,-22.971186],[-57.618018,-22.971187],[-57.618015,-22.970555],[-57.617593,-22.970389],[-57.616736,-22.971341],[-57.616152,-22.970788],[-57.615633,-22.971458],[-57.614689,-22.970938],[-57.61369,-22.9718],[-57.610281,-22.971533],[-57.609361,-22.971925],[-57.608416,-22.971463],[-57.607656,-22.971728],[-57.607278,-22.972344],[-57.606434,-22.972103],[-57.605267,-22.971105],[-57.603461,-22.970647],[-57.603233,-22.96894],[-57.603729,-22.967791],[-57.603084,-22.967085],[-57.602142,-22.96698],[-57.600844,-22.968304],[-57.599921,-22.96814],[-57.600276,-22.96682],[-57.599771,-22.965801],[-57.600025,-22.964332],[-57.599582,-22.963999],[-57.598901,-22.963948],[-57.598844,-22.964743],[-57.598325,-22.965377],[-57.595419,-22.965334],[-57.595163,-22.966446],[-57.594623,-22.966782],[-57.594122,-22.966694],[-57.593599,-22.966344],[-57.593673,-22.96497],[-57.594567,-22.963201],[-57.593622,-22.962536],[-57.593559,-22.961868],[-57.592836,-22.961572],[-57.591956,-22.96191],[-57.591971,-22.960912],[-57.590548,-22.960935],[-57.589662,-22.960026],[-57.589256,-22.958916],[-57.587895,-22.959233],[-57.587693,-22.958863],[-57.58797,-22.958104],[-57.586927,-22.958049],[-57.587045,-22.957308],[-57.585981,-22.957072],[-57.58531,-22.95492],[-57.582797,-22.953222],[-57.582368,-22.951142],[-57.581443,-22.950553],[-57.579557,-22.950023],[-57.579133,-22.949279],[-57.578389,-22.948839],[-57.576122,-22.948436],[-57.574632,-22.946735],[-57.571985,-22.946505],[-57.569983,-22.947068],[-57.56932,-22.946718],[-57.569337,-22.946031],[-57.568955,-22.945752],[-57.566938,-22.947413],[-57.564089,-22.946809],[-57.561123,-22.946968],[-57.560322,-22.947251],[-57.559086,-22.94885],[-57.557603,-22.948801],[-57.554478,-22.949295],[-57.553201,-22.950822],[-57.552199,-22.950807],[-57.551655,-22.950158],[-57.550797,-22.951051],[-57.547972,-22.951395],[-57.546185,-22.950697],[-57.542562,-22.951879],[-57.541662,-22.952474],[-57.539498,-22.952594],[-57.538872,-22.951462],[-57.538948,-22.95046],[-57.538222,-22.949351],[-57.534694,-22.949345],[-57.533068,-22.948587],[-57.532803,-22.947626],[-57.534039,-22.94595],[-57.532814,-22.945246],[-57.533231,-22.944282],[-57.532727,-22.943353],[-57.528221,-22.944484],[-57.525313,-22.943897],[-57.523508,-22.943885],[-57.522363,-22.94313],[-57.520677,-22.942576],[-57.51935,-22.941451],[-57.51883,-22.941674],[-57.518088,-22.941491],[-57.517888,-22.941844],[-57.517288,-22.941995],[-57.516205,-22.94185],[-57.515721,-22.94107],[-57.515893,-22.938879],[-57.515332,-22.938921],[-57.514535,-22.940202],[-57.513533,-22.940259],[-57.513551,-22.939632],[-57.512744,-22.93837],[-57.512619,-22.937033],[-57.512258,-22.936998],[-57.512141,-22.937852],[-57.51166,-22.937836],[-57.51067,-22.935797],[-57.508963,-22.934728],[-57.507719,-22.934398],[-57.50287,-22.934838],[-57.501587,-22.934656],[-57.488911,-22.942235],[-57.462041,-22.942345],[-57.448629,-22.981998],[-57.440924,-22.981474],[-57.437844,-22.986891],[-57.436988,-22.994],[-57.434747,-22.997449],[-57.438071,-23.015178],[-57.406627,-23.0086],[-57.380034,-23.002396],[-57.379324,-23.002804],[-57.377559,-23.003039],[-57.368684,-23.001709],[-57.368061,-23.001521],[-57.367826,-23.000718],[-57.358607,-23.000603],[-57.350648,-23.000811],[-57.346968,-23.00264],[-57.347851,-23.003726],[-57.346034,-23.004475],[-57.345522,-23.005226],[-57.345507,-23.005813],[-57.346434,-23.006471],[-57.3463,-23.008264],[-57.347803,-23.008292],[-57.348261,-23.008635],[-57.347827,-23.009281],[-57.347767,-23.01126],[-57.347133,-23.011975],[-57.347473,-23.012299],[-57.348369,-23.012071],[-57.348641,-23.013521],[-57.349,-23.013777],[-57.350072,-23.013761],[-57.350341,-23.014452],[-57.351582,-23.014237],[-57.35194,-23.0149],[-57.352655,-23.014939],[-57.353008,-23.01418],[-57.353494,-23.013916],[-57.353587,-23.014847],[-57.355349,-23.016893],[-57.353715,-23.020126],[-57.354621,-23.021222],[-57.354664,-23.022292],[-57.355596,-23.022846],[-57.354945,-23.02376],[-57.354558,-23.025395],[-57.355418,-23.026062],[-57.355838,-23.025677],[-57.356379,-23.025798],[-57.356216,-23.028431],[-57.356543,-23.029596],[-57.357358,-23.028722],[-57.358128,-23.030315],[-57.358664,-23.030318],[-57.359368,-23.030895],[-57.359513,-23.030479],[-57.359881,-23.03051],[-57.360351,-23.031493],[-57.359734,-23.031937],[-57.360526,-23.03203],[-57.360874,-23.032436],[-57.362036,-23.032158],[-57.362255,-23.03171],[-57.363248,-23.032218],[-57.363599,-23.032805],[-57.36477,-23.031989],[-57.36715,-23.032237],[-57.366676,-23.032874],[-57.367153,-23.033768],[-57.366755,-23.034252],[-57.367394,-23.034341],[-57.367276,-23.035136],[-57.368187,-23.034989],[-57.367783,-23.035451],[-57.367837,-23.036359],[-57.366143,-23.03769],[-57.367251,-23.038582],[-57.36749,-23.03939],[-57.367119,-23.03968],[-57.36613,-23.039678],[-57.366174,-23.040188],[-57.366903,-23.04048],[-57.366439,-23.040779],[-57.363309,-23.040335],[-57.362689,-23.041014],[-57.362577,-23.041895],[-57.363413,-23.042353],[-57.363674,-23.04322],[-57.36425,-23.042384],[-57.364654,-23.042488],[-57.364873,-23.042985],[-57.365652,-23.042839],[-57.36737,-23.044522],[-57.368278,-23.04625],[-57.368319,-23.050026],[-57.368694,-23.050473],[-57.370017,-23.050066],[-57.370903,-23.049285],[-57.370961,-23.047497],[-57.374028,-23.046813],[-57.375177,-23.045729],[-57.375645,-23.045843],[-57.376227,-23.047701],[-57.377259,-23.049371],[-57.377387,-23.05038],[-57.376611,-23.051348],[-57.374009,-23.051239],[-57.372536,-23.053866],[-57.372649,-23.055192],[-57.374009,-23.057077],[-57.374046,-23.059023],[-57.374795,-23.059656],[-57.376884,-23.060112],[-57.378716,-23.063337],[-57.379809,-23.064329],[-57.380869,-23.064427],[-57.381616,-23.064166],[-57.382331,-23.063588],[-57.382732,-23.062217],[-57.383325,-23.06236],[-57.384139,-23.063684],[-57.385735,-23.064081],[-57.385484,-23.066015],[-57.384072,-23.067044],[-57.381253,-23.06576],[-57.380136,-23.065622],[-57.377337,-23.067067],[-57.374459,-23.066206],[-57.372927,-23.066838],[-57.372388,-23.068082],[-57.372662,-23.069212],[-57.373765,-23.070415],[-57.377062,-23.072417],[-57.3775,-23.073599],[-57.377212,-23.074069],[-57.376609,-23.07416],[-57.375495,-23.072867],[-57.374337,-23.07287],[-57.373519,-23.073765],[-57.373599,-23.076399],[-57.372757,-23.077227],[-57.371694,-23.077006],[-57.36976,-23.075649],[-57.367929,-23.076413],[-57.366919,-23.077754],[-57.364896,-23.07921],[-57.364495,-23.082627],[-57.362761,-23.083903],[-57.362717,-23.085622],[-57.361224,-23.086764],[-57.36038,-23.086677],[-57.359751,-23.086075],[-57.359313,-23.084648],[-57.359794,-23.084133],[-57.361602,-23.08366],[-57.362662,-23.082966],[-57.362635,-23.08185],[-57.362272,-23.081426],[-57.360992,-23.081117],[-57.358099,-23.081994],[-57.356964,-23.081796],[-57.356166,-23.081128],[-57.354636,-23.077291],[-57.353307,-23.076401],[-57.351617,-23.076003],[-57.349489,-23.074244],[-57.348211,-23.074582],[-57.347826,-23.075029],[-57.347949,-23.07581],[-57.350872,-23.077277],[-57.352299,-23.078547],[-57.351964,-23.079641],[-57.350881,-23.080581],[-57.350161,-23.082213],[-57.349655,-23.082683],[-57.348498,-23.082931],[-57.347435,-23.082397],[-57.347068,-23.080433],[-57.346607,-23.079608],[-57.345471,-23.078673],[-57.343925,-23.07823],[-57.343251,-23.078611],[-57.34403,-23.081266],[-57.343816,-23.082539],[-57.343406,-23.082808],[-57.342707,-23.082832],[-57.341015,-23.081898],[-57.338601,-23.081345],[-57.336623,-23.081483],[-57.336334,-23.081863],[-57.336698,-23.082867],[-57.338897,-23.083934],[-57.339115,-23.084313],[-57.338948,-23.085162],[-57.337454,-23.085834],[-57.338247,-23.086997],[-57.340377,-23.088614],[-57.340567,-23.089621],[-57.339335,-23.090586],[-57.338253,-23.090841],[-57.336348,-23.089328],[-57.334349,-23.089241],[-57.332868,-23.090581],[-57.332455,-23.092073],[-57.332734,-23.092524],[-57.333362,-23.092762],[-57.339218,-23.093124],[-57.340063,-23.09394],[-57.339901,-23.095309],[-57.339503,-23.095707],[-57.335967,-23.096451],[-57.333916,-23.097842],[-57.332571,-23.100157],[-57.331525,-23.100669],[-57.33115,-23.101893],[-57.329465,-23.104831],[-57.326294,-23.105425],[-57.32461,-23.108363],[-57.323771,-23.111495],[-57.323776,-23.113451],[-57.325259,-23.114622],[-57.328234,-23.120289],[-57.328239,-23.122561],[-57.314613,-23.13307],[-57.313563,-23.135408],[-57.316604,-23.150541],[-57.315766,-23.163724],[-57.317689,-23.164908],[-57.319673,-23.170184],[-57.320485,-23.171612],[-57.323321,-23.180152],[-57.323953,-23.184017],[-57.325535,-23.188358],[-57.325903,-23.191302],[-57.326231,-23.191636],[-57.32761,-23.191651],[-57.329096,-23.194828],[-57.329105,-23.195672],[-57.328539,-23.197159],[-57.328554,-23.198794],[-57.329731,-23.202581],[-57.329864,-23.20848],[-57.330534,-23.212033],[-57.331155,-23.213472],[-57.334555,-23.217995],[-57.33685,-23.219684],[-57.352092,-23.224298],[-57.352164,-23.231104],[-57.351298,-23.233721],[-57.350411,-23.235307],[-57.349626,-23.236042],[-57.350379,-23.235801],[-57.351286,-23.236115],[-57.351611,-23.236828],[-57.351401,-23.237646],[-57.351888,-23.238237],[-57.351902,-23.240039],[-57.353796,-23.241836],[-57.354631,-23.244025],[-57.355253,-23.246305],[-57.35511,-23.250352],[-57.355397,-23.25181],[-57.356594,-23.253505],[-57.356196,-23.25595],[-57.357534,-23.257573],[-57.357477,-23.258729],[-57.357861,-23.258972],[-57.359781,-23.259026],[-57.359847,-23.26091],[-57.360636,-23.261246],[-57.362353,-23.260868],[-57.363227,-23.262754],[-57.363794,-23.26305],[-57.365533,-23.263286],[-57.366219,-23.262801],[-57.366885,-23.262722],[-57.367129,-23.263282],[-57.366686,-23.263694],[-57.367618,-23.264554],[-57.368913,-23.264999],[-57.369558,-23.264396],[-57.370043,-23.264436],[-57.372292,-23.266576],[-57.373281,-23.265901],[-57.373989,-23.266274],[-57.374598,-23.267171],[-57.375354,-23.266966],[-57.375801,-23.26762],[-57.375407,-23.267987],[-57.375652,-23.268844],[-57.376221,-23.26943],[-57.377141,-23.269215],[-57.378172,-23.272289],[-57.37892,-23.27207],[-57.378458,-23.273322],[-57.378592,-23.274429],[-57.379492,-23.274006],[-57.380413,-23.274031],[-57.380956,-23.273185],[-57.381484,-23.273681],[-57.381847,-23.273206],[-57.381768,-23.273987],[-57.382001,-23.274213],[-57.382376,-23.274212],[-57.382465,-23.273642],[-57.38296,-23.273433],[-57.384633,-23.274599],[-57.38529,-23.274254],[-57.386181,-23.274473],[-57.38635,-23.273624],[-57.38694,-23.274584],[-57.38715,-23.27378],[-57.387645,-23.273368],[-57.388121,-23.273683],[-57.387692,-23.275834],[-57.387987,-23.276266],[-57.388806,-23.276075],[-57.389744,-23.275065],[-57.390532,-23.274752],[-57.39287,-23.274701],[-57.39368,-23.275015],[-57.393928,-23.276988],[-57.394486,-23.277221],[-57.399383,-23.277227],[-57.40154,-23.278071],[-57.404151,-23.277973],[-57.406176,-23.278388],[-57.407733,-23.278298],[-57.407924,-23.277878],[-57.408864,-23.277388]]]}}]}
