{"type":"FeatureCollection","name":"distrito","features":[{"type":"Feature","properties":{"clave":"14-11","nombre":"Nueva Esperanza"},"geometry":{"type":"Polygon","coordinates":[[[-54.720492,-24.637995],[-54.774355,-24.588937],[-54.789663,-24.60306],[-54.797459,-24.595967],[-54.799703,-24.594555],[-54.800914,-24.593075],[-54.805839,-24.588673],[-54.80711,-24.586175],[-54.808972,-24.585948],[-54.833162,-24.564802],[-54.837776,-24.561243],[-54.859072,-24.541808],[-54.860827,-24.541533],[-54.866495,-24.541941],[-54.868187,-24.542986],[-54.877395,-24.539922],[-54.878982,-24.541281],[-54.888221,-24.537992],[-54.886642,-24.536753],[-54.889297,-24.53579],[-54.895253,-24.473391],[-54.895958,-24.472143],[-54.895546,-24.470692],[-54.897509,-24.45209],[-54.712784,-24.466358],[-54.71318,-24.473278],[-54.699474,-24.488736],[-54.697935,-24.491967],[-54.697348,-24.495618],[-54.696262,-24.49729],[-54.693184,-24.497757],[-54.690029,-24.498923],[-54.688855,-24.498734],[-54.684333,-24.499062],[-54.679721,-24.49738],[-54.673945,-24.496957],[-54.673103,-24.49554],[-54.672339,-24.495375],[-54.666176,-24.497839],[-54.665515,-24.497386],[-54.665508,-24.496506],[-54.664648,-24.495563],[-54.664235,-24.493841],[-54.662481,-24.494451],[-54.661339,-24.496518],[-54.660909,-24.496719],[-54.660458,-24.496495],[-54.659898,-24.497466],[-54.659167,-24.496679],[-54.658123,-24.496446],[-54.657417,-24.497626],[-54.657125,-24.497748],[-54.656974,-24.497227],[-54.656658,-24.497226],[-54.655127,-24.498087],[-54.652811,-24.498787],[-54.65168,-24.498846],[-54.650174,-24.498218],[-54.64889,-24.498207],[-54.64911,-24.499248],[-54.648225,-24.499731],[-54.647899,-24.501504],[-54.646727,-24.502416],[-54.646644,-24.50296],[-54.647567,-24.504094],[-54.646199,-24.504028],[-54.645098,-24.5061],[-54.644369,-24.506599],[-54.643514,-24.506933],[-54.642182,-24.506519],[-54.641356,-24.506719],[-54.640639,-24.508111],[-54.640019,-24.508187],[-54.638415,-24.507305],[-54.636109,-24.508406],[-54.631656,-24.508404],[-54.630169,-24.509649],[-54.628329,-24.5105],[-54.627728,-24.511704],[-54.626211,-24.512764],[-54.62574,-24.513718],[-54.623446,-24.514336],[-54.622122,-24.514315],[-54.621109,-24.513857],[-54.620583,-24.513366],[-54.619754,-24.511394],[-54.619026,-24.510917],[-54.616419,-24.511661],[-54.612758,-24.511987],[-54.612617,-24.512197],[-54.613095,-24.513098],[-54.611668,-24.51368],[-54.609793,-24.515334],[-54.608007,-24.518217],[-54.606496,-24.518256],[-54.604736,-24.519691],[-54.604294,-24.520419],[-54.603873,-24.522619],[-54.604082,-24.523151],[-54.603838,-24.5233],[-54.602515,-24.522629],[-54.602463,-24.522209],[-54.601685,-24.521628],[-54.601167,-24.521588],[-54.600867,-24.522129],[-54.600198,-24.521875],[-54.599679,-24.521208],[-54.598837,-24.521388],[-54.598658,-24.520934],[-54.596301,-24.522206],[-54.596397,-24.523245],[-54.591769,-24.522711],[-54.591799,-24.524395],[-54.590439,-24.52579],[-54.589421,-24.525214],[-54.587898,-24.524969],[-54.584097,-24.523595],[-54.582398,-24.524777],[-54.577517,-24.524726],[-54.575309,-24.525665],[-54.574624,-24.525659],[-54.572955,-24.524842],[-54.571727,-24.52526],[-54.569887,-24.52509],[-54.569087,-24.525285],[-54.567724,-24.52724],[-54.567419,-24.528512],[-54.567739,-24.529619],[-54.566923,-24.529231],[-54.566756,-24.527292],[-54.565737,-24.52774],[-54.564103,-24.527506],[-54.56347,-24.530078],[-54.563532,-24.531712],[-54.564445,-24.534191],[-54.565379,-24.535037],[-54.564645,-24.535666],[-54.564865,-24.536676],[-54.564376,-24.537313],[-54.563584,-24.536908],[-54.563269,-24.53535],[-54.560932,-24.5351],[-54.559765,-24.532049],[-54.558154,-24.532514],[-54.55791,-24.536884],[-54.556526,-24.536243],[-54.555356,-24.53654],[-54.553694,-24.536341],[-54.554289,-24.535674],[-54.554806,-24.533846],[-54.554106,-24.532074],[-54.5554,-24.529681],[-54.554761,-24.528204],[-54.553832,-24.528545],[-54.552229,-24.527084],[-54.551673,-24.527215],[-54.551187,-24.528055],[-54.551539,-24.530259],[-54.549832,-24.533724],[-54.549349,-24.533789],[-54.547305,-24.532496],[-54.546083,-24.533185],[-54.544333,-24.533206],[-54.544028,-24.532082],[-54.544408,-24.530928],[-54.543718,-24.530136],[-54.543547,-24.528423],[-54.542491,-24.527151],[-54.543476,-24.525935],[-54.542758,-24.525278],[-54.542341,-24.523759],[-54.538337,-24.520025],[-54.53634,-24.517573],[-54.5364,-24.517159],[-54.537238,-24.516532],[-54.537266,-24.515937],[-54.535777,-24.515578],[-54.535165,-24.514873],[-54.535327,-24.514628],[-54.536024,-24.51463],[-54.53668,-24.514018],[-54.537515,-24.51196],[-54.538596,-24.510849],[-54.537159,-24.509143],[-54.537293,-24.507872],[-54.536861,-24.507536],[-54.535839,-24.507618],[-54.534611,-24.506064],[-54.534962,-24.50444],[-54.53367,-24.503007],[-54.532648,-24.502823],[-54.531574,-24.503369],[-54.531,-24.503333],[-54.531406,-24.502464],[-54.531268,-24.501112],[-54.529651,-24.500463],[-54.52708,-24.501473],[-54.526029,-24.501221],[-54.525521,-24.501497],[-54.526958,-24.504747],[-54.524217,-24.505975],[-54.522735,-24.50582],[-54.52169,-24.506461],[-54.52102,-24.506486],[-54.52076,-24.506135],[-54.520921,-24.505469],[-54.522771,-24.504728],[-54.522618,-24.503448],[-54.521395,-24.503523],[-54.520186,-24.502984],[-54.519086,-24.503417],[-54.51954,-24.504178],[-54.519596,-24.505281],[-54.518509,-24.506603],[-54.518532,-24.509596],[-54.517499,-24.510463],[-54.516929,-24.510291],[-54.516543,-24.509315],[-54.515746,-24.509351],[-54.514971,-24.510241],[-54.515575,-24.51091],[-54.515688,-24.511968],[-54.514426,-24.512674],[-54.513836,-24.513413],[-54.514145,-24.513815],[-54.515556,-24.513879],[-54.514956,-24.516008],[-54.514545,-24.516534],[-54.512744,-24.516049],[-54.510658,-24.517648],[-54.508549,-24.518024],[-54.50743,-24.517265],[-54.506726,-24.517994],[-54.504904,-24.518108],[-54.504259,-24.518621],[-54.501859,-24.519226],[-54.50081,-24.522648],[-54.500336,-24.522414],[-54.500157,-24.521328],[-54.49653,-24.522536],[-54.495035,-24.521207],[-54.494309,-24.521353],[-54.494156,-24.521716],[-54.49521,-24.522948],[-54.493256,-24.523127],[-54.49303,-24.523476],[-54.494118,-24.524098],[-54.49476,-24.525174],[-54.494608,-24.525424],[-54.492611,-24.525618],[-54.491363,-24.525426],[-54.489394,-24.526218],[-54.489362,-24.526595],[-54.490038,-24.527225],[-54.491333,-24.526937],[-54.49172,-24.528261],[-54.491531,-24.528956],[-54.490046,-24.52931],[-54.488858,-24.530493],[-54.488298,-24.530323],[-54.488437,-24.529661],[-54.487965,-24.528175],[-54.486502,-24.527452],[-54.485493,-24.527825],[-54.486246,-24.528353],[-54.485787,-24.528769],[-54.483018,-24.528276],[-54.482733,-24.529967],[-54.482147,-24.530484],[-54.480812,-24.530267],[-54.479736,-24.529584],[-54.478974,-24.529503],[-54.478042,-24.527895],[-54.478728,-24.52675],[-54.477788,-24.524959],[-54.472924,-24.525199],[-54.471284,-24.522619],[-54.471294,-24.519171],[-54.469458,-24.51895],[-54.468754,-24.517065],[-54.466612,-24.517355],[-54.465179,-24.516272],[-54.462875,-24.51721],[-54.459578,-24.517372],[-54.457634,-24.518678],[-54.456401,-24.520523],[-54.451739,-24.52495],[-54.444271,-24.525531],[-54.442885,-24.521003],[-54.438339,-24.519703],[-54.43189,-24.522039],[-54.4263,-24.520206],[-54.419946,-24.52132],[-54.414878,-24.524901],[-54.403721,-24.526962],[-54.388003,-24.514849],[-54.382219,-24.51565],[-54.356967,-24.525699],[-54.337188,-24.529039],[-54.317429,-24.579943],[-54.316512,-24.612469],[-54.330034,-24.687963],[-54.345807,-24.70766],[-54.354493,-24.703752],[-54.374845,-24.695547],[-54.38213,-24.691752],[-54.388422,-24.6878],[-54.391256,-24.687919],[-54.39415,-24.68881],[-54.397794,-24.690554],[-54.401625,-24.690621],[-54.403045,-24.688684],[-54.412103,-24.680646],[-54.414963,-24.679505],[-54.422702,-24.68335],[-54.423982,-24.688205],[-54.423601,-24.692371],[-54.423809,-24.696606],[-54.425065,-24.698939],[-54.42897,-24.699146],[-54.431598,-24.69814],[-54.439134,-24.697009],[-54.441738,-24.697123],[-54.442937,-24.698474],[-54.443616,-24.702758],[-54.442995,-24.711508],[-54.443583,-24.718126],[-54.446841,-24.720496],[-54.451573,-24.721816],[-54.456508,-24.721047],[-54.463943,-24.721173],[-54.466979,-24.722696],[-54.472163,-24.7234],[-54.472537,-24.711801],[-54.473539,-24.709452],[-54.476453,-24.706886],[-54.478916,-24.70643],[-54.483203,-24.710113],[-54.485641,-24.709611],[-54.488641,-24.710826],[-54.49037,-24.712972],[-54.491971,-24.717356],[-54.495473,-24.720275],[-54.499098,-24.719593],[-54.502927,-24.712186],[-54.503804,-24.702363],[-54.504421,-24.698763],[-54.507954,-24.69932],[-54.512272,-24.701508],[-54.518765,-24.703981],[-54.525297,-24.703708],[-54.529154,-24.700567],[-54.532615,-24.694215],[-54.536398,-24.691861],[-54.540413,-24.6924],[-54.544301,-24.693514],[-54.549586,-24.693758],[-54.555164,-24.69075],[-54.559952,-24.689375],[-54.56256,-24.689993],[-54.565472,-24.68993],[-54.569682,-24.691727],[-54.573373,-24.691543],[-54.574809,-24.691933],[-54.577963,-24.693975],[-54.579258,-24.694183],[-54.582167,-24.692482],[-54.583338,-24.692267],[-54.586922,-24.694251],[-54.588897,-24.694815],[-54.592082,-24.69467],[-54.595067,-24.695363],[-54.597337,-24.696531],[-54.599451,-24.696238],[-54.602233,-24.69511],[-54.608522,-24.695839],[-54.610266,-24.696964],[-54.610792,-24.702715],[-54.613388,-24.705777],[-54.615111,-24.707076],[-54.619318,-24.707833],[-54.623315,-24.708005],[-54.625295,-24.706094],[-54.626421,-24.705889],[-54.629735,-24.706915],[-54.632993,-24.709294],[-54.634895,-24.709784],[-54.636523,-24.708308],[-54.636625,-24.707565],[-54.636088,-24.707002],[-54.633724,-24.706654],[-54.631147,-24.701971],[-54.631343,-24.700731],[-54.633003,-24.70047],[-54.634103,-24.701279],[-54.638315,-24.70168],[-54.638796,-24.702159],[-54.638836,-24.703794],[-54.639208,-24.704155],[-54.640635,-24.704158],[-54.642932,-24.70285],[-54.643842,-24.702785],[-54.644662,-24.70346],[-54.645168,-24.704516],[-54.647981,-24.708147],[-54.650049,-24.710363],[-54.650917,-24.711958],[-54.653615,-24.713433],[-54.655711,-24.714178],[-54.656488,-24.712549],[-54.656701,-24.711001],[-54.655499,-24.709332],[-54.655038,-24.707971],[-54.655397,-24.706397],[-54.656478,-24.704061],[-54.6561,-24.702541],[-54.655078,-24.701748],[-54.654882,-24.701232],[-54.657393,-24.700465],[-54.657861,-24.699844],[-54.655907,-24.698936],[-54.654954,-24.698043],[-54.654504,-24.693558],[-54.655422,-24.691821],[-54.654395,-24.689608],[-54.653299,-24.688977],[-54.650528,-24.688592],[-54.64859,-24.686866],[-54.646807,-24.687913],[-54.645052,-24.688304],[-54.644404,-24.689061],[-54.644029,-24.689083],[-54.643018,-24.688042],[-54.642488,-24.685808],[-54.643352,-24.684517],[-54.646201,-24.683997],[-54.646773,-24.683643],[-54.647709,-24.683818],[-54.647888,-24.683626],[-54.647774,-24.683206],[-54.645517,-24.68225],[-54.646206,-24.680489],[-54.645442,-24.678907],[-54.645496,-24.678441],[-54.647905,-24.677837],[-54.65249,-24.678358],[-54.653196,-24.678129],[-54.653372,-24.671317],[-54.654509,-24.667726],[-54.656144,-24.666808],[-54.657282,-24.667998],[-54.658504,-24.667308],[-54.659542,-24.66767],[-54.662686,-24.669962],[-54.663248,-24.668682],[-54.663751,-24.668545],[-54.66381,-24.669991],[-54.665681,-24.670829],[-54.665947,-24.67128],[-54.665249,-24.673027],[-54.665396,-24.674318],[-54.665725,-24.674675],[-54.666557,-24.674632],[-54.666924,-24.674253],[-54.665696,-24.673313],[-54.66583,-24.672645],[-54.667437,-24.673251],[-54.668222,-24.673073],[-54.670386,-24.67035],[-54.671034,-24.669992],[-54.672012,-24.67028],[-54.672996,-24.673515],[-54.673389,-24.673722],[-54.675108,-24.672918],[-54.676247,-24.67173],[-54.677493,-24.672408],[-54.67964,-24.671611],[-54.679432,-24.670719],[-54.681277,-24.669942],[-54.682582,-24.668961],[-54.685169,-24.670173],[-54.71739,-24.64083],[-54.718452,-24.638768],[-54.720492,-24.637995]]]}}]}
