{"type":"FeatureCollection","name":"distrito","features":[{"type":"Feature","properties":{"clave":"10-2","nombre":"Dr. Raúl Peña"},"geometry":{"type":"Polygon","coordinates":[[[-55.260861,-26.235589],[-55.262515,-26.233131],[-55.261902,-26.231982],[-55.261962,-26.230967],[-55.261555,-26.229816],[-55.262133,-26.228514],[-55.261343,-26.226776],[-55.263072,-26.21828],[-55.262773,-26.216669],[-55.2648,-26.215958],[-55.266,-26.214131],[-55.267454,-26.213507],[-55.26935,-26.212113],[-55.269989,-26.210008],[-55.273746,-26.206547],[-55.275725,-26.205315],[-55.276666,-26.203223],[-55.278856,-26.202672],[-55.279919,-26.201985],[-55.280674,-26.202287],[-55.281022,-26.201569],[-55.282049,-26.201275],[-55.282727,-26.201491],[-55.283553,-26.201184],[-55.284609,-26.201314],[-55.286907,-26.199008],[-55.287049,-26.196333],[-55.287859,-26.196154],[-55.288024,-26.195528],[-55.288696,-26.195022],[-55.289454,-26.195888],[-55.290304,-26.195375],[-55.290556,-26.193906],[-55.290128,-26.193703],[-55.289555,-26.194332],[-55.288962,-26.193743],[-55.288632,-26.191554],[-55.289253,-26.191156],[-55.289559,-26.190487],[-55.289038,-26.189551],[-55.290006,-26.188844],[-55.289546,-26.188],[-55.291656,-26.186693],[-55.291848,-26.185887],[-55.291284,-26.185772],[-55.29096,-26.185349],[-55.29103,-26.184402],[-55.292106,-26.183661],[-55.292913,-26.181784],[-55.29288,-26.180993],[-55.294035,-26.180935],[-55.294437,-26.180597],[-55.293984,-26.179982],[-55.294059,-26.179491],[-55.294483,-26.179816],[-55.294556,-26.179384],[-55.295061,-26.179426],[-55.295025,-26.17901],[-55.29462,-26.178866],[-55.295313,-26.178905],[-55.295165,-26.17852],[-55.295891,-26.178474],[-55.295468,-26.178072],[-55.29616,-26.177105],[-55.295834,-26.176194],[-55.294954,-26.175665],[-55.295273,-26.174585],[-55.294735,-26.174245],[-55.294717,-26.173505],[-55.293601,-26.17327],[-55.293951,-26.172187],[-55.293677,-26.172048],[-55.294237,-26.171689],[-55.29381,-26.171472],[-55.294301,-26.171437],[-55.293641,-26.170964],[-55.293592,-26.170517],[-55.294217,-26.169554],[-55.294897,-26.169417],[-55.294803,-26.168825],[-55.295486,-26.168278],[-55.296082,-26.166782],[-55.296571,-26.166864],[-55.297273,-26.166133],[-55.298004,-26.166073],[-55.299026,-26.166781],[-55.299405,-26.166587],[-55.299681,-26.166982],[-55.300503,-26.166306],[-55.301258,-26.16622],[-55.30158,-26.165552],[-55.302541,-26.165008],[-55.303881,-26.162722],[-55.303581,-26.160994],[-55.302019,-26.158678],[-55.29999,-26.157548],[-55.300297,-26.156491],[-55.300111,-26.156087],[-55.299684,-26.156245],[-55.299403,-26.156011],[-55.299494,-26.154563],[-55.299032,-26.154612],[-55.298799,-26.155025],[-55.297859,-26.154964],[-55.298159,-26.152521],[-55.295934,-26.149981],[-55.296832,-26.149296],[-55.29666,-26.148743],[-55.299905,-26.147225],[-55.301173,-26.147154],[-55.301975,-26.14678],[-55.302692,-26.146039],[-55.3034,-26.144476],[-55.304294,-26.144243],[-55.305547,-26.142868],[-55.307256,-26.142211],[-55.307496,-26.141645],[-55.308659,-26.140869],[-55.308957,-26.1401],[-55.311409,-26.139457],[-55.312447,-26.139744],[-55.312793,-26.140136],[-55.312141,-26.141253],[-55.313817,-26.14069],[-55.314092,-26.140815],[-55.314738,-26.140114],[-55.314826,-26.141085],[-55.315617,-26.140242],[-55.317772,-26.140037],[-55.318599,-26.139441],[-55.319864,-26.139235],[-55.320468,-26.138854],[-55.320997,-26.136919],[-55.320341,-26.136474],[-55.321432,-26.136613],[-55.32074,-26.135607],[-55.321944,-26.135283],[-55.322622,-26.13386],[-55.321446,-26.132569],[-55.320153,-26.132757],[-55.319066,-26.132505],[-55.318273,-26.131877],[-55.317655,-26.131956],[-55.317603,-26.129125],[-55.314671,-26.127249],[-55.314377,-26.126623],[-55.314821,-26.12619],[-55.314263,-26.12575],[-55.314975,-26.124987],[-55.317007,-26.12395],[-55.31875,-26.122196],[-55.321108,-26.12073],[-55.322618,-26.120156],[-55.322907,-26.119009],[-55.322706,-26.117864],[-55.321395,-26.116906],[-55.317869,-26.11705],[-55.314534,-26.118857],[-55.31316,-26.118696],[-55.311971,-26.116543],[-55.311445,-26.114695],[-55.312777,-26.111425],[-55.312298,-26.109081],[-55.311857,-26.108363],[-55.31081,-26.107786],[-55.308633,-26.107824],[-55.30743,-26.107404],[-55.305715,-26.10783],[-55.304646,-26.10761],[-55.30374,-26.10806],[-55.302435,-26.106442],[-55.301688,-26.106311],[-55.301971,-26.105769],[-55.301372,-26.105446],[-55.301548,-26.104531],[-55.301052,-26.104494],[-55.300578,-26.103793],[-55.299558,-26.103186],[-55.298411,-26.103678],[-55.297642,-26.103668],[-55.296667,-26.102903],[-55.296836,-26.102255],[-55.298767,-26.100247],[-55.299396,-26.09909],[-55.299097,-26.098784],[-55.296327,-26.098498],[-55.295859,-26.097942],[-55.296885,-26.097191],[-55.29778,-26.095834],[-55.299871,-26.095218],[-55.300807,-26.092756],[-55.30092,-26.090893],[-55.299967,-26.089983],[-55.299402,-26.087919],[-55.299017,-26.087846],[-55.295932,-26.089516],[-55.291931,-26.088715],[-55.291905,-26.0875],[-55.292463,-26.087132],[-55.291748,-26.086289],[-55.291505,-26.085433],[-55.290049,-26.083949],[-55.288391,-26.083586],[-55.287084,-26.085367],[-55.288331,-26.086935],[-55.288804,-26.088967],[-55.288721,-26.089986],[-55.288341,-26.09064],[-55.288013,-26.090587],[-55.287793,-26.089948],[-55.287192,-26.090297],[-55.286861,-26.090758],[-55.286771,-26.092323],[-55.287604,-26.093195],[-55.289666,-26.093441],[-55.289951,-26.094392],[-55.289741,-26.095062],[-55.287463,-26.097017],[-55.286706,-26.097071],[-55.286076,-26.096738],[-55.286067,-26.095371],[-55.285282,-26.09486],[-55.283777,-26.094937],[-55.28153,-26.096161],[-55.281109,-26.095271],[-55.281046,-26.089019],[-55.280536,-26.088909],[-55.278049,-26.089484],[-55.276944,-26.088776],[-55.276906,-26.088383],[-55.27817,-26.08745],[-55.278243,-26.086855],[-55.275543,-26.08513],[-55.275045,-26.083396],[-55.271662,-26.083897],[-55.268389,-26.082196],[-55.267469,-26.080809],[-55.269549,-26.079407],[-55.269782,-26.078878],[-55.26816,-26.077608],[-55.267632,-26.077471],[-55.265076,-26.078158],[-55.263861,-26.077285],[-55.263713,-26.076264],[-55.262961,-26.076227],[-55.259751,-26.077471],[-55.259753,-26.077836],[-55.260498,-26.078242],[-55.260351,-26.078922],[-55.25887,-26.080981],[-55.257879,-26.081298],[-55.255717,-26.080274],[-55.255833,-26.078953],[-55.255449,-26.078484],[-55.25071,-26.078521],[-55.250517,-26.077887],[-55.250799,-26.076586],[-55.254853,-26.075073],[-55.255537,-26.074427],[-55.255868,-26.073339],[-55.253405,-26.072916],[-55.251706,-26.071519],[-55.249871,-26.072255],[-55.24863,-26.072123],[-55.248208,-26.071644],[-55.248358,-26.070797],[-55.249299,-26.069342],[-55.251777,-26.068194],[-55.255803,-26.0652],[-55.255501,-26.06489],[-55.254892,-26.065212],[-55.254176,-26.064977],[-55.253584,-26.06534],[-55.25363,-26.06498],[-55.255009,-26.063615],[-55.25503,-26.063241],[-55.251771,-26.063513],[-55.251563,-26.062594],[-55.249906,-26.06164],[-55.250899,-26.060902],[-55.251243,-26.060207],[-55.249461,-26.060184],[-55.249222,-26.058675],[-55.247899,-26.059665],[-55.247381,-26.060481],[-55.247898,-26.062062],[-55.246265,-26.061632],[-55.245582,-26.06175],[-55.243872,-26.064108],[-55.241575,-26.068399],[-55.239279,-26.068168],[-55.238861,-26.067833],[-55.238639,-26.066738],[-55.237189,-26.066513],[-55.236714,-26.066769],[-55.236546,-26.067277],[-55.236899,-26.069037],[-55.235168,-26.069427],[-55.234583,-26.068806],[-55.233384,-26.066236],[-55.230083,-26.065708],[-55.227405,-26.066524],[-55.225664,-26.06797],[-55.224179,-26.071115],[-55.220912,-26.070403],[-55.219966,-26.071194],[-55.219782,-26.072172],[-55.221374,-26.073834],[-55.225876,-26.075866],[-55.226863,-26.080162],[-55.227461,-26.080788],[-55.229823,-26.081959],[-55.231277,-26.081214],[-55.231773,-26.080308],[-55.232434,-26.080483],[-55.234588,-26.083904],[-55.23458,-26.084395],[-55.233878,-26.085028],[-55.231785,-26.086428],[-55.229583,-26.08474],[-55.224207,-26.085889],[-55.222845,-26.084436],[-55.221695,-26.083939],[-55.220993,-26.083958],[-55.220328,-26.085299],[-55.219113,-26.086331],[-55.216754,-26.08692],[-55.214746,-26.086774],[-55.21215,-26.087545],[-55.211589,-26.088752],[-55.214045,-26.089248],[-55.214212,-26.09101],[-55.211864,-26.094095],[-55.208392,-26.095821],[-55.206975,-26.095853],[-55.205274,-26.095363],[-55.204734,-26.094526],[-55.205307,-26.093291],[-55.208547,-26.090145],[-55.209766,-26.088183],[-55.210681,-26.084421],[-55.210617,-26.082882],[-55.210112,-26.081463],[-55.210318,-26.080653],[-55.213652,-26.079322],[-55.214612,-26.078377],[-55.21496,-26.077415],[-55.2127,-26.076259],[-55.209216,-26.07678],[-55.206219,-26.075768],[-55.203984,-26.073375],[-55.203991,-26.072044],[-55.204522,-26.07047],[-55.205371,-26.069222],[-55.205913,-26.069292],[-55.206808,-26.070485],[-55.20768,-26.070577],[-55.214958,-26.068298],[-55.216508,-26.067252],[-55.217042,-26.06622],[-55.217016,-26.065421],[-55.214882,-26.065268],[-55.212912,-26.064635],[-55.208873,-26.064887],[-55.203663,-26.064042],[-55.20299,-26.063112],[-55.202903,-26.060877],[-55.202364,-26.059548],[-55.201013,-26.058263],[-55.200179,-26.057918],[-55.199013,-26.05868],[-55.197888,-26.061821],[-55.197747,-26.063769],[-55.194533,-26.068215],[-55.194005,-26.068146],[-55.19274,-26.066762],[-55.190865,-26.066075],[-55.19011,-26.064838],[-55.187049,-26.066583],[-55.185445,-26.066459],[-55.183752,-26.065769],[-55.182672,-26.064754],[-55.183342,-26.062573],[-55.183254,-26.062256],[-55.182753,-26.062114],[-55.181055,-26.063041],[-55.180114,-26.06585],[-55.178219,-26.069148],[-55.176989,-26.070058],[-55.175891,-26.070269],[-55.175155,-26.069786],[-55.174983,-26.068814],[-55.176514,-26.066739],[-55.17662,-26.064935],[-55.17597,-26.064349],[-55.173145,-26.06323],[-55.172452,-26.06221],[-55.172795,-26.061321],[-55.175798,-26.061823],[-55.179754,-26.060605],[-55.18045,-26.059093],[-55.180115,-26.055907],[-55.18042,-26.054462],[-55.18077,-26.054105],[-55.182244,-26.054164],[-55.186756,-26.055106],[-55.190104,-26.055301],[-55.191884,-26.055084],[-55.193227,-26.054514],[-55.19389,-26.052207],[-55.193881,-26.051056],[-55.193327,-26.050607],[-55.191943,-26.050237],[-55.189995,-26.051138],[-55.186431,-26.050877],[-55.181833,-26.049948],[-55.180922,-26.049368],[-55.180733,-26.048571],[-55.181813,-26.046833],[-55.182051,-26.045902],[-55.181149,-26.042438],[-55.181676,-26.041989],[-55.185915,-26.041884],[-55.187744,-26.043649],[-55.190292,-26.044963],[-55.192002,-26.045215],[-55.193363,-26.044807],[-55.196321,-26.042281],[-55.197695,-26.042781],[-55.199192,-26.042163],[-55.201892,-26.042102],[-55.202347,-26.041033],[-55.199791,-26.036831],[-55.199326,-26.032614],[-55.198674,-26.030277],[-55.19605,-26.031612],[-55.196252,-26.032422],[-55.197591,-26.033576],[-55.19775,-26.034188],[-55.194367,-26.034886],[-55.191721,-26.03678],[-55.191033,-26.035051],[-55.188959,-26.033437],[-55.188926,-26.031428],[-55.187945,-26.0291],[-55.187101,-26.028625],[-55.186983,-26.030289],[-55.186734,-26.030371],[-55.18488,-26.028362],[-55.183069,-26.024399],[-55.183069,-26.021984],[-55.182531,-26.021639],[-55.181037,-26.025443],[-55.17978,-26.026826],[-55.178125,-26.028051],[-55.179839,-26.029689],[-55.182262,-26.030857],[-55.184408,-26.032328],[-55.18437,-26.033898],[-55.184692,-26.034976],[-55.183049,-26.036066],[-55.181154,-26.038064],[-55.180314,-26.038433],[-55.178768,-26.038413],[-55.176021,-26.03739],[-55.175491,-26.037478],[-55.175191,-26.038382],[-55.176269,-26.041523],[-55.17599,-26.044133],[-55.175056,-26.044573],[-55.173091,-26.044503],[-55.17187,-26.043769],[-55.171039,-26.041412],[-55.1712,-26.040584],[-55.173476,-26.039385],[-55.174286,-26.03837],[-55.174171,-26.037186],[-55.173176,-26.03466],[-55.173324,-26.032193],[-55.172549,-26.030504],[-55.173011,-26.0293],[-55.170894,-26.028885],[-55.167733,-26.029287],[-55.16425,-26.030999],[-55.163007,-26.030302],[-55.161385,-26.030114],[-55.160667,-26.029423],[-55.16066,-26.028561],[-55.161372,-26.027176],[-55.163192,-26.025339],[-55.164077,-26.023735],[-55.164691,-26.020818],[-55.165904,-26.018572],[-55.166093,-26.017577],[-55.166932,-26.016536],[-55.166486,-26.01509],[-55.163085,-26.014542],[-55.161704,-26.017228],[-55.160372,-26.017323],[-55.160075,-26.023417],[-55.158618,-26.026039],[-55.156224,-26.028654],[-55.152662,-26.026785],[-55.151474,-26.027126],[-55.149232,-26.028767],[-55.148535,-26.028691],[-55.148259,-26.026182],[-55.151075,-26.026417],[-55.15204,-26.025662],[-55.153092,-26.023906],[-55.149928,-26.022706],[-55.146824,-26.020802],[-55.144957,-26.020101],[-55.143147,-26.018227],[-55.142428,-26.015979],[-55.141802,-26.015845],[-55.141386,-26.017794],[-55.139274,-26.020375],[-55.141767,-26.022831],[-55.143028,-26.024761],[-55.143054,-26.025623],[-55.140814,-26.028822],[-55.138602,-26.029953],[-55.136139,-26.030269],[-55.137679,-26.031313],[-55.139968,-26.031298],[-55.140728,-26.03179],[-55.140777,-26.033123],[-55.139359,-26.035347],[-55.141105,-26.035767],[-55.142569,-26.037167],[-55.142802,-26.037933],[-55.140061,-26.038841],[-55.139919,-26.04013],[-55.134632,-26.040414],[-55.133226,-26.040811],[-55.132658,-26.044798],[-55.131766,-26.045815],[-55.129551,-26.04723],[-55.129885,-26.049185],[-55.131694,-26.051822],[-55.150358,-26.067521],[-55.151212,-26.068371],[-55.152092,-26.069925],[-55.152452,-26.072655],[-55.14745,-26.089626],[-55.146951,-26.091723],[-55.147013,-26.093177],[-55.14754,-26.094655],[-55.159544,-26.114546],[-55.159855,-26.116306],[-55.159784,-26.132824],[-55.160242,-26.13575],[-55.1803,-26.185102],[-55.187855,-26.195145],[-55.18882,-26.196827],[-55.205094,-26.228205],[-55.205735,-26.23015],[-55.205627,-26.233615],[-55.206357,-26.234224],[-55.209664,-26.235682],[-55.210333,-26.237176],[-55.210861,-26.23753],[-55.211238,-26.23906],[-55.212023,-26.239977],[-55.218955,-26.239153],[-55.220112,-26.240766],[-55.221298,-26.240461],[-55.224818,-26.242103],[-55.224952,-26.241039],[-55.226291,-26.242334],[-55.230368,-26.244793],[-55.231987,-26.243866],[-55.234894,-26.243224],[-55.23914,-26.239116],[-55.259845,-26.235964],[-55.260861,-26.235589]]]}}]}
