{"type":"FeatureCollection","name":"distrito","features":[{"type":"Feature","properties":{"clave":"2-31","nombre":"Yataity del Norte"},"geometry":{"type":"Polygon","coordinates":[[[-56.392025,-24.913344],[-56.392755,-24.912026],[-56.394578,-24.910065],[-56.395564,-24.909848],[-56.397772,-24.90801],[-56.398508,-24.907724],[-56.398461,-24.905525],[-56.398987,-24.904168],[-56.398755,-24.902934],[-56.396907,-24.900001],[-56.396629,-24.898333],[-56.395233,-24.895533],[-56.394511,-24.891737],[-56.391188,-24.887284],[-56.436885,-24.832664],[-56.437785,-24.83232],[-56.437195,-24.827824],[-56.436421,-24.825446],[-56.434353,-24.822693],[-56.430597,-24.8035],[-56.429472,-24.792398],[-56.422866,-24.790345],[-56.419998,-24.789779],[-56.417963,-24.788534],[-56.41594,-24.788034],[-56.414435,-24.787269],[-56.414111,-24.785746],[-56.412522,-24.784624],[-56.40799,-24.783112],[-56.405697,-24.782902],[-56.418195,-24.745574],[-56.412858,-24.743823],[-56.410964,-24.743802],[-56.408247,-24.74446],[-56.407736,-24.743216],[-56.407046,-24.74259],[-56.404631,-24.74208],[-56.403429,-24.741343],[-56.401707,-24.740944],[-56.394908,-24.742528],[-56.393921,-24.743811],[-56.39221,-24.744075],[-56.391225,-24.744617],[-56.387732,-24.744518],[-56.387384,-24.744132],[-56.379243,-24.743823],[-56.317287,-24.738429],[-56.316314,-24.737526],[-56.315895,-24.736314],[-56.313888,-24.734783],[-56.313129,-24.734518],[-56.312118,-24.733316],[-56.311315,-24.731105],[-56.308637,-24.729128],[-56.307941,-24.7281],[-56.306609,-24.72948],[-56.305433,-24.729723],[-56.305414,-24.730495],[-56.303073,-24.733731],[-56.302422,-24.735737],[-56.301504,-24.735688],[-56.300086,-24.736376],[-56.299884,-24.736877],[-56.298157,-24.73672],[-56.296166,-24.737604],[-56.294418,-24.737244],[-56.294347,-24.737925],[-56.291802,-24.739498],[-56.290637,-24.741313],[-56.289818,-24.741864],[-56.288943,-24.741892],[-56.28719,-24.742529],[-56.286416,-24.743528],[-56.285218,-24.744249],[-56.28406,-24.745503],[-56.282334,-24.745287],[-56.280503,-24.746439],[-56.279798,-24.746165],[-56.279008,-24.745344],[-56.277587,-24.745472],[-56.276346,-24.74524],[-56.275171,-24.74565],[-56.273965,-24.747604],[-56.273468,-24.747936],[-56.273526,-24.74827],[-56.272483,-24.749344],[-56.27124,-24.750214],[-56.270101,-24.751721],[-56.267859,-24.753079],[-56.266516,-24.756815],[-56.266105,-24.757418],[-56.265288,-24.757749],[-56.264363,-24.759555],[-56.263365,-24.759536],[-56.263051,-24.760262],[-56.261199,-24.761219],[-56.261016,-24.761642],[-56.257864,-24.763013],[-56.254855,-24.766173],[-56.257346,-24.771351],[-56.260557,-24.774776],[-56.262674,-24.778575],[-56.266781,-24.784442],[-56.268316,-24.788581],[-56.271186,-24.794343],[-56.27419,-24.798237],[-56.275215,-24.800829],[-56.27698,-24.803651],[-56.278393,-24.806958],[-56.27822,-24.808001],[-56.277746,-24.809199],[-56.197163,-24.940447],[-56.198439,-24.939343],[-56.199977,-24.939017],[-56.200034,-24.93843],[-56.2009,-24.937776],[-56.203951,-24.937426],[-56.207051,-24.936621],[-56.208852,-24.935755],[-56.215119,-24.93516],[-56.218491,-24.935228],[-56.223291,-24.934052],[-56.225311,-24.934098],[-56.23367,-24.930457],[-56.236878,-24.928211],[-56.237844,-24.926636],[-56.238809,-24.926794],[-56.239969,-24.927622],[-56.240567,-24.927666],[-56.241547,-24.927427],[-56.242884,-24.926467],[-56.245116,-24.926596],[-56.247571,-24.925769],[-56.24955,-24.925557],[-56.255892,-24.926632],[-56.257699,-24.926497],[-56.259011,-24.927573],[-56.260433,-24.927666],[-56.261048,-24.928053],[-56.261627,-24.927482],[-56.262941,-24.927557],[-56.265514,-24.929272],[-56.266722,-24.929296],[-56.266731,-24.930506],[-56.268817,-24.932277],[-56.269082,-24.932838],[-56.270186,-24.93325],[-56.272412,-24.936291],[-56.272441,-24.937582],[-56.271683,-24.93752],[-56.271575,-24.937885],[-56.27177,-24.938771],[-56.272447,-24.939054],[-56.274152,-24.938358],[-56.27499,-24.938538],[-56.275931,-24.938922],[-56.278033,-24.941122],[-56.278782,-24.941248],[-56.282005,-24.940532],[-56.284998,-24.940881],[-56.286882,-24.940542],[-56.287601,-24.940879],[-56.289059,-24.940453],[-56.290841,-24.941012],[-56.29233,-24.940681],[-56.293606,-24.940736],[-56.296097,-24.940044],[-56.297669,-24.940124],[-56.298996,-24.939601],[-56.300005,-24.938134],[-56.300028,-24.937254],[-56.300671,-24.936697],[-56.301246,-24.935354],[-56.301796,-24.933853],[-56.301903,-24.932196],[-56.302315,-24.931747],[-56.303905,-24.93105],[-56.305007,-24.929949],[-56.306251,-24.929697],[-56.309235,-24.928054],[-56.310382,-24.928502],[-56.311438,-24.928344],[-56.313616,-24.927004],[-56.317002,-24.927507],[-56.319314,-24.92498],[-56.319319,-24.923896],[-56.320872,-24.922675],[-56.321719,-24.92267],[-56.323559,-24.923554],[-56.324092,-24.923512],[-56.325151,-24.92209],[-56.325758,-24.922016],[-56.326535,-24.919373],[-56.327169,-24.918261],[-56.327872,-24.917474],[-56.32865,-24.917175],[-56.330868,-24.916869],[-56.332892,-24.917397],[-56.334805,-24.916814],[-56.335735,-24.917581],[-56.337086,-24.917501],[-56.338724,-24.918294],[-56.338967,-24.919],[-56.340434,-24.919693],[-56.341527,-24.92098],[-56.343401,-24.921544],[-56.343742,-24.921125],[-56.345345,-24.920613],[-56.345673,-24.920059],[-56.348183,-24.919853],[-56.349164,-24.919356],[-56.351611,-24.919963],[-56.353093,-24.919391],[-56.352874,-24.920443],[-56.353215,-24.920516],[-56.356034,-24.918636],[-56.355538,-24.917912],[-56.355866,-24.917489],[-56.357041,-24.917413],[-56.358307,-24.916831],[-56.360506,-24.917613],[-56.365178,-24.9136],[-56.368625,-24.912423],[-56.372503,-24.912275],[-56.374498,-24.911822],[-56.383298,-24.91142],[-56.388108,-24.912001],[-56.392025,-24.913344]]]}}]}
