{"type":"FeatureCollection","name":"distrito","features":[{"type":"Feature","properties":{"clave":"5-13","nombre":"José Domingo Ocampos"},"geometry":{"type":"Polygon","coordinates":[[[-55.43929,-25.542864],[-55.43973,-25.543248],[-55.439823,-25.544508],[-55.440274,-25.545186],[-55.441683,-25.545354],[-55.44293,-25.545972],[-55.443698,-25.545732],[-55.443785,-25.54446],[-55.442728,-25.543505],[-55.442996,-25.543278],[-55.444583,-25.543642],[-55.445111,-25.543197],[-55.444455,-25.539596],[-55.444929,-25.539177],[-55.445653,-25.539171],[-55.446442,-25.54089],[-55.448542,-25.540737],[-55.448589,-25.540092],[-55.447175,-25.539661],[-55.446732,-25.538957],[-55.447071,-25.538699],[-55.447898,-25.539263],[-55.448686,-25.539221],[-55.448372,-25.537593],[-55.449849,-25.536733],[-55.449084,-25.535569],[-55.449136,-25.535154],[-55.449754,-25.535039],[-55.450266,-25.535803],[-55.450786,-25.536034],[-55.452504,-25.535217],[-55.453726,-25.535993],[-55.454615,-25.535935],[-55.454532,-25.53327],[-55.45284,-25.532061],[-55.452862,-25.531569],[-55.453674,-25.531496],[-55.45485,-25.532768],[-55.456425,-25.533412],[-55.459701,-25.531465],[-55.459624,-25.530773],[-55.458212,-25.530849],[-55.457252,-25.530315],[-55.457649,-25.529168],[-55.45766,-25.527715],[-55.458151,-25.527679],[-55.461222,-25.529608],[-55.462095,-25.529608],[-55.462438,-25.528984],[-55.461378,-25.528345],[-55.461369,-25.527817],[-55.463059,-25.526801],[-55.464467,-25.52761],[-55.46595,-25.527477],[-55.466159,-25.526969],[-55.465411,-25.525756],[-55.465676,-25.525154],[-55.466412,-25.52489],[-55.467218,-25.525237],[-55.46853,-25.526967],[-55.471471,-25.524966],[-55.473505,-25.526811],[-55.4752,-25.527217],[-55.475433,-25.526691],[-55.474497,-25.525489],[-55.474457,-25.524925],[-55.474925,-25.524343],[-55.476412,-25.523741],[-55.477826,-25.412276],[-55.481062,-25.355105],[-55.444686,-25.360496],[-55.417028,-25.362798],[-55.400407,-25.362907],[-55.378436,-25.361914],[-55.382659,-25.380192],[-55.406539,-25.47512],[-55.4082,-25.48204],[-55.409743,-25.490715],[-55.418529,-25.527595],[-55.426062,-25.557542],[-55.426453,-25.557483],[-55.426716,-25.556317],[-55.4275,-25.555341],[-55.427427,-25.553873],[-55.428199,-25.553105],[-55.42838,-25.551771],[-55.429402,-25.551303],[-55.430679,-25.549724],[-55.430503,-25.548891],[-55.428694,-25.548204],[-55.428604,-25.546952],[-55.429453,-25.546903],[-55.429355,-25.547872],[-55.429797,-25.548094],[-55.432169,-25.546864],[-55.432437,-25.546285],[-55.432483,-25.543784],[-55.433082,-25.542987],[-55.433468,-25.5431],[-55.434199,-25.544101],[-55.435701,-25.544261],[-55.436619,-25.545038],[-55.437233,-25.545194],[-55.437641,-25.545018],[-55.437692,-25.544643],[-55.437096,-25.543107],[-55.43929,-25.542864]]]}}]}
