{"type":"FeatureCollection","name":"distrito","features":[{"type":"Feature","properties":{"clave":"3-25","nombre":"Nueva Colombia"},"geometry":{"type":"Polygon","coordinates":[[[-57.277286,-25.220477],[-57.280836,-25.221491],[-57.283396,-25.223314],[-57.284525,-25.223714],[-57.287279,-25.225497],[-57.287375,-25.225081],[-57.288089,-25.224719],[-57.289208,-25.223504],[-57.299978,-25.231472],[-57.307171,-25.22324],[-57.307012,-25.214891],[-57.313368,-25.208692],[-57.317181,-25.204118],[-57.324165,-25.201091],[-57.321267,-25.187675],[-57.321339,-25.185619],[-57.320689,-25.184802],[-57.319387,-25.184234],[-57.319183,-25.18464],[-57.317002,-25.181745],[-57.315927,-25.181761],[-57.314754,-25.180978],[-57.313918,-25.179414],[-57.308896,-25.173201],[-57.307395,-25.170315],[-57.307859,-25.168133],[-57.306195,-25.165838],[-57.305643,-25.164322],[-57.304972,-25.164215],[-57.304481,-25.163114],[-57.300028,-25.156865],[-57.2993,-25.156275],[-57.289344,-25.140337],[-57.28839,-25.140319],[-57.286704,-25.137254],[-57.285357,-25.136809],[-57.285517,-25.135951],[-57.285187,-25.135351],[-57.282158,-25.131519],[-57.274349,-25.120353],[-57.27437,-25.118795],[-57.273224,-25.118517],[-57.273703,-25.117979],[-57.272714,-25.11682],[-57.273415,-25.116679],[-57.274218,-25.114547],[-57.277036,-25.111466],[-57.276981,-25.110861],[-57.276446,-25.110632],[-57.276123,-25.109919],[-57.276861,-25.109254],[-57.277582,-25.107754],[-57.277542,-25.105993],[-57.277226,-25.105487],[-57.277965,-25.104479],[-57.277979,-25.102023],[-57.278694,-25.101191],[-57.278851,-25.099641],[-57.278405,-25.098793],[-57.278516,-25.097935],[-57.278871,-25.097614],[-57.278969,-25.095564],[-57.278726,-25.095144],[-57.2788,-25.094652],[-57.279431,-25.094199],[-57.278805,-25.09416],[-57.278465,-25.093516],[-57.277445,-25.093518],[-57.276618,-25.093957],[-57.276211,-25.094674],[-57.275516,-25.094629],[-57.274697,-25.094082],[-57.272849,-25.09482],[-57.271449,-25.094664],[-57.271153,-25.094879],[-57.270911,-25.096396],[-57.269592,-25.096147],[-57.268098,-25.09535],[-57.266567,-25.095837],[-57.265536,-25.096564],[-57.264584,-25.095701],[-57.264796,-25.094425],[-57.264222,-25.093803],[-57.263496,-25.093832],[-57.2632,-25.093991],[-57.263008,-25.094829],[-57.261731,-25.09498],[-57.261273,-25.095632],[-57.260343,-25.095736],[-57.259544,-25.094779],[-57.259971,-25.093717],[-57.259467,-25.092201],[-57.260345,-25.091772],[-57.26241,-25.092084],[-57.262992,-25.091904],[-57.262944,-25.091241],[-57.26378,-25.091407],[-57.265052,-25.091147],[-57.264789,-25.090282],[-57.265199,-25.088571],[-57.265022,-25.088202],[-57.264079,-25.088064],[-57.262343,-25.089665],[-57.261868,-25.089736],[-57.261024,-25.089423],[-57.26054,-25.088531],[-57.258823,-25.088366],[-57.258452,-25.087201],[-57.258718,-25.086154],[-57.257454,-25.086254],[-57.256954,-25.085557],[-57.257368,-25.085228],[-57.258215,-25.085553],[-57.258772,-25.084907],[-57.259698,-25.084608],[-57.259765,-25.084272],[-57.259587,-25.083963],[-57.257965,-25.08332],[-57.256753,-25.083521],[-57.25561,-25.084515],[-57.254697,-25.084145],[-57.253089,-25.08411],[-57.252627,-25.084818],[-57.253188,-25.086058],[-57.252549,-25.086841],[-57.252017,-25.08606],[-57.251662,-25.086085],[-57.251132,-25.086657],[-57.25127,-25.087563],[-57.250903,-25.087725],[-57.249642,-25.08727],[-57.247033,-25.088323],[-57.246858,-25.088608],[-57.247638,-25.090296],[-57.246988,-25.090811],[-57.245846,-25.089662],[-57.245131,-25.089537],[-57.245204,-25.088624],[-57.243913,-25.088112],[-57.243489,-25.088844],[-57.242799,-25.088502],[-57.242597,-25.087775],[-57.241221,-25.088712],[-57.24126,-25.08911],[-57.241849,-25.089429],[-57.241475,-25.090125],[-57.239923,-25.09095],[-57.238919,-25.090093],[-57.237741,-25.089914],[-57.238316,-25.088979],[-57.238202,-25.088546],[-57.237263,-25.088773],[-57.236373,-25.08849],[-57.235945,-25.087623],[-57.234669,-25.088357],[-57.234242,-25.088105],[-57.233717,-25.088232],[-57.233743,-25.08895],[-57.231236,-25.088033],[-57.231023,-25.088101],[-57.231125,-25.08876],[-57.230824,-25.08867],[-57.230535,-25.087984],[-57.229997,-25.088649],[-57.229433,-25.088456],[-57.228181,-25.088972],[-57.227041,-25.088699],[-57.226052,-25.089215],[-57.226017,-25.090786],[-57.225641,-25.090376],[-57.225015,-25.090607],[-57.227884,-25.09226],[-57.228449,-25.092218],[-57.228804,-25.093378],[-57.228327,-25.09407],[-57.228394,-25.094865],[-57.228035,-25.094915],[-57.227731,-25.095507],[-57.227177,-25.095616],[-57.225338,-25.097637],[-57.222981,-25.099072],[-57.222432,-25.099954],[-57.222455,-25.100536],[-57.22594,-25.104437],[-57.226281,-25.105226],[-57.227161,-25.104651],[-57.227509,-25.104728],[-57.228525,-25.107232],[-57.228867,-25.109471],[-57.229727,-25.109786],[-57.230021,-25.110332],[-57.231817,-25.110496],[-57.232017,-25.112934],[-57.23167,-25.113526],[-57.232236,-25.113973],[-57.232019,-25.114289],[-57.232365,-25.114984],[-57.23521,-25.116126],[-57.236095,-25.117741],[-57.235912,-25.118907],[-57.237002,-25.120124],[-57.236578,-25.121665],[-57.235821,-25.122682],[-57.236292,-25.124325],[-57.238186,-25.125003],[-57.238551,-25.125779],[-57.239826,-25.125877],[-57.23961,-25.127652],[-57.240096,-25.128202],[-57.241394,-25.128836],[-57.242394,-25.129927],[-57.245071,-25.130063],[-57.247324,-25.131048],[-57.247834,-25.132172],[-57.248927,-25.133213],[-57.248869,-25.134355],[-57.249388,-25.13463],[-57.249525,-25.135339],[-57.250918,-25.136226],[-57.250988,-25.13684],[-57.250268,-25.137722],[-57.250402,-25.138412],[-57.25196,-25.139552],[-57.252239,-25.140608],[-57.253942,-25.140479],[-57.254302,-25.142682],[-57.255215,-25.143308],[-57.255363,-25.14374],[-57.251403,-25.144493],[-57.248253,-25.143306],[-57.245582,-25.14276],[-57.243169,-25.141201],[-57.236756,-25.138221],[-57.232767,-25.139665],[-57.233129,-25.14189],[-57.232064,-25.142497],[-57.232716,-25.144063],[-57.232714,-25.145002],[-57.234021,-25.146978],[-57.233894,-25.148197],[-57.235949,-25.150117],[-57.235992,-25.152194],[-57.234475,-25.153385],[-57.234251,-25.158198],[-57.238466,-25.16235],[-57.242445,-25.166928],[-57.243847,-25.16678],[-57.248119,-25.182149],[-57.251486,-25.190288],[-57.254402,-25.194058],[-57.253822,-25.194365],[-57.255303,-25.197465],[-57.256644,-25.197119],[-57.257584,-25.199814],[-57.258687,-25.1998],[-57.258911,-25.200098],[-57.259717,-25.202271],[-57.26705,-25.212232],[-57.26698,-25.213628],[-57.26831,-25.21438],[-57.269786,-25.214129],[-57.270606,-25.214371],[-57.271413,-25.215191],[-57.271802,-25.216396],[-57.272802,-25.217822],[-57.274288,-25.218231],[-57.275484,-25.218933],[-57.277286,-25.220477]]]}}]}
