{"type":"FeatureCollection","name":"distrito","features":[{"type":"Feature","properties":{"clave":"10-0","nombre":"Ciudad del Este"},"geometry":{"type":"Polygon","coordinates":[[[-54.720889,-25.582155],[-54.721108,-25.583378],[-54.720279,-25.585999],[-54.720224,-25.587485],[-54.720598,-25.589027],[-54.724615,-25.595576],[-54.7262,-25.597064],[-54.728031,-25.599775],[-54.729261,-25.600135],[-54.732931,-25.599461],[-54.738416,-25.599521],[-54.739728,-25.598766],[-54.740117,-25.597719],[-54.739928,-25.596955],[-54.73871,-25.595356],[-54.737257,-25.592505],[-54.735787,-25.590629],[-54.733804,-25.588842],[-54.731048,-25.588117],[-54.730439,-25.587595],[-54.729864,-25.585595],[-54.729953,-25.584496],[-54.730868,-25.583408],[-54.732246,-25.583063],[-54.73544,-25.583357],[-54.737584,-25.582722],[-54.724214,-25.433519],[-54.723411,-25.432224],[-54.723762,-25.43142],[-54.72338,-25.431085],[-54.723444,-25.430737],[-54.722245,-25.430181],[-54.720706,-25.428469],[-54.720418,-25.428568],[-54.720587,-25.427954],[-54.719948,-25.426712],[-54.720595,-25.425017],[-54.720817,-25.423315],[-54.719838,-25.421382],[-54.719768,-25.420358],[-54.720106,-25.419591],[-54.719233,-25.41817],[-54.719772,-25.414237],[-54.723645,-25.411032],[-54.728627,-25.408126],[-54.730993,-25.407599],[-54.73731,-25.407894],[-54.738668,-25.406535],[-54.7388,-25.404398],[-54.737615,-25.403169],[-54.733482,-25.400431],[-54.731613,-25.397616],[-54.728753,-25.393152],[-54.727515,-25.389755],[-54.727263,-25.386655],[-54.725058,-25.386931],[-54.724134,-25.387738],[-54.72031,-25.393866],[-54.723565,-25.40208],[-54.724149,-25.404525],[-54.723721,-25.40581],[-54.714672,-25.410246],[-54.714868,-25.411346],[-54.716336,-25.412383],[-54.715869,-25.414947],[-54.714441,-25.416946],[-54.711015,-25.417802],[-54.7059,-25.410679],[-54.702158,-25.406529],[-54.700021,-25.40324],[-54.701177,-25.396283],[-54.700024,-25.395108],[-54.698022,-25.396214],[-54.696024,-25.398243],[-54.689314,-25.401384],[-54.686458,-25.40324],[-54.684602,-25.406666],[-54.68446,-25.409093],[-54.682604,-25.412234],[-54.67932,-25.413662],[-54.675751,-25.414376],[-54.67004,-25.414233],[-54.671611,-25.418802],[-54.673181,-25.422085],[-54.674466,-25.423513],[-54.68034,-25.424067],[-54.691741,-25.417659],[-54.694453,-25.417088],[-54.696452,-25.418088],[-54.698847,-25.422889],[-54.700688,-25.423793],[-54.70964,-25.423683],[-54.711205,-25.424645],[-54.711711,-25.427029],[-54.711888,-25.435878],[-54.712585,-25.44036],[-54.705732,-25.447641],[-54.703162,-25.445642],[-54.699879,-25.444357],[-54.698308,-25.437361],[-54.696182,-25.436087],[-54.691304,-25.434477],[-54.685617,-25.43207],[-54.68346,-25.43265],[-54.676607,-25.43936],[-54.673467,-25.441502],[-54.670611,-25.442644],[-54.670611,-25.444214],[-54.673467,-25.450782],[-54.678749,-25.453351],[-54.681033,-25.455493],[-54.680605,-25.458777],[-54.677321,-25.463202],[-54.675323,-25.465344],[-54.672182,-25.467914],[-54.667899,-25.469484],[-54.665475,-25.468059],[-54.666043,-25.465487],[-54.664044,-25.459633],[-54.658333,-25.456349],[-54.654953,-25.447505],[-54.651592,-25.443283],[-54.647262,-25.442982],[-54.643675,-25.443851],[-54.642201,-25.445785],[-54.640916,-25.448497],[-54.641629,-25.451495],[-54.641487,-25.455636],[-54.640916,-25.458348],[-54.637918,-25.46049],[-54.633206,-25.460918],[-54.62978,-25.45949],[-54.627495,-25.460204],[-54.626211,-25.461775],[-54.625794,-25.463409],[-54.625782,-25.465201],[-54.626924,-25.473196],[-54.627638,-25.474624],[-54.630731,-25.475499],[-54.63158,-25.475002],[-54.633011,-25.473233],[-54.634286,-25.472272],[-54.635919,-25.471911],[-54.637061,-25.472482],[-54.637869,-25.473425],[-54.638599,-25.47506],[-54.638788,-25.477981],[-54.635978,-25.481472],[-54.635919,-25.482192],[-54.634634,-25.484619],[-54.632757,-25.485816],[-54.63224,-25.487144],[-54.632778,-25.489187],[-54.631998,-25.490359],[-54.6302,-25.491752],[-54.629351,-25.491899],[-54.627638,-25.491328],[-54.62464,-25.492184],[-54.623432,-25.494011],[-54.623278,-25.496235],[-54.616931,-25.499465],[-54.614868,-25.499609],[-54.612127,-25.498648],[-54.610584,-25.498756],[-54.5979,-25.504587],[-54.600503,-25.509368],[-54.600321,-25.512804],[-54.60108,-25.517921],[-54.600822,-25.522239],[-54.600317,-25.524524],[-54.598432,-25.529807],[-54.594735,-25.536723],[-54.594081,-25.540676],[-54.594547,-25.548964],[-54.59361,-25.552749],[-54.593631,-25.553535],[-54.595812,-25.553378],[-54.599252,-25.554777],[-54.599452,-25.554082],[-54.600219,-25.553283],[-54.600168,-25.552193],[-54.601096,-25.550264],[-54.603233,-25.550053],[-54.60585,-25.548497],[-54.605503,-25.546457],[-54.605994,-25.54596],[-54.606533,-25.545914],[-54.608058,-25.547274],[-54.610027,-25.547752],[-54.61046,-25.547239],[-54.610469,-25.546144],[-54.611707,-25.545284],[-54.612558,-25.544322],[-54.612684,-25.54362],[-54.613505,-25.542952],[-54.61348,-25.542216],[-54.61402,-25.54152],[-54.614005,-25.540097],[-54.615057,-25.538888],[-54.615861,-25.538727],[-54.616072,-25.538354],[-54.616878,-25.538392],[-54.617353,-25.537975],[-54.61818,-25.537965],[-54.61924,-25.538583],[-54.61968,-25.539511],[-54.623375,-25.542023],[-54.625181,-25.542121],[-54.625877,-25.542559],[-54.627281,-25.542427],[-54.629342,-25.542792],[-54.630986,-25.543672],[-54.633555,-25.544305],[-54.635997,-25.545678],[-54.639854,-25.546336],[-54.642334,-25.545098],[-54.642824,-25.545922],[-54.643815,-25.545251],[-54.644686,-25.54655],[-54.647305,-25.545556],[-54.64913,-25.545942],[-54.649256,-25.546673],[-54.651425,-25.546558],[-54.651511,-25.547037],[-54.652703,-25.546624],[-54.653394,-25.545989],[-54.657317,-25.54485],[-54.657492,-25.545196],[-54.658467,-25.544951],[-54.658793,-25.545681],[-54.660927,-25.544977],[-54.661264,-25.545806],[-54.665112,-25.544656],[-54.665452,-25.545414],[-54.665969,-25.545234],[-54.666529,-25.546345],[-54.667078,-25.546723],[-54.668262,-25.545459],[-54.669018,-25.545459],[-54.669726,-25.544692],[-54.670273,-25.545373],[-54.671158,-25.5449],[-54.671726,-25.545491],[-54.676399,-25.545458],[-54.676571,-25.54569],[-54.676935,-25.545393],[-54.677756,-25.546436],[-54.678819,-25.54602],[-54.678765,-25.545601],[-54.703911,-25.545314],[-54.706248,-25.569102],[-54.706655,-25.570634],[-54.706189,-25.571312],[-54.706812,-25.573668],[-54.708454,-25.575095],[-54.717137,-25.577293],[-54.720889,-25.582155]]]}}]}
