{"type":"FeatureCollection","name":"distrito","features":[{"type":"Feature","properties":{"clave":"12-21","nombre":"San Juan Bautista de Ñeembucú"},"geometry":{"type":"Polygon","coordinates":[[[-57.913951,-26.700716],[-57.915398,-26.695409],[-57.915278,-26.693478],[-57.915529,-26.693017],[-57.918433,-26.692207],[-57.919292,-26.692641],[-57.92047,-26.693866],[-57.921195,-26.694038],[-57.922671,-26.693837],[-57.92448,-26.694667],[-57.926775,-26.693799],[-57.930086,-26.691982],[-57.931586,-26.689116],[-57.934076,-26.68825],[-57.93386,-26.683243],[-57.934112,-26.682718],[-57.936711,-26.68159],[-57.940572,-26.681528],[-57.944515,-26.679505],[-57.944944,-26.679666],[-57.947048,-26.682104],[-57.948169,-26.681341],[-57.948899,-26.681229],[-57.949502,-26.681882],[-57.950637,-26.681707],[-57.951611,-26.682261],[-57.953877,-26.682313],[-57.954782,-26.682722],[-57.956677,-26.682348],[-57.957846,-26.680811],[-57.959146,-26.681237],[-57.960479,-26.681025],[-57.961888,-26.681433],[-57.963377,-26.681287],[-57.964957,-26.680688],[-57.965889,-26.682064],[-57.965566,-26.683537],[-57.966346,-26.683769],[-57.967568,-26.683502],[-57.967848,-26.682875],[-57.96875,-26.683042],[-57.97019,-26.682325],[-57.971281,-26.682368],[-57.971904,-26.682052],[-57.973574,-26.682178],[-57.974721,-26.681682],[-57.97535,-26.68091],[-57.976595,-26.680868],[-57.977371,-26.679792],[-57.977808,-26.679675],[-57.978571,-26.67994],[-57.980166,-26.681203],[-57.982255,-26.681208],[-57.983946,-26.680085],[-57.985041,-26.679754],[-57.985843,-26.680094],[-57.986294,-26.681986],[-57.987111,-26.682465],[-57.989805,-26.680888],[-57.992836,-26.681075],[-57.995719,-26.680255],[-57.996325,-26.679963],[-57.996293,-26.679468],[-57.997184,-26.679237],[-57.998492,-26.678111],[-57.999801,-26.677941],[-58.00217,-26.678603],[-58.003276,-26.681416],[-58.005117,-26.681492],[-58.005364,-26.683438],[-58.005982,-26.683464],[-58.006376,-26.682793],[-58.00689,-26.683103],[-58.006764,-26.683812],[-58.007786,-26.683443],[-58.00884,-26.683507],[-58.009026,-26.683117],[-58.00855,-26.682227],[-58.009104,-26.681921],[-58.010135,-26.682071],[-58.010406,-26.682517],[-58.010192,-26.682992],[-58.010565,-26.68313],[-58.011226,-26.682924],[-58.011871,-26.68184],[-58.012447,-26.681765],[-58.013722,-26.682849],[-58.014338,-26.684065],[-58.014636,-26.685675],[-58.013554,-26.686067],[-58.013764,-26.686645],[-58.015529,-26.686441],[-58.016202,-26.685959],[-58.016139,-26.68522],[-58.016719,-26.685107],[-58.019271,-26.686147],[-58.020829,-26.686109],[-58.021395,-26.686348],[-58.02217,-26.687758],[-58.023149,-26.687562],[-58.02391,-26.684516],[-58.02553,-26.685588],[-58.025667,-26.686353],[-58.027419,-26.685638],[-58.027185,-26.686482],[-58.027434,-26.686662],[-58.029125,-26.685661],[-58.029569,-26.683686],[-58.030519,-26.683038],[-58.029584,-26.681405],[-58.029781,-26.681025],[-58.031295,-26.68082],[-58.032044,-26.680915],[-58.032799,-26.681516],[-58.033399,-26.681424],[-58.034147,-26.680464],[-58.035733,-26.679346],[-58.036572,-26.679711],[-58.036947,-26.678006],[-58.039481,-26.679367],[-58.038873,-26.68038],[-58.040354,-26.682212],[-58.039856,-26.682947],[-58.039872,-26.683456],[-58.041068,-26.683863],[-58.041899,-26.682289],[-58.04317,-26.681652],[-58.04444,-26.679761],[-58.044945,-26.679505],[-58.046766,-26.680307],[-58.046107,-26.681672],[-58.048738,-26.682186],[-58.049253,-26.681896],[-58.049342,-26.681005],[-58.050222,-26.679718],[-58.050644,-26.679304],[-58.051524,-26.67914],[-58.051745,-26.679637],[-58.051131,-26.68059],[-58.051176,-26.681033],[-58.052028,-26.68166],[-58.053774,-26.682067],[-58.054084,-26.681939],[-58.055748,-26.678738],[-58.058462,-26.678018],[-58.060523,-26.678971],[-58.060441,-26.677733],[-58.061205,-26.677194],[-58.061961,-26.67907],[-58.06299,-26.679937],[-58.063902,-26.680093],[-58.064411,-26.679679],[-58.06493,-26.678092],[-58.066906,-26.67848],[-58.067524,-26.678281],[-58.067223,-26.677223],[-58.065556,-26.676996],[-58.064827,-26.675765],[-58.066069,-26.674029],[-58.067678,-26.673642],[-58.067626,-26.672829],[-58.065925,-26.670897],[-58.065802,-26.670263],[-58.066423,-26.66852],[-58.067079,-26.66833],[-58.069029,-26.670503],[-58.07073,-26.670822],[-58.071155,-26.669954],[-58.069251,-26.669888],[-58.068691,-26.669499],[-58.068266,-26.668709],[-58.068292,-26.667879],[-58.069732,-26.667744],[-58.07153,-26.668177],[-58.07251,-26.667933],[-58.073646,-26.667205],[-58.075887,-26.664517],[-58.075276,-26.662688],[-58.075463,-26.662363],[-58.077323,-26.662468],[-58.077457,-26.662759],[-58.077004,-26.663615],[-58.077138,-26.664303],[-58.078353,-26.664904],[-58.079576,-26.664971],[-58.081024,-26.66463],[-58.082201,-26.663899],[-58.082938,-26.662269],[-58.083592,-26.662098],[-58.083996,-26.662753],[-58.083258,-26.664629],[-58.083708,-26.665183],[-58.086105,-26.665007],[-58.085544,-26.663166],[-58.085655,-26.662913],[-58.086887,-26.66294],[-58.088252,-26.662085],[-58.087797,-26.660214],[-58.088209,-26.65935],[-58.091065,-26.658627],[-58.091808,-26.659987],[-58.092736,-26.660517],[-58.09615,-26.658549],[-58.097521,-26.657138],[-58.098499,-26.65755],[-58.098906,-26.658069],[-58.099423,-26.657936],[-58.100274,-26.657196],[-58.101009,-26.655676],[-58.098989,-26.655024],[-58.098821,-26.654656],[-58.099142,-26.653805],[-58.100216,-26.652858],[-58.101041,-26.652683],[-58.102285,-26.654002],[-58.103724,-26.654101],[-58.103937,-26.652807],[-58.102952,-26.650712],[-58.103583,-26.650466],[-58.105742,-26.650469],[-58.10701,-26.649906],[-58.107534,-26.648905],[-58.107528,-26.648241],[-58.106063,-26.64858],[-58.105237,-26.648339],[-58.10566,-26.647481],[-58.106445,-26.646956],[-58.108821,-26.647226],[-58.110559,-26.646453],[-58.112469,-26.646362],[-58.114256,-26.648059],[-58.115422,-26.648117],[-58.116964,-26.647131],[-58.117716,-26.645566],[-58.119111,-26.645196],[-58.120238,-26.644295],[-58.120637,-26.644852],[-58.120761,-26.646578],[-58.121173,-26.646698],[-58.121574,-26.64631],[-58.121604,-26.6436],[-58.122011,-26.643155],[-58.123559,-26.642838],[-58.12411,-26.640829],[-58.125232,-26.640697],[-58.127151,-26.639669],[-58.129016,-26.64069],[-58.130982,-26.641206],[-58.132111,-26.642188],[-58.132781,-26.642378],[-58.134873,-26.642244],[-58.137379,-26.641569],[-58.138001,-26.641726],[-58.138245,-26.641965],[-58.138056,-26.643595],[-58.138296,-26.64419],[-58.139095,-26.644718],[-58.140994,-26.644618],[-58.143116,-26.645099],[-58.143508,-26.644644],[-58.143597,-26.64326],[-58.144098,-26.642551],[-58.145645,-26.641512],[-58.14684,-26.641307],[-58.150252,-26.642508],[-58.152043,-26.642548],[-58.152474,-26.641701],[-58.152511,-26.638944],[-58.152875,-26.638664],[-58.155776,-26.639527],[-58.156828,-26.639555],[-58.158786,-26.638839],[-58.160011,-26.639178],[-58.160778,-26.639819],[-58.161911,-26.639652],[-58.162261,-26.638772],[-58.163795,-26.638114],[-58.163972,-26.637736],[-58.163021,-26.635524],[-58.162826,-26.633647],[-58.162512,-26.633173],[-58.161482,-26.633221],[-58.158831,-26.634037],[-58.157928,-26.633147],[-58.157103,-26.631336],[-58.156854,-26.628635],[-58.156484,-26.628256],[-58.153608,-26.628141],[-58.152296,-26.626637],[-58.152634,-26.625507],[-58.154179,-26.624859],[-58.15615,-26.622717],[-58.158324,-26.623884],[-58.15975,-26.623894],[-58.15948,-26.622512],[-58.159873,-26.621296],[-58.159778,-26.620307],[-58.158334,-26.619725],[-58.157386,-26.618516],[-58.154657,-26.617015],[-58.154437,-26.616095],[-58.155193,-26.615612],[-58.157506,-26.615673],[-58.159039,-26.615356],[-58.1595,-26.614393],[-58.158848,-26.613279],[-58.158295,-26.613038],[-58.155561,-26.613138],[-58.155109,-26.612743],[-58.155006,-26.611012],[-58.155252,-26.610429],[-58.156869,-26.609004],[-58.163709,-26.606544],[-58.164483,-26.606589],[-58.165352,-26.60751],[-58.16581,-26.608801],[-58.165807,-26.60998],[-58.166185,-26.610441],[-58.168078,-26.610554],[-58.16855,-26.609866],[-58.169665,-26.605877],[-58.170714,-26.604786],[-58.171297,-26.603134],[-58.170622,-26.601756],[-58.165676,-26.600337],[-58.153425,-26.599222],[-58.152351,-26.59791],[-58.153741,-26.595706],[-58.156102,-26.594098],[-58.157812,-26.591725],[-58.158989,-26.587672],[-58.158959,-26.584682],[-58.157431,-26.580206],[-58.15517,-26.578396],[-58.152576,-26.57759],[-58.147751,-26.578252],[-58.142809,-26.581149],[-58.142335,-26.583412],[-58.141119,-26.586167],[-58.139163,-26.586653],[-58.137065,-26.584825],[-58.132099,-26.578117],[-58.132492,-26.576646],[-58.133153,-26.575964],[-58.134477,-26.575246],[-58.137635,-26.574444],[-58.139012,-26.573472],[-58.141404,-26.569416],[-58.140416,-26.564913],[-58.14049,-26.562849],[-58.13989,-26.560917],[-58.139054,-26.559786],[-58.137541,-26.558717],[-58.137241,-26.557554],[-58.137453,-26.556054],[-58.140268,-26.550767],[-58.140385,-26.549009],[-58.139947,-26.546902],[-58.138918,-26.546003],[-58.134501,-26.545337],[-58.1317,-26.545762],[-58.127851,-26.545573],[-58.12475,-26.54446],[-58.119685,-26.541886],[-58.11714,-26.541523],[-58.113733,-26.541697],[-58.110097,-26.5414],[-58.104739,-26.539767],[-58.101115,-26.538301],[-58.099209,-26.536494],[-58.097255,-26.531104],[-58.095609,-26.530355],[-58.094201,-26.530457],[-58.093162,-26.531215],[-58.092025,-26.532988],[-58.088811,-26.538466],[-58.08736,-26.541945],[-58.086842,-26.544084],[-58.085509,-26.544854],[-58.083221,-26.544471],[-58.080905,-26.54226],[-58.079832,-26.540762],[-58.079647,-26.538626],[-58.08078,-26.536273],[-58.079919,-26.535265],[-58.078104,-26.534313],[-58.074297,-26.534458],[-58.071791,-26.534933],[-58.069447,-26.534859],[-58.066757,-26.534524],[-58.06213,-26.533367],[-58.060425,-26.532001],[-58.060567,-26.530132],[-58.062446,-26.529486],[-58.062213,-26.528511],[-58.06101,-26.527053],[-58.058016,-26.526717],[-58.05499,-26.525312],[-58.049572,-26.522028],[-58.045872,-26.520647],[-58.042393,-26.519962],[-58.039995,-26.520298],[-58.037391,-26.521245],[-58.035878,-26.522283],[-58.03398,-26.523043],[-58.028728,-26.52292],[-58.027158,-26.522774],[-58.024907,-26.521822],[-58.022275,-26.51988],[-58.01826,-26.518575],[-58.010452,-26.518141],[-58.009643,-26.517245],[-58.00988,-26.516478],[-58.010462,-26.515505],[-58.012166,-26.513981],[-58.011761,-26.510732],[-58.010177,-26.507572],[-58.00756,-26.504935],[-57.999391,-26.501644],[-57.993998,-26.501058],[-57.99232,-26.500068],[-57.990909,-26.493778],[-57.98928,-26.492921],[-57.987794,-26.492547],[-57.985147,-26.49264],[-57.983516,-26.493231],[-57.981747,-26.493114],[-57.980008,-26.492309],[-57.979292,-26.491173],[-57.97941,-26.489165],[-57.981099,-26.487622],[-57.982323,-26.485802],[-57.983059,-26.483574],[-57.983291,-26.481604],[-57.981668,-26.477888],[-57.979855,-26.476639],[-57.976136,-26.474952],[-57.974927,-26.473969],[-57.974915,-26.472618],[-57.977486,-26.468816],[-57.977673,-26.467283],[-57.975998,-26.464502],[-57.974889,-26.463518],[-57.972988,-26.463621],[-57.971592,-26.464261],[-57.970199,-26.465352],[-57.969514,-26.467249],[-57.969038,-26.470135],[-57.967745,-26.471135],[-57.964854,-26.472596],[-57.95276,-26.47493],[-57.94712,-26.47704],[-57.946013,-26.476326],[-57.945804,-26.475156],[-57.946594,-26.47389],[-57.950371,-26.470531],[-57.95515,-26.467346],[-57.956134,-26.465357],[-57.956217,-26.463194],[-57.954473,-26.45816],[-57.952759,-26.45664],[-57.947686,-26.454421],[-57.944881,-26.454169],[-57.941485,-26.455003],[-57.936613,-26.459089],[-57.934035,-26.462079],[-57.932047,-26.463804],[-57.93045,-26.464445],[-57.929047,-26.464274],[-57.924921,-26.461508],[-57.918352,-26.460019],[-57.91574,-26.458774],[-57.913927,-26.457434],[-57.913616,-26.455995],[-57.91401,-26.455271],[-57.915008,-26.454814],[-57.917514,-26.455339],[-57.920818,-26.455408],[-57.922718,-26.455125],[-57.924609,-26.453761],[-57.925285,-26.450784],[-57.92467,-26.448896],[-57.923158,-26.447554],[-57.91955,-26.446947],[-57.913343,-26.446806],[-57.911338,-26.446368],[-57.909328,-26.4453],[-57.908008,-26.442966],[-57.907424,-26.438735],[-57.908311,-26.436927],[-57.908594,-26.434673],[-57.906978,-26.432791],[-57.905166,-26.431451],[-57.90346,-26.430921],[-57.90076,-26.431209],[-57.89391,-26.438279],[-57.882948,-26.444474],[-57.878749,-26.445131],[-57.87489,-26.444344],[-57.873676,-26.442729],[-57.871866,-26.441569],[-57.869758,-26.440681],[-57.867352,-26.440155],[-57.864751,-26.440351],[-57.859175,-26.444259],[-57.85749,-26.446521],[-57.854288,-26.446631],[-57.852979,-26.445557],[-57.85166,-26.443133],[-57.851427,-26.438629],[-57.85311,-26.436186],[-57.856584,-26.432291],[-57.857372,-26.430574],[-57.856756,-26.428506],[-57.855496,-26.427252],[-57.853087,-26.426185],[-57.851785,-26.426103],[-57.850495,-26.427642],[-57.8494,-26.428369],[-57.845805,-26.429472],[-57.843599,-26.428854],[-57.840988,-26.427608],[-57.839186,-26.427529],[-57.837587,-26.427808],[-57.831706,-26.431086],[-57.823676,-26.434737],[-57.821774,-26.434658],[-57.814843,-26.431093],[-57.805826,-26.429613],[-57.804119,-26.428902],[-57.802304,-26.426839],[-57.801644,-26.424525],[-57.801766,-26.423908],[-57.804133,-26.421121],[-57.805085,-26.419435],[-57.806736,-26.417459],[-57.807135,-26.416451],[-57.806526,-26.415193],[-57.805772,-26.414858],[-57.804673,-26.414739],[-57.802423,-26.416239],[-57.80098,-26.416623],[-57.798699,-26.416112],[-57.797821,-26.415331],[-57.796185,-26.410835],[-57.795946,-26.404485],[-57.795474,-26.403372],[-57.79317,-26.402892],[-57.791584,-26.403112],[-57.790388,-26.40375],[-57.788304,-26.406374],[-57.785205,-26.406752],[-57.782205,-26.407038],[-57.780703,-26.406866],[-57.779099,-26.406334],[-57.778291,-26.405258],[-57.778181,-26.403726],[-57.778676,-26.403003],[-57.782068,-26.401543],[-57.782962,-26.400547],[-57.784492,-26.395997],[-57.784407,-26.395277],[-57.783522,-26.394561],[-57.781764,-26.395003],[-57.780158,-26.394219],[-57.780199,-26.392547],[-57.78183,-26.390373],[-57.782141,-26.389164],[-57.782039,-26.388298],[-57.781288,-26.387387],[-57.779771,-26.387036],[-57.777442,-26.387405],[-57.77571,-26.387323],[-57.773211,-26.38467],[-57.768879,-26.383035],[-57.765436,-26.382837],[-57.764397,-26.383131],[-57.762305,-26.38289],[-57.759295,-26.381464],[-57.755568,-26.382194],[-57.753619,-26.38229],[-57.750007,-26.381224],[-57.748991,-26.381935],[-57.749377,-26.38201],[-57.749086,-26.383152],[-57.748416,-26.384177],[-57.745947,-26.384547],[-57.744416,-26.385747],[-57.743305,-26.387959],[-57.744375,-26.389712],[-57.747411,-26.393423],[-57.747919,-26.395298],[-57.747235,-26.396971],[-57.74546,-26.398947],[-57.743139,-26.40059],[-57.733948,-26.43636],[-57.648367,-26.757969],[-57.640095,-26.790442],[-57.583257,-26.863025],[-57.583503,-26.863413],[-57.587587,-26.863319],[-57.642945,-26.852718],[-57.772965,-26.777087],[-57.775684,-26.772918],[-57.774105,-26.771378],[-57.773778,-26.769409],[-57.774237,-26.767717],[-57.77549,-26.767569],[-57.776577,-26.765874],[-57.777831,-26.765867],[-57.77892,-26.764594],[-57.779381,-26.763184],[-57.779372,-26.761776],[-57.780776,-26.760783],[-57.782342,-26.760493],[-57.784685,-26.759072],[-57.786255,-26.759345],[-57.787108,-26.757932],[-57.789302,-26.757779],[-57.791167,-26.755376],[-57.793521,-26.755503],[-57.796034,-26.756193],[-57.797757,-26.755902],[-57.79932,-26.755189],[-57.80168,-26.756302],[-57.874527,-26.746049],[-57.875922,-26.74616],[-57.877225,-26.745882],[-57.88231,-26.742091],[-57.88255,-26.741115],[-57.882316,-26.739884],[-57.885183,-26.73983],[-57.886948,-26.738636],[-57.887962,-26.738314],[-57.889371,-26.738892],[-57.890053,-26.738562],[-57.891247,-26.738505],[-57.891548,-26.737781],[-57.891212,-26.736506],[-57.892608,-26.734718],[-57.893112,-26.734648],[-57.893529,-26.735336],[-57.894512,-26.734666],[-57.895729,-26.734369],[-57.896125,-26.732663],[-57.894779,-26.730621],[-57.894667,-26.729876],[-57.895007,-26.729193],[-57.893941,-26.726388],[-57.894169,-26.725541],[-57.895523,-26.725166],[-57.896472,-26.724045],[-57.899012,-26.724096],[-57.900249,-26.723807],[-57.90088,-26.723242],[-57.901035,-26.721988],[-57.901305,-26.721812],[-57.903169,-26.722164],[-57.904996,-26.721576],[-57.905502,-26.720479],[-57.905254,-26.719237],[-57.904573,-26.718204],[-57.906293,-26.716559],[-57.907501,-26.716797],[-57.907943,-26.71661],[-57.908243,-26.714319],[-57.90903,-26.71283],[-57.909256,-26.711591],[-57.909829,-26.711569],[-57.910343,-26.712437],[-57.911813,-26.711972],[-57.912012,-26.71166],[-57.911796,-26.710832],[-57.91237,-26.710061],[-57.915311,-26.709825],[-57.916109,-26.708459],[-57.916154,-26.707723],[-57.917272,-26.707656],[-57.917312,-26.707116],[-57.916412,-26.705133],[-57.915745,-26.704681],[-57.9157,-26.704305],[-57.915902,-26.704002],[-57.917381,-26.703686],[-57.917327,-26.701813],[-57.916508,-26.701433],[-57.915778,-26.701863],[-57.915094,-26.701799],[-57.913951,-26.700716]]]}}]}
