{"type":"FeatureCollection","name":"distrito","features":[{"type":"Feature","properties":{"clave":"9-13","nombre":"Mbuyapey"},"geometry":{"type":"Polygon","coordinates":[[[-56.716562,-26.303944],[-56.718352,-26.304403],[-56.718601,-26.305801],[-56.717685,-26.306937],[-56.717586,-26.308031],[-56.717946,-26.308455],[-56.720034,-26.309337],[-56.72158,-26.311831],[-56.722794,-26.312072],[-56.724586,-26.311935],[-56.725113,-26.312683],[-56.723915,-26.314462],[-56.72347,-26.316039],[-56.723733,-26.318427],[-56.72351,-26.319452],[-56.722042,-26.319753],[-56.719929,-26.318654],[-56.71887,-26.319053],[-56.71882,-26.319649],[-56.719407,-26.320582],[-56.722863,-26.322894],[-56.723213,-26.323414],[-56.723202,-26.324528],[-56.72243,-26.326858],[-56.722627,-26.327355],[-56.723627,-26.327682],[-56.724421,-26.327561],[-56.726245,-26.326516],[-56.727273,-26.326413],[-56.727624,-26.32669],[-56.727784,-26.327746],[-56.726689,-26.32941],[-56.726885,-26.330378],[-56.727417,-26.330728],[-56.729896,-26.33109],[-56.730715,-26.331563],[-56.731586,-26.333247],[-56.73458,-26.33348],[-56.736365,-26.334299],[-56.736634,-26.335602],[-56.736427,-26.336238],[-56.733234,-26.33837],[-56.73316,-26.339158],[-56.733465,-26.339751],[-56.735238,-26.341412],[-56.735489,-26.342006],[-56.735198,-26.343062],[-56.734466,-26.343573],[-56.733627,-26.343717],[-56.731942,-26.34321],[-56.73086,-26.343184],[-56.730669,-26.343549],[-56.731415,-26.344713],[-56.733007,-26.34571],[-56.733423,-26.346325],[-56.733557,-26.346984],[-56.732549,-26.349769],[-56.732828,-26.350103],[-56.733622,-26.350202],[-56.735824,-26.349459],[-56.737105,-26.349575],[-56.738131,-26.35021],[-56.739199,-26.352666],[-56.740453,-26.352709],[-56.742547,-26.352201],[-56.743286,-26.352463],[-56.744069,-26.35322],[-56.744057,-26.354455],[-56.743397,-26.355274],[-56.742232,-26.35576],[-56.739446,-26.355308],[-56.73837,-26.356379],[-56.73842,-26.358012],[-56.739292,-26.359493],[-56.738785,-26.360483],[-56.736927,-26.360325],[-56.735615,-26.358161],[-56.734469,-26.358102],[-56.733936,-26.358548],[-56.733817,-26.359409],[-56.734221,-26.360296],[-56.736005,-26.361307],[-56.738835,-26.362271],[-56.739571,-26.363889],[-56.741427,-26.365339],[-56.741182,-26.365881],[-56.74031,-26.365794],[-56.739222,-26.365067],[-56.738599,-26.365157],[-56.73803,-26.365656],[-56.738005,-26.370623],[-56.738769,-26.371076],[-56.740407,-26.37064],[-56.742193,-26.367754],[-56.747173,-26.367495],[-56.748794,-26.367876],[-56.749827,-26.369907],[-56.751146,-26.370251],[-56.752038,-26.369863],[-56.752256,-26.369419],[-56.752126,-26.367354],[-56.755156,-26.365846],[-56.756948,-26.368417],[-56.756448,-26.371068],[-56.756955,-26.371391],[-56.759404,-26.37145],[-56.759999,-26.371707],[-56.760235,-26.372335],[-56.759972,-26.37523],[-56.759353,-26.376673],[-56.761395,-26.377103],[-56.76322,-26.378295],[-56.763266,-26.37902],[-56.761993,-26.379666],[-56.761714,-26.380243],[-56.762645,-26.38167],[-56.762582,-26.382591],[-56.762243,-26.382889],[-56.760524,-26.383136],[-56.759908,-26.38376],[-56.760147,-26.385414],[-56.761281,-26.386836],[-56.761428,-26.387605],[-56.760898,-26.388445],[-56.759794,-26.3889],[-56.759211,-26.389752],[-56.759785,-26.390357],[-56.760366,-26.390419],[-56.762195,-26.389501],[-56.762906,-26.389545],[-56.763379,-26.389991],[-56.763897,-26.391125],[-56.763834,-26.392417],[-56.762064,-26.394206],[-56.7619,-26.395023],[-56.762122,-26.395486],[-56.763089,-26.395817],[-56.765939,-26.395444],[-56.76631,-26.395956],[-56.766248,-26.396742],[-56.765319,-26.397472],[-56.764066,-26.397866],[-56.762626,-26.397425],[-56.761762,-26.396235],[-56.760877,-26.395691],[-56.759055,-26.396109],[-56.756584,-26.395652],[-56.756024,-26.396122],[-56.75588,-26.396701],[-56.756209,-26.398268],[-56.758209,-26.399661],[-56.759556,-26.399675],[-56.761431,-26.399081],[-56.762101,-26.39921],[-56.762302,-26.400393],[-56.760851,-26.401798],[-56.760517,-26.402536],[-56.760763,-26.404669],[-56.760052,-26.405234],[-56.758035,-26.405048],[-56.757512,-26.405784],[-56.759781,-26.408446],[-56.761229,-26.408789],[-56.76145,-26.409558],[-56.760894,-26.410495],[-56.760947,-26.410934],[-56.762043,-26.411119],[-56.763284,-26.410338],[-56.764737,-26.411263],[-56.764905,-26.411859],[-56.764795,-26.412498],[-56.764048,-26.413201],[-56.760366,-26.413097],[-56.759498,-26.413952],[-56.759123,-26.414883],[-56.759429,-26.415425],[-56.804491,-26.400892],[-56.850044,-26.385063],[-56.828217,-26.359747],[-56.845559,-26.350692],[-56.832621,-26.333287],[-56.889395,-26.297552],[-56.889068,-26.297279],[-56.887504,-26.29795],[-56.886472,-26.296473],[-56.886521,-26.296076],[-56.887186,-26.295629],[-56.887155,-26.295227],[-56.886519,-26.294893],[-56.886696,-26.293543],[-56.887818,-26.29233],[-56.888157,-26.291607],[-56.887924,-26.291269],[-56.888511,-26.290538],[-56.886789,-26.289819],[-56.8859,-26.290274],[-56.885504,-26.289249],[-56.88473,-26.288724],[-56.884687,-26.288083],[-56.885284,-26.287154],[-56.883978,-26.286353],[-56.884851,-26.28476],[-56.884375,-26.284607],[-56.883561,-26.285351],[-56.88302,-26.285332],[-56.882579,-26.284944],[-56.882694,-26.284556],[-56.883361,-26.28419],[-56.883518,-26.282926],[-56.882437,-26.282736],[-56.881352,-26.282121],[-56.880818,-26.283051],[-56.878646,-26.283667],[-56.878754,-26.282376],[-56.877064,-26.280876],[-56.877135,-26.280497],[-56.877886,-26.279987],[-56.877942,-26.279274],[-56.877004,-26.279418],[-56.875992,-26.279155],[-56.874983,-26.279723],[-56.874526,-26.27965],[-56.874355,-26.279068],[-56.875828,-26.278753],[-56.875936,-26.278419],[-56.875145,-26.278021],[-56.87462,-26.276887],[-56.873238,-26.276642],[-56.872609,-26.276077],[-56.871242,-26.274555],[-56.871216,-26.273638],[-56.869829,-26.273461],[-56.870179,-26.272657],[-56.869885,-26.272102],[-56.868621,-26.272525],[-56.868255,-26.272394],[-56.868268,-26.27201],[-56.869045,-26.271699],[-56.869179,-26.271252],[-56.867375,-26.270109],[-56.866167,-26.269882],[-56.867043,-26.269092],[-56.866876,-26.268402],[-56.866444,-26.268329],[-56.865002,-26.269172],[-56.863817,-26.268904],[-56.863456,-26.266511],[-56.864034,-26.265676],[-56.864058,-26.264986],[-56.863249,-26.265012],[-56.862406,-26.266009],[-56.861575,-26.265611],[-56.860794,-26.265624],[-56.860483,-26.265298],[-56.860684,-26.264183],[-56.859556,-26.263207],[-56.858404,-26.263138],[-56.857631,-26.262654],[-56.857313,-26.261137],[-56.858108,-26.260258],[-56.858271,-26.25954],[-56.856972,-26.25892],[-56.856821,-26.258112],[-56.858671,-26.256114],[-56.862196,-26.255331],[-56.861212,-26.25236],[-56.862214,-26.251882],[-56.862691,-26.251287],[-56.864182,-26.251275],[-56.864472,-26.249753],[-56.865891,-26.249669],[-56.865146,-26.249077],[-56.865048,-26.248576],[-56.866308,-26.248757],[-56.867142,-26.24846],[-56.868558,-26.249247],[-56.868604,-26.24801],[-56.869089,-26.24774],[-56.869614,-26.248548],[-56.870232,-26.248607],[-56.872105,-26.246781],[-56.872118,-26.246442],[-56.871332,-26.245764],[-56.871601,-26.244925],[-56.872943,-26.244497],[-56.873455,-26.24368],[-56.874142,-26.243636],[-56.874529,-26.243984],[-56.874109,-26.245229],[-56.874652,-26.245437],[-56.875171,-26.244323],[-56.875169,-26.243108],[-56.877134,-26.243074],[-56.878765,-26.242506],[-56.879462,-26.241956],[-56.880491,-26.241749],[-56.881428,-26.241046],[-56.881608,-26.240662],[-56.881155,-26.240265],[-56.88072,-26.238964],[-56.88033,-26.23886],[-56.879717,-26.239478],[-56.879225,-26.239419],[-56.879811,-26.238661],[-56.879193,-26.238412],[-56.879057,-26.237197],[-56.879768,-26.236047],[-56.880792,-26.23547],[-56.880588,-26.235113],[-56.879576,-26.235306],[-56.879845,-26.234575],[-56.879533,-26.233288],[-56.879867,-26.233171],[-56.880354,-26.233731],[-56.882039,-26.233218],[-56.882142,-26.233931],[-56.882633,-26.234094],[-56.883119,-26.232117],[-56.884868,-26.231956],[-56.885097,-26.231288],[-56.884012,-26.230361],[-56.88412,-26.230131],[-56.885427,-26.229956],[-56.884848,-26.229247],[-56.884805,-26.228023],[-56.886392,-26.228557],[-56.886212,-26.227307],[-56.88666,-26.226869],[-56.887054,-26.227],[-56.887417,-26.227917],[-56.888642,-26.227774],[-56.888876,-26.225133],[-56.887935,-26.224983],[-56.889937,-26.223585],[-56.890268,-26.222298],[-56.891374,-26.221103],[-56.890571,-26.220962],[-56.890133,-26.22038],[-56.889793,-26.220835],[-56.889465,-26.220379],[-56.888439,-26.220491],[-56.888497,-26.220211],[-56.889477,-26.219833],[-56.88912,-26.219056],[-56.888333,-26.21929],[-56.887216,-26.219122],[-56.886082,-26.217514],[-56.885545,-26.217658],[-56.885628,-26.216922],[-56.88514,-26.216877],[-56.884521,-26.216217],[-56.885571,-26.215604],[-56.885649,-26.215134],[-56.88443,-26.215043],[-56.884063,-26.214348],[-56.883431,-26.214735],[-56.883223,-26.214293],[-56.88239,-26.213813],[-56.882352,-26.21296],[-56.881392,-26.213045],[-56.88086,-26.211582],[-56.880086,-26.21103],[-56.879567,-26.211319],[-56.878956,-26.210921],[-56.879103,-26.209969],[-56.878278,-26.209404],[-56.878925,-26.2086],[-56.877873,-26.207182],[-56.876919,-26.206892],[-56.877767,-26.206599],[-56.876735,-26.205899],[-56.876957,-26.205199],[-56.876431,-26.205136],[-56.87603,-26.204286],[-56.875292,-26.203884],[-56.875552,-26.20309],[-56.874486,-26.202922],[-56.874604,-26.201951],[-56.874075,-26.201671],[-56.874148,-26.200817],[-56.873222,-26.200555],[-56.872821,-26.199092],[-56.871636,-26.198991],[-56.871396,-26.198833],[-56.871529,-26.198273],[-56.871013,-26.198061],[-56.870659,-26.198349],[-56.869923,-26.197924],[-56.869872,-26.19745],[-56.868739,-26.196758],[-56.86888,-26.196271],[-56.868455,-26.196049],[-56.867936,-26.196274],[-56.867253,-26.195312],[-56.866621,-26.195361],[-56.866622,-26.194932],[-56.865578,-26.194444],[-56.865481,-26.194132],[-56.866116,-26.193582],[-56.86548,-26.193301],[-56.864956,-26.192195],[-56.864137,-26.192081],[-56.86389,-26.19162],[-56.863036,-26.191705],[-56.863891,-26.191038],[-56.862399,-26.189651],[-56.862689,-26.188861],[-56.862081,-26.188648],[-56.861895,-26.188273],[-56.862314,-26.187781],[-56.861815,-26.187189],[-56.862362,-26.186513],[-56.86135,-26.185798],[-56.861811,-26.185058],[-56.860458,-26.184606],[-56.860542,-26.18396],[-56.859527,-26.182921],[-56.859773,-26.181937],[-56.859104,-26.182139],[-56.85884,-26.181773],[-56.8592,-26.180505],[-56.859583,-26.180153],[-56.858805,-26.179006],[-56.858908,-26.178356],[-56.857801,-26.177221],[-56.8584,-26.176233],[-56.8576,-26.17588],[-56.857108,-26.174661],[-56.856496,-26.174561],[-56.856272,-26.173387],[-56.85529,-26.173562],[-56.855476,-26.172767],[-56.854789,-26.172491],[-56.854811,-26.171719],[-56.853834,-26.171145],[-56.85368,-26.169917],[-56.853124,-26.169487],[-56.85341,-26.168779],[-56.852646,-26.168606],[-56.850586,-26.168925],[-56.850781,-26.167747],[-56.849458,-26.166657],[-56.849549,-26.166179],[-56.848575,-26.165157],[-56.85001,-26.164581],[-56.849164,-26.163122],[-56.851294,-26.161011],[-56.850266,-26.160084],[-56.849924,-26.159118],[-56.848506,-26.158304],[-56.848431,-26.157532],[-56.847776,-26.157098],[-56.847927,-26.156664],[-56.84758,-26.156334],[-56.848351,-26.15582],[-56.848377,-26.154913],[-56.84789,-26.154705],[-56.847925,-26.154258],[-56.84907,-26.153844],[-56.849219,-26.154503],[-56.849601,-26.154436],[-56.850134,-26.153493],[-56.849993,-26.15286],[-56.850529,-26.152811],[-56.850699,-26.152514],[-56.850764,-26.149299],[-56.849954,-26.149158],[-56.849769,-26.146517],[-56.848695,-26.146236],[-56.847951,-26.144556],[-56.845836,-26.14361],[-56.845597,-26.142716],[-56.844664,-26.142584],[-56.843984,-26.143107],[-56.843146,-26.142618],[-56.842177,-26.142901],[-56.841618,-26.141736],[-56.840976,-26.141957],[-56.840409,-26.140723],[-56.839401,-26.140492],[-56.839019,-26.140099],[-56.839032,-26.1392],[-56.83854,-26.138134],[-56.839018,-26.136744],[-56.839461,-26.136618],[-56.840432,-26.135269],[-56.840014,-26.135246],[-56.839839,-26.134908],[-56.8393,-26.131137],[-56.840736,-26.13006],[-56.840878,-26.129509],[-56.840326,-26.127251],[-56.839547,-26.1266],[-56.838947,-26.125651],[-56.839031,-26.12501],[-56.837683,-26.123492],[-56.837022,-26.123653],[-56.835937,-26.123237],[-56.834587,-26.123186],[-56.834392,-26.122183],[-56.833982,-26.121731],[-56.832486,-26.12163],[-56.830912,-26.121822],[-56.829603,-26.123261],[-56.828538,-26.123025],[-56.827093,-26.123728],[-56.826084,-26.123799],[-56.825771,-26.124069],[-56.825965,-26.124629],[-56.825019,-26.124958],[-56.823248,-26.124314],[-56.823113,-26.1238],[-56.822324,-26.123117],[-56.822238,-26.122372],[-56.820915,-26.122176],[-56.82072,-26.12163],[-56.819624,-26.121141],[-56.819807,-26.120432],[-56.818816,-26.120598],[-56.818793,-26.119695],[-56.817608,-26.120533],[-56.817124,-26.120185],[-56.815926,-26.120278],[-56.814639,-26.121608],[-56.814101,-26.121662],[-56.812961,-26.119177],[-56.810087,-26.118772],[-56.80938,-26.117926],[-56.809353,-26.116888],[-56.808999,-26.116608],[-56.80783,-26.116638],[-56.807661,-26.118087],[-56.804868,-26.117514],[-56.804481,-26.118155],[-56.803653,-26.117968],[-56.802955,-26.118974],[-56.802636,-26.118847],[-56.802104,-26.11737],[-56.800392,-26.117521],[-56.80007,-26.118275],[-56.798903,-26.117984],[-56.797875,-26.118294],[-56.796984,-26.117711],[-56.795708,-26.11812],[-56.793879,-26.11805],[-56.793291,-26.117602],[-56.792764,-26.115827],[-56.790338,-26.113308],[-56.790213,-26.112369],[-56.790515,-26.111196],[-56.791943,-26.10922],[-56.791577,-26.108082],[-56.790405,-26.107647],[-56.790406,-26.106992],[-56.79164,-26.10652],[-56.791122,-26.105341],[-56.791149,-26.104533],[-56.792794,-26.104242],[-56.793101,-26.103669],[-56.792835,-26.102774],[-56.791588,-26.103639],[-56.791172,-26.103115],[-56.791685,-26.102019],[-56.792978,-26.101181],[-56.792298,-26.099916],[-56.79217,-26.097617],[-56.791616,-26.09633],[-56.788883,-26.094434],[-56.788523,-26.093039],[-56.787607,-26.092057],[-56.785317,-26.091296],[-56.784306,-26.090527],[-56.784142,-26.089411],[-56.785127,-26.087426],[-56.782891,-26.086267],[-56.782349,-26.082573],[-56.782807,-26.082452],[-56.783652,-26.082864],[-56.783853,-26.083438],[-56.783565,-26.084155],[-56.783796,-26.084295],[-56.788151,-26.083494],[-56.789675,-26.082674],[-56.791568,-26.082207],[-56.795383,-26.082872],[-56.79596,-26.082778],[-56.796533,-26.08216],[-56.799202,-26.08188],[-56.802851,-26.082467],[-56.805014,-26.082348],[-56.805615,-26.080457],[-56.80427,-26.080546],[-56.802468,-26.077419],[-56.800192,-26.075416],[-56.798546,-26.074628],[-56.794733,-26.073972],[-56.791314,-26.072672],[-56.790029,-26.07202],[-56.789578,-26.071179],[-56.789674,-26.070498],[-56.790102,-26.070101],[-56.793139,-26.069401],[-56.793709,-26.068616],[-56.796057,-26.067531],[-56.797219,-26.067705],[-56.801046,-26.069421],[-56.801986,-26.069228],[-56.802576,-26.068773],[-56.802719,-26.067956],[-56.801274,-26.066568],[-56.801131,-26.06594],[-56.802452,-26.064493],[-56.802446,-26.064023],[-56.801762,-26.063331],[-56.799725,-26.062525],[-56.797351,-26.060418],[-56.796858,-26.059735],[-56.796805,-26.058295],[-56.79654,-26.057965],[-56.795633,-26.057846],[-56.794456,-26.058215],[-56.790884,-26.055018],[-56.786222,-26.054772],[-56.784386,-26.054173],[-56.767786,-26.045772],[-56.753314,-26.037152],[-56.748161,-26.028082],[-56.740886,-25.996753],[-56.741865,-25.98],[-56.73702,-25.972646],[-56.736836,-25.973377],[-56.735434,-25.973469],[-56.73226,-25.974728],[-56.729528,-25.978655],[-56.726172,-25.979917],[-56.726229,-25.981899],[-56.72521,-25.982981],[-56.72531,-25.983514],[-56.726041,-25.98403],[-56.726121,-25.984437],[-56.725265,-25.985573],[-56.725059,-25.986764],[-56.725604,-25.988346],[-56.725238,-25.988769],[-56.722959,-25.989736],[-56.722772,-25.991243],[-56.723641,-25.993651],[-56.722522,-25.994182],[-56.722047,-25.996967],[-56.720967,-25.998364],[-56.717162,-25.999991],[-56.716092,-26.00128],[-56.715421,-26.001424],[-56.714783,-26.001138],[-56.714384,-26.001363],[-56.713639,-26.002242],[-56.713794,-26.002919],[-56.713039,-26.003586],[-56.713058,-26.004006],[-56.71424,-26.004875],[-56.713645,-26.008161],[-56.712381,-26.011355],[-56.713016,-26.013049],[-56.71325,-26.015867],[-56.711425,-26.016662],[-56.710677,-26.018675],[-56.710299,-26.018705],[-56.709905,-26.017395],[-56.709611,-26.017386],[-56.709764,-26.019282],[-56.708569,-26.019221],[-56.708839,-26.020508],[-56.706889,-26.021006],[-56.707054,-26.022089],[-56.707608,-26.022456],[-56.707354,-26.023566],[-56.707801,-26.024732],[-56.706501,-26.025285],[-56.706592,-26.026576],[-56.706049,-26.02723],[-56.705592,-26.026502],[-56.705464,-26.0275],[-56.701729,-26.029555],[-56.701664,-26.030404],[-56.702082,-26.030883],[-56.705486,-26.031021],[-56.706779,-26.03367],[-56.705898,-26.034268],[-56.704829,-26.034298],[-56.704554,-26.035363],[-56.703098,-26.035057],[-56.702427,-26.035304],[-56.702886,-26.036316],[-56.702696,-26.036858],[-56.70323,-26.036931],[-56.703075,-26.038344],[-56.702952,-26.0388],[-56.701715,-26.039348],[-56.7027,-26.039395],[-56.702939,-26.039802],[-56.702801,-26.04079],[-56.701878,-26.041199],[-56.701825,-26.041493],[-56.701991,-26.042125],[-56.70264,-26.042488],[-56.702628,-26.042849],[-56.702167,-26.042956],[-56.702835,-26.043897],[-56.702112,-26.043728],[-56.701776,-26.044432],[-56.701335,-26.044499],[-56.70201,-26.044839],[-56.702061,-26.045417],[-56.702951,-26.045595],[-56.703843,-26.044924],[-56.704315,-26.044925],[-56.705448,-26.046232],[-56.706004,-26.046111],[-56.706034,-26.046558],[-56.706694,-26.046988],[-56.706822,-26.047982],[-56.707417,-26.048755],[-56.707941,-26.04891],[-56.707404,-26.04992],[-56.707879,-26.050706],[-56.707448,-26.050985],[-56.707846,-26.051411],[-56.707682,-26.051799],[-56.708138,-26.051971],[-56.707894,-26.052955],[-56.708632,-26.053439],[-56.708547,-26.0539],[-56.708887,-26.053995],[-56.708936,-26.055259],[-56.70873,-26.056054],[-56.708359,-26.05566],[-56.707682,-26.055989],[-56.708173,-26.056816],[-56.708055,-26.057651],[-56.70752,-26.0582],[-56.708829,-26.058632],[-56.708638,-26.05967],[-56.709003,-26.060388],[-56.710633,-26.062214],[-56.711523,-26.062658],[-56.711322,-26.06315],[-56.710714,-26.063374],[-56.710711,-26.064503],[-56.709797,-26.065372],[-56.709796,-26.065797],[-56.710329,-26.066385],[-56.711543,-26.06692],[-56.712759,-26.066846],[-56.712766,-26.068453],[-56.714012,-26.06888],[-56.713988,-26.069923],[-56.714679,-26.070452],[-56.715397,-26.072169],[-56.714452,-26.077554],[-56.716337,-26.078049],[-56.717347,-26.080738],[-56.719272,-26.082308],[-56.719161,-26.082728],[-56.720283,-26.084879],[-56.719743,-26.084896],[-56.719815,-26.085397],[-56.720364,-26.086062],[-56.721275,-26.086127],[-56.720563,-26.087999],[-56.722002,-26.091273],[-56.721934,-26.091607],[-56.720768,-26.092359],[-56.721185,-26.093177],[-56.72111,-26.093723],[-56.720187,-26.094367],[-56.719549,-26.093892],[-56.719202,-26.094175],[-56.71946,-26.095774],[-56.720341,-26.095794],[-56.721,-26.09626],[-56.721112,-26.09766],[-56.720051,-26.098426],[-56.718584,-26.09831],[-56.717294,-26.098885],[-56.717092,-26.099747],[-56.717582,-26.100827],[-56.717246,-26.101242],[-56.717412,-26.101734],[-56.717138,-26.1027],[-56.717355,-26.103928],[-56.716765,-26.104902],[-56.716252,-26.10459],[-56.716249,-26.105813],[-56.714917,-26.106131],[-56.714633,-26.106478],[-56.714037,-26.105967],[-56.711814,-26.106107],[-56.711188,-26.105253],[-56.710517,-26.104949],[-56.708819,-26.105135],[-56.708021,-26.105567],[-56.707243,-26.106495],[-56.70579,-26.108989],[-56.706095,-26.112719],[-56.708008,-26.118989],[-56.707371,-26.122184],[-56.707679,-26.125007],[-56.708649,-26.126783],[-56.710057,-26.127833],[-56.711758,-26.130117],[-56.711795,-26.131963],[-56.711053,-26.13407],[-56.710228,-26.135459],[-56.709258,-26.135873],[-56.708566,-26.134806],[-56.707345,-26.13469],[-56.707237,-26.135318],[-56.708226,-26.135911],[-56.708562,-26.136557],[-56.706764,-26.139159],[-56.705381,-26.144822],[-56.704682,-26.146378],[-56.703753,-26.147234],[-56.702279,-26.14706],[-56.701267,-26.147378],[-56.700443,-26.148157],[-56.699241,-26.148457],[-56.698119,-26.151042],[-56.697253,-26.151668],[-56.69647,-26.153034],[-56.695311,-26.153126],[-56.694616,-26.152881],[-56.693856,-26.153674],[-56.692571,-26.153428],[-56.692802,-26.153902],[-56.69257,-26.15415],[-56.691918,-26.153787],[-56.691239,-26.155402],[-56.691913,-26.15567],[-56.69103,-26.156609],[-56.686526,-26.157637],[-56.68201,-26.160069],[-56.673423,-26.166968],[-56.658976,-26.172631],[-56.64813,-26.17993],[-56.643033,-26.182667],[-56.641836,-26.182155],[-56.638066,-26.182832],[-56.636787,-26.185366],[-56.635115,-26.186269],[-56.633912,-26.186253],[-56.632692,-26.187293],[-56.632934,-26.18898],[-56.632472,-26.190173],[-56.632322,-26.19202],[-56.630059,-26.194575],[-56.629698,-26.194777],[-56.629067,-26.194618],[-56.628794,-26.198846],[-56.629243,-26.199649],[-56.629844,-26.199798],[-56.631526,-26.199322],[-56.632058,-26.199323],[-56.632447,-26.199741],[-56.632698,-26.200274],[-56.632227,-26.202504],[-56.631128,-26.204079],[-56.634247,-26.207564],[-56.637697,-26.20973],[-56.638028,-26.211337],[-56.637413,-26.213465],[-56.637899,-26.215561],[-56.638027,-26.218064],[-56.638871,-26.221206],[-56.638697,-26.222541],[-56.637598,-26.224227],[-56.637759,-26.225411],[-56.639064,-26.227473],[-56.639829,-26.227931],[-56.64214,-26.227592],[-56.643163,-26.226191],[-56.643094,-26.224314],[-56.643553,-26.223217],[-56.644154,-26.222874],[-56.646431,-26.22251],[-56.647335,-26.221616],[-56.647838,-26.220537],[-56.649311,-26.219152],[-56.650067,-26.21675],[-56.650406,-26.21639],[-56.651195,-26.216383],[-56.652012,-26.217411],[-56.65214,-26.220506],[-56.651522,-26.221531],[-56.650145,-26.221951],[-56.649551,-26.222587],[-56.649939,-26.223906],[-56.651043,-26.225004],[-56.652545,-26.225237],[-56.654807,-26.224569],[-56.655401,-26.223981],[-56.655367,-26.22249],[-56.654416,-26.220669],[-56.654752,-26.219875],[-56.655283,-26.219612],[-56.65652,-26.219865],[-56.658246,-26.221402],[-56.660679,-26.222669],[-56.660967,-26.22421],[-56.660611,-26.224923],[-56.659426,-26.225343],[-56.659186,-26.225932],[-56.659428,-26.226599],[-56.66048,-26.226676],[-56.662138,-26.226028],[-56.664064,-26.225784],[-56.666626,-26.223694],[-56.668416,-26.223809],[-56.670011,-26.225144],[-56.672975,-26.225965],[-56.673942,-26.227274],[-56.673771,-26.229665],[-56.672698,-26.231058],[-56.672439,-26.231955],[-56.672792,-26.232757],[-56.676373,-26.235331],[-56.676785,-26.236247],[-56.676437,-26.237065],[-56.674729,-26.237498],[-56.674735,-26.23817],[-56.67508,-26.238511],[-56.675725,-26.238831],[-56.677363,-26.238904],[-56.679074,-26.240039],[-56.68035,-26.240416],[-56.682735,-26.239853],[-56.684327,-26.239787],[-56.685559,-26.239179],[-56.686674,-26.239209],[-56.687063,-26.240126],[-56.686013,-26.241892],[-56.686427,-26.245034],[-56.687372,-26.245438],[-56.689373,-26.24468],[-56.689873,-26.244764],[-56.689933,-26.245451],[-56.6893,-26.246205],[-56.686216,-26.246531],[-56.685037,-26.247215],[-56.684968,-26.249348],[-56.682409,-26.250156],[-56.682448,-26.251032],[-56.683195,-26.252624],[-56.684218,-26.253538],[-56.68527,-26.253935],[-56.687019,-26.254099],[-56.688166,-26.254669],[-56.688409,-26.255964],[-56.687599,-26.257244],[-56.687843,-26.258009],[-56.688375,-26.258417],[-56.691287,-26.258596],[-56.692282,-26.259609],[-56.694399,-26.260439],[-56.695985,-26.26043],[-56.697928,-26.259855],[-56.698721,-26.259968],[-56.69962,-26.261301],[-56.699454,-26.262139],[-56.698905,-26.262791],[-56.696536,-26.264105],[-56.696112,-26.264524],[-56.695945,-26.265337],[-56.697062,-26.267201],[-56.697208,-26.268816],[-56.698531,-26.269953],[-56.698498,-26.272073],[-56.698736,-26.272229],[-56.698452,-26.274024],[-56.697619,-26.275363],[-56.694505,-26.277356],[-56.693989,-26.278167],[-56.694112,-26.279102],[-56.695056,-26.27999],[-56.696481,-26.279976],[-56.697979,-26.279281],[-56.699204,-26.279438],[-56.699456,-26.279926],[-56.699317,-26.281153],[-56.696693,-26.285202],[-56.694917,-26.284995],[-56.693038,-26.28326],[-56.692181,-26.283518],[-56.691817,-26.284672],[-56.692883,-26.287055],[-56.693793,-26.287431],[-56.6962,-26.287444],[-56.696659,-26.287746],[-56.697376,-26.289324],[-56.696529,-26.292727],[-56.69686,-26.293467],[-56.699473,-26.294277],[-56.699967,-26.294782],[-56.700155,-26.295351],[-56.699693,-26.296423],[-56.697941,-26.297256],[-56.698038,-26.298378],[-56.699077,-26.300785],[-56.700356,-26.301479],[-56.701471,-26.301278],[-56.70288,-26.30036],[-56.70601,-26.30055],[-56.706705,-26.300966],[-56.707326,-26.301971],[-56.707264,-26.303496],[-56.707822,-26.304942],[-56.710144,-26.306818],[-56.710668,-26.308026],[-56.711303,-26.308368],[-56.71221,-26.307895],[-56.712259,-26.307115],[-56.71268,-26.306488],[-56.714356,-26.306497],[-56.715379,-26.305871],[-56.716562,-26.303944]]]}}]}
