{"type":"FeatureCollection","name":"distrito","features":[{"type":"Feature","properties":{"clave":"17-3","nombre":"Mariscal José Félix Estigarribia"},"geometry":{"type":"Polygon","coordinates":[[[-61.348995,-22.536024],[-61.436329,-22.54041],[-61.436507,-22.536636],[-61.987808,-22.540529],[-61.993933,-22.540576],[-61.995365,-22.541097],[-61.996614,-22.54059],[-62.159446,-22.540882],[-62.159269,-22.542814],[-62.177124,-22.542798],[-62.177213,-22.540955],[-62.228161,-22.54077],[-62.232056,-22.540259],[-62.236571,-22.537878],[-62.23853,-22.538384],[-62.242212,-22.540083],[-62.24466,-22.539902],[-62.247315,-22.537951],[-62.249362,-22.535605],[-62.251427,-22.532754],[-62.256354,-22.524174],[-62.262797,-22.516749],[-62.265901,-22.514095],[-62.267044,-22.513783],[-62.268004,-22.514052],[-62.26986,-22.515406],[-62.271395,-22.517717],[-62.272607,-22.520886],[-62.273807,-22.522851],[-62.275275,-22.524499],[-62.276094,-22.524938],[-62.277994,-22.524844],[-62.279164,-22.52448],[-62.283188,-22.521823],[-62.285179,-22.521068],[-62.290677,-22.520253],[-62.292652,-22.520573],[-62.294359,-22.52039],[-62.29553,-22.519915],[-62.29636,-22.519118],[-62.296603,-22.517713],[-62.296226,-22.514025],[-62.295696,-22.511955],[-62.295029,-22.510988],[-62.293669,-22.510321],[-62.291769,-22.510112],[-62.286366,-22.5104],[-62.285587,-22.510208],[-62.284844,-22.509384],[-62.283733,-22.506792],[-62.282197,-22.501483],[-62.283283,-22.499728],[-62.287669,-22.497907],[-62.291099,-22.495345],[-62.291307,-22.49457],[-62.290962,-22.493402],[-62.286413,-22.486224],[-62.286003,-22.484895],[-62.285469,-22.480083],[-62.285653,-22.479198],[-62.286889,-22.477569],[-62.289525,-22.476301],[-62.291068,-22.476032],[-62.294885,-22.475956],[-62.295909,-22.476307],[-62.298804,-22.479058],[-62.300752,-22.482448],[-62.302439,-22.484557],[-62.305181,-22.487013],[-62.307502,-22.48803],[-62.310406,-22.488043],[-62.31372,-22.487026],[-62.315889,-22.485995],[-62.324193,-22.48045],[-62.327985,-22.47577],[-62.329624,-22.474538],[-62.330495,-22.474355],[-62.333999,-22.479605],[-62.33514,-22.48069],[-62.336256,-22.481229],[-62.337269,-22.481331],[-62.33871,-22.481007],[-62.341313,-22.478616],[-62.342273,-22.476697],[-62.34507,-22.468121],[-62.345543,-22.465885],[-62.345919,-22.458664],[-62.346914,-22.455373],[-62.349166,-22.452449],[-62.35034,-22.451447],[-62.351314,-22.451338],[-62.352288,-22.452021],[-62.35278,-22.4532],[-62.353145,-22.456361],[-62.354148,-22.459999],[-62.35473,-22.461211],[-62.355435,-22.46179],[-62.357475,-22.461774],[-62.368213,-22.459453],[-62.368875,-22.459704],[-62.370344,-22.462367],[-62.370929,-22.46514],[-62.37144,-22.470513],[-62.372106,-22.472352],[-62.373377,-22.478759],[-62.37425,-22.479991],[-62.375192,-22.480533],[-62.376586,-22.480512],[-62.377986,-22.479887],[-62.379225,-22.476011],[-62.380145,-22.465558],[-62.381535,-22.460167],[-62.383437,-22.458731],[-62.390081,-22.456068],[-62.395692,-22.454257],[-62.399507,-22.454204],[-62.400012,-22.453532],[-62.399307,-22.449977],[-62.398683,-22.44844],[-62.394661,-22.443273],[-62.394145,-22.442197],[-62.394034,-22.440943],[-62.394646,-22.440703],[-62.396013,-22.440796],[-62.399209,-22.442379],[-62.402368,-22.445414],[-62.404191,-22.449452],[-62.404711,-22.449844],[-62.405505,-22.449707],[-62.407495,-22.447781],[-62.413528,-22.437643],[-62.414565,-22.435473],[-62.417756,-22.424544],[-62.418494,-22.423808],[-62.419724,-22.423604],[-62.420623,-22.423928],[-62.421639,-22.424905],[-62.423324,-22.427828],[-62.424104,-22.428583],[-62.425887,-22.42956],[-62.427581,-22.42972],[-62.428842,-22.429344],[-62.429654,-22.428308],[-62.430041,-22.426872],[-62.430084,-22.424302],[-62.429037,-22.41961],[-62.4296,-22.41888],[-62.431124,-22.418554],[-62.433935,-22.418594],[-62.440151,-22.420112],[-62.444923,-22.42033],[-62.446556,-22.419726],[-62.450014,-22.417504],[-62.451677,-22.417009],[-62.454165,-22.415636],[-62.460234,-22.413497],[-62.46117,-22.412887],[-62.461711,-22.41207],[-62.461561,-22.407115],[-62.461773,-22.405241],[-62.463259,-22.400911],[-62.463654,-22.398806],[-62.468312,-22.388116],[-62.46801,-22.385598],[-62.470869,-22.381231],[-62.472781,-22.377612],[-62.474393,-22.375869],[-62.477397,-22.374209],[-62.480912,-22.373243],[-62.486408,-22.373393],[-62.492087,-22.374706],[-62.497642,-22.376643],[-62.501477,-22.378905],[-62.503521,-22.379588],[-62.50744,-22.380338],[-62.511556,-22.380104],[-62.519542,-22.377972],[-62.523743,-22.376271],[-62.525604,-22.374784],[-62.526651,-22.373372],[-62.528438,-22.369005],[-62.529894,-22.36824],[-62.531294,-22.368413],[-62.532418,-22.368906],[-62.534763,-22.37109],[-62.539072,-22.374267],[-62.540114,-22.373919],[-62.541317,-22.372856],[-62.542481,-22.370728],[-62.544882,-22.364494],[-62.547094,-22.356422],[-62.546783,-22.354589],[-62.54597,-22.353664],[-62.544574,-22.353536],[-62.541338,-22.354228],[-62.540462,-22.352793],[-62.539982,-22.350457],[-62.540868,-22.348649],[-62.542718,-22.34694],[-62.544788,-22.345937],[-62.545651,-22.344752],[-62.545425,-22.339306],[-62.54629,-22.338166],[-62.547484,-22.338813],[-62.548695,-22.34028],[-62.551008,-22.341802],[-62.553632,-22.342409],[-62.555,-22.341873],[-62.555525,-22.34066],[-62.556433,-22.334769],[-62.558404,-22.329066],[-62.559249,-22.327487],[-62.560849,-22.325564],[-62.562356,-22.324405],[-62.564748,-22.323559],[-62.57083,-22.322237],[-62.576639,-22.32123],[-62.583424,-22.320545],[-62.587897,-22.318477],[-62.591574,-22.315818],[-62.595442,-22.314306],[-62.601648,-22.310181],[-62.60397,-22.307807],[-62.609754,-22.304478],[-62.612456,-22.302563],[-62.615547,-22.298549],[-62.616202,-22.295821],[-62.619604,-22.292288],[-62.621384,-22.291337],[-62.623096,-22.29105],[-62.624262,-22.291406],[-62.626215,-22.293512],[-62.627756,-22.295941],[-62.628313,-22.297784],[-62.629825,-22.299505],[-62.631861,-22.300053],[-62.637405,-22.300785],[-62.63798,-22.300765],[-62.64028,-22.299618],[-62.639827,-22.297949],[-62.638146,-22.295528],[-62.636829,-22.292652],[-62.636017,-22.289701],[-62.634607,-22.286965],[-62.63226,-22.27898],[-62.630599,-22.274783],[-62.629805,-22.270645],[-62.629382,-22.266187],[-62.630945,-22.263514],[-62.634261,-22.259545],[-62.638082,-22.256971],[-62.641359,-22.251714],[-62.644617,-22.251467],[-62.640062,-22.236394],[-62.479881,-21.742356],[-62.333732,-21.291411],[-62.260919,-21.058628],[-62.266342,-20.563156],[-61.922536,-20.089211],[-61.768661,-20.109639],[-61.762181,-20.109798],[-61.755672,-20.108942],[-61.737006,-20.098228],[-61.71859,-20.096644],[-61.698262,-20.104244],[-61.683444,-20.115767],[-61.660203,-20.135611],[-61.645544,-20.153219],[-61.620052,-20.170064],[-61.600657,-20.172543],[-61.574742,-20.174146],[-61.54988,-20.174715],[-61.51439,-20.182631],[-61.490832,-20.192296],[-60.535834,-20.456691],[-60.536322,-20.465099],[-60.537047,-20.538758],[-60.537855,-20.643725],[-60.537717,-20.677446],[-60.539508,-20.749033],[-60.54178,-20.819171],[-60.541836,-20.891984],[-60.544415,-20.963788],[-60.545685,-21.049703],[-60.546517,-21.084775],[-60.548584,-21.14489],[-60.553831,-21.278944],[-60.55477,-21.296825],[-60.556401,-21.348593],[-60.560316,-21.420842],[-60.563007,-21.484283],[-60.566876,-21.553906],[-60.569343,-21.618064],[-60.580216,-21.828347],[-60.49315,-21.83566],[-60.503483,-22.009059],[-60.409478,-22.007795],[-60.409997,-22.049622],[-60.411432,-22.114677],[-60.411613,-22.214723],[-60.414827,-22.221657],[-60.259018,-22.339634],[-60.2844,-22.341752],[-60.284665,-22.389555],[-60.368891,-22.390271],[-60.369137,-22.429237],[-60.411455,-22.429713],[-60.453651,-22.429527],[-60.453958,-22.46697],[-60.594301,-22.467071],[-60.614201,-22.466772],[-60.669255,-22.466703],[-61.22438,-22.466017],[-61.223593,-22.523806],[-61.349187,-22.534536],[-61.348995,-22.536024]]]}}]}
