{"type":"FeatureCollection","name":"distrito","features":[{"type":"Feature","properties":{"clave":"5-27","nombre":"San Joaquín"},"geometry":{"type":"Polygon","coordinates":[[[-56.085934,-25.163194],[-56.088106,-25.164385],[-56.089202,-25.16445],[-56.090106,-25.164957],[-56.091369,-25.166847],[-56.09253,-25.167992],[-56.095014,-25.168215],[-56.096022,-25.168772],[-56.098164,-25.171381],[-56.098501,-25.173501],[-56.09994,-25.176327],[-56.105536,-25.174622],[-56.106118,-25.173187],[-56.108287,-25.169962],[-56.109879,-25.169344],[-56.111317,-25.168035],[-56.130972,-25.127545],[-56.144659,-25.085137],[-56.14929,-25.062017],[-56.150852,-25.052502],[-56.147243,-25.050937],[-56.144626,-25.049351],[-56.143669,-25.048401],[-56.14278,-25.048487],[-56.141954,-25.049132],[-56.146249,-25.016745],[-56.151456,-25.013258],[-56.151577,-25.011651],[-56.152818,-25.007538],[-56.153846,-25.002419],[-56.153456,-24.994981],[-56.155001,-24.994688],[-56.156112,-24.993589],[-56.156118,-24.992678],[-56.153518,-24.992876],[-56.152771,-24.992429],[-56.152555,-24.991416],[-56.151769,-24.991136],[-56.150302,-24.991855],[-56.148692,-24.991972],[-56.14792,-24.992925],[-56.147378,-24.992962],[-56.144142,-24.990962],[-56.140979,-24.990253],[-56.138581,-24.988821],[-56.135545,-24.988365],[-56.133165,-24.988379],[-56.132138,-24.988066],[-56.13051,-24.985388],[-56.127887,-24.984347],[-56.126936,-24.983606],[-56.12641,-24.981973],[-56.126615,-24.979978],[-56.126408,-24.978668],[-56.125903,-24.977987],[-56.124713,-24.97728],[-56.124145,-24.976424],[-56.122667,-24.975697],[-56.122816,-24.973327],[-56.121168,-24.970573],[-56.119596,-24.969069],[-56.118398,-24.968398],[-56.116418,-24.967962],[-56.115629,-24.966738],[-56.114099,-24.965763],[-56.113172,-24.964127],[-56.112346,-24.963535],[-56.110465,-24.962847],[-56.104426,-24.963032],[-56.102532,-24.962668],[-56.102208,-24.962328],[-56.102187,-24.960761],[-56.100856,-24.959818],[-56.09963,-24.958275],[-56.097176,-24.956689],[-56.095427,-24.956412],[-56.094288,-24.955854],[-56.093882,-24.954068],[-56.093293,-24.953284],[-56.094054,-24.95048],[-56.093919,-24.9501],[-56.093036,-24.949724],[-56.093566,-24.947682],[-56.093473,-24.946936],[-56.094856,-24.946538],[-56.096204,-24.945526],[-56.097384,-24.945353],[-56.099938,-24.943594],[-56.102518,-24.94332],[-56.103772,-24.942474],[-56.105863,-24.93962],[-56.105844,-24.939069],[-56.104724,-24.938064],[-56.104893,-24.936977],[-56.106225,-24.935861],[-56.106817,-24.934131],[-56.108606,-24.932164],[-56.108793,-24.931433],[-56.107968,-24.928981],[-56.108046,-24.928259],[-56.108922,-24.926982],[-56.102968,-24.922314],[-56.099134,-24.926184],[-56.095232,-24.931299],[-56.088941,-24.932729],[-56.086539,-24.930953],[-56.06874,-24.921005],[-56.054821,-24.909318],[-56.050659,-24.906208],[-56.033275,-24.905803],[-56.027444,-24.910316],[-56.024258,-24.906038],[-56.024134,-24.888207],[-56.015808,-24.889124],[-56.014592,-24.889531],[-56.012545,-24.889459],[-56.01025,-24.890329],[-56.008754,-24.891524],[-56.00529,-24.893524],[-56.002689,-24.895669],[-56.000227,-24.898217],[-55.999041,-24.89793],[-55.991888,-24.902108],[-55.989959,-24.902022],[-55.98672,-24.902529],[-55.975122,-24.907001],[-55.965164,-24.91309],[-55.964057,-24.913259],[-55.957444,-24.9124],[-55.955406,-24.912986],[-55.951041,-24.911064],[-55.949566,-24.941756],[-55.951434,-24.944668],[-55.956012,-24.950046],[-55.956547,-24.954068],[-55.957604,-24.958735],[-55.95855,-24.958268],[-55.960093,-24.958319],[-55.961056,-24.957816],[-55.962597,-24.958255],[-55.963344,-24.958184],[-55.964338,-24.958665],[-55.965474,-24.960465],[-55.968005,-24.960668],[-55.968192,-24.960981],[-55.969151,-24.961127],[-55.970012,-24.971369],[-55.971857,-24.985419],[-55.972612,-24.98602],[-55.972144,-24.987092],[-55.975433,-25.013144],[-55.976111,-25.017867],[-55.97749,-25.023267],[-55.977082,-25.025048],[-55.977973,-25.028625],[-55.978845,-25.030008],[-55.979151,-25.031541],[-55.978252,-25.035436],[-55.976639,-25.040251],[-55.975973,-25.041177],[-55.975734,-25.042557],[-55.976196,-25.044023],[-55.979229,-25.04441],[-55.982247,-25.04625],[-55.98422,-25.045076],[-55.985601,-25.04593],[-55.987229,-25.04641],[-55.987886,-25.046293],[-55.989042,-25.045515],[-55.990499,-25.045385],[-55.991806,-25.044238],[-55.993935,-25.046149],[-55.99432,-25.047836],[-55.996837,-25.051979],[-55.997557,-25.053944],[-55.998095,-25.058341],[-55.998661,-25.060056],[-55.999149,-25.06605],[-56.007631,-25.077991],[-56.012857,-25.082961],[-56.010518,-25.085442],[-56.008664,-25.086301],[-56.007486,-25.08842],[-56.00584,-25.089985],[-56.005395,-25.090839],[-56.004249,-25.094814],[-56.003247,-25.096965],[-56.0026,-25.100361],[-56.001383,-25.103554],[-56.001429,-25.109049],[-56.000522,-25.111987],[-55.999094,-25.113219],[-55.996986,-25.11199],[-55.99527,-25.111915],[-55.9902,-25.114355],[-55.985662,-25.114861],[-55.984836,-25.115704],[-55.982169,-25.116765],[-55.979655,-25.120179],[-55.978805,-25.120788],[-55.975151,-25.122356],[-55.972556,-25.122505],[-55.971145,-25.123105],[-55.970135,-25.123942],[-55.969676,-25.12584],[-55.967754,-25.128219],[-55.966513,-25.13129],[-55.966411,-25.132423],[-55.965478,-25.133391],[-55.96428,-25.134078],[-55.964104,-25.134624],[-55.964447,-25.135727],[-55.966934,-25.138124],[-55.97456,-25.153659],[-55.974886,-25.15526],[-55.972839,-25.168682],[-55.972318,-25.176692],[-55.97498,-25.200342],[-55.97482,-25.202445],[-55.974504,-25.203572],[-55.973378,-25.205176],[-55.9725,-25.205716],[-55.968204,-25.206986],[-55.966477,-25.208419],[-55.966373,-25.209312],[-55.968667,-25.208854],[-55.969464,-25.20834],[-55.972404,-25.208438],[-55.974086,-25.207393],[-55.976099,-25.206919],[-55.977035,-25.205914],[-55.977615,-25.204514],[-55.978437,-25.204114],[-55.981624,-25.200799],[-55.982659,-25.20021],[-55.98294,-25.199372],[-55.98809,-25.198432],[-55.989032,-25.197491],[-55.989211,-25.196891],[-55.991107,-25.195586],[-55.992844,-25.192275],[-55.993752,-25.189206],[-55.994697,-25.188052],[-55.997613,-25.188041],[-56.001446,-25.189276],[-56.003821,-25.189464],[-56.008982,-25.191156],[-56.011649,-25.19167],[-56.015001,-25.192889],[-56.018627,-25.193559],[-56.026407,-25.193208],[-56.030153,-25.19382],[-56.033654,-25.193793],[-56.05204,-25.191546],[-56.057171,-25.192329],[-56.059229,-25.193452],[-56.059517,-25.192727],[-56.059279,-25.191922],[-56.062864,-25.190518],[-56.063174,-25.190132],[-56.06326,-25.189283],[-56.062607,-25.187202],[-56.063356,-25.186525],[-56.064796,-25.185984],[-56.065312,-25.185486],[-56.065686,-25.184454],[-56.065339,-25.183752],[-56.063812,-25.183056],[-56.063008,-25.182022],[-56.064406,-25.180929],[-56.065809,-25.180653],[-56.065839,-25.18027],[-56.064338,-25.178477],[-56.064187,-25.177275],[-56.063067,-25.175579],[-56.062662,-25.17415],[-56.064056,-25.173513],[-56.064698,-25.172655],[-56.064854,-25.171856],[-56.064523,-25.17027],[-56.066647,-25.169976],[-56.067509,-25.168758],[-56.067297,-25.167339],[-56.066555,-25.165858],[-56.066926,-25.164329],[-56.065123,-25.163894],[-56.064317,-25.163342],[-56.063516,-25.161608],[-56.064646,-25.158084],[-56.064049,-25.155999],[-56.064294,-25.15405],[-56.065052,-25.152186],[-56.066313,-25.151236],[-56.075338,-25.160915],[-56.077662,-25.161562],[-56.081627,-25.163445],[-56.085934,-25.163194]]]}}]}
