{"type":"FeatureCollection","name":"distrito","features":[{"type":"Feature","properties":{"clave":"7-33","nombre":"La Paz"},"geometry":{"type":"Polygon","coordinates":[[[-55.936243,-27.035018],[-55.987018,-26.989745],[-55.997344,-26.998903],[-55.997723,-26.997295],[-55.998128,-26.996747],[-55.998542,-26.996922],[-55.99902,-26.996117],[-55.999706,-26.996099],[-56.000783,-26.995358],[-56.002023,-26.99556],[-56.002711,-26.995385],[-56.004491,-26.99249],[-56.004827,-26.98992],[-56.006139,-26.988367],[-56.007286,-26.988326],[-56.008761,-26.989045],[-56.009768,-26.990149],[-56.010721,-26.989533],[-56.010648,-26.98867],[-56.011725,-26.988547],[-56.012076,-26.98798],[-56.012877,-26.988257],[-56.013806,-26.987776],[-56.014296,-26.988005],[-56.014691,-26.987813],[-56.015476,-26.988207],[-56.01621,-26.987928],[-56.016485,-26.987239],[-56.0173,-26.987082],[-56.016789,-26.986415],[-56.017765,-26.985695],[-56.018651,-26.985733],[-56.017931,-26.984699],[-56.018585,-26.984527],[-56.018249,-26.983974],[-56.018744,-26.983689],[-56.018531,-26.983141],[-56.019419,-26.981771],[-56.018768,-26.981247],[-56.018778,-26.980805],[-56.019727,-26.980816],[-56.019629,-26.980145],[-56.020592,-26.979987],[-56.020131,-26.97941],[-56.021051,-26.979336],[-56.021114,-26.978808],[-56.022521,-26.979504],[-56.022787,-26.979298],[-56.022514,-26.978745],[-56.023823,-26.97842],[-56.022898,-26.978003],[-56.022694,-26.977361],[-56.022313,-26.977855],[-56.020614,-26.977486],[-56.020089,-26.976666],[-56.020433,-26.976393],[-56.020118,-26.975984],[-56.020463,-26.975246],[-56.019326,-26.975238],[-56.019518,-26.97477],[-56.018343,-26.973674],[-56.018297,-26.97313],[-56.017643,-26.972974],[-56.016887,-26.972066],[-56.015459,-26.971921],[-56.016083,-26.971492],[-56.01496,-26.97064],[-56.015033,-26.970383],[-56.015711,-26.970388],[-56.015399,-26.969253],[-56.014214,-26.969163],[-56.014968,-26.968622],[-56.014547,-26.968005],[-56.014712,-26.967596],[-56.013484,-26.966946],[-56.012658,-26.967238],[-56.012439,-26.966677],[-56.011939,-26.966484],[-56.011839,-26.965842],[-56.011328,-26.965789],[-56.010256,-26.966305],[-56.010288,-26.965443],[-56.009791,-26.96497],[-56.0093,-26.965251],[-56.008033,-26.964583],[-56.007483,-26.965049],[-56.006492,-26.96446],[-56.005991,-26.964659],[-56.006198,-26.963737],[-56.005577,-26.963487],[-56.004906,-26.964123],[-56.003272,-26.963927],[-56.003142,-26.964851],[-56.002,-26.96445],[-56.001531,-26.965165],[-56.001076,-26.964963],[-56.000551,-26.965505],[-56.000179,-26.964699],[-56.000793,-26.964216],[-56.000001,-26.962915],[-55.999935,-26.961908],[-55.999076,-26.962213],[-55.998836,-26.96116],[-55.998164,-26.961593],[-55.997764,-26.961346],[-55.99794,-26.958933],[-55.997282,-26.958156],[-55.997741,-26.956336],[-55.99722,-26.956472],[-55.996461,-26.955537],[-55.995778,-26.955541],[-55.995821,-26.956403],[-55.994384,-26.957143],[-55.992572,-26.955563],[-55.991459,-26.9557],[-55.990561,-26.955477],[-55.990486,-26.954998],[-55.990005,-26.954723],[-55.990107,-26.953731],[-55.989426,-26.953148],[-55.986214,-26.954358],[-55.9854,-26.953995],[-55.983733,-26.954263],[-55.983112,-26.953496],[-55.982396,-26.953847],[-55.981874,-26.953667],[-55.981746,-26.953396],[-55.982669,-26.952897],[-55.982742,-26.95255],[-55.981083,-26.953264],[-55.979449,-26.95342],[-55.97647,-26.952224],[-55.976108,-26.950425],[-55.975282,-26.948848],[-55.973687,-26.949622],[-55.97238,-26.949455],[-55.971928,-26.949199],[-55.972478,-26.948607],[-55.972217,-26.948226],[-55.969123,-26.948406],[-55.965175,-26.947863],[-55.962605,-26.945397],[-55.959932,-26.945454],[-55.959467,-26.945916],[-55.958884,-26.942517],[-55.958625,-26.941919],[-55.958073,-26.941658],[-55.958267,-26.940973],[-55.95794,-26.940781],[-55.957793,-26.939584],[-55.957207,-26.939237],[-55.957343,-26.938195],[-55.957132,-26.938067],[-55.955828,-26.938739],[-55.955995,-26.936695],[-55.954899,-26.935748],[-55.954867,-26.935261],[-55.955079,-26.933809],[-55.956455,-26.932799],[-55.956286,-26.932355],[-55.956637,-26.931866],[-55.956378,-26.93116],[-55.957584,-26.930334],[-55.957675,-26.929034],[-55.958829,-26.928203],[-55.959599,-26.926796],[-55.959705,-26.925668],[-55.958853,-26.925423],[-55.958381,-26.923984],[-55.958587,-26.922708],[-55.957331,-26.922216],[-55.956606,-26.921601],[-55.956684,-26.921186],[-55.956354,-26.920927],[-55.956009,-26.921172],[-55.954501,-26.919243],[-55.951986,-26.918236],[-55.951432,-26.917627],[-55.949573,-26.918172],[-55.947803,-26.917739],[-55.945456,-26.916111],[-55.94429,-26.916792],[-55.943206,-26.916225],[-55.941027,-26.913423],[-55.939474,-26.912513],[-55.939694,-26.911405],[-55.941244,-26.909403],[-55.940368,-26.909008],[-55.940359,-26.907667],[-55.940018,-26.907566],[-55.939453,-26.90651],[-55.938801,-26.906166],[-55.937835,-26.906868],[-55.936568,-26.906836],[-55.934885,-26.907319],[-55.933701,-26.906146],[-55.931376,-26.905338],[-55.930685,-26.905464],[-55.93022,-26.905898],[-55.929485,-26.905292],[-55.928238,-26.905445],[-55.927523,-26.905241],[-55.924191,-26.90611],[-55.922595,-26.906915],[-55.920717,-26.906936],[-55.919542,-26.907442],[-55.918386,-26.90677],[-55.914317,-26.907339],[-55.913294,-26.906654],[-55.913076,-26.905912],[-55.912562,-26.905763],[-55.910649,-26.906615],[-55.909762,-26.906658],[-55.904721,-26.90494],[-55.903279,-26.903791],[-55.903041,-26.90304],[-55.904137,-26.90137],[-55.904192,-26.900566],[-55.902624,-26.898455],[-55.90176,-26.8983],[-55.90015,-26.898648],[-55.897113,-26.897925],[-55.896303,-26.897296],[-55.894706,-26.894895],[-55.893324,-26.895015],[-55.892125,-26.894645],[-55.890089,-26.892643],[-55.889064,-26.892025],[-55.888119,-26.891639],[-55.885465,-26.891356],[-55.88223,-26.893077],[-55.879708,-26.893861],[-55.877287,-26.893038],[-55.875874,-26.891528],[-55.817976,-26.943992],[-55.791817,-26.968093],[-55.798082,-26.982357],[-55.797918,-26.98249],[-55.800939,-26.988511],[-55.855078,-27.044988],[-55.855922,-27.050759],[-55.857556,-27.051224],[-55.861773,-27.050901],[-55.864884,-27.051283],[-55.868758,-27.054018],[-55.875422,-27.056802],[-55.878036,-27.063427],[-55.878157,-27.069896],[-55.877785,-27.070732],[-55.878646,-27.071371],[-55.87917,-27.072219],[-55.878538,-27.074015],[-55.878446,-27.075518],[-55.879969,-27.07608],[-55.881696,-27.077692],[-55.884296,-27.078534],[-55.884594,-27.080338],[-55.885537,-27.081464],[-55.888232,-27.079056],[-55.8889,-27.077783],[-55.892555,-27.074812],[-55.907492,-27.060792],[-55.914315,-27.055],[-55.936243,-27.035018]]]}}]}
