{"type":"FeatureCollection","name":"distrito","features":[{"type":"Feature","properties":{"clave":"15-9","nombre":"Tte. 1° Manuel Irala Fernández"},"geometry":{"type":"Polygon","coordinates":[[[-59.822784,-22.986259],[-59.967603,-22.987],[-59.969417,-22.970089],[-59.970519,-22.96934],[-59.970735,-22.968755],[-59.970727,-22.968229],[-59.969579,-22.967885],[-59.969428,-22.966972],[-59.976196,-22.830056],[-59.975094,-22.818666],[-59.969564,-22.811507],[-59.96895,-22.809054],[-59.966371,-22.802297],[-59.961213,-22.801193],[-59.944878,-22.796893],[-59.944999,-22.794501],[-59.948822,-22.782389],[-59.937939,-22.77921],[-59.938062,-22.776509],[-59.93585,-22.775407],[-59.937234,-22.772936],[-59.939777,-22.769478],[-59.928165,-22.756081],[-59.911308,-22.732905],[-59.878634,-22.686695],[-59.843758,-22.634372],[-59.818874,-22.603487],[-59.818425,-22.603377],[-59.806222,-22.588327],[-59.787933,-22.566777],[-59.75177,-22.525403],[-59.75167,-22.500902],[-59.747184,-22.500433],[-59.747181,-22.466983],[-59.712167,-22.467009],[-59.711801,-22.427974],[-59.626237,-22.427976],[-59.639723,-22.388855],[-59.639235,-22.368607],[-59.614445,-22.341085],[-59.614392,-22.335895],[-59.336595,-22.170403],[-59.367744,-22.076224],[-59.241472,-22.13127],[-59.241429,-22.13216],[-59.241225,-22.132108],[-59.285183,-22.190854],[-59.235273,-22.2],[-59.234651,-22.198366],[-59.230852,-22.19779],[-59.235241,-22.195593],[-59.236354,-22.194025],[-59.236402,-22.192954],[-59.230634,-22.192305],[-59.229505,-22.191618],[-59.227802,-22.188226],[-59.225058,-22.187369],[-59.223061,-22.185362],[-59.221123,-22.184643],[-59.217422,-22.184386],[-59.21665,-22.186072],[-59.215918,-22.186903],[-59.210711,-22.186709],[-59.206856,-22.187422],[-59.204966,-22.188208],[-59.20287,-22.188339],[-59.199147,-22.191831],[-59.196086,-22.196952],[-59.195143,-22.199909],[-59.194294,-22.200812],[-59.192965,-22.203379],[-59.188663,-22.20471],[-59.18021,-22.204011],[-59.162257,-22.203324],[-59.158932,-22.205438],[-59.154735,-22.209012],[-59.152535,-22.213038],[-59.149384,-22.215721],[-59.145955,-22.215589],[-59.141148,-22.214656],[-59.138173,-22.21342],[-59.135812,-22.212021],[-59.128159,-22.211538],[-59.126092,-22.212579],[-59.125587,-22.214804],[-59.125863,-22.217618],[-59.128575,-22.224641],[-59.128473,-22.226881],[-59.125448,-22.226763],[-59.121348,-22.228099],[-59.117534,-22.227577],[-59.115647,-22.227831],[-59.115138,-22.228751],[-59.113629,-22.229344],[-59.11344,-22.23006],[-59.113398,-22.230998],[-59.114347,-22.234211],[-59.113526,-22.235119],[-59.111852,-22.23592],[-59.110875,-22.236821],[-59.10815,-22.241916],[-59.104175,-22.243931],[-59.102346,-22.243783],[-59.102018,-22.244103],[-59.10224,-22.245146],[-59.101864,-22.245547],[-59.099511,-22.247117],[-59.098879,-22.247259],[-59.098388,-22.247241],[-59.098003,-22.246854],[-59.097031,-22.24354],[-59.095865,-22.243578],[-59.094761,-22.244196],[-59.094553,-22.244852],[-59.094742,-22.247679],[-59.09552,-22.250192],[-59.094242,-22.252587],[-59.094428,-22.254502],[-59.094911,-22.255764],[-59.094861,-22.256922],[-59.09463,-22.258033],[-59.093866,-22.259081],[-59.093743,-22.261814],[-58.985812,-22.410956],[-59.003275,-22.414131],[-59.00383,-22.414422],[-59.011317,-22.42611],[-58.852064,-22.605185],[-58.853561,-22.606076],[-58.858368,-22.607399],[-58.861178,-22.605018],[-58.863161,-22.603919],[-58.864059,-22.603791],[-58.864835,-22.604161],[-58.866564,-22.606155],[-58.868022,-22.606319],[-58.870186,-22.602847],[-58.871241,-22.602924],[-58.872348,-22.604053],[-58.872978,-22.603894],[-58.873981,-22.603018],[-58.874663,-22.602885],[-58.876315,-22.603779],[-58.87726,-22.603803],[-58.877978,-22.60332],[-58.878771,-22.602015],[-58.880376,-22.601254],[-58.887053,-22.601147],[-58.887455,-22.603948],[-58.890281,-22.606304],[-58.890738,-22.607151],[-58.890775,-22.609935],[-58.893899,-22.614472],[-58.895668,-22.619978],[-58.896599,-22.62123],[-58.897958,-22.622211],[-58.898556,-22.622336],[-58.899038,-22.622347],[-58.899485,-22.62158],[-58.901404,-22.619956],[-58.904337,-22.620867],[-58.90549,-22.620673],[-58.908462,-22.618185],[-58.91286,-22.618183],[-58.915313,-22.617019],[-58.918213,-22.61687],[-58.920373,-22.615698],[-58.921404,-22.615501],[-58.924446,-22.615849],[-58.924882,-22.615359],[-58.925288,-22.613975],[-58.926225,-22.613106],[-58.928255,-22.613826],[-58.931511,-22.616079],[-58.93194,-22.615867],[-58.934083,-22.612746],[-58.93599,-22.613518],[-58.937982,-22.613567],[-58.939229,-22.612261],[-58.941017,-22.608686],[-58.940996,-22.605453],[-58.943312,-22.604732],[-58.944628,-22.605099],[-58.946248,-22.607479],[-58.947555,-22.60818],[-58.948038,-22.608192],[-58.94854,-22.607536],[-58.949951,-22.606736],[-58.956146,-22.607504],[-58.957534,-22.607538],[-58.959,-22.606795],[-58.960135,-22.607157],[-58.961552,-22.608195],[-58.962542,-22.611563],[-58.963786,-22.614435],[-58.965862,-22.615656],[-58.966465,-22.615671],[-58.969507,-22.616917],[-58.97029,-22.616992],[-58.970722,-22.616669],[-58.970736,-22.616168],[-58.971997,-22.614192],[-58.97273,-22.613876],[-58.974472,-22.61403],[-58.977759,-22.615339],[-58.980192,-22.617722],[-58.981632,-22.617868],[-58.983109,-22.617293],[-58.985169,-22.617233],[-58.98766,-22.618855],[-58.989512,-22.619513],[-58.990954,-22.619549],[-58.992783,-22.618926],[-58.997879,-22.620054],[-59.001127,-22.620245],[-59.00196,-22.616533],[-59.00298,-22.614665],[-59.006182,-22.614521],[-59.008328,-22.617526],[-59.009153,-22.618215],[-59.01071,-22.618643],[-59.013891,-22.618716],[-59.015821,-22.620863],[-59.016468,-22.625234],[-59.019271,-22.62812],[-59.020149,-22.62845],[-59.022473,-22.628561],[-59.02517,-22.627399],[-59.027996,-22.627771],[-59.028668,-22.627582],[-59.029348,-22.627086],[-59.030863,-22.624612],[-59.032812,-22.624352],[-59.033947,-22.625404],[-59.03414,-22.626434],[-59.034675,-22.627113],[-59.034653,-22.62788],[-59.035301,-22.628511],[-59.03752,-22.62846],[-59.039447,-22.627075],[-59.04071,-22.625673],[-59.042708,-22.625619],[-59.043418,-22.625943],[-59.044893,-22.628901],[-59.04555,-22.629224],[-59.048261,-22.629288],[-59.04803,-22.633481],[-59.050184,-22.634022],[-59.053787,-22.633602],[-59.054219,-22.634022],[-59.054404,-22.635204],[-59.053939,-22.637854],[-59.054084,-22.641083],[-59.053328,-22.6425],[-59.0526,-22.646218],[-59.052692,-22.646782],[-59.057704,-22.649976],[-59.057686,-22.650538],[-59.055668,-22.653995],[-59.055635,-22.655484],[-59.056686,-22.657351],[-59.057065,-22.659718],[-59.057922,-22.660814],[-59.059264,-22.664535],[-59.058952,-22.665858],[-59.058094,-22.666964],[-59.058077,-22.667577],[-59.058613,-22.668154],[-59.059699,-22.668948],[-59.063904,-22.669205],[-59.065338,-22.667346],[-59.068347,-22.667213],[-59.070557,-22.665423],[-59.07339,-22.66539],[-59.075899,-22.664938],[-59.078071,-22.662739],[-59.080078,-22.662379],[-59.083941,-22.663238],[-59.084215,-22.665344],[-59.085279,-22.666855],[-59.08676,-22.667403],[-59.088584,-22.667497],[-59.12266,-22.694843],[-59.121897,-22.697539],[-59.120476,-22.699201],[-59.117292,-22.701334],[-59.116671,-22.702832],[-59.116717,-22.705816],[-59.120483,-22.710095],[-59.121172,-22.71307],[-59.121473,-22.716945],[-59.121189,-22.740231],[-59.122524,-22.743346],[-59.125447,-22.745099],[-59.129167,-22.746391],[-59.131748,-22.746803],[-59.134336,-22.747667],[-59.141756,-22.748909],[-59.143386,-22.750232],[-59.145546,-22.759752],[-59.147019,-22.761375],[-59.147709,-22.76435],[-59.14781,-22.770764],[-59.154832,-22.787531],[-59.154694,-22.789027],[-59.153918,-22.790826],[-59.153354,-22.795908],[-59.15323,-22.803372],[-59.152167,-22.817711],[-59.150486,-22.823404],[-59.147497,-22.838067],[-59.147874,-22.846717],[-59.147252,-22.858368],[-59.147374,-22.866122],[-59.148282,-22.872679],[-59.149494,-22.878035],[-59.148715,-22.879684],[-59.145113,-22.881078],[-59.142901,-22.883794],[-59.141384,-22.889783],[-59.138594,-22.90698],[-59.138262,-22.921756],[-59.137518,-22.925649],[-59.138704,-22.929362],[-59.142028,-22.935886],[-59.144943,-22.947038],[-59.148458,-22.955347],[-59.150213,-22.964424],[-59.15637,-22.986809],[-59.168664,-22.986474],[-59.246939,-23.062425],[-59.262477,-23.074327],[-59.38713,-23.147936],[-59.387935,-23.147551],[-59.388408,-23.148473],[-59.388751,-23.150995],[-59.38939,-23.151847],[-59.390598,-23.15194],[-59.391102,-23.151362],[-59.391011,-23.150095],[-59.389829,-23.147489],[-59.389864,-23.146765],[-59.390294,-23.146574],[-59.391986,-23.147048],[-59.392528,-23.147559],[-59.392816,-23.148709],[-59.393451,-23.149663],[-59.396003,-23.150558],[-59.396962,-23.151776],[-59.397381,-23.151841],[-59.398753,-23.14874],[-59.398769,-23.147783],[-59.397982,-23.147703],[-59.395217,-23.148511],[-59.394124,-23.148394],[-59.394094,-23.147797],[-59.39451,-23.147268],[-59.396173,-23.146551],[-59.396545,-23.145737],[-59.395889,-23.144601],[-59.394835,-23.143583],[-59.395221,-23.143103],[-59.39864,-23.143431],[-59.400852,-23.145037],[-59.403878,-23.146102],[-59.405085,-23.148061],[-59.405425,-23.149526],[-59.405028,-23.153005],[-59.405345,-23.153507],[-59.406596,-23.153836],[-59.407341,-23.153501],[-59.40733,-23.153061],[-59.406196,-23.152606],[-59.406339,-23.151887],[-59.407354,-23.151094],[-59.407111,-23.150232],[-59.407311,-23.149435],[-59.408427,-23.14971],[-59.408805,-23.150085],[-59.409295,-23.151783],[-59.41009,-23.15295],[-59.409379,-23.156521],[-59.407603,-23.15731],[-59.407174,-23.158123],[-59.407106,-23.159724],[-59.407838,-23.16037],[-59.408892,-23.160694],[-59.410965,-23.160896],[-59.413544,-23.159802],[-59.414977,-23.158561],[-59.415162,-23.155487],[-59.415993,-23.154482],[-59.416202,-23.153558],[-59.415904,-23.152564],[-59.414642,-23.151098],[-59.414658,-23.148047],[-59.414169,-23.147666],[-59.413494,-23.147665],[-59.412454,-23.148953],[-59.411757,-23.148823],[-59.410041,-23.146822],[-59.409586,-23.145573],[-59.409391,-23.143471],[-59.410209,-23.14275],[-59.410267,-23.142053],[-59.407644,-23.140409],[-59.407197,-23.139695],[-59.408001,-23.139179],[-59.408929,-23.13916],[-59.411113,-23.139446],[-59.413722,-23.140236],[-59.417189,-23.146077],[-59.417987,-23.148401],[-59.418257,-23.14867],[-59.422506,-23.14937],[-59.422934,-23.149876],[-59.423485,-23.151837],[-59.424566,-23.152965],[-59.425376,-23.153098],[-59.425592,-23.151939],[-59.425102,-23.147631],[-59.426727,-23.143655],[-59.426723,-23.141691],[-59.425697,-23.140748],[-59.424021,-23.140532],[-59.422999,-23.140081],[-59.421933,-23.140041],[-59.421421,-23.140826],[-59.420599,-23.140978],[-59.41984,-23.140952],[-59.41802,-23.140112],[-59.417767,-23.137435],[-59.418256,-23.136262],[-59.418625,-23.136172],[-59.419254,-23.136608],[-59.420925,-23.138325],[-59.421627,-23.138373],[-59.422261,-23.137383],[-59.422301,-23.13643],[-59.421551,-23.134105],[-59.421589,-23.133226],[-59.42215,-23.132004],[-59.421172,-23.131219],[-59.419364,-23.131309],[-59.419166,-23.129441],[-59.419628,-23.127803],[-59.420545,-23.12737],[-59.422113,-23.127501],[-59.424534,-23.126787],[-59.424803,-23.12708],[-59.424677,-23.130077],[-59.425549,-23.132073],[-59.431359,-23.13365],[-59.431585,-23.133606],[-59.43151,-23.132777],[-59.430035,-23.131095],[-59.429981,-23.130343],[-59.430336,-23.129941],[-59.431123,-23.13002],[-59.432708,-23.131164],[-59.43373,-23.131408],[-59.43461,-23.13056],[-59.43552,-23.128924],[-59.437,-23.12846],[-59.437602,-23.128844],[-59.437604,-23.129515],[-59.437235,-23.130227],[-59.436292,-23.130607],[-59.436111,-23.131507],[-59.436714,-23.13199],[-59.437328,-23.13204],[-59.438635,-23.131027],[-59.439993,-23.130867],[-59.443643,-23.129649],[-59.443786,-23.128905],[-59.44287,-23.12797],[-59.440915,-23.126247],[-59.438989,-23.125298],[-59.437926,-23.12389],[-59.437744,-23.122177],[-59.438809,-23.120896],[-59.439874,-23.120314],[-59.440816,-23.120601],[-59.441535,-23.12226],[-59.442454,-23.123145],[-59.443585,-23.122331],[-59.443827,-23.120582],[-59.444616,-23.119883],[-59.445331,-23.120272],[-59.445542,-23.12196],[-59.449398,-23.121916],[-59.45272,-23.120417],[-59.453731,-23.120396],[-59.453956,-23.120935],[-59.453704,-23.123487],[-59.453974,-23.123932],[-59.455352,-23.124037],[-59.457095,-23.123264],[-59.457767,-23.122472],[-59.45604,-23.121368],[-59.45325,-23.118084],[-59.452525,-23.118133],[-59.451817,-23.119342],[-59.451157,-23.119357],[-59.449048,-23.117992],[-59.448487,-23.11653],[-59.449037,-23.116149],[-59.451557,-23.1166],[-59.454395,-23.11537],[-59.457283,-23.115856],[-59.458084,-23.115411],[-59.458261,-23.114182],[-59.457512,-23.113319],[-59.457781,-23.112816],[-59.459435,-23.111773],[-59.460249,-23.109106],[-59.461939,-23.109147],[-59.462674,-23.108301],[-59.462156,-23.105367],[-59.463163,-23.104336],[-59.463224,-23.103919],[-59.461331,-23.102445],[-59.460866,-23.100249],[-59.461569,-23.099667],[-59.462711,-23.099935],[-59.463221,-23.102114],[-59.465184,-23.102469],[-59.465746,-23.101862],[-59.466833,-23.099512],[-59.466757,-23.098864],[-59.465791,-23.097767],[-59.465714,-23.096644],[-59.466179,-23.096374],[-59.46726,-23.096679],[-59.468098,-23.095403],[-59.469311,-23.095484],[-59.470931,-23.094484],[-59.471251,-23.093683],[-59.471198,-23.091581],[-59.471816,-23.090776],[-59.47342,-23.091336],[-59.473954,-23.092085],[-59.474538,-23.093344],[-59.474696,-23.095482],[-59.475052,-23.095836],[-59.475511,-23.095853],[-59.475808,-23.093861],[-59.476147,-23.093354],[-59.476826,-23.093542],[-59.479263,-23.095726],[-59.479596,-23.096258],[-59.479534,-23.096874],[-59.478229,-23.097674],[-59.477773,-23.098405],[-59.477689,-23.099184],[-59.478086,-23.099799],[-59.479075,-23.099818],[-59.480088,-23.099368],[-59.48118,-23.098135],[-59.482349,-23.097352],[-59.484502,-23.097343],[-59.485491,-23.097768],[-59.485672,-23.098507],[-59.48535,-23.09905],[-59.484399,-23.099423],[-59.483048,-23.099212],[-59.481852,-23.0999],[-59.4818,-23.100271],[-59.483923,-23.101111],[-59.48448,-23.101683],[-59.484849,-23.103809],[-59.485439,-23.104905],[-59.486284,-23.104979],[-59.486953,-23.104227],[-59.486611,-23.101824],[-59.486795,-23.100822],[-59.489308,-23.101659],[-59.49,-23.101603],[-59.490202,-23.100878],[-59.489323,-23.098716],[-59.489088,-23.097056],[-59.489499,-23.096487],[-59.490142,-23.096284],[-59.492391,-23.096651],[-59.491614,-23.098409],[-59.491566,-23.099545],[-59.491991,-23.09995],[-59.492968,-23.099822],[-59.493391,-23.097693],[-59.494108,-23.096972],[-59.49611,-23.097948],[-59.496266,-23.098424],[-59.495799,-23.09958],[-59.494258,-23.100045],[-59.494671,-23.101132],[-59.495683,-23.101444],[-59.497243,-23.100947],[-59.50182,-23.101693],[-59.501944,-23.102121],[-59.50156,-23.102416],[-59.499241,-23.10339],[-59.498634,-23.104799],[-59.497796,-23.104964],[-59.496896,-23.104383],[-59.495814,-23.104362],[-59.492971,-23.106122],[-59.492462,-23.107389],[-59.493126,-23.108257],[-59.493566,-23.108272],[-59.495723,-23.106236],[-59.497144,-23.105636],[-59.49732,-23.10647],[-59.496856,-23.109055],[-59.49766,-23.109295],[-59.498824,-23.108556],[-59.500007,-23.106488],[-59.500623,-23.10612],[-59.500891,-23.106455],[-59.500886,-23.10785],[-59.501933,-23.109431],[-59.502205,-23.110529],[-59.502153,-23.111778],[-59.501412,-23.112192],[-59.50142,-23.112436],[-59.503508,-23.114256],[-59.505955,-23.118341],[-59.507416,-23.118473],[-59.507345,-23.118097],[-59.506595,-23.117811],[-59.506464,-23.117108],[-59.506642,-23.116594],[-59.507141,-23.116481],[-59.509074,-23.117233],[-59.510558,-23.118536],[-59.511083,-23.118652],[-59.511735,-23.117457],[-59.513928,-23.116623],[-59.514754,-23.114763],[-59.51573,-23.114947],[-59.521004,-23.118527],[-59.521086,-23.119148],[-59.520728,-23.119721],[-59.518753,-23.120853],[-59.518864,-23.121653],[-59.522719,-23.12109],[-59.522987,-23.121441],[-59.522768,-23.123333],[-59.523782,-23.123955],[-59.524344,-23.123633],[-59.524482,-23.122842],[-59.525049,-23.122374],[-59.52587,-23.122176],[-59.527538,-23.12238],[-59.527508,-23.124824],[-59.527059,-23.125856],[-59.526701,-23.126412],[-59.525444,-23.126903],[-59.525059,-23.127369],[-59.525003,-23.127918],[-59.52553,-23.128423],[-59.527487,-23.127911],[-59.53155,-23.124967],[-59.53307,-23.124111],[-59.534821,-23.123588],[-59.534139,-23.12259],[-59.535047,-23.121129],[-59.535153,-23.120288],[-59.535605,-23.120012],[-59.537256,-23.12081],[-59.537785,-23.121643],[-59.537681,-23.122357],[-59.536336,-23.124144],[-59.534022,-23.125021],[-59.534697,-23.125743],[-59.536349,-23.12637],[-59.53743,-23.126294],[-59.538433,-23.127239],[-59.539799,-23.127449],[-59.540625,-23.127121],[-59.540575,-23.126599],[-59.539386,-23.126363],[-59.538264,-23.125739],[-59.538163,-23.125199],[-59.538463,-23.124691],[-59.540109,-23.124293],[-59.54277,-23.12481],[-59.543636,-23.123962],[-59.543856,-23.122118],[-59.545616,-23.121919],[-59.547496,-23.121206],[-59.549641,-23.119316],[-59.552447,-23.119803],[-59.552895,-23.119203],[-59.55276,-23.118207],[-59.55206,-23.117206],[-59.550307,-23.117033],[-59.549995,-23.116693],[-59.550499,-23.11519],[-59.552065,-23.112757],[-59.549832,-23.112857],[-59.548577,-23.111936],[-59.547423,-23.111636],[-59.546418,-23.111616],[-59.544144,-23.112317],[-59.543143,-23.112201],[-59.543233,-23.111716],[-59.54448,-23.111044],[-59.54453,-23.110688],[-59.543095,-23.107283],[-59.544486,-23.107317],[-59.545249,-23.106743],[-59.545534,-23.105534],[-59.545063,-23.104072],[-59.546019,-23.103197],[-59.547012,-23.103085],[-59.54711,-23.103673],[-59.545945,-23.104509],[-59.545991,-23.105128],[-59.54643,-23.105614],[-59.54792,-23.105861],[-59.548724,-23.107742],[-59.549368,-23.108418],[-59.551373,-23.109915],[-59.552469,-23.110327],[-59.552769,-23.110337],[-59.552704,-23.108821],[-59.55066,-23.105388],[-59.550219,-23.104934],[-59.548875,-23.104564],[-59.548399,-23.103704],[-59.548088,-23.102264],[-59.54907,-23.101569],[-59.550803,-23.101469],[-59.551761,-23.101747],[-59.5565,-23.10538],[-59.556527,-23.106453],[-59.557202,-23.107239],[-59.559038,-23.108068],[-59.560482,-23.108123],[-59.560754,-23.1075],[-59.560401,-23.107095],[-59.558938,-23.10712],[-59.557738,-23.106752],[-59.560173,-23.104047],[-59.561997,-23.10273],[-59.562353,-23.101783],[-59.562263,-23.100984],[-59.560967,-23.098277],[-59.560814,-23.097214],[-59.560129,-23.09643],[-59.559903,-23.095446],[-59.560181,-23.094759],[-59.560879,-23.094625],[-59.562745,-23.095498],[-59.564659,-23.095746],[-59.566025,-23.096863],[-59.567511,-23.098912],[-59.568042,-23.100538],[-59.56801,-23.102159],[-59.567271,-23.103381],[-59.567468,-23.104586],[-59.569326,-23.106094],[-59.574796,-23.105109],[-59.5749,-23.104297],[-59.571638,-23.103387],[-59.571686,-23.103096],[-59.574267,-23.101206],[-59.575604,-23.101366],[-59.57755,-23.102604],[-59.57834,-23.102615],[-59.579207,-23.102125],[-59.579099,-23.101407],[-59.577996,-23.100751],[-59.576801,-23.09892],[-59.576961,-23.095462],[-59.575271,-23.095306],[-59.575849,-23.093255],[-59.575922,-23.091632],[-59.576482,-23.091261],[-59.577275,-23.091645],[-59.578334,-23.09352],[-59.580724,-23.093896],[-59.581917,-23.095759],[-59.582468,-23.096121],[-59.583141,-23.096096],[-59.584114,-23.093884],[-59.584493,-23.093702],[-59.586191,-23.094948],[-59.58769,-23.095406],[-59.58716,-23.097021],[-59.58762,-23.097817],[-59.589518,-23.098923],[-59.59059,-23.100341],[-59.593191,-23.10066],[-59.594882,-23.10205],[-59.595804,-23.10109],[-59.597269,-23.100265],[-59.600575,-23.100492],[-59.601314,-23.100194],[-59.599532,-23.096172],[-59.599663,-23.095091],[-59.600034,-23.094618],[-59.601186,-23.094996],[-59.603625,-23.096831],[-59.604532,-23.098093],[-59.605115,-23.098096],[-59.604645,-23.093699],[-59.603738,-23.093473],[-59.600599,-23.093915],[-59.600577,-23.093185],[-59.601961,-23.092065],[-59.602461,-23.090961],[-59.603214,-23.091118],[-59.603889,-23.092764],[-59.605485,-23.091702],[-59.607439,-23.091317],[-59.60741,-23.08838],[-59.607784,-23.087046],[-59.607123,-23.085919],[-59.607095,-23.085317],[-59.608033,-23.084442],[-59.608992,-23.084213],[-59.610249,-23.084601],[-59.609334,-23.086273],[-59.609632,-23.087515],[-59.611252,-23.088091],[-59.611624,-23.088494],[-59.610651,-23.089465],[-59.610131,-23.091409],[-59.609039,-23.091825],[-59.610144,-23.093756],[-59.610396,-23.096182],[-59.610864,-23.096266],[-59.611216,-23.095482],[-59.612651,-23.093959],[-59.613174,-23.091462],[-59.613793,-23.090284],[-59.615655,-23.091305],[-59.618309,-23.091494],[-59.620615,-23.092822],[-59.62073,-23.093441],[-59.620006,-23.093582],[-59.61892,-23.092504],[-59.618533,-23.092475],[-59.617874,-23.093506],[-59.617618,-23.094585],[-59.61759,-23.095281],[-59.617961,-23.095683],[-59.618752,-23.095743],[-59.621448,-23.094894],[-59.623622,-23.096006],[-59.624154,-23.09534],[-59.623875,-23.093921],[-59.623399,-23.093532],[-59.623002,-23.09386],[-59.622065,-23.093974],[-59.621783,-23.093559],[-59.622218,-23.092424],[-59.621743,-23.090721],[-59.622004,-23.088232],[-59.621464,-23.087677],[-59.620175,-23.087276],[-59.619287,-23.086578],[-59.619593,-23.086026],[-59.621212,-23.085336],[-59.622048,-23.084327],[-59.622715,-23.084449],[-59.62453,-23.085777],[-59.626214,-23.085121],[-59.627623,-23.086468],[-59.628786,-23.088551],[-59.630672,-23.087871],[-59.631892,-23.087751],[-59.63299,-23.087724],[-59.635141,-23.088228],[-59.634988,-23.086198],[-59.63718,-23.087718],[-59.638592,-23.088092],[-59.639364,-23.087261],[-59.639761,-23.086154],[-59.640718,-23.086153],[-59.641792,-23.08705],[-59.643286,-23.089355],[-59.644156,-23.088786],[-59.644219,-23.087686],[-59.643716,-23.086598],[-59.642084,-23.085957],[-59.6426,-23.084563],[-59.642899,-23.084136],[-59.643589,-23.084079],[-59.644058,-23.085571],[-59.644582,-23.086108],[-59.645196,-23.086194],[-59.645859,-23.085535],[-59.64634,-23.084092],[-59.646199,-23.082321],[-59.644317,-23.082193],[-59.644045,-23.081957],[-59.644192,-23.081391],[-59.645151,-23.080324],[-59.644449,-23.078681],[-59.644933,-23.077643],[-59.645765,-23.077559],[-59.646072,-23.079189],[-59.647511,-23.078024],[-59.648772,-23.078117],[-59.649711,-23.077629],[-59.650235,-23.077729],[-59.650355,-23.079125],[-59.650031,-23.080589],[-59.650479,-23.081251],[-59.650781,-23.081196],[-59.650995,-23.080262],[-59.651516,-23.079588],[-59.65391,-23.078763],[-59.65371,-23.078026],[-59.650342,-23.075966],[-59.650029,-23.074981],[-59.650494,-23.074382],[-59.653401,-23.07351],[-59.653988,-23.072977],[-59.653951,-23.072211],[-59.653403,-23.072226],[-59.652283,-23.073277],[-59.651859,-23.073311],[-59.651688,-23.072753],[-59.651958,-23.071522],[-59.651268,-23.07025],[-59.653193,-23.070202],[-59.654155,-23.069649],[-59.655271,-23.070773],[-59.656078,-23.07085],[-59.657767,-23.068721],[-59.65786,-23.068172],[-59.657499,-23.067949],[-59.653527,-23.069418],[-59.653482,-23.068362],[-59.654166,-23.067023],[-59.653872,-23.066461],[-59.652774,-23.065759],[-59.652624,-23.065154],[-59.655757,-23.062668],[-59.656283,-23.062716],[-59.656683,-23.063282],[-59.656918,-23.064476],[-59.656724,-23.064907],[-59.655718,-23.065324],[-59.655362,-23.065881],[-59.656461,-23.0666],[-59.657586,-23.066688],[-59.657737,-23.066434],[-59.657731,-23.066159],[-59.656918,-23.065807],[-59.656988,-23.064933],[-59.660784,-23.063863],[-59.661295,-23.063849],[-59.661719,-23.064253],[-59.661316,-23.065598],[-59.660433,-23.066023],[-59.659615,-23.067065],[-59.658528,-23.06779],[-59.658219,-23.068444],[-59.659201,-23.068575],[-59.663044,-23.067962],[-59.664367,-23.065692],[-59.665288,-23.065529],[-59.665781,-23.065951],[-59.664458,-23.066845],[-59.664834,-23.068007],[-59.665391,-23.068236],[-59.666627,-23.068133],[-59.668121,-23.069286],[-59.668696,-23.068949],[-59.66807,-23.068248],[-59.667939,-23.067579],[-59.669482,-23.068167],[-59.671054,-23.067249],[-59.672773,-23.06781],[-59.673264,-23.068685],[-59.673699,-23.068814],[-59.674541,-23.06719],[-59.674086,-23.064063],[-59.676119,-23.063439],[-59.677718,-23.063523],[-59.678488,-23.064975],[-59.676807,-23.065146],[-59.6767,-23.065612],[-59.67727,-23.067186],[-59.676124,-23.068087],[-59.676034,-23.06857],[-59.677161,-23.069013],[-59.678407,-23.068667],[-59.679232,-23.068777],[-59.679408,-23.069674],[-59.67843,-23.071213],[-59.676686,-23.071603],[-59.677294,-23.073554],[-59.677996,-23.073575],[-59.679768,-23.071177],[-59.681489,-23.070376],[-59.682794,-23.068882],[-59.683493,-23.068647],[-59.684204,-23.068882],[-59.684074,-23.070367],[-59.682754,-23.071294],[-59.681646,-23.0734],[-59.679841,-23.073595],[-59.679955,-23.075606],[-59.680828,-23.075733],[-59.683035,-23.075097],[-59.682691,-23.07654],[-59.685636,-23.076884],[-59.685522,-23.077545],[-59.681815,-23.079038],[-59.681451,-23.080692],[-59.681721,-23.081806],[-59.683634,-23.081124],[-59.685305,-23.079855],[-59.685783,-23.07979],[-59.685839,-23.08146],[-59.685352,-23.083209],[-59.686684,-23.085262],[-59.687451,-23.085434],[-59.687671,-23.085199],[-59.68717,-23.082817],[-59.69088,-23.082458],[-59.690332,-23.084739],[-59.690895,-23.084789],[-59.692423,-23.083967],[-59.692512,-23.082627],[-59.693142,-23.082276],[-59.693848,-23.082689],[-59.694376,-23.083582],[-59.694344,-23.083937],[-59.693231,-23.084432],[-59.693369,-23.084939],[-59.695287,-23.08583],[-59.696285,-23.085928],[-59.696384,-23.085236],[-59.696008,-23.08456],[-59.697118,-23.083221],[-59.696553,-23.081534],[-59.697373,-23.080817],[-59.697668,-23.07966],[-59.698007,-23.079606],[-59.698672,-23.080537],[-59.699866,-23.08077],[-59.699817,-23.02629],[-59.700015,-23.026094],[-59.727844,-23.026125],[-59.727704,-23.001404],[-59.741976,-23.001251],[-59.742208,-23.001408],[-59.742262,-23.005573],[-59.742766,-23.005633],[-59.798983,-23.005748],[-59.799254,-23.000973],[-59.801667,-22.996616],[-59.801928,-22.995249],[-59.801813,-22.992372],[-59.802367,-22.991509],[-59.80301,-22.986666],[-59.812181,-22.986637],[-59.812695,-22.984119],[-59.81723,-22.984409],[-59.822759,-22.985239],[-59.822784,-22.986259]]]}}]}
