{"type":"FeatureCollection","name":"distrito","features":[{"type":"Feature","properties":{"clave":"1-0","nombre":"Concepción"},"geometry":{"type":"Polygon","coordinates":[[[-57.438194,-23.477587],[-57.450127,-23.477481],[-57.45196,-23.471845],[-57.451823,-23.468506],[-57.4508,-23.464936],[-57.449003,-23.456242],[-57.4497,-23.450842],[-57.450781,-23.4468],[-57.454552,-23.441896],[-57.458621,-23.43769],[-57.461643,-23.435428],[-57.463109,-23.433327],[-57.462807,-23.431231],[-57.461535,-23.428555],[-57.461903,-23.425524],[-57.463958,-23.423499],[-57.466566,-23.422986],[-57.473711,-23.420479],[-57.475387,-23.418455],[-57.475122,-23.41496],[-57.474308,-23.410808],[-57.475807,-23.406492],[-57.478824,-23.402794],[-57.484889,-23.392988],[-57.48782,-23.389018],[-57.488294,-23.387188],[-57.487896,-23.384964],[-57.494602,-23.372686],[-57.499429,-23.366989],[-57.502032,-23.364948],[-57.512751,-23.359232],[-57.516582,-23.356672],[-57.519999,-23.353219],[-57.521813,-23.349699],[-57.522437,-23.347218],[-57.522203,-23.3445],[-57.521632,-23.341643],[-57.520465,-23.338756],[-57.518329,-23.336076],[-57.513359,-23.333062],[-57.50349,-23.326315],[-57.50009,-23.324361],[-57.491464,-23.320671],[-57.490753,-23.320034],[-57.485301,-23.321968],[-57.482102,-23.323745],[-57.481166,-23.323939],[-57.480418,-23.323583],[-57.480271,-23.32276],[-57.481266,-23.321693],[-57.481353,-23.320853],[-57.479963,-23.319792],[-57.478034,-23.319324],[-57.478225,-23.320598],[-57.476868,-23.322124],[-57.475856,-23.322408],[-57.476419,-23.323973],[-57.474631,-23.325429],[-57.473464,-23.327865],[-57.472337,-23.328425],[-57.469498,-23.32798],[-57.467168,-23.326546],[-57.46656,-23.325102],[-57.466848,-23.324779],[-57.468229,-23.324494],[-57.468435,-23.323726],[-57.466205,-23.321983],[-57.464702,-23.321846],[-57.46303,-23.323794],[-57.462083,-23.323843],[-57.461067,-23.323121],[-57.460846,-23.322037],[-57.462727,-23.321529],[-57.462877,-23.320992],[-57.462564,-23.320495],[-57.461426,-23.319842],[-57.460156,-23.32074],[-57.459346,-23.320536],[-57.459572,-23.318879],[-57.458754,-23.317446],[-57.460516,-23.317045],[-57.460367,-23.314972],[-57.459558,-23.314476],[-57.458994,-23.315311],[-57.458358,-23.315282],[-57.458483,-23.314466],[-57.45822,-23.313969],[-57.456683,-23.313587],[-57.456748,-23.312818],[-57.455348,-23.31252],[-57.45476,-23.310361],[-57.454013,-23.3104],[-57.453296,-23.309802],[-57.451949,-23.309766],[-57.451161,-23.309279],[-57.450582,-23.308439],[-57.451159,-23.307056],[-57.450666,-23.306928],[-57.451142,-23.305616],[-57.449363,-23.305232],[-57.449944,-23.304928],[-57.449563,-23.304665],[-57.449789,-23.30423],[-57.449453,-23.302789],[-57.448977,-23.303028],[-57.448656,-23.302194],[-57.44747,-23.301948],[-57.446957,-23.302119],[-57.446799,-23.302749],[-57.445638,-23.303004],[-57.44539,-23.302323],[-57.445271,-23.302752],[-57.444209,-23.302412],[-57.444184,-23.303049],[-57.443596,-23.303855],[-57.44147,-23.30247],[-57.440722,-23.30272],[-57.440167,-23.301326],[-57.439024,-23.301587],[-57.438131,-23.301427],[-57.437898,-23.300885],[-57.437149,-23.300571],[-57.435935,-23.300724],[-57.435019,-23.299267],[-57.433783,-23.298919],[-57.433862,-23.298074],[-57.432648,-23.298285],[-57.432282,-23.297911],[-57.432421,-23.297034],[-57.432866,-23.296862],[-57.433026,-23.29636],[-57.43126,-23.294662],[-57.431195,-23.293298],[-57.431613,-23.291147],[-57.430981,-23.289839],[-57.429543,-23.289373],[-57.428087,-23.289716],[-57.42738,-23.290206],[-57.426685,-23.289273],[-57.426112,-23.289157],[-57.425796,-23.288503],[-57.426219,-23.287589],[-57.425761,-23.286787],[-57.425737,-23.285757],[-57.424887,-23.285692],[-57.424049,-23.286304],[-57.423316,-23.284793],[-57.422821,-23.28525],[-57.421304,-23.285552],[-57.420736,-23.284939],[-57.42063,-23.283332],[-57.419191,-23.282613],[-57.418814,-23.281774],[-57.417895,-23.281944],[-57.417602,-23.281253],[-57.416538,-23.280592],[-57.415946,-23.280856],[-57.415598,-23.280414],[-57.414976,-23.281265],[-57.414249,-23.280517],[-57.414,-23.279488],[-57.412967,-23.279296],[-57.412235,-23.278034],[-57.412256,-23.277158],[-57.411903,-23.276887],[-57.410229,-23.277041],[-57.409361,-23.277806],[-57.408864,-23.277388],[-57.407511,-23.278367],[-57.404151,-23.277973],[-57.402229,-23.278182],[-57.399383,-23.277227],[-57.394222,-23.277127],[-57.393928,-23.276988],[-57.393771,-23.275204],[-57.393153,-23.274736],[-57.390532,-23.274752],[-57.389744,-23.275065],[-57.388806,-23.276075],[-57.387987,-23.276266],[-57.387692,-23.275834],[-57.388121,-23.273683],[-57.387807,-23.273394],[-57.387402,-23.273413],[-57.38694,-23.274584],[-57.38635,-23.273624],[-57.386181,-23.274473],[-57.38529,-23.274254],[-57.384633,-23.274599],[-57.38296,-23.273433],[-57.382465,-23.273642],[-57.382376,-23.274212],[-57.382001,-23.274213],[-57.381768,-23.273987],[-57.381847,-23.273206],[-57.381484,-23.273681],[-57.380956,-23.273185],[-57.380413,-23.274031],[-57.379492,-23.274006],[-57.378592,-23.274429],[-57.378458,-23.273322],[-57.37892,-23.27207],[-57.376978,-23.272513],[-57.372309,-23.272411],[-57.370473,-23.273734],[-57.370223,-23.274697],[-57.368792,-23.276064],[-57.368148,-23.277389],[-57.367036,-23.276936],[-57.366723,-23.277216],[-57.365336,-23.280169],[-57.364408,-23.280817],[-57.363003,-23.280648],[-57.36157,-23.28142],[-57.361076,-23.282058],[-57.36118,-23.283214],[-57.360859,-23.284],[-57.359333,-23.283823],[-57.358677,-23.284285],[-57.358629,-23.285487],[-57.358337,-23.285618],[-57.357224,-23.285192],[-57.354851,-23.286195],[-57.354499,-23.286666],[-57.354372,-23.288288],[-57.353725,-23.288461],[-57.352916,-23.288219],[-57.351775,-23.288713],[-57.351023,-23.290946],[-57.350254,-23.290681],[-57.349214,-23.290923],[-57.348746,-23.290102],[-57.348211,-23.290207],[-57.347906,-23.29327],[-57.347044,-23.296289],[-57.346376,-23.29588],[-57.345972,-23.296066],[-57.344916,-23.298028],[-57.34434,-23.298079],[-57.34365,-23.297137],[-57.342862,-23.297147],[-57.343096,-23.297978],[-57.341927,-23.299241],[-57.341901,-23.300867],[-57.341478,-23.3015],[-57.339983,-23.301869],[-57.339333,-23.300619],[-57.33907,-23.300593],[-57.338708,-23.301574],[-57.338821,-23.302206],[-57.338108,-23.303937],[-57.33752,-23.303301],[-57.336995,-23.303741],[-57.336997,-23.30463],[-57.337927,-23.304515],[-57.338454,-23.304989],[-57.338607,-23.305449],[-57.338166,-23.307035],[-57.337519,-23.307104],[-57.335698,-23.306498],[-57.333439,-23.304647],[-57.331916,-23.30591],[-57.330114,-23.304758],[-57.329195,-23.305148],[-57.328721,-23.305813],[-57.327862,-23.305702],[-57.32669,-23.306034],[-57.325975,-23.307296],[-57.324684,-23.308559],[-57.32481,-23.310388],[-57.324258,-23.312109],[-57.322987,-23.313006],[-57.321431,-23.313272],[-57.320957,-23.313927],[-57.319905,-23.313509],[-57.318503,-23.315043],[-57.315233,-23.316662],[-57.314318,-23.319541],[-57.314776,-23.320679],[-57.314484,-23.321289],[-57.313655,-23.321169],[-57.313161,-23.321712],[-57.312312,-23.321794],[-57.3101,-23.323118],[-57.309131,-23.323382],[-57.30827,-23.322765],[-57.308327,-23.321355],[-57.3068,-23.321069],[-57.30584,-23.321527],[-57.304788,-23.320996],[-57.303293,-23.321568],[-57.302968,-23.320901],[-57.3023,-23.320721],[-57.302018,-23.321124],[-57.30194,-23.322583],[-57.300618,-23.323665],[-57.300065,-23.324917],[-57.298601,-23.325836],[-57.29764,-23.325355],[-57.295375,-23.325544],[-57.293743,-23.328004],[-57.293366,-23.326975],[-57.293033,-23.326904],[-57.291266,-23.328212],[-57.290741,-23.328272],[-57.290267,-23.328878],[-57.289234,-23.328496],[-57.287233,-23.328866],[-57.285686,-23.328774],[-57.284484,-23.329354],[-57.282906,-23.328973],[-57.281855,-23.32935],[-57.280676,-23.33096],[-57.279787,-23.331304],[-57.278741,-23.33393],[-57.277629,-23.334249],[-57.276854,-23.335605],[-57.276136,-23.33585],[-57.275825,-23.336935],[-57.274013,-23.336152],[-57.273294,-23.335471],[-57.269967,-23.335292],[-57.268735,-23.335786],[-57.267486,-23.338191],[-57.265779,-23.339413],[-57.264433,-23.338838],[-57.264259,-23.337551],[-57.262458,-23.336976],[-57.261961,-23.336145],[-57.26108,-23.335754],[-57.260697,-23.335233],[-57.259998,-23.335272],[-57.25891,-23.33742],[-57.258111,-23.337615],[-57.257868,-23.337087],[-57.257241,-23.33716],[-57.254575,-23.339143],[-57.254577,-23.340024],[-57.25399,-23.339763],[-57.253918,-23.338923],[-57.253421,-23.338183],[-57.252644,-23.338857],[-57.251602,-23.338935],[-57.249368,-23.340818],[-57.248154,-23.340427],[-57.247387,-23.341191],[-57.247268,-23.342127],[-57.246904,-23.342502],[-57.246096,-23.342594],[-57.245588,-23.341587],[-57.244941,-23.341421],[-57.24385,-23.341947],[-57.243569,-23.343289],[-57.242842,-23.34361],[-57.241304,-23.342881],[-57.241001,-23.343482],[-57.239203,-23.344379],[-57.239044,-23.345874],[-57.2386,-23.346227],[-57.238196,-23.346174],[-57.237506,-23.34524],[-57.236576,-23.345241],[-57.236416,-23.3461],[-57.235709,-23.346476],[-57.234495,-23.346514],[-57.233948,-23.345882],[-57.23225,-23.346237],[-57.230495,-23.348444],[-57.229445,-23.349136],[-57.228719,-23.350537],[-57.228193,-23.350484],[-57.226816,-23.349235],[-57.225704,-23.349553],[-57.22518,-23.350542],[-57.224412,-23.350882],[-57.22336,-23.350789],[-57.222813,-23.349932],[-57.220284,-23.349375],[-57.219193,-23.349598],[-57.215758,-23.351527],[-57.213677,-23.353079],[-57.212729,-23.354593],[-57.210282,-23.354393],[-57.205065,-23.354585],[-57.203237,-23.355072],[-57.203639,-23.329146],[-57.182351,-23.325802],[-57.177264,-23.33986],[-57.162583,-23.335165],[-57.144293,-23.329804],[-57.139908,-23.34145],[-57.137584,-23.353875],[-57.224652,-23.374702],[-57.267296,-23.372824],[-57.270135,-23.373009],[-57.273734,-23.373797],[-57.276715,-23.375015],[-57.279567,-23.3767],[-57.318058,-23.404375],[-57.321092,-23.406188],[-57.323511,-23.407251],[-57.326509,-23.408074],[-57.326036,-23.408439],[-57.324317,-23.408223],[-57.323577,-23.408392],[-57.319113,-23.407797],[-57.316211,-23.410038],[-57.313209,-23.411054],[-57.312298,-23.417742],[-57.315078,-23.418179],[-57.313552,-23.429894],[-57.312605,-23.429829],[-57.311647,-23.436884],[-57.32471,-23.436054],[-57.325944,-23.439818],[-57.329887,-23.438757],[-57.337364,-23.452092],[-57.336869,-23.452355],[-57.339796,-23.45616],[-57.340557,-23.459221],[-57.322726,-23.46331],[-57.292541,-23.467949],[-57.292812,-23.468355],[-57.292754,-23.469498],[-57.291848,-23.470918],[-57.29235,-23.471969],[-57.291693,-23.473199],[-57.291685,-23.474093],[-57.292066,-23.474598],[-57.292835,-23.474262],[-57.293266,-23.474686],[-57.29315,-23.476597],[-57.292961,-23.476986],[-57.29251,-23.476598],[-57.292411,-23.476941],[-57.292442,-23.47742],[-57.293174,-23.478191],[-57.293628,-23.480394],[-57.29456,-23.480984],[-57.295319,-23.480531],[-57.295771,-23.4817],[-57.294964,-23.482939],[-57.294264,-23.482886],[-57.293746,-23.483985],[-57.293987,-23.484332],[-57.294627,-23.484416],[-57.29442,-23.485523],[-57.294692,-23.486367],[-57.294363,-23.487109],[-57.29518,-23.487803],[-57.294576,-23.488748],[-57.29548,-23.489658],[-57.296524,-23.489747],[-57.29579,-23.491251],[-57.296682,-23.492572],[-57.296522,-23.498364],[-57.297184,-23.499288],[-57.298303,-23.499339],[-57.298961,-23.498756],[-57.299302,-23.497301],[-57.298895,-23.495186],[-57.299668,-23.494285],[-57.300872,-23.494177],[-57.302939,-23.495337],[-57.303684,-23.495282],[-57.305,-23.494037],[-57.305889,-23.494114],[-57.307672,-23.496121],[-57.31094,-23.495797],[-57.314099,-23.497774],[-57.315332,-23.497904],[-57.317739,-23.49692],[-57.320433,-23.496439],[-57.321494,-23.496595],[-57.326463,-23.499997],[-57.327869,-23.50039],[-57.328528,-23.499807],[-57.329009,-23.497558],[-57.329898,-23.497371],[-57.331075,-23.497871],[-57.33225,-23.497869],[-57.333711,-23.49694],[-57.334742,-23.496753],[-57.33592,-23.49757],[-57.338705,-23.498754],[-57.341578,-23.500969],[-57.342844,-23.502712],[-57.343965,-23.503556],[-57.345802,-23.504266],[-57.346949,-23.504316],[-57.350015,-23.503621],[-57.351077,-23.503857],[-57.355159,-23.507709],[-57.356337,-23.508447],[-57.362047,-23.509491],[-57.363968,-23.509328],[-57.365829,-23.508293],[-57.366714,-23.506836],[-57.370897,-23.505557],[-57.374151,-23.505371],[-57.374737,-23.504542],[-57.375105,-23.503034],[-57.374552,-23.500021],[-57.375351,-23.498644],[-57.376524,-23.497768],[-57.377757,-23.497818],[-57.384416,-23.499706],[-57.390269,-23.500987],[-57.392738,-23.50188],[-57.393799,-23.501877],[-57.394999,-23.500393],[-57.395196,-23.499388],[-57.394532,-23.497591],[-57.39418,-23.495027],[-57.394462,-23.493466],[-57.396983,-23.492772],[-57.399307,-23.493136],[-57.401491,-23.494717],[-57.402792,-23.498416],[-57.403768,-23.498705],[-57.404455,-23.498386],[-57.405683,-23.496558],[-57.405817,-23.493437],[-57.408153,-23.488644],[-57.408515,-23.484967],[-57.409516,-23.484171],[-57.410662,-23.483956],[-57.415337,-23.484393],[-57.418574,-23.483644],[-57.42401,-23.479821],[-57.427419,-23.478992],[-57.438194,-23.477587]]]}}]}
