{"type":"FeatureCollection","name":"distrito","features":[{"type":"Feature","properties":{"clave":"7-35","nombre":"Mayor Julio Dionisio Otaño"},"geometry":{"type":"Polygon","coordinates":[[[-54.680106,-26.353519],[-54.696503,-26.37757],[-54.697847,-26.382193],[-54.696584,-26.396652],[-54.696461,-26.404361],[-54.6992,-26.403987],[-54.757987,-26.353909],[-54.758367,-26.352712],[-54.762849,-26.347881],[-54.908362,-26.220952],[-54.908377,-26.22019],[-54.909411,-26.218364],[-54.912338,-26.21693],[-54.914747,-26.214465],[-54.917488,-26.213395],[-54.91755,-26.2128],[-54.917204,-26.212244],[-54.915733,-26.211122],[-54.913687,-26.210122],[-54.912228,-26.209889],[-54.909448,-26.210602],[-54.902827,-26.207852],[-54.903159,-26.206629],[-54.903731,-26.206073],[-54.905111,-26.206048],[-54.906716,-26.205616],[-54.907774,-26.206385],[-54.908158,-26.20575],[-54.911356,-26.204668],[-54.912667,-26.203649],[-54.914135,-26.203855],[-54.914809,-26.202904],[-54.915486,-26.202544],[-54.917883,-26.202745],[-54.918202,-26.203621],[-54.918706,-26.20356],[-54.919578,-26.202111],[-54.919523,-26.201027],[-54.917237,-26.197221],[-54.917059,-26.196366],[-54.915647,-26.196724],[-54.913284,-26.196753],[-54.911959,-26.195922],[-54.910953,-26.195695],[-54.910455,-26.194767],[-54.911262,-26.194255],[-54.916571,-26.192906],[-54.917174,-26.190843],[-54.91648,-26.189696],[-54.913886,-26.189415],[-54.911874,-26.187878],[-54.9115,-26.185634],[-54.911866,-26.182214],[-54.911672,-26.181783],[-54.910381,-26.18185],[-54.908814,-26.180631],[-54.908206,-26.180631],[-54.907256,-26.183379],[-54.90629,-26.184512],[-54.905429,-26.187888],[-54.905624,-26.189778],[-54.905089,-26.190415],[-54.90643,-26.19052],[-54.906448,-26.191121],[-54.903707,-26.194502],[-54.901755,-26.194419],[-54.901403,-26.193606],[-54.900084,-26.193018],[-54.899674,-26.193671],[-54.89944,-26.195446],[-54.899819,-26.197681],[-54.898433,-26.199759],[-54.896717,-26.199134],[-54.896577,-26.195715],[-54.892716,-26.196286],[-54.891284,-26.195358],[-54.893391,-26.193223],[-54.893609,-26.19282],[-54.893334,-26.192464],[-54.887782,-26.194454],[-54.885108,-26.194848],[-54.883462,-26.195491],[-54.88309,-26.195332],[-54.88321,-26.194608],[-54.882836,-26.193912],[-54.882067,-26.193129],[-54.879386,-26.193401],[-54.878782,-26.193924],[-54.876875,-26.193941],[-54.873721,-26.191877],[-54.870696,-26.190632],[-54.871066,-26.185132],[-54.873854,-26.184821],[-54.874271,-26.184426],[-54.874282,-26.18258],[-54.873868,-26.181012],[-54.874831,-26.177249],[-54.87487,-26.175079],[-54.874546,-26.174194],[-54.871168,-26.175751],[-54.869582,-26.176116],[-54.86645,-26.178366],[-54.866159,-26.180172],[-54.864546,-26.181154],[-54.862686,-26.181497],[-54.861479,-26.180905],[-54.860697,-26.179924],[-54.856782,-26.181003],[-54.856753,-26.182712],[-54.858694,-26.185643],[-54.858169,-26.186511],[-54.856527,-26.18761],[-54.855418,-26.188875],[-54.85265,-26.187647],[-54.850429,-26.187763],[-54.848561,-26.1875],[-54.846638,-26.18623],[-54.845963,-26.186127],[-54.845183,-26.186415],[-54.844078,-26.188175],[-54.843553,-26.188006],[-54.842707,-26.186865],[-54.843696,-26.185223],[-54.843668,-26.180817],[-54.840896,-26.178999],[-54.839985,-26.179208],[-54.837163,-26.180388],[-54.836812,-26.180781],[-54.838009,-26.182425],[-54.837978,-26.184133],[-54.840079,-26.185966],[-54.839951,-26.188221],[-54.839372,-26.188818],[-54.835173,-26.190298],[-54.834505,-26.194155],[-54.833982,-26.194479],[-54.829863,-26.194717],[-54.829495,-26.195053],[-54.82951,-26.19582],[-54.830541,-26.198113],[-54.831954,-26.199247],[-54.833986,-26.200179],[-54.835988,-26.20331],[-54.835339,-26.203627],[-54.832141,-26.202791],[-54.830014,-26.202697],[-54.826779,-26.201012],[-54.825685,-26.20126],[-54.823329,-26.202638],[-54.819964,-26.203358],[-54.820064,-26.203857],[-54.822136,-26.205348],[-54.82687,-26.206351],[-54.827248,-26.206683],[-54.827013,-26.208207],[-54.827985,-26.209941],[-54.827937,-26.210354],[-54.825315,-26.211588],[-54.823337,-26.212076],[-54.821392,-26.211435],[-54.820456,-26.209573],[-54.816029,-26.209423],[-54.81312,-26.208457],[-54.811501,-26.207262],[-54.808355,-26.207919],[-54.808235,-26.20728],[-54.810143,-26.204379],[-54.812024,-26.19893],[-54.813132,-26.197684],[-54.816406,-26.195362],[-54.817242,-26.193905],[-54.817414,-26.192996],[-54.816726,-26.191427],[-54.814669,-26.189703],[-54.810914,-26.189506],[-54.81071,-26.189726],[-54.810974,-26.191226],[-54.811807,-26.192393],[-54.81203,-26.193655],[-54.812849,-26.194998],[-54.812698,-26.19542],[-54.811983,-26.195564],[-54.810416,-26.195287],[-54.807728,-26.1939],[-54.804883,-26.192893],[-54.804038,-26.192958],[-54.802865,-26.193706],[-54.800165,-26.196621],[-54.799779,-26.197905],[-54.800521,-26.199371],[-54.800107,-26.200643],[-54.798492,-26.201685],[-54.792863,-26.203757],[-54.792565,-26.204343],[-54.793258,-26.205306],[-54.792945,-26.206109],[-54.789258,-26.205607],[-54.786789,-26.205693],[-54.782234,-26.208025],[-54.781922,-26.209061],[-54.782206,-26.210691],[-54.784397,-26.213531],[-54.785802,-26.217834],[-54.785778,-26.218786],[-54.784612,-26.222744],[-54.7842,-26.223312],[-54.782328,-26.224241],[-54.779939,-26.223407],[-54.779473,-26.223457],[-54.779259,-26.223826],[-54.780029,-26.225013],[-54.78304,-26.226939],[-54.783976,-26.22964],[-54.780759,-26.231289],[-54.778843,-26.234536],[-54.778241,-26.23665],[-54.77634,-26.236693],[-54.775848,-26.238424],[-54.77407,-26.237719],[-54.773619,-26.237883],[-54.774078,-26.239381],[-54.773528,-26.239967],[-54.771743,-26.239329],[-54.769529,-26.237721],[-54.77001,-26.235368],[-54.769474,-26.234003],[-54.767867,-26.234553],[-54.762297,-26.234383],[-54.761799,-26.234908],[-54.761512,-26.236416],[-54.761934,-26.237737],[-54.762663,-26.238349],[-54.762325,-26.241595],[-54.761487,-26.244279],[-54.76167,-26.24495],[-54.763247,-26.245627],[-54.763785,-26.246914],[-54.762657,-26.249423],[-54.761841,-26.249167],[-54.76037,-26.24773],[-54.755313,-26.241418],[-54.752942,-26.240558],[-54.750903,-26.242411],[-54.748999,-26.243494],[-54.749064,-26.245498],[-54.74875,-26.246291],[-54.745515,-26.249092],[-54.745539,-26.249647],[-54.746196,-26.250087],[-54.746114,-26.2505],[-54.74503,-26.250736],[-54.743715,-26.250441],[-54.74297,-26.249202],[-54.744153,-26.246809],[-54.74423,-26.245164],[-54.740406,-26.238674],[-54.740399,-26.237561],[-54.741084,-26.235708],[-54.740957,-26.234836],[-54.740522,-26.234782],[-54.734855,-26.237794],[-54.734194,-26.239622],[-54.733411,-26.240334],[-54.733988,-26.242564],[-54.734232,-26.248035],[-54.731735,-26.250366],[-54.729708,-26.251556],[-54.727957,-26.252155],[-54.726631,-26.253314],[-54.725899,-26.254648],[-54.726188,-26.25691],[-54.725949,-26.257108],[-54.724065,-26.25684],[-54.719388,-26.255275],[-54.718999,-26.254865],[-54.719322,-26.253576],[-54.721954,-26.249752],[-54.722172,-26.248375],[-54.719646,-26.244815],[-54.718348,-26.241923],[-54.715912,-26.237715],[-54.714472,-26.236208],[-54.71348,-26.236075],[-54.709917,-26.23744],[-54.709665,-26.238168],[-54.709993,-26.241376],[-54.708543,-26.243893],[-54.708723,-26.246035],[-54.705954,-26.247869],[-54.705927,-26.248483],[-54.706836,-26.248939],[-54.705339,-26.251496],[-54.704078,-26.252594],[-54.700844,-26.253909],[-54.70022,-26.254541],[-54.699666,-26.255809],[-54.699127,-26.255973],[-54.697881,-26.254408],[-54.697312,-26.252721],[-54.697692,-26.250546],[-54.699068,-26.248324],[-54.700472,-26.24346],[-54.700362,-26.23971],[-54.699661,-26.238429],[-54.700117,-26.237021],[-54.700942,-26.235944],[-54.702681,-26.235468],[-54.703326,-26.234981],[-54.703892,-26.23343],[-54.705076,-26.231606],[-54.705613,-26.229579],[-54.705077,-26.229225],[-54.701364,-26.229276],[-54.696857,-26.22881],[-54.693168,-26.228075],[-54.692529,-26.228272],[-54.691686,-26.231827],[-54.690553,-26.233513],[-54.689439,-26.234017],[-54.68678,-26.234269],[-54.685058,-26.235171],[-54.683584,-26.236454],[-54.68114,-26.237721],[-54.678613,-26.239576],[-54.675279,-26.243516],[-54.674912,-26.24606],[-54.675193,-26.250436],[-54.673917,-26.252495],[-54.67229,-26.254155],[-54.674703,-26.256877],[-54.678526,-26.262466],[-54.679372,-26.266532],[-54.679341,-26.270979],[-54.678302,-26.274219],[-54.67489,-26.278456],[-54.670583,-26.281592],[-54.666064,-26.283846],[-54.663388,-26.285715],[-54.661513,-26.287701],[-54.659766,-26.291861],[-54.658107,-26.294471],[-54.652065,-26.298251],[-54.648981,-26.30606],[-54.648161,-26.309769],[-54.648916,-26.314953],[-54.651953,-26.320846],[-54.664471,-26.331805],[-54.674555,-26.344069],[-54.680106,-26.353519]]]}}]}
