{"type":"FeatureCollection","name":"distrito","features":[{"type":"Feature","properties":{"clave":"5-33","nombre":"Simón Bolivar"},"geometry":{"type":"Polygon","coordinates":[[[-56.318141,-25.095167],[-56.316406,-25.096256],[-56.312498,-25.097303],[-56.308734,-25.098934],[-56.306349,-25.099144],[-56.305076,-25.100163],[-56.302789,-25.102794],[-56.307802,-25.128555],[-56.308038,-25.14076],[-56.31194,-25.141749],[-56.312849,-25.141636],[-56.31354,-25.141021],[-56.316538,-25.136108],[-56.319001,-25.134688],[-56.320588,-25.134547],[-56.321864,-25.134995],[-56.324127,-25.134084],[-56.325242,-25.134049],[-56.325858,-25.134227],[-56.326308,-25.135236],[-56.32853,-25.135915],[-56.329066,-25.135547],[-56.329613,-25.134267],[-56.331539,-25.134231],[-56.333356,-25.132798],[-56.334662,-25.132168],[-56.342626,-25.131621],[-56.346257,-25.130264],[-56.346834,-25.128632],[-56.349057,-25.126398],[-56.350534,-25.124377],[-56.350834,-25.1231],[-56.351996,-25.122762],[-56.352739,-25.122057],[-56.353376,-25.119707],[-56.354469,-25.1195],[-56.355018,-25.118947],[-56.356186,-25.116342],[-56.356071,-25.114711],[-56.35803,-25.112629],[-56.358865,-25.112159],[-56.368262,-25.110194],[-56.368687,-25.109704],[-56.368635,-25.108837],[-56.369417,-25.107639],[-56.371074,-25.107285],[-56.371977,-25.106584],[-56.372728,-25.10694],[-56.373222,-25.106129],[-56.374137,-25.105704],[-56.37443,-25.104612],[-56.375941,-25.103829],[-56.376322,-25.102981],[-56.377561,-25.102138],[-56.379,-25.101688],[-56.380816,-25.101853],[-56.382054,-25.101217],[-56.382236,-25.099818],[-56.385804,-25.096808],[-56.385856,-25.096027],[-56.387448,-25.095234],[-56.388133,-25.094068],[-56.389447,-25.09359],[-56.391237,-25.093733],[-56.392981,-25.092733],[-56.394647,-25.092509],[-56.395759,-25.091873],[-56.396894,-25.091877],[-56.39836,-25.091125],[-56.403053,-25.090548],[-56.404541,-25.090644],[-56.409653,-25.093279],[-56.411349,-25.091475],[-56.416027,-25.088098],[-56.41666,-25.087346],[-56.417396,-25.085791],[-56.419851,-25.083322],[-56.42112,-25.08092],[-56.42507,-25.075842],[-56.426594,-25.072548],[-56.429376,-25.070106],[-56.433619,-25.068312],[-56.43506,-25.066918],[-56.435493,-25.065655],[-56.437315,-25.063716],[-56.438754,-25.063103],[-56.439561,-25.063151],[-56.441608,-25.061781],[-56.442515,-25.061947],[-56.4461,-25.060972],[-56.447142,-25.057951],[-56.448939,-25.055916],[-56.450276,-25.055691],[-56.455646,-25.05642],[-56.458951,-25.055768],[-56.461752,-25.054839],[-56.466349,-25.052264],[-56.46683,-25.051877],[-56.467592,-25.049907],[-56.467367,-25.048921],[-56.468027,-25.047659],[-56.475629,-25.043194],[-56.478379,-25.04263],[-56.480222,-25.041697],[-56.481741,-25.039589],[-56.484444,-25.037698],[-56.485589,-25.035159],[-56.489441,-25.032861],[-56.521852,-25.018275],[-56.524343,-25.019232],[-56.525053,-25.02016],[-56.527364,-25.021093],[-56.528115,-25.0204],[-56.527854,-25.019613],[-56.528284,-25.019208],[-56.529337,-25.019356],[-56.530122,-25.020022],[-56.530623,-25.019875],[-56.530769,-25.019044],[-56.531752,-25.019689],[-56.532155,-25.019663],[-56.532137,-25.018353],[-56.532997,-25.017507],[-56.533505,-25.017527],[-56.533394,-25.016759],[-56.536562,-25.016529],[-56.537669,-25.01735],[-56.53985,-25.017384],[-56.541502,-25.01827],[-56.541966,-25.01781],[-56.542816,-25.017809],[-56.543094,-25.017344],[-56.543934,-25.01699],[-56.543183,-25.01632],[-56.544724,-25.015832],[-56.544968,-25.014754],[-56.546351,-25.014893],[-56.546392,-25.015639],[-56.547227,-25.015903],[-56.547266,-25.016612],[-56.547544,-25.016717],[-56.548698,-25.016467],[-56.548794,-25.016012],[-56.549567,-25.016037],[-56.549457,-25.015142],[-56.550094,-25.015167],[-56.550926,-25.015707],[-56.551197,-25.015075],[-56.551969,-25.014495],[-56.554615,-25.014377],[-56.555336,-25.012992],[-56.556708,-25.011791],[-56.558258,-25.011926],[-56.559515,-25.010964],[-56.560428,-25.010827],[-56.560975,-25.011637],[-56.56163,-25.010898],[-56.562692,-25.010689],[-56.563009,-25.011629],[-56.564242,-25.011928],[-56.564471,-24.997292],[-56.562554,-24.997187],[-56.561772,-24.997573],[-56.558616,-24.997568],[-56.558194,-24.998253],[-56.55643,-24.998722],[-56.554616,-24.999905],[-56.553262,-24.999937],[-56.550371,-25.001549],[-56.549637,-25.001569],[-56.548132,-25.002373],[-56.545367,-25.00315],[-56.529874,-25.003373],[-56.51948,-25.003886],[-56.427745,-24.944428],[-56.427372,-24.944896],[-56.426282,-24.945375],[-56.426399,-24.945881],[-56.425956,-24.946358],[-56.425378,-24.946193],[-56.425156,-24.946576],[-56.424361,-24.94688],[-56.423307,-24.946682],[-56.422032,-24.947887],[-56.421165,-24.947951],[-56.420864,-24.948998],[-56.419673,-24.949806],[-56.418333,-24.9519],[-56.418181,-24.953173],[-56.418687,-24.953356],[-56.419132,-24.954843],[-56.418182,-24.957774],[-56.417792,-24.958197],[-56.417868,-24.959006],[-56.41829,-24.959346],[-56.418126,-24.960045],[-56.418563,-24.960417],[-56.418078,-24.960957],[-56.417813,-24.961882],[-56.418002,-24.962483],[-56.417563,-24.963606],[-56.417001,-24.964606],[-56.416566,-24.964749],[-56.416606,-24.965363],[-56.415728,-24.966163],[-56.415786,-24.967152],[-56.414846,-24.967772],[-56.414256,-24.969029],[-56.413517,-24.969595],[-56.412636,-24.969303],[-56.411315,-24.969551],[-56.409779,-24.968858],[-56.408447,-24.969174],[-56.406666,-24.970074],[-56.40525,-24.970064],[-56.404742,-24.970951],[-56.404722,-24.972211],[-56.403954,-24.973423],[-56.402609,-24.973517],[-56.401599,-24.973219],[-56.400695,-24.973784],[-56.400084,-24.973786],[-56.400077,-24.974355],[-56.399146,-24.97488],[-56.398359,-24.974949],[-56.397878,-24.974536],[-56.397392,-24.97518],[-56.396061,-24.975161],[-56.395998,-24.976294],[-56.39665,-24.976328],[-56.39585,-24.97768],[-56.396694,-24.978049],[-56.39643,-24.979159],[-56.397141,-24.979541],[-56.39805,-24.982972],[-56.397644,-24.983047],[-56.396684,-24.982546],[-56.395164,-24.983023],[-56.393268,-24.984803],[-56.392547,-24.984602],[-56.3914,-24.983148],[-56.390625,-24.983321],[-56.390375,-24.98383],[-56.388741,-24.98381],[-56.388499,-24.984242],[-56.387797,-24.984402],[-56.387822,-24.985386],[-56.387411,-24.986003],[-56.387924,-24.986628],[-56.387066,-24.987311],[-56.386143,-24.987271],[-56.385812,-24.987545],[-56.383837,-24.987253],[-56.383187,-24.988031],[-56.383441,-24.989116],[-56.382541,-24.989284],[-56.382423,-24.98978],[-56.380519,-24.989966],[-56.379512,-24.988047],[-56.375088,-24.985704],[-56.374864,-24.986023],[-56.373921,-24.985762],[-56.373318,-24.984314],[-56.371354,-24.98315],[-56.370779,-24.984155],[-56.370912,-24.985076],[-56.370004,-24.986269],[-56.36831,-24.98581],[-56.367616,-24.986403],[-56.367305,-24.986231],[-56.363868,-24.986798],[-56.361595,-24.986734],[-56.359769,-24.987237],[-56.357292,-24.988671],[-56.355792,-24.990028],[-56.351594,-24.995099],[-56.348665,-24.995208],[-56.34768,-24.995587],[-56.344979,-24.994763],[-56.344382,-24.993785],[-56.339304,-24.990042],[-56.339058,-24.98926],[-56.338097,-24.988601],[-56.337846,-24.988076],[-56.336623,-24.987822],[-56.335914,-24.987245],[-56.334399,-24.986846],[-56.333138,-24.987111],[-56.331546,-24.986566],[-56.329723,-24.987231],[-56.328716,-24.986937],[-56.32865,-24.986671],[-56.327955,-24.986668],[-56.326913,-24.988085],[-56.324764,-24.988315],[-56.323595,-24.98789],[-56.323527,-24.986399],[-56.322318,-24.98643],[-56.322065,-24.985164],[-56.321219,-24.985504],[-56.320937,-24.984292],[-56.320216,-24.984117],[-56.319596,-24.984512],[-56.317174,-24.984596],[-56.315967,-24.985191],[-56.315558,-24.987316],[-56.314695,-24.988337],[-56.313525,-24.988661],[-56.312609,-24.9883],[-56.312287,-24.988655],[-56.31173,-24.988661],[-56.311459,-24.988258],[-56.309314,-24.988528],[-56.308008,-24.989195],[-56.308076,-24.98957],[-56.30762,-24.989672],[-56.307513,-24.989997],[-56.306969,-24.989619],[-56.306276,-24.990068],[-56.305452,-24.99001],[-56.305633,-24.989432],[-56.305183,-24.989114],[-56.304915,-24.989623],[-56.304674,-24.98904],[-56.304136,-24.989389],[-56.304296,-24.988519],[-56.304038,-24.987492],[-56.303564,-24.987585],[-56.303137,-24.987267],[-56.303147,-24.987786],[-56.300964,-24.988747],[-56.299598,-24.989941],[-56.298938,-24.990814],[-56.298539,-24.992298],[-56.29715,-24.993348],[-56.296519,-24.996826],[-56.295797,-24.997491],[-56.296652,-24.998805],[-56.294996,-24.99956],[-56.294886,-25.001641],[-56.294116,-25.002396],[-56.29201,-25.002404],[-56.290951,-25.001672],[-56.290394,-25.001624],[-56.289686,-25.000758],[-56.289089,-25.000539],[-56.288812,-24.999124],[-56.286247,-24.99922],[-56.285429,-24.999568],[-56.284019,-25.002293],[-56.282535,-25.001252],[-56.281983,-24.999913],[-56.281294,-24.99995],[-56.280433,-24.999273],[-56.279131,-24.999082],[-56.277067,-24.999826],[-56.276083,-24.999492],[-56.273157,-25.001893],[-56.273376,-25.002269],[-56.273101,-25.00252],[-56.273103,-25.003387],[-56.271926,-25.00372],[-56.270511,-25.005732],[-56.26943,-25.006575],[-56.267191,-25.007779],[-56.265868,-25.00807],[-56.265004,-25.00919],[-56.263198,-25.009285],[-56.261789,-25.010078],[-56.261446,-25.010871],[-56.258854,-25.013029],[-56.258155,-25.015667],[-56.257729,-25.016279],[-56.255471,-25.017307],[-56.251694,-25.017265],[-56.248364,-25.016761],[-56.247096,-25.015856],[-56.245832,-25.015605],[-56.245259,-25.01483],[-56.243485,-25.014844],[-56.241247,-25.014444],[-56.240513,-25.013637],[-56.240133,-25.012118],[-56.238208,-25.010952],[-56.237087,-25.010883],[-56.236199,-25.010431],[-56.235015,-25.009003],[-56.234114,-25.008578],[-56.233419,-25.007437],[-56.231591,-25.00675],[-56.230933,-25.007745],[-56.229549,-25.007792],[-56.229222,-25.006937],[-56.227505,-25.006702],[-56.227165,-25.006348],[-56.225756,-25.006047],[-56.224757,-25.006078],[-56.223413,-25.005222],[-56.221909,-25.005084],[-56.220325,-25.004046],[-56.217892,-25.003103],[-56.216828,-25.00307],[-56.215572,-25.002011],[-56.21394,-25.001633],[-56.213005,-25.000598],[-56.210234,-24.999549],[-56.208789,-24.999537],[-56.208166,-25.000514],[-56.207752,-25.000679],[-56.205867,-25.00079],[-56.205195,-25.000277],[-56.202757,-25.000945],[-56.201472,-25.000875],[-56.200527,-25.000387],[-56.198972,-25.000717],[-56.197852,-24.999235],[-56.197891,-24.998481],[-56.197361,-24.998185],[-56.19802,-24.997371],[-56.196702,-24.995504],[-56.196223,-24.99425],[-56.193422,-24.99279],[-56.19186,-24.99094],[-56.189125,-24.988897],[-56.18713,-24.988819],[-56.184123,-24.98696],[-56.182899,-24.98712],[-56.181891,-24.988384],[-56.178745,-24.990064],[-56.177678,-24.99018],[-56.176777,-24.989647],[-56.175901,-24.989624],[-56.173392,-24.990536],[-56.168614,-24.993015],[-56.165209,-24.99324],[-56.162146,-24.993818],[-56.16094,-24.993238],[-56.158281,-24.992641],[-56.156118,-24.992678],[-56.156112,-24.993589],[-56.155001,-24.994688],[-56.153456,-24.994981],[-56.153846,-25.002419],[-56.152818,-25.007538],[-56.151577,-25.011651],[-56.151456,-25.013258],[-56.146249,-25.016745],[-56.141954,-25.049132],[-56.14278,-25.048487],[-56.143716,-25.048424],[-56.144626,-25.049351],[-56.147243,-25.050937],[-56.151265,-25.052739],[-56.1548,-25.056416],[-56.157002,-25.057571],[-56.159079,-25.057728],[-56.162243,-25.057289],[-56.164254,-25.058262],[-56.165717,-25.058031],[-56.168103,-25.058207],[-56.172118,-25.059932],[-56.174663,-25.059224],[-56.17596,-25.060139],[-56.178804,-25.060764],[-56.181567,-25.060445],[-56.184908,-25.058779],[-56.187167,-25.058656],[-56.190046,-25.059963],[-56.193138,-25.062504],[-56.195676,-25.063552],[-56.196439,-25.063484],[-56.2033,-25.058527],[-56.206547,-25.057564],[-56.207751,-25.056821],[-56.21003,-25.056346],[-56.213338,-25.054697],[-56.2174,-25.051833],[-56.219951,-25.051138],[-56.223337,-25.051052],[-56.230722,-25.04974],[-56.23353,-25.048739],[-56.234741,-25.047914],[-56.235517,-25.046812],[-56.236302,-25.046274],[-56.241149,-25.044114],[-56.243203,-25.04211],[-56.245487,-25.03925],[-56.249408,-25.036872],[-56.253814,-25.035441],[-56.257783,-25.035682],[-56.259717,-25.035204],[-56.259984,-25.034921],[-56.259912,-25.033751],[-56.260626,-25.032897],[-56.261075,-25.031449],[-56.261672,-25.031078],[-56.262853,-25.030934],[-56.264388,-25.039726],[-56.267466,-25.051515],[-56.279472,-25.055281],[-56.280364,-25.059192],[-56.282905,-25.059204],[-56.289676,-25.063736],[-56.296413,-25.066493],[-56.299583,-25.066879],[-56.303656,-25.067972],[-56.306333,-25.078001],[-56.308921,-25.083597],[-56.318141,-25.095167]]]}}]}
