{"type":"FeatureCollection","name":"distrito","features":[{"type":"Feature","properties":{"clave":"10-25","nombre":"Presidente Franco"},"geometry":{"type":"Polygon","coordinates":[[[-54.583424,-25.651029],[-54.582468,-25.652836],[-54.581288,-25.657189],[-54.581112,-25.66021],[-54.581472,-25.662301],[-54.582585,-25.664142],[-54.584558,-25.666048],[-54.586032,-25.66706],[-54.588488,-25.667832],[-54.597548,-25.668866],[-54.604968,-25.668573],[-54.606987,-25.668191],[-54.609589,-25.667448],[-54.611163,-25.666332],[-54.618584,-25.663015],[-54.630777,-25.659721],[-54.636244,-25.65934],[-54.640653,-25.66002],[-54.645153,-25.661235],[-54.647169,-25.657838],[-54.711841,-25.57637],[-54.71189,-25.576089],[-54.707896,-25.574802],[-54.707136,-25.574185],[-54.706494,-25.572812],[-54.706189,-25.571312],[-54.706655,-25.570634],[-54.706248,-25.569102],[-54.703911,-25.545314],[-54.678765,-25.545601],[-54.678819,-25.54602],[-54.677756,-25.546436],[-54.676935,-25.545393],[-54.676571,-25.54569],[-54.676399,-25.545458],[-54.671726,-25.545491],[-54.671158,-25.5449],[-54.670273,-25.545373],[-54.669726,-25.544692],[-54.669018,-25.545459],[-54.668262,-25.545459],[-54.667078,-25.546723],[-54.666529,-25.546345],[-54.665969,-25.545234],[-54.665452,-25.545414],[-54.665112,-25.544656],[-54.661264,-25.545806],[-54.660927,-25.544977],[-54.658793,-25.545681],[-54.658467,-25.544951],[-54.657492,-25.545196],[-54.657317,-25.54485],[-54.653394,-25.545989],[-54.652703,-25.546624],[-54.651511,-25.547037],[-54.651425,-25.546558],[-54.649256,-25.546673],[-54.64913,-25.545942],[-54.647305,-25.545556],[-54.644686,-25.54655],[-54.643815,-25.545251],[-54.642824,-25.545922],[-54.642334,-25.545098],[-54.639854,-25.546336],[-54.635997,-25.545678],[-54.633555,-25.544305],[-54.630986,-25.543672],[-54.629342,-25.542792],[-54.627281,-25.542427],[-54.625877,-25.542559],[-54.625181,-25.542121],[-54.623375,-25.542023],[-54.61968,-25.539511],[-54.61924,-25.538583],[-54.61818,-25.537965],[-54.617353,-25.537975],[-54.616878,-25.538392],[-54.616072,-25.538354],[-54.615861,-25.538727],[-54.615057,-25.538888],[-54.614005,-25.540097],[-54.61402,-25.54152],[-54.61348,-25.542216],[-54.613505,-25.542952],[-54.612684,-25.54362],[-54.612558,-25.544322],[-54.611707,-25.545284],[-54.610469,-25.546144],[-54.61046,-25.547239],[-54.610027,-25.547752],[-54.608058,-25.547274],[-54.606533,-25.545914],[-54.606113,-25.545891],[-54.605503,-25.546457],[-54.60585,-25.548497],[-54.603233,-25.550053],[-54.601096,-25.550264],[-54.600168,-25.552193],[-54.600219,-25.553283],[-54.599452,-25.554082],[-54.599252,-25.554777],[-54.595812,-25.553378],[-54.593631,-25.553535],[-54.595202,-25.559341],[-54.594987,-25.567203],[-54.593836,-25.578849],[-54.593512,-25.589264],[-54.593674,-25.592651],[-54.595678,-25.601592],[-54.596519,-25.608375],[-54.596506,-25.611867],[-54.595948,-25.616755],[-54.596913,-25.62307],[-54.596702,-25.624994],[-54.59517,-25.629761],[-54.590953,-25.639484],[-54.588333,-25.644079],[-54.583424,-25.651029]]]}}]}
