{"type":"FeatureCollection","name":"distrito","features":[{"type":"Feature","properties":{"clave":"3-21","nombre":"Loma Grande"},"geometry":{"type":"Polygon","coordinates":[[[-57.222608,-25.209927],[-57.225814,-25.210066],[-57.227189,-25.209283],[-57.228981,-25.209705],[-57.23077,-25.21079],[-57.231908,-25.210892],[-57.249927,-25.208582],[-57.251595,-25.210503],[-57.252557,-25.211048],[-57.252997,-25.210591],[-57.253401,-25.210816],[-57.253989,-25.210585],[-57.254448,-25.21104],[-57.254988,-25.210881],[-57.255935,-25.211119],[-57.256452,-25.211678],[-57.257018,-25.211532],[-57.257953,-25.212172],[-57.258967,-25.212265],[-57.259824,-25.212742],[-57.2618,-25.212138],[-57.265493,-25.213247],[-57.266827,-25.213439],[-57.267014,-25.212912],[-57.26705,-25.212232],[-57.259717,-25.202271],[-57.258687,-25.1998],[-57.257584,-25.199814],[-57.256644,-25.197119],[-57.255303,-25.197465],[-57.253822,-25.194365],[-57.254402,-25.194058],[-57.251486,-25.190288],[-57.250802,-25.188984],[-57.247479,-25.180365],[-57.243847,-25.16678],[-57.242445,-25.166928],[-57.238466,-25.16235],[-57.234251,-25.158198],[-57.234475,-25.153385],[-57.235992,-25.152194],[-57.235949,-25.150117],[-57.233894,-25.148197],[-57.234021,-25.146978],[-57.232714,-25.145002],[-57.232716,-25.144063],[-57.232064,-25.142497],[-57.233129,-25.14189],[-57.232767,-25.139665],[-57.236756,-25.138221],[-57.243169,-25.141201],[-57.245582,-25.14276],[-57.248253,-25.143306],[-57.251403,-25.144493],[-57.255363,-25.14374],[-57.255215,-25.143308],[-57.254302,-25.142682],[-57.254042,-25.140609],[-57.253659,-25.14033],[-57.252239,-25.140608],[-57.25196,-25.139552],[-57.250402,-25.138412],[-57.250268,-25.137722],[-57.250988,-25.13684],[-57.250918,-25.136226],[-57.249525,-25.135339],[-57.249388,-25.13463],[-57.248869,-25.134355],[-57.248927,-25.133213],[-57.247834,-25.132172],[-57.247267,-25.130994],[-57.246287,-25.130792],[-57.245071,-25.130063],[-57.242394,-25.129927],[-57.241394,-25.128836],[-57.240096,-25.128202],[-57.23961,-25.127652],[-57.239826,-25.125877],[-57.238551,-25.125779],[-57.238186,-25.125003],[-57.236292,-25.124325],[-57.235821,-25.122682],[-57.236578,-25.121665],[-57.237002,-25.120124],[-57.235912,-25.118907],[-57.236095,-25.117741],[-57.23521,-25.116126],[-57.232365,-25.114984],[-57.232019,-25.114289],[-57.232236,-25.113973],[-57.23167,-25.113526],[-57.232017,-25.112934],[-57.231817,-25.110496],[-57.230021,-25.110332],[-57.229727,-25.109786],[-57.228867,-25.109471],[-57.228525,-25.107232],[-57.227509,-25.104728],[-57.227161,-25.104651],[-57.226281,-25.105226],[-57.22594,-25.104437],[-57.222455,-25.100536],[-57.222432,-25.099954],[-57.222981,-25.099072],[-57.225338,-25.097637],[-57.227177,-25.095616],[-57.227731,-25.095507],[-57.228035,-25.094915],[-57.228394,-25.094865],[-57.228327,-25.09407],[-57.228804,-25.093378],[-57.228449,-25.092218],[-57.227884,-25.09226],[-57.224726,-25.090355],[-57.222461,-25.091568],[-57.22231,-25.09118],[-57.221696,-25.090919],[-57.221522,-25.091606],[-57.221071,-25.091801],[-57.220844,-25.091173],[-57.221269,-25.090441],[-57.220104,-25.090294],[-57.220066,-25.089942],[-57.220642,-25.090054],[-57.220792,-25.08971],[-57.220027,-25.08912],[-57.219289,-25.089807],[-57.218149,-25.089787],[-57.218036,-25.089534],[-57.218536,-25.088883],[-57.216744,-25.088624],[-57.216517,-25.088132],[-57.215941,-25.088155],[-57.2156,-25.087817],[-57.214512,-25.087886],[-57.213946,-25.086469],[-57.212406,-25.086657],[-57.211996,-25.08616],[-57.21114,-25.086473],[-57.211465,-25.085723],[-57.210701,-25.085666],[-57.210162,-25.085779],[-57.209925,-25.086398],[-57.209285,-25.08569],[-57.209684,-25.084764],[-57.209558,-25.084114],[-57.208483,-25.085131],[-57.207742,-25.084482],[-57.207742,-25.083949],[-57.2064,-25.083175],[-57.20572,-25.083699],[-57.204476,-25.08362],[-57.204418,-25.084388],[-57.203746,-25.084005],[-57.203377,-25.084723],[-57.202101,-25.085357],[-57.201969,-25.085899],[-57.199108,-25.085515],[-57.198147,-25.086225],[-57.19785,-25.085968],[-57.196896,-25.085942],[-57.196182,-25.086855],[-57.195166,-25.086125],[-57.194703,-25.086112],[-57.194258,-25.08688],[-57.192704,-25.087803],[-57.19318,-25.089058],[-57.192501,-25.090517],[-57.191684,-25.09102],[-57.191361,-25.091639],[-57.191839,-25.092505],[-57.190641,-25.093012],[-57.189999,-25.094436],[-57.188855,-25.094825],[-57.189568,-25.097191],[-57.187126,-25.097916],[-57.18658,-25.098901],[-57.185512,-25.099277],[-57.185302,-25.100285],[-57.184713,-25.100362],[-57.183684,-25.099853],[-57.182713,-25.100238],[-57.181409,-25.099747],[-57.179207,-25.101439],[-57.178355,-25.10144],[-57.178128,-25.100483],[-57.177852,-25.100379],[-57.176839,-25.10118],[-57.174997,-25.101214],[-57.172843,-25.102038],[-57.170629,-25.104438],[-57.170444,-25.106276],[-57.171134,-25.107188],[-57.171173,-25.10786],[-57.169671,-25.108806],[-57.169357,-25.108752],[-57.169106,-25.107998],[-57.168792,-25.107962],[-57.16615,-25.109316],[-57.166364,-25.109735],[-57.167892,-25.109291],[-57.16808,-25.109458],[-57.168082,-25.110713],[-57.167711,-25.11126],[-57.168048,-25.111937],[-57.167524,-25.112759],[-57.168449,-25.113765],[-57.168525,-25.115716],[-57.16903,-25.116076],[-57.169964,-25.116188],[-57.169514,-25.117367],[-57.169767,-25.117968],[-57.169368,-25.118113],[-57.168853,-25.117413],[-57.168203,-25.118141],[-57.167615,-25.118313],[-57.16768,-25.119614],[-57.166179,-25.119719],[-57.16579,-25.118947],[-57.165191,-25.118718],[-57.163996,-25.119704],[-57.16347,-25.119483],[-57.162673,-25.119886],[-57.162034,-25.12097],[-57.161687,-25.120939],[-57.161498,-25.120366],[-57.161214,-25.120406],[-57.161205,-25.121418],[-57.160891,-25.121906],[-57.160313,-25.121794],[-57.159903,-25.121017],[-57.159452,-25.121248],[-57.159211,-25.121592],[-57.159779,-25.122386],[-57.15976,-25.123722],[-57.159161,-25.123601],[-57.159202,-25.123168],[-57.15852,-25.123245],[-57.157398,-25.124402],[-57.157333,-25.125385],[-57.157069,-25.125595],[-57.155861,-25.125436],[-57.15532,-25.125897],[-57.155189,-25.127246],[-57.153406,-25.127489],[-57.152685,-25.12818],[-57.151553,-25.128412],[-57.151008,-25.129589],[-57.156241,-25.137349],[-57.169169,-25.144912],[-57.170048,-25.148477],[-57.169709,-25.153086],[-57.173341,-25.157456],[-57.177383,-25.157595],[-57.178047,-25.157879],[-57.178536,-25.158849],[-57.179281,-25.159029],[-57.179596,-25.159832],[-57.180784,-25.161131],[-57.180895,-25.16184],[-57.179653,-25.161675],[-57.179169,-25.162321],[-57.179488,-25.164384],[-57.180828,-25.166026],[-57.181347,-25.166192],[-57.180398,-25.167444],[-57.181679,-25.168937],[-57.181586,-25.16989],[-57.182003,-25.170775],[-57.182664,-25.171668],[-57.183583,-25.172069],[-57.183525,-25.173681],[-57.184544,-25.174221],[-57.184587,-25.175255],[-57.185633,-25.177453],[-57.187192,-25.178056],[-57.18838,-25.179418],[-57.188707,-25.18103],[-57.190454,-25.181859],[-57.190401,-25.182455],[-57.190958,-25.182937],[-57.191344,-25.184178],[-57.192236,-25.185405],[-57.191988,-25.186069],[-57.192897,-25.187811],[-57.19359,-25.18842],[-57.195007,-25.188296],[-57.195469,-25.189415],[-57.196813,-25.189892],[-57.197059,-25.190434],[-57.197402,-25.190496],[-57.198255,-25.193783],[-57.197825,-25.194474],[-57.19826,-25.19506],[-57.200428,-25.195008],[-57.20147,-25.195797],[-57.202287,-25.196988],[-57.204948,-25.198117],[-57.205131,-25.198483],[-57.205786,-25.198233],[-57.207588,-25.199111],[-57.209382,-25.201398],[-57.209042,-25.20292],[-57.209484,-25.203886],[-57.211044,-25.204728],[-57.211959,-25.206005],[-57.213224,-25.205678],[-57.213655,-25.206914],[-57.214849,-25.208177],[-57.219126,-25.209927],[-57.220408,-25.209758],[-57.221815,-25.210217],[-57.222608,-25.209927]]]}}]}
