{"type":"FeatureCollection","name":"distrito","features":[{"type":"Feature","properties":{"clave":"3-1","nombre":"Primero de Marzo"},"geometry":{"type":"Polygon","coordinates":[[[-56.9323,-25.177972],[-56.946292,-25.210869],[-56.947905,-25.211755],[-56.958432,-25.196852],[-56.962502,-25.194711],[-56.966521,-25.19413],[-56.97246,-25.191848],[-56.975814,-25.190009],[-56.975763,-25.18754],[-56.972614,-25.183049],[-56.963666,-25.172318],[-56.963512,-25.171221],[-56.966101,-25.168481],[-56.967678,-25.169235],[-56.970123,-25.167921],[-56.971853,-25.167515],[-56.974932,-25.165958],[-56.981572,-25.157556],[-56.98407,-25.156007],[-56.978187,-25.151265],[-56.980028,-25.145775],[-56.980075,-25.140925],[-56.985192,-25.132464],[-57.017188,-25.103172],[-57.029824,-25.095344],[-57.027652,-25.091513],[-57.030693,-25.087943],[-57.034021,-25.081438],[-57.037351,-25.078883],[-57.042431,-25.0711],[-57.042842,-25.068414],[-57.042107,-25.067242],[-57.042092,-25.066451],[-57.041444,-25.065607],[-57.041707,-25.064428],[-57.04236,-25.063828],[-57.042251,-25.062401],[-57.041904,-25.061606],[-57.040897,-25.060983],[-57.039884,-25.056549],[-57.039592,-25.056473],[-57.038285,-25.05799],[-57.039341,-25.058672],[-57.039324,-25.059155],[-57.038105,-25.060307],[-57.035076,-25.061987],[-57.034285,-25.062019],[-57.031547,-25.061139],[-57.03156,-25.060755],[-57.032883,-25.060453],[-57.033332,-25.059743],[-57.033374,-25.058854],[-57.03259,-25.058394],[-57.031843,-25.058899],[-57.031334,-25.059947],[-57.029483,-25.060742],[-57.028645,-25.062052],[-57.027911,-25.061122],[-57.025801,-25.059795],[-57.025023,-25.060897],[-57.023675,-25.060892],[-57.024845,-25.061606],[-57.024685,-25.061976],[-57.023676,-25.062256],[-57.02332,-25.063024],[-57.022096,-25.062301],[-57.021263,-25.06334],[-57.019857,-25.062816],[-57.01882,-25.062826],[-57.018527,-25.063517],[-57.018954,-25.064442],[-57.019758,-25.064934],[-57.020714,-25.064415],[-57.020985,-25.064835],[-57.017973,-25.069594],[-57.017013,-25.070209],[-57.017111,-25.068669],[-57.01674,-25.068317],[-57.016032,-25.068872],[-57.015499,-25.06889],[-57.015319,-25.067969],[-57.015657,-25.066885],[-57.015066,-25.066506],[-57.014135,-25.066913],[-57.013679,-25.068127],[-57.013823,-25.068547],[-57.014864,-25.069337],[-57.014941,-25.06964],[-57.014572,-25.069839],[-57.013603,-25.069897],[-57.011749,-25.068638],[-57.010145,-25.068507],[-57.009763,-25.069342],[-57.011413,-25.070006],[-57.011564,-25.070462],[-57.010475,-25.072079],[-57.008594,-25.072928],[-57.008766,-25.074617],[-57.008367,-25.074987],[-57.00708,-25.074775],[-57.007423,-25.07309],[-57.006906,-25.072422],[-57.005694,-25.071709],[-57.005056,-25.071569],[-57.003387,-25.072007],[-57.001483,-25.071998],[-57.001196,-25.072517],[-57.001461,-25.072978],[-57.00305,-25.073474],[-57.003211,-25.073822],[-57.002887,-25.07435],[-57.001207,-25.074897],[-57.001837,-25.076549],[-57.001194,-25.077588],[-56.999928,-25.076992],[-57.00056,-25.075547],[-56.999718,-25.074599],[-56.999243,-25.074716],[-56.998871,-25.076558],[-56.998383,-25.076807],[-56.997869,-25.075773],[-56.997171,-25.075384],[-56.996347,-25.075479],[-56.995135,-25.076301],[-56.994466,-25.076269],[-56.992945,-25.075493],[-56.992673,-25.07426],[-56.991263,-25.073614],[-56.990444,-25.073569],[-56.990056,-25.073853],[-56.990124,-25.074323],[-56.991436,-25.074553],[-56.991476,-25.074766],[-56.99047,-25.075109],[-56.989395,-25.076066],[-56.989036,-25.075659],[-56.988819,-25.074056],[-56.986938,-25.073465],[-56.986226,-25.074318],[-56.985834,-25.073144],[-56.984448,-25.07253],[-56.982911,-25.073062],[-56.981572,-25.072931],[-56.980621,-25.073243],[-56.980932,-25.075383],[-56.980094,-25.076051],[-56.979187,-25.075988],[-56.977829,-25.074191],[-56.976488,-25.073721],[-56.975994,-25.073969],[-56.976204,-25.075107],[-56.975856,-25.075626],[-56.974261,-25.075491],[-56.97295,-25.076041],[-56.971995,-25.075856],[-56.971937,-25.077865],[-56.973004,-25.078421],[-56.972394,-25.079446],[-56.972964,-25.080241],[-56.972896,-25.080913],[-56.972548,-25.081433],[-56.97206,-25.081536],[-56.971454,-25.079879],[-56.96912,-25.079382],[-56.969065,-25.07973],[-56.970364,-25.080859],[-56.970377,-25.082349],[-56.96986,-25.083062],[-56.969442,-25.082213],[-56.968982,-25.082109],[-56.968142,-25.083279],[-56.970351,-25.086318],[-56.969807,-25.086489],[-56.968246,-25.085979],[-56.968983,-25.086972],[-56.968777,-25.087713],[-56.967612,-25.086828],[-56.966499,-25.087414],[-56.965476,-25.086448],[-56.964196,-25.087179],[-56.964028,-25.087834],[-56.964974,-25.088164],[-56.964878,-25.089649],[-56.965784,-25.090742],[-56.965449,-25.091054],[-56.96493,-25.09081],[-56.964291,-25.089617],[-56.963794,-25.089324],[-56.962334,-25.090168],[-56.962717,-25.091053],[-56.962921,-25.093171],[-56.961241,-25.093026],[-56.960883,-25.093279],[-56.961652,-25.093599],[-56.961447,-25.094584],[-56.962476,-25.095365],[-56.962314,-25.095668],[-56.961448,-25.095839],[-56.961586,-25.096945],[-56.961356,-25.097415],[-56.960801,-25.097641],[-56.960091,-25.097442],[-56.960096,-25.095717],[-56.959658,-25.095365],[-56.958467,-25.096209],[-56.957228,-25.095675],[-56.956507,-25.095698],[-56.956204,-25.096068],[-56.956332,-25.096515],[-56.958284,-25.096886],[-56.958542,-25.097337],[-56.958356,-25.097712],[-56.956437,-25.097847],[-56.955012,-25.098488],[-56.954509,-25.099364],[-56.95438,-25.101021],[-56.951524,-25.101056],[-56.951036,-25.101277],[-56.951963,-25.102691],[-56.953144,-25.103603],[-56.952561,-25.104308],[-56.950905,-25.10419],[-56.95042,-25.104501],[-56.95207,-25.10591],[-56.951588,-25.107048],[-56.950162,-25.107644],[-56.950835,-25.108371],[-56.95237,-25.108566],[-56.952207,-25.109049],[-56.951051,-25.109902],[-56.952027,-25.111094],[-56.952173,-25.112246],[-56.950652,-25.111112],[-56.950605,-25.11243],[-56.950211,-25.112457],[-56.949503,-25.111784],[-56.948823,-25.111784],[-56.948384,-25.112181],[-56.948411,-25.113306],[-56.946872,-25.113729],[-56.946266,-25.112975],[-56.945289,-25.11265],[-56.944392,-25.111453],[-56.942602,-25.110486],[-56.941822,-25.11054],[-56.942192,-25.111226],[-56.942028,-25.111452],[-56.940718,-25.111668],[-56.939349,-25.111491],[-56.938129,-25.112222],[-56.938636,-25.112837],[-56.938533,-25.113681],[-56.939108,-25.113979],[-56.940381,-25.113899],[-56.940742,-25.115082],[-56.940331,-25.115443],[-56.939053,-25.114964],[-56.938024,-25.115659],[-56.937939,-25.11625],[-56.939038,-25.116603],[-56.939124,-25.116919],[-56.938722,-25.117384],[-56.937582,-25.117839],[-56.937443,-25.11835],[-56.939092,-25.119836],[-56.938545,-25.121321],[-56.936451,-25.121849],[-56.937098,-25.122928],[-56.936835,-25.123411],[-56.935756,-25.123465],[-56.934867,-25.124322],[-56.933368,-25.123956],[-56.932339,-25.124777],[-56.930908,-25.124384],[-56.931518,-25.125707],[-56.931215,-25.125811],[-56.930209,-25.125251],[-56.92977,-25.125368],[-56.930613,-25.126438],[-56.929617,-25.127743],[-56.92907,-25.127819],[-56.929092,-25.127151],[-56.92786,-25.126514],[-56.926609,-25.126757],[-56.926252,-25.127854],[-56.925508,-25.127587],[-56.924584,-25.128084],[-56.923562,-25.127433],[-56.923147,-25.128859],[-56.922384,-25.127667],[-56.922068,-25.12862],[-56.9209,-25.128461],[-56.920655,-25.129052],[-56.919743,-25.129666],[-56.919296,-25.130366],[-56.918888,-25.130379],[-56.918442,-25.129841],[-56.917888,-25.129836],[-56.915409,-25.131203],[-56.914353,-25.13127],[-56.913707,-25.132033],[-56.912761,-25.131265],[-56.912219,-25.131269],[-56.911624,-25.131811],[-56.911446,-25.133174],[-56.910113,-25.132501],[-56.909816,-25.132785],[-56.909824,-25.134203],[-56.90864,-25.134064],[-56.916767,-25.147041],[-56.928164,-25.163114],[-56.928754,-25.162615],[-56.929911,-25.164156],[-56.933766,-25.173703],[-56.937001,-25.176032],[-56.9323,-25.177972]]]}}]}
