{"type":"FeatureCollection","name":"distrito","features":[{"type":"Feature","properties":{"clave":"13-5","nombre":"Karapaí"},"geometry":{"type":"Polygon","coordinates":[[[-56.114045,-23.605876],[-56.114239,-23.605218],[-56.113399,-23.604626],[-56.113189,-23.604128],[-56.113167,-23.60234],[-56.113693,-23.601701],[-56.113279,-23.600787],[-56.113701,-23.599615],[-56.113625,-23.5977],[-56.11328,-23.597025],[-56.11351,-23.596299],[-56.112891,-23.594977],[-56.112058,-23.594615],[-56.11195,-23.59401],[-56.111181,-23.593314],[-56.110924,-23.592839],[-56.11107,-23.59213],[-56.111879,-23.591512],[-56.113605,-23.591093],[-56.115291,-23.589314],[-56.115796,-23.589127],[-56.115935,-23.588595],[-56.116673,-23.58789],[-56.116525,-23.586851],[-56.11769,-23.58431],[-56.118633,-23.583828],[-56.120317,-23.583806],[-56.120925,-23.583502],[-56.121898,-23.582049],[-56.121409,-23.580673],[-56.12196,-23.5791],[-56.123686,-23.57715],[-56.124134,-23.575613],[-56.124846,-23.575287],[-56.124678,-23.574609],[-56.125253,-23.573406],[-56.126135,-23.572657],[-56.127799,-23.572427],[-56.12835,-23.57201],[-56.130029,-23.568348],[-56.131725,-23.567174],[-56.131763,-23.565851],[-56.132127,-23.565104],[-56.132773,-23.564764],[-56.133635,-23.565329],[-56.135744,-23.565286],[-56.136376,-23.56366],[-56.136493,-23.56124],[-56.137616,-23.559652],[-56.13787,-23.556555],[-56.13939,-23.553596],[-56.139388,-23.549568],[-56.141002,-23.546777],[-56.142146,-23.539418],[-56.142639,-23.537795],[-56.143615,-23.536188],[-56.143783,-23.533633],[-56.142828,-23.531351],[-56.142992,-23.530205],[-56.142461,-23.530026],[-56.142248,-23.525721],[-56.139841,-23.520835],[-56.138263,-23.518699],[-56.137196,-23.519068],[-56.136323,-23.518878],[-56.136703,-23.514816],[-56.135212,-23.513132],[-56.135331,-23.512008],[-56.135816,-23.511577],[-56.136754,-23.50876],[-56.138856,-23.505953],[-56.138878,-23.50519],[-56.139295,-23.504899],[-56.139512,-23.505149],[-56.14004,-23.504957],[-56.141667,-23.502925],[-56.141397,-23.501424],[-56.141863,-23.499431],[-56.165695,-23.471384],[-56.166566,-23.47007],[-56.166857,-23.469024],[-56.166339,-23.46507],[-56.167289,-23.462568],[-56.1671,-23.458814],[-56.168263,-23.456784],[-56.1682,-23.455194],[-56.167057,-23.45246],[-56.163402,-23.448918],[-56.16108,-23.445365],[-56.160531,-23.443022],[-56.160517,-23.441166],[-56.158037,-23.437928],[-56.157531,-23.43354],[-56.155076,-23.4286],[-56.154281,-23.423519],[-56.154533,-23.41746],[-56.155076,-23.413399],[-56.154762,-23.411098],[-56.15653,-23.407662],[-56.157011,-23.405343],[-56.15573,-23.390808],[-56.156172,-23.38871],[-56.156299,-23.385202],[-56.157858,-23.381593],[-56.157773,-23.380075],[-56.158937,-23.376897],[-56.15917,-23.372766],[-56.158886,-23.370028],[-56.159325,-23.369131],[-56.160152,-23.36359],[-56.161556,-23.360545],[-56.161907,-23.358446],[-56.162723,-23.357633],[-56.164576,-23.352554],[-56.164212,-23.346161],[-56.162926,-23.337623],[-56.163739,-23.334931],[-56.163013,-23.328636],[-56.163594,-23.325803],[-56.162657,-23.324091],[-56.162519,-23.322706],[-56.160113,-23.322075],[-56.158849,-23.320725],[-56.158653,-23.319773],[-56.159024,-23.318675],[-56.158965,-23.315169],[-56.158484,-23.31457],[-56.157436,-23.314303],[-56.155281,-23.316641],[-56.154189,-23.316952],[-56.153058,-23.316853],[-56.152497,-23.316234],[-56.151866,-23.313918],[-56.151967,-23.310656],[-56.151183,-23.310185],[-56.148497,-23.310189],[-56.147381,-23.311134],[-56.14648,-23.313087],[-56.143659,-23.315254],[-56.143475,-23.3157],[-56.143825,-23.317772],[-56.143315,-23.318553],[-56.141679,-23.318581],[-56.139583,-23.318066],[-56.139403,-23.317823],[-56.139821,-23.31555],[-56.139367,-23.313944],[-56.136607,-23.312903],[-56.135114,-23.312857],[-56.134059,-23.31356],[-56.130801,-23.31468],[-56.12826,-23.317332],[-56.128406,-23.31972],[-56.126872,-23.319581],[-56.126648,-23.319878],[-56.12731,-23.323648],[-56.126318,-23.327112],[-56.125166,-23.327236],[-56.124508,-23.325964],[-56.123345,-23.324745],[-56.122941,-23.324687],[-56.122477,-23.327761],[-56.119303,-23.328303],[-56.116706,-23.327188],[-56.114155,-23.325122],[-56.113287,-23.324968],[-56.112917,-23.326011],[-56.113616,-23.327115],[-56.113721,-23.332616],[-56.110457,-23.334556],[-56.10911,-23.336749],[-56.108767,-23.336728],[-56.106598,-23.334907],[-56.10478,-23.334897],[-56.103191,-23.333955],[-56.098854,-23.333315],[-56.095279,-23.333369],[-56.094313,-23.332841],[-56.093957,-23.33172],[-56.09499,-23.331297],[-56.096659,-23.329368],[-56.09626,-23.328675],[-56.094789,-23.328275],[-56.09469,-23.324899],[-56.090216,-23.320659],[-56.087395,-23.319747],[-56.085635,-23.320353],[-56.084617,-23.318594],[-56.081911,-23.318597],[-56.081732,-23.31826],[-56.082192,-23.315913],[-56.078279,-23.315331],[-56.077917,-23.315049],[-56.077863,-23.314209],[-56.076269,-23.314032],[-56.07601,-23.313452],[-56.075026,-23.312757],[-56.072063,-23.311993],[-56.069376,-23.312182],[-56.0666,-23.313129],[-56.067056,-23.314474],[-56.067053,-23.316876],[-56.064539,-23.321256],[-56.064389,-23.32289],[-56.066107,-23.32621],[-56.06661,-23.327852],[-56.066846,-23.330026],[-56.066626,-23.332802],[-56.068841,-23.337824],[-56.069445,-23.340207],[-56.069878,-23.344202],[-56.069068,-23.347512],[-56.06546,-23.352504],[-56.065205,-23.354254],[-56.064244,-23.355721],[-56.063016,-23.360424],[-56.061755,-23.362412],[-56.060275,-23.366305],[-56.058029,-23.368636],[-56.057471,-23.369676],[-56.056097,-23.370065],[-56.055597,-23.370635],[-56.055512,-23.372667],[-56.054774,-23.376176],[-56.05549,-23.377038],[-56.055062,-23.378106],[-56.05527,-23.378478],[-56.054524,-23.379011],[-56.054136,-23.381894],[-56.052233,-23.382862],[-56.050851,-23.383017],[-56.048263,-23.383891],[-56.046665,-23.384879],[-56.045354,-23.386023],[-56.043335,-23.388788],[-56.037983,-23.392282],[-56.035963,-23.39492],[-56.034788,-23.397767],[-56.032292,-23.40094],[-56.030231,-23.401474],[-56.029385,-23.402218],[-56.028331,-23.398603],[-56.028509,-23.3978],[-56.027888,-23.390198],[-56.029327,-23.384496],[-56.030873,-23.380361],[-55.972028,-23.385237],[-55.917513,-23.391167],[-55.89919,-23.392179],[-55.901096,-23.394215],[-55.901963,-23.396041],[-55.902037,-23.399013],[-55.898326,-23.401489],[-55.895083,-23.405905],[-55.894561,-23.408015],[-55.894715,-23.410166],[-55.8943,-23.41276],[-55.89488,-23.415816],[-55.895475,-23.41723],[-55.895537,-23.41858],[-55.897092,-23.42149],[-55.898796,-23.423909],[-55.89968,-23.427285],[-55.900735,-23.428913],[-55.900765,-23.430277],[-55.901116,-23.431156],[-55.90192,-23.432525],[-55.903418,-23.433882],[-55.903879,-23.434847],[-55.903903,-23.436938],[-55.905148,-23.439832],[-55.905297,-23.441405],[-55.906132,-23.442558],[-55.906301,-23.444541],[-55.906873,-23.44576],[-55.90673,-23.447638],[-55.90709,-23.449171],[-55.908616,-23.450726],[-55.909516,-23.452778],[-55.911718,-23.454826],[-55.911773,-23.45726],[-55.911176,-23.458873],[-55.911573,-23.459977],[-55.91157,-23.462718],[-55.912734,-23.465486],[-55.912976,-23.46761],[-55.915339,-23.471049],[-55.915948,-23.473456],[-55.916624,-23.474414],[-55.916926,-23.475576],[-55.916639,-23.478026],[-55.91691,-23.480919],[-55.916446,-23.483666],[-55.915797,-23.484871],[-55.914221,-23.48631],[-55.912848,-23.488626],[-55.912256,-23.490284],[-55.911312,-23.491284],[-55.910498,-23.494042],[-55.910638,-23.494716],[-55.908418,-23.496033],[-55.907419,-23.495768],[-55.906974,-23.495937],[-55.90437,-23.498511],[-55.903721,-23.499639],[-55.904297,-23.501572],[-55.904927,-23.502321],[-55.905283,-23.504717],[-55.908743,-23.509018],[-55.909415,-23.509411],[-55.909223,-23.510354],[-55.909961,-23.511366],[-55.909705,-23.512159],[-55.910404,-23.512832],[-55.910362,-23.514033],[-55.909396,-23.515408],[-55.910849,-23.515585],[-55.911468,-23.516073],[-55.911962,-23.517657],[-55.913465,-23.518512],[-55.913785,-23.519765],[-55.916887,-23.523661],[-55.917252,-23.527353],[-55.918202,-23.529676],[-55.918766,-23.532977],[-55.921335,-23.539403],[-55.924048,-23.542154],[-55.924644,-23.543793],[-55.925292,-23.544632],[-55.927176,-23.545278],[-55.928631,-23.547812],[-55.929608,-23.547751],[-55.930563,-23.548304],[-55.931,-23.549377],[-55.931068,-23.550611],[-55.932005,-23.552839],[-55.932013,-23.554352],[-55.933259,-23.556009],[-55.933577,-23.557031],[-55.933419,-23.55759],[-55.932357,-23.558098],[-55.930929,-23.559804],[-55.930412,-23.56082],[-55.930638,-23.561238],[-55.930393,-23.561834],[-55.929623,-23.562503],[-55.929957,-23.562567],[-55.931365,-23.561717],[-55.931604,-23.561883],[-55.931019,-23.563089],[-55.931556,-23.5637],[-55.930505,-23.563898],[-55.930087,-23.564518],[-55.930445,-23.565108],[-55.931656,-23.565183],[-55.931188,-23.566363],[-55.93248,-23.567463],[-55.932578,-23.568457],[-55.931692,-23.568307],[-55.930874,-23.568657],[-55.931154,-23.569194],[-55.932116,-23.569051],[-55.93272,-23.569575],[-55.933087,-23.570448],[-55.932673,-23.571273],[-55.931801,-23.571432],[-55.932264,-23.57351],[-55.932755,-23.573606],[-55.932953,-23.574677],[-55.932928,-23.574919],[-55.932202,-23.574955],[-55.932901,-23.575562],[-55.931628,-23.576197],[-55.930655,-23.575732],[-55.930326,-23.576348],[-55.929423,-23.575425],[-55.929254,-23.576284],[-55.928715,-23.576645],[-55.928891,-23.577727],[-55.927522,-23.577733],[-55.927816,-23.578682],[-55.927143,-23.579105],[-55.926513,-23.581638],[-55.926055,-23.581738],[-55.925358,-23.58092],[-55.925823,-23.58276],[-55.927671,-23.585547],[-55.928763,-23.58592],[-55.929299,-23.586542],[-55.929097,-23.58811],[-55.930063,-23.588101],[-55.930664,-23.589058],[-55.93162,-23.5896],[-55.931394,-23.590566],[-55.931539,-23.593439],[-55.932204,-23.594097],[-55.931351,-23.594554],[-55.932237,-23.594792],[-55.932887,-23.594529],[-55.932514,-23.595128],[-55.930519,-23.595274],[-55.930549,-23.595635],[-55.930955,-23.595854],[-55.930824,-23.596151],[-55.929988,-23.595919],[-55.930663,-23.596742],[-55.929385,-23.597974],[-55.930532,-23.597796],[-55.931275,-23.59914],[-55.930706,-23.599676],[-55.92952,-23.599941],[-55.930174,-23.601201],[-55.931453,-23.60123],[-55.931714,-23.601469],[-55.931384,-23.602208],[-55.93188,-23.602386],[-55.932005,-23.602804],[-55.931447,-23.604097],[-55.931953,-23.605073],[-55.932689,-23.604553],[-55.933777,-23.605282],[-55.93396,-23.606163],[-55.934704,-23.606683],[-55.935089,-23.606804],[-55.935094,-23.60616],[-55.935362,-23.606188],[-55.935664,-23.607487],[-55.934712,-23.6071],[-55.93457,-23.607418],[-55.935723,-23.608507],[-55.934788,-23.608819],[-55.935656,-23.609247],[-55.935913,-23.609928],[-55.936519,-23.610169],[-55.935833,-23.610793],[-55.935833,-23.610149],[-55.935464,-23.610162],[-55.934852,-23.611254],[-55.934091,-23.611398],[-55.933724,-23.611843],[-55.934309,-23.612728],[-55.933737,-23.613727],[-55.935005,-23.613015],[-55.935774,-23.613211],[-55.935427,-23.614048],[-55.934137,-23.613941],[-55.93312,-23.614742],[-55.933286,-23.61499],[-55.934191,-23.614873],[-55.934586,-23.615092],[-55.933532,-23.615623],[-55.934174,-23.61653],[-55.934349,-23.617835],[-55.934112,-23.618713],[-55.933343,-23.619576],[-55.933536,-23.620262],[-55.933069,-23.620442],[-55.934084,-23.621002],[-55.931352,-23.62123],[-55.932138,-23.622172],[-55.932391,-23.623088],[-55.931928,-23.62437],[-55.932644,-23.624689],[-55.932686,-23.625643],[-55.933447,-23.625791],[-55.93311,-23.626897],[-55.933775,-23.627484],[-55.932969,-23.62745],[-55.932918,-23.627672],[-55.93394,-23.629284],[-55.935574,-23.62957],[-55.935668,-23.630218],[-55.936234,-23.630724],[-55.935675,-23.631421],[-55.936794,-23.632114],[-55.936365,-23.632964],[-55.937151,-23.632909],[-55.937842,-23.633302],[-55.937568,-23.634534],[-55.936795,-23.635008],[-55.938256,-23.635338],[-55.938385,-23.634631],[-55.940907,-23.635615],[-55.94116,-23.634924],[-55.941728,-23.635293],[-55.943151,-23.635143],[-55.942733,-23.635681],[-55.941929,-23.635996],[-55.942614,-23.636092],[-55.943372,-23.635465],[-55.943984,-23.635415],[-55.944559,-23.635869],[-55.944482,-23.63618],[-55.944109,-23.636224],[-55.944239,-23.636522],[-55.944812,-23.636289],[-55.94499,-23.635719],[-55.945246,-23.635782],[-55.945587,-23.636508],[-55.946288,-23.636726],[-55.947172,-23.637844],[-55.947035,-23.638384],[-55.946249,-23.638424],[-55.946516,-23.639157],[-55.947063,-23.639077],[-55.947606,-23.638342],[-55.947911,-23.638382],[-55.948089,-23.638886],[-55.947461,-23.63994],[-55.948363,-23.639756],[-55.948257,-23.640669],[-55.949765,-23.641258],[-55.949381,-23.642756],[-55.95043,-23.641841],[-55.952101,-23.642751],[-55.951864,-23.644494],[-55.95216,-23.645737],[-55.951531,-23.646807],[-55.952229,-23.647474],[-55.951904,-23.647731],[-55.950931,-23.647465],[-55.950547,-23.647905],[-55.950876,-23.648128],[-55.95186,-23.648066],[-55.95239,-23.648968],[-55.952198,-23.649264],[-55.950347,-23.649091],[-55.950029,-23.649653],[-55.950211,-23.650606],[-55.949968,-23.651061],[-55.948772,-23.650665],[-55.94881,-23.651061],[-55.94937,-23.6514],[-55.951065,-23.651419],[-55.950894,-23.652035],[-55.94982,-23.651989],[-55.949823,-23.65266],[-55.951006,-23.652576],[-55.952439,-23.653188],[-55.951634,-23.653639],[-55.952665,-23.653966],[-55.953543,-23.654733],[-55.954721,-23.654307],[-55.956318,-23.653046],[-55.958101,-23.653386],[-55.961782,-23.656266],[-55.962028,-23.657639],[-55.962904,-23.658673],[-55.963112,-23.659664],[-55.964461,-23.660481],[-55.965024,-23.660431],[-55.96521,-23.658803],[-55.965909,-23.658228],[-55.966385,-23.658765],[-55.966025,-23.660377],[-55.966454,-23.660494],[-55.967043,-23.658053],[-55.96745,-23.657926],[-55.970382,-23.662112],[-55.971314,-23.662738],[-55.971702,-23.662517],[-55.971548,-23.661104],[-55.971759,-23.660821],[-55.973618,-23.661362],[-55.974407,-23.660585],[-55.97491,-23.661167],[-55.976217,-23.661785],[-55.97641,-23.661035],[-55.976784,-23.661068],[-55.976979,-23.661536],[-55.977597,-23.66151],[-55.977859,-23.661806],[-55.977107,-23.663507],[-55.978555,-23.663009],[-55.978959,-23.664981],[-55.979585,-23.665321],[-55.98017,-23.665223],[-55.980815,-23.665938],[-55.979465,-23.667576],[-55.980663,-23.667947],[-55.982927,-23.666719],[-55.983288,-23.665506],[-55.985317,-23.664124],[-55.987043,-23.661719],[-55.987699,-23.660211],[-55.987477,-23.659067],[-55.987668,-23.657086],[-55.989869,-23.655063],[-55.990575,-23.653411],[-55.99199,-23.648014],[-55.991799,-23.64636],[-55.992004,-23.644835],[-55.991061,-23.643348],[-55.992053,-23.638834],[-55.993742,-23.637061],[-55.997148,-23.632184],[-55.998566,-23.628485],[-56.000285,-23.625827],[-56.001057,-23.623204],[-56.003504,-23.621504],[-56.0068,-23.620265],[-56.009329,-23.618114],[-56.010947,-23.61751],[-56.011032,-23.616819],[-56.012164,-23.616014],[-56.014337,-23.612153],[-56.016595,-23.606184],[-56.018507,-23.604462],[-56.020314,-23.602084],[-56.020805,-23.600385],[-56.021576,-23.599062],[-56.048992,-23.575541],[-56.04902,-23.57859],[-56.048288,-23.580726],[-56.048038,-23.584536],[-56.04726,-23.58669],[-56.048542,-23.590667],[-56.050279,-23.593207],[-56.051786,-23.593437],[-56.052556,-23.594164],[-56.052935,-23.59488],[-56.052934,-23.596366],[-56.053434,-23.597805],[-56.055457,-23.598694],[-56.056036,-23.600205],[-56.057671,-23.600811],[-56.058329,-23.602486],[-56.060015,-23.602795],[-56.06091,-23.604191],[-56.063712,-23.604537],[-56.066432,-23.606663],[-56.068192,-23.606863],[-56.070103,-23.607782],[-56.071697,-23.607263],[-56.074623,-23.607863],[-56.075986,-23.607402],[-56.077034,-23.60744],[-56.077787,-23.606898],[-56.079336,-23.606564],[-56.081953,-23.607175],[-56.08563,-23.606082],[-56.089615,-23.603653],[-56.09433,-23.602],[-56.105227,-23.602032],[-56.107571,-23.603107],[-56.108866,-23.60287],[-56.111995,-23.60334],[-56.11292,-23.605639],[-56.114045,-23.605876]]]}}]}
