{"type":"FeatureCollection","name":"distrito","features":[{"type":"Feature","properties":{"clave":"10-5","nombre":"Hernandarias"},"geometry":{"type":"Polygon","coordinates":[[[-54.701177,-25.396283],[-54.700021,-25.40324],[-54.702158,-25.406529],[-54.7059,-25.410679],[-54.711015,-25.417802],[-54.714441,-25.416946],[-54.715869,-25.414947],[-54.716336,-25.412383],[-54.714868,-25.411346],[-54.714672,-25.410246],[-54.723721,-25.40581],[-54.724149,-25.404525],[-54.723565,-25.40208],[-54.72031,-25.393866],[-54.724134,-25.387738],[-54.725058,-25.386931],[-54.727263,-25.386655],[-54.727515,-25.389755],[-54.728753,-25.393152],[-54.733482,-25.400431],[-54.737615,-25.403169],[-54.7388,-25.404398],[-54.738668,-25.406535],[-54.73731,-25.407894],[-54.730993,-25.407599],[-54.728627,-25.408126],[-54.723645,-25.411032],[-54.719772,-25.414237],[-54.719233,-25.41817],[-54.720106,-25.419591],[-54.721413,-25.420089],[-54.726583,-25.41925],[-54.73243,-25.417088],[-54.734999,-25.41509],[-54.736427,-25.412948],[-54.737569,-25.412377],[-54.73914,-25.413091],[-54.745279,-25.421229],[-54.746278,-25.423513],[-54.745707,-25.425797],[-54.747277,-25.427225],[-54.748848,-25.427225],[-54.751132,-25.424798],[-54.754559,-25.423513],[-54.754987,-25.422371],[-54.753845,-25.420229],[-54.751703,-25.418231],[-54.750704,-25.416517],[-54.750276,-25.414947],[-54.752274,-25.409236],[-54.751989,-25.407095],[-54.752274,-25.405239],[-54.753417,-25.404525],[-54.760412,-25.402526],[-54.762696,-25.403954],[-54.76441,-25.406666],[-54.763125,-25.414804],[-54.76184,-25.419087],[-54.762268,-25.422799],[-54.763696,-25.424227],[-54.766123,-25.424227],[-54.771405,-25.422371],[-54.775974,-25.421514],[-54.77783,-25.422228],[-54.779686,-25.424084],[-54.780542,-25.426226],[-54.779257,-25.429509],[-54.782541,-25.430794],[-54.784683,-25.430223],[-54.785111,-25.428795],[-54.784825,-25.4218],[-54.783826,-25.420229],[-54.781827,-25.418516],[-54.777973,-25.41666],[-54.779829,-25.412377],[-54.779971,-25.408237],[-54.782256,-25.406952],[-54.784112,-25.407523],[-54.786396,-25.413091],[-54.788537,-25.420943],[-54.791678,-25.425226],[-54.794248,-25.426511],[-54.797532,-25.426797],[-54.79953,-25.42594],[-54.799673,-25.424655],[-54.799388,-25.423513],[-54.796675,-25.421086],[-54.796818,-25.418088],[-54.796104,-25.414661],[-54.796818,-25.413805],[-54.799102,-25.413948],[-54.806241,-25.411378],[-54.808239,-25.408951],[-54.810095,-25.405667],[-54.810524,-25.40324],[-54.810382,-25.4012],[-54.810928,-25.400512],[-54.81344,-25.400328],[-54.819518,-25.401812],[-54.821762,-25.401508],[-54.824719,-25.399954],[-54.825926,-25.400208],[-54.829654,-25.402954],[-54.831545,-25.406215],[-54.832615,-25.407305],[-54.834017,-25.407579],[-54.834946,-25.407255],[-54.835936,-25.406381],[-54.837221,-25.404239],[-54.837649,-25.402241],[-54.836283,-25.396569],[-54.836898,-25.394261],[-54.837507,-25.393817],[-54.839077,-25.39396],[-54.845502,-25.396673],[-54.849272,-25.396936],[-54.850374,-25.397513],[-54.851302,-25.398593],[-54.85264,-25.399242],[-54.855067,-25.398243],[-54.855638,-25.397244],[-54.854639,-25.395102],[-54.852212,-25.391819],[-54.854496,-25.389106],[-54.855495,-25.387393],[-54.855638,-25.385537],[-54.847358,-25.38311],[-54.84593,-25.381682],[-54.844502,-25.380825],[-54.843503,-25.372259],[-54.844502,-25.368119],[-54.845359,-25.367405],[-54.848928,-25.367691],[-54.851641,-25.36869],[-54.853782,-25.367976],[-54.858779,-25.364407],[-54.860778,-25.364835],[-54.86349,-25.364835],[-54.866346,-25.362837],[-54.86606,-25.36041],[-54.86706,-25.358696],[-54.869201,-25.357126],[-54.871057,-25.356983],[-54.875768,-25.358696],[-54.878767,-25.358696],[-54.879909,-25.361266],[-54.880765,-25.365407],[-54.882478,-25.366549],[-54.888617,-25.367262],[-54.894899,-25.367548],[-54.896041,-25.366977],[-54.896898,-25.365835],[-54.897184,-25.363265],[-54.897755,-25.362837],[-54.900324,-25.363551],[-54.901752,-25.365835],[-54.901467,-25.367548],[-54.895328,-25.372973],[-54.894185,-25.374686],[-54.894471,-25.375971],[-54.896327,-25.376971],[-54.90061,-25.377399],[-54.903037,-25.376971],[-54.907177,-25.374115],[-54.910746,-25.370832],[-54.911746,-25.369547],[-54.911889,-25.366834],[-54.909462,-25.363265],[-54.896184,-25.360124],[-54.894899,-25.356269],[-54.892187,-25.351986],[-54.892044,-25.35113],[-54.893614,-25.35013],[-54.897184,-25.349417],[-54.907177,-25.349845],[-54.908748,-25.347989],[-54.908319,-25.345705],[-54.901038,-25.339851],[-54.900895,-25.336996],[-54.901181,-25.335996],[-54.90218,-25.335283],[-54.908462,-25.334997],[-54.912031,-25.333284],[-54.913887,-25.33414],[-54.916743,-25.33671],[-54.920312,-25.33928],[-54.919741,-25.342135],[-54.916885,-25.346847],[-54.916743,-25.348703],[-54.918313,-25.350987],[-54.925166,-25.355127],[-54.928021,-25.355556],[-54.932019,-25.354842],[-54.934933,-25.354638],[-54.940353,-25.351312],[-54.944529,-25.350048],[-54.946449,-25.347732],[-54.950513,-25.346624],[-54.950017,-25.345809],[-54.948104,-25.344207],[-54.945617,-25.342769],[-54.944475,-25.342947],[-54.941133,-25.344354],[-54.939952,-25.344586],[-54.93919,-25.344394],[-54.939323,-25.343701],[-54.941073,-25.342403],[-54.941593,-25.340754],[-54.940713,-25.338232],[-54.938616,-25.335445],[-54.938183,-25.333959],[-54.939009,-25.331316],[-54.940593,-25.328351],[-54.940713,-25.324493],[-54.941587,-25.322944],[-54.944091,-25.320451],[-54.945314,-25.31957],[-54.946824,-25.317898],[-54.948759,-25.316644],[-54.95567,-25.319367],[-54.956245,-25.319835],[-54.956852,-25.321157],[-54.957452,-25.321531],[-54.958012,-25.321335],[-54.959132,-25.319509],[-54.959817,-25.318959],[-54.963464,-25.318333],[-54.964433,-25.316509],[-54.962534,-25.315467],[-54.961468,-25.313999],[-54.961336,-25.313243],[-54.961835,-25.31121],[-54.963554,-25.307479],[-54.963444,-25.306132],[-54.960365,-25.305097],[-54.958281,-25.307013],[-54.956959,-25.307816],[-54.955795,-25.30678],[-54.954815,-25.304401],[-54.959828,-25.298296],[-54.960574,-25.296005],[-54.961427,-25.295913],[-54.962489,-25.296934],[-54.961892,-25.299435],[-54.962479,-25.300509],[-54.962959,-25.3007],[-54.963778,-25.300206],[-54.967252,-25.294156],[-54.968157,-25.288558],[-54.968175,-25.286356],[-54.970991,-25.284318],[-54.973076,-25.284031],[-54.974729,-25.283314],[-54.975195,-25.282092],[-54.975406,-25.279703],[-54.975899,-25.279317],[-54.976783,-25.279257],[-54.977161,-25.278572],[-54.977,-25.277947],[-54.97548,-25.277352],[-54.974836,-25.277524],[-54.973631,-25.278469],[-54.972796,-25.278124],[-54.97245,-25.277658],[-54.972721,-25.274999],[-54.97418,-25.271061],[-54.974059,-25.270441],[-54.972602,-25.268755],[-54.971841,-25.268934],[-54.97154,-25.269386],[-54.971405,-25.271551],[-54.970861,-25.27218],[-54.969462,-25.272386],[-54.968046,-25.272064],[-54.966118,-25.272922],[-54.965508,-25.272765],[-54.965178,-25.272327],[-54.965195,-25.271334],[-54.965932,-25.270352],[-54.969414,-25.268445],[-54.970038,-25.267082],[-54.969511,-25.265147],[-54.967976,-25.264453],[-54.967569,-25.263712],[-54.967499,-25.261391],[-54.966385,-25.26138],[-54.965047,-25.262423],[-54.964436,-25.262274],[-54.964237,-25.261897],[-54.963685,-25.2591],[-54.963838,-25.256877],[-54.96446,-25.256416],[-54.966324,-25.25697],[-54.966717,-25.256528],[-54.965924,-25.252536],[-54.965096,-25.250521],[-54.965133,-25.249695],[-54.965681,-25.249337],[-54.970307,-25.248435],[-54.972007,-25.247475],[-54.974674,-25.24803],[-54.974916,-25.248661],[-54.974314,-25.252769],[-54.972642,-25.255499],[-54.970361,-25.257883],[-54.970292,-25.258487],[-54.971271,-25.259457],[-54.976826,-25.262733],[-54.979347,-25.263802],[-54.98021,-25.263696],[-54.984507,-25.26032],[-54.98925,-25.259753],[-54.991496,-25.257563],[-54.991312,-25.25696],[-54.989834,-25.25666],[-54.989022,-25.255985],[-54.98834,-25.254879],[-54.9873,-25.25185],[-54.983922,-25.247881],[-54.984113,-25.246859],[-54.985544,-25.246324],[-54.989946,-25.245594],[-54.991152,-25.24464],[-54.993037,-25.242233],[-54.994369,-25.24133],[-54.995308,-25.241234],[-54.99594,-25.241803],[-54.995962,-25.242837],[-54.993719,-25.248466],[-54.99368,-25.249256],[-54.994533,-25.249534],[-54.997844,-25.24933],[-55.000004,-25.250244],[-55.002073,-25.251807],[-55.003323,-25.251968],[-55.003827,-25.251451],[-55.00414,-25.24996],[-55.00313,-25.244721],[-55.003689,-25.242625],[-55.003223,-25.241784],[-55.002053,-25.241637],[-55.002142,-25.241016],[-55.003646,-25.240472],[-55.006858,-25.241075],[-55.010856,-25.241237],[-55.012158,-25.241796],[-55.01514,-25.244044],[-55.016243,-25.244419],[-55.017009,-25.244222],[-55.01729,-25.243278],[-55.017347,-25.239],[-55.01707,-25.235841],[-55.016106,-25.235408],[-55.012839,-25.236479],[-55.012343,-25.235597],[-55.012429,-25.233982],[-55.012769,-25.233617],[-55.01373,-25.23353],[-55.019766,-25.234812],[-55.021934,-25.234859],[-55.02301,-25.233786],[-55.024105,-25.231593],[-55.02447,-25.228912],[-55.023215,-25.229031],[-55.021006,-25.230139],[-55.017961,-25.229985],[-55.017409,-25.229328],[-55.017336,-25.227968],[-55.022319,-25.226058],[-55.024902,-25.223967],[-55.025689,-25.224095],[-55.027734,-25.225887],[-55.028513,-25.225532],[-55.028052,-25.224207],[-55.026888,-25.222413],[-55.021815,-25.218459],[-55.018723,-25.214865],[-55.018821,-25.214014],[-55.019441,-25.213399],[-55.021944,-25.213388],[-55.022613,-25.213072],[-55.023334,-25.211172],[-55.0246,-25.209325],[-55.024598,-25.208607],[-55.019563,-25.206102],[-55.015994,-25.205179],[-55.014903,-25.201025],[-55.013369,-25.199447],[-55.012259,-25.19927],[-55.008721,-25.199588],[-55.008144,-25.199178],[-55.009688,-25.197349],[-55.009433,-25.19456],[-55.009997,-25.193963],[-55.011451,-25.194177],[-55.012219,-25.195284],[-55.013051,-25.195859],[-55.015983,-25.196075],[-55.017584,-25.195356],[-55.019494,-25.192447],[-55.020153,-25.192407],[-55.021955,-25.193185],[-55.022518,-25.193088],[-55.022378,-25.192409],[-55.021077,-25.1913],[-55.02104,-25.19027],[-55.021274,-25.189953],[-55.023309,-25.189213],[-55.024661,-25.187673],[-55.025811,-25.185107],[-55.025438,-25.184881],[-55.024192,-25.18523],[-55.023937,-25.184522],[-55.026016,-25.183823],[-55.027169,-25.182832],[-55.026672,-25.18107],[-55.026189,-25.181099],[-55.025493,-25.180634],[-55.024924,-25.180798],[-55.024521,-25.181339],[-55.023844,-25.181028],[-55.023217,-25.181258],[-55.021729,-25.179844],[-55.020587,-25.175761],[-55.020171,-25.174772],[-55.018529,-25.172683],[-55.017823,-25.169577],[-55.016513,-25.16705],[-55.015443,-25.166394],[-55.012809,-25.165524],[-55.005532,-25.164442],[-55.004353,-25.16379],[-55.002011,-25.159718],[-55.000293,-25.159339],[-54.998573,-25.155122],[-54.99781,-25.154177],[-54.994904,-25.152238],[-54.990884,-25.15138],[-54.985561,-25.147958],[-54.982505,-25.143015],[-54.981519,-25.140654],[-54.980232,-25.139978],[-54.979777,-25.139389],[-54.978418,-25.139461],[-54.977939,-25.139206],[-54.97778,-25.139556],[-54.976962,-25.139848],[-54.975687,-25.139853],[-54.972422,-25.137876],[-54.969894,-25.138167],[-54.967812,-25.137971],[-54.967452,-25.140663],[-54.953368,-25.166655],[-54.941803,-25.181181],[-54.940379,-25.180182],[-54.938894,-25.180112],[-54.9381,-25.179731],[-54.927686,-25.174358],[-54.924154,-25.174733],[-54.903231,-25.16386],[-54.902991,-25.161155],[-54.902426,-25.160117],[-54.878953,-25.138176],[-54.877811,-25.138731],[-54.87713,-25.139705],[-54.877347,-25.140164],[-54.877098,-25.140594],[-54.877546,-25.141882],[-54.878364,-25.142354],[-54.878527,-25.144256],[-54.879273,-25.146497],[-54.878071,-25.147838],[-54.878009,-25.148744],[-54.877358,-25.149421],[-54.877584,-25.150083],[-54.877269,-25.150806],[-54.877414,-25.152383],[-54.87666,-25.153008],[-54.874838,-25.15323],[-54.87474,-25.155224],[-54.874253,-25.155871],[-54.87329,-25.156092],[-54.872842,-25.156673],[-54.872567,-25.158989],[-54.873152,-25.160455],[-54.872213,-25.161258],[-54.872064,-25.162172],[-54.872933,-25.163602],[-54.873019,-25.164921],[-54.872069,-25.165743],[-54.871273,-25.165907],[-54.870609,-25.166714],[-54.869721,-25.166558],[-54.869365,-25.166823],[-54.86865,-25.167616],[-54.867974,-25.17026],[-54.86709,-25.172089],[-54.864221,-25.17323],[-54.864072,-25.175024],[-54.864287,-25.17528],[-54.863431,-25.175507],[-54.864159,-25.175671],[-54.863929,-25.176629],[-54.864647,-25.177799],[-54.864124,-25.178361],[-54.864657,-25.178368],[-54.864704,-25.178721],[-54.864168,-25.178979],[-54.864978,-25.178996],[-54.865928,-25.180409],[-54.865639,-25.180842],[-54.866083,-25.18148],[-54.865601,-25.18248],[-54.866446,-25.183151],[-54.866247,-25.183731],[-54.866524,-25.184651],[-54.866908,-25.184187],[-54.866904,-25.184832],[-54.867378,-25.185259],[-54.867279,-25.185826],[-54.867884,-25.185812],[-54.867359,-25.186771],[-54.868078,-25.186736],[-54.86828,-25.187813],[-54.868782,-25.188488],[-54.868557,-25.189275],[-54.869007,-25.189227],[-54.869351,-25.190505],[-54.870108,-25.191716],[-54.869911,-25.192088],[-54.870447,-25.192078],[-54.87028,-25.192536],[-54.871335,-25.193278],[-54.87097,-25.193489],[-54.871164,-25.194588],[-54.871582,-25.195037],[-54.871479,-25.195663],[-54.872089,-25.196525],[-54.872313,-25.197692],[-54.872089,-25.198086],[-54.872384,-25.201002],[-54.872156,-25.201599],[-54.872615,-25.201849],[-54.872834,-25.202651],[-54.874103,-25.204204],[-54.874439,-25.206605],[-54.87535,-25.208401],[-54.875029,-25.208965],[-54.875245,-25.209501],[-54.87494,-25.209731],[-54.87531,-25.210043],[-54.874901,-25.210268],[-54.875193,-25.211558],[-54.87486,-25.211851],[-54.875235,-25.212281],[-54.874892,-25.212569],[-54.875348,-25.213533],[-54.874855,-25.213964],[-54.874884,-25.214831],[-54.87442,-25.215135],[-54.874777,-25.216472],[-54.874249,-25.217096],[-54.873151,-25.217162],[-54.872818,-25.218935],[-54.873017,-25.219443],[-54.872332,-25.220273],[-54.872662,-25.221266],[-54.872095,-25.221872],[-54.871878,-25.222979],[-54.870992,-25.223549],[-54.870607,-25.224328],[-54.871068,-25.224944],[-54.870832,-25.2256],[-54.871358,-25.226099],[-54.871143,-25.22694],[-54.871711,-25.228415],[-54.871476,-25.228696],[-54.871803,-25.2288],[-54.871576,-25.22914],[-54.871996,-25.229322],[-54.871006,-25.229886],[-54.871115,-25.230352],[-54.870549,-25.230728],[-54.870849,-25.231544],[-54.870288,-25.231762],[-54.871031,-25.23282],[-54.870488,-25.233065],[-54.871384,-25.234404],[-54.871068,-25.235262],[-54.871264,-25.236267],[-54.870894,-25.23702],[-54.872487,-25.240491],[-54.873662,-25.240932],[-54.873977,-25.242444],[-54.874359,-25.242933],[-54.873827,-25.243606],[-54.875336,-25.24477],[-54.876334,-25.247231],[-54.877047,-25.24795],[-54.876677,-25.248522],[-54.877482,-25.249612],[-54.877868,-25.250805],[-54.877659,-25.251715],[-54.830801,-25.279024],[-54.828384,-25.279936],[-54.825318,-25.28032],[-54.73627,-25.278578],[-54.73161,-25.279463],[-54.723494,-25.282484],[-54.701419,-25.246062],[-54.700195,-25.246876],[-54.697552,-25.250494],[-54.696333,-25.253323],[-54.695733,-25.253183],[-54.694673,-25.254579],[-54.692573,-25.256392],[-54.691593,-25.258895],[-54.690574,-25.259344],[-54.689531,-25.260402],[-54.689091,-25.260079],[-54.68798,-25.260729],[-54.686567,-25.259755],[-54.685992,-25.259696],[-54.682202,-25.262035],[-54.676921,-25.26132],[-54.652225,-25.250828],[-54.649159,-25.256616],[-54.645054,-25.257861],[-54.636569,-25.257677],[-54.631565,-25.267062],[-54.630896,-25.275524],[-54.629605,-25.280366],[-54.626607,-25.282995],[-54.615101,-25.286246],[-54.578968,-25.291757],[-54.570759,-25.289682],[-54.560545,-25.288875],[-54.554826,-25.289567],[-54.54302,-25.304739],[-54.54166,-25.321365],[-54.541729,-25.328812],[-54.537325,-25.336445],[-54.531345,-25.342776],[-54.534143,-25.344819],[-54.564848,-25.379307],[-54.584475,-25.397266],[-54.587186,-25.404572],[-54.591259,-25.413994],[-54.594826,-25.419346],[-54.600459,-25.432249],[-54.602111,-25.43715],[-54.604184,-25.441422],[-54.606453,-25.444631],[-54.609788,-25.447018],[-54.617521,-25.451165],[-54.619236,-25.45289],[-54.619867,-25.456393],[-54.619305,-25.461258],[-54.618591,-25.464951],[-54.615531,-25.472207],[-54.606526,-25.479263],[-54.602418,-25.483429],[-54.60012,-25.487525],[-54.597414,-25.489259],[-54.596891,-25.491493],[-54.596626,-25.501868],[-54.5979,-25.504587],[-54.610584,-25.498756],[-54.612127,-25.498648],[-54.614868,-25.499609],[-54.616931,-25.499465],[-54.623278,-25.496235],[-54.623432,-25.494011],[-54.62464,-25.492184],[-54.627638,-25.491328],[-54.629351,-25.491899],[-54.6302,-25.491752],[-54.631998,-25.490359],[-54.632778,-25.489187],[-54.63224,-25.487144],[-54.632757,-25.485816],[-54.634634,-25.484619],[-54.635919,-25.482192],[-54.635978,-25.481472],[-54.638788,-25.477981],[-54.638599,-25.47506],[-54.637869,-25.473425],[-54.637061,-25.472482],[-54.635919,-25.471911],[-54.634286,-25.472272],[-54.633011,-25.473233],[-54.63158,-25.475002],[-54.630731,-25.475499],[-54.627638,-25.474624],[-54.626924,-25.473196],[-54.625782,-25.465201],[-54.625794,-25.463409],[-54.626211,-25.461775],[-54.627495,-25.460204],[-54.62978,-25.45949],[-54.633206,-25.460918],[-54.637918,-25.46049],[-54.640916,-25.458348],[-54.641487,-25.455636],[-54.641629,-25.451495],[-54.640916,-25.448497],[-54.642201,-25.445785],[-54.643675,-25.443851],[-54.647262,-25.442982],[-54.651592,-25.443283],[-54.654953,-25.447505],[-54.658333,-25.456349],[-54.664044,-25.459633],[-54.666043,-25.465487],[-54.665475,-25.468059],[-54.667899,-25.469484],[-54.672182,-25.467914],[-54.675323,-25.465344],[-54.677321,-25.463202],[-54.680605,-25.458777],[-54.681033,-25.455493],[-54.678749,-25.453351],[-54.673467,-25.450782],[-54.670611,-25.444214],[-54.670611,-25.442644],[-54.673467,-25.441502],[-54.676607,-25.43936],[-54.68346,-25.43265],[-54.685617,-25.43207],[-54.691304,-25.434477],[-54.696182,-25.436087],[-54.698308,-25.437361],[-54.699879,-25.444357],[-54.703162,-25.445642],[-54.705732,-25.447641],[-54.709291,-25.443934],[-54.712585,-25.44036],[-54.711888,-25.435878],[-54.711711,-25.427029],[-54.711205,-25.424645],[-54.70964,-25.423683],[-54.700688,-25.423793],[-54.698847,-25.422889],[-54.696452,-25.418088],[-54.694453,-25.417088],[-54.691741,-25.417659],[-54.68034,-25.424067],[-54.674466,-25.423513],[-54.673181,-25.422085],[-54.671611,-25.418802],[-54.67004,-25.414233],[-54.675751,-25.414376],[-54.67932,-25.413662],[-54.682604,-25.412234],[-54.68446,-25.409093],[-54.684602,-25.406666],[-54.686458,-25.40324],[-54.689314,-25.401384],[-54.696024,-25.398243],[-54.698022,-25.396214],[-54.700024,-25.395108],[-54.701177,-25.396283]]]}}]}
