{"type":"FeatureCollection","name":"distrito","features":[{"type":"Feature","properties":{"clave":"4-11","nombre":"Gral. Eugenio A. Garay"},"geometry":{"type":"Polygon","coordinates":[[[-56.180444,-26.063412],[-56.27254,-25.977978],[-56.273931,-25.978373],[-56.277796,-25.977968],[-56.278508,-25.97729],[-56.280961,-25.976187],[-56.281246,-25.972478],[-56.274157,-25.942003],[-56.273362,-25.942203],[-56.272738,-25.941518],[-56.272206,-25.942061],[-56.271536,-25.942085],[-56.271128,-25.941275],[-56.271358,-25.940797],[-56.270754,-25.94051],[-56.270104,-25.940696],[-56.27009,-25.939947],[-56.269444,-25.940526],[-56.268789,-25.940058],[-56.268443,-25.940801],[-56.268349,-25.940277],[-56.267294,-25.939978],[-56.265203,-25.940473],[-56.264657,-25.939066],[-56.26415,-25.939456],[-56.26376,-25.93856],[-56.264136,-25.938043],[-56.263794,-25.937337],[-56.2628,-25.937165],[-56.262443,-25.936829],[-56.262362,-25.936332],[-56.263019,-25.936186],[-56.262684,-25.935832],[-56.263585,-25.935611],[-56.262917,-25.935111],[-56.262431,-25.934179],[-56.261566,-25.933881],[-56.261939,-25.933233],[-56.260352,-25.932534],[-56.26104,-25.932108],[-56.260461,-25.931902],[-56.260509,-25.931663],[-56.2618,-25.931498],[-56.261961,-25.930709],[-56.26271,-25.930623],[-56.262417,-25.930147],[-56.261806,-25.929923],[-56.262033,-25.928845],[-56.263145,-25.929203],[-56.263025,-25.928796],[-56.261636,-25.92826],[-56.261451,-25.927822],[-56.262797,-25.926713],[-56.262333,-25.926061],[-56.262698,-25.925385],[-56.262051,-25.92503],[-56.262739,-25.924433],[-56.26283,-25.923923],[-56.261048,-25.924262],[-56.260376,-25.925238],[-56.258555,-25.923766],[-56.257421,-25.924261],[-56.257348,-25.924825],[-56.256646,-25.924876],[-56.25584,-25.924723],[-56.255851,-25.924037],[-56.255552,-25.923846],[-56.255255,-25.925013],[-56.254099,-25.924574],[-56.253873,-25.92358],[-56.252611,-25.923307],[-56.253388,-25.922101],[-56.251961,-25.919971],[-56.253595,-25.920504],[-56.253784,-25.919475],[-56.253274,-25.918908],[-56.254042,-25.918542],[-56.254273,-25.918114],[-56.253893,-25.917814],[-56.253822,-25.915827],[-56.253068,-25.915751],[-56.253357,-25.914493],[-56.252224,-25.914474],[-56.252861,-25.913416],[-56.252664,-25.91328],[-56.2517,-25.913758],[-56.251747,-25.912905],[-56.250877,-25.911094],[-56.251415,-25.9093],[-56.250541,-25.908578],[-56.251636,-25.907441],[-56.250612,-25.906109],[-56.250403,-25.903864],[-56.249731,-25.903635],[-56.249658,-25.903029],[-56.249085,-25.902503],[-56.249397,-25.901515],[-56.250141,-25.901072],[-56.250328,-25.900599],[-56.250165,-25.899853],[-56.24925,-25.899086],[-56.249398,-25.89743],[-56.250721,-25.897053],[-56.249646,-25.895968],[-56.25042,-25.895439],[-56.251138,-25.894007],[-56.251938,-25.894219],[-56.252545,-25.893477],[-56.253546,-25.893293],[-56.254363,-25.892688],[-56.256301,-25.892427],[-56.257589,-25.892772],[-56.258621,-25.892651],[-56.260599,-25.89179],[-56.261099,-25.890871],[-56.262729,-25.890789],[-56.263291,-25.88941],[-56.264718,-25.888551],[-56.265872,-25.88848],[-56.269391,-25.886638],[-56.272018,-25.886299],[-56.273136,-25.885677],[-56.275051,-25.886088],[-56.276148,-25.886008],[-56.277217,-25.8852],[-56.277419,-25.884741],[-56.276998,-25.88417],[-56.276557,-25.880863],[-56.277315,-25.878957],[-56.277064,-25.878283],[-56.276798,-25.844823],[-56.2762,-25.845172],[-56.274373,-25.844901],[-56.272428,-25.844065],[-56.268631,-25.844895],[-56.266978,-25.844864],[-56.263365,-25.843279],[-56.258674,-25.842158],[-56.256144,-25.840389],[-56.255664,-25.840364],[-56.25301,-25.838576],[-56.251689,-25.838063],[-56.250756,-25.838388],[-56.250791,-25.839499],[-56.249406,-25.839686],[-56.248807,-25.839091],[-56.248204,-25.836149],[-56.246396,-25.836776],[-56.243683,-25.837001],[-56.241098,-25.835841],[-56.240854,-25.836743],[-56.238759,-25.837075],[-56.237545,-25.837877],[-56.236254,-25.837116],[-56.2328,-25.83759],[-56.231867,-25.837124],[-56.231058,-25.837143],[-56.229173,-25.837982],[-56.228635,-25.838507],[-56.227998,-25.839971],[-56.226058,-25.840692],[-56.225048,-25.841766],[-56.224141,-25.841716],[-56.222817,-25.840652],[-56.221395,-25.842003],[-56.220155,-25.842295],[-56.219067,-25.842068],[-56.218038,-25.840866],[-56.216199,-25.841],[-56.215673,-25.83925],[-56.215222,-25.838936],[-56.211344,-25.838477],[-56.210131,-25.83922],[-56.207805,-25.839614],[-56.20651,-25.83846],[-56.204515,-25.838259],[-56.192228,-25.858661],[-56.125128,-25.864965],[-56.126205,-25.865746],[-56.12533,-25.867691],[-56.125635,-25.868506],[-56.129132,-25.868554],[-56.129848,-25.868911],[-56.129768,-25.869371],[-56.128118,-25.870363],[-56.12818,-25.870991],[-56.128895,-25.871871],[-56.129695,-25.872228],[-56.131617,-25.871589],[-56.132457,-25.871621],[-56.132283,-25.873796],[-56.135321,-25.874424],[-56.134961,-25.876982],[-56.135807,-25.881191],[-56.134385,-25.884572],[-56.132255,-25.887801],[-56.139636,-25.899249],[-56.133017,-25.903033],[-56.130428,-25.906661],[-56.129953,-25.908234],[-56.128011,-25.910087],[-56.127117,-25.911666],[-56.12492,-25.913694],[-56.123646,-25.915365],[-56.12014,-25.917818],[-56.11761,-25.920272],[-56.117294,-25.920288],[-56.115991,-25.922267],[-56.115339,-25.924723],[-56.115365,-25.92694],[-56.115739,-25.927764],[-56.118051,-25.929173],[-56.11987,-25.928706],[-56.120407,-25.928709],[-56.120701,-25.929117],[-56.12018,-25.929534],[-56.120104,-25.930188],[-56.119268,-25.930856],[-56.118484,-25.930964],[-56.117639,-25.930656],[-56.116893,-25.931491],[-56.115986,-25.93145],[-56.114487,-25.934267],[-56.112959,-25.935327],[-56.112481,-25.93704],[-56.113258,-25.938281],[-56.112582,-25.939275],[-56.112873,-25.93985],[-56.111921,-25.940436],[-56.112743,-25.941087],[-56.112291,-25.941756],[-56.113586,-25.94246],[-56.114745,-25.94392],[-56.115158,-25.943801],[-56.115102,-25.944749],[-56.114737,-25.945081],[-56.11512,-25.946577],[-56.115856,-25.946762],[-56.116961,-25.947817],[-56.117505,-25.947712],[-56.117456,-25.948497],[-56.118003,-25.948943],[-56.118762,-25.948897],[-56.119695,-25.950185],[-56.120373,-25.951995],[-56.120785,-25.951939],[-56.120656,-25.950954],[-56.120897,-25.950581],[-56.1218,-25.951246],[-56.121947,-25.951833],[-56.122793,-25.951735],[-56.122898,-25.953261],[-56.121932,-25.953811],[-56.123168,-25.954274],[-56.122558,-25.95483],[-56.122724,-25.955089],[-56.123991,-25.956004],[-56.125186,-25.955672],[-56.125316,-25.956743],[-56.125856,-25.957175],[-56.127441,-25.957334],[-56.127208,-25.958556],[-56.127512,-25.959135],[-56.128363,-25.959687],[-56.128695,-25.959739],[-56.128687,-25.959057],[-56.129249,-25.958667],[-56.129701,-25.959672],[-56.131589,-25.959589],[-56.130843,-25.960546],[-56.131591,-25.962334],[-56.131137,-25.963166],[-56.131524,-25.964198],[-56.132275,-25.963679],[-56.132457,-25.963806],[-56.132002,-25.96449],[-56.130727,-25.965132],[-56.131537,-25.965489],[-56.130814,-25.966456],[-56.131845,-25.966809],[-56.131323,-25.967316],[-56.132703,-25.966706],[-56.13249,-25.96791],[-56.133416,-25.967844],[-56.1328,-25.96975],[-56.133309,-25.969992],[-56.133575,-25.970775],[-56.132099,-25.970107],[-56.132498,-25.97154],[-56.132172,-25.971981],[-56.132891,-25.972044],[-56.133049,-25.972564],[-56.134161,-25.972706],[-56.133741,-25.973602],[-56.134671,-25.97307],[-56.135221,-25.973155],[-56.137707,-25.97554],[-56.139364,-25.974479],[-56.141623,-25.97466],[-56.141485,-25.974113],[-56.142823,-25.972807],[-56.143167,-25.972687],[-56.144185,-25.973081],[-56.146442,-25.97295],[-56.146583,-25.972486],[-56.147098,-25.972209],[-56.146997,-25.971188],[-56.147863,-25.971925],[-56.148205,-25.970708],[-56.149294,-25.971211],[-56.149591,-25.97049],[-56.150145,-25.971035],[-56.150696,-25.970935],[-56.151009,-25.970779],[-56.150893,-25.969451],[-56.152404,-25.968949],[-56.154862,-25.969817],[-56.155527,-25.970877],[-56.155192,-25.971828],[-56.155472,-25.972136],[-56.155438,-25.973206],[-56.155651,-25.973424],[-56.155894,-25.973209],[-56.156303,-25.972313],[-56.156831,-25.973575],[-56.151859,-25.985179],[-56.139631,-25.994504],[-56.133537,-26.000504],[-56.128906,-26.007595],[-56.12511,-26.020834],[-56.120771,-26.027396],[-56.12096,-26.029357],[-56.121303,-26.029941],[-56.120881,-26.030286],[-56.121943,-26.030717],[-56.122187,-26.030199],[-56.123162,-26.031004],[-56.123214,-26.030549],[-56.123645,-26.030542],[-56.12401,-26.03128],[-56.124649,-26.030797],[-56.12482,-26.031804],[-56.125871,-26.030619],[-56.126267,-26.030964],[-56.126731,-26.030719],[-56.127253,-26.031124],[-56.127341,-26.030592],[-56.1281,-26.030312],[-56.127829,-26.029872],[-56.129065,-26.030394],[-56.1293,-26.029804],[-56.130139,-26.029981],[-56.130312,-26.029359],[-56.130854,-26.029891],[-56.131152,-26.029305],[-56.131612,-26.029669],[-56.133022,-26.029281],[-56.134281,-26.029324],[-56.134833,-26.028682],[-56.135169,-26.028684],[-56.135227,-26.029389],[-56.136796,-26.030134],[-56.137666,-26.031809],[-56.140187,-26.034578],[-56.141733,-26.035725],[-56.144308,-26.037014],[-56.148668,-26.038159],[-56.151081,-26.041415],[-56.153396,-26.043744],[-56.155398,-26.048654],[-56.15603,-26.049552],[-56.158939,-26.049984],[-56.159643,-26.051428],[-56.159632,-26.052909],[-56.160423,-26.054033],[-56.161974,-26.054516],[-56.163006,-26.054125],[-56.163346,-26.053653],[-56.1637,-26.053994],[-56.164352,-26.053961],[-56.164578,-26.054703],[-56.165122,-26.054896],[-56.166426,-26.054696],[-56.166264,-26.053954],[-56.16681,-26.053917],[-56.167864,-26.056392],[-56.168782,-26.057287],[-56.168771,-26.058732],[-56.169507,-26.058677],[-56.169911,-26.058052],[-56.170564,-26.057884],[-56.171127,-26.058384],[-56.17114,-26.059522],[-56.171701,-26.060455],[-56.172601,-26.060898],[-56.175395,-26.060986],[-56.176274,-26.061411],[-56.177273,-26.062762],[-56.178467,-26.063284],[-56.180444,-26.063412]]]}}]}
