{"type":"FeatureCollection","name":"distrito","features":[{"type":"Feature","properties":{"clave":"7-51","nombre":"San Rafael del Paraná"},"geometry":{"type":"Polygon","coordinates":[[[-55.011859,-26.662509],[-55.013822,-26.662517],[-55.016217,-26.663179],[-55.01929,-26.665432],[-55.021879,-26.665867],[-55.028448,-26.665129],[-55.030079,-26.666205],[-55.032436,-26.666564],[-55.0335,-26.666326],[-55.034544,-26.665697],[-55.035828,-26.664317],[-55.035685,-26.663527],[-55.033286,-26.662011],[-55.029669,-26.662137],[-55.028911,-26.661676],[-55.028594,-26.660062],[-55.029411,-26.655772],[-55.027889,-26.650114],[-55.028293,-26.648896],[-55.029248,-26.647469],[-55.030458,-26.646726],[-55.03104,-26.646987],[-55.031236,-26.647447],[-55.031214,-26.650061],[-55.032774,-26.650364],[-55.033254,-26.650174],[-55.033926,-26.646078],[-55.03501,-26.64447],[-55.036663,-26.643417],[-55.036916,-26.642345],[-55.034143,-26.640767],[-55.033323,-26.640686],[-55.028003,-26.644815],[-55.027401,-26.644385],[-55.027315,-26.643449],[-55.026676,-26.643314],[-55.023721,-26.644559],[-55.02271,-26.644686],[-55.021225,-26.64373],[-55.01794,-26.640549],[-55.017769,-26.640034],[-55.018548,-26.638372],[-55.019974,-26.637345],[-55.020966,-26.636065],[-55.022391,-26.637343],[-55.02493,-26.640668],[-55.025997,-26.640936],[-55.027699,-26.6398],[-55.03112,-26.636396],[-55.038184,-26.633141],[-55.039572,-26.630629],[-55.038803,-26.629382],[-55.035034,-26.629351],[-55.033458,-26.631859],[-55.032402,-26.632358],[-55.029546,-26.632895],[-55.02858,-26.632635],[-55.02532,-26.630763],[-55.024689,-26.630156],[-55.024583,-26.629515],[-55.025284,-26.629202],[-55.03013,-26.629845],[-55.031855,-26.629138],[-55.032359,-26.628449],[-55.032259,-26.6279],[-55.030959,-26.626658],[-55.028418,-26.62571],[-55.028236,-26.625356],[-55.028496,-26.624804],[-55.030356,-26.623466],[-55.034798,-26.623035],[-55.040971,-26.621026],[-55.042,-26.619873],[-55.042335,-26.618079],[-55.041297,-26.616595],[-55.039327,-26.615647],[-55.039712,-26.614633],[-55.041391,-26.613841],[-55.045837,-26.613593],[-55.047226,-26.612389],[-55.047613,-26.61167],[-55.047412,-26.6088],[-55.048164,-26.607348],[-55.048246,-26.604826],[-55.047924,-26.602621],[-55.047028,-26.601512],[-55.044268,-26.599654],[-55.041374,-26.599256],[-55.035591,-26.60366],[-55.03364,-26.603873],[-55.032116,-26.603388],[-55.030279,-26.601998],[-55.030161,-26.601554],[-55.030842,-26.599694],[-55.030163,-26.598693],[-55.028782,-26.597648],[-55.029156,-26.596817],[-55.032841,-26.59388],[-55.033241,-26.591095],[-55.034096,-26.589069],[-55.03463,-26.588507],[-55.036654,-26.588563],[-55.037531,-26.588912],[-55.038398,-26.590794],[-55.038089,-26.591507],[-55.036829,-26.592016],[-55.035189,-26.594665],[-55.035298,-26.595165],[-55.037461,-26.594851],[-55.039389,-26.591827],[-55.041128,-26.590269],[-55.041466,-26.589248],[-55.041352,-26.588114],[-55.039682,-26.586102],[-55.039134,-26.58478],[-55.038088,-26.583803],[-55.037788,-26.58304],[-55.042691,-26.582032],[-55.043178,-26.58239],[-55.043475,-26.583294],[-55.044145,-26.582958],[-55.044543,-26.582078],[-55.043105,-26.581616],[-55.042155,-26.580928],[-55.043167,-26.577027],[-55.044094,-26.576765],[-55.04504,-26.577221],[-55.045325,-26.57882],[-55.045829,-26.57908],[-55.047232,-26.578854],[-55.048744,-26.578214],[-55.049667,-26.578191],[-55.049939,-26.578736],[-55.049447,-26.580128],[-55.051272,-26.58222],[-55.052863,-26.582888],[-55.056141,-26.582729],[-55.056574,-26.583044],[-55.056207,-26.584853],[-55.054838,-26.585825],[-55.054005,-26.585645],[-55.050844,-26.583479],[-55.049206,-26.584181],[-55.046299,-26.588274],[-55.045855,-26.590004],[-55.046044,-26.590829],[-55.047382,-26.591213],[-55.052644,-26.590848],[-55.053948,-26.592495],[-55.056297,-26.594575],[-55.05692,-26.595695],[-55.057109,-26.596978],[-55.056993,-26.598922],[-55.055335,-26.602533],[-55.055454,-26.602819],[-55.055968,-26.60281],[-55.057785,-26.601495],[-55.060653,-26.598331],[-55.065986,-26.597423],[-55.070952,-26.595573],[-55.073143,-26.594966],[-55.0745,-26.595127],[-55.075742,-26.594488],[-55.079753,-26.59366],[-55.080155,-26.593298],[-55.079052,-26.590642],[-55.075687,-26.588022],[-55.073964,-26.586156],[-55.071543,-26.585246],[-55.07075,-26.584516],[-55.072776,-26.57962],[-55.074121,-26.579362],[-55.076172,-26.580335],[-55.077055,-26.580374],[-55.079802,-26.577066],[-55.079246,-26.575066],[-55.078146,-26.57375],[-55.076871,-26.572942],[-55.074718,-26.572897],[-55.07534,-26.570937],[-55.082049,-26.569663],[-55.085804,-26.569658],[-55.087727,-26.569067],[-55.090814,-26.565823],[-55.092086,-26.562582],[-55.092671,-26.56229],[-55.095343,-26.561871],[-55.096383,-26.56196],[-55.100228,-26.563687],[-55.101006,-26.56131],[-55.100823,-26.560955],[-55.097374,-26.56053],[-55.095163,-26.560789],[-55.094678,-26.560596],[-55.09466,-26.560058],[-55.095914,-26.557908],[-55.102343,-26.556302],[-55.102692,-26.556481],[-55.103253,-26.557995],[-55.104013,-26.558671],[-55.106527,-26.557624],[-55.105705,-26.552475],[-55.105236,-26.551555],[-55.104246,-26.550874],[-55.103704,-26.551092],[-55.102472,-26.55376],[-55.1002,-26.554981],[-55.098659,-26.555115],[-55.097291,-26.554612],[-55.096219,-26.552784],[-55.092998,-26.550984],[-55.092216,-26.550067],[-55.092499,-26.548995],[-55.092989,-26.548699],[-55.096441,-26.549765],[-55.09823,-26.548847],[-55.099771,-26.548811],[-55.100223,-26.548416],[-55.100269,-26.547496],[-55.099828,-26.546759],[-55.096396,-26.546805],[-55.095214,-26.546452],[-55.094715,-26.545932],[-55.094655,-26.544335],[-55.096221,-26.539914],[-55.095409,-26.538947],[-55.095402,-26.53842],[-55.099457,-26.53562],[-55.102192,-26.534166],[-55.104653,-26.531879],[-55.104671,-26.531226],[-55.103055,-26.529735],[-55.101822,-26.526753],[-55.100389,-26.526944],[-55.097826,-26.528857],[-55.096359,-26.529175],[-55.095193,-26.52691],[-55.094729,-26.524261],[-55.093747,-26.521724],[-55.090857,-26.520245],[-55.086732,-26.516049],[-55.084016,-26.514897],[-55.083734,-26.514126],[-55.085191,-26.512345],[-55.087325,-26.51088],[-55.089042,-26.510253],[-55.090521,-26.511009],[-55.093357,-26.51162],[-55.097323,-26.513397],[-55.100128,-26.51732],[-55.101599,-26.518278],[-55.105436,-26.517833],[-55.106431,-26.517476],[-55.107706,-26.516486],[-55.107759,-26.515828],[-55.107364,-26.51548],[-55.104123,-26.515265],[-55.101738,-26.514336],[-55.099937,-26.512497],[-55.098107,-26.511218],[-55.096886,-26.509221],[-55.095221,-26.507966],[-55.092978,-26.506935],[-55.090553,-26.50535],[-55.089884,-26.502403],[-55.090284,-26.500454],[-55.090931,-26.500372],[-55.095655,-26.502683],[-55.100117,-26.506023],[-55.10118,-26.506259],[-55.101845,-26.505983],[-55.102198,-26.505261],[-55.101971,-26.501531],[-55.10252,-26.49952],[-55.103294,-26.499116],[-55.105438,-26.498751],[-55.108004,-26.496727],[-55.106705,-26.49055],[-55.107804,-26.487202],[-55.107405,-26.48388],[-55.108265,-26.482045],[-55.110219,-26.480857],[-55.110071,-26.47928],[-55.111015,-26.478318],[-55.111438,-26.478481],[-55.112442,-26.480751],[-55.116219,-26.483712],[-55.116804,-26.485584],[-55.116611,-26.487287],[-55.115221,-26.490703],[-55.113492,-26.493808],[-55.11277,-26.496452],[-55.112714,-26.498848],[-55.114285,-26.500376],[-55.114295,-26.505142],[-55.115013,-26.505242],[-55.115985,-26.504023],[-55.117178,-26.503194],[-55.11916,-26.500373],[-55.120755,-26.499631],[-55.122644,-26.497805],[-55.124335,-26.497088],[-55.127965,-26.497438],[-55.129176,-26.497815],[-55.13535,-26.501587],[-55.137796,-26.502454],[-55.138703,-26.502358],[-55.138866,-26.501556],[-55.137869,-26.499828],[-55.136318,-26.498896],[-55.135776,-26.496032],[-55.133475,-26.494459],[-55.132017,-26.493826],[-55.131027,-26.492874],[-55.130784,-26.489572],[-55.131004,-26.488677],[-55.134166,-26.485961],[-55.135195,-26.48564],[-55.137738,-26.486107],[-55.139855,-26.487673],[-55.140732,-26.488],[-55.144197,-26.487454],[-55.144945,-26.48676],[-55.145831,-26.484917],[-55.146239,-26.481857],[-55.147312,-26.480441],[-55.150548,-26.477508],[-55.150813,-26.476569],[-55.15025,-26.474986],[-55.147738,-26.474394],[-55.146697,-26.474421],[-55.143098,-26.475986],[-55.139851,-26.478037],[-55.138331,-26.478505],[-55.137258,-26.478378],[-55.136795,-26.477903],[-55.136906,-26.477056],[-55.139202,-26.47394],[-55.139721,-26.472566],[-55.136104,-26.471372],[-55.135094,-26.470705],[-55.135258,-26.469908],[-55.135726,-26.468686],[-55.13642,-26.46814],[-55.142139,-26.467023],[-55.143005,-26.466376],[-55.143476,-26.465461],[-55.142221,-26.461419],[-55.145109,-26.458902],[-55.145976,-26.458625],[-55.149384,-26.459039],[-55.153832,-26.459011],[-55.154309,-26.458566],[-55.153108,-26.454574],[-55.150976,-26.454009],[-55.147204,-26.450964],[-55.146335,-26.451011],[-55.145875,-26.45258],[-55.144906,-26.453235],[-55.142283,-26.451441],[-55.141636,-26.449235],[-55.142715,-26.448346],[-55.14381,-26.445883],[-55.147192,-26.444907],[-55.150337,-26.443192],[-55.152657,-26.442779],[-55.155373,-26.440842],[-55.156254,-26.441021],[-55.156191,-26.442256],[-55.156901,-26.442712],[-55.157348,-26.442443],[-55.158135,-26.441004],[-55.159226,-26.441804],[-55.159945,-26.441826],[-55.160908,-26.440882],[-55.162885,-26.440813],[-55.163656,-26.439424],[-55.16478,-26.439889],[-55.168369,-26.442914],[-55.170316,-26.44312],[-55.172305,-26.44398],[-55.17304,-26.443895],[-55.175674,-26.441478],[-55.176496,-26.439917],[-55.175799,-26.439182],[-55.174356,-26.439741],[-55.173827,-26.439292],[-55.173442,-26.437595],[-55.173648,-26.434637],[-55.172511,-26.433471],[-55.172594,-26.433066],[-55.173648,-26.431744],[-55.177182,-26.430678],[-55.177919,-26.43067],[-55.178214,-26.431129],[-55.177341,-26.433307],[-55.177609,-26.434412],[-55.178235,-26.434957],[-55.178945,-26.435133],[-55.179871,-26.434657],[-55.180208,-26.433574],[-55.180539,-26.433483],[-55.182151,-26.43451],[-55.184021,-26.436759],[-55.187829,-26.436451],[-55.189764,-26.434882],[-55.188042,-26.43366],[-55.185797,-26.43295],[-55.185289,-26.432497],[-55.185116,-26.431186],[-55.185821,-26.429877],[-55.185302,-26.426535],[-55.186169,-26.423355],[-55.186715,-26.423087],[-55.188142,-26.425009],[-55.191987,-26.424079],[-55.193955,-26.424428],[-55.193223,-26.426653],[-55.191936,-26.427923],[-55.191992,-26.428673],[-55.193723,-26.428677],[-55.196671,-26.42764],[-55.197243,-26.42623],[-55.198652,-26.425147],[-55.199803,-26.422688],[-55.199843,-26.421898],[-55.199056,-26.419727],[-55.198848,-26.417332],[-55.200316,-26.414403],[-55.201606,-26.413029],[-55.202138,-26.413149],[-55.203508,-26.414498],[-55.204747,-26.415168],[-55.210021,-26.415802],[-55.210947,-26.415552],[-55.212054,-26.41469],[-55.211848,-26.412707],[-55.212547,-26.411136],[-55.217436,-26.410966],[-55.21988,-26.41194],[-55.223982,-26.412763],[-55.224222,-26.413371],[-55.223392,-26.414484],[-55.22294,-26.415932],[-55.222918,-26.416433],[-55.223291,-26.416798],[-55.228576,-26.418484],[-55.230003,-26.417509],[-55.231242,-26.417773],[-55.231432,-26.417026],[-55.229718,-26.414879],[-55.22913,-26.412407],[-55.231115,-26.41059],[-55.231646,-26.408882],[-55.232459,-26.407533],[-55.234716,-26.406297],[-55.23496,-26.405687],[-55.234623,-26.404446],[-55.236224,-26.403495],[-55.237129,-26.403551],[-55.239713,-26.406526],[-55.240465,-26.406192],[-55.241265,-26.405047],[-55.243127,-26.400723],[-55.242187,-26.399285],[-55.242091,-26.398607],[-55.242519,-26.39785],[-55.243512,-26.397361],[-55.246039,-26.397293],[-55.248419,-26.396257],[-55.249642,-26.396321],[-55.250906,-26.39682],[-55.253128,-26.399152],[-55.253799,-26.402707],[-55.254947,-26.404908],[-55.255203,-26.406548],[-55.255712,-26.407436],[-55.256427,-26.40807],[-55.259127,-26.408447],[-55.259641,-26.406674],[-55.258666,-26.405808],[-55.258732,-26.405184],[-55.25944,-26.403108],[-55.261254,-26.401561],[-55.260863,-26.399824],[-55.259779,-26.399226],[-55.257256,-26.39853],[-55.257449,-26.398224],[-55.258154,-26.398375],[-55.258626,-26.39816],[-55.258902,-26.396876],[-55.259892,-26.396752],[-55.265376,-26.398447],[-55.268316,-26.398269],[-55.269386,-26.397377],[-55.270155,-26.395927],[-55.271597,-26.391084],[-55.270939,-26.390605],[-55.268727,-26.390987],[-55.268533,-26.390534],[-55.269548,-26.389176],[-55.272144,-26.387134],[-55.273092,-26.386888],[-55.274478,-26.387118],[-55.278256,-26.385737],[-55.278808,-26.384457],[-55.278427,-26.383559],[-55.279379,-26.382393],[-55.280011,-26.382594],[-55.280784,-26.383342],[-55.280986,-26.384587],[-55.283002,-26.384578],[-55.283693,-26.384118],[-55.284515,-26.384436],[-55.286091,-26.382759],[-55.287579,-26.382071],[-55.29071,-26.383033],[-55.291408,-26.382982],[-55.292151,-26.382176],[-55.293521,-26.381747],[-55.29516,-26.379987],[-55.295178,-26.379208],[-55.2948,-26.378907],[-55.292437,-26.378881],[-55.291073,-26.379153],[-55.290692,-26.377725],[-55.289759,-26.377568],[-55.289013,-26.378138],[-55.285755,-26.377841],[-55.284782,-26.37731],[-55.284551,-26.376874],[-55.284768,-26.376447],[-55.287373,-26.374648],[-55.286916,-26.372347],[-55.28713,-26.370784],[-55.287542,-26.370098],[-55.288849,-26.369841],[-55.289339,-26.369422],[-55.289319,-26.367657],[-55.290407,-26.365764],[-55.292273,-26.364511],[-55.293874,-26.364218],[-55.295508,-26.363443],[-55.297645,-26.363385],[-55.29869,-26.363656],[-55.299207,-26.364045],[-55.29947,-26.364954],[-55.299918,-26.369455],[-55.298947,-26.370994],[-55.297398,-26.372439],[-55.299216,-26.373915],[-55.298873,-26.374212],[-55.29806,-26.374008],[-55.298018,-26.374795],[-55.299516,-26.374397],[-55.300465,-26.371676],[-55.302269,-26.371951],[-55.304821,-26.369446],[-55.306046,-26.369753],[-55.307455,-26.369422],[-55.30805,-26.370165],[-55.310241,-26.371357],[-55.312478,-26.370253],[-55.312821,-26.371174],[-55.314669,-26.37086],[-55.314718,-26.371117],[-55.314174,-26.371407],[-55.314734,-26.371845],[-55.315927,-26.370661],[-55.318847,-26.372447],[-55.318322,-26.377807],[-55.317714,-26.378567],[-55.318349,-26.379859],[-55.319292,-26.380523],[-55.318813,-26.381478],[-55.319807,-26.381656],[-55.323829,-26.381272],[-55.325092,-26.38169],[-55.325814,-26.382157],[-55.326373,-26.385118],[-55.326722,-26.385264],[-55.328029,-26.383824],[-55.328817,-26.383659],[-55.329423,-26.383101],[-55.328891,-26.382245],[-55.329086,-26.381808],[-55.331021,-26.380648],[-55.331642,-26.380814],[-55.33195,-26.381652],[-55.3324,-26.381507],[-55.331408,-26.37936],[-55.330417,-26.378708],[-55.330306,-26.378145],[-55.331124,-26.376525],[-55.332916,-26.376166],[-55.333154,-26.374892],[-55.334162,-26.373488],[-55.334787,-26.374875],[-55.335433,-26.374828],[-55.336165,-26.374322],[-55.337421,-26.374847],[-55.339168,-26.374899],[-55.340285,-26.375398],[-55.341338,-26.375426],[-55.341535,-26.375788],[-55.341251,-26.376599],[-55.341653,-26.376715],[-55.342519,-26.376025],[-55.343241,-26.377089],[-55.343008,-26.379277],[-55.344122,-26.379353],[-55.344826,-26.37861],[-55.345542,-26.379243],[-55.346956,-26.379224],[-55.3477,-26.375962],[-55.349668,-26.375609],[-55.349749,-26.374475],[-55.35082,-26.374211],[-55.350865,-26.375038],[-55.352268,-26.375501],[-55.353698,-26.376818],[-55.353939,-26.377473],[-55.356021,-26.377062],[-55.357187,-26.377503],[-55.357671,-26.378378],[-55.358124,-26.378301],[-55.358265,-26.377317],[-55.357655,-26.375444],[-55.357831,-26.373856],[-55.358735,-26.373009],[-55.359026,-26.374143],[-55.35956,-26.373643],[-55.359525,-26.372361],[-55.35871,-26.371964],[-55.360512,-26.371772],[-55.361387,-26.372335],[-55.361579,-26.373014],[-55.363094,-26.372367],[-55.363172,-26.371862],[-55.36377,-26.371481],[-55.365853,-26.371944],[-55.366583,-26.371209],[-55.366609,-26.370296],[-55.365644,-26.370514],[-55.366005,-26.369818],[-55.36571,-26.368692],[-55.366005,-26.367695],[-55.367339,-26.367718],[-55.366995,-26.366903],[-55.365781,-26.366704],[-55.365747,-26.364445],[-55.366267,-26.3637],[-55.368109,-26.364132],[-55.371501,-26.363617],[-55.373407,-26.362931],[-55.373905,-26.361814],[-55.377257,-26.362912],[-55.378931,-26.362742],[-55.379466,-26.362943],[-55.379982,-26.362154],[-55.380678,-26.36241],[-55.381774,-26.361059],[-55.38303,-26.36125],[-55.383465,-26.360948],[-55.384761,-26.360854],[-55.384237,-26.358469],[-55.38596,-26.359423],[-55.386838,-26.358512],[-55.385613,-26.357627],[-55.385599,-26.356237],[-55.386225,-26.355603],[-55.386249,-26.354786],[-55.386559,-26.354523],[-55.385974,-26.354088],[-55.388442,-26.352446],[-55.390431,-26.352874],[-55.390788,-26.35365],[-55.39183,-26.354113],[-55.392022,-26.355109],[-55.392704,-26.355373],[-55.394782,-26.355464],[-55.396218,-26.35442],[-55.397792,-26.353896],[-55.398292,-26.356722],[-55.400904,-26.3583],[-55.402145,-26.358377],[-55.403258,-26.358087],[-55.40516,-26.357305],[-55.406122,-26.356539],[-55.40659,-26.357704],[-55.403911,-26.35976],[-55.404292,-26.360676],[-55.403803,-26.362823],[-55.404025,-26.364726],[-55.404951,-26.365829],[-55.4055,-26.366002],[-55.406003,-26.3658],[-55.406497,-26.362975],[-55.406999,-26.361667],[-55.40762,-26.361051],[-55.409111,-26.361998],[-55.409834,-26.361816],[-55.410148,-26.361273],[-55.414015,-26.361998],[-55.415853,-26.361662],[-55.416656,-26.362235],[-55.417067,-26.361865],[-55.418309,-26.361648],[-55.417701,-26.361443],[-55.418031,-26.361144],[-55.419665,-26.360819],[-55.41949,-26.361341],[-55.419766,-26.361443],[-55.420234,-26.360857],[-55.421136,-26.36079],[-55.42132,-26.360503],[-55.421071,-26.35986],[-55.421667,-26.359487],[-55.422166,-26.357886],[-55.42302,-26.35725],[-55.424474,-26.357527],[-55.424996,-26.356888],[-55.425916,-26.356677],[-55.426218,-26.355705],[-55.42803,-26.353748],[-55.428414,-26.352624],[-55.429166,-26.353408],[-55.432235,-26.35258],[-55.433147,-26.352685],[-55.434218,-26.354299],[-55.434513,-26.355132],[-55.434318,-26.35569],[-55.435403,-26.356564],[-55.436168,-26.357705],[-55.439283,-26.358051],[-55.438959,-26.357686],[-55.440619,-26.356711],[-55.441586,-26.357882],[-55.442453,-26.358207],[-55.443262,-26.357805],[-55.443833,-26.357969],[-55.443678,-26.358266],[-55.444296,-26.358177],[-55.444897,-26.358843],[-55.44622,-26.359345],[-55.44691,-26.359118],[-55.447515,-26.358068],[-55.447385,-26.357593],[-55.446742,-26.357215],[-55.447856,-26.357124],[-55.449831,-26.356143],[-55.450404,-26.356163],[-55.450239,-26.356572],[-55.45048,-26.356574],[-55.450776,-26.35544],[-55.452092,-26.354064],[-55.451129,-26.353774],[-55.449949,-26.351315],[-55.450145,-26.34966],[-55.449896,-26.348877],[-55.450789,-26.345167],[-55.451547,-26.333101],[-55.452104,-26.329117],[-55.449969,-26.324923],[-55.452063,-26.324578],[-55.448336,-26.32438],[-55.440493,-26.320328],[-55.436284,-26.320457],[-55.425788,-26.316434],[-55.418802,-26.316065],[-55.411005,-26.313529],[-55.391636,-26.310047],[-55.389999,-26.302037],[-55.38602,-26.299659],[-55.381447,-26.298032],[-55.375114,-26.297436],[-55.369493,-26.292122],[-55.368007,-26.282714],[-55.364101,-26.27932],[-55.363121,-26.276186],[-55.362401,-26.275221],[-55.362052,-26.273772],[-55.360864,-26.271791],[-55.360862,-26.270631],[-55.359814,-26.269021],[-55.359762,-26.266931],[-55.361096,-26.266142],[-55.361665,-26.263887],[-55.36146,-26.264043],[-55.361007,-26.263104],[-55.361492,-26.261507],[-55.361159,-26.261002],[-55.361504,-26.260419],[-55.361154,-26.259585],[-55.361352,-26.258346],[-55.360997,-26.257317],[-55.361924,-26.255743],[-55.36105,-26.255733],[-55.36108,-26.254434],[-55.360519,-26.253376],[-55.360818,-26.253253],[-55.360543,-26.251995],[-55.359387,-26.248271],[-55.359296,-26.245472],[-55.359068,-26.244616],[-55.35827,-26.24421],[-55.359036,-26.243524],[-55.358997,-26.241095],[-55.359635,-26.240583],[-55.359674,-26.239595],[-55.357833,-26.237814],[-55.358222,-26.237448],[-55.3575,-26.236582],[-55.357745,-26.235244],[-55.357565,-26.233459],[-55.357105,-26.233039],[-55.357331,-26.232184],[-55.356821,-26.231993],[-55.356705,-26.231464],[-55.35742,-26.230826],[-55.358078,-26.228649],[-55.358128,-26.227381],[-55.360085,-26.225865],[-55.360653,-26.225018],[-55.361387,-26.224918],[-55.361332,-26.224182],[-55.363146,-26.222979],[-55.363736,-26.223036],[-55.3641,-26.222272],[-55.365494,-26.221895],[-55.366536,-26.222061],[-55.365971,-26.222334],[-55.366102,-26.22262],[-55.367598,-26.222727],[-55.367201,-26.221946],[-55.367988,-26.221743],[-55.366736,-26.221445],[-55.367245,-26.220417],[-55.367025,-26.220216],[-55.36764,-26.220029],[-55.367867,-26.219119],[-55.367364,-26.219114],[-55.367813,-26.218216],[-55.367344,-26.218026],[-55.367698,-26.217502],[-55.367807,-26.216198],[-55.367232,-26.214278],[-55.367619,-26.212969],[-55.367101,-26.212069],[-55.367234,-26.211764],[-55.367863,-26.211898],[-55.368144,-26.211639],[-55.367039,-26.210742],[-55.366457,-26.210767],[-55.367114,-26.209894],[-55.366323,-26.209578],[-55.3655,-26.207181],[-55.364789,-26.207507],[-55.364077,-26.206745],[-55.364172,-26.204923],[-55.364797,-26.204113],[-55.363821,-26.201217],[-55.363712,-26.199713],[-55.363236,-26.200073],[-55.362837,-26.199432],[-55.361566,-26.199481],[-55.362174,-26.199939],[-55.360896,-26.200868],[-55.361313,-26.201279],[-55.360909,-26.201776],[-55.360834,-26.204045],[-55.360154,-26.205215],[-55.35882,-26.2058],[-55.357912,-26.205889],[-55.357104,-26.205185],[-55.357198,-26.203963],[-55.355731,-26.203048],[-55.354241,-26.201153],[-55.354527,-26.199825],[-55.353339,-26.198751],[-55.352867,-26.197676],[-55.353698,-26.196403],[-55.353423,-26.195637],[-55.353879,-26.195557],[-55.352691,-26.194988],[-55.353279,-26.19337],[-55.352974,-26.192924],[-55.352241,-26.193281],[-55.351504,-26.192803],[-55.351822,-26.189787],[-55.351559,-26.188787],[-55.351804,-26.188221],[-55.351334,-26.187922],[-55.350439,-26.188106],[-55.350308,-26.187202],[-55.349667,-26.18691],[-55.349429,-26.186298],[-55.348425,-26.185397],[-55.348505,-26.184947],[-55.349363,-26.184997],[-55.349783,-26.184686],[-55.349535,-26.184358],[-55.349874,-26.183856],[-55.349511,-26.182886],[-55.349579,-26.180897],[-55.349167,-26.180359],[-55.348365,-26.180075],[-55.348892,-26.179539],[-55.348552,-26.178425],[-55.349217,-26.17822],[-55.349497,-26.17765],[-55.34886,-26.177562],[-55.348637,-26.176774],[-55.34766,-26.176022],[-55.346615,-26.172097],[-55.345735,-26.171428],[-55.346985,-26.170959],[-55.347128,-26.17069],[-55.346746,-26.170406],[-55.347742,-26.170214],[-55.347679,-26.169663],[-55.348053,-26.169297],[-55.349763,-26.168919],[-55.350826,-26.168187],[-55.351567,-26.165835],[-55.350702,-26.165039],[-55.350905,-26.164374],[-55.350469,-26.164613],[-55.349905,-26.163279],[-55.350051,-26.163051],[-55.350802,-26.163158],[-55.350041,-26.161949],[-55.349889,-26.160589],[-55.349625,-26.160482],[-55.349204,-26.161127],[-55.34899,-26.16093],[-55.350446,-26.159313],[-55.350306,-26.158355],[-55.35008,-26.158063],[-55.3498,-26.158186],[-55.349499,-26.155989],[-55.348715,-26.155524],[-55.349596,-26.154988],[-55.348978,-26.154571],[-55.34873,-26.153593],[-55.348312,-26.153349],[-55.349427,-26.153113],[-55.348867,-26.152678],[-55.347773,-26.152882],[-55.348087,-26.15173],[-55.347573,-26.151982],[-55.346908,-26.15062],[-55.345912,-26.151344],[-55.3445,-26.150096],[-55.344605,-26.149871],[-55.343534,-26.148505],[-55.343327,-26.148999],[-55.343058,-26.148915],[-55.343723,-26.147961],[-55.342167,-26.148336],[-55.343044,-26.147249],[-55.343003,-26.146129],[-55.342514,-26.145839],[-55.343123,-26.145178],[-55.342044,-26.145125],[-55.342612,-26.144441],[-55.341733,-26.143474],[-55.343083,-26.143034],[-55.342692,-26.142257],[-55.343288,-26.141935],[-55.343346,-26.141276],[-55.342021,-26.141008],[-55.342511,-26.140558],[-55.341906,-26.140014],[-55.341823,-26.139494],[-55.342461,-26.138982],[-55.343739,-26.139999],[-55.344023,-26.137917],[-55.343497,-26.136958],[-55.343914,-26.135501],[-55.343774,-26.135012],[-55.344456,-26.135051],[-55.344338,-26.134332],[-55.344776,-26.134035],[-55.344265,-26.133559],[-55.344905,-26.133458],[-55.344593,-26.132945],[-55.345681,-26.132411],[-55.344987,-26.131735],[-55.345624,-26.129526],[-55.344354,-26.129029],[-55.344108,-26.128155],[-55.343618,-26.128027],[-55.343719,-26.126521],[-55.343269,-26.125441],[-55.343794,-26.124147],[-55.34506,-26.122528],[-55.344683,-26.12205],[-55.345547,-26.121324],[-55.345557,-26.120796],[-55.346567,-26.11981],[-55.346823,-26.118815],[-55.347409,-26.118267],[-55.345815,-26.117355],[-55.343463,-26.116985],[-55.341815,-26.117083],[-55.340052,-26.116458],[-55.339837,-26.114619],[-55.340532,-26.111616],[-55.337959,-26.10895],[-55.34093,-26.106055],[-55.340495,-26.10568],[-55.341154,-26.105769],[-55.341277,-26.105369],[-55.341839,-26.105082],[-55.341532,-26.104595],[-55.340576,-26.104092],[-55.337605,-26.103264],[-55.334466,-26.104496],[-55.332311,-26.103225],[-55.327327,-26.102287],[-55.326581,-26.101619],[-55.324763,-26.101219],[-55.323728,-26.100196],[-55.322401,-26.10009],[-55.322131,-26.100191],[-55.32276,-26.1013],[-55.32133,-26.1021],[-55.321864,-26.102418],[-55.322502,-26.102127],[-55.323577,-26.103029],[-55.323646,-26.104759],[-55.323233,-26.10548],[-55.32206,-26.106279],[-55.319739,-26.10655],[-55.319486,-26.105857],[-55.317932,-26.10615],[-55.317141,-26.104511],[-55.316299,-26.105142],[-55.316904,-26.102152],[-55.315354,-26.101322],[-55.314105,-26.099809],[-55.317409,-26.096615],[-55.316902,-26.095571],[-55.316022,-26.095498],[-55.315589,-26.094265],[-55.315592,-26.093773],[-55.316632,-26.093185],[-55.316739,-26.092604],[-55.315554,-26.09268],[-55.314458,-26.092162],[-55.312336,-26.093266],[-55.311392,-26.092469],[-55.309565,-26.092597],[-55.309589,-26.09317],[-55.310249,-26.094013],[-55.308889,-26.094489],[-55.308298,-26.093968],[-55.307988,-26.094578],[-55.308351,-26.09539],[-55.310118,-26.096508],[-55.31031,-26.096893],[-55.310009,-26.098429],[-55.308776,-26.100405],[-55.308428,-26.100487],[-55.308298,-26.100079],[-55.307983,-26.100139],[-55.307179,-26.100707],[-55.305598,-26.101216],[-55.302631,-26.101069],[-55.299558,-26.103186],[-55.300578,-26.103793],[-55.301052,-26.104494],[-55.301548,-26.104531],[-55.301372,-26.105446],[-55.301971,-26.105769],[-55.301688,-26.106311],[-55.302435,-26.106442],[-55.30374,-26.10806],[-55.304646,-26.10761],[-55.305715,-26.10783],[-55.30743,-26.107404],[-55.308633,-26.107824],[-55.31081,-26.107786],[-55.311857,-26.108363],[-55.312298,-26.109081],[-55.312777,-26.111425],[-55.311445,-26.114695],[-55.311971,-26.116543],[-55.313064,-26.118641],[-55.314534,-26.118857],[-55.317869,-26.11705],[-55.321209,-26.116876],[-55.322544,-26.11761],[-55.322907,-26.118675],[-55.322618,-26.120156],[-55.321108,-26.12073],[-55.31875,-26.122196],[-55.317007,-26.12395],[-55.314975,-26.124987],[-55.314263,-26.12575],[-55.314821,-26.12619],[-55.314377,-26.126623],[-55.314671,-26.127249],[-55.317603,-26.129125],[-55.317655,-26.131956],[-55.318273,-26.131877],[-55.319066,-26.132505],[-55.320153,-26.132757],[-55.321446,-26.132569],[-55.322636,-26.133982],[-55.321944,-26.135283],[-55.32074,-26.135607],[-55.321432,-26.136613],[-55.320341,-26.136474],[-55.320997,-26.136919],[-55.320567,-26.138715],[-55.320211,-26.13909],[-55.318599,-26.139441],[-55.317772,-26.140037],[-55.315617,-26.140242],[-55.314826,-26.141085],[-55.314738,-26.140114],[-55.314092,-26.140815],[-55.313817,-26.14069],[-55.312141,-26.141253],[-55.312793,-26.140136],[-55.312447,-26.139744],[-55.311409,-26.139457],[-55.308957,-26.1401],[-55.308659,-26.140869],[-55.307496,-26.141645],[-55.307256,-26.142211],[-55.305547,-26.142868],[-55.304294,-26.144243],[-55.3034,-26.144476],[-55.302692,-26.146039],[-55.301831,-26.146882],[-55.299905,-26.147225],[-55.296577,-26.148828],[-55.296832,-26.149296],[-55.295934,-26.149981],[-55.298159,-26.152521],[-55.297859,-26.154964],[-55.298799,-26.155025],[-55.299032,-26.154612],[-55.299494,-26.154563],[-55.299403,-26.156011],[-55.299684,-26.156245],[-55.300111,-26.156087],[-55.300297,-26.156491],[-55.29999,-26.157548],[-55.302019,-26.158678],[-55.303581,-26.160994],[-55.303881,-26.162722],[-55.302541,-26.165008],[-55.30158,-26.165552],[-55.301258,-26.16622],[-55.300503,-26.166306],[-55.299681,-26.166982],[-55.299405,-26.166587],[-55.299026,-26.166781],[-55.298004,-26.166073],[-55.297273,-26.166133],[-55.296571,-26.166864],[-55.296082,-26.166782],[-55.295486,-26.168278],[-55.294803,-26.168825],[-55.294897,-26.169417],[-55.294217,-26.169554],[-55.293592,-26.170517],[-55.293641,-26.170964],[-55.294301,-26.171437],[-55.29381,-26.171472],[-55.294237,-26.171689],[-55.293677,-26.172048],[-55.293951,-26.172187],[-55.293601,-26.17327],[-55.294717,-26.173505],[-55.294735,-26.174245],[-55.295273,-26.174585],[-55.294954,-26.175665],[-55.295834,-26.176194],[-55.29616,-26.177105],[-55.295468,-26.178072],[-55.295891,-26.178474],[-55.295165,-26.17852],[-55.295313,-26.178905],[-55.29462,-26.178866],[-55.295025,-26.17901],[-55.295061,-26.179426],[-55.294556,-26.179384],[-55.294483,-26.179816],[-55.294059,-26.179491],[-55.293984,-26.179982],[-55.294437,-26.180597],[-55.294035,-26.180935],[-55.29288,-26.180993],[-55.292913,-26.181784],[-55.292106,-26.183661],[-55.29103,-26.184402],[-55.29096,-26.185349],[-55.291284,-26.185772],[-55.291848,-26.185887],[-55.291656,-26.186693],[-55.289546,-26.188],[-55.290006,-26.188844],[-55.289038,-26.189551],[-55.289559,-26.190487],[-55.289253,-26.191156],[-55.288632,-26.191554],[-55.288962,-26.193743],[-55.289555,-26.194332],[-55.290128,-26.193703],[-55.290556,-26.193906],[-55.290304,-26.195375],[-55.289454,-26.195888],[-55.288696,-26.195022],[-55.288024,-26.195528],[-55.287859,-26.196154],[-55.287049,-26.196333],[-55.286907,-26.199008],[-55.284609,-26.201314],[-55.283553,-26.201184],[-55.282727,-26.201491],[-55.282049,-26.201275],[-55.281022,-26.201569],[-55.280674,-26.202287],[-55.279919,-26.201985],[-55.278856,-26.202672],[-55.276666,-26.203223],[-55.275725,-26.205315],[-55.273746,-26.206547],[-55.269989,-26.210008],[-55.26935,-26.212113],[-55.267454,-26.213507],[-55.266,-26.214131],[-55.2648,-26.215958],[-55.262773,-26.216669],[-55.263072,-26.21828],[-55.261343,-26.226776],[-55.262133,-26.228514],[-55.261555,-26.229816],[-55.261962,-26.230967],[-55.261902,-26.231982],[-55.262515,-26.233131],[-55.260958,-26.235536],[-55.259845,-26.235964],[-55.23914,-26.239116],[-55.234894,-26.243224],[-55.231987,-26.243866],[-55.230368,-26.244793],[-55.226291,-26.242334],[-55.224952,-26.241039],[-55.224818,-26.242103],[-55.221298,-26.240461],[-55.220112,-26.240766],[-55.218955,-26.239153],[-55.212023,-26.239977],[-55.120147,-26.322791],[-55.117921,-26.323403],[-55.113504,-26.324054],[-55.103922,-26.324239],[-55.100378,-26.326002],[-55.097746,-26.328029],[-55.095178,-26.330816],[-55.094856,-26.331822],[-55.094786,-26.332945],[-55.095563,-26.335275],[-55.094777,-26.336596],[-55.094589,-26.338724],[-55.091399,-26.342125],[-55.089715,-26.342306],[-55.087968,-26.343154],[-55.086855,-26.343161],[-55.086857,-26.344123],[-55.085592,-26.345072],[-55.083323,-26.348458],[-55.081645,-26.35011],[-55.081226,-26.352704],[-55.079294,-26.356541],[-55.078618,-26.357073],[-55.077692,-26.357093],[-55.077362,-26.358027],[-55.076509,-26.358981],[-55.076348,-26.360058],[-55.075614,-26.361113],[-55.075668,-26.362666],[-55.075179,-26.363513],[-55.072634,-26.364246],[-55.068467,-26.363585],[-55.065924,-26.364652],[-55.064533,-26.364863],[-55.061167,-26.363621],[-55.059126,-26.363404],[-55.057878,-26.363663],[-55.05577,-26.364735],[-55.054854,-26.364781],[-55.053363,-26.365826],[-55.052481,-26.365972],[-55.050573,-26.367742],[-55.050414,-26.368336],[-55.049771,-26.368269],[-55.048907,-26.369002],[-55.04941,-26.369943],[-55.049343,-26.370555],[-55.047755,-26.371626],[-55.046436,-26.372046],[-55.044617,-26.372138],[-55.044235,-26.371772],[-55.04444,-26.371527],[-55.043738,-26.371305],[-55.043286,-26.370753],[-55.042379,-26.370578],[-55.041523,-26.369912],[-55.04098,-26.369967],[-55.038635,-26.372327],[-55.037116,-26.372992],[-55.037526,-26.373716],[-55.036926,-26.374303],[-55.039207,-26.377011],[-55.040345,-26.377017],[-55.040351,-26.3775],[-55.039622,-26.378126],[-55.040257,-26.379444],[-55.039962,-26.381177],[-55.041665,-26.382072],[-55.043495,-26.382151],[-55.044136,-26.382625],[-55.043814,-26.384629],[-55.042008,-26.38603],[-55.042631,-26.387225],[-55.042019,-26.389483],[-55.03936,-26.389839],[-55.038632,-26.38917],[-55.037399,-26.389126],[-55.035706,-26.388038],[-55.034699,-26.388588],[-55.033832,-26.387655],[-55.032232,-26.387782],[-55.031294,-26.387291],[-55.031122,-26.386643],[-55.029358,-26.384733],[-55.02685,-26.386571],[-55.026175,-26.386701],[-55.025919,-26.387731],[-55.024938,-26.388828],[-55.025785,-26.389634],[-55.025253,-26.390999],[-55.025264,-26.392759],[-55.024876,-26.393277],[-55.02605,-26.394895],[-55.025644,-26.396478],[-55.026667,-26.397797],[-55.027147,-26.399388],[-55.028857,-26.400959],[-55.029319,-26.402283],[-55.028984,-26.403299],[-55.030032,-26.403412],[-55.030538,-26.403929],[-55.031417,-26.403811],[-55.032428,-26.405548],[-55.031948,-26.407613],[-55.032351,-26.409605],[-55.031974,-26.410321],[-55.032115,-26.411465],[-55.03115,-26.413],[-55.028788,-26.413599],[-55.024263,-26.412002],[-55.020127,-26.412658],[-55.019399,-26.413591],[-55.020413,-26.415659],[-55.020209,-26.41678],[-55.020515,-26.41812],[-55.021247,-26.418816],[-55.021379,-26.421927],[-55.020117,-26.423205],[-55.01799,-26.423324],[-55.017559,-26.424609],[-55.015857,-26.42617],[-55.01481,-26.426137],[-55.012371,-26.424885],[-55.011614,-26.424883],[-55.011081,-26.425345],[-55.009716,-26.425028],[-55.007771,-26.426319],[-55.006652,-26.427472],[-55.005068,-26.43074],[-55.005189,-26.431383],[-55.00427,-26.431826],[-55.003362,-26.432864],[-55.002526,-26.4314],[-55.001554,-26.430686],[-55.001294,-26.429018],[-55.000645,-26.428097],[-55.000455,-26.426447],[-55.001232,-26.423353],[-55.000682,-26.421851],[-55.000924,-26.421209],[-54.998793,-26.420805],[-54.997078,-26.421291],[-54.995971,-26.420878],[-54.995842,-26.421675],[-54.994861,-26.422758],[-54.994567,-26.424013],[-54.993219,-26.42477],[-54.992438,-26.424782],[-54.991568,-26.425596],[-54.990985,-26.425172],[-54.99075,-26.425291],[-54.990838,-26.427919],[-54.990518,-26.428036],[-54.989475,-26.427286],[-54.988636,-26.428867],[-54.989017,-26.430497],[-54.988009,-26.431246],[-54.986842,-26.431274],[-54.986975,-26.43249],[-54.984696,-26.434209],[-54.984033,-26.434024],[-54.984107,-26.434625],[-54.9826,-26.434775],[-54.980356,-26.433223],[-54.979369,-26.433376],[-54.978661,-26.433108],[-54.97719,-26.434166],[-54.976784,-26.434765],[-54.976866,-26.435281],[-54.978201,-26.436586],[-54.978677,-26.438641],[-54.977733,-26.440487],[-54.977106,-26.440862],[-54.976237,-26.441057],[-54.975403,-26.440342],[-54.973392,-26.440453],[-54.972448,-26.440196],[-54.972406,-26.438151],[-54.970681,-26.438605],[-54.967469,-26.438379],[-54.966835,-26.438117],[-54.966124,-26.437114],[-54.965515,-26.437317],[-54.965067,-26.436801],[-54.964236,-26.436604],[-54.963299,-26.435946],[-54.962921,-26.436017],[-54.963126,-26.43787],[-54.96178,-26.439277],[-54.961973,-26.441983],[-54.961002,-26.442095],[-54.960204,-26.441588],[-54.960335,-26.444243],[-54.959065,-26.446179],[-54.957113,-26.447135],[-54.958076,-26.448345],[-54.95897,-26.448732],[-54.958759,-26.450119],[-54.957885,-26.450905],[-54.956036,-26.451231],[-54.954168,-26.452314],[-54.953119,-26.452498],[-54.952277,-26.45231],[-54.951352,-26.453244],[-54.951513,-26.454041],[-54.95211,-26.454672],[-54.95362,-26.455402],[-54.954349,-26.455417],[-54.954646,-26.45585],[-54.955843,-26.456025],[-54.956141,-26.457699],[-54.956789,-26.458223],[-54.956968,-26.459155],[-54.956728,-26.459865],[-54.955646,-26.460237],[-54.955134,-26.46144],[-54.953903,-26.462708],[-54.953734,-26.463369],[-54.954353,-26.465725],[-54.956929,-26.468393],[-54.956855,-26.470084],[-54.954253,-26.470683],[-54.952958,-26.470561],[-54.951272,-26.471371],[-54.950147,-26.471134],[-54.948531,-26.471828],[-54.947806,-26.471818],[-54.946656,-26.470881],[-54.946026,-26.469725],[-54.944125,-26.468331],[-54.941715,-26.467276],[-54.939351,-26.466637],[-54.938769,-26.468059],[-54.939536,-26.470191],[-54.938059,-26.473808],[-54.939546,-26.475269],[-54.939392,-26.477193],[-54.938613,-26.477868],[-54.937391,-26.478243],[-54.936843,-26.478867],[-54.936616,-26.481693],[-54.935614,-26.481593],[-54.933953,-26.478843],[-54.932903,-26.477916],[-54.929792,-26.476305],[-54.929549,-26.475684],[-54.927505,-26.47564],[-54.926084,-26.474843],[-54.923682,-26.476469],[-54.920298,-26.475716],[-54.919336,-26.475052],[-54.918951,-26.475164],[-54.918062,-26.476053],[-54.917945,-26.476548],[-54.918731,-26.47767],[-54.91988,-26.477136],[-54.920303,-26.477323],[-54.920397,-26.477924],[-54.919602,-26.480083],[-54.919849,-26.481405],[-54.920607,-26.481822],[-54.920623,-26.482133],[-54.919668,-26.482693],[-54.918782,-26.483867],[-54.916529,-26.4854],[-54.915418,-26.485402],[-54.914967,-26.487042],[-54.914957,-26.488847],[-54.914531,-26.48978],[-54.914159,-26.489806],[-54.913425,-26.489168],[-54.911623,-26.489051],[-54.909709,-26.48808],[-54.909376,-26.486568],[-54.906557,-26.485624],[-54.906047,-26.48572],[-54.906325,-26.487394],[-54.905839,-26.488813],[-54.906842,-26.490502],[-54.906564,-26.490877],[-54.905144,-26.491465],[-54.90513,-26.491826],[-54.906099,-26.493483],[-54.909583,-26.493895],[-54.910091,-26.494236],[-54.910378,-26.498095],[-54.909738,-26.499263],[-54.910539,-26.50015],[-54.910448,-26.501503],[-54.911595,-26.503307],[-54.911133,-26.504017],[-54.908066,-26.506238],[-54.907769,-26.507172],[-54.90629,-26.505973],[-54.905205,-26.502694],[-54.904739,-26.502326],[-54.903455,-26.502262],[-54.901253,-26.502983],[-54.89959,-26.503961],[-54.898685,-26.503947],[-54.898398,-26.503194],[-54.898621,-26.500296],[-54.89325,-26.495902],[-54.889712,-26.495313],[-54.888158,-26.494071],[-54.883695,-26.494858],[-54.883336,-26.495394],[-54.883662,-26.497313],[-54.884269,-26.498184],[-54.885483,-26.498978],[-54.886373,-26.500417],[-54.885903,-26.503032],[-54.882938,-26.504635],[-54.882425,-26.507091],[-54.883369,-26.507336],[-54.884871,-26.506961],[-54.885969,-26.506169],[-54.887168,-26.504409],[-54.88848,-26.503991],[-54.889411,-26.504013],[-54.889648,-26.504234],[-54.888829,-26.505097],[-54.88891,-26.505739],[-54.894249,-26.506256],[-54.896244,-26.507278],[-54.897493,-26.508294],[-54.897706,-26.508929],[-54.897285,-26.511125],[-54.89442,-26.512165],[-54.891792,-26.513859],[-54.891529,-26.514171],[-54.891558,-26.515602],[-54.889633,-26.515655],[-54.889029,-26.51524],[-54.888253,-26.513703],[-54.88775,-26.510609],[-54.886766,-26.509638],[-54.885883,-26.5093],[-54.884941,-26.509345],[-54.884006,-26.510567],[-54.88317,-26.512816],[-54.883272,-26.514789],[-54.88212,-26.51613],[-54.879376,-26.516699],[-54.878554,-26.517472],[-54.877172,-26.520123],[-54.876322,-26.520706],[-54.873249,-26.521567],[-54.873171,-26.522478],[-54.874778,-26.523147],[-54.875037,-26.523652],[-54.874963,-26.525234],[-54.873769,-26.526273],[-54.872264,-26.524824],[-54.871386,-26.524409],[-54.864806,-26.523954],[-54.861785,-26.523444],[-54.860841,-26.521535],[-54.858414,-26.519328],[-54.858359,-26.5186],[-54.861223,-26.516189],[-54.862409,-26.514433],[-54.860514,-26.511516],[-54.860562,-26.510678],[-54.866046,-26.508643],[-54.867476,-26.506968],[-54.867933,-26.505233],[-54.867659,-26.504705],[-54.864008,-26.503875],[-54.863511,-26.50296],[-54.861931,-26.502805],[-54.858488,-26.50159],[-54.856369,-26.502862],[-54.855122,-26.504274],[-54.854038,-26.506559],[-54.854391,-26.508302],[-54.853648,-26.509825],[-54.852822,-26.509979],[-54.852361,-26.510735],[-54.850782,-26.510314],[-54.850143,-26.510598],[-54.850656,-26.511855],[-54.847822,-26.5186],[-54.847721,-26.519546],[-54.848077,-26.519732],[-54.848725,-26.519543],[-54.850712,-26.517452],[-54.851418,-26.517418],[-54.851693,-26.518071],[-54.851211,-26.521259],[-54.85204,-26.523402],[-54.851361,-26.524339],[-54.851057,-26.526356],[-54.848614,-26.527497],[-54.847464,-26.528752],[-54.846931,-26.531398],[-54.84572,-26.531339],[-54.844984,-26.530904],[-54.844506,-26.529348],[-54.843798,-26.528634],[-54.843877,-26.526686],[-54.843547,-26.526184],[-54.839467,-26.525121],[-54.838991,-26.524703],[-54.838563,-26.523884],[-54.839209,-26.522021],[-54.839069,-26.520873],[-54.837202,-26.51658],[-54.83668,-26.514433],[-54.836263,-26.514034],[-54.835224,-26.514298],[-54.832871,-26.516532],[-54.831087,-26.519989],[-54.83095,-26.521462],[-54.832191,-26.522844],[-54.832616,-26.524015],[-54.832617,-26.52517],[-54.832156,-26.525822],[-54.831241,-26.52639],[-54.829029,-26.526447],[-54.824528,-26.525561],[-54.822609,-26.526809],[-54.822058,-26.52912],[-54.82257,-26.529525],[-54.825513,-26.529777],[-54.826473,-26.531764],[-54.82549,-26.532543],[-54.825209,-26.533144],[-54.825733,-26.533639],[-54.82831,-26.534748],[-54.828759,-26.535851],[-54.828634,-26.536851],[-54.829341,-26.539615],[-54.832316,-26.542891],[-54.833411,-26.544564],[-54.83349,-26.545409],[-54.832247,-26.54701],[-54.831395,-26.547182],[-54.828503,-26.546565],[-54.827455,-26.545958],[-54.826958,-26.545296],[-54.825093,-26.544718],[-54.820663,-26.545121],[-54.820424,-26.543879],[-54.821074,-26.540759],[-54.820277,-26.539421],[-54.819463,-26.539056],[-54.815249,-26.538956],[-54.814349,-26.538702],[-54.812892,-26.536957],[-54.812335,-26.536865],[-54.811192,-26.537517],[-54.810224,-26.538771],[-54.80919,-26.543493],[-54.808293,-26.543766],[-54.806156,-26.543542],[-54.80343,-26.544182],[-54.807181,-26.554638],[-54.807937,-26.558675],[-54.807345,-26.56241],[-54.80422,-26.567979],[-54.796357,-26.576375],[-54.791724,-26.579112],[-54.787704,-26.582419],[-54.78543,-26.58697],[-54.787271,-26.594113],[-54.783728,-26.610439],[-54.783758,-26.614277],[-54.78515,-26.623097],[-54.788284,-26.633443],[-54.793562,-26.640639],[-54.8009,-26.649083],[-54.80849,-26.660714],[-54.810477,-26.665799],[-54.812702,-26.669297],[-54.816612,-26.671885],[-54.822722,-26.673851],[-54.828546,-26.674408],[-54.833143,-26.673729],[-54.837564,-26.671363],[-54.84966,-26.659752],[-54.855543,-26.657126],[-54.863589,-26.655843],[-54.876497,-26.656411],[-54.886251,-26.658523],[-54.913814,-26.6667],[-54.923316,-26.671332],[-54.934334,-26.678607],[-54.940952,-26.681418],[-54.943503,-26.684451],[-54.945785,-26.690849],[-54.94746,-26.696209],[-54.948091,-26.701741],[-54.950967,-26.701734],[-54.956312,-26.700145],[-54.957227,-26.700203],[-54.95784,-26.7005],[-54.960627,-26.704183],[-54.961056,-26.704106],[-54.96168,-26.703415],[-54.962977,-26.700368],[-54.96343,-26.699925],[-54.96742,-26.699849],[-54.968205,-26.699494],[-54.970263,-26.697441],[-54.97169,-26.697544],[-54.976356,-26.699077],[-54.980636,-26.698255],[-54.980743,-26.696391],[-54.978989,-26.692784],[-54.979947,-26.692097],[-54.98226,-26.691981],[-54.982789,-26.691605],[-54.982946,-26.690979],[-54.982612,-26.690356],[-54.980421,-26.688619],[-54.97918,-26.68683],[-54.978614,-26.684563],[-54.978955,-26.683003],[-54.980979,-26.680033],[-54.981253,-26.678088],[-54.982886,-26.677811],[-54.984198,-26.680913],[-54.985033,-26.682077],[-54.986362,-26.683033],[-54.988271,-26.683585],[-54.990011,-26.683169],[-54.99056,-26.682756],[-54.990986,-26.678123],[-54.991367,-26.677791],[-54.994701,-26.678662],[-54.99839,-26.677056],[-55.001529,-26.676528],[-55.00544,-26.677211],[-55.006284,-26.67846],[-55.008622,-26.679599],[-55.009621,-26.679725],[-55.010616,-26.679495],[-55.012168,-26.67784],[-55.013986,-26.677106],[-55.014355,-26.67563],[-55.01374,-26.672604],[-55.008489,-26.672208],[-55.007957,-26.671705],[-55.008209,-26.670755],[-55.010462,-26.667347],[-55.010848,-26.664231],[-55.011309,-26.66279],[-55.011859,-26.662509]]]}}]}
