{"type":"FeatureCollection","name":"distrito","features":[{"type":"Feature","properties":{"clave":"7-0","nombre":"Encarnación"},"geometry":{"type":"Polygon","coordinates":[[[-55.874782,-27.359439],[-55.879461,-27.347271],[-55.88864,-27.341237],[-55.900027,-27.342345],[-55.911761,-27.344758],[-55.911257,-27.323478],[-55.913221,-27.318991],[-55.922825,-27.315638],[-55.921319,-27.313961],[-55.919551,-27.313512],[-55.91814,-27.312632],[-55.917541,-27.310961],[-55.917326,-27.308072],[-55.916846,-27.307149],[-55.915262,-27.306159],[-55.909895,-27.30451],[-55.907323,-27.304804],[-55.905798,-27.304527],[-55.903668,-27.302396],[-55.903525,-27.301815],[-55.904317,-27.301468],[-55.904015,-27.300164],[-55.90205,-27.300559],[-55.901563,-27.300119],[-55.914561,-27.291804],[-55.916445,-27.291539],[-55.928957,-27.293021],[-55.930837,-27.293117],[-55.932407,-27.292799],[-55.934363,-27.29146],[-55.943104,-27.282774],[-55.946184,-27.285172],[-55.945629,-27.287172],[-55.949455,-27.290015],[-55.952049,-27.287405],[-55.944563,-27.281328],[-55.96775,-27.258449],[-55.968642,-27.258036],[-55.970019,-27.257893],[-55.977424,-27.260407],[-55.978468,-27.260446],[-55.980601,-27.259527],[-55.985247,-27.255219],[-56.011724,-27.228529],[-56.015961,-27.22279],[-56.017856,-27.217951],[-56.020418,-27.21402],[-56.004481,-27.199572],[-56.002235,-27.197976],[-56.001781,-27.197088],[-55.993186,-27.189335],[-55.991143,-27.191157],[-55.973999,-27.172694],[-55.973679,-27.172673],[-55.971798,-27.174452],[-55.96853,-27.171591],[-55.968017,-27.171841],[-55.967194,-27.171129],[-55.964147,-27.170386],[-55.96323,-27.170679],[-55.96225,-27.172372],[-55.961014,-27.172631],[-55.948289,-27.148859],[-55.947333,-27.149547],[-55.946012,-27.149776],[-55.943334,-27.148501],[-55.942295,-27.148456],[-55.940095,-27.148986],[-55.93685,-27.14635],[-55.935408,-27.146156],[-55.934319,-27.146419],[-55.932225,-27.145562],[-55.931121,-27.143976],[-55.929594,-27.143072],[-55.927175,-27.139371],[-55.926425,-27.135817],[-55.92662,-27.134686],[-55.926239,-27.134262],[-55.901671,-27.15614],[-55.885959,-27.170641],[-55.884018,-27.171871],[-55.86611,-27.188175],[-55.82219,-27.226416],[-55.822447,-27.228903],[-55.824249,-27.229857],[-55.823989,-27.23058],[-55.824602,-27.231535],[-55.824628,-27.233489],[-55.825482,-27.234078],[-55.82571,-27.23468],[-55.825699,-27.238733],[-55.826868,-27.240029],[-55.826307,-27.241765],[-55.822961,-27.242964],[-55.821732,-27.242971],[-55.819865,-27.24402],[-55.820313,-27.24517],[-55.820213,-27.249994],[-55.818864,-27.253024],[-55.816773,-27.255237],[-55.817666,-27.264332],[-55.818437,-27.267514],[-55.822809,-27.280965],[-55.823349,-27.290891],[-55.827798,-27.297148],[-55.829582,-27.299031],[-55.825957,-27.302301],[-55.815508,-27.304979],[-55.81162,-27.306562],[-55.806586,-27.306068],[-55.806106,-27.310189],[-55.807324,-27.311955],[-55.807717,-27.31504],[-55.806969,-27.316068],[-55.807418,-27.316158],[-55.808181,-27.319211],[-55.810055,-27.320495],[-55.812254,-27.323258],[-55.814417,-27.323367],[-55.81555,-27.324848],[-55.817539,-27.32514],[-55.818701,-27.326757],[-55.819338,-27.326446],[-55.8204,-27.326609],[-55.8213,-27.326377],[-55.822177,-27.326678],[-55.826145,-27.329667],[-55.826877,-27.330861],[-55.827881,-27.331275],[-55.829381,-27.330827],[-55.830773,-27.331295],[-55.832235,-27.331298],[-55.833563,-27.330768],[-55.834765,-27.329767],[-55.836141,-27.329905],[-55.836954,-27.327957],[-55.83785,-27.326908],[-55.83866,-27.326531],[-55.840168,-27.326043],[-55.841103,-27.326962],[-55.84192,-27.326739],[-55.842952,-27.327131],[-55.844076,-27.326355],[-55.845934,-27.325851],[-55.84641,-27.325278],[-55.849005,-27.324306],[-55.849481,-27.323809],[-55.850306,-27.324461],[-55.851359,-27.326988],[-55.85271,-27.328724],[-55.852939,-27.330671],[-55.853791,-27.332623],[-55.854545,-27.335947],[-55.85384,-27.34049],[-55.85284,-27.342331],[-55.851596,-27.343654],[-55.846246,-27.347573],[-55.846816,-27.34807],[-55.847376,-27.350656],[-55.848153,-27.352545],[-55.848221,-27.353579],[-55.847724,-27.354243],[-55.844898,-27.355799],[-55.843684,-27.356877],[-55.842151,-27.35741],[-55.8412,-27.358964],[-55.838667,-27.357918],[-55.835698,-27.359397],[-55.834407,-27.359413],[-55.832808,-27.359856],[-55.829035,-27.358975],[-55.82385,-27.359898],[-55.823099,-27.360365],[-55.822345,-27.360422],[-55.82189,-27.361177],[-55.820427,-27.362315],[-55.819917,-27.364202],[-55.817941,-27.365038],[-55.817349,-27.365683],[-55.816008,-27.366033],[-55.815002,-27.369843],[-55.812495,-27.371117],[-55.81221,-27.370916],[-55.811292,-27.372849],[-55.811217,-27.374193],[-55.809858,-27.374665],[-55.80718,-27.377639],[-55.803211,-27.381134],[-55.802077,-27.381675],[-55.79861,-27.382381],[-55.797275,-27.383331],[-55.796231,-27.384568],[-55.794625,-27.384888],[-55.79005,-27.387222],[-55.78944,-27.388088],[-55.789282,-27.390849],[-55.79934,-27.399525],[-55.801181,-27.401987],[-55.802258,-27.40461],[-55.802851,-27.405283],[-55.806331,-27.406057],[-55.807109,-27.407883],[-55.807948,-27.408856],[-55.807924,-27.409804],[-55.808776,-27.410479],[-55.809671,-27.410739],[-55.816379,-27.426313],[-55.826569,-27.425046],[-55.849601,-27.406946],[-55.863622,-27.391933],[-55.864364,-27.374631],[-55.874782,-27.359439]]]}}]}
