{"type":"FeatureCollection","name":"distrito","features":[{"type":"Feature","properties":{"clave":"1-6","nombre":"San Carlos del Apa"},"geometry":{"type":"Polygon","coordinates":[[[-57.512283,-22.316637],[-57.510261,-22.310392],[-57.510943,-22.307567],[-57.51036,-22.306579],[-57.509865,-22.306337],[-57.506138,-22.305328],[-57.499791,-22.291431],[-57.49933,-22.289408],[-57.499294,-22.285185],[-57.500911,-22.281449],[-57.501621,-22.27857],[-57.503054,-22.275864],[-57.504526,-22.274008],[-57.505693,-22.270395],[-57.506948,-22.269009],[-57.50834,-22.266082],[-57.51037,-22.263293],[-57.518472,-22.261926],[-57.521625,-22.260154],[-57.525948,-22.25902],[-57.527394,-22.257095],[-57.528158,-22.256659],[-57.530697,-22.256109],[-57.532775,-22.256021],[-57.534624,-22.255378],[-57.538046,-22.25501],[-57.538759,-22.254366],[-57.539389,-22.252747],[-57.540682,-22.251338],[-57.541694,-22.247301],[-57.545301,-22.245288],[-57.548155,-22.2425],[-57.548266,-22.241967],[-57.546013,-22.234088],[-57.546226,-22.231178],[-57.546774,-22.22974],[-57.548016,-22.22824],[-57.54816,-22.224486],[-57.549453,-22.223167],[-57.551831,-22.218471],[-57.553381,-22.214323],[-57.55364,-22.213013],[-57.55368,-22.207872],[-57.554488,-22.20384],[-57.555092,-22.202822],[-57.558202,-22.199464],[-57.559711,-22.196252],[-57.560853,-22.192404],[-57.563802,-22.188103],[-57.563341,-22.187201],[-57.563413,-22.185985],[-57.561847,-22.183913],[-57.561132,-22.183572],[-57.559003,-22.183625],[-57.557578,-22.182798],[-57.556999,-22.180334],[-57.556105,-22.178862],[-57.553234,-22.180966],[-57.551143,-22.181696],[-57.546606,-22.181756],[-57.54029,-22.181154],[-57.537367,-22.180115],[-57.532963,-22.177533],[-57.528278,-22.176111],[-57.527101,-22.175185],[-57.525985,-22.173756],[-57.525137,-22.171898],[-57.524301,-22.16868],[-57.52376,-22.168194],[-57.52089,-22.168587],[-57.519647,-22.171234],[-57.516007,-22.17382],[-57.513577,-22.177224],[-57.51108,-22.179771],[-57.510055,-22.181518],[-57.506149,-22.184913],[-57.504626,-22.184977],[-57.502479,-22.183465],[-57.501765,-22.183481],[-57.500377,-22.185536],[-57.499044,-22.186069],[-57.498355,-22.185746],[-57.49695,-22.18407],[-57.493769,-22.181396],[-57.492766,-22.181372],[-57.491722,-22.184411],[-57.490514,-22.185467],[-57.490053,-22.186453],[-57.49055,-22.189586],[-57.489687,-22.190849],[-57.488663,-22.19134],[-57.487623,-22.19133],[-57.486341,-22.190317],[-57.485682,-22.190165],[-57.484244,-22.192008],[-57.482928,-22.192346],[-57.480108,-22.190245],[-57.476322,-22.189967],[-57.475324,-22.189247],[-57.473956,-22.18744],[-57.472915,-22.186946],[-57.471732,-22.186918],[-57.470148,-22.187501],[-57.466797,-22.192312],[-57.464704,-22.192847],[-57.463766,-22.191878],[-57.463271,-22.189169],[-57.462819,-22.188299],[-57.461815,-22.187665],[-57.46016,-22.187439],[-57.458771,-22.188012],[-57.457796,-22.1897],[-57.457799,-22.190748],[-57.45889,-22.192493],[-57.458401,-22.193971],[-57.456826,-22.195051],[-57.453804,-22.195529],[-57.452463,-22.194954],[-57.452048,-22.193926],[-57.452397,-22.193066],[-57.455131,-22.191704],[-57.455713,-22.190948],[-57.455643,-22.190175],[-57.454695,-22.188638],[-57.453714,-22.188202],[-57.448392,-22.18735],[-57.446656,-22.187355],[-57.445363,-22.187751],[-57.444758,-22.188331],[-57.445133,-22.190977],[-57.444427,-22.192302],[-57.44344,-22.192572],[-57.440273,-22.191758],[-57.4388,-22.192327],[-57.43837,-22.193362],[-57.438916,-22.195615],[-57.438561,-22.19707],[-57.434224,-22.200352],[-57.432608,-22.200311],[-57.431896,-22.199929],[-57.43059,-22.19622],[-57.429728,-22.195684],[-57.428807,-22.195642],[-57.42584,-22.196526],[-57.424114,-22.197443],[-57.423727,-22.198049],[-57.42381,-22.198505],[-57.426973,-22.200286],[-57.427589,-22.201007],[-57.42743,-22.202715],[-57.425536,-22.204987],[-57.424586,-22.205112],[-57.423919,-22.204635],[-57.422073,-22.200506],[-57.421013,-22.198783],[-57.419639,-22.197274],[-57.417545,-22.197559],[-57.414752,-22.196699],[-57.413347,-22.197172],[-57.412423,-22.198516],[-57.411228,-22.199441],[-57.409904,-22.199584],[-57.407587,-22.19777],[-57.406973,-22.19769],[-57.405505,-22.19983],[-57.403172,-22.20008],[-57.402424,-22.200362],[-57.400976,-22.201612],[-57.398178,-22.201772],[-57.397117,-22.202326],[-57.395931,-22.203662],[-57.395895,-22.20414],[-57.397958,-22.205834],[-57.398298,-22.206971],[-57.397599,-22.208464],[-57.396605,-22.208891],[-57.394981,-22.208999],[-57.393566,-22.208573],[-57.391077,-22.206889],[-57.388931,-22.204735],[-57.386715,-22.204406],[-57.385743,-22.20454],[-57.385872,-22.205434],[-57.387844,-22.206947],[-57.387951,-22.207588],[-57.387594,-22.208334],[-57.386458,-22.208861],[-57.383709,-22.208],[-57.382169,-22.208347],[-57.381595,-22.209301],[-57.381884,-22.210823],[-57.381668,-22.211393],[-57.380974,-22.211995],[-57.378012,-22.212467],[-57.377207,-22.213648],[-57.377375,-22.214673],[-57.378859,-22.215907],[-57.379596,-22.216958],[-57.380077,-22.220539],[-57.381524,-22.22456],[-57.381552,-22.226467],[-57.380649,-22.227381],[-57.379676,-22.227429],[-57.376734,-22.224296],[-57.375498,-22.223969],[-57.373824,-22.224592],[-57.372324,-22.226235],[-57.372439,-22.227183],[-57.372926,-22.227611],[-57.374851,-22.228262],[-57.376021,-22.229036],[-57.376219,-22.230504],[-57.375347,-22.231716],[-57.373739,-22.23228],[-57.370939,-22.231622],[-57.370084,-22.230978],[-57.369083,-22.228862],[-57.368355,-22.22825],[-57.364417,-22.227477],[-57.363565,-22.227913],[-57.363118,-22.228835],[-57.364463,-22.230657],[-57.364407,-22.232328],[-57.363048,-22.233677],[-57.361695,-22.234141],[-57.360647,-22.234148],[-57.359816,-22.233752],[-57.358216,-22.231777],[-57.358154,-22.23101],[-57.359234,-22.228771],[-57.359321,-22.227823],[-57.358953,-22.227074],[-57.357537,-22.226386],[-57.356879,-22.226644],[-57.355132,-22.228315],[-57.352513,-22.22842],[-57.351645,-22.228801],[-57.350095,-22.231393],[-57.348392,-22.232454],[-57.347493,-22.232429],[-57.346369,-22.231803],[-57.345316,-22.229569],[-57.344663,-22.228839],[-57.3436,-22.228697],[-57.342351,-22.229101],[-57.341649,-22.229654],[-57.34124,-22.23054],[-57.341912,-22.232969],[-57.341847,-22.234112],[-57.341056,-22.235202],[-57.340144,-22.235434],[-57.339298,-22.235269],[-57.338742,-22.234412],[-57.339762,-22.23207],[-57.339655,-22.231316],[-57.336537,-22.229353],[-57.335242,-22.22913],[-57.333717,-22.229865],[-57.333285,-22.230801],[-57.333638,-22.231369],[-57.335929,-22.232042],[-57.336747,-22.232813],[-57.336877,-22.233851],[-57.336273,-22.234634],[-57.33563,-22.235096],[-57.334934,-22.235088],[-57.33306,-22.233706],[-57.330837,-22.233751],[-57.330367,-22.234298],[-57.330545,-22.236855],[-57.330055,-22.238423],[-57.329352,-22.238813],[-57.326993,-22.238312],[-57.325684,-22.238649],[-57.323994,-22.242275],[-57.321531,-22.245496],[-57.320784,-22.245904],[-57.319443,-22.245315],[-57.317784,-22.243326],[-57.315342,-22.242319],[-57.314516,-22.241435],[-57.31438,-22.240509],[-57.314917,-22.239749],[-57.318146,-22.237796],[-57.318167,-22.237263],[-57.316114,-22.236332],[-57.315469,-22.235683],[-57.314377,-22.23269],[-57.313681,-22.232475],[-57.311616,-22.233093],[-57.310897,-22.23281],[-57.310506,-22.231876],[-57.311025,-22.229408],[-57.310198,-22.227892],[-57.309464,-22.227677],[-57.308754,-22.227868],[-57.307172,-22.230247],[-57.306327,-22.230443],[-57.305264,-22.230214],[-57.304087,-22.22929],[-57.303583,-22.228356],[-57.304152,-22.224678],[-57.303701,-22.223681],[-57.30253,-22.222414],[-57.300546,-22.221902],[-57.29783,-22.222264],[-57.297208,-22.221895],[-57.296488,-22.220871],[-57.29584,-22.218699],[-57.295009,-22.218457],[-57.293243,-22.218772],[-57.291858,-22.218548],[-57.29129,-22.218798],[-57.291105,-22.219711],[-57.292757,-22.222481],[-57.292878,-22.223213],[-57.292663,-22.223972],[-57.291931,-22.224732],[-57.291064,-22.2251],[-57.289873,-22.224759],[-57.289156,-22.221638],[-57.288076,-22.220769],[-57.287148,-22.220666],[-57.286618,-22.221056],[-57.286113,-22.223419],[-57.285158,-22.224726],[-57.284216,-22.225089],[-57.28162,-22.225274],[-57.279357,-22.227541],[-57.277428,-22.228778],[-57.277244,-22.230188],[-57.278994,-22.233577],[-57.279041,-22.234498],[-57.278594,-22.235308],[-57.277218,-22.235893],[-57.275354,-22.235715],[-57.274775,-22.234713],[-57.274861,-22.232545],[-57.274318,-22.2305],[-57.27261,-22.229441],[-57.270814,-22.229584],[-57.269859,-22.231009],[-57.271249,-22.233997],[-57.271447,-22.235731],[-57.270896,-22.237132],[-57.269984,-22.23787],[-57.268967,-22.238115],[-57.265531,-22.237814],[-57.262742,-22.239291],[-57.259479,-22.239364],[-57.257981,-22.238955],[-57.255793,-22.237558],[-57.255067,-22.237505],[-57.254297,-22.238103],[-57.253678,-22.239319],[-57.251256,-22.241003],[-57.249782,-22.245066],[-57.248609,-22.246414],[-57.244204,-22.248616],[-57.241189,-22.249348],[-57.240104,-22.249304],[-57.238387,-22.247681],[-57.236492,-22.246753],[-57.234168,-22.244516],[-57.230076,-22.241599],[-57.226774,-22.24108],[-57.223216,-22.239097],[-57.220769,-22.23896],[-57.219655,-22.235005],[-57.219929,-22.233189],[-57.218158,-22.230151],[-57.218059,-22.229162],[-57.218848,-22.226568],[-57.21851,-22.225195],[-57.217648,-22.22469],[-57.21687,-22.224705],[-57.214993,-22.225814],[-57.212667,-22.226545],[-57.211454,-22.22609],[-57.211236,-22.225471],[-57.211437,-22.224857],[-57.212424,-22.22411],[-57.213426,-22.224014],[-57.215133,-22.2244],[-57.21606,-22.22392],[-57.217835,-22.219938],[-57.217702,-22.216103],[-57.217223,-22.215833],[-57.215165,-22.216165],[-57.214589,-22.215958],[-57.213299,-22.214],[-57.212488,-22.212113],[-57.211889,-22.211648],[-57.210587,-22.211654],[-57.210026,-22.212188],[-57.210028,-22.213281],[-57.212044,-22.215262],[-57.213199,-22.217058],[-57.212625,-22.218364],[-57.21133,-22.218614],[-57.210477,-22.218417],[-57.20954,-22.217587],[-57.208655,-22.216047],[-57.206378,-22.214636],[-57.206197,-22.213634],[-57.20659,-22.211108],[-57.206356,-22.209695],[-57.205621,-22.208706],[-57.204723,-22.208604],[-57.20245,-22.209813],[-57.199097,-22.209622],[-57.197915,-22.209805],[-57.197571,-22.21009],[-57.197043,-22.212042],[-57.194022,-22.213843],[-57.193125,-22.214824],[-57.192739,-22.216456],[-57.195209,-22.217257],[-57.196349,-22.218606],[-57.196328,-22.219559],[-57.194982,-22.220807],[-57.193546,-22.221085],[-57.192851,-22.221564],[-57.190483,-22.225253],[-57.189601,-22.225737],[-57.187536,-22.226088],[-57.187117,-22.226427],[-57.186812,-22.227611],[-57.187391,-22.229765],[-57.187423,-22.231341],[-57.186918,-22.233883],[-57.186499,-22.234161],[-57.185555,-22.23399],[-57.182732,-22.232661],[-57.181951,-22.23062],[-57.180775,-22.22989],[-57.180012,-22.229949],[-57.178007,-22.230837],[-57.17675,-22.230703],[-57.17214,-22.231403],[-57.171736,-22.231038],[-57.171713,-22.230505],[-57.173148,-22.228678],[-57.17322,-22.226989],[-57.172486,-22.226168],[-57.170142,-22.225054],[-57.169468,-22.224996],[-57.16887,-22.225408],[-57.168971,-22.228181],[-57.168314,-22.229591],[-57.166369,-22.230479],[-57.164207,-22.230454],[-57.163315,-22.22998],[-57.162835,-22.229208],[-57.162007,-22.224665],[-57.161685,-22.224214],[-57.160315,-22.223605],[-57.158766,-22.224117],[-57.157609,-22.227063],[-57.154677,-22.228593],[-57.152464,-22.230727],[-57.151432,-22.231112],[-57.150376,-22.230842],[-57.147964,-22.228735],[-57.144722,-22.227215],[-57.141284,-22.223695],[-57.137376,-22.222637],[-57.136284,-22.22271],[-57.132685,-22.224168],[-57.129288,-22.224134],[-57.127754,-22.224569],[-57.125914,-22.226115],[-57.125002,-22.227485],[-57.123417,-22.2289],[-57.121518,-22.230094],[-57.120103,-22.230325],[-57.118936,-22.230267],[-57.117056,-22.229383],[-57.112968,-22.226956],[-57.111029,-22.225444],[-57.109726,-22.225472],[-57.108051,-22.22686],[-57.106892,-22.22724],[-57.104085,-22.226759],[-57.10386,-22.22712],[-57.104213,-22.227924],[-57.10926,-22.231489],[-57.109959,-22.235753],[-57.112356,-22.238968],[-57.112687,-22.240273],[-57.112246,-22.24124],[-57.110937,-22.241995],[-57.108946,-22.242502],[-57.106035,-22.242608],[-57.104957,-22.242902],[-57.10442,-22.245392],[-57.102431,-22.248081],[-57.101414,-22.248542],[-57.098202,-22.247442],[-57.096907,-22.247655],[-57.09488,-22.249147],[-57.093435,-22.248895],[-57.092439,-22.247522],[-57.091222,-22.242048],[-57.090234,-22.241308],[-57.089688,-22.24138],[-57.088595,-22.242307],[-57.086733,-22.244679],[-57.086315,-22.245868],[-57.086234,-22.248348],[-57.085651,-22.249373],[-57.084199,-22.250725],[-57.082583,-22.251069],[-57.081243,-22.250722],[-57.079588,-22.24916],[-57.079498,-22.248514],[-57.080065,-22.246431],[-57.079518,-22.245225],[-57.079047,-22.244941],[-57.077325,-22.244842],[-57.074743,-22.246293],[-57.073876,-22.246461],[-57.07255,-22.246001],[-57.070992,-22.243729],[-57.069674,-22.24265],[-57.068312,-22.242624],[-57.065087,-22.243732],[-57.063163,-22.243665],[-57.060671,-22.242907],[-57.059525,-22.242239],[-57.058978,-22.241232],[-57.059194,-22.237153],[-57.060613,-22.231311],[-57.060134,-22.229735],[-57.05916,-22.229333],[-57.058075,-22.229542],[-57.053324,-22.231802],[-57.051977,-22.23206],[-57.049792,-22.231871],[-57.048916,-22.232174],[-57.04837,-22.233014],[-57.048108,-22.234247],[-57.048604,-22.238331],[-57.048073,-22.240562],[-57.046988,-22.241723],[-57.044496,-22.242655],[-57.043538,-22.242533],[-57.042625,-22.241734],[-57.042833,-22.238662],[-57.042324,-22.237343],[-57.041478,-22.236481],[-57.040572,-22.236264],[-57.038177,-22.236531],[-57.035318,-22.235041],[-57.031209,-22.233786],[-57.028964,-22.234902],[-57.026247,-22.23512],[-57.022917,-22.236317],[-57.020866,-22.236317],[-57.020148,-22.235802],[-57.020245,-22.233557],[-57.019451,-22.231642],[-57.019009,-22.231245],[-57.016165,-22.232361],[-57.014676,-22.233788],[-57.011585,-22.235433],[-57.009782,-22.235948],[-57.009145,-22.235365],[-57.008913,-22.233703],[-57.007701,-22.232723],[-57.004528,-22.231377],[-57.001564,-22.228725],[-57.000247,-22.223232],[-56.999626,-22.222885],[-56.996827,-22.222397],[-56.991932,-22.224877],[-56.988954,-22.228368],[-56.988916,-22.230591],[-56.989335,-22.232244],[-56.990562,-22.23439],[-56.992096,-22.236156],[-56.992201,-22.237168],[-56.99027,-22.237786],[-56.989252,-22.238487],[-56.988631,-22.240971],[-56.987501,-22.242213],[-56.985981,-22.242796],[-56.98375,-22.242528],[-56.986601,-22.255065],[-56.989071,-22.263836],[-56.994573,-22.290623],[-56.996796,-22.294084],[-56.999176,-22.308473],[-57.005233,-22.330435],[-57.029704,-22.347703],[-57.021881,-22.352792],[-57.041859,-22.3713],[-57.051724,-22.38124],[-57.121445,-22.377726],[-57.116847,-22.393121],[-57.102388,-22.486622],[-57.131097,-22.489315],[-57.131752,-22.490139],[-57.131532,-22.490952],[-57.129086,-22.494037],[-57.128873,-22.501031],[-57.127233,-22.504225],[-57.121083,-22.510518],[-57.121844,-22.512887],[-57.118681,-22.520178],[-57.120392,-22.527439],[-57.119435,-22.528293],[-57.120603,-22.530272],[-57.106981,-22.556532],[-57.109255,-22.576042],[-57.114542,-22.573034],[-57.109877,-22.570167],[-57.125901,-22.571819],[-57.132022,-22.573414],[-57.134159,-22.572968],[-57.148817,-22.574809],[-57.159139,-22.568635],[-57.1687,-22.584214],[-57.179471,-22.602589],[-57.179218,-22.604735],[-57.180411,-22.607338],[-57.180911,-22.607475],[-57.181583,-22.605839],[-57.208375,-22.605958],[-57.21484,-22.608642],[-57.221346,-22.610712],[-57.228333,-22.612474],[-57.232018,-22.608658],[-57.236699,-22.604962],[-57.240243,-22.605592],[-57.246466,-22.608918],[-57.248942,-22.609051],[-57.259999,-22.615435],[-57.277484,-22.615878],[-57.290222,-22.617137],[-57.292207,-22.616682],[-57.294522,-22.615074],[-57.298144,-22.609453],[-57.300829,-22.606634],[-57.304005,-22.604329],[-57.30529,-22.604227],[-57.307433,-22.603161],[-57.312048,-22.605153],[-57.313528,-22.606492],[-57.315721,-22.607892],[-57.317407,-22.611146],[-57.317982,-22.614383],[-57.319399,-22.615722],[-57.320797,-22.618147],[-57.322882,-22.612543],[-57.327122,-22.597939],[-57.319285,-22.577886],[-57.333704,-22.554171],[-57.354739,-22.53236],[-57.371346,-22.506588],[-57.385537,-22.505786],[-57.389237,-22.50603],[-57.465937,-22.401723],[-57.466063,-22.400865],[-57.465675,-22.39919],[-57.46583,-22.397089],[-57.465636,-22.396715],[-57.46496,-22.3965],[-57.465013,-22.395167],[-57.465855,-22.393882],[-57.465493,-22.392776],[-57.4659,-22.391122],[-57.464581,-22.39085],[-57.464448,-22.389649],[-57.463528,-22.38929],[-57.463527,-22.389047],[-57.464114,-22.38825],[-57.465814,-22.387405],[-57.465844,-22.386664],[-57.467511,-22.384288],[-57.466304,-22.382634],[-57.467884,-22.38154],[-57.46744,-22.380973],[-57.467434,-22.38011],[-57.470159,-22.379519],[-57.472836,-22.380695],[-57.474841,-22.380996],[-57.47655,-22.379817],[-57.477798,-22.379447],[-57.4793,-22.376701],[-57.479874,-22.376261],[-57.47997,-22.375421],[-57.48072,-22.374885],[-57.485997,-22.37538],[-57.487133,-22.375277],[-57.48844,-22.374469],[-57.488803,-22.374667],[-57.48828,-22.375915],[-57.488358,-22.376439],[-57.489572,-22.376905],[-57.491288,-22.376692],[-57.492363,-22.378658],[-57.493431,-22.378239],[-57.49409,-22.378382],[-57.494489,-22.378864],[-57.494065,-22.379629],[-57.494287,-22.380202],[-57.495252,-22.38023],[-57.495834,-22.380924],[-57.496612,-22.380759],[-57.497777,-22.381054],[-57.498731,-22.381683],[-57.499017,-22.38166],[-57.499453,-22.380809],[-57.5,-22.380681],[-57.501027,-22.382363],[-57.504819,-22.382771],[-57.50535,-22.383975],[-57.506375,-22.384781],[-57.509661,-22.385222],[-57.510984,-22.385864],[-57.511633,-22.385274],[-57.511991,-22.382536],[-57.512562,-22.382128],[-57.513278,-22.38222],[-57.513767,-22.382625],[-57.514397,-22.38223],[-57.514114,-22.381594],[-57.514353,-22.381431],[-57.512283,-22.316637]]]}}]}
