{"type":"FeatureCollection","name":"distrito","features":[{"type":"Feature","properties":{"clave":"16-3","nombre":"Bahía Negra"},"geometry":{"type":"Polygon","coordinates":[[[-60.604325,-19.456639],[-59.977778,-19.294686],[-59.068928,-19.287647],[-58.235967,-19.774997],[-58.163901,-19.827154],[-58.166258,-19.829026],[-58.167085,-19.830944],[-58.170895,-19.833041],[-58.173203,-19.833344],[-58.174493,-19.834547],[-58.175202,-19.836373],[-58.1747,-19.838068],[-58.175449,-19.839722],[-58.175785,-19.841568],[-58.176213,-19.842205],[-58.178197,-19.843338],[-58.179379,-19.845808],[-58.181474,-19.846984],[-58.18547,-19.847663],[-58.188144,-19.850348],[-58.191596,-19.851627],[-58.193458,-19.853856],[-58.196525,-19.858516],[-58.197598,-19.861003],[-58.198834,-19.861968],[-58.201477,-19.86271],[-58.202072,-19.863353],[-58.201935,-19.866278],[-58.202768,-19.868608],[-58.20397,-19.870687],[-58.204988,-19.876616],[-58.203532,-19.878405],[-58.203348,-19.879566],[-58.203771,-19.880312],[-58.205232,-19.881205],[-58.206043,-19.8827],[-58.206051,-19.883391],[-58.204966,-19.885781],[-58.204522,-19.887638],[-58.205505,-19.893677],[-58.205455,-19.895403],[-58.204446,-19.899504],[-58.203607,-19.900206],[-58.201461,-19.900966],[-58.200336,-19.902543],[-58.200837,-19.908855],[-58.199013,-19.911098],[-58.198547,-19.912101],[-58.199077,-19.915291],[-58.199807,-19.917484],[-58.199708,-19.918695],[-58.198647,-19.922321],[-58.197061,-19.924702],[-58.196605,-19.926175],[-58.196968,-19.926836],[-58.198325,-19.92801],[-58.200375,-19.931117],[-58.202299,-19.937601],[-58.206319,-19.940486],[-58.207406,-19.941665],[-58.210168,-19.947703],[-58.210672,-19.948508],[-58.213623,-19.951299],[-58.214061,-19.951965],[-58.214271,-19.953357],[-58.213926,-19.954129],[-58.213174,-19.954717],[-58.208533,-19.957038],[-58.201504,-19.962007],[-58.200265,-19.962266],[-58.198287,-19.962096],[-58.196832,-19.961527],[-58.196143,-19.960323],[-58.195588,-19.959929],[-58.19438,-19.959931],[-58.193806,-19.960225],[-58.192604,-19.961361],[-58.191255,-19.963763],[-58.187919,-19.967944],[-58.186537,-19.970363],[-58.185308,-19.975107],[-58.18439,-19.982382],[-58.182174,-19.987169],[-58.181136,-19.990698],[-58.180625,-19.990009],[-58.180019,-19.991005],[-58.179832,-19.994507],[-58.179296,-19.996315],[-58.177561,-19.999704],[-58.177427,-20.001428],[-58.177569,-20.002036],[-58.178059,-20.002324],[-58.17771,-20.003299],[-58.177995,-20.003825],[-58.177894,-20.005427],[-58.178804,-20.011089],[-58.178775,-20.013129],[-58.178074,-20.014891],[-58.175207,-20.018051],[-58.174442,-20.019813],[-58.174474,-20.02057],[-58.17641,-20.02568],[-58.176624,-20.027517],[-58.176281,-20.029154],[-58.175714,-20.030166],[-58.174174,-20.031539],[-58.171069,-20.03312],[-58.167479,-20.035755],[-58.165802,-20.037404],[-58.164642,-20.039233],[-58.162709,-20.040677],[-58.158926,-20.042095],[-58.157898,-20.043301],[-58.157971,-20.044928],[-58.16086,-20.048208],[-58.162352,-20.048511],[-58.16422,-20.048212],[-58.165367,-20.048542],[-58.166505,-20.048394],[-58.167834,-20.049314],[-58.168204,-20.050051],[-58.167872,-20.052035],[-58.166848,-20.053353],[-58.164149,-20.055785],[-58.163262,-20.058512],[-58.16333,-20.059308],[-58.164328,-20.061418],[-58.165853,-20.063663],[-58.166005,-20.064646],[-58.165339,-20.06645],[-58.162409,-20.069834],[-58.161561,-20.071563],[-58.161623,-20.073516],[-58.163677,-20.076179],[-58.16393,-20.077007],[-58.163554,-20.077789],[-58.162172,-20.078491],[-58.161396,-20.078438],[-58.158944,-20.07675],[-58.157477,-20.076248],[-58.155845,-20.076134],[-58.154571,-20.076938],[-58.154449,-20.078437],[-58.156001,-20.081332],[-58.156296,-20.082721],[-58.156414,-20.084124],[-58.155864,-20.086526],[-58.152953,-20.090095],[-58.148916,-20.096061],[-58.145946,-20.098835],[-58.144764,-20.100579],[-58.143957,-20.102694],[-58.142775,-20.110296],[-58.140974,-20.113897],[-58.138817,-20.120109],[-58.138544,-20.122988],[-58.139015,-20.124285],[-58.14053,-20.125962],[-58.143499,-20.128148],[-58.144478,-20.129827],[-58.144705,-20.13215],[-58.144447,-20.133528],[-58.144553,-20.135497],[-58.145554,-20.138082],[-58.138221,-20.152131],[-58.144312,-20.151644],[-58.148,-20.151911],[-58.1514,-20.152522],[-58.158087,-20.156222],[-58.162971,-20.159943],[-58.165197,-20.161152],[-58.166861,-20.163136],[-58.169035,-20.166578],[-58.168903,-20.168967],[-58.168126,-20.1729],[-58.166518,-20.176146],[-58.165064,-20.178083],[-58.159045,-20.181847],[-58.153304,-20.181906],[-58.144103,-20.180538],[-58.139677,-20.180737],[-58.130523,-20.183526],[-58.126777,-20.185952],[-58.124424,-20.188288],[-58.122805,-20.190308],[-58.121926,-20.192319],[-58.122243,-20.197029],[-58.122928,-20.199562],[-58.1246,-20.202315],[-58.126592,-20.204296],[-58.132949,-20.208003],[-58.142992,-20.210593],[-58.147438,-20.212087],[-58.154622,-20.215632],[-58.157371,-20.218915],[-58.160294,-20.223667],[-58.163869,-20.227943],[-58.16512,-20.229932],[-58.165828,-20.234235],[-58.16435,-20.248715],[-58.161301,-20.260309],[-58.159453,-20.263714],[-58.157056,-20.266602],[-58.15111,-20.27059],[-58.14497,-20.272035],[-58.141276,-20.271842],[-58.138718,-20.270636],[-58.137056,-20.268806],[-58.136042,-20.266354],[-58.134753,-20.261442],[-58.133249,-20.259225],[-58.128193,-20.254811],[-58.125382,-20.252916],[-58.119769,-20.249741],[-58.117463,-20.248995],[-58.115162,-20.248633],[-58.107786,-20.249323],[-58.103771,-20.250056],[-58.100802,-20.251193],[-58.093407,-20.2575],[-58.090685,-20.263532],[-58.090135,-20.265694],[-58.089776,-20.27024],[-58.089841,-20.275937],[-58.090402,-20.282013],[-58.093925,-20.298429],[-58.096301,-20.305181],[-58.101498,-20.314597],[-58.102885,-20.320976],[-58.102518,-20.32468],[-58.101566,-20.32798],[-58.09823,-20.334848],[-58.0976,-20.337086],[-58.096228,-20.339179],[-58.094937,-20.348432],[-58.092464,-20.354769],[-58.090575,-20.35829],[-58.088897,-20.362619],[-58.086893,-20.366563],[-58.077713,-20.382743],[-58.073418,-20.387793],[-58.071133,-20.38912],[-58.068837,-20.389534],[-58.061287,-20.392599],[-58.053588,-20.394754],[-58.048518,-20.396727],[-58.044012,-20.39785],[-58.032032,-20.399044],[-58.024082,-20.40066],[-58.02172,-20.402377],[-58.019957,-20.406397],[-58.018101,-20.409494],[-58.011615,-20.41795],[-58.008608,-20.421137],[-58.000726,-20.431956],[-57.998959,-20.435823],[-57.997765,-20.439454],[-57.996698,-20.447397],[-57.998009,-20.454624],[-58.002879,-20.462902],[-58.008722,-20.471469],[-58.012992,-20.478508],[-58.014089,-20.481035],[-58.015111,-20.484528],[-58.016589,-20.491907],[-58.016707,-20.495217],[-58.017797,-20.501686],[-58.030902,-20.500513],[-58.029728,-20.494456],[-58.028164,-20.489714],[-58.026984,-20.487871],[-58.02704,-20.486781],[-58.027752,-20.485424],[-58.029983,-20.483341],[-58.034126,-20.481143],[-58.036241,-20.477273],[-58.036347,-20.475191],[-58.033834,-20.464189],[-58.033834,-20.462101],[-58.034076,-20.461515],[-58.035608,-20.460591],[-58.03836,-20.460717],[-58.039861,-20.460388],[-58.043775,-20.460564],[-58.04439,-20.460989],[-58.043906,-20.462161],[-58.043367,-20.462336],[-58.042112,-20.464069],[-58.041341,-20.466719],[-58.042157,-20.467352],[-58.042277,-20.469145],[-58.045061,-20.47066],[-58.050574,-20.47478],[-58.051375,-20.47571],[-58.053669,-20.480585],[-58.056241,-20.484176],[-58.056604,-20.485384],[-58.056135,-20.486257],[-58.054683,-20.487681],[-58.052507,-20.488775],[-58.050788,-20.49128],[-58.050196,-20.496616],[-58.050346,-20.497815],[-58.051106,-20.499537],[-58.053418,-20.499939],[-58.057065,-20.49911],[-58.057751,-20.498148],[-58.057792,-20.497355],[-58.060702,-20.490236],[-58.062269,-20.488618],[-58.066712,-20.488818],[-58.070509,-20.491273],[-58.071663,-20.491524],[-58.071617,-20.492416],[-58.070842,-20.493076],[-58.068648,-20.496452],[-58.066986,-20.497867],[-58.066236,-20.498032],[-58.065717,-20.499895],[-58.070511,-20.501603],[-58.071109,-20.502324],[-58.071834,-20.504638],[-58.071528,-20.506409],[-58.068629,-20.507174],[-58.063,-20.507421],[-58.060723,-20.50841],[-58.05968,-20.510152],[-58.057612,-20.51532],[-58.055677,-20.515829],[-58.052811,-20.515898],[-58.050261,-20.516355],[-58.048412,-20.519251],[-58.047608,-20.522493],[-58.047682,-20.525178],[-58.050332,-20.527283],[-58.051521,-20.528925],[-58.052755,-20.529676],[-58.053602,-20.529714],[-58.054203,-20.526265],[-58.055851,-20.523063],[-58.060644,-20.522681],[-58.063394,-20.522806],[-58.0659,-20.521526],[-58.066797,-20.520574],[-58.068329,-20.51965],[-58.070812,-20.518769],[-58.072066,-20.519123],[-58.072606,-20.518949],[-58.075683,-20.516803],[-58.076857,-20.516657],[-58.076913,-20.515568],[-58.078011,-20.514823],[-58.078425,-20.512955],[-58.076581,-20.513765],[-58.077146,-20.513096],[-58.076707,-20.51129],[-58.076107,-20.510568],[-58.077759,-20.509353],[-58.079224,-20.509716],[-58.080121,-20.508763],[-58.081305,-20.508419],[-58.081907,-20.504969],[-58.081006,-20.503936],[-58.079872,-20.503291],[-58.081452,-20.501471],[-58.081794,-20.498906],[-58.080707,-20.497367],[-58.079479,-20.496517],[-58.079348,-20.494923],[-58.082809,-20.493587],[-58.085385,-20.490921],[-58.086091,-20.489561],[-58.08605,-20.48827],[-58.084264,-20.487988],[-58.083307,-20.485958],[-58.083821,-20.484889],[-58.084699,-20.484142],[-58.082711,-20.481956],[-58.083078,-20.480268],[-58.083789,-20.480038],[-58.085006,-20.478126],[-58.080161,-20.47437],[-58.080461,-20.471238],[-58.085998,-20.469652],[-58.08726,-20.472329],[-58.088775,-20.47279],[-58.093739,-20.47144],[-58.094119,-20.469492],[-58.09434,-20.465177],[-58.09615,-20.462635],[-58.098933,-20.460141],[-58.101678,-20.458428],[-58.101879,-20.457257],[-58.103395,-20.454965],[-58.107522,-20.456329],[-58.108243,-20.453088],[-58.113458,-20.449522],[-58.114152,-20.446931],[-58.116479,-20.445199],[-58.121198,-20.443055],[-58.122143,-20.441],[-58.125104,-20.437853],[-58.127445,-20.435858],[-58.129147,-20.435409],[-58.131104,-20.435494],[-58.133284,-20.436639],[-58.135079,-20.439738],[-58.136324,-20.440054],[-58.13794,-20.438679],[-58.140507,-20.437744],[-58.141884,-20.438198],[-58.142766,-20.442699],[-58.144017,-20.442885],[-58.145762,-20.44165],[-58.149187,-20.440231],[-58.155325,-20.43904],[-58.160234,-20.438735],[-58.162223,-20.437778],[-58.167581,-20.434214],[-58.168834,-20.434401],[-58.169877,-20.436019],[-58.170308,-20.438528],[-58.171552,-20.441597],[-58.172495,-20.445046],[-58.174624,-20.447236],[-58.178805,-20.447424],[-58.184127,-20.444515],[-58.19214,-20.438185],[-58.198171,-20.435045],[-58.202436,-20.433661],[-58.207198,-20.430726],[-58.214052,-20.427885],[-58.22137,-20.426898],[-58.22555,-20.424461],[-58.229828,-20.422814],[-58.232955,-20.424526],[-58.237646,-20.425651],[-58.241838,-20.425704],[-58.246992,-20.423569],[-58.254028,-20.419687],[-58.257806,-20.416968],[-58.259613,-20.414555],[-58.258262,-20.410825],[-58.255265,-20.409124],[-58.255094,-20.404137],[-58.253609,-20.397518],[-58.253969,-20.391019],[-58.257256,-20.38711],[-58.259418,-20.385898],[-58.263462,-20.386075],[-58.26561,-20.387737],[-58.267982,-20.390591],[-58.2695,-20.393803],[-58.2701,-20.398546],[-58.271537,-20.403461],[-58.277341,-20.416168],[-58.28015,-20.421533],[-58.286634,-20.42614],[-58.298462,-20.430065],[-58.319745,-20.435186],[-58.327136,-20.446909],[-58.332627,-20.451867],[-58.338138,-20.453547],[-58.350833,-20.454229],[-58.357298,-20.450842],[-58.364667,-20.448933],[-58.37087,-20.450773],[-58.372956,-20.452554],[-58.376258,-20.456496],[-58.377995,-20.458144],[-58.378992,-20.460681],[-58.379994,-20.468714],[-58.3823,-20.473006],[-58.385209,-20.476407],[-58.387923,-20.478096],[-58.39329,-20.479901],[-58.39544,-20.481696],[-58.398465,-20.482743],[-58.408251,-20.485654],[-58.410604,-20.486148],[-58.413533,-20.486274],[-58.421958,-20.48847],[-58.42738,-20.489227],[-58.432213,-20.490482],[-58.440026,-20.493831],[-58.443752,-20.494908],[-58.448071,-20.495356],[-58.451661,-20.49328],[-58.456596,-20.49493],[-58.462097,-20.500411],[-58.463862,-20.501535],[-58.464559,-20.502786],[-58.469863,-20.503014],[-58.471887,-20.504542],[-58.472298,-20.507571],[-58.471308,-20.510672],[-58.473243,-20.511147],[-58.478731,-20.513346],[-58.481846,-20.518325],[-58.48526,-20.522925],[-58.511416,-20.481214],[-58.509208,-20.478863],[-58.507781,-20.479193],[-58.506389,-20.48038],[-58.504704,-20.480616],[-58.503794,-20.480499],[-58.493534,-20.476013],[-58.489929,-20.47664],[-58.488299,-20.475947],[-58.485589,-20.471779],[-58.480294,-20.472956],[-58.47857,-20.472493],[-58.476507,-20.470458],[-58.474017,-20.470352],[-58.47364,-20.47127],[-58.474043,-20.473235],[-58.474059,-20.476275],[-58.473178,-20.477328],[-58.472344,-20.47737],[-58.469351,-20.473816],[-58.466901,-20.469424],[-58.464676,-20.467303],[-58.46407,-20.41442],[-58.468038,-20.285636],[-58.803087,-20.134299],[-58.861661,-20.13369],[-58.89834,-20.132585],[-58.934528,-20.132905],[-58.976144,-20.132208],[-59.032319,-20.13244],[-59.145155,-20.131663],[-59.271257,-20.130321],[-59.278849,-20.130463],[-59.28514,-20.136834],[-59.334721,-20.136423],[-59.379762,-20.137012],[-59.439085,-20.136918],[-59.481096,-20.138002],[-59.566722,-20.137732],[-59.580264,-20.138252],[-59.579345,-20.155638],[-59.579959,-20.177611],[-59.578477,-20.281219],[-59.759282,-20.281663],[-59.75859,-20.315178],[-59.759325,-20.397361],[-59.767191,-20.414769],[-59.790492,-20.457957],[-59.824709,-20.524793],[-59.832821,-20.538906],[-59.83234,-20.544394],[-59.83768,-20.550062],[-59.84279,-20.559015],[-59.877613,-20.624461],[-59.879513,-20.630417],[-59.9273,-20.632887],[-59.94923,-20.626572],[-59.967795,-20.62163],[-60.066034,-20.594096],[-60.535834,-20.456691],[-61.490832,-20.192296],[-61.51439,-20.182631],[-61.54988,-20.174715],[-61.574742,-20.174146],[-61.600657,-20.172543],[-61.620052,-20.170064],[-61.645544,-20.153219],[-61.660203,-20.135611],[-61.683444,-20.115767],[-61.698262,-20.104244],[-61.71859,-20.096644],[-61.737006,-20.098228],[-61.755672,-20.108942],[-61.762181,-20.109798],[-61.768661,-20.109639],[-61.922536,-20.089211],[-61.735211,-19.634406],[-60.604325,-19.456639]]]}}]}
