{"type":"FeatureCollection","name":"distrito","features":[{"type":"Feature","properties":{"clave":"2-13","nombre":"Guajayvi"},"geometry":{"type":"Polygon","coordinates":[[[-56.463337,-24.585478],[-56.46452,-24.586482],[-56.467991,-24.587597],[-56.479171,-24.589137],[-56.480443,-24.585502],[-56.479835,-24.585292],[-56.479833,-24.567934],[-56.519532,-24.567994],[-56.519679,-24.53185],[-56.526194,-24.531722],[-56.524735,-24.47153],[-56.526861,-24.470752],[-56.527725,-24.470787],[-56.529662,-24.468621],[-56.531211,-24.468273],[-56.53221,-24.467513],[-56.534427,-24.46691],[-56.536062,-24.465195],[-56.536805,-24.464922],[-56.540039,-24.462218],[-56.539755,-24.461856],[-56.539885,-24.460686],[-56.540428,-24.459938],[-56.540513,-24.459022],[-56.539964,-24.456929],[-56.539599,-24.456576],[-56.53954,-24.455312],[-56.539062,-24.454615],[-56.538318,-24.45445],[-56.537613,-24.453608],[-56.537595,-24.451562],[-56.537983,-24.45117],[-56.538004,-24.450579],[-56.538689,-24.450048],[-56.538567,-24.449077],[-56.539066,-24.448794],[-56.539369,-24.448095],[-56.53903,-24.446513],[-56.539159,-24.443944],[-56.538749,-24.442078],[-56.538031,-24.440712],[-56.536867,-24.439584],[-56.536426,-24.437835],[-56.537604,-24.434027],[-56.537792,-24.430564],[-56.538964,-24.429543],[-56.539701,-24.42796],[-56.539022,-24.427276],[-56.539218,-24.425949],[-56.538921,-24.424056],[-56.537677,-24.423664],[-56.53729,-24.422525],[-56.536162,-24.420895],[-56.535957,-24.419486],[-56.536196,-24.418462],[-56.53518,-24.41415],[-56.534743,-24.413765],[-56.534893,-24.412578],[-56.533523,-24.410975],[-56.532567,-24.407942],[-56.532662,-24.406326],[-56.532149,-24.404265],[-56.532805,-24.402438],[-56.532006,-24.400918],[-56.531514,-24.398975],[-56.531793,-24.39712],[-56.531543,-24.396388],[-56.532035,-24.394027],[-56.533343,-24.392668],[-56.533257,-24.391439],[-56.53423,-24.389776],[-56.534101,-24.388204],[-56.535109,-24.386888],[-56.537872,-24.38024],[-56.538965,-24.379544],[-56.539048,-24.379119],[-56.539601,-24.379049],[-56.539703,-24.378205],[-56.540503,-24.376907],[-56.541947,-24.37659],[-56.541985,-24.376152],[-56.542498,-24.37586],[-56.542423,-24.375567],[-56.542858,-24.375401],[-56.542877,-24.375071],[-56.543891,-24.374718],[-56.543704,-24.374297],[-56.543999,-24.373585],[-56.544313,-24.373509],[-56.54417,-24.373314],[-56.544583,-24.372927],[-56.545057,-24.372928],[-56.544581,-24.371942],[-56.544738,-24.370868],[-56.546414,-24.369713],[-56.547716,-24.367301],[-56.547712,-24.366691],[-56.548057,-24.366724],[-56.548021,-24.366163],[-56.548406,-24.365672],[-56.547999,-24.364493],[-56.548591,-24.36407],[-56.548933,-24.363168],[-56.549877,-24.362172],[-56.55125,-24.362145],[-56.551557,-24.361852],[-56.552036,-24.360558],[-56.55292,-24.360285],[-56.553885,-24.357556],[-56.556051,-24.355688],[-56.550646,-24.351224],[-56.55244,-24.348578],[-56.549408,-24.346041],[-56.545546,-24.343532],[-56.546507,-24.299016],[-56.543095,-24.298768],[-56.523264,-24.299393],[-56.494875,-24.301117],[-56.440975,-24.303412],[-56.383859,-24.299619],[-56.374756,-24.300241],[-56.371236,-24.299237],[-56.365826,-24.299197],[-56.365836,-24.308323],[-56.286941,-24.308136],[-56.287015,-24.284275],[-56.272407,-24.284215],[-56.272567,-24.220945],[-56.260659,-24.220897],[-56.259847,-24.220437],[-56.257585,-24.220855],[-56.226949,-24.221041],[-56.227067,-24.230835],[-56.21328,-24.230765],[-56.21333,-24.222684],[-56.198135,-24.22078],[-56.198547,-24.194775],[-56.151384,-24.194697],[-56.152576,-24.19579],[-56.152389,-24.196429],[-56.15143,-24.196507],[-56.150627,-24.196056],[-56.150359,-24.197394],[-56.150989,-24.198821],[-56.150894,-24.199309],[-56.148977,-24.199382],[-56.148668,-24.199981],[-56.148863,-24.200456],[-56.150713,-24.201472],[-56.151597,-24.203514],[-56.154275,-24.203571],[-56.154342,-24.204813],[-56.154947,-24.205417],[-56.154504,-24.205749],[-56.153394,-24.205548],[-56.153645,-24.20675],[-56.155157,-24.205962],[-56.156022,-24.206316],[-56.15464,-24.208165],[-56.154719,-24.209965],[-56.154195,-24.210981],[-56.154357,-24.211862],[-56.155566,-24.213096],[-56.155406,-24.214282],[-56.156212,-24.214426],[-56.156633,-24.215098],[-56.157149,-24.217627],[-56.158022,-24.219139],[-56.161125,-24.221641],[-56.162555,-24.221816],[-56.162397,-24.222722],[-56.161343,-24.223289],[-56.161461,-24.223903],[-56.163788,-24.224084],[-56.163586,-24.224655],[-56.162035,-24.224493],[-56.161395,-24.224629],[-56.161302,-24.224907],[-56.161954,-24.225246],[-56.162814,-24.226451],[-56.163315,-24.226565],[-56.164825,-24.226127],[-56.165591,-24.22535],[-56.166351,-24.225382],[-56.165554,-24.226284],[-56.165671,-24.226983],[-56.165911,-24.227515],[-56.167308,-24.228011],[-56.167046,-24.228526],[-56.166406,-24.228592],[-56.165794,-24.229133],[-56.166279,-24.229498],[-56.167026,-24.229307],[-56.167907,-24.229521],[-56.167872,-24.230233],[-56.166558,-24.231035],[-56.166799,-24.231427],[-56.168151,-24.231839],[-56.168367,-24.233697],[-56.168683,-24.234201],[-56.169534,-24.234415],[-56.170024,-24.233957],[-56.169466,-24.233158],[-56.168677,-24.230558],[-56.16886,-24.23042],[-56.17071,-24.23149],[-56.171812,-24.230492],[-56.172524,-24.23104],[-56.172399,-24.2315],[-56.170931,-24.232664],[-56.171814,-24.234874],[-56.170484,-24.235816],[-56.170268,-24.236289],[-56.170363,-24.238118],[-56.169355,-24.238531],[-56.169226,-24.239731],[-56.170238,-24.240922],[-56.168921,-24.242157],[-56.171121,-24.243272],[-56.171772,-24.243736],[-56.171725,-24.244001],[-56.170624,-24.244749],[-56.169793,-24.243795],[-56.168788,-24.243803],[-56.16833,-24.24415],[-56.168189,-24.244693],[-56.169516,-24.246682],[-56.169027,-24.246945],[-56.167215,-24.247033],[-56.166655,-24.248858],[-56.164813,-24.25122],[-56.165299,-24.251363],[-56.166033,-24.250822],[-56.167099,-24.2508],[-56.167523,-24.251124],[-56.167551,-24.251584],[-56.165507,-24.252187],[-56.16429,-24.252055],[-56.164331,-24.252809],[-56.163229,-24.253626],[-56.163772,-24.254453],[-56.164037,-24.255878],[-56.163022,-24.257351],[-56.164857,-24.258534],[-56.164472,-24.259132],[-56.163419,-24.259503],[-56.161996,-24.260639],[-56.163585,-24.264416],[-56.163331,-24.268392],[-56.163114,-24.268908],[-56.162795,-24.26885],[-56.162448,-24.26829],[-56.161644,-24.267964],[-56.161503,-24.268578],[-56.160368,-24.269744],[-56.160406,-24.271014],[-56.158393,-24.27145],[-56.157629,-24.271934],[-56.157563,-24.272687],[-56.157924,-24.273373],[-56.157738,-24.273777],[-56.156033,-24.273865],[-56.155887,-24.277409],[-56.156543,-24.277301],[-56.157311,-24.276272],[-56.157795,-24.276778],[-56.156522,-24.278194],[-56.155779,-24.280046],[-56.153418,-24.282503],[-56.153716,-24.283384],[-56.155609,-24.282739],[-56.155973,-24.282852],[-56.15662,-24.284084],[-56.156246,-24.285366],[-56.153947,-24.285409],[-56.151751,-24.285843],[-56.148489,-24.28415],[-56.147895,-24.284161],[-56.147421,-24.284479],[-56.146374,-24.286232],[-56.143699,-24.287766],[-56.142611,-24.288793],[-56.13969,-24.290674],[-56.139636,-24.291902],[-56.139205,-24.292597],[-56.137359,-24.293159],[-56.136389,-24.294773],[-56.131427,-24.296656],[-56.131349,-24.296879],[-56.1322,-24.297191],[-56.132213,-24.297498],[-56.130849,-24.298816],[-56.128039,-24.299958],[-56.126493,-24.30122],[-56.126762,-24.301877],[-56.12768,-24.30131],[-56.128167,-24.301355],[-56.12758,-24.30251],[-56.127851,-24.303014],[-56.129522,-24.303651],[-56.129208,-24.307278],[-56.127803,-24.307773],[-56.12786,-24.308345],[-56.128391,-24.308711],[-56.128354,-24.30959],[-56.127333,-24.309668],[-56.126701,-24.308576],[-56.125283,-24.308902],[-56.124727,-24.30996],[-56.124847,-24.31024],[-56.125259,-24.310186],[-56.125979,-24.309521],[-56.12639,-24.309607],[-56.12588,-24.310581],[-56.126538,-24.312441],[-56.125138,-24.312195],[-56.124787,-24.312403],[-56.125644,-24.314013],[-56.124243,-24.314004],[-56.124095,-24.315581],[-56.123133,-24.315952],[-56.123007,-24.31644],[-56.124414,-24.317829],[-56.124871,-24.317846],[-56.126616,-24.316586],[-56.126257,-24.317854],[-56.125353,-24.318658],[-56.126155,-24.319347],[-56.126161,-24.320742],[-56.12692,-24.32104],[-56.127825,-24.320194],[-56.128234,-24.320545],[-56.128073,-24.321758],[-56.128724,-24.32232],[-56.128688,-24.323102],[-56.126951,-24.323203],[-56.126339,-24.323702],[-56.127217,-24.324419],[-56.127829,-24.326209],[-56.129225,-24.327068],[-56.130434,-24.328429],[-56.129914,-24.328691],[-56.129052,-24.327751],[-56.128439,-24.328306],[-56.128234,-24.329421],[-56.126849,-24.329218],[-56.126589,-24.329453],[-56.126777,-24.330878],[-56.126496,-24.331867],[-56.126867,-24.333321],[-56.128592,-24.332717],[-56.129881,-24.333548],[-56.130633,-24.335031],[-56.130579,-24.336231],[-56.130937,-24.337252],[-56.130493,-24.33764],[-56.12999,-24.337679],[-56.129201,-24.337214],[-56.128635,-24.337574],[-56.129301,-24.338233],[-56.129261,-24.339643],[-56.130171,-24.340136],[-56.130089,-24.340959],[-56.129508,-24.341277],[-56.129281,-24.341136],[-56.129119,-24.340256],[-56.128202,-24.340725],[-56.126786,-24.340633],[-56.12651,-24.340925],[-56.126704,-24.341456],[-56.128045,-24.341478],[-56.128622,-24.34176],[-56.128634,-24.342193],[-56.125143,-24.342606],[-56.124836,-24.342869],[-56.125093,-24.345341],[-56.127425,-24.345145],[-56.127754,-24.34604],[-56.125018,-24.347434],[-56.125433,-24.349125],[-56.125302,-24.350464],[-56.123126,-24.352294],[-56.121573,-24.354406],[-56.120098,-24.358389],[-56.120415,-24.358893],[-56.12032,-24.359367],[-56.119648,-24.359684],[-56.119492,-24.360102],[-56.119267,-24.361789],[-56.11993,-24.362965],[-56.118511,-24.36318],[-56.117927,-24.363959],[-56.118008,-24.365424],[-56.119485,-24.365573],[-56.119889,-24.366663],[-56.119643,-24.366983],[-56.119201,-24.366911],[-56.118035,-24.365997],[-56.117161,-24.366759],[-56.116413,-24.366978],[-56.116149,-24.36766],[-56.117198,-24.367974],[-56.117226,-24.368295],[-56.115929,-24.36858],[-56.11579,-24.368873],[-56.116408,-24.369825],[-56.11616,-24.37041],[-56.117007,-24.371378],[-56.117995,-24.371691],[-56.117209,-24.372928],[-56.117538,-24.373907],[-56.118332,-24.373618],[-56.118514,-24.373801],[-56.11808,-24.374775],[-56.118152,-24.375362],[-56.121131,-24.37644],[-56.123035,-24.378768],[-56.123032,-24.379706],[-56.124393,-24.380149],[-56.125908,-24.382447],[-56.127184,-24.382712],[-56.12838,-24.383414],[-56.131108,-24.382861],[-56.134276,-24.383859],[-56.1388,-24.384133],[-56.140452,-24.385362],[-56.145954,-24.386811],[-56.148374,-24.388468],[-56.149211,-24.389624],[-56.149988,-24.391625],[-56.154275,-24.39509],[-56.155025,-24.39676],[-56.156541,-24.397988],[-56.158805,-24.4015],[-56.164036,-24.407119],[-56.165046,-24.408777],[-56.166479,-24.414308],[-56.169466,-24.418768],[-56.171573,-24.420599],[-56.179425,-24.425324],[-56.180996,-24.426805],[-56.183308,-24.432539],[-56.188121,-24.438584],[-56.188477,-24.444045],[-56.191355,-24.445808],[-56.232134,-24.432514],[-56.237426,-24.434013],[-56.240659,-24.435831],[-56.244805,-24.43666],[-56.247123,-24.437512],[-56.249414,-24.439916],[-56.249806,-24.440749],[-56.252793,-24.44271],[-56.260924,-24.44718],[-56.263216,-24.45005],[-56.266167,-24.45262],[-56.271444,-24.456208],[-56.277067,-24.454253],[-56.280054,-24.45368],[-56.283461,-24.453746],[-56.285711,-24.453093],[-56.288409,-24.452839],[-56.292532,-24.453251],[-56.295007,-24.45301],[-56.29617,-24.453228],[-56.298059,-24.452247],[-56.298337,-24.452491],[-56.29837,-24.453069],[-56.297739,-24.452948],[-56.29818,-24.453518],[-56.297783,-24.453724],[-56.297603,-24.454362],[-56.297846,-24.454934],[-56.297264,-24.455287],[-56.297395,-24.455553],[-56.297077,-24.455868],[-56.297397,-24.45641],[-56.296855,-24.456203],[-56.296316,-24.456865],[-56.296668,-24.456927],[-56.29635,-24.457352],[-56.297444,-24.458003],[-56.297522,-24.458379],[-56.297105,-24.458135],[-56.295914,-24.458419],[-56.297133,-24.45915],[-56.296119,-24.459196],[-56.296259,-24.459861],[-56.295758,-24.460165],[-56.295827,-24.459648],[-56.295446,-24.460133],[-56.29625,-24.460802],[-56.296188,-24.461289],[-56.29562,-24.461196],[-56.296073,-24.461651],[-56.295398,-24.461601],[-56.29537,-24.461937],[-56.295893,-24.462238],[-56.295238,-24.462598],[-56.295436,-24.46322],[-56.295894,-24.463495],[-56.295372,-24.463519],[-56.295123,-24.464126],[-56.295827,-24.46427],[-56.29564,-24.46481],[-56.29595,-24.465826],[-56.295296,-24.466028],[-56.295334,-24.466512],[-56.294355,-24.467532],[-56.294815,-24.468052],[-56.294262,-24.468405],[-56.294734,-24.468663],[-56.294149,-24.468982],[-56.295014,-24.469285],[-56.294544,-24.469901],[-56.294669,-24.4705],[-56.294135,-24.471441],[-56.294545,-24.471611],[-56.293943,-24.472405],[-56.294305,-24.473259],[-56.293354,-24.47341],[-56.293629,-24.474083],[-56.292913,-24.47413],[-56.293235,-24.474951],[-56.292722,-24.474703],[-56.29247,-24.475139],[-56.292624,-24.477938],[-56.292079,-24.478238],[-56.291709,-24.478048],[-56.291034,-24.478592],[-56.291699,-24.47915],[-56.290956,-24.479482],[-56.290452,-24.480219],[-56.290738,-24.480358],[-56.290589,-24.480673],[-56.288371,-24.482846],[-56.289051,-24.483938],[-56.288538,-24.483892],[-56.28852,-24.484365],[-56.287945,-24.484191],[-56.28752,-24.48471],[-56.28776,-24.485084],[-56.287103,-24.485118],[-56.287275,-24.485911],[-56.286859,-24.486024],[-56.287085,-24.486371],[-56.286163,-24.486474],[-56.28616,-24.486941],[-56.285708,-24.487002],[-56.285734,-24.487691],[-56.285162,-24.487581],[-56.285023,-24.488084],[-56.282806,-24.489293],[-56.282171,-24.490036],[-56.280056,-24.490654],[-56.279531,-24.49132],[-56.27975,-24.491543],[-56.279199,-24.491705],[-56.279447,-24.492032],[-56.278635,-24.492727],[-56.27864,-24.493147],[-56.278046,-24.493617],[-56.277753,-24.493468],[-56.278022,-24.493963],[-56.277208,-24.494406],[-56.277523,-24.494666],[-56.276199,-24.495661],[-56.2763,-24.496055],[-56.274786,-24.496803],[-56.274662,-24.497374],[-56.274188,-24.497452],[-56.274155,-24.498154],[-56.273266,-24.49825],[-56.273116,-24.498744],[-56.272566,-24.498687],[-56.272166,-24.49928],[-56.272384,-24.499617],[-56.271318,-24.49979],[-56.270815,-24.500439],[-56.271161,-24.501647],[-56.270401,-24.501583],[-56.270433,-24.502396],[-56.270052,-24.50232],[-56.26973,-24.502725],[-56.269371,-24.502606],[-56.269312,-24.503324],[-56.269901,-24.503707],[-56.269196,-24.503747],[-56.268708,-24.504846],[-56.268102,-24.504931],[-56.268199,-24.505338],[-56.267225,-24.505524],[-56.266922,-24.505852],[-56.266151,-24.505791],[-56.266138,-24.506204],[-56.265072,-24.506995],[-56.265196,-24.507738],[-56.264628,-24.507544],[-56.264735,-24.50822],[-56.264052,-24.508203],[-56.263683,-24.507839],[-56.263449,-24.508257],[-56.263182,-24.508071],[-56.261948,-24.50825],[-56.261381,-24.50903],[-56.260708,-24.5086],[-56.260989,-24.508924],[-56.26062,-24.509208],[-56.260841,-24.50975],[-56.259442,-24.509749],[-56.259816,-24.510524],[-56.259352,-24.510152],[-56.259264,-24.51083],[-56.259012,-24.51056],[-56.258776,-24.51068],[-56.258893,-24.511396],[-56.258434,-24.511975],[-56.258255,-24.511853],[-56.258124,-24.512313],[-56.258442,-24.513144],[-56.257588,-24.512982],[-56.257871,-24.513575],[-56.258637,-24.513787],[-56.257906,-24.515023],[-56.257523,-24.515199],[-56.257939,-24.515695],[-56.257964,-24.516357],[-56.257468,-24.516455],[-56.257365,-24.517073],[-56.256967,-24.517319],[-56.257361,-24.517744],[-56.257361,-24.518403],[-56.257007,-24.518747],[-56.257652,-24.518848],[-56.257775,-24.519251],[-56.258383,-24.519439],[-56.258066,-24.519649],[-56.258383,-24.520047],[-56.25774,-24.520162],[-56.258835,-24.520694],[-56.25841,-24.521055],[-56.259337,-24.521517],[-56.25865,-24.522081],[-56.259567,-24.522371],[-56.258934,-24.522489],[-56.259225,-24.522957],[-56.258298,-24.524528],[-56.259298,-24.5263],[-56.259958,-24.526394],[-56.259805,-24.526739],[-56.260332,-24.527135],[-56.260092,-24.527392],[-56.260539,-24.527559],[-56.260975,-24.528377],[-56.261229,-24.52891],[-56.260844,-24.529358],[-56.261183,-24.529823],[-56.26083,-24.529915],[-56.260955,-24.530537],[-56.262044,-24.531302],[-56.262119,-24.532374],[-56.261558,-24.532133],[-56.261104,-24.53255],[-56.261603,-24.532734],[-56.261366,-24.533072],[-56.261519,-24.533849],[-56.261334,-24.534023],[-56.260951,-24.533655],[-56.260523,-24.535185],[-56.261218,-24.535672],[-56.260914,-24.536171],[-56.261484,-24.536113],[-56.261181,-24.536478],[-56.261859,-24.537213],[-56.260981,-24.537904],[-56.260813,-24.538377],[-56.261679,-24.539205],[-56.260342,-24.539823],[-56.26024,-24.54032],[-56.260566,-24.540523],[-56.260108,-24.541508],[-56.260267,-24.541888],[-56.259745,-24.542037],[-56.259037,-24.543233],[-56.259262,-24.543607],[-56.259642,-24.543417],[-56.259429,-24.543893],[-56.25968,-24.544405],[-56.258737,-24.544884],[-56.258842,-24.545805],[-56.257661,-24.546773],[-56.258442,-24.548249],[-56.258238,-24.548597],[-56.257477,-24.548657],[-56.257788,-24.549418],[-56.256899,-24.550754],[-56.257088,-24.551057],[-56.257679,-24.55109],[-56.257802,-24.551514],[-56.257268,-24.551673],[-56.257546,-24.551899],[-56.257,-24.55229],[-56.2573,-24.552573],[-56.257205,-24.553093],[-56.256722,-24.55338],[-56.256538,-24.55398],[-56.257365,-24.554555],[-56.256875,-24.554765],[-56.25723,-24.555109],[-56.256898,-24.555329],[-56.257192,-24.555804],[-56.256233,-24.555961],[-56.256102,-24.556948],[-56.257293,-24.557521],[-56.256152,-24.557885],[-56.256978,-24.55794],[-56.256174,-24.559142],[-56.257054,-24.558726],[-56.257214,-24.558969],[-56.256785,-24.559481],[-56.258282,-24.560481],[-56.258921,-24.561279],[-56.262135,-24.562803],[-56.264239,-24.564177],[-56.267912,-24.565103],[-56.269037,-24.565926],[-56.272597,-24.567577],[-56.281249,-24.573083],[-56.28304,-24.573895],[-56.284368,-24.574019],[-56.285063,-24.574853],[-56.284786,-24.575592],[-56.284967,-24.575819],[-56.288856,-24.576677],[-56.290731,-24.576709],[-56.293439,-24.577787],[-56.294327,-24.578604],[-56.296292,-24.579607],[-56.298549,-24.580033],[-56.301335,-24.581174],[-56.302685,-24.581181],[-56.304331,-24.582037],[-56.306703,-24.581691],[-56.307722,-24.582168],[-56.309038,-24.583888],[-56.449813,-24.58601],[-56.455858,-24.584133],[-56.459268,-24.583644],[-56.463337,-24.585478]]]}}]}
