{"type":"FeatureCollection","name":"distrito","features":[{"type":"Feature","properties":{"clave":"13-3","nombre":"Capitán Bado"},"geometry":{"type":"Polygon","coordinates":[[[-55.82059,-23.757602],[-55.820123,-23.758294],[-55.821041,-23.758147],[-55.820465,-23.758612],[-55.820514,-23.759015],[-55.821076,-23.759109],[-55.821808,-23.758781],[-55.821607,-23.75966],[-55.822867,-23.75999],[-55.82218,-23.760608],[-55.822775,-23.760919],[-55.82245,-23.761377],[-55.822736,-23.761777],[-55.822524,-23.762236],[-55.82351,-23.763007],[-55.823642,-23.763577],[-55.824858,-23.764146],[-55.825563,-23.765601],[-55.826137,-23.765912],[-55.826929,-23.765205],[-55.827437,-23.765642],[-55.82823,-23.765205],[-55.828523,-23.765587],[-55.829066,-23.7656],[-55.829359,-23.764618],[-55.830761,-23.764168],[-55.832201,-23.7644],[-55.835438,-23.76559],[-55.836331,-23.765294],[-55.837203,-23.763973],[-55.839276,-23.763523],[-55.840538,-23.76407],[-55.840152,-23.764645],[-55.840788,-23.765576],[-55.841108,-23.764923],[-55.842315,-23.765501],[-55.84233,-23.765772],[-55.84177,-23.765854],[-55.841814,-23.766279],[-55.841449,-23.766475],[-55.841615,-23.767108],[-55.842221,-23.76765],[-55.842682,-23.767143],[-55.843559,-23.767371],[-55.844075,-23.768034],[-55.843739,-23.769391],[-55.844099,-23.770229],[-55.844601,-23.770219],[-55.84462,-23.770843],[-55.844947,-23.77103],[-55.844784,-23.773323],[-55.846551,-23.774321],[-55.847096,-23.774045],[-55.847747,-23.774212],[-55.84686,-23.775452],[-55.84643,-23.775105],[-55.846253,-23.776125],[-55.846829,-23.776278],[-55.847586,-23.777376],[-55.848406,-23.777581],[-55.848528,-23.778282],[-55.848124,-23.778572],[-55.848626,-23.778793],[-55.848463,-23.779293],[-55.84896,-23.779536],[-55.849443,-23.779079],[-55.850736,-23.780312],[-55.851773,-23.779792],[-55.851556,-23.780617],[-55.852528,-23.780272],[-55.852104,-23.780855],[-55.85228,-23.781426],[-55.853122,-23.780199],[-55.853778,-23.780028],[-55.853097,-23.781052],[-55.853689,-23.781472],[-55.85384,-23.780638],[-55.854257,-23.780438],[-55.854453,-23.780643],[-55.854181,-23.781386],[-55.854617,-23.78147],[-55.8552,-23.781136],[-55.854594,-23.782003],[-55.854599,-23.782793],[-55.855944,-23.782234],[-55.855916,-23.783142],[-55.856412,-23.783068],[-55.856695,-23.783554],[-55.85587,-23.784388],[-55.856801,-23.78444],[-55.857255,-23.784158],[-55.857132,-23.785286],[-55.857857,-23.785048],[-55.858526,-23.786444],[-55.857851,-23.786488],[-55.857694,-23.786781],[-55.85837,-23.786966],[-55.858412,-23.78778],[-55.859003,-23.787716],[-55.858756,-23.788211],[-55.859126,-23.788345],[-55.858609,-23.788567],[-55.857634,-23.788261],[-55.857991,-23.788932],[-55.857278,-23.789013],[-55.857596,-23.789955],[-55.857967,-23.790106],[-55.857751,-23.791076],[-55.85831,-23.790908],[-55.858249,-23.791725],[-55.858788,-23.791855],[-55.858245,-23.792195],[-55.858577,-23.793001],[-55.858054,-23.793846],[-55.857413,-23.793945],[-55.857732,-23.794629],[-55.858135,-23.794397],[-55.858717,-23.794555],[-55.858123,-23.795142],[-55.858466,-23.795389],[-55.8584,-23.79589],[-55.859,-23.795731],[-55.858989,-23.797312],[-55.859482,-23.797329],[-55.859695,-23.79846],[-55.859266,-23.798614],[-55.859315,-23.799012],[-55.860085,-23.799077],[-55.859722,-23.799553],[-55.860653,-23.799645],[-55.860544,-23.800123],[-55.861054,-23.799887],[-55.861027,-23.800465],[-55.861574,-23.800329],[-55.86188,-23.800575],[-55.862465,-23.800128],[-55.862876,-23.800199],[-55.863114,-23.799812],[-55.864555,-23.800166],[-55.865462,-23.799654],[-55.866805,-23.80025],[-55.868059,-23.800377],[-55.867952,-23.800828],[-55.868406,-23.80154],[-55.869317,-23.8018],[-55.869566,-23.802673],[-55.868914,-23.803043],[-55.869656,-23.80336],[-55.868969,-23.803649],[-55.869433,-23.803982],[-55.869251,-23.804305],[-55.869608,-23.804462],[-55.869552,-23.804773],[-55.870225,-23.804511],[-55.870591,-23.804753],[-55.870778,-23.804506],[-55.871048,-23.805136],[-55.87464,-23.805203],[-55.875055,-23.807247],[-55.875734,-23.807866],[-55.875999,-23.807308],[-55.876547,-23.807172],[-55.87696,-23.806669],[-55.877698,-23.806426],[-55.878321,-23.806584],[-55.879348,-23.805332],[-55.881951,-23.805626],[-55.883207,-23.80629],[-55.883902,-23.806336],[-55.88436,-23.806046],[-55.884401,-23.806506],[-55.885095,-23.806606],[-55.885445,-23.807539],[-55.886159,-23.807075],[-55.888137,-23.810056],[-55.888811,-23.811618],[-55.889341,-23.812006],[-55.889429,-23.812833],[-55.890112,-23.813005],[-55.890741,-23.814875],[-55.892271,-23.815333],[-55.891921,-23.816373],[-55.891361,-23.816834],[-55.892003,-23.816907],[-55.893242,-23.817652],[-55.893605,-23.81853],[-55.894656,-23.819003],[-55.895415,-23.820164],[-55.896166,-23.820707],[-55.896481,-23.820524],[-55.896535,-23.81992],[-55.897224,-23.819961],[-55.897496,-23.819416],[-55.898212,-23.819295],[-55.898861,-23.81948],[-55.898958,-23.820086],[-55.899758,-23.820629],[-55.899646,-23.821084],[-55.9008,-23.821323],[-55.902611,-23.821001],[-55.903129,-23.820396],[-55.90414,-23.82015],[-55.906832,-23.821384],[-55.908504,-23.820944],[-55.912192,-23.820717],[-55.913425,-23.820328],[-55.913996,-23.819542],[-55.914705,-23.819335],[-55.914579,-23.818679],[-55.914925,-23.818194],[-55.916123,-23.817891],[-55.915336,-23.817529],[-55.916489,-23.817284],[-55.917241,-23.816783],[-55.917662,-23.817762],[-55.91868,-23.817805],[-55.919159,-23.81845],[-55.921052,-23.818964],[-55.921186,-23.81929],[-55.920547,-23.819701],[-55.920431,-23.820125],[-55.921171,-23.820153],[-55.922013,-23.820849],[-55.922348,-23.821999],[-55.923188,-23.822655],[-55.922837,-23.82309],[-55.923208,-23.823359],[-55.923025,-23.823688],[-55.924993,-23.824505],[-55.925345,-23.824982],[-55.925068,-23.825468],[-55.926042,-23.826138],[-55.926703,-23.825773],[-55.927438,-23.82613],[-55.927606,-23.828217],[-55.92862,-23.828911],[-55.92869,-23.82958],[-55.929669,-23.829722],[-55.931097,-23.830937],[-55.934447,-23.82864],[-55.934805,-23.826587],[-55.936001,-23.826835],[-55.936807,-23.826475],[-55.936585,-23.825986],[-55.937199,-23.825791],[-55.94108,-23.826287],[-55.94195,-23.826032],[-55.940881,-23.825387],[-55.941561,-23.825166],[-55.941133,-23.824012],[-55.941535,-23.822723],[-55.942231,-23.822322],[-55.943917,-23.822378],[-55.944178,-23.82196],[-55.943739,-23.821307],[-55.945096,-23.820892],[-55.946127,-23.820212],[-55.946881,-23.81782],[-55.946426,-23.817008],[-55.946372,-23.816073],[-55.947409,-23.815949],[-55.947079,-23.815482],[-55.947773,-23.814714],[-55.948107,-23.815299],[-55.948427,-23.814687],[-55.948953,-23.814469],[-55.948647,-23.813912],[-55.94997,-23.813975],[-55.951286,-23.812435],[-55.95149,-23.81306],[-55.951811,-23.812502],[-55.952167,-23.813064],[-55.952655,-23.812603],[-55.953264,-23.813257],[-55.954174,-23.813507],[-55.954519,-23.813889],[-55.955005,-23.813603],[-55.955561,-23.813756],[-55.955415,-23.813208],[-55.955675,-23.813174],[-55.956001,-23.813953],[-55.95714,-23.813947],[-55.956732,-23.814414],[-55.956816,-23.814717],[-55.95793,-23.814585],[-55.957944,-23.814896],[-55.95846,-23.815139],[-55.958164,-23.815544],[-55.958765,-23.815444],[-55.959097,-23.815739],[-55.959724,-23.815441],[-55.960009,-23.816735],[-55.960466,-23.816313],[-55.960818,-23.816975],[-55.961338,-23.817005],[-55.961396,-23.817412],[-55.962251,-23.817188],[-55.962721,-23.817864],[-55.962405,-23.818218],[-55.963012,-23.8181],[-55.963345,-23.817701],[-55.963515,-23.818312],[-55.964172,-23.817842],[-55.964032,-23.818595],[-55.964597,-23.818658],[-55.964785,-23.819011],[-55.966163,-23.818849],[-55.966403,-23.818254],[-55.967546,-23.818745],[-55.967863,-23.818278],[-55.967989,-23.818951],[-55.969909,-23.819258],[-55.97023,-23.819824],[-55.970958,-23.819924],[-55.97135,-23.820622],[-55.971783,-23.820747],[-55.973433,-23.820807],[-55.974085,-23.821092],[-55.97543,-23.820748],[-55.976959,-23.821395],[-55.977337,-23.821113],[-55.97827,-23.821097],[-55.979102,-23.822277],[-55.980321,-23.822854],[-55.980419,-23.8235],[-55.981221,-23.823731],[-55.981243,-23.824178],[-55.987184,-23.826399],[-55.98756,-23.826658],[-55.987116,-23.826967],[-55.987313,-23.827203],[-55.988856,-23.82706],[-55.989654,-23.826446],[-55.991897,-23.827753],[-55.991974,-23.826945],[-55.991589,-23.826333],[-55.992464,-23.826352],[-55.992824,-23.826729],[-55.993476,-23.826277],[-55.993229,-23.82572],[-55.993836,-23.826257],[-55.994285,-23.8257],[-55.995112,-23.825945],[-55.995618,-23.825618],[-55.99586,-23.826302],[-55.996904,-23.825297],[-55.99875,-23.825639],[-55.999545,-23.824456],[-56.001559,-23.824555],[-56.003075,-23.825694],[-56.003751,-23.825843],[-56.005305,-23.825261],[-56.006024,-23.825672],[-56.006615,-23.82517],[-56.008043,-23.825396],[-56.008598,-23.825747],[-56.009453,-23.825545],[-56.010075,-23.825725],[-56.010255,-23.825401],[-56.009862,-23.825354],[-56.009853,-23.825083],[-56.010721,-23.824822],[-56.01327,-23.825583],[-56.013701,-23.825442],[-56.014438,-23.826078],[-56.015092,-23.826241],[-56.015379,-23.827308],[-56.017375,-23.829728],[-56.017719,-23.829464],[-56.017785,-23.828552],[-56.018176,-23.828256],[-56.019858,-23.828741],[-56.020054,-23.828621],[-56.019839,-23.82819],[-56.021466,-23.828765],[-56.021635,-23.828504],[-56.021121,-23.828049],[-56.021341,-23.82778],[-56.021668,-23.827791],[-56.021785,-23.828333],[-56.022086,-23.82801],[-56.022591,-23.82809],[-56.022566,-23.827426],[-56.02313,-23.827818],[-56.023549,-23.827189],[-56.024586,-23.826893],[-56.024558,-23.826405],[-56.025391,-23.826424],[-56.025425,-23.825918],[-56.024825,-23.825955],[-56.024608,-23.825213],[-56.025307,-23.8251],[-56.025065,-23.824538],[-56.026003,-23.824585],[-56.025858,-23.82374],[-56.0265,-23.823938],[-56.026593,-23.823609],[-56.026215,-23.823209],[-56.026891,-23.823204],[-56.02729,-23.822219],[-56.02708,-23.821757],[-56.027675,-23.821522],[-56.027789,-23.821034],[-56.02742,-23.820918],[-56.026328,-23.821593],[-56.026435,-23.820492],[-56.027555,-23.819386],[-56.025975,-23.819239],[-56.026263,-23.818798],[-56.027016,-23.818826],[-56.027104,-23.818542],[-56.026552,-23.818062],[-56.025501,-23.818259],[-56.025442,-23.817873],[-56.025864,-23.817546],[-56.026569,-23.81746],[-56.025881,-23.81699],[-56.026245,-23.816117],[-56.025469,-23.815874],[-56.025498,-23.815295],[-56.024908,-23.815007],[-56.025084,-23.814633],[-56.025875,-23.814502],[-56.025066,-23.813645],[-56.025517,-23.812852],[-56.024704,-23.812563],[-56.024538,-23.813255],[-56.024241,-23.81331],[-56.023481,-23.812692],[-56.023371,-23.81243],[-56.023996,-23.81148],[-56.022533,-23.810584],[-56.02229,-23.810094],[-56.022478,-23.809732],[-56.023039,-23.81061],[-56.023264,-23.810328],[-56.023057,-23.809883],[-56.023701,-23.809581],[-56.023765,-23.809263],[-56.022847,-23.808257],[-56.022569,-23.807506],[-56.021754,-23.807421],[-56.021454,-23.806329],[-56.021742,-23.805751],[-56.020891,-23.805712],[-56.020981,-23.805247],[-56.020576,-23.804892],[-56.021381,-23.804465],[-56.021646,-23.803774],[-56.021291,-23.803295],[-56.020767,-23.804075],[-56.020448,-23.803812],[-56.020737,-23.8032],[-56.021356,-23.802864],[-56.020772,-23.801735],[-56.020231,-23.801505],[-56.020672,-23.800269],[-56.020155,-23.800118],[-56.019905,-23.80056],[-56.018949,-23.799565],[-56.018627,-23.799665],[-56.018361,-23.800663],[-56.018065,-23.800616],[-56.018096,-23.799719],[-56.018682,-23.798984],[-56.018515,-23.798211],[-56.017521,-23.79733],[-56.017232,-23.797998],[-56.016874,-23.798064],[-56.016794,-23.797189],[-56.015558,-23.79575],[-56.014592,-23.796084],[-56.014944,-23.795291],[-56.014285,-23.794253],[-56.013878,-23.794194],[-56.012636,-23.795242],[-56.012216,-23.795217],[-56.012095,-23.794921],[-56.012596,-23.79397],[-56.011934,-23.793329],[-56.010952,-23.794232],[-56.010285,-23.794319],[-56.010184,-23.792932],[-56.01089,-23.79263],[-56.010831,-23.792368],[-56.00977,-23.792214],[-56.010262,-23.790842],[-56.010079,-23.790557],[-56.008328,-23.790251],[-56.007027,-23.79089],[-56.006402,-23.790306],[-56.006247,-23.789578],[-56.00591,-23.790065],[-56.004271,-23.789668],[-56.0038,-23.788279],[-56.00356,-23.789073],[-56.003225,-23.789229],[-56.000615,-23.788304],[-56.000009,-23.786857],[-55.999167,-23.787227],[-55.998268,-23.786857],[-55.998152,-23.787549],[-55.997694,-23.787694],[-55.997581,-23.786364],[-55.996309,-23.786424],[-55.996249,-23.78614],[-55.99709,-23.785975],[-55.997415,-23.785466],[-55.996514,-23.785471],[-55.996297,-23.784743],[-55.995854,-23.784524],[-55.993315,-23.784121],[-55.993422,-23.784576],[-55.99469,-23.785028],[-55.9946,-23.78555],[-55.993813,-23.78517],[-55.992873,-23.785413],[-55.992634,-23.784276],[-55.991548,-23.784235],[-55.991334,-23.784881],[-55.990522,-23.784501],[-55.99033,-23.783738],[-55.992703,-23.783436],[-55.992791,-23.783186],[-55.991931,-23.782636],[-55.991574,-23.782542],[-55.990866,-23.783038],[-55.990351,-23.782603],[-55.990079,-23.78276],[-55.989044,-23.782469],[-55.988584,-23.782875],[-55.988593,-23.78325],[-55.989193,-23.783913],[-55.989104,-23.784242],[-55.988056,-23.784064],[-55.98791,-23.782212],[-55.987628,-23.782005],[-55.986973,-23.782149],[-55.986032,-23.780825],[-55.986667,-23.778557],[-55.98641,-23.778294],[-55.985897,-23.77912],[-55.985181,-23.779195],[-55.985279,-23.777741],[-55.983811,-23.776028],[-55.984846,-23.774637],[-55.986692,-23.770515],[-55.986327,-23.769899],[-55.985341,-23.769676],[-55.985171,-23.76779],[-55.984421,-23.767319],[-55.984794,-23.76539],[-55.984111,-23.764397],[-55.983099,-23.764345],[-55.982591,-23.764671],[-55.982474,-23.765375],[-55.981961,-23.76469],[-55.981019,-23.765229],[-55.98106,-23.764695],[-55.980309,-23.764452],[-55.981346,-23.762868],[-55.980675,-23.761864],[-55.979553,-23.761721],[-55.979424,-23.761387],[-55.980468,-23.760432],[-55.980427,-23.759784],[-55.981893,-23.759376],[-55.981848,-23.759163],[-55.98073,-23.758951],[-55.979616,-23.75937],[-55.979377,-23.759138],[-55.980402,-23.758276],[-55.980213,-23.757593],[-55.98112,-23.757548],[-55.980571,-23.756701],[-55.981193,-23.756492],[-55.981102,-23.755094],[-55.981655,-23.754254],[-55.981231,-23.753962],[-55.980656,-23.754222],[-55.980324,-23.754041],[-55.981301,-23.753374],[-55.981278,-23.75271],[-55.980576,-23.752483],[-55.980508,-23.751827],[-55.979605,-23.751259],[-55.979481,-23.750525],[-55.979801,-23.749786],[-55.978647,-23.749489],[-55.978546,-23.748176],[-55.977398,-23.748168],[-55.977617,-23.747429],[-55.977277,-23.747111],[-55.977349,-23.746234],[-55.976284,-23.74627],[-55.975836,-23.746735],[-55.974957,-23.746678],[-55.976412,-23.745231],[-55.975462,-23.744867],[-55.9762,-23.743943],[-55.975267,-23.743792],[-55.975534,-23.74272],[-55.975258,-23.742599],[-55.974431,-23.742986],[-55.973649,-23.742376],[-55.973745,-23.741916],[-55.974547,-23.742331],[-55.975048,-23.742189],[-55.974119,-23.741425],[-55.973478,-23.740602],[-55.973518,-23.740228],[-55.974081,-23.740334],[-55.974942,-23.741583],[-55.975146,-23.741465],[-55.974594,-23.739937],[-55.974735,-23.739537],[-55.974995,-23.739437],[-55.975489,-23.740224],[-55.976191,-23.740416],[-55.975378,-23.739098],[-55.975321,-23.738101],[-55.975759,-23.737695],[-55.975958,-23.735916],[-55.975543,-23.735726],[-55.974875,-23.737025],[-55.97456,-23.735924],[-55.975247,-23.734446],[-55.974405,-23.733273],[-55.974584,-23.732899],[-55.975504,-23.733553],[-55.976237,-23.733336],[-55.975888,-23.732993],[-55.976408,-23.731625],[-55.97615,-23.73141],[-55.975564,-23.731798],[-55.975625,-23.73116],[-55.975232,-23.730535],[-55.975531,-23.730145],[-55.976774,-23.729804],[-55.976813,-23.729447],[-55.975775,-23.728545],[-55.977469,-23.727304],[-55.977003,-23.726449],[-55.977733,-23.726624],[-55.978169,-23.725298],[-55.978391,-23.725333],[-55.97845,-23.726118],[-55.979099,-23.725934],[-55.979097,-23.724989],[-55.98002,-23.724109],[-55.980115,-23.722593],[-55.979344,-23.722929],[-55.978059,-23.722767],[-55.977905,-23.722323],[-55.978366,-23.72144],[-55.97744,-23.72151],[-55.977102,-23.720912],[-55.977235,-23.720512],[-55.977801,-23.720226],[-55.976705,-23.719648],[-55.976389,-23.718658],[-55.976549,-23.718258],[-55.977158,-23.718509],[-55.977708,-23.718027],[-55.977737,-23.717815],[-55.977173,-23.717802],[-55.977493,-23.717046],[-55.977455,-23.716024],[-55.977026,-23.71522],[-55.978148,-23.713796],[-55.976423,-23.714202],[-55.976426,-23.713844],[-55.977764,-23.713154],[-55.977554,-23.712804],[-55.97675,-23.712611],[-55.97647,-23.711791],[-55.976825,-23.711351],[-55.977179,-23.712265],[-55.977425,-23.711593],[-55.977916,-23.711494],[-55.978156,-23.710388],[-55.978986,-23.710709],[-55.979303,-23.710421],[-55.978159,-23.708837],[-55.979,-23.708852],[-55.979113,-23.708631],[-55.978509,-23.707851],[-55.977465,-23.707623],[-55.976979,-23.707066],[-55.978337,-23.70728],[-55.978679,-23.704981],[-55.977427,-23.704215],[-55.977614,-23.703909],[-55.978473,-23.704137],[-55.979077,-23.703817],[-55.977845,-23.70282],[-55.978653,-23.702323],[-55.978787,-23.701864],[-55.977391,-23.70171],[-55.977542,-23.701319],[-55.978423,-23.700975],[-55.978123,-23.700334],[-55.97674,-23.700862],[-55.976336,-23.700527],[-55.977675,-23.69971],[-55.977674,-23.698619],[-55.977906,-23.698442],[-55.97921,-23.698578],[-55.979631,-23.697916],[-55.980517,-23.698237],[-55.980394,-23.697402],[-55.9809,-23.696553],[-55.980502,-23.69546],[-55.980661,-23.69518],[-55.980986,-23.69502],[-55.981832,-23.69569],[-55.982378,-23.695702],[-55.981791,-23.693781],[-55.982101,-23.693264],[-55.980537,-23.692061],[-55.981016,-23.691144],[-55.98108,-23.69007],[-55.981331,-23.689978],[-55.98191,-23.690425],[-55.982045,-23.689668],[-55.982792,-23.690039],[-55.983719,-23.689756],[-55.983694,-23.689423],[-55.983072,-23.689649],[-55.98277,-23.689332],[-55.983693,-23.688392],[-55.983386,-23.687427],[-55.984041,-23.687585],[-55.984849,-23.687292],[-55.986594,-23.685233],[-55.986243,-23.685163],[-55.985682,-23.685994],[-55.984893,-23.685163],[-55.98552,-23.684136],[-55.984778,-23.684506],[-55.984663,-23.683806],[-55.985157,-23.683247],[-55.984335,-23.683097],[-55.984244,-23.682858],[-55.985033,-23.681432],[-55.983274,-23.680381],[-55.983502,-23.679556],[-55.984282,-23.680413],[-55.984724,-23.680671],[-55.985114,-23.680504],[-55.984342,-23.679766],[-55.985423,-23.678768],[-55.984348,-23.679059],[-55.984214,-23.67847],[-55.98366,-23.678236],[-55.983332,-23.677663],[-55.98451,-23.677288],[-55.984755,-23.676599],[-55.983505,-23.676821],[-55.983028,-23.676332],[-55.983474,-23.676071],[-55.98461,-23.67624],[-55.984799,-23.675722],[-55.983847,-23.675665],[-55.983609,-23.675314],[-55.983964,-23.674924],[-55.984723,-23.67475],[-55.984847,-23.674299],[-55.984182,-23.674167],[-55.983725,-23.674624],[-55.983016,-23.674296],[-55.982815,-23.675164],[-55.981912,-23.674595],[-55.982382,-23.673636],[-55.981716,-23.672498],[-55.980448,-23.672584],[-55.978622,-23.671847],[-55.978802,-23.671269],[-55.979768,-23.671957],[-55.980131,-23.67173],[-55.979382,-23.670523],[-55.98061,-23.670719],[-55.980973,-23.669426],[-55.980804,-23.668907],[-55.97839,-23.668866],[-55.979554,-23.668113],[-55.980802,-23.668294],[-55.98083,-23.66803],[-55.979429,-23.667466],[-55.980815,-23.665938],[-55.98017,-23.665223],[-55.979585,-23.665321],[-55.978959,-23.664981],[-55.978555,-23.663009],[-55.977107,-23.663507],[-55.977869,-23.661897],[-55.977597,-23.66151],[-55.976979,-23.661536],[-55.976466,-23.660974],[-55.976316,-23.661715],[-55.976063,-23.661743],[-55.97491,-23.661167],[-55.974407,-23.660585],[-55.973618,-23.661362],[-55.971759,-23.660821],[-55.971548,-23.661104],[-55.971702,-23.662517],[-55.971314,-23.662738],[-55.970382,-23.662112],[-55.96745,-23.657926],[-55.967043,-23.658053],[-55.966454,-23.660494],[-55.966025,-23.660377],[-55.966385,-23.658765],[-55.965909,-23.658228],[-55.96521,-23.658803],[-55.965024,-23.660431],[-55.964461,-23.660481],[-55.963112,-23.659664],[-55.962904,-23.658673],[-55.962028,-23.657639],[-55.961782,-23.656266],[-55.958101,-23.653386],[-55.956318,-23.653046],[-55.954721,-23.654307],[-55.953543,-23.654733],[-55.952665,-23.653966],[-55.951634,-23.653639],[-55.952439,-23.653188],[-55.951006,-23.652576],[-55.949823,-23.65266],[-55.94982,-23.651989],[-55.950894,-23.652035],[-55.951065,-23.651419],[-55.94937,-23.6514],[-55.94881,-23.651061],[-55.948772,-23.650665],[-55.949968,-23.651061],[-55.950211,-23.650606],[-55.950029,-23.649653],[-55.950347,-23.649091],[-55.952198,-23.649264],[-55.95239,-23.648968],[-55.95186,-23.648066],[-55.950876,-23.648128],[-55.950547,-23.647905],[-55.950931,-23.647465],[-55.951904,-23.647731],[-55.952229,-23.647474],[-55.951531,-23.646807],[-55.95216,-23.645737],[-55.951864,-23.644494],[-55.952101,-23.642751],[-55.95043,-23.641841],[-55.949381,-23.642756],[-55.949765,-23.641258],[-55.948257,-23.640669],[-55.948363,-23.639756],[-55.947461,-23.63994],[-55.948089,-23.638886],[-55.947911,-23.638382],[-55.947606,-23.638342],[-55.947063,-23.639077],[-55.946516,-23.639157],[-55.946249,-23.638424],[-55.947035,-23.638384],[-55.947172,-23.637844],[-55.946288,-23.636726],[-55.945587,-23.636508],[-55.945246,-23.635782],[-55.94499,-23.635719],[-55.944812,-23.636289],[-55.944239,-23.636522],[-55.944109,-23.636224],[-55.944482,-23.63618],[-55.944559,-23.635869],[-55.943984,-23.635415],[-55.943372,-23.635465],[-55.942614,-23.636092],[-55.941929,-23.635996],[-55.942733,-23.635681],[-55.943151,-23.635143],[-55.941728,-23.635293],[-55.94116,-23.634924],[-55.940907,-23.635615],[-55.938385,-23.634631],[-55.938256,-23.635338],[-55.936869,-23.635077],[-55.936813,-23.634841],[-55.937301,-23.634776],[-55.937668,-23.634352],[-55.937842,-23.633302],[-55.937151,-23.632909],[-55.936365,-23.632964],[-55.936794,-23.632114],[-55.935675,-23.631421],[-55.936234,-23.630724],[-55.935668,-23.630218],[-55.935574,-23.62957],[-55.93394,-23.629284],[-55.932863,-23.627569],[-55.933775,-23.627484],[-55.93311,-23.626897],[-55.933447,-23.625791],[-55.932686,-23.625643],[-55.932644,-23.624689],[-55.931928,-23.62437],[-55.932391,-23.623088],[-55.932138,-23.622172],[-55.931352,-23.62123],[-55.934084,-23.621002],[-55.933069,-23.620442],[-55.933536,-23.620262],[-55.933343,-23.619576],[-55.934112,-23.618713],[-55.934349,-23.617835],[-55.934174,-23.61653],[-55.933532,-23.615623],[-55.934586,-23.615092],[-55.934191,-23.614873],[-55.933286,-23.61499],[-55.93312,-23.614742],[-55.934137,-23.613941],[-55.935427,-23.614048],[-55.935774,-23.613211],[-55.935005,-23.613015],[-55.933737,-23.613727],[-55.934309,-23.612728],[-55.933724,-23.611843],[-55.934091,-23.611398],[-55.934852,-23.611254],[-55.935464,-23.610162],[-55.935833,-23.610149],[-55.935833,-23.610793],[-55.936519,-23.610169],[-55.935913,-23.609928],[-55.935656,-23.609247],[-55.934788,-23.608819],[-55.935723,-23.608507],[-55.93457,-23.607418],[-55.934712,-23.6071],[-55.935664,-23.607487],[-55.935362,-23.606188],[-55.935094,-23.60616],[-55.935089,-23.606804],[-55.934704,-23.606683],[-55.93396,-23.606163],[-55.933777,-23.605282],[-55.932689,-23.604553],[-55.931953,-23.605073],[-55.931447,-23.604097],[-55.932005,-23.602804],[-55.93188,-23.602386],[-55.931384,-23.602208],[-55.931714,-23.601469],[-55.931453,-23.60123],[-55.930174,-23.601201],[-55.92952,-23.599941],[-55.930706,-23.599676],[-55.931275,-23.59914],[-55.930532,-23.597796],[-55.929385,-23.597974],[-55.930663,-23.596742],[-55.929988,-23.595919],[-55.930824,-23.596151],[-55.930955,-23.595854],[-55.930549,-23.595635],[-55.930519,-23.595274],[-55.932514,-23.595128],[-55.932887,-23.594529],[-55.932237,-23.594792],[-55.931351,-23.594554],[-55.932204,-23.594097],[-55.931539,-23.593439],[-55.931394,-23.590566],[-55.93162,-23.5896],[-55.930664,-23.589058],[-55.930063,-23.588101],[-55.929097,-23.58811],[-55.929299,-23.586542],[-55.928763,-23.58592],[-55.927671,-23.585547],[-55.925823,-23.58276],[-55.925358,-23.58092],[-55.926055,-23.581738],[-55.926513,-23.581638],[-55.927143,-23.579105],[-55.927816,-23.578682],[-55.927522,-23.577733],[-55.928891,-23.577727],[-55.928715,-23.576645],[-55.929254,-23.576284],[-55.929423,-23.575425],[-55.930326,-23.576348],[-55.930655,-23.575732],[-55.931628,-23.576197],[-55.932901,-23.575562],[-55.932202,-23.574955],[-55.932928,-23.574919],[-55.932953,-23.574677],[-55.932755,-23.573606],[-55.932264,-23.57351],[-55.931801,-23.571432],[-55.932673,-23.571273],[-55.933087,-23.570448],[-55.93272,-23.569575],[-55.932116,-23.569051],[-55.931154,-23.569194],[-55.930874,-23.568657],[-55.931692,-23.568307],[-55.932578,-23.568457],[-55.93248,-23.567463],[-55.931188,-23.566363],[-55.931656,-23.565183],[-55.930445,-23.565108],[-55.930087,-23.564518],[-55.930505,-23.563898],[-55.931556,-23.5637],[-55.931019,-23.563089],[-55.931604,-23.561883],[-55.931365,-23.561717],[-55.929957,-23.562567],[-55.929623,-23.562503],[-55.930393,-23.561834],[-55.930638,-23.561238],[-55.930412,-23.56082],[-55.930929,-23.559804],[-55.932357,-23.558098],[-55.933419,-23.55759],[-55.933577,-23.557031],[-55.933259,-23.556009],[-55.932013,-23.554352],[-55.932005,-23.552839],[-55.931068,-23.550611],[-55.931,-23.549377],[-55.930563,-23.548304],[-55.929608,-23.547751],[-55.928631,-23.547812],[-55.927176,-23.545278],[-55.925292,-23.544632],[-55.924644,-23.543793],[-55.924048,-23.542154],[-55.921335,-23.539403],[-55.918766,-23.532977],[-55.918202,-23.529676],[-55.917252,-23.527353],[-55.916887,-23.523661],[-55.913785,-23.519765],[-55.913465,-23.518512],[-55.911962,-23.517657],[-55.911468,-23.516073],[-55.910849,-23.515585],[-55.909396,-23.515408],[-55.910362,-23.514033],[-55.910404,-23.512832],[-55.909705,-23.512159],[-55.909961,-23.511366],[-55.909223,-23.510354],[-55.909415,-23.509411],[-55.908743,-23.509018],[-55.905283,-23.504717],[-55.904927,-23.502321],[-55.904297,-23.501572],[-55.903721,-23.499639],[-55.90437,-23.498511],[-55.906974,-23.495937],[-55.907419,-23.495768],[-55.908418,-23.496033],[-55.910638,-23.494716],[-55.910498,-23.494042],[-55.911312,-23.491284],[-55.912256,-23.490284],[-55.912848,-23.488626],[-55.914221,-23.48631],[-55.915797,-23.484871],[-55.916446,-23.483666],[-55.91691,-23.480919],[-55.916639,-23.478026],[-55.916926,-23.475576],[-55.916624,-23.474414],[-55.915948,-23.473456],[-55.915339,-23.471049],[-55.912976,-23.46761],[-55.912734,-23.465486],[-55.91157,-23.462718],[-55.911573,-23.459977],[-55.911176,-23.458873],[-55.911773,-23.45726],[-55.911718,-23.454826],[-55.909516,-23.452778],[-55.908616,-23.450726],[-55.90709,-23.449171],[-55.90673,-23.447638],[-55.906873,-23.44576],[-55.906301,-23.444541],[-55.906132,-23.442558],[-55.905297,-23.441405],[-55.905148,-23.439832],[-55.903903,-23.436938],[-55.903879,-23.434847],[-55.903418,-23.433882],[-55.90192,-23.432525],[-55.901116,-23.431156],[-55.900765,-23.430277],[-55.900735,-23.428913],[-55.89968,-23.427285],[-55.898796,-23.423909],[-55.897092,-23.42149],[-55.895537,-23.41858],[-55.895475,-23.41723],[-55.89488,-23.415816],[-55.8943,-23.41276],[-55.894715,-23.410166],[-55.894561,-23.408015],[-55.895083,-23.405905],[-55.898326,-23.401489],[-55.902037,-23.399013],[-55.901963,-23.396041],[-55.901096,-23.394215],[-55.89919,-23.392179],[-55.917513,-23.391167],[-55.972028,-23.385237],[-56.030873,-23.380361],[-56.029327,-23.384496],[-56.027888,-23.390198],[-56.028509,-23.3978],[-56.028331,-23.398603],[-56.029273,-23.40226],[-56.030231,-23.401474],[-56.032182,-23.401039],[-56.034788,-23.397767],[-56.035963,-23.39492],[-56.038224,-23.392044],[-56.043335,-23.388788],[-56.045354,-23.386023],[-56.047302,-23.384391],[-56.050851,-23.383017],[-56.052233,-23.382862],[-56.054136,-23.381894],[-56.054524,-23.379011],[-56.05527,-23.378478],[-56.055062,-23.378106],[-56.05549,-23.377038],[-56.054774,-23.376176],[-56.055512,-23.372667],[-56.055597,-23.370635],[-56.056097,-23.370065],[-56.057471,-23.369676],[-56.058029,-23.368636],[-56.060275,-23.366305],[-56.061755,-23.362412],[-56.063016,-23.360424],[-56.064244,-23.355721],[-56.065205,-23.354254],[-56.06546,-23.352504],[-56.069068,-23.347512],[-56.069878,-23.344202],[-56.069445,-23.340207],[-56.068841,-23.337824],[-56.066626,-23.332802],[-56.066846,-23.330026],[-56.06661,-23.327852],[-56.066107,-23.32621],[-56.064389,-23.32289],[-56.064539,-23.321256],[-56.067053,-23.316876],[-56.067001,-23.314144],[-56.0666,-23.313129],[-56.064008,-23.314668],[-56.06328,-23.314831],[-56.060577,-23.314517],[-56.060316,-23.314273],[-56.061201,-23.311966],[-56.06129,-23.31068],[-56.060797,-23.309129],[-56.057814,-23.308309],[-56.056723,-23.308489],[-56.054847,-23.308179],[-56.053762,-23.30752],[-56.053891,-23.30629],[-56.053338,-23.304609],[-56.054839,-23.303629],[-56.052913,-23.301921],[-56.052874,-23.301659],[-56.053903,-23.301852],[-56.05451,-23.301595],[-56.054776,-23.301074],[-56.053823,-23.298831],[-56.05196,-23.299659],[-56.051531,-23.300346],[-56.051107,-23.300399],[-56.050467,-23.299519],[-56.048052,-23.298441],[-56.046666,-23.297426],[-56.041835,-23.295439],[-56.041555,-23.295083],[-56.042792,-23.294363],[-56.042514,-23.293615],[-56.043227,-23.292724],[-56.042982,-23.290336],[-56.042641,-23.289961],[-56.039778,-23.289477],[-56.039619,-23.289215],[-56.040012,-23.287856],[-56.039812,-23.287594],[-56.038028,-23.288609],[-56.037092,-23.289591],[-56.035887,-23.288857],[-56.032981,-23.28869],[-56.032059,-23.287714],[-56.030852,-23.287147],[-56.029797,-23.285108],[-56.031123,-23.283196],[-56.03115,-23.282319],[-56.030628,-23.281887],[-56.029839,-23.28205],[-56.029197,-23.281506],[-56.029667,-23.280819],[-56.029714,-23.279812],[-56.028441,-23.280084],[-56.027547,-23.278046],[-56.025898,-23.277215],[-56.025413,-23.277286],[-56.023868,-23.27875],[-56.023774,-23.277836],[-56.024629,-23.276871],[-56.024611,-23.27648],[-56.02423,-23.27616],[-56.023962,-23.276942],[-56.023355,-23.277106],[-56.022068,-23.27652],[-56.022012,-23.275904],[-56.022846,-23.274977],[-56.021192,-23.27478],[-56.020535,-23.273526],[-56.020133,-23.273356],[-56.019082,-23.273592],[-56.01729,-23.272928],[-56.016632,-23.271768],[-56.015208,-23.270621],[-56.012186,-23.269801],[-56.012002,-23.270135],[-56.012479,-23.271164],[-56.0132,-23.271951],[-56.012729,-23.272788],[-56.011482,-23.27222],[-56.010566,-23.273315],[-56.009292,-23.273549],[-56.009011,-23.273342],[-56.00882,-23.271868],[-56.008438,-23.271754],[-56.008153,-23.272031],[-56.008386,-23.273226],[-56.007979,-23.273671],[-56.007636,-23.273762],[-56.007322,-23.272548],[-56.006516,-23.272319],[-56.005337,-23.273394],[-56.004367,-23.273518],[-56.004147,-23.273349],[-56.004579,-23.272195],[-56.005573,-23.271549],[-56.005536,-23.271157],[-56.003818,-23.271407],[-56.002908,-23.271644],[-56.0024,-23.272144],[-56.002071,-23.272888],[-56.002728,-23.274142],[-56.002262,-23.2744],[-56.000329,-23.273679],[-55.999507,-23.273021],[-55.998628,-23.271822],[-55.997656,-23.269466],[-55.996164,-23.269307],[-55.995077,-23.268815],[-55.989288,-23.268387],[-55.989559,-23.267232],[-55.990924,-23.265488],[-55.991371,-23.265118],[-55.992138,-23.265104],[-55.992181,-23.264825],[-55.991417,-23.264466],[-55.990585,-23.264964],[-55.990344,-23.26485],[-55.990391,-23.2639],[-55.989228,-23.262923],[-55.989311,-23.262681],[-55.990281,-23.262538],[-55.989787,-23.261061],[-55.988695,-23.261427],[-55.987106,-23.260653],[-55.987229,-23.260448],[-55.98876,-23.260738],[-55.988604,-23.260009],[-55.987336,-23.259554],[-55.988953,-23.25921],[-55.989118,-23.258745],[-55.987887,-23.258774],[-55.985764,-23.25656],[-55.983449,-23.253244],[-55.982764,-23.253053],[-55.982338,-23.253293],[-55.981845,-23.254502],[-55.981267,-23.253529],[-55.981277,-23.252242],[-55.981017,-23.251905],[-55.978416,-23.251496],[-55.977262,-23.252011],[-55.97697,-23.253277],[-55.975979,-23.25355],[-55.975294,-23.253415],[-55.975358,-23.252949],[-55.974917,-23.252574],[-55.974005,-23.253052],[-55.973381,-23.252806],[-55.973122,-23.25245],[-55.973793,-23.251727],[-55.973777,-23.251205],[-55.973216,-23.250623],[-55.97193,-23.252517],[-55.971363,-23.25283],[-55.970154,-23.252542],[-55.969876,-23.252037],[-55.970001,-23.251497],[-55.971709,-23.249867],[-55.971208,-23.249361],[-55.970895,-23.248128],[-55.97159,-23.24692],[-55.969439,-23.245862],[-55.970554,-23.245217],[-55.970437,-23.244694],[-55.968639,-23.244887],[-55.96574,-23.243973],[-55.965302,-23.243261],[-55.965267,-23.242497],[-55.965797,-23.241847],[-55.965339,-23.241042],[-55.965035,-23.24119],[-55.964947,-23.242084],[-55.963428,-23.242801],[-55.961906,-23.243966],[-55.960677,-23.243753],[-55.960207,-23.244477],[-55.958944,-23.243443],[-55.958118,-23.243232],[-55.958233,-23.243961],[-55.957883,-23.244853],[-55.958403,-23.245435],[-55.958198,-23.2459],[-55.957495,-23.245466],[-55.956625,-23.245703],[-55.955638,-23.24551],[-55.956029,-23.244524],[-55.955891,-23.244113],[-55.955107,-23.243791],[-55.954014,-23.244194],[-55.953805,-23.242439],[-55.954592,-23.242538],[-55.955475,-23.243196],[-55.955647,-23.241724],[-55.954621,-23.241382],[-55.954664,-23.241084],[-55.955857,-23.240756],[-55.956614,-23.239362],[-55.955834,-23.238518],[-55.955478,-23.237565],[-55.953485,-23.236992],[-55.953139,-23.237381],[-55.950833,-23.238037],[-55.950682,-23.23936],[-55.948862,-23.239777],[-55.948395,-23.240165],[-55.94821,-23.240593],[-55.948461,-23.242012],[-55.947726,-23.24307],[-55.947638,-23.244095],[-55.946405,-23.244329],[-55.944699,-23.24318],[-55.94415,-23.243624],[-55.944147,-23.244072],[-55.945109,-23.244917],[-55.944983,-23.245532],[-55.943757,-23.244889],[-55.942084,-23.244673],[-55.941814,-23.245641],[-55.94296,-23.246133],[-55.9436,-23.246884],[-55.943596,-23.24735],[-55.943231,-23.247553],[-55.937676,-23.245688],[-55.937377,-23.245275],[-55.937455,-23.243094],[-55.937092,-23.24298],[-55.935816,-23.243586],[-55.935469,-23.244106],[-55.935437,-23.245635],[-55.934903,-23.246788],[-55.935582,-23.247631],[-55.935296,-23.248114],[-55.934464,-23.248649],[-55.932383,-23.248971],[-55.932324,-23.248784],[-55.933721,-23.248197],[-55.933909,-23.247396],[-55.931813,-23.247028],[-55.931315,-23.246316],[-55.928908,-23.244453],[-55.928392,-23.243368],[-55.929461,-23.243394],[-55.929707,-23.242986],[-55.926384,-23.242049],[-55.926153,-23.240649],[-55.924281,-23.240133],[-55.923197,-23.239435],[-55.922478,-23.238442],[-55.921429,-23.238454],[-55.920911,-23.237667],[-55.920144,-23.237624],[-55.91959,-23.238758],[-55.918885,-23.238678],[-55.918281,-23.235933],[-55.917922,-23.235371],[-55.916016,-23.234016],[-55.915159,-23.232798],[-55.914796,-23.232776],[-55.912787,-23.234124],[-55.911926,-23.23574],[-55.911542,-23.235868],[-55.911181,-23.235586],[-55.91127,-23.234561],[-55.91209,-23.233019],[-55.911089,-23.231986],[-55.908139,-23.230026],[-55.908327,-23.229189],[-55.905348,-23.228347],[-55.9034,-23.224772],[-55.902157,-23.223775],[-55.89845,-23.223041],[-55.897405,-23.222623],[-55.896162,-23.221626],[-55.896309,-23.220974],[-55.895933,-23.220039],[-55.896891,-23.218834],[-55.896878,-23.217939],[-55.894928,-23.217067],[-55.891903,-23.216897],[-55.891976,-23.215387],[-55.891515,-23.215123],[-55.889897,-23.215577],[-55.88758,-23.217575],[-55.886854,-23.217533],[-55.887132,-23.215632],[-55.886069,-23.214916],[-55.885653,-23.214037],[-55.888644,-23.21335],[-55.889327,-23.213727],[-55.890136,-23.213528],[-55.890401,-23.21312],[-55.88975,-23.211418],[-55.889777,-23.210486],[-55.89031,-23.20952],[-55.891668,-23.208746],[-55.891977,-23.207928],[-55.891758,-23.207591],[-55.889198,-23.207349],[-55.88784,-23.20568],[-55.888108,-23.205048],[-55.887688,-23.204523],[-55.886242,-23.203785],[-55.886418,-23.201996],[-55.885821,-23.201078],[-55.885036,-23.200774],[-55.883279,-23.20106],[-55.882741,-23.20018],[-55.880634,-23.19886],[-55.879804,-23.199283],[-55.879199,-23.19926],[-55.879672,-23.198107],[-55.881765,-23.19635],[-55.881084,-23.195674],[-55.879162,-23.19635],[-55.878881,-23.196218],[-55.878809,-23.195173],[-55.877411,-23.193541],[-55.877338,-23.192627],[-55.878112,-23.191737],[-55.876931,-23.190591],[-55.877627,-23.189347],[-55.877376,-23.188058],[-55.876509,-23.187978],[-55.875128,-23.189124],[-55.87356,-23.188441],[-55.871742,-23.188783],[-55.871461,-23.188613],[-55.871674,-23.18729],[-55.871475,-23.186897],[-55.869904,-23.186606],[-55.870019,-23.184985],[-55.86978,-23.184666],[-55.867187,-23.183529],[-55.867351,-23.183231],[-55.868705,-23.182868],[-55.868637,-23.181413],[-55.868417,-23.181169],[-55.867287,-23.181236],[-55.867029,-23.180786],[-55.867339,-23.179875],[-55.86831,-23.179472],[-55.868485,-23.177944],[-55.868044,-23.177624],[-55.866288,-23.17776],[-55.862824,-23.177138],[-55.862467,-23.176371],[-55.863239,-23.17578],[-55.863303,-23.175296],[-55.861984,-23.173869],[-55.860067,-23.173986],[-55.859888,-23.173667],[-55.860266,-23.171899],[-55.859838,-23.170049],[-55.860154,-23.168541],[-55.860759,-23.168471],[-55.861251,-23.169929],[-55.863082,-23.170446],[-55.864162,-23.169092],[-55.863947,-23.168326],[-55.862293,-23.168314],[-55.861695,-23.167564],[-55.86013,-23.166602],[-55.859464,-23.166653],[-55.858122,-23.167949],[-55.854621,-23.166879],[-55.852357,-23.165147],[-55.851481,-23.163891],[-55.851171,-23.162322],[-55.849767,-23.161417],[-55.850054,-23.160878],[-55.851545,-23.161076],[-55.851895,-23.160202],[-55.851559,-23.15936],[-55.847151,-23.160801],[-55.845316,-23.160769],[-55.844453,-23.160315],[-55.844506,-23.158805],[-55.843133,-23.156306],[-55.840117,-23.15465],[-55.83975,-23.154757],[-55.839257,-23.155666],[-55.838969,-23.155593],[-55.838402,-23.153206],[-55.836087,-23.153322],[-55.833657,-23.152942],[-55.832123,-23.153301],[-55.831453,-23.151125],[-55.828959,-23.150272],[-55.826883,-23.148384],[-55.827532,-23.147091],[-55.827348,-23.146704],[-55.826312,-23.1465],[-55.825318,-23.147342],[-55.824595,-23.147321],[-55.82484,-23.144562],[-55.824579,-23.143238],[-55.82539,-23.143008],[-55.826365,-23.143377],[-55.826517,-23.142505],[-55.825526,-23.141035],[-55.823783,-23.140919],[-55.822211,-23.139775],[-55.822113,-23.139278],[-55.82305,-23.138216],[-55.82441,-23.137345],[-55.823573,-23.136678],[-55.82372,-23.135459],[-55.823226,-23.133591],[-55.823527,-23.133239],[-55.824122,-23.133267],[-55.825207,-23.132717],[-55.82587,-23.131841],[-55.823769,-23.131857],[-55.821935,-23.132441],[-55.819602,-23.131731],[-55.819443,-23.131376],[-55.820312,-23.130273],[-55.822148,-23.130421],[-55.823786,-23.129811],[-55.823482,-23.128606],[-55.824015,-23.128035],[-55.82378,-23.126633],[-55.824771,-23.125225],[-55.824688,-23.123997],[-55.823388,-23.12383],[-55.821315,-23.124467],[-55.821284,-23.123232],[-55.822002,-23.122726],[-55.820873,-23.121577],[-55.819415,-23.122966],[-55.817771,-23.123237],[-55.81762,-23.122984],[-55.818354,-23.121684],[-55.817895,-23.119737],[-55.817232,-23.118773],[-55.817215,-23.117765],[-55.817577,-23.116258],[-55.8201,-23.115655],[-55.818949,-23.114978],[-55.819358,-23.113872],[-55.81914,-23.112509],[-55.819446,-23.110686],[-55.818726,-23.109344],[-55.820101,-23.108693],[-55.820215,-23.10823],[-55.81948,-23.106745],[-55.819074,-23.106506],[-55.817415,-23.107556],[-55.817523,-23.108855],[-55.816555,-23.110602],[-55.814092,-23.111134],[-55.813048,-23.110882],[-55.813445,-23.109233],[-55.812388,-23.107644],[-55.81169,-23.105798],[-55.812441,-23.105457],[-55.812953,-23.10624],[-55.813556,-23.106347],[-55.814212,-23.105227],[-55.815125,-23.104832],[-55.815417,-23.102616],[-55.814996,-23.102141],[-55.813683,-23.103469],[-55.81325,-23.103426],[-55.813041,-23.103015],[-55.812976,-23.099711],[-55.813509,-23.099125],[-55.813464,-23.098385],[-55.812253,-23.097888],[-55.81186,-23.098042],[-55.81042,-23.101265],[-55.810105,-23.101357],[-55.809818,-23.101048],[-55.809364,-23.09859],[-55.808299,-23.096828],[-55.807128,-23.096544],[-55.806797,-23.097414],[-55.806343,-23.097843],[-55.805747,-23.097886],[-55.805556,-23.096398],[-55.803856,-23.093435],[-55.804772,-23.092758],[-55.8048,-23.092435],[-55.802289,-23.091755],[-55.80137,-23.091914],[-55.801123,-23.092887],[-55.800493,-23.092985],[-55.799632,-23.092262],[-55.799661,-23.091798],[-55.800567,-23.091349],[-55.800725,-23.090768],[-55.79968,-23.088723],[-55.799577,-23.087927],[-55.796997,-23.088332],[-55.796344,-23.088036],[-55.796102,-23.087562],[-55.796428,-23.086283],[-55.797428,-23.084811],[-55.797459,-23.084127],[-55.796588,-23.083554],[-55.796211,-23.082922],[-55.794465,-23.082374],[-55.7944,-23.082027],[-55.795424,-23.081618],[-55.795258,-23.081105],[-55.793091,-23.081026],[-55.793159,-23.080106],[-55.794369,-23.078849],[-55.794389,-23.078479],[-55.793619,-23.078009],[-55.792282,-23.079242],[-55.788875,-23.080844],[-55.788115,-23.078368],[-55.788717,-23.077555],[-55.787391,-23.076648],[-55.787367,-23.074555],[-55.785421,-23.074453],[-55.784619,-23.073834],[-55.78344,-23.074383],[-55.782175,-23.072289],[-55.780973,-23.07272],[-55.781073,-23.071029],[-55.780525,-23.06953],[-55.778287,-23.068805],[-55.777457,-23.067556],[-55.775306,-23.067586],[-55.775494,-23.069342],[-55.773672,-23.069627],[-55.773165,-23.070189],[-55.772527,-23.070208],[-55.770768,-23.068204],[-55.770756,-23.067669],[-55.771689,-23.066087],[-55.771233,-23.065682],[-55.768545,-23.065874],[-55.768022,-23.065406],[-55.767815,-23.063949],[-55.768205,-23.063047],[-55.768215,-23.061993],[-55.765661,-23.061462],[-55.76458,-23.060682],[-55.763389,-23.06072],[-55.762562,-23.060092],[-55.762595,-23.059282],[-55.763892,-23.059623],[-55.765009,-23.059293],[-55.764954,-23.058781],[-55.763497,-23.058243],[-55.760906,-23.058042],[-55.760138,-23.05828],[-55.759538,-23.057944],[-55.759562,-23.057126],[-55.761103,-23.056981],[-55.761516,-23.056371],[-55.760379,-23.056189],[-55.759849,-23.053722],[-55.758674,-23.053878],[-55.757693,-23.053312],[-55.759482,-23.052949],[-55.759117,-23.051962],[-55.759494,-23.050628],[-55.758257,-23.050201],[-55.75777,-23.049623],[-55.755826,-23.049285],[-55.754718,-23.04864],[-55.753488,-23.049346],[-55.753655,-23.047844],[-55.752774,-23.047421],[-55.7528,-23.046516],[-55.750733,-23.045593],[-55.749111,-23.045705],[-55.748884,-23.045274],[-55.747727,-23.044822],[-55.746756,-23.04388],[-55.744702,-23.043958],[-55.74395,-23.042945],[-55.742338,-23.042756],[-55.741482,-23.04181],[-55.73982,-23.042086],[-55.739068,-23.040987],[-55.73711,-23.041355],[-55.736534,-23.040904],[-55.734852,-23.040976],[-55.73267,-23.04015],[-55.730839,-23.040249],[-55.729673,-23.039458],[-55.727042,-23.040232],[-55.726391,-23.039892],[-55.726023,-23.038814],[-55.725648,-23.038613],[-55.724799,-23.038908],[-55.72409,-23.038641],[-55.723407,-23.039118],[-55.722202,-23.039199],[-55.719172,-23.038773],[-55.717809,-23.037393],[-55.717305,-23.035212],[-55.717027,-23.035111],[-55.712812,-23.036075],[-55.71166,-23.034277],[-55.711957,-23.033616],[-55.71026,-23.031651],[-55.708361,-23.030235],[-55.706725,-23.029513],[-55.705762,-23.027902],[-55.704289,-23.02798],[-55.702882,-23.027115],[-55.702558,-23.024543],[-55.700738,-23.022288],[-55.700089,-23.019248],[-55.699566,-23.018558],[-55.695944,-23.016545],[-55.694489,-23.015427],[-55.691996,-23.014914],[-55.690175,-23.01405],[-55.687969,-23.010956],[-55.684388,-23.010258],[-55.683054,-23.008445],[-55.680502,-23.006807],[-55.677556,-23.006693],[-55.675651,-23.005972],[-55.673787,-23.00592],[-55.673114,-23.005576],[-55.672599,-23.004488],[-55.671158,-23.003433],[-55.67,-23.003549],[-55.668205,-23.003015],[-55.666971,-23.003384],[-55.665906,-23.003334],[-55.665388,-23.002779],[-55.664644,-23.002863],[-55.662847,-23.002062],[-55.66212,-23.002038],[-55.661212,-23.002514],[-55.65819,-23.00555],[-55.636647,-23.018262],[-55.639415,-23.025928],[-55.635243,-23.025685],[-55.628887,-23.032553],[-55.623819,-23.032961],[-55.619182,-23.036411],[-55.613918,-23.041077],[-55.611187,-23.047682],[-55.611322,-23.05006],[-55.614632,-23.054376],[-55.611726,-23.059353],[-55.610532,-23.069663],[-55.610969,-23.077018],[-55.617027,-23.08173],[-55.6121,-23.08603],[-55.612111,-23.090508],[-55.599783,-23.104176],[-55.595833,-23.119457],[-55.598261,-23.121365],[-55.596219,-23.129678],[-55.595486,-23.131374],[-55.596447,-23.142501],[-55.597336,-23.147014],[-55.596811,-23.152603],[-55.592019,-23.151701],[-55.585559,-23.149082],[-55.582921,-23.148511],[-55.573477,-23.143295],[-55.56687,-23.144068],[-55.56439,-23.146598],[-55.560981,-23.148239],[-55.558206,-23.150051],[-55.555017,-23.152948],[-55.547013,-23.156329],[-55.545111,-23.155771],[-55.541903,-23.15612],[-55.541164,-23.15911],[-55.540767,-23.162687],[-55.54433,-23.166948],[-55.540836,-23.169427],[-55.539978,-23.174989],[-55.543811,-23.177475],[-55.543098,-23.180811],[-55.538819,-23.184506],[-55.53592,-23.186039],[-55.532857,-23.190373],[-55.525264,-23.194904],[-55.523292,-23.197788],[-55.526268,-23.208201],[-55.530038,-23.211674],[-55.534181,-23.216859],[-55.54032,-23.220929],[-55.542858,-23.21929],[-55.546231,-23.220142],[-55.542395,-23.226595],[-55.540486,-23.234035],[-55.536716,-23.235777],[-55.540418,-23.244127],[-55.537306,-23.251264],[-55.529731,-23.252755],[-55.526415,-23.256741],[-55.522676,-23.259717],[-55.525924,-23.262357],[-55.533003,-23.269313],[-55.537423,-23.270725],[-55.540745,-23.273628],[-55.544006,-23.274085],[-55.547492,-23.27535],[-55.549388,-23.278965],[-55.553183,-23.279475],[-55.554972,-23.282911],[-55.554733,-23.288172],[-55.552042,-23.29669],[-55.549275,-23.303647],[-55.556013,-23.316298],[-55.554953,-23.320501],[-55.546248,-23.323619],[-55.538528,-23.329479],[-55.534643,-23.333314],[-55.532214,-23.341062],[-55.527649,-23.342364],[-55.524073,-23.349331],[-55.520707,-23.352235],[-55.519498,-23.365119],[-55.510757,-23.366791],[-55.506603,-23.370235],[-55.504467,-23.374978],[-55.504478,-23.378475],[-55.509542,-23.393496],[-55.513378,-23.400303],[-55.515641,-23.409535],[-55.522793,-23.41987],[-55.524239,-23.423299],[-55.529334,-23.42983],[-55.538386,-23.438921],[-55.544794,-23.449316],[-55.540578,-23.455517],[-55.543307,-23.474187],[-55.545077,-23.477207],[-55.553943,-23.475677],[-55.562205,-23.476155],[-55.559109,-23.488644],[-55.553487,-23.488149],[-55.551784,-23.489397],[-55.549722,-23.496194],[-55.548282,-23.504458],[-55.546777,-23.522555],[-55.543421,-23.523665],[-55.545002,-23.529863],[-55.544911,-23.531262],[-55.54578,-23.532887],[-55.544005,-23.535178],[-55.544287,-23.538955],[-55.544654,-23.53997],[-55.545299,-23.540586],[-55.545311,-23.54157],[-55.546636,-23.542391],[-55.547799,-23.543621],[-55.548353,-23.544949],[-55.548839,-23.547676],[-55.551712,-23.550963],[-55.552344,-23.552672],[-55.554024,-23.553757],[-55.555415,-23.55764],[-55.555514,-23.559849],[-55.556508,-23.560183],[-55.557397,-23.561402],[-55.558378,-23.561704],[-55.558663,-23.563066],[-55.559813,-23.563736],[-55.560027,-23.564772],[-55.560692,-23.565763],[-55.561707,-23.566187],[-55.56188,-23.56678],[-55.561362,-23.567281],[-55.561619,-23.568078],[-55.562922,-23.568881],[-55.563163,-23.57008],[-55.565499,-23.572716],[-55.565874,-23.573496],[-55.565828,-23.574367],[-55.566706,-23.575766],[-55.567334,-23.576227],[-55.568952,-23.576446],[-55.569557,-23.577386],[-55.571664,-23.57876],[-55.571663,-23.580024],[-55.571205,-23.581365],[-55.571925,-23.58321],[-55.573168,-23.583971],[-55.573267,-23.585299],[-55.572762,-23.586162],[-55.572805,-23.586713],[-55.573512,-23.587383],[-55.57373,-23.588523],[-55.574212,-23.58906],[-55.577347,-23.591053],[-55.57735,-23.591478],[-55.576558,-23.591737],[-55.577019,-23.592784],[-55.577802,-23.593225],[-55.577914,-23.593741],[-55.577914,-23.594301],[-55.577155,-23.594993],[-55.57691,-23.595682],[-55.576976,-23.597674],[-55.577558,-23.59823],[-55.577052,-23.598695],[-55.577313,-23.59961],[-55.577145,-23.600123],[-55.577625,-23.600954],[-55.578867,-23.601281],[-55.579681,-23.603045],[-55.578848,-23.603665],[-55.578923,-23.604795],[-55.578526,-23.60494],[-55.57787,-23.606054],[-55.578045,-23.606651],[-55.578764,-23.606789],[-55.578475,-23.607671],[-55.579493,-23.607834],[-55.579234,-23.60985],[-55.578433,-23.610832],[-55.578892,-23.611008],[-55.578729,-23.611358],[-55.579782,-23.61158],[-55.579353,-23.612064],[-55.579924,-23.612168],[-55.579698,-23.61269],[-55.580201,-23.612934],[-55.579678,-23.613783],[-55.580194,-23.614573],[-55.579824,-23.615071],[-55.580211,-23.61582],[-55.580128,-23.616306],[-55.580596,-23.616365],[-55.580289,-23.617116],[-55.581008,-23.617637],[-55.580462,-23.619109],[-55.582218,-23.61978],[-55.582358,-23.620206],[-55.583103,-23.620163],[-55.582911,-23.621335],[-55.583967,-23.622902],[-55.583581,-23.623788],[-55.584048,-23.625423],[-55.583434,-23.625715],[-55.583965,-23.626014],[-55.583651,-23.626643],[-55.584439,-23.627801],[-55.583322,-23.629051],[-55.58547,-23.62959],[-55.585346,-23.630045],[-55.584477,-23.630186],[-55.584377,-23.630483],[-55.586322,-23.633318],[-55.585819,-23.634465],[-55.586151,-23.635367],[-55.587171,-23.63618],[-55.586729,-23.637598],[-55.587335,-23.638272],[-55.588119,-23.638415],[-55.588843,-23.639636],[-55.589673,-23.639797],[-55.59014,-23.640492],[-55.590918,-23.640937],[-55.590554,-23.642365],[-55.591634,-23.643183],[-55.592899,-23.6458],[-55.594119,-23.645333],[-55.594649,-23.645681],[-55.594436,-23.646261],[-55.594639,-23.646556],[-55.596489,-23.646713],[-55.597051,-23.647373],[-55.596691,-23.64811],[-55.597392,-23.648541],[-55.597317,-23.649254],[-55.598436,-23.649368],[-55.598258,-23.650143],[-55.600083,-23.649712],[-55.600132,-23.650074],[-55.599507,-23.650854],[-55.599439,-23.651887],[-55.599671,-23.652594],[-55.600351,-23.652925],[-55.601741,-23.652707],[-55.60143,-23.651165],[-55.602237,-23.650852],[-55.603542,-23.650981],[-55.604523,-23.651459],[-55.604863,-23.651814],[-55.604833,-23.65237],[-55.605714,-23.652572],[-55.606127,-23.653497],[-55.608768,-23.653254],[-55.610138,-23.652449],[-55.609957,-23.652027],[-55.610452,-23.651499],[-55.61088,-23.651932],[-55.610879,-23.652758],[-55.612044,-23.652628],[-55.612359,-23.65385],[-55.611561,-23.654236],[-55.611573,-23.654638],[-55.613231,-23.655538],[-55.613858,-23.655548],[-55.613853,-23.654952],[-55.614193,-23.654598],[-55.615903,-23.654031],[-55.61801,-23.655269],[-55.619293,-23.655506],[-55.619488,-23.654375],[-55.619832,-23.654229],[-55.620789,-23.656062],[-55.624516,-23.65618],[-55.626038,-23.657585],[-55.626904,-23.657407],[-55.627386,-23.656599],[-55.627921,-23.656373],[-55.629468,-23.657078],[-55.630333,-23.656923],[-55.632123,-23.658618],[-55.632406,-23.659781],[-55.633101,-23.660663],[-55.634378,-23.661031],[-55.635074,-23.661841],[-55.637409,-23.663447],[-55.641066,-23.668107],[-55.642741,-23.6694],[-55.643126,-23.669376],[-55.643132,-23.668762],[-55.643368,-23.668733],[-55.644492,-23.669447],[-55.645309,-23.670655],[-55.64609,-23.670982],[-55.645754,-23.669973],[-55.646559,-23.670291],[-55.647224,-23.669818],[-55.64869,-23.669863],[-55.649299,-23.669015],[-55.651558,-23.669653],[-55.652244,-23.669411],[-55.652838,-23.669542],[-55.653504,-23.670049],[-55.652759,-23.670363],[-55.652833,-23.670694],[-55.653493,-23.671052],[-55.654521,-23.670654],[-55.654626,-23.671721],[-55.656073,-23.673413],[-55.656936,-23.673737],[-55.658137,-23.673602],[-55.658842,-23.67266],[-55.659531,-23.672558],[-55.659253,-23.673377],[-55.659639,-23.673995],[-55.659545,-23.674572],[-55.660487,-23.675226],[-55.660658,-23.676243],[-55.661176,-23.677029],[-55.661822,-23.67675],[-55.663171,-23.674996],[-55.665276,-23.674355],[-55.665849,-23.67385],[-55.666418,-23.674022],[-55.666909,-23.673827],[-55.667634,-23.673341],[-55.668259,-23.672403],[-55.669192,-23.673373],[-55.67111,-23.673502],[-55.671745,-23.673015],[-55.672642,-23.671537],[-55.673405,-23.672036],[-55.673309,-23.673011],[-55.673678,-23.673366],[-55.674539,-23.6735],[-55.675487,-23.67316],[-55.675991,-23.672663],[-55.676146,-23.672001],[-55.676781,-23.672313],[-55.677266,-23.673203],[-55.679163,-23.671543],[-55.680128,-23.672428],[-55.680823,-23.672122],[-55.681116,-23.67095],[-55.681809,-23.670405],[-55.683352,-23.670522],[-55.684152,-23.670272],[-55.684672,-23.670534],[-55.685654,-23.66991],[-55.686583,-23.670125],[-55.689473,-23.666483],[-55.689939,-23.666686],[-55.689939,-23.66763],[-55.691084,-23.667206],[-55.692051,-23.666135],[-55.692963,-23.666472],[-55.693908,-23.667523],[-55.694949,-23.667722],[-55.694457,-23.667139],[-55.695739,-23.666446],[-55.696515,-23.665369],[-55.697185,-23.665298],[-55.698482,-23.665706],[-55.698859,-23.665551],[-55.69866,-23.664569],[-55.697915,-23.664048],[-55.697925,-23.663732],[-55.698286,-23.663257],[-55.699377,-23.663112],[-55.700828,-23.661612],[-55.701379,-23.661747],[-55.702256,-23.662762],[-55.702863,-23.662844],[-55.703784,-23.662486],[-55.704565,-23.661684],[-55.705737,-23.662104],[-55.706237,-23.661192],[-55.707342,-23.66065],[-55.707863,-23.661169],[-55.707869,-23.662813],[-55.709044,-23.662967],[-55.711044,-23.662194],[-55.714618,-23.663673],[-55.716561,-23.663224],[-55.718008,-23.664446],[-55.718924,-23.666097],[-55.720784,-23.666158],[-55.721838,-23.666709],[-55.722831,-23.66827],[-55.723803,-23.66901],[-55.72419,-23.670467],[-55.726777,-23.674918],[-55.727286,-23.676394],[-55.728587,-23.677376],[-55.729241,-23.679232],[-55.730454,-23.678764],[-55.732486,-23.680817],[-55.733979,-23.680644],[-55.738722,-23.685117],[-55.739584,-23.685232],[-55.740794,-23.684782],[-55.741032,-23.68561],[-55.741635,-23.68529],[-55.742074,-23.685713],[-55.742457,-23.686809],[-55.744011,-23.686339],[-55.743928,-23.68692],[-55.744613,-23.687197],[-55.744606,-23.687707],[-55.745105,-23.688027],[-55.74563,-23.687973],[-55.745874,-23.688634],[-55.747217,-23.689042],[-55.747187,-23.690424],[-55.748184,-23.691358],[-55.750203,-23.690985],[-55.751059,-23.691453],[-55.751474,-23.690476],[-55.752165,-23.690608],[-55.752127,-23.691556],[-55.75278,-23.69125],[-55.752782,-23.691806],[-55.753216,-23.691452],[-55.753624,-23.691988],[-55.754595,-23.692254],[-55.755063,-23.693499],[-55.757428,-23.69523],[-55.759981,-23.697607],[-55.760579,-23.698773],[-55.761156,-23.698547],[-55.76108,-23.699111],[-55.761564,-23.699273],[-55.76139,-23.699565],[-55.761706,-23.700037],[-55.760819,-23.700797],[-55.760297,-23.700753],[-55.759929,-23.701445],[-55.760406,-23.701792],[-55.759998,-23.702173],[-55.760509,-23.702506],[-55.759898,-23.702908],[-55.759508,-23.704088],[-55.759527,-23.706337],[-55.76001,-23.707316],[-55.760625,-23.707479],[-55.76087,-23.708077],[-55.760748,-23.709954],[-55.761466,-23.710236],[-55.7624,-23.711277],[-55.762606,-23.712489],[-55.763123,-23.713076],[-55.763181,-23.714015],[-55.763997,-23.714501],[-55.764055,-23.715151],[-55.765056,-23.71613],[-55.764871,-23.717131],[-55.765253,-23.718886],[-55.764547,-23.7208],[-55.764526,-23.724493],[-55.764925,-23.725115],[-55.76485,-23.725643],[-55.765251,-23.726007],[-55.765164,-23.726467],[-55.765544,-23.726859],[-55.765455,-23.727458],[-55.765873,-23.727579],[-55.766536,-23.728722],[-55.767047,-23.728776],[-55.767478,-23.729312],[-55.767262,-23.729862],[-55.768022,-23.730229],[-55.768047,-23.730717],[-55.767593,-23.731052],[-55.767725,-23.731676],[-55.766909,-23.73241],[-55.767154,-23.732864],[-55.768562,-23.733642],[-55.769927,-23.736119],[-55.772057,-23.737414],[-55.776912,-23.739498],[-55.779418,-23.741626],[-55.779817,-23.741508],[-55.780526,-23.740416],[-55.780876,-23.740843],[-55.78239,-23.740643],[-55.782897,-23.741094],[-55.783756,-23.741096],[-55.783441,-23.742484],[-55.784174,-23.743989],[-55.784801,-23.744396],[-55.78564,-23.744394],[-55.78689,-23.745618],[-55.78757,-23.745773],[-55.788851,-23.746672],[-55.78974,-23.746864],[-55.790188,-23.746254],[-55.790786,-23.746308],[-55.791035,-23.746039],[-55.791602,-23.746125],[-55.792089,-23.746675],[-55.792694,-23.746463],[-55.793063,-23.747103],[-55.792688,-23.747456],[-55.79351,-23.747481],[-55.793894,-23.747963],[-55.794723,-23.747937],[-55.794861,-23.748458],[-55.795692,-23.748428],[-55.796322,-23.750361],[-55.797448,-23.750645],[-55.797927,-23.751539],[-55.798737,-23.751522],[-55.799455,-23.750945],[-55.800021,-23.751365],[-55.800271,-23.752126],[-55.800693,-23.752427],[-55.801067,-23.753821],[-55.800966,-23.755617],[-55.801458,-23.755766],[-55.801619,-23.756187],[-55.803714,-23.757621],[-55.805137,-23.759014],[-55.806157,-23.759297],[-55.808922,-23.759355],[-55.809388,-23.759223],[-55.809561,-23.758782],[-55.810135,-23.758998],[-55.810588,-23.758663],[-55.811141,-23.759065],[-55.811899,-23.757847],[-55.812598,-23.758547],[-55.812885,-23.757818],[-55.813434,-23.757935],[-55.813664,-23.757644],[-55.815108,-23.757388],[-55.815313,-23.756893],[-55.816201,-23.756624],[-55.816281,-23.756864],[-55.816776,-23.756805],[-55.817015,-23.757344],[-55.819316,-23.757285],[-55.81981,-23.757045],[-55.82059,-23.757602]]]}}]}
