{"type":"FeatureCollection","name":"distrito","features":[{"type":"Feature","properties":{"clave":"3-17","nombre":"Itacurubí de la Cordillera"},"geometry":{"type":"Polygon","coordinates":[[[-56.851227,-25.507642],[-56.927,-25.508377],[-56.927052,-25.506841],[-56.926653,-25.506372],[-56.928952,-25.506133],[-56.929986,-25.504897],[-56.930607,-25.502797],[-56.929615,-25.502196],[-56.9276,-25.501676],[-56.927601,-25.500647],[-56.928627,-25.498841],[-56.927411,-25.497721],[-56.92606,-25.497707],[-56.925676,-25.496596],[-56.926056,-25.496198],[-56.929296,-25.495794],[-56.930221,-25.494828],[-56.930997,-25.493316],[-56.930918,-25.492119],[-56.932703,-25.492142],[-56.933275,-25.491249],[-56.930944,-25.488046],[-56.929826,-25.487296],[-56.929285,-25.48633],[-56.928623,-25.486018],[-56.930078,-25.484804],[-56.930409,-25.484018],[-56.930161,-25.482826],[-56.931836,-25.481856],[-56.931841,-25.481265],[-56.932576,-25.480412],[-56.932484,-25.478899],[-56.932104,-25.478727],[-56.92949,-25.479033],[-56.929242,-25.477877],[-56.928506,-25.477141],[-56.928604,-25.476626],[-56.930394,-25.476266],[-56.931781,-25.474176],[-56.932526,-25.474434],[-56.934939,-25.470899],[-56.93669,-25.470336],[-56.937263,-25.469966],[-56.937544,-25.469347],[-56.938406,-25.469645],[-56.939841,-25.469276],[-56.94097,-25.470112],[-56.942369,-25.470266],[-56.94468,-25.468939],[-56.944963,-25.467675],[-56.943944,-25.46581],[-56.943904,-25.465083],[-56.944851,-25.464261],[-56.946697,-25.464327],[-56.947069,-25.460707],[-56.926296,-25.4562],[-56.922329,-25.447694],[-56.914326,-25.443896],[-56.912748,-25.441308],[-56.911179,-25.440088],[-56.909558,-25.439428],[-56.908888,-25.43875],[-56.908895,-25.438339],[-56.908254,-25.438027],[-56.913346,-25.431822],[-56.900499,-25.417857],[-56.899519,-25.418254],[-56.899168,-25.419522],[-56.896735,-25.420062],[-56.896398,-25.419538],[-56.895661,-25.419741],[-56.894445,-25.419487],[-56.894092,-25.419857],[-56.893257,-25.419848],[-56.893087,-25.420218],[-56.892539,-25.420168],[-56.891892,-25.421423],[-56.891338,-25.421549],[-56.889668,-25.420915],[-56.889306,-25.421222],[-56.887906,-25.42081],[-56.886426,-25.419626],[-56.885952,-25.418664],[-56.883891,-25.418175],[-56.882662,-25.418205],[-56.882501,-25.419347],[-56.881099,-25.419179],[-56.880423,-25.41958],[-56.879883,-25.419494],[-56.879629,-25.419819],[-56.878189,-25.419588],[-56.876523,-25.418024],[-56.875166,-25.417671],[-56.873246,-25.417958],[-56.871576,-25.418593],[-56.868863,-25.418948],[-56.867909,-25.414309],[-56.865821,-25.411684],[-56.865254,-25.410388],[-56.8644,-25.409945],[-56.863571,-25.406178],[-56.863978,-25.4057],[-56.864062,-25.403776],[-56.864896,-25.403158],[-56.866329,-25.403069],[-56.867568,-25.400948],[-56.868271,-25.400936],[-56.868765,-25.399658],[-56.871291,-25.399692],[-56.872465,-25.398727],[-56.872775,-25.397539],[-56.872276,-25.395697],[-56.872405,-25.395119],[-56.873076,-25.394564],[-56.872645,-25.393588],[-56.87262,-25.392369],[-56.873958,-25.390321],[-56.874151,-25.389454],[-56.873833,-25.389201],[-56.874152,-25.388027],[-56.874675,-25.387838],[-56.874754,-25.387436],[-56.875358,-25.387509],[-56.876235,-25.386575],[-56.87857,-25.385218],[-56.879457,-25.383819],[-56.880407,-25.383002],[-56.88037,-25.3819],[-56.880796,-25.381138],[-56.882271,-25.37968],[-56.884591,-25.378779],[-56.885046,-25.378793],[-56.885734,-25.379353],[-56.887426,-25.378975],[-56.888112,-25.379098],[-56.88828,-25.378335],[-56.888924,-25.378444],[-56.889731,-25.378043],[-56.88943,-25.377216],[-56.890056,-25.376887],[-56.890207,-25.376246],[-56.891868,-25.375574],[-56.892061,-25.375231],[-56.892552,-25.375232],[-56.892769,-25.374663],[-56.893669,-25.374058],[-56.893714,-25.37367],[-56.894877,-25.373359],[-56.895146,-25.372601],[-56.896418,-25.372394],[-56.897257,-25.371799],[-56.897147,-25.37104],[-56.897536,-25.370562],[-56.898372,-25.370373],[-56.89868,-25.370554],[-56.899497,-25.370094],[-56.9,-25.370265],[-56.901324,-25.36939],[-56.903292,-25.370444],[-56.903185,-25.368281],[-56.902103,-25.366758],[-56.899109,-25.36813],[-56.896985,-25.368566],[-56.878804,-25.362062],[-56.878189,-25.361483],[-56.878003,-25.360796],[-56.877441,-25.361407],[-56.876003,-25.361144],[-56.876266,-25.362052],[-56.875638,-25.36314],[-56.874095,-25.363753],[-56.873066,-25.363386],[-56.87273,-25.364523],[-56.871487,-25.364816],[-56.870479,-25.365524],[-56.869755,-25.366535],[-56.865642,-25.366897],[-56.863866,-25.366651],[-56.862233,-25.367232],[-56.858059,-25.367698],[-56.85686,-25.368469],[-56.854712,-25.368449],[-56.853017,-25.368822],[-56.849273,-25.372363],[-56.844109,-25.375036],[-56.833997,-25.374896],[-56.832928,-25.386988],[-56.831343,-25.396321],[-56.831585,-25.403433],[-56.837878,-25.404689],[-56.83399,-25.418589],[-56.834658,-25.434125],[-56.834342,-25.434617],[-56.834936,-25.435719],[-56.833602,-25.437587],[-56.833428,-25.438133],[-56.833921,-25.43845],[-56.833505,-25.439068],[-56.830616,-25.439056],[-56.829752,-25.439443],[-56.828929,-25.439212],[-56.828633,-25.439866],[-56.826327,-25.440514],[-56.825074,-25.440697],[-56.824504,-25.440498],[-56.822978,-25.44116],[-56.821168,-25.441225],[-56.820273,-25.441084],[-56.818668,-25.440161],[-56.818301,-25.440657],[-56.817925,-25.44063],[-56.817835,-25.439736],[-56.818588,-25.439466],[-56.818691,-25.438369],[-56.817502,-25.4382],[-56.816436,-25.437138],[-56.815521,-25.437006],[-56.814687,-25.437366],[-56.813678,-25.4389],[-56.812213,-25.438961],[-56.811328,-25.439818],[-56.810845,-25.440853],[-56.810235,-25.440501],[-56.809134,-25.43896],[-56.808532,-25.439137],[-56.80705,-25.437921],[-56.807339,-25.437141],[-56.806963,-25.436872],[-56.80652,-25.437116],[-56.80651,-25.436392],[-56.806023,-25.436006],[-56.805299,-25.436397],[-56.805557,-25.437018],[-56.805028,-25.438653],[-56.805398,-25.439228],[-56.803473,-25.43973],[-56.803166,-25.439592],[-56.802661,-25.440079],[-56.801975,-25.440017],[-56.801498,-25.439243],[-56.801256,-25.440225],[-56.800148,-25.440488],[-56.80041,-25.440998],[-56.799173,-25.440973],[-56.798755,-25.441211],[-56.79894,-25.441445],[-56.800014,-25.441259],[-56.800851,-25.44187],[-56.800056,-25.443019],[-56.799498,-25.443011],[-56.798858,-25.444123],[-56.798315,-25.443979],[-56.797224,-25.444735],[-56.797195,-25.446075],[-56.796348,-25.446079],[-56.795513,-25.446508],[-56.795252,-25.446211],[-56.795247,-25.445116],[-56.794503,-25.445309],[-56.79402,-25.44414],[-56.79342,-25.444078],[-56.793526,-25.443536],[-56.792924,-25.443782],[-56.792859,-25.444209],[-56.792308,-25.444254],[-56.791757,-25.444957],[-56.790492,-25.44388],[-56.790086,-25.443983],[-56.789997,-25.444459],[-56.789388,-25.444344],[-56.789122,-25.445932],[-56.789601,-25.446036],[-56.789821,-25.446972],[-56.7906,-25.447318],[-56.790558,-25.447596],[-56.78992,-25.447636],[-56.790701,-25.448498],[-56.789737,-25.448577],[-56.789081,-25.450262],[-56.78842,-25.450134],[-56.787267,-25.450709],[-56.787716,-25.451494],[-56.787196,-25.451399],[-56.786841,-25.451684],[-56.786258,-25.451415],[-56.78678,-25.452642],[-56.786271,-25.452876],[-56.785911,-25.45374],[-56.78525,-25.453837],[-56.785399,-25.453233],[-56.784985,-25.453199],[-56.78453,-25.45397],[-56.784916,-25.45446],[-56.784694,-25.455275],[-56.785361,-25.455522],[-56.785477,-25.455902],[-56.784568,-25.456368],[-56.784522,-25.455915],[-56.783981,-25.456274],[-56.784151,-25.456981],[-56.781829,-25.456751],[-56.781853,-25.457136],[-56.781586,-25.457214],[-56.782253,-25.458578],[-56.78243,-25.460206],[-56.78458,-25.460861],[-56.786188,-25.464445],[-56.785648,-25.465583],[-56.786543,-25.466724],[-56.789231,-25.467379],[-56.791918,-25.469174],[-56.793709,-25.470804],[-56.796576,-25.472436],[-56.798903,-25.474719],[-56.800874,-25.476024],[-56.80439,-25.476509],[-56.805891,-25.478778],[-56.805882,-25.484333],[-56.809004,-25.488814],[-56.809896,-25.489461],[-56.809955,-25.489858],[-56.802379,-25.494915],[-56.802935,-25.496621],[-56.803265,-25.504007],[-56.808321,-25.539573],[-56.83432,-25.530601],[-56.83733,-25.525703],[-56.837508,-25.524851],[-56.83725,-25.523347],[-56.838506,-25.519942],[-56.839539,-25.519063],[-56.839782,-25.51683],[-56.840394,-25.515383],[-56.840469,-25.513523],[-56.840938,-25.512986],[-56.841882,-25.512738],[-56.843249,-25.510801],[-56.844423,-25.510029],[-56.844648,-25.509225],[-56.844473,-25.508148],[-56.843582,-25.507518],[-56.843255,-25.506657],[-56.843291,-25.504324],[-56.844579,-25.504863],[-56.845033,-25.505563],[-56.846711,-25.506834],[-56.849732,-25.50783],[-56.850491,-25.507655],[-56.851207,-25.506612],[-56.851227,-25.507642]]]}}]}
