{"type":"FeatureCollection","name":"distrito","features":[{"type":"Feature","properties":{"clave":"11-25","nombre":"San Antonio"},"geometry":{"type":"Polygon","coordinates":[[[-57.562751,-25.43887],[-57.574906,-25.425688],[-57.584463,-25.416936],[-57.5945,-25.404782],[-57.59779,-25.401766],[-57.592782,-25.397253],[-57.572365,-25.39264],[-57.572584,-25.387105],[-57.57235,-25.387068],[-57.571979,-25.384893],[-57.571716,-25.384699],[-57.567652,-25.388648],[-57.564041,-25.394042],[-57.562569,-25.395269],[-57.562005,-25.394837],[-57.560742,-25.394757],[-57.559525,-25.394187],[-57.557463,-25.396742],[-57.551233,-25.407344],[-57.550718,-25.407172],[-57.547762,-25.410373],[-57.546897,-25.40958],[-57.546489,-25.409888],[-57.545868,-25.41211],[-57.544253,-25.412887],[-57.541252,-25.410414],[-57.538991,-25.418901],[-57.537262,-25.429491],[-57.535795,-25.441965],[-57.534512,-25.443699],[-57.534917,-25.443763],[-57.535922,-25.445116],[-57.535679,-25.446428],[-57.536573,-25.446752],[-57.538376,-25.448377],[-57.539185,-25.448518],[-57.539828,-25.449233],[-57.541764,-25.449683],[-57.541765,-25.450393],[-57.542274,-25.450784],[-57.542338,-25.451875],[-57.542726,-25.452314],[-57.54296,-25.453461],[-57.543874,-25.453927],[-57.543709,-25.454317],[-57.544275,-25.454482],[-57.543977,-25.454835],[-57.544659,-25.455578],[-57.545462,-25.455698],[-57.546137,-25.455393],[-57.546347,-25.454371],[-57.548001,-25.4534],[-57.548104,-25.45221],[-57.548508,-25.451537],[-57.54949,-25.4518],[-57.549248,-25.449854],[-57.548704,-25.448558],[-57.548896,-25.448057],[-57.550253,-25.445663],[-57.554095,-25.44065],[-57.559407,-25.44375],[-57.562751,-25.43887]]]}}]}
