{"type":"FeatureCollection","name":"distrito","features":[{"type":"Feature","properties":{"clave":"11-35","nombre":"Ypané"},"geometry":{"type":"Polygon","coordinates":[[[-57.51366,-25.488552],[-57.51528,-25.487529],[-57.515891,-25.486757],[-57.51839,-25.4857],[-57.518686,-25.485286],[-57.520362,-25.485535],[-57.521661,-25.484248],[-57.522839,-25.484357],[-57.523675,-25.483726],[-57.524454,-25.48375],[-57.527731,-25.482844],[-57.528738,-25.483017],[-57.529056,-25.483754],[-57.530952,-25.483854],[-57.531949,-25.483514],[-57.53234,-25.482753],[-57.532544,-25.482947],[-57.533133,-25.482718],[-57.534376,-25.483427],[-57.535513,-25.483524],[-57.535593,-25.484228],[-57.535988,-25.484466],[-57.536732,-25.484114],[-57.537495,-25.484611],[-57.538339,-25.484709],[-57.538596,-25.484495],[-57.538973,-25.48478],[-57.539298,-25.48446],[-57.53956,-25.484799],[-57.539883,-25.484233],[-57.540361,-25.484062],[-57.541338,-25.484618],[-57.543219,-25.484892],[-57.545062,-25.483639],[-57.545907,-25.483455],[-57.546111,-25.482456],[-57.547621,-25.481005],[-57.548407,-25.480925],[-57.548894,-25.481222],[-57.549988,-25.481005],[-57.550368,-25.48129],[-57.551395,-25.480674],[-57.553339,-25.481474],[-57.554366,-25.481073],[-57.554526,-25.48071],[-57.555555,-25.480812],[-57.555584,-25.480411],[-57.555056,-25.479808],[-57.555989,-25.478792],[-57.557037,-25.479992],[-57.556862,-25.480748],[-57.559986,-25.480721],[-57.560295,-25.481829],[-57.563942,-25.482209],[-57.567442,-25.482093],[-57.565932,-25.479381],[-57.56355,-25.476677],[-57.560908,-25.471707],[-57.559354,-25.45926],[-57.559464,-25.455972],[-57.55895,-25.452692],[-57.557682,-25.448168],[-57.559407,-25.44375],[-57.554095,-25.44065],[-57.550253,-25.445663],[-57.548896,-25.448057],[-57.548704,-25.448558],[-57.549248,-25.449854],[-57.54949,-25.4518],[-57.548508,-25.451537],[-57.548104,-25.45221],[-57.547971,-25.453437],[-57.547246,-25.453633],[-57.546347,-25.454371],[-57.546137,-25.455393],[-57.545332,-25.455733],[-57.54474,-25.455632],[-57.544002,-25.454898],[-57.544275,-25.454482],[-57.543709,-25.454317],[-57.543874,-25.453927],[-57.54296,-25.453461],[-57.541711,-25.449629],[-57.539828,-25.449233],[-57.539185,-25.448518],[-57.538376,-25.448377],[-57.536573,-25.446752],[-57.535679,-25.446428],[-57.535922,-25.445116],[-57.534917,-25.443763],[-57.532796,-25.443603],[-57.532516,-25.443079],[-57.531554,-25.443149],[-57.530878,-25.441658],[-57.528884,-25.440295],[-57.528131,-25.43871],[-57.526877,-25.437987],[-57.527034,-25.437002],[-57.526786,-25.436289],[-57.525857,-25.436002],[-57.525449,-25.435239],[-57.522807,-25.434061],[-57.521223,-25.432686],[-57.520485,-25.431456],[-57.520001,-25.430997],[-57.519581,-25.43099],[-57.519522,-25.430527],[-57.51841,-25.430093],[-57.517208,-25.428425],[-57.516106,-25.427797],[-57.515997,-25.42732],[-57.515008,-25.426378],[-57.513807,-25.425779],[-57.512245,-25.424353],[-57.511006,-25.42413],[-57.510588,-25.423292],[-57.510015,-25.423208],[-57.508858,-25.424429],[-57.508066,-25.424658],[-57.50786,-25.42422],[-57.505635,-25.424207],[-57.50536,-25.423792],[-57.504683,-25.424014],[-57.502788,-25.423392],[-57.50145,-25.423591],[-57.500219,-25.422724],[-57.498934,-25.423942],[-57.497906,-25.423691],[-57.497095,-25.425853],[-57.479273,-25.433981],[-57.479146,-25.434909],[-57.4652,-25.439135],[-57.466757,-25.441064],[-57.468207,-25.442161],[-57.470048,-25.445303],[-57.471787,-25.446417],[-57.469696,-25.44862],[-57.459355,-25.452196],[-57.461802,-25.454722],[-57.463099,-25.45706],[-57.463184,-25.458992],[-57.463863,-25.462025],[-57.464888,-25.464379],[-57.467038,-25.46704],[-57.468258,-25.467496],[-57.468521,-25.468319],[-57.469469,-25.469209],[-57.470371,-25.470771],[-57.470339,-25.472498],[-57.471167,-25.473861],[-57.472536,-25.475292],[-57.473619,-25.477603],[-57.475895,-25.479389],[-57.471026,-25.482567],[-57.47606,-25.492223],[-57.478529,-25.497679],[-57.479725,-25.496571],[-57.480468,-25.496668],[-57.482177,-25.496066],[-57.483196,-25.494493],[-57.483809,-25.49451],[-57.48439,-25.493763],[-57.484289,-25.493269],[-57.485023,-25.492827],[-57.48515,-25.49216],[-57.485878,-25.491797],[-57.48629,-25.491153],[-57.48792,-25.490351],[-57.48868,-25.489636],[-57.491835,-25.489164],[-57.492895,-25.488152],[-57.493684,-25.488635],[-57.494789,-25.488497],[-57.495861,-25.489211],[-57.496754,-25.488721],[-57.497115,-25.489003],[-57.498217,-25.48903],[-57.499006,-25.488711],[-57.499646,-25.489],[-57.500077,-25.488778],[-57.499964,-25.488202],[-57.501684,-25.488854],[-57.502203,-25.488835],[-57.502631,-25.488383],[-57.504319,-25.490103],[-57.505259,-25.489413],[-57.507341,-25.489054],[-57.508284,-25.48948],[-57.511861,-25.488609],[-57.512714,-25.488833],[-57.51366,-25.488552]]]}}]}
