{"type":"FeatureCollection","name":"distrito","features":[{"type":"Feature","properties":{"clave":"11-9","nombre":"Itauguá"},"geometry":{"type":"Polygon","coordinates":[[[-57.33647,-25.454315],[-57.360326,-25.451008],[-57.392496,-25.445407],[-57.401536,-25.4446],[-57.401464,-25.444192],[-57.401844,-25.443928],[-57.402045,-25.443124],[-57.401791,-25.440652],[-57.402178,-25.439037],[-57.401865,-25.437048],[-57.401983,-25.436538],[-57.402309,-25.436636],[-57.402399,-25.436065],[-57.402725,-25.436043],[-57.402626,-25.435413],[-57.402862,-25.435268],[-57.40235,-25.433815],[-57.401779,-25.433599],[-57.40175,-25.433067],[-57.400591,-25.431963],[-57.400323,-25.430817],[-57.399763,-25.430587],[-57.39876,-25.428736],[-57.398706,-25.428136],[-57.399972,-25.426262],[-57.400118,-25.425363],[-57.399098,-25.423319],[-57.399353,-25.422557],[-57.398846,-25.421912],[-57.399377,-25.420542],[-57.398702,-25.419478],[-57.399246,-25.418205],[-57.398631,-25.417282],[-57.398432,-25.415546],[-57.398736,-25.414561],[-57.398328,-25.413898],[-57.399561,-25.412483],[-57.400223,-25.411133],[-57.399463,-25.410394],[-57.399823,-25.409421],[-57.399732,-25.407153],[-57.399272,-25.406492],[-57.399522,-25.406057],[-57.398812,-25.405713],[-57.399298,-25.4052],[-57.399258,-25.40458],[-57.39962,-25.404184],[-57.399352,-25.403747],[-57.399719,-25.403154],[-57.401091,-25.401575],[-57.402299,-25.400899],[-57.402807,-25.399454],[-57.403298,-25.399087],[-57.403233,-25.39855],[-57.402838,-25.398286],[-57.404574,-25.397329],[-57.404857,-25.39562],[-57.40467,-25.39533],[-57.404912,-25.395116],[-57.404756,-25.394215],[-57.403388,-25.393218],[-57.40316,-25.392074],[-57.403737,-25.391271],[-57.404517,-25.391075],[-57.405038,-25.390445],[-57.405752,-25.388802],[-57.405877,-25.387341],[-57.405579,-25.385897],[-57.405183,-25.385834],[-57.404916,-25.385236],[-57.40424,-25.385459],[-57.403897,-25.385051],[-57.40409,-25.384087],[-57.403552,-25.383491],[-57.403473,-25.382696],[-57.402831,-25.382327],[-57.402491,-25.381082],[-57.402578,-25.379835],[-57.401842,-25.378062],[-57.4023,-25.375324],[-57.404251,-25.375022],[-57.40406,-25.373836],[-57.403299,-25.373308],[-57.403019,-25.372422],[-57.401355,-25.371511],[-57.40138,-25.370925],[-57.400974,-25.371102],[-57.400203,-25.370893],[-57.399509,-25.368968],[-57.40029,-25.367454],[-57.399956,-25.366272],[-57.401632,-25.364586],[-57.402422,-25.363321],[-57.402485,-25.362999],[-57.40216,-25.362781],[-57.402755,-25.362351],[-57.402823,-25.361718],[-57.403395,-25.36139],[-57.402561,-25.360332],[-57.402336,-25.359464],[-57.40261,-25.35933],[-57.40241,-25.358806],[-57.402743,-25.358003],[-57.402141,-25.35769],[-57.398717,-25.35881],[-57.390103,-25.34755],[-57.385565,-25.349458],[-57.373082,-25.353265],[-57.371748,-25.345538],[-57.368049,-25.338273],[-57.36184,-25.332166],[-57.358682,-25.329812],[-57.357015,-25.329066],[-57.355118,-25.327667],[-57.353581,-25.325675],[-57.33426,-25.311098],[-57.329317,-25.317731],[-57.320689,-25.324735],[-57.311104,-25.333296],[-57.307335,-25.338426],[-57.318145,-25.350754],[-57.323013,-25.357388],[-57.322665,-25.358378],[-57.325164,-25.362729],[-57.325007,-25.364301],[-57.325385,-25.365257],[-57.324782,-25.367029],[-57.324987,-25.367909],[-57.329073,-25.368861],[-57.329866,-25.369293],[-57.330198,-25.369861],[-57.331072,-25.369972],[-57.331395,-25.371985],[-57.32541,-25.377837],[-57.321479,-25.380442],[-57.319147,-25.384994],[-57.311299,-25.388758],[-57.314949,-25.403963],[-57.315855,-25.405341],[-57.314198,-25.406508],[-57.307588,-25.414278],[-57.309109,-25.414544],[-57.310217,-25.415113],[-57.300071,-25.417704],[-57.301311,-25.419736],[-57.302271,-25.425947],[-57.301197,-25.439206],[-57.299755,-25.448728],[-57.312872,-25.447525],[-57.315291,-25.448704],[-57.317353,-25.448072],[-57.318755,-25.447222],[-57.31872,-25.449175],[-57.319441,-25.454952],[-57.312168,-25.461061],[-57.320349,-25.459373],[-57.329351,-25.455803],[-57.33647,-25.454315]]]}}]}
