{"type":"FeatureCollection","name":"distrito","features":[{"type":"Feature","properties":{"clave":"17-4","nombre":"Boquerón"},"geometry":{"type":"Polygon","coordinates":[[[-60.594491,-23.601593],[-60.601665,-23.611015],[-60.675205,-23.59219],[-60.674927,-23.632165],[-60.672956,-23.677406],[-60.671569,-23.697829],[-60.673014,-23.700776],[-60.675586,-23.707457],[-60.679717,-23.715044],[-60.68294,-23.720613],[-60.688344,-23.728012],[-60.692926,-23.733395],[-60.715424,-23.745713],[-60.740664,-23.761415],[-60.768308,-23.777527],[-60.785391,-23.789129],[-60.7834,-23.79089],[-60.780909,-23.794414],[-60.780693,-23.79656],[-60.779563,-23.813023],[-60.779544,-23.820489],[-60.780882,-23.826528],[-60.780824,-23.8283],[-60.781641,-23.828858],[-60.781716,-23.829796],[-60.781131,-23.830757],[-60.779085,-23.832268],[-60.773541,-23.8351],[-60.773346,-23.837612],[-60.771796,-23.840513],[-60.771542,-23.842608],[-60.771985,-23.845394],[-60.773343,-23.849437],[-60.77332,-23.850247],[-60.771433,-23.851291],[-60.769421,-23.853458],[-60.76545,-23.855847],[-60.763994,-23.857646],[-60.761168,-23.862673],[-60.760808,-23.865422],[-60.759702,-23.869576],[-60.760487,-23.871739],[-60.759891,-23.873604],[-60.762247,-23.873857],[-60.764156,-23.874473],[-60.765992,-23.876396],[-60.767178,-23.876792],[-60.768036,-23.876307],[-60.769035,-23.873435],[-60.770274,-23.871914],[-60.772197,-23.871216],[-60.774497,-23.871213],[-60.776358,-23.872062],[-60.777054,-23.87331],[-60.775915,-23.874737],[-60.774062,-23.876225],[-60.773685,-23.877448],[-60.773938,-23.879358],[-60.775114,-23.879427],[-60.780525,-23.875152],[-60.785689,-23.871626],[-60.787549,-23.868548],[-60.789075,-23.868189],[-60.790573,-23.868811],[-60.79122,-23.870153],[-60.791669,-23.873741],[-60.794166,-23.877333],[-60.795145,-23.879648],[-60.800752,-23.885086],[-60.802659,-23.885747],[-60.80449,-23.885431],[-60.805037,-23.884811],[-60.804496,-23.883655],[-60.802038,-23.881462],[-60.801027,-23.879896],[-60.800811,-23.875508],[-60.800221,-23.872345],[-60.797499,-23.86787],[-60.796085,-23.866454],[-60.793074,-23.864603],[-60.792171,-23.863221],[-60.793072,-23.862592],[-60.794961,-23.862596],[-60.797946,-23.863375],[-60.799866,-23.864548],[-60.805738,-23.870359],[-60.808391,-23.872215],[-60.811228,-23.873276],[-60.819209,-23.873664],[-60.823121,-23.874201],[-60.830471,-23.87395],[-60.833221,-23.873658],[-60.835289,-23.872632],[-60.837494,-23.870901],[-60.839731,-23.869786],[-60.841112,-23.869849],[-60.843537,-23.870731],[-60.848386,-23.870578],[-60.850732,-23.868472],[-60.854601,-23.867967],[-60.857291,-23.865339],[-60.85792,-23.864018],[-60.857668,-23.862202],[-60.857262,-23.860342],[-60.855849,-23.859018],[-60.856027,-23.858034],[-60.858438,-23.8576],[-60.860664,-23.856804],[-60.862724,-23.85545],[-60.866198,-23.851592],[-60.867669,-23.851233],[-60.86932,-23.851897],[-60.870849,-23.851818],[-60.872246,-23.850573],[-60.873618,-23.848347],[-60.875505,-23.846441],[-60.87746,-23.845043],[-60.879339,-23.844532],[-60.883634,-23.841079],[-60.885678,-23.841032],[-60.89068,-23.842287],[-60.894455,-23.842205],[-60.896561,-23.84071],[-60.898733,-23.837907],[-60.899643,-23.835597],[-60.901774,-23.833121],[-60.906232,-23.83176],[-60.909184,-23.8295],[-60.910006,-23.827754],[-60.910482,-23.82383],[-60.911226,-23.821247],[-60.913064,-23.819243],[-60.915857,-23.818621],[-60.918662,-23.818559],[-60.923589,-23.815693],[-60.929652,-23.815231],[-60.930901,-23.814222],[-60.931802,-23.811587],[-60.932827,-23.809883],[-60.934639,-23.808861],[-60.937593,-23.808703],[-60.93878,-23.811198],[-60.93966,-23.811645],[-60.943117,-23.811189],[-60.94404,-23.81169],[-60.941747,-23.814175],[-60.941693,-23.817003],[-60.942236,-23.81805],[-60.944056,-23.818834],[-60.948841,-23.819591],[-60.950903,-23.819623],[-60.953076,-23.819024],[-60.959407,-23.819746],[-60.961542,-23.819344],[-60.965063,-23.817242],[-60.968768,-23.817471],[-60.969617,-23.816941],[-60.970187,-23.815868],[-60.970643,-23.813738],[-60.971301,-23.812663],[-60.972748,-23.812199],[-60.979175,-23.811857],[-60.986826,-23.810781],[-60.988617,-23.810388],[-60.990327,-23.808702],[-60.991956,-23.808625],[-60.993094,-23.807381],[-60.994165,-23.804138],[-60.999007,-23.796019],[-60.999945,-23.792744],[-61.005849,-23.784659],[-61.007755,-23.782302],[-61.009559,-23.780927],[-61.010672,-23.77941],[-61.012624,-23.77862],[-61.016348,-23.778339],[-61.017592,-23.775253],[-61.018708,-23.773356],[-61.019927,-23.772502],[-61.020458,-23.771549],[-61.020477,-23.770686],[-61.019894,-23.769719],[-61.014744,-23.764784],[-61.013676,-23.763397],[-61.013333,-23.761834],[-61.013902,-23.760643],[-61.017179,-23.758175],[-61.026128,-23.75346],[-61.028178,-23.751648],[-61.032678,-23.745426],[-61.034741,-23.744044],[-61.037547,-23.743273],[-61.039359,-23.742133],[-61.040386,-23.74058],[-61.04038,-23.738776],[-61.039393,-23.735582],[-61.039304,-23.733979],[-61.039806,-23.730185],[-61.04198,-23.726763],[-61.045945,-23.722985],[-61.049335,-23.71825],[-61.053065,-23.716871],[-61.05496,-23.715729],[-61.055939,-23.713981],[-61.056491,-23.712244],[-61.05734,-23.707323],[-61.058269,-23.705343],[-61.05922,-23.704146],[-61.060816,-23.704579],[-61.064619,-23.70739],[-61.065642,-23.70721],[-61.066518,-23.706406],[-61.068626,-23.70252],[-61.069072,-23.7],[-61.072728,-23.697524],[-61.078921,-23.692482],[-61.081109,-23.691138],[-61.08252,-23.689578],[-61.082812,-23.687727],[-61.081897,-23.684273],[-61.086996,-23.679962],[-61.087806,-23.678338],[-61.087277,-23.676234],[-61.086167,-23.674811],[-61.081611,-23.672566],[-61.081195,-23.671439],[-61.085083,-23.669545],[-61.087536,-23.667098],[-61.088713,-23.666326],[-61.090423,-23.666286],[-61.093472,-23.666725],[-61.094748,-23.666419],[-61.096339,-23.66364],[-61.097324,-23.66064],[-61.100602,-23.657282],[-61.100618,-23.656302],[-61.099811,-23.655027],[-61.096804,-23.652983],[-61.09384,-23.649448],[-61.092261,-23.648035],[-61.091101,-23.646299],[-61.090709,-23.641451],[-61.090844,-23.638589],[-61.093846,-23.635857],[-61.094681,-23.631938],[-61.095368,-23.630512],[-61.096464,-23.629938],[-61.09864,-23.629848],[-61.100888,-23.629208],[-61.101794,-23.627933],[-61.101636,-23.626879],[-61.099539,-23.626812],[-61.098195,-23.626138],[-61.097801,-23.624268],[-61.098829,-23.620664],[-61.092032,-23.620432],[-61.090475,-23.619802],[-61.08877,-23.618471],[-61.087845,-23.617513],[-61.087283,-23.615764],[-61.087701,-23.613874],[-61.088905,-23.612592],[-61.090248,-23.611702],[-61.091776,-23.611313],[-61.097245,-23.611792],[-61.098897,-23.611243],[-61.099523,-23.609035],[-61.099632,-23.606919],[-61.100394,-23.60518],[-61.106229,-23.601441],[-61.108429,-23.599196],[-61.11067,-23.597784],[-61.112494,-23.597229],[-61.116966,-23.596732],[-61.119039,-23.59602],[-61.122747,-23.595697],[-61.123094,-23.594358],[-61.122229,-23.590933],[-61.121359,-23.588879],[-61.121003,-23.58685],[-61.121613,-23.58574],[-61.123032,-23.585456],[-61.124957,-23.585568],[-61.129643,-23.58812],[-61.131094,-23.589493],[-61.133137,-23.590696],[-61.13432,-23.590238],[-61.134437,-23.588357],[-61.133988,-23.586058],[-61.13287,-23.584205],[-61.132309,-23.582496],[-61.132172,-23.58066],[-61.132912,-23.579626],[-61.13556,-23.578192],[-61.136462,-23.576803],[-61.13784,-23.577239],[-61.138972,-23.578032],[-61.14007,-23.58059],[-61.14117,-23.581738],[-61.143156,-23.582474],[-61.146065,-23.582601],[-61.148738,-23.582107],[-61.150794,-23.580727],[-61.152119,-23.579247],[-61.152631,-23.577787],[-61.152662,-23.576276],[-61.151942,-23.57484],[-61.150539,-23.573302],[-61.150841,-23.571885],[-61.152678,-23.570553],[-61.15466,-23.569724],[-61.162371,-23.56758],[-61.164302,-23.566439],[-61.164526,-23.5653],[-61.160275,-23.561449],[-61.160025,-23.560125],[-61.161187,-23.558962],[-61.166143,-23.557592],[-61.168459,-23.556521],[-61.170468,-23.55337],[-61.17179,-23.553299],[-61.173642,-23.55384],[-61.176346,-23.552915],[-61.178943,-23.551171],[-61.180968,-23.550379],[-61.185126,-23.549628],[-61.186361,-23.547994],[-61.18665,-23.546226],[-61.186173,-23.544438],[-61.183398,-23.541491],[-61.182844,-23.539979],[-61.183326,-23.538987],[-61.185373,-23.5389],[-61.187698,-23.539626],[-61.189559,-23.540445],[-61.19097,-23.541978],[-61.191716,-23.544228],[-61.19135,-23.546272],[-61.190194,-23.547668],[-61.190204,-23.54802],[-61.190511,-23.549851],[-61.191652,-23.550958],[-61.194041,-23.5509],[-61.195985,-23.548703],[-61.197447,-23.546164],[-61.199203,-23.546396],[-61.203104,-23.549938],[-61.205106,-23.551299],[-61.208164,-23.552946],[-61.211089,-23.553697],[-61.21357,-23.55391],[-61.214752,-23.553451],[-61.214879,-23.551884],[-61.215964,-23.549706],[-61.217507,-23.548456],[-61.218962,-23.548578],[-61.220026,-23.549921],[-61.219829,-23.553446],[-61.221075,-23.553767],[-61.223458,-23.553554],[-61.225349,-23.55253],[-61.229462,-23.548754],[-61.231695,-23.546394],[-61.233119,-23.543973],[-61.234478,-23.542338],[-61.236022,-23.542693],[-61.237222,-23.54343],[-61.239807,-23.545791],[-61.242025,-23.545815],[-61.243743,-23.544756],[-61.245476,-23.542682],[-61.246594,-23.536847],[-61.248455,-23.534886],[-61.252882,-23.533253],[-61.25424,-23.531462],[-61.254251,-23.527435],[-61.25481,-23.524526],[-61.256695,-23.522135],[-61.257961,-23.521635],[-61.258414,-23.522444],[-61.258665,-23.526622],[-61.258904,-23.527516],[-61.259706,-23.528549],[-61.260996,-23.528867],[-61.262642,-23.52836],[-61.263805,-23.527356],[-61.263,-23.52456],[-61.261548,-23.521545],[-61.26132,-23.519596],[-61.261707,-23.518219],[-61.262462,-23.51777],[-61.26397,-23.518359],[-61.265979,-23.519951],[-61.266696,-23.521106],[-61.266421,-23.524906],[-61.266639,-23.526543],[-61.267521,-23.527537],[-61.267862,-23.527528],[-61.269081,-23.526912],[-61.270369,-23.5243],[-61.273917,-23.520264],[-61.278299,-23.51703],[-61.279526,-23.51524],[-61.279344,-23.513448],[-61.274979,-23.508431],[-61.273859,-23.506525],[-61.273646,-23.505044],[-61.274654,-23.503103],[-61.276433,-23.50134],[-61.277614,-23.499395],[-61.278452,-23.497419],[-61.279167,-23.49326],[-61.280473,-23.490127],[-61.283072,-23.48739],[-61.286523,-23.4857],[-61.288849,-23.485429],[-61.289727,-23.487546],[-61.290391,-23.49031],[-61.29212,-23.493582],[-61.294369,-23.494702],[-61.296516,-23.492295],[-61.301461,-23.489927],[-61.3057,-23.48747],[-61.309486,-23.48374],[-61.309933,-23.480408],[-61.313351,-23.475622],[-61.315073,-23.472648],[-61.317195,-23.470991],[-61.320475,-23.469749],[-61.330431,-23.468063],[-61.332838,-23.467836],[-61.335197,-23.468165],[-61.337275,-23.469053],[-61.337818,-23.469039],[-61.339576,-23.467392],[-61.341415,-23.466294],[-61.345384,-23.46831],[-61.347279,-23.467156],[-61.349024,-23.464896],[-61.349815,-23.461117],[-61.350963,-23.450968],[-61.351622,-23.448851],[-61.353139,-23.447209],[-61.35464,-23.447005],[-61.35678,-23.448002],[-61.361614,-23.45247],[-61.36487,-23.454544],[-61.371851,-23.453457],[-61.373791,-23.453795],[-61.377124,-23.456534],[-61.378415,-23.455341],[-61.382401,-23.447495],[-61.384198,-23.447118],[-61.386917,-23.447326],[-61.387465,-23.447478],[-61.387987,-23.448792],[-61.387949,-23.455541],[-61.389329,-23.457331],[-61.391442,-23.457443],[-61.397262,-23.450392],[-61.401914,-23.446734],[-61.403812,-23.44569],[-61.405395,-23.446258],[-61.407675,-23.447915],[-61.409257,-23.448427],[-61.411539,-23.448202],[-61.413774,-23.446377],[-61.416157,-23.445487],[-61.417703,-23.446829],[-61.419638,-23.447056],[-61.420871,-23.445975],[-61.424365,-23.440811],[-61.426316,-23.438961],[-61.435569,-23.434204],[-61.437565,-23.432353],[-61.440924,-23.426852],[-61.443694,-23.423475],[-61.444247,-23.422163],[-61.445582,-23.421124],[-61.447959,-23.421358],[-61.450881,-23.422788],[-61.45326,-23.424608],[-61.45562,-23.425597],[-61.456747,-23.42515],[-61.456679,-23.422932],[-61.456041,-23.419976],[-61.456919,-23.418865],[-61.461248,-23.419504],[-61.464781,-23.421674],[-61.467896,-23.424897],[-61.469981,-23.426093],[-61.472613,-23.426991],[-61.474744,-23.426602],[-61.476322,-23.424555],[-61.47699,-23.422524],[-61.478159,-23.420528],[-61.481262,-23.419069],[-61.48379,-23.418406],[-61.485024,-23.418499],[-61.486254,-23.41989],[-61.487365,-23.421912],[-61.489143,-23.423243],[-61.490962,-23.423068],[-61.493466,-23.421497],[-61.494355,-23.4193],[-61.495764,-23.417674],[-61.49684,-23.415638],[-61.497458,-23.413531],[-61.499568,-23.409503],[-61.499286,-23.404114],[-61.501131,-23.400386],[-61.506031,-23.396745],[-61.507067,-23.394878],[-61.507944,-23.391324],[-61.509175,-23.389868],[-61.513435,-23.386204],[-61.517982,-23.38303],[-61.519885,-23.381225],[-61.521869,-23.377577],[-61.525091,-23.370273],[-61.524859,-23.36731],[-61.522391,-23.364113],[-61.51888,-23.361027],[-61.513303,-23.358127],[-61.51017,-23.349557],[-61.509982,-23.34789],[-61.511234,-23.347188],[-61.513223,-23.346758],[-61.516258,-23.347681],[-61.518397,-23.347669],[-61.51956,-23.34859],[-61.520801,-23.348934],[-61.526588,-23.348866],[-61.527972,-23.34787],[-61.528795,-23.345131],[-61.53,-23.344348],[-61.531776,-23.344425],[-61.533167,-23.345185],[-61.534679,-23.34552],[-61.536572,-23.344927],[-61.538227,-23.344006],[-61.539417,-23.344183],[-61.542526,-23.346108],[-61.544321,-23.348192],[-61.547883,-23.347137],[-61.551198,-23.345462],[-61.555968,-23.342091],[-61.557689,-23.340374],[-61.55942,-23.337528],[-61.562913,-23.333008],[-61.5634,-23.331031],[-61.563555,-23.325891],[-61.56422,-23.323996],[-61.566795,-23.321539],[-61.569027,-23.320185],[-61.572529,-23.317168],[-61.572902,-23.316156],[-61.572281,-23.315296],[-61.571138,-23.315202],[-61.569422,-23.315623],[-61.567969,-23.315493],[-61.565073,-23.314526],[-61.563572,-23.313147],[-61.563753,-23.311681],[-61.564364,-23.310829],[-61.567242,-23.309158],[-61.572988,-23.306664],[-61.576761,-23.303767],[-61.580862,-23.299776],[-61.582161,-23.299157],[-61.583621,-23.299326],[-61.58464,-23.299925],[-61.584545,-23.302683],[-61.583328,-23.304468],[-61.58351,-23.305923],[-61.584612,-23.30627],[-61.586291,-23.306185],[-61.590148,-23.304455],[-61.591953,-23.302529],[-61.593041,-23.299618],[-61.591527,-23.294899],[-61.591319,-23.292736],[-61.591789,-23.291806],[-61.593112,-23.291979],[-61.595516,-23.293081],[-61.600486,-23.293512],[-61.601681,-23.29252],[-61.602785,-23.288692],[-61.603923,-23.287325],[-61.605036,-23.286628],[-61.607822,-23.287054],[-61.609682,-23.286921],[-61.611751,-23.286239],[-61.619341,-23.28328],[-61.622029,-23.280821],[-61.624836,-23.279032],[-61.628704,-23.277717],[-61.630652,-23.277498],[-61.63316,-23.277723],[-61.638503,-23.279],[-61.642417,-23.279363],[-61.646264,-23.280117],[-61.654075,-23.282636],[-61.666994,-23.285561],[-61.671055,-23.285139],[-61.67436,-23.28232],[-61.677881,-23.278326],[-61.679719,-23.277418],[-61.682587,-23.276872],[-61.683212,-23.275218],[-61.681626,-23.27339],[-61.681567,-23.271957],[-61.68728,-23.26879],[-61.688858,-23.266789],[-61.689774,-23.262017],[-61.691423,-23.259789],[-61.693981,-23.257991],[-61.696086,-23.256949],[-61.698929,-23.256195],[-61.70119,-23.255078],[-61.701247,-23.253636],[-61.700113,-23.251405],[-61.700154,-23.250123],[-61.702008,-23.2494],[-61.704874,-23.249245],[-61.70673,-23.248289],[-61.708057,-23.246142],[-61.708717,-23.243867],[-61.710476,-23.242386],[-61.713526,-23.240496],[-61.715793,-23.239605],[-61.717599,-23.239706],[-61.720082,-23.240465],[-61.722518,-23.242279],[-61.725164,-23.243035],[-61.729007,-23.242781],[-61.732335,-23.24186],[-61.734829,-23.240436],[-61.737526,-23.23555],[-61.739549,-23.229769],[-61.739781,-23.226828],[-61.739338,-23.223302],[-61.739473,-23.21991],[-61.740788,-23.217542],[-61.741525,-23.215036],[-61.739551,-23.209746],[-61.739493,-23.202973],[-61.740216,-23.200016],[-61.742409,-23.194461],[-61.744412,-23.187198],[-61.749048,-23.178712],[-61.753211,-23.173329],[-61.755045,-23.174332],[-61.760033,-23.171634],[-61.764991,-23.170593],[-61.767443,-23.17045],[-61.769374,-23.169418],[-61.769048,-23.166943],[-61.767965,-23.163888],[-61.76605,-23.160403],[-61.766331,-23.158889],[-61.768681,-23.158374],[-61.770331,-23.158628],[-61.772652,-23.159542],[-61.77691,-23.164542],[-61.778909,-23.16554],[-61.780101,-23.164378],[-61.782722,-23.157004],[-61.783452,-23.151941],[-61.785762,-23.149486],[-61.787349,-23.149584],[-61.789736,-23.147627],[-61.791905,-23.146332],[-61.797773,-23.146969],[-61.799161,-23.145839],[-61.801449,-23.143155],[-61.803842,-23.143742],[-61.805758,-23.14689],[-61.807565,-23.148948],[-61.810473,-23.15034],[-61.812997,-23.150196],[-61.8152,-23.147517],[-61.815143,-23.145774],[-61.812988,-23.142782],[-61.812674,-23.140465],[-61.813199,-23.134854],[-61.814945,-23.132697],[-61.815736,-23.130274],[-61.815716,-23.127294],[-61.8166,-23.12538],[-61.820654,-23.123667],[-61.824386,-23.119493],[-61.829099,-23.115279],[-61.834225,-23.112441],[-61.838389,-23.109344],[-61.849997,-23.094841],[-61.852891,-23.091634],[-61.856271,-23.088777],[-61.862663,-23.086272],[-61.870451,-23.085472],[-61.873584,-23.084729],[-61.885846,-23.075743],[-61.891929,-23.073536],[-61.895699,-23.072919],[-61.904386,-23.070431],[-61.908955,-23.070081],[-61.914053,-23.069136],[-61.916858,-23.068038],[-61.920426,-23.068517],[-61.924219,-23.068625],[-61.924463,-23.068835],[-61.926407,-23.067982],[-61.926715,-23.067755],[-61.927353,-23.06563],[-61.927417,-23.062869],[-61.929489,-23.058815],[-61.931981,-23.055548],[-61.934066,-23.051857],[-61.937659,-23.048487],[-61.939856,-23.045735],[-61.952726,-23.034455],[-61.9635,-23.026518],[-61.967049,-23.024237],[-61.968839,-23.023532],[-61.976688,-23.022432],[-61.979401,-23.021047],[-61.981993,-23.018431],[-61.984961,-23.017545],[-61.986647,-23.016117],[-61.987806,-23.013106],[-61.988671,-23.007697],[-61.993332,-22.999006],[-61.998615,-22.996445],[-62.002362,-22.995392],[-62.005889,-22.994781],[-62.007904,-22.993779],[-62.007844,-22.992038],[-62.005006,-22.987476],[-62.002101,-22.985529],[-62.000109,-22.984862],[-61.998328,-22.983535],[-61.99762,-22.980377],[-61.998164,-22.977895],[-62.000094,-22.976676],[-62.00331,-22.976143],[-62.005847,-22.974254],[-62.007731,-22.969407],[-62.008772,-22.963065],[-62.008376,-22.956184],[-62.007659,-22.953596],[-62.006289,-22.952693],[-62.003527,-22.952556],[-62.002159,-22.951726],[-62.001926,-22.949556],[-62.002331,-22.947261],[-62.004459,-22.943098],[-62.005514,-22.941691],[-62.005157,-22.939689],[-62.000363,-22.930908],[-61.999656,-22.928679],[-62.00128,-22.927834],[-62.011994,-22.927883],[-62.021908,-22.92984],[-62.024901,-22.929825],[-62.029676,-22.926709],[-62.030935,-22.924423],[-62.030638,-22.922691],[-62.027695,-22.917338],[-62.024578,-22.913],[-62.021764,-22.906772],[-62.021805,-22.905683],[-62.023285,-22.905205],[-62.024627,-22.90531],[-62.025916,-22.906143],[-62.029371,-22.910392],[-62.034171,-22.914821],[-62.036003,-22.915419],[-62.03745,-22.913999],[-62.037366,-22.911607],[-62.036167,-22.908814],[-62.035838,-22.901643],[-62.034725,-22.894571],[-62.034412,-22.890082],[-62.034748,-22.886061],[-62.035604,-22.88125],[-62.036724,-22.877225],[-62.039094,-22.872948],[-62.041791,-22.869025],[-62.045783,-22.866151],[-62.049974,-22.864578],[-62.054034,-22.863587],[-62.058156,-22.862086],[-62.060192,-22.85956],[-62.061591,-22.857056],[-62.061889,-22.855136],[-62.06169,-22.851736],[-62.058535,-22.842402],[-62.058979,-22.839417],[-62.059825,-22.838811],[-62.060302,-22.838942],[-62.062562,-22.840542],[-62.065005,-22.843008],[-62.068699,-22.849566],[-62.069809,-22.85207],[-62.07134,-22.853112],[-62.073181,-22.85175],[-62.07754,-22.843721],[-62.080008,-22.835601],[-62.080966,-22.831513],[-62.082086,-22.816681],[-62.082913,-22.813322],[-62.084992,-22.812027],[-62.087439,-22.812244],[-62.091953,-22.815368],[-62.093871,-22.816252],[-62.099225,-22.82102],[-62.102338,-22.822377],[-62.104856,-22.822445],[-62.106702,-22.821303],[-62.107558,-22.818815],[-62.108247,-22.816112],[-62.109423,-22.807093],[-62.110937,-22.80092],[-62.111355,-22.797361],[-62.1127,-22.795437],[-62.114576,-22.795238],[-62.118327,-22.79679],[-62.122698,-22.798106],[-62.124982,-22.79818],[-62.128165,-22.797143],[-62.131165,-22.795464],[-62.133986,-22.792987],[-62.135419,-22.791276],[-62.135849,-22.779021],[-62.140887,-22.774354],[-62.141153,-22.772967],[-62.138827,-22.769414],[-62.136323,-22.767462],[-62.131979,-22.762305],[-62.131061,-22.760739],[-62.13196,-22.75948],[-62.134057,-22.758838],[-62.137205,-22.759032],[-62.143448,-22.760146],[-62.146595,-22.760343],[-62.150719,-22.761451],[-62.155198,-22.761461],[-62.157122,-22.760316],[-62.158775,-22.758237],[-62.162449,-22.751171],[-62.164493,-22.749692],[-62.166466,-22.747748],[-62.166873,-22.745925],[-62.165976,-22.74501],[-62.163857,-22.745076],[-62.160428,-22.745906],[-62.156517,-22.746312],[-62.153326,-22.747133],[-62.150622,-22.748448],[-62.148747,-22.748721],[-62.148067,-22.747145],[-62.148782,-22.745242],[-62.150906,-22.743224],[-62.156507,-22.739208],[-62.165417,-22.731553],[-62.172426,-22.723299],[-62.177024,-22.720118],[-62.176736,-22.718679],[-62.17504,-22.717355],[-62.173237,-22.715236],[-62.172765,-22.713005],[-62.17394,-22.710724],[-62.175786,-22.709654],[-62.178505,-22.708846],[-62.181334,-22.708905],[-62.182622,-22.709808],[-62.184335,-22.713813],[-62.185674,-22.716162],[-62.187148,-22.717856],[-62.189222,-22.718806],[-62.19134,-22.718741],[-62.192866,-22.717463],[-62.197535,-22.709938],[-62.200251,-22.706812],[-62.205612,-22.705346],[-62.20722,-22.704062],[-62.207469,-22.702169],[-62.206916,-22.700745],[-62.205657,-22.701097],[-62.204183,-22.700598],[-62.202149,-22.699525],[-62.198875,-22.697051],[-62.197798,-22.695643],[-62.196951,-22.692882],[-62.196509,-22.689814],[-62.196785,-22.688613],[-62.197546,-22.687503],[-62.202263,-22.682717],[-62.202921,-22.681603],[-62.203074,-22.680008],[-62.202131,-22.676512],[-62.199618,-22.672888],[-62.198296,-22.669625],[-62.198183,-22.666768],[-62.199138,-22.66423],[-62.202003,-22.660109],[-62.203096,-22.659027],[-62.20386,-22.65881],[-62.205633,-22.659879],[-62.206287,-22.663742],[-62.206701,-22.664387],[-62.207897,-22.664455],[-62.210965,-22.663558],[-62.214032,-22.661833],[-62.215872,-22.660091],[-62.217429,-22.658002],[-62.217961,-22.657187],[-62.218042,-22.656276],[-62.217077,-22.655208],[-62.216046,-22.654774],[-62.208607,-22.653557],[-62.207182,-22.652998],[-62.204254,-22.652722],[-62.203132,-22.652288],[-62.202806,-22.651634],[-62.202885,-22.650509],[-62.203451,-22.649824],[-62.205368,-22.649265],[-62.212121,-22.649821],[-62.215619,-22.649375],[-62.216903,-22.648727],[-62.219093,-22.646755],[-62.220631,-22.646457],[-62.222185,-22.647973],[-62.223178,-22.649894],[-62.224315,-22.650818],[-62.227159,-22.651879],[-62.22859,-22.651914],[-62.229887,-22.650771],[-62.22992,-22.649973],[-62.229405,-22.649137],[-62.228085,-22.648163],[-62.225003,-22.646973],[-62.222772,-22.645675],[-62.221871,-22.644658],[-62.221588,-22.643424],[-62.221695,-22.642317],[-62.223329,-22.64061],[-62.22757,-22.638547],[-62.228222,-22.638471],[-62.2298,-22.639322],[-62.231238,-22.641417],[-62.232548,-22.646849],[-62.233542,-22.647574],[-62.234691,-22.647461],[-62.23603,-22.646792],[-62.237169,-22.645231],[-62.238439,-22.642118],[-62.238637,-22.635509],[-62.236858,-22.620634],[-62.235548,-22.615871],[-62.234568,-22.613862],[-62.234541,-22.612406],[-62.236388,-22.612192],[-62.237916,-22.612469],[-62.241027,-22.613678],[-62.242949,-22.614107],[-62.244053,-22.614151],[-62.245221,-22.613567],[-62.248292,-22.612915],[-62.25068,-22.613083],[-62.25292,-22.61377],[-62.253942,-22.613637],[-62.254266,-22.612689],[-62.253306,-22.609786],[-62.25166,-22.607219],[-62.249596,-22.604845],[-62.249616,-22.603799],[-62.250296,-22.602812],[-62.251925,-22.602509],[-62.257562,-22.604459],[-62.260489,-22.604087],[-62.261474,-22.603153],[-62.26188,-22.602259],[-62.261998,-22.600799],[-62.261403,-22.599282],[-62.260733,-22.597984],[-62.258635,-22.595337],[-62.256939,-22.593828],[-62.255423,-22.593103],[-62.252054,-22.592229],[-62.243694,-22.592343],[-62.241686,-22.592791],[-62.240784,-22.592546],[-62.240489,-22.591844],[-62.240678,-22.589089],[-62.242405,-22.58382],[-62.244586,-22.584104],[-62.247172,-22.585581],[-62.248131,-22.585768],[-62.248757,-22.58509],[-62.248242,-22.578869],[-62.249292,-22.576091],[-62.246979,-22.574687],[-62.243463,-22.574339],[-62.239978,-22.573466],[-62.23706,-22.571172],[-62.234703,-22.568454],[-62.233128,-22.565408],[-62.228971,-22.559423],[-62.22498,-22.555394],[-62.22411,-22.553753],[-62.22349,-22.551775],[-62.223574,-22.549243],[-62.224044,-22.548293],[-62.224858,-22.547827],[-62.22795,-22.547749],[-62.228821,-22.54717],[-62.232056,-22.540259],[-62.228161,-22.54077],[-62.177213,-22.540955],[-62.177124,-22.542798],[-62.159269,-22.542814],[-62.159446,-22.540882],[-61.996614,-22.54059],[-61.995365,-22.541097],[-61.993933,-22.540576],[-61.987808,-22.540529],[-61.436507,-22.536636],[-61.436329,-22.54041],[-61.348995,-22.536024],[-61.349187,-22.534536],[-61.223593,-22.523806],[-61.22438,-22.466017],[-60.669255,-22.466703],[-60.614201,-22.466772],[-60.594301,-22.467071],[-60.453958,-22.46697],[-60.453651,-22.429527],[-60.411455,-22.429713],[-60.369137,-22.429237],[-60.368891,-22.390271],[-60.284665,-22.389555],[-60.2844,-22.341752],[-60.259018,-22.339634],[-60.092925,-22.464336],[-60.090103,-22.465653],[-60.086222,-22.466712],[-60.084246,-22.466898],[-60.055603,-22.467036],[-59.953142,-22.518525],[-59.953426,-22.527917],[-59.957885,-22.58949],[-59.923047,-22.589398],[-59.923521,-22.611829],[-59.93292,-22.611542],[-59.933295,-22.634872],[-59.915582,-22.635369],[-59.91616,-22.673429],[-59.897841,-22.67308],[-59.878739,-22.672291],[-59.869022,-22.672279],[-59.878634,-22.686695],[-59.911308,-22.732905],[-59.928165,-22.756081],[-59.939777,-22.769478],[-59.937234,-22.772936],[-59.93585,-22.775407],[-59.938062,-22.776509],[-59.937939,-22.77921],[-59.948822,-22.782389],[-59.944999,-22.794501],[-59.944878,-22.796893],[-59.961213,-22.801193],[-59.966371,-22.802297],[-59.96895,-22.809054],[-59.969564,-22.811507],[-59.975094,-22.818666],[-59.976196,-22.830056],[-59.969428,-22.966972],[-59.969579,-22.967885],[-59.970727,-22.968229],[-59.970735,-22.968755],[-59.970519,-22.96934],[-59.969417,-22.970089],[-59.963333,-23.026789],[-59.958426,-23.067302],[-59.966026,-23.090908],[-59.972551,-23.108452],[-59.977757,-23.120867],[-59.984343,-23.135364],[-59.986689,-23.137983],[-59.987938,-23.142776],[-59.98892,-23.144268],[-59.992281,-23.157465],[-59.992144,-23.159076],[-59.991335,-23.159734],[-59.989576,-23.162161],[-59.988292,-23.162752],[-59.987587,-23.163907],[-59.979302,-23.171673],[-59.978988,-23.172979],[-59.999983,-23.23049],[-60.018232,-23.277898],[-60.02788,-23.304451],[-60.042698,-23.342129],[-60.050372,-23.361084],[-60.056926,-23.376234],[-60.059304,-23.38407],[-60.076769,-23.458487],[-60.092735,-23.492822],[-60.136866,-23.512571],[-60.186348,-23.524553],[-60.202723,-23.532855],[-60.291531,-23.543342],[-60.331976,-23.547589],[-60.382987,-23.553505],[-60.442015,-23.559862],[-60.46544,-23.563237],[-60.492345,-23.565713],[-60.557142,-23.573079],[-60.565409,-23.573936],[-60.56889,-23.572341],[-60.571328,-23.572293],[-60.574146,-23.573317],[-60.580971,-23.574891],[-60.578945,-23.58208],[-60.579145,-23.58258],[-60.58553,-23.590633],[-60.59231,-23.596646],[-60.594491,-23.601593]]]}}]}
