{"type":"FeatureCollection","name":"distrito","features":[{"type":"Feature","properties":{"clave":"10-7","nombre":"Iruña"},"geometry":{"type":"Polygon","coordinates":[[[-55.149912,-26.20725],[-55.149748,-26.208231],[-55.150705,-26.208099],[-55.151261,-26.209442],[-55.152096,-26.209552],[-55.152634,-26.210521],[-55.153261,-26.210894],[-55.154842,-26.211258],[-55.155823,-26.210774],[-55.156158,-26.211654],[-55.1576,-26.212051],[-55.158973,-26.21173],[-55.159655,-26.212633],[-55.160147,-26.212815],[-55.160186,-26.213267],[-55.160734,-26.212985],[-55.161966,-26.213718],[-55.162631,-26.213713],[-55.165395,-26.21606],[-55.167687,-26.21687],[-55.171003,-26.217038],[-55.1741,-26.215823],[-55.175184,-26.216098],[-55.175327,-26.215644],[-55.176074,-26.215618],[-55.176726,-26.214805],[-55.17923,-26.214498],[-55.18067,-26.213776],[-55.183572,-26.213433],[-55.184147,-26.213549],[-55.18399,-26.213971],[-55.185061,-26.213971],[-55.186213,-26.214559],[-55.186013,-26.214895],[-55.187279,-26.215498],[-55.187969,-26.216269],[-55.187734,-26.216492],[-55.188394,-26.216536],[-55.189946,-26.218122],[-55.189986,-26.218565],[-55.18962,-26.218664],[-55.190266,-26.221294],[-55.191075,-26.222392],[-55.191353,-26.223542],[-55.193316,-26.225995],[-55.19485,-26.226773],[-55.197322,-26.227214],[-55.198379,-26.227034],[-55.199559,-26.227409],[-55.199764,-26.228003],[-55.200431,-26.228549],[-55.201411,-26.228696],[-55.203809,-26.232197],[-55.205627,-26.233615],[-55.205735,-26.23015],[-55.205094,-26.228205],[-55.18882,-26.196827],[-55.187855,-26.195145],[-55.1803,-26.185102],[-55.160242,-26.13575],[-55.159784,-26.132824],[-55.159855,-26.116306],[-55.159544,-26.114546],[-55.14754,-26.094655],[-55.147013,-26.093177],[-55.146951,-26.091723],[-55.14745,-26.089626],[-55.152452,-26.072655],[-55.152092,-26.069925],[-55.151212,-26.068371],[-55.131694,-26.051822],[-55.129885,-26.049185],[-55.129551,-26.04723],[-55.127133,-26.047822],[-55.125737,-26.047777],[-55.125893,-26.047418],[-55.127529,-26.047114],[-55.127536,-26.04544],[-55.126689,-26.043944],[-55.124529,-26.042282],[-55.123832,-26.042431],[-55.123113,-26.043406],[-55.121321,-26.048212],[-55.119454,-26.051081],[-55.11882,-26.051437],[-55.11779,-26.050289],[-55.114955,-26.049004],[-55.113391,-26.049117],[-55.111843,-26.050964],[-55.112137,-26.049533],[-55.111897,-26.048003],[-55.112672,-26.043617],[-55.111867,-26.042774],[-55.109618,-26.041842],[-55.108854,-26.041125],[-55.108714,-26.038058],[-55.108404,-26.037517],[-55.106617,-26.038334],[-55.105725,-26.039193],[-55.10444,-26.039869],[-55.102486,-26.040349],[-55.100037,-26.040036],[-55.099342,-26.040922],[-55.099246,-26.042072],[-55.097881,-26.042879],[-55.095878,-26.043187],[-55.094647,-26.043692],[-55.091128,-26.047231],[-55.090399,-26.047587],[-55.088416,-26.047211],[-55.088263,-26.046548],[-55.091265,-26.045148],[-55.091663,-26.043994],[-55.091861,-26.041306],[-55.092494,-26.040015],[-55.096132,-26.038118],[-55.098342,-26.035658],[-55.098212,-26.035158],[-55.093559,-26.033222],[-55.090452,-26.030513],[-55.089735,-26.030667],[-55.087124,-26.032919],[-55.082681,-26.034976],[-55.081111,-26.035212],[-55.079663,-26.036305],[-55.079023,-26.037471],[-55.07819,-26.040654],[-55.077329,-26.041832],[-55.077396,-26.0424],[-55.07836,-26.042454],[-55.080389,-26.041969],[-55.085223,-26.042144],[-55.085785,-26.042456],[-55.085761,-26.043894],[-55.085367,-26.044594],[-55.081615,-26.047517],[-55.079697,-26.047769],[-55.077268,-26.047432],[-55.076785,-26.048891],[-55.074704,-26.04979],[-55.074197,-26.051747],[-55.07342,-26.052456],[-55.070598,-26.052792],[-55.069589,-26.052695],[-55.068983,-26.052286],[-55.068351,-26.050701],[-55.069008,-26.04793],[-55.068757,-26.045534],[-55.069306,-26.044698],[-55.073778,-26.041812],[-55.07547,-26.039442],[-55.075179,-26.038512],[-55.070039,-26.037337],[-55.064977,-26.037034],[-55.063079,-26.036082],[-55.059744,-26.035954],[-55.05687,-26.034796],[-55.05628,-26.035299],[-55.056652,-26.036881],[-55.06091,-26.039524],[-55.062926,-26.041667],[-55.063625,-26.042935],[-55.063875,-26.044473],[-55.064869,-26.045469],[-55.064848,-26.046741],[-55.062508,-26.046612],[-55.059291,-26.045836],[-55.055169,-26.047012],[-55.050271,-26.046932],[-55.049314,-26.048343],[-55.048075,-26.049211],[-55.047179,-26.052463],[-55.046822,-26.052707],[-55.04635,-26.05259],[-55.045958,-26.052225],[-55.045192,-26.049477],[-55.042667,-26.042984],[-55.043597,-26.040397],[-55.043063,-26.036656],[-55.04255,-26.036206],[-55.039184,-26.035137],[-55.036897,-26.033682],[-55.03627,-26.033632],[-55.033536,-26.036983],[-55.030996,-26.037819],[-55.030018,-26.037696],[-55.029993,-26.037391],[-55.031978,-26.034943],[-55.03232,-26.03185],[-55.034079,-26.030131],[-55.034596,-26.027566],[-55.034078,-26.026508],[-55.029598,-26.025285],[-55.028522,-26.025575],[-55.025964,-26.027517],[-55.022438,-26.027801],[-55.021892,-26.027531],[-55.022833,-26.021272],[-55.02457,-26.018288],[-55.025704,-26.017785],[-55.02955,-26.017755],[-55.031475,-26.016588],[-55.033687,-26.014036],[-55.028746,-26.010877],[-55.027404,-26.008795],[-55.026579,-26.005973],[-55.026073,-26.005344],[-55.024799,-26.006011],[-55.024144,-26.006759],[-55.023253,-26.008562],[-55.022901,-26.010393],[-55.022597,-26.010669],[-55.020934,-26.010615],[-55.020966,-26.011435],[-55.019425,-26.012275],[-55.017818,-26.014379],[-55.017201,-26.014868],[-55.015609,-26.015334],[-55.014713,-26.017406],[-55.016179,-26.019656],[-55.016489,-26.02104],[-55.015276,-26.024923],[-55.014591,-26.026034],[-55.012961,-26.026043],[-55.010006,-26.027008],[-55.009121,-26.027027],[-55.009029,-26.026393],[-55.010153,-26.024386],[-55.010462,-26.023094],[-55.008674,-26.020881],[-55.00809,-26.019452],[-55.008254,-26.018572],[-55.009155,-26.017568],[-55.009142,-26.016272],[-55.007529,-26.009871],[-55.006452,-26.009711],[-55.001911,-26.010841],[-54.996503,-26.009584],[-54.996036,-26.008695],[-54.996009,-26.006643],[-54.995489,-26.006052],[-54.993811,-26.007185],[-54.992966,-26.00736],[-54.988713,-26.007129],[-54.987712,-26.007324],[-54.986728,-26.0108],[-54.986317,-26.014574],[-54.98563,-26.015213],[-54.984371,-26.015516],[-54.984192,-26.015804],[-54.984227,-26.016185],[-54.985823,-26.017944],[-54.985742,-26.018793],[-54.98409,-26.020812],[-54.983096,-26.021067],[-54.981968,-26.020902],[-54.981666,-26.020726],[-54.97982,-26.01625],[-54.978511,-26.014151],[-54.977834,-26.01371],[-54.976251,-26.014097],[-54.975668,-26.013963],[-54.978004,-26.010506],[-54.978727,-26.008287],[-54.978634,-26.00555],[-54.977014,-26.002359],[-54.976866,-26.001328],[-54.979402,-25.998292],[-54.980239,-25.996581],[-54.977889,-25.994148],[-54.976622,-25.993899],[-54.975452,-25.994345],[-54.96944,-26.002402],[-54.96902,-26.002791],[-54.968251,-26.002892],[-54.967143,-26.002714],[-54.965967,-26.002008],[-54.963142,-25.997718],[-54.963315,-25.997087],[-54.965327,-25.995247],[-54.965335,-25.99474],[-54.963747,-25.991795],[-54.960631,-25.992666],[-54.958178,-25.992045],[-54.95722,-25.992101],[-54.954983,-25.99361],[-54.953628,-26.000698],[-54.952226,-26.002924],[-54.951514,-26.00527],[-54.95093,-26.005292],[-54.949747,-26.00442],[-54.948986,-26.003226],[-54.948711,-26.000737],[-54.947866,-25.997455],[-54.947628,-25.994072],[-54.947163,-25.992972],[-54.945808,-25.991799],[-54.945085,-25.990358],[-54.945361,-25.988197],[-54.945063,-25.987186],[-54.943717,-25.985914],[-54.942801,-25.985957],[-54.941738,-25.986602],[-54.941031,-25.986385],[-54.941328,-25.985478],[-54.943918,-25.983251],[-54.944056,-25.982482],[-54.943399,-25.980538],[-54.944118,-25.978812],[-54.943916,-25.978623],[-54.940049,-25.980426],[-54.936559,-25.980394],[-54.929738,-26.002379],[-54.921135,-26.031693],[-54.925631,-26.03412],[-54.928634,-26.035241],[-54.930167,-26.03891],[-54.932002,-26.03997],[-54.934531,-26.04335],[-54.934517,-26.044085],[-54.932401,-26.045775],[-54.93166,-26.047344],[-54.931664,-26.048513],[-54.933153,-26.053097],[-54.935248,-26.055239],[-54.9411,-26.056356],[-54.943329,-26.059434],[-54.94448,-26.060439],[-54.951841,-26.065178],[-54.953311,-26.065402],[-54.956848,-26.065204],[-54.95966,-26.066363],[-54.961826,-26.068659],[-54.961478,-26.0724],[-54.959213,-26.074467],[-54.959154,-26.075937],[-54.958489,-26.077034],[-54.959013,-26.079171],[-54.9639,-26.085171],[-54.968676,-26.086357],[-54.971746,-26.088598],[-54.972454,-26.089592],[-54.975015,-26.091311],[-54.976183,-26.092686],[-54.976456,-26.095127],[-54.976943,-26.096303],[-54.979173,-26.098126],[-54.97976,-26.099371],[-54.981832,-26.107086],[-54.888942,-26.135902],[-54.888552,-26.137214],[-54.886915,-26.138977],[-54.887097,-26.141408],[-54.886561,-26.142844],[-54.884504,-26.145269],[-54.883711,-26.146814],[-54.881822,-26.148506],[-54.880911,-26.148908],[-54.880639,-26.150433],[-54.877763,-26.155779],[-54.877724,-26.156465],[-54.87652,-26.158189],[-54.876118,-26.160995],[-54.877377,-26.162557],[-54.876993,-26.163973],[-54.875543,-26.16526],[-54.874806,-26.166531],[-54.874893,-26.16729],[-54.875487,-26.16817],[-54.877968,-26.170134],[-54.877957,-26.171826],[-54.875701,-26.172871],[-54.87467,-26.174255],[-54.87479,-26.17765],[-54.873868,-26.181012],[-54.874282,-26.18258],[-54.874271,-26.184426],[-54.873854,-26.184821],[-54.871066,-26.185132],[-54.870696,-26.190632],[-54.873721,-26.191877],[-54.876875,-26.193941],[-54.878782,-26.193924],[-54.879386,-26.193401],[-54.882067,-26.193129],[-54.882836,-26.193912],[-54.88321,-26.194608],[-54.88309,-26.195332],[-54.883462,-26.195491],[-54.885108,-26.194848],[-54.887782,-26.194454],[-54.893334,-26.192464],[-54.893609,-26.19282],[-54.893391,-26.193223],[-54.891284,-26.195358],[-54.892716,-26.196286],[-54.896577,-26.195715],[-54.896717,-26.199134],[-54.898555,-26.199738],[-54.899819,-26.197681],[-54.89944,-26.195446],[-54.899674,-26.193671],[-54.900084,-26.193018],[-54.901403,-26.193606],[-54.901755,-26.194419],[-54.903707,-26.194502],[-54.906448,-26.191121],[-54.90643,-26.19052],[-54.905089,-26.190415],[-54.905624,-26.189778],[-54.905429,-26.187888],[-54.90629,-26.184512],[-54.907256,-26.183379],[-54.908206,-26.180631],[-54.908814,-26.180631],[-54.910381,-26.18185],[-54.911518,-26.181708],[-54.911866,-26.182214],[-54.9115,-26.185634],[-54.911874,-26.187878],[-54.913886,-26.189415],[-54.91648,-26.189696],[-54.917174,-26.190843],[-54.916571,-26.192906],[-54.911262,-26.194255],[-54.910455,-26.194767],[-54.910953,-26.195695],[-54.911959,-26.195922],[-54.913284,-26.196753],[-54.915647,-26.196724],[-54.917059,-26.196366],[-54.917237,-26.197221],[-54.919523,-26.201027],[-54.919578,-26.202111],[-54.918706,-26.20356],[-54.918202,-26.203621],[-54.917883,-26.202745],[-54.915486,-26.202544],[-54.914809,-26.202904],[-54.914135,-26.203855],[-54.912667,-26.203649],[-54.911356,-26.204668],[-54.908158,-26.20575],[-54.907774,-26.206385],[-54.906716,-26.205616],[-54.905111,-26.206048],[-54.903731,-26.206073],[-54.903159,-26.206629],[-54.902827,-26.207852],[-54.909448,-26.210602],[-54.912228,-26.209889],[-54.913388,-26.210009],[-54.915733,-26.211122],[-54.917489,-26.212596],[-54.917317,-26.213573],[-54.914747,-26.214465],[-54.912338,-26.21693],[-54.909411,-26.218364],[-54.908341,-26.220388],[-54.908608,-26.221294],[-54.91014,-26.22216],[-54.911954,-26.22197],[-54.912792,-26.221459],[-54.913402,-26.222709],[-54.916194,-26.223255],[-54.916325,-26.224042],[-54.915698,-26.225098],[-54.915723,-26.22606],[-54.916369,-26.226398],[-54.916379,-26.226976],[-54.915047,-26.228514],[-54.915193,-26.228927],[-54.918472,-26.229795],[-54.9226,-26.228416],[-54.923541,-26.226529],[-54.925088,-26.226425],[-54.925751,-26.224982],[-54.926409,-26.225194],[-54.926115,-26.22626],[-54.927329,-26.225713],[-54.927255,-26.225094],[-54.926625,-26.224263],[-54.924943,-26.224844],[-54.923941,-26.224121],[-54.921459,-26.224888],[-54.921143,-26.224744],[-54.921249,-26.224352],[-54.922134,-26.224004],[-54.923028,-26.222889],[-54.924188,-26.220762],[-54.924205,-26.219643],[-54.923126,-26.219749],[-54.922827,-26.219167],[-54.924547,-26.21778],[-54.924033,-26.21696],[-54.924901,-26.214905],[-54.927305,-26.214186],[-54.928312,-26.213416],[-54.927979,-26.213009],[-54.927073,-26.213249],[-54.927012,-26.212679],[-54.928129,-26.212348],[-54.928682,-26.211846],[-54.929794,-26.21211],[-54.929851,-26.212486],[-54.929042,-26.213336],[-54.929218,-26.213957],[-54.930862,-26.21524],[-54.931385,-26.216786],[-54.932465,-26.218304],[-54.933611,-26.218962],[-54.934343,-26.219026],[-54.934986,-26.218724],[-54.936533,-26.21686],[-54.936497,-26.216295],[-54.93503,-26.21409],[-54.936063,-26.214019],[-54.936684,-26.215418],[-54.937416,-26.21518],[-54.938386,-26.213407],[-54.939366,-26.20852],[-54.94062,-26.208303],[-54.943413,-26.209598],[-54.944267,-26.209046],[-54.944471,-26.208146],[-54.945772,-26.206409],[-54.946563,-26.206024],[-54.948893,-26.208751],[-54.95116,-26.209681],[-54.950154,-26.21219],[-54.948057,-26.213058],[-54.947487,-26.213591],[-54.949119,-26.216386],[-54.947919,-26.216847],[-54.948085,-26.217562],[-54.950108,-26.218498],[-54.953997,-26.219456],[-54.955838,-26.218684],[-54.956607,-26.216461],[-54.957525,-26.216366],[-54.958256,-26.216769],[-54.958643,-26.218142],[-54.958628,-26.218629],[-54.957632,-26.22023],[-54.957661,-26.222889],[-54.956804,-26.223477],[-54.954929,-26.223865],[-54.951828,-26.225342],[-54.951785,-26.225969],[-54.953069,-26.22712],[-54.952818,-26.228254],[-54.950605,-26.229269],[-54.949973,-26.230898],[-54.948067,-26.231954],[-54.947451,-26.232812],[-54.947425,-26.233791],[-54.947979,-26.235618],[-54.949949,-26.23885],[-54.95052,-26.23879],[-54.952183,-26.236639],[-54.954686,-26.237239],[-54.956298,-26.236657],[-54.956539,-26.235925],[-54.956258,-26.23254],[-54.95654,-26.232102],[-54.957682,-26.231658],[-54.957257,-26.231268],[-54.956455,-26.231492],[-54.956786,-26.230093],[-54.957439,-26.229046],[-54.95928,-26.229226],[-54.961999,-26.228231],[-54.96257,-26.229922],[-54.963212,-26.230364],[-54.963402,-26.229911],[-54.962732,-26.228584],[-54.964125,-26.228378],[-54.965319,-26.229122],[-54.965229,-26.230167],[-54.965559,-26.230357],[-54.967301,-26.228838],[-54.968191,-26.229244],[-54.968963,-26.228248],[-54.96926,-26.226916],[-54.972697,-26.229614],[-54.973756,-26.230798],[-54.973805,-26.231421],[-54.971994,-26.233002],[-54.968658,-26.234567],[-54.967097,-26.235718],[-54.965483,-26.236124],[-54.966269,-26.237078],[-54.966103,-26.237843],[-54.967904,-26.23725],[-54.968373,-26.237884],[-54.972234,-26.237934],[-54.973044,-26.238149],[-54.973214,-26.238887],[-54.974286,-26.239507],[-54.978024,-26.238363],[-54.98103,-26.238148],[-54.981786,-26.238651],[-54.981433,-26.241945],[-54.981889,-26.24271],[-54.982522,-26.242926],[-54.983714,-26.24292],[-54.985326,-26.242541],[-54.985464,-26.241952],[-54.984897,-26.240761],[-54.984826,-26.239181],[-54.985701,-26.239216],[-54.986274,-26.238926],[-54.986448,-26.238491],[-54.986033,-26.237122],[-54.98453,-26.236645],[-54.982672,-26.235423],[-54.983061,-26.234377],[-54.985853,-26.232259],[-54.98351,-26.232736],[-54.981951,-26.230859],[-54.982838,-26.229387],[-54.983862,-26.228508],[-54.984995,-26.22883],[-54.986597,-26.227882],[-54.98789,-26.226511],[-54.989287,-26.226634],[-54.989024,-26.225543],[-54.990181,-26.225125],[-54.990972,-26.223363],[-54.991244,-26.223313],[-54.991501,-26.224494],[-54.992019,-26.224898],[-54.993946,-26.225332],[-54.994707,-26.224679],[-54.995155,-26.2257],[-54.996445,-26.22543],[-54.99725,-26.225874],[-54.998092,-26.228201],[-54.997023,-26.228619],[-54.99698,-26.230663],[-54.998658,-26.232248],[-55.002343,-26.233613],[-55.00194,-26.234194],[-55.002114,-26.234372],[-55.006361,-26.235054],[-55.006967,-26.235681],[-55.008166,-26.235138],[-55.00937,-26.235831],[-55.01031,-26.23565],[-55.01123,-26.236123],[-55.011463,-26.23508],[-55.012419,-26.234791],[-55.013371,-26.234799],[-55.014078,-26.235734],[-55.014712,-26.235811],[-55.014989,-26.234406],[-55.015423,-26.234169],[-55.018229,-26.234704],[-55.019003,-26.231546],[-55.018325,-26.23155],[-55.01844,-26.230473],[-55.017524,-26.229373],[-55.022679,-26.226682],[-55.023599,-26.225345],[-55.024168,-26.225674],[-55.024598,-26.227602],[-55.025575,-26.229091],[-55.028445,-26.227939],[-55.029087,-26.225642],[-55.027631,-26.225699],[-55.027453,-26.224965],[-55.028005,-26.223637],[-55.030776,-26.223305],[-55.031725,-26.222429],[-55.032194,-26.223017],[-55.031949,-26.224778],[-55.03401,-26.224716],[-55.034863,-26.224299],[-55.035365,-26.222487],[-55.036661,-26.222261],[-55.03713,-26.222557],[-55.037241,-26.22379],[-55.038261,-26.226841],[-55.038631,-26.227018],[-55.039747,-26.226289],[-55.041179,-26.227116],[-55.041336,-26.22766],[-55.039836,-26.229246],[-55.038737,-26.229899],[-55.037987,-26.229613],[-55.037235,-26.228741],[-55.037229,-26.227888],[-55.036849,-26.227495],[-55.036101,-26.227534],[-55.034956,-26.228836],[-55.034184,-26.231687],[-55.03563,-26.231766],[-55.035697,-26.232096],[-55.034317,-26.232425],[-55.035125,-26.233248],[-55.03495,-26.234572],[-55.033762,-26.234249],[-55.033676,-26.234447],[-55.035637,-26.235399],[-55.035118,-26.237224],[-55.036022,-26.236844],[-55.036234,-26.237126],[-55.03545,-26.23791],[-55.037073,-26.23809],[-55.038063,-26.238528],[-55.038181,-26.238277],[-55.037364,-26.237656],[-55.037867,-26.237307],[-55.038458,-26.237635],[-55.039065,-26.237445],[-55.040386,-26.235937],[-55.040738,-26.236028],[-55.040225,-26.237055],[-55.040879,-26.23751],[-55.042171,-26.236941],[-55.04386,-26.235488],[-55.044941,-26.238301],[-55.046307,-26.237832],[-55.048903,-26.239912],[-55.050928,-26.239773],[-55.051027,-26.238953],[-55.050056,-26.237423],[-55.051731,-26.237211],[-55.053079,-26.237852],[-55.054213,-26.237872],[-55.055365,-26.237021],[-55.055871,-26.237136],[-55.056728,-26.236719],[-55.05683,-26.236418],[-55.055549,-26.235697],[-55.055242,-26.235047],[-55.056408,-26.234214],[-55.056571,-26.231752],[-55.058029,-26.23068],[-55.059362,-26.230675],[-55.060391,-26.231105],[-55.060735,-26.232319],[-55.06462,-26.234813],[-55.0645,-26.236242],[-55.063855,-26.237632],[-55.064176,-26.238724],[-55.063727,-26.239544],[-55.06357,-26.240927],[-55.066833,-26.242479],[-55.067544,-26.243215],[-55.068074,-26.243213],[-55.069966,-26.24244],[-55.070709,-26.240207],[-55.070439,-26.238944],[-55.071267,-26.237592],[-55.075165,-26.237527],[-55.077459,-26.237201],[-55.078687,-26.236635],[-55.078637,-26.233624],[-55.07803,-26.232113],[-55.077893,-26.230613],[-55.078894,-26.229652],[-55.079928,-26.229747],[-55.080796,-26.230232],[-55.082414,-26.229518],[-55.082379,-26.228412],[-55.083259,-26.228148],[-55.083639,-26.227224],[-55.085015,-26.226908],[-55.086217,-26.225994],[-55.087579,-26.226301],[-55.08864,-26.226045],[-55.090597,-26.227271],[-55.093907,-26.227636],[-55.097505,-26.22553],[-55.099032,-26.225253],[-55.100246,-26.225752],[-55.100547,-26.224997],[-55.101876,-26.224866],[-55.102087,-26.224327],[-55.10257,-26.224085],[-55.102695,-26.222498],[-55.101877,-26.22131],[-55.101785,-26.220668],[-55.101105,-26.220284],[-55.102248,-26.219306],[-55.102302,-26.218481],[-55.101837,-26.21843],[-55.101713,-26.21757],[-55.102151,-26.215622],[-55.102819,-26.21499],[-55.102501,-26.214661],[-55.103709,-26.21492],[-55.104243,-26.21574],[-55.105157,-26.216257],[-55.106642,-26.21611],[-55.107861,-26.216487],[-55.108747,-26.215835],[-55.110297,-26.216524],[-55.111282,-26.217575],[-55.113182,-26.217257],[-55.115233,-26.218471],[-55.116489,-26.218446],[-55.122227,-26.219456],[-55.123114,-26.219246],[-55.123493,-26.219495],[-55.126669,-26.218218],[-55.128015,-26.217387],[-55.128553,-26.217449],[-55.128911,-26.217914],[-55.129206,-26.217416],[-55.129908,-26.217832],[-55.130024,-26.216971],[-55.129561,-26.215841],[-55.130602,-26.215092],[-55.130569,-26.21386],[-55.131274,-26.213426],[-55.131516,-26.212175],[-55.132421,-26.210909],[-55.133126,-26.210431],[-55.13309,-26.209903],[-55.134287,-26.209688],[-55.134911,-26.208663],[-55.137452,-26.206642],[-55.139606,-26.206273],[-55.141739,-26.206517],[-55.143019,-26.206344],[-55.145162,-26.207121],[-55.147881,-26.206501],[-55.148236,-26.206799],[-55.149533,-26.206762],[-55.149912,-26.20725]]]}}]}
