{"type":"FeatureCollection","name":"distrito","features":[{"type":"Feature","properties":{"clave":"3-27","nombre":"Piribebuy"},"geometry":{"type":"Polygon","coordinates":[[[-57.072311,-25.57997],[-57.076082,-25.580898],[-57.077105,-25.581525],[-57.079511,-25.582007],[-57.08204,-25.583482],[-57.086673,-25.583749],[-57.089182,-25.58254],[-57.090513,-25.581378],[-57.091843,-25.579705],[-57.091688,-25.578311],[-57.090458,-25.576547],[-57.090302,-25.573945],[-57.091018,-25.572458],[-57.092656,-25.570831],[-57.093629,-25.570273],[-57.094242,-25.569065],[-57.094855,-25.566556],[-57.096339,-25.564697],[-57.098489,-25.563162],[-57.099766,-25.559538],[-57.102784,-25.555773],[-57.104422,-25.554657],[-57.106672,-25.551078],[-57.110919,-25.546847],[-57.110789,-25.543894],[-57.111317,-25.542854],[-57.111315,-25.541431],[-57.112157,-25.53884],[-57.113044,-25.537654],[-57.114891,-25.537998],[-57.116821,-25.537413],[-57.118308,-25.536354],[-57.122408,-25.534526],[-57.128717,-25.530216],[-57.130201,-25.526821],[-57.129998,-25.525691],[-57.129555,-25.524888],[-57.12867,-25.524196],[-57.126355,-25.522925],[-57.126697,-25.521352],[-57.125809,-25.518543],[-57.126572,-25.517485],[-57.12752,-25.516998],[-57.129725,-25.511461],[-57.129952,-25.509177],[-57.131626,-25.505992],[-57.132005,-25.504055],[-57.131317,-25.502671],[-57.133145,-25.501009],[-57.132914,-25.49921],[-57.133446,-25.497618],[-57.135198,-25.496371],[-57.136036,-25.495056],[-57.135804,-25.492288],[-57.135039,-25.49049],[-57.1358,-25.489244],[-57.137168,-25.485021],[-57.137315,-25.480454],[-57.138075,-25.479284],[-57.139279,-25.478963],[-57.139705,-25.478574],[-57.139829,-25.478069],[-57.139366,-25.477314],[-57.139329,-25.476554],[-57.141261,-25.473788],[-57.140498,-25.473486],[-57.138402,-25.474094],[-57.135305,-25.474269],[-57.133065,-25.47345],[-57.131886,-25.472568],[-57.130399,-25.470438],[-57.131533,-25.467309],[-57.132289,-25.461275],[-57.131784,-25.455691],[-57.130724,-25.452781],[-57.131811,-25.45189],[-57.131296,-25.450012],[-57.119071,-25.450818],[-57.117635,-25.448808],[-57.116938,-25.44658],[-57.116069,-25.445753],[-57.115329,-25.444413],[-57.115982,-25.441379],[-57.117079,-25.43866],[-57.117193,-25.437246],[-57.11678,-25.434894],[-57.116939,-25.43432],[-57.116532,-25.433075],[-57.115856,-25.432335],[-57.115659,-25.43075],[-57.11509,-25.430362],[-57.114926,-25.429757],[-57.11425,-25.429153],[-57.113122,-25.428901],[-57.111189,-25.429254],[-57.109243,-25.429156],[-57.106167,-25.428215],[-57.103185,-25.425968],[-57.10036,-25.425081],[-57.099019,-25.42412],[-57.096529,-25.423124],[-57.094705,-25.42271],[-57.091444,-25.42059],[-57.090443,-25.419556],[-57.0896,-25.41934],[-57.088274,-25.417891],[-57.086648,-25.417034],[-57.085167,-25.415681],[-57.08344,-25.41523],[-57.082857,-25.414102],[-57.082085,-25.413465],[-57.082271,-25.412969],[-57.082006,-25.41179],[-57.08138,-25.410851],[-57.080563,-25.410667],[-57.078466,-25.411061],[-57.076658,-25.409928],[-57.076599,-25.409111],[-57.078094,-25.406916],[-57.077838,-25.405598],[-57.07594,-25.403187],[-57.073172,-25.40253],[-57.071409,-25.401433],[-57.069642,-25.399854],[-57.069786,-25.396305],[-57.069147,-25.392666],[-57.067609,-25.39107],[-57.066388,-25.39035],[-57.066666,-25.38863],[-57.065443,-25.386408],[-57.067649,-25.384448],[-57.068112,-25.38247],[-57.067993,-25.381613],[-57.066881,-25.381123],[-57.063734,-25.380839],[-57.05945,-25.378636],[-57.037167,-25.376095],[-57.037269,-25.376445],[-57.038096,-25.376842],[-57.039964,-25.379523],[-57.041148,-25.37983],[-57.04149,-25.380701],[-57.041974,-25.381058],[-57.042046,-25.383266],[-57.04269,-25.383984],[-57.043143,-25.386088],[-57.043035,-25.387036],[-57.043476,-25.387903],[-57.042909,-25.388919],[-57.042691,-25.390215],[-57.043205,-25.391736],[-57.04153,-25.392296],[-57.037517,-25.392692],[-57.03829,-25.394673],[-57.038217,-25.395596],[-57.036549,-25.396664],[-57.036119,-25.398168],[-57.035532,-25.398489],[-57.035062,-25.399329],[-57.03471,-25.401546],[-57.036891,-25.403505],[-57.034536,-25.420749],[-57.035365,-25.425128],[-57.033462,-25.425924],[-57.032487,-25.426037],[-57.030449,-25.427428],[-57.02873,-25.428187],[-57.025643,-25.428779],[-57.023677,-25.430572],[-57.021298,-25.431263],[-57.020707,-25.431706],[-57.019064,-25.431765],[-57.011418,-25.436344],[-57.009891,-25.43694],[-57.008374,-25.437139],[-57.00503,-25.437049],[-56.989993,-25.444183],[-56.990295,-25.446283],[-56.989507,-25.452089],[-56.989811,-25.454604],[-56.988656,-25.457062],[-56.987516,-25.463888],[-56.987292,-25.468299],[-56.985716,-25.467432],[-56.98511,-25.466],[-56.982564,-25.464487],[-56.981891,-25.462898],[-56.979892,-25.461213],[-56.979138,-25.461259],[-56.978235,-25.461787],[-56.978439,-25.463435],[-56.978003,-25.463904],[-56.9762,-25.462685],[-56.974003,-25.462188],[-56.973872,-25.461005],[-56.973041,-25.460695],[-56.972789,-25.462034],[-56.972131,-25.463082],[-56.971998,-25.466238],[-56.947069,-25.460707],[-56.946697,-25.464327],[-56.944851,-25.464261],[-56.943904,-25.465083],[-56.943944,-25.46581],[-56.944963,-25.467675],[-56.94468,-25.468939],[-56.942369,-25.470266],[-56.94097,-25.470112],[-56.939841,-25.469276],[-56.938406,-25.469645],[-56.937544,-25.469347],[-56.937263,-25.469966],[-56.93669,-25.470336],[-56.934939,-25.470899],[-56.932526,-25.474434],[-56.931781,-25.474176],[-56.930394,-25.476266],[-56.928604,-25.476626],[-56.928506,-25.477141],[-56.929242,-25.477877],[-56.92949,-25.479033],[-56.932104,-25.478727],[-56.932484,-25.478899],[-56.932576,-25.480412],[-56.931841,-25.481265],[-56.931836,-25.481856],[-56.930161,-25.482826],[-56.930409,-25.484018],[-56.930078,-25.484804],[-56.928623,-25.486018],[-56.929285,-25.48633],[-56.929826,-25.487296],[-56.930944,-25.488046],[-56.933275,-25.491249],[-56.932703,-25.492142],[-56.930918,-25.492119],[-56.930997,-25.493316],[-56.930221,-25.494828],[-56.929296,-25.495794],[-56.926056,-25.496198],[-56.925676,-25.496596],[-56.92606,-25.497707],[-56.927411,-25.497721],[-56.928627,-25.498841],[-56.927601,-25.500647],[-56.9276,-25.501676],[-56.929615,-25.502196],[-56.930607,-25.502797],[-56.929986,-25.504897],[-56.928952,-25.506133],[-56.926653,-25.506372],[-56.927052,-25.506841],[-56.927143,-25.509952],[-56.928072,-25.511587],[-56.929673,-25.513173],[-56.930862,-25.513237],[-56.932216,-25.512452],[-56.962017,-25.527742],[-56.966136,-25.529222],[-56.965982,-25.529797],[-56.973454,-25.544354],[-56.980261,-25.547324],[-56.970803,-25.570088],[-56.971657,-25.569523],[-56.974521,-25.569966],[-56.976227,-25.569429],[-56.977437,-25.569384],[-56.978088,-25.568983],[-56.979598,-25.568888],[-56.981707,-25.569326],[-56.982668,-25.570415],[-56.985015,-25.570605],[-56.987031,-25.571666],[-56.9885,-25.5714],[-56.990336,-25.571886],[-56.991312,-25.571486],[-56.992046,-25.571522],[-56.993556,-25.572998],[-56.99523,-25.573549],[-56.996875,-25.574723],[-56.998467,-25.574525],[-57.000127,-25.575193],[-57.001981,-25.577405],[-57.003165,-25.580006],[-57.004725,-25.581306],[-57.006043,-25.582132],[-57.009903,-25.583284],[-57.011993,-25.584236],[-57.012843,-25.585076],[-57.014345,-25.588516],[-57.016662,-25.5896],[-57.01811,-25.589925],[-57.019875,-25.590999],[-57.023287,-25.59024],[-57.025106,-25.588727],[-57.026205,-25.588443],[-57.028122,-25.589404],[-57.031642,-25.590464],[-57.034121,-25.59176],[-57.035135,-25.591529],[-57.036742,-25.591664],[-57.040921,-25.589916],[-57.042929,-25.5894],[-57.044281,-25.588429],[-57.045126,-25.58739],[-57.047017,-25.58748],[-57.047954,-25.587245],[-57.052319,-25.585501],[-57.05451,-25.583978],[-57.056802,-25.582853],[-57.059465,-25.580089],[-57.061359,-25.579108],[-57.063604,-25.578525],[-57.06463,-25.578551],[-57.07007,-25.579958],[-57.072311,-25.57997]]]}}]}
