{"type":"FeatureCollection","name":"distrito","features":[{"type":"Feature","properties":{"clave":"8-11","nombre":"Santa Rosa"},"geometry":{"type":"Polygon","coordinates":[[[-56.952926,-27.119261],[-56.953151,-27.118259],[-56.952863,-27.117984],[-56.952947,-27.116322],[-56.950351,-27.112385],[-56.950632,-27.109975],[-56.951195,-27.109695],[-56.951362,-27.109058],[-56.951035,-27.108679],[-56.95118,-27.107149],[-56.950865,-27.106499],[-56.951484,-27.106174],[-56.951633,-27.10561],[-56.951332,-27.105384],[-56.951899,-27.105032],[-56.951904,-27.104125],[-56.952308,-27.103813],[-56.952236,-27.103028],[-56.952735,-27.102956],[-56.95311,-27.101994],[-56.954241,-27.100925],[-56.954389,-27.100239],[-56.954871,-27.099778],[-56.95433,-27.098871],[-56.955207,-27.098307],[-56.954567,-27.09776],[-56.954733,-27.096465],[-56.955383,-27.09605],[-56.955348,-27.095255],[-56.954563,-27.094718],[-56.954262,-27.094036],[-56.954486,-27.093513],[-56.954216,-27.093038],[-56.954334,-27.091088],[-56.954044,-27.090578],[-56.954486,-27.089766],[-56.954744,-27.087793],[-56.955258,-27.087373],[-56.955211,-27.086746],[-56.955539,-27.086326],[-56.955077,-27.085446],[-56.955796,-27.084245],[-56.955997,-27.083248],[-56.957021,-27.081681],[-56.957421,-27.081501],[-56.957289,-27.080901],[-56.958433,-27.078811],[-56.957468,-27.075872],[-56.957648,-27.075177],[-56.956887,-27.072653],[-56.957208,-27.072504],[-56.957124,-27.072057],[-56.958157,-27.07008],[-56.95873,-27.069796],[-56.959825,-27.069995],[-56.96052,-27.069359],[-56.961083,-27.069553],[-56.961739,-27.069237],[-56.96219,-27.069544],[-56.962446,-27.06838],[-56.963396,-27.068118],[-56.963647,-27.066904],[-56.964225,-27.067265],[-56.964861,-27.067256],[-56.964877,-27.067509],[-56.965777,-27.067247],[-56.965554,-27.06583],[-56.966775,-27.064963],[-56.965291,-27.063663],[-56.966645,-27.063027],[-56.967466,-27.061235],[-56.971451,-27.059647],[-56.971508,-27.058983],[-56.970988,-27.057692],[-56.970996,-27.056261],[-56.971414,-27.055981],[-56.971364,-27.05553],[-56.971995,-27.05516],[-56.972673,-27.053575],[-56.97372,-27.053065],[-56.975394,-27.050822],[-56.975801,-27.050727],[-56.975976,-27.049752],[-56.976586,-27.049454],[-56.976757,-27.04871],[-56.977635,-27.048439],[-56.977689,-27.047085],[-56.977265,-27.046543],[-56.977475,-27.045721],[-56.976663,-27.045048],[-56.977126,-27.044534],[-56.976891,-27.044249],[-56.977072,-27.043821],[-56.976739,-27.043766],[-56.976713,-27.043328],[-56.975452,-27.043179],[-56.975517,-27.042863],[-56.975129,-27.042773],[-56.974388,-27.041482],[-56.97486,-27.040435],[-56.974382,-27.040006],[-56.974532,-27.038791],[-56.974926,-27.038511],[-56.974585,-27.037816],[-56.974748,-27.037279],[-56.97446,-27.03704],[-56.975003,-27.036796],[-56.974854,-27.036448],[-56.975097,-27.036223],[-56.97449,-27.035044],[-56.974717,-27.034047],[-56.974349,-27.032914],[-56.974765,-27.032751],[-56.974628,-27.032516],[-56.975309,-27.030991],[-56.975892,-27.03095],[-56.977008,-27.030197],[-56.976697,-27.029619],[-56.976993,-27.028436],[-56.976221,-27.028224],[-56.976825,-27.027181],[-56.976128,-27.026689],[-56.976821,-27.026508],[-56.976966,-27.025894],[-56.97764,-27.025231],[-56.977769,-27.024468],[-56.978926,-27.024112],[-56.97848,-27.023768],[-56.978784,-27.022965],[-56.979752,-27.0232],[-56.979938,-27.02273],[-56.980997,-27.022252],[-56.981089,-27.021742],[-56.981858,-27.02162],[-56.982245,-27.020893],[-56.982912,-27.020555],[-56.982605,-27.019805],[-56.983522,-27.018812],[-56.983586,-27.018343],[-56.983296,-27.01823],[-56.983056,-27.017327],[-56.98229,-27.016776],[-56.981955,-27.01535],[-56.983283,-27.014619],[-56.983964,-27.01275],[-56.985397,-27.012416],[-56.985675,-27.01173],[-56.985497,-27.011093],[-56.986343,-27.008683],[-56.987772,-27.00792],[-56.988076,-27.007161],[-56.988411,-27.007112],[-56.988277,-27.005816],[-56.98919,-27.003455],[-56.988978,-27.003243],[-56.988115,-27.003406],[-56.987932,-27.002561],[-56.988277,-27.002096],[-56.990283,-27.001677],[-56.990655,-26.999763],[-56.990121,-26.999776],[-56.989587,-27.000241],[-56.989252,-26.999957],[-56.985334,-27.001026],[-56.982895,-27.001112],[-56.980148,-26.998963],[-56.976551,-26.998447],[-56.974154,-26.996813],[-56.973887,-26.996298],[-56.971134,-26.995422],[-56.968399,-26.991133],[-56.968138,-26.989724],[-56.9667,-26.987223],[-56.96574,-26.987187],[-56.964345,-26.986324],[-56.963517,-26.985231],[-56.96199,-26.984956],[-56.961686,-26.983199],[-56.960073,-26.982377],[-56.959026,-26.982535],[-56.958154,-26.981167],[-56.954447,-26.981712],[-56.952878,-26.981323],[-56.951003,-26.98019],[-56.949478,-26.976749],[-56.949129,-26.976356],[-56.948345,-26.976162],[-56.947822,-26.97409],[-56.946907,-26.973037],[-56.945512,-26.972491],[-56.94403,-26.970653],[-56.942177,-26.96979],[-56.940216,-26.96936],[-56.93381,-26.962324],[-56.932852,-26.960491],[-56.931718,-26.960255],[-56.930062,-26.959198],[-56.929235,-26.95709],[-56.928407,-26.956696],[-56.926751,-26.955016],[-56.925052,-26.954311],[-56.923788,-26.952554],[-56.923659,-26.951146],[-56.921351,-26.946459],[-56.921527,-26.944621],[-56.921244,-26.943606],[-56.921506,-26.942626],[-56.921028,-26.941263],[-56.921159,-26.939777],[-56.920856,-26.937899],[-56.919636,-26.936296],[-56.918198,-26.936647],[-56.917152,-26.9361],[-56.916158,-26.934154],[-56.937301,-26.919078],[-56.93281,-26.91402],[-56.930038,-26.90945],[-56.929241,-26.907856],[-56.925419,-26.896523],[-56.924742,-26.895444],[-56.92161,-26.894598],[-56.919664,-26.893622],[-56.91891,-26.893134],[-56.917666,-26.891544],[-56.917248,-26.88856],[-56.919896,-26.882611],[-56.917549,-26.877658],[-56.918155,-26.877049],[-56.918051,-26.876484],[-56.916541,-26.87438],[-56.91612,-26.868335],[-56.915148,-26.867773],[-56.911892,-26.867262],[-56.908086,-26.867729],[-56.907285,-26.859815],[-56.913812,-26.845035],[-56.915728,-26.842045],[-56.912868,-26.841314],[-56.912631,-26.838479],[-56.911412,-26.837706],[-56.893948,-26.839586],[-56.890499,-26.840572],[-56.889344,-26.840488],[-56.888966,-26.840697],[-56.889099,-26.841275],[-56.872702,-26.837514],[-56.856324,-26.834208],[-56.851007,-26.834717],[-56.850431,-26.836048],[-56.849376,-26.836304],[-56.847939,-26.836303],[-56.846783,-26.83579],[-56.845112,-26.836468],[-56.844779,-26.835613],[-56.842579,-26.83329],[-56.842246,-26.831439],[-56.842487,-26.830626],[-56.843158,-26.829936],[-56.843303,-26.828862],[-56.842634,-26.828347],[-56.841532,-26.828215],[-56.83914,-26.826108],[-56.83775,-26.826275],[-56.836748,-26.824042],[-56.826358,-26.790989],[-56.825305,-26.790514],[-56.824398,-26.788964],[-56.824015,-26.788837],[-56.824064,-26.788147],[-56.823348,-26.786814],[-56.822296,-26.786212],[-56.821819,-26.784537],[-56.821151,-26.783547],[-56.821008,-26.782685],[-56.821296,-26.782256],[-56.820866,-26.781525],[-56.821154,-26.781268],[-56.820388,-26.781095],[-56.820104,-26.779506],[-56.818812,-26.778732],[-56.817907,-26.77628],[-56.817093,-26.775935],[-56.81734,-26.771552],[-56.816958,-26.770951],[-56.817198,-26.770523],[-56.816815,-26.770179],[-56.817007,-26.769877],[-56.815001,-26.767166],[-56.812425,-26.76179],[-56.810996,-26.757667],[-56.808754,-26.752806],[-56.808852,-26.751732],[-56.808517,-26.751474],[-56.807994,-26.749541],[-56.807278,-26.748294],[-56.805223,-26.746571],[-56.804841,-26.745668],[-56.804315,-26.745496],[-56.803982,-26.744764],[-56.802501,-26.743218],[-56.802119,-26.742314],[-56.801163,-26.741753],[-56.798537,-26.738269],[-56.79267,-26.72743],[-56.789567,-26.723345],[-56.790286,-26.722402],[-56.790335,-26.721883],[-56.789762,-26.721241],[-56.788714,-26.718833],[-56.78709,-26.717283],[-56.786085,-26.717024],[-56.785131,-26.715388],[-56.766059,-26.635777],[-56.766444,-26.635658],[-56.764203,-26.63576],[-56.763511,-26.635465],[-56.763234,-26.63495],[-56.763419,-26.634088],[-56.765483,-26.633211],[-56.766395,-26.632495],[-56.766706,-26.631444],[-56.766305,-26.630775],[-56.764837,-26.630389],[-56.762865,-26.630598],[-56.759194,-26.633363],[-56.753325,-26.635502],[-56.752556,-26.63551],[-56.751866,-26.635107],[-56.750997,-26.633191],[-56.750181,-26.632648],[-56.750116,-26.632048],[-56.750748,-26.631241],[-56.753057,-26.630355],[-56.753297,-26.629566],[-56.752803,-26.628486],[-56.750509,-26.627132],[-56.746169,-26.626876],[-56.745563,-26.62636],[-56.744444,-26.623875],[-56.743749,-26.623314],[-56.74061,-26.622067],[-56.739437,-26.622155],[-56.73823,-26.622767],[-56.737751,-26.624071],[-56.739416,-26.627717],[-56.739365,-26.628868],[-56.738629,-26.628989],[-56.736878,-26.627658],[-56.73489,-26.627059],[-56.732641,-26.625578],[-56.731605,-26.625292],[-56.730472,-26.625443],[-56.728916,-26.626311],[-56.726793,-26.629278],[-56.726475,-26.631796],[-56.727195,-26.63461],[-56.728512,-26.635732],[-56.730875,-26.636261],[-56.732095,-26.636899],[-56.732581,-26.638065],[-56.732408,-26.639108],[-56.731275,-26.640076],[-56.727979,-26.638129],[-56.726448,-26.637932],[-56.72532,-26.638169],[-56.724184,-26.639101],[-56.72341,-26.641853],[-56.722445,-26.642298],[-56.720437,-26.642466],[-56.719221,-26.64329],[-56.718476,-26.646006],[-56.717509,-26.647611],[-56.715715,-26.648145],[-56.712895,-26.647417],[-56.711611,-26.64759],[-56.71061,-26.648577],[-56.71032,-26.650269],[-56.709639,-26.651875],[-56.708818,-26.652483],[-56.707855,-26.652512],[-56.707025,-26.652141],[-56.705758,-26.648892],[-56.704808,-26.647766],[-56.702935,-26.646855],[-56.70145,-26.647271],[-56.700888,-26.648128],[-56.700903,-26.649717],[-56.703176,-26.651699],[-56.703676,-26.652689],[-56.703611,-26.653741],[-56.702484,-26.654695],[-56.700229,-26.654578],[-56.698996,-26.655103],[-56.698622,-26.655667],[-56.69828,-26.657725],[-56.697587,-26.658441],[-56.696683,-26.658566],[-56.695289,-26.657931],[-56.694606,-26.656728],[-56.694024,-26.65423],[-56.693637,-26.653634],[-56.692276,-26.652999],[-56.690329,-26.653112],[-56.688362,-26.653956],[-56.687339,-26.654017],[-56.686283,-26.654629],[-56.685417,-26.654726],[-56.682173,-26.652566],[-56.680642,-26.652467],[-56.679877,-26.653314],[-56.679378,-26.656356],[-56.678306,-26.657216],[-56.676963,-26.657425],[-56.675777,-26.656605],[-56.674837,-26.653068],[-56.673835,-26.652637],[-56.673038,-26.653457],[-56.672162,-26.655491],[-56.671289,-26.656148],[-56.669585,-26.656632],[-56.666922,-26.656698],[-56.666036,-26.657264],[-56.666002,-26.658253],[-56.668551,-26.658914],[-56.669577,-26.659625],[-56.670209,-26.660457],[-56.670215,-26.661256],[-56.669644,-26.661724],[-56.667685,-26.661471],[-56.665612,-26.661629],[-56.664322,-26.66354],[-56.665339,-26.666703],[-56.665232,-26.668327],[-56.664751,-26.669527],[-56.663984,-26.67032],[-56.662885,-26.670868],[-56.659989,-26.671669],[-56.658295,-26.671733],[-56.656523,-26.6713],[-56.655634,-26.670783],[-56.654924,-26.669594],[-56.654884,-26.668632],[-56.655304,-26.667681],[-56.659106,-26.664146],[-56.659056,-26.662936],[-56.658184,-26.66223],[-56.650166,-26.66203],[-56.647875,-26.662579],[-56.641056,-26.665533],[-56.638545,-26.665269],[-56.637245,-26.665677],[-56.635893,-26.667131],[-56.63568,-26.668611],[-56.637385,-26.668945],[-56.63812,-26.669543],[-56.638064,-26.669936],[-56.636511,-26.671571],[-56.636069,-26.672599],[-56.637628,-26.674955],[-56.637449,-26.677988],[-56.637103,-26.678989],[-56.635165,-26.681142],[-56.635093,-26.681593],[-56.635394,-26.682172],[-56.635973,-26.6823],[-56.637358,-26.680737],[-56.638443,-26.680582],[-56.639932,-26.681836],[-56.641466,-26.682377],[-56.641909,-26.681855],[-56.642029,-26.680325],[-56.642437,-26.679432],[-56.643608,-26.678216],[-56.644315,-26.677906],[-56.644944,-26.677998],[-56.645305,-26.678355],[-56.645207,-26.678956],[-56.643722,-26.679737],[-56.643271,-26.680413],[-56.643225,-26.681185],[-56.644055,-26.682059],[-56.646905,-26.682558],[-56.647918,-26.683563],[-56.647921,-26.684596],[-56.646531,-26.685351],[-56.645975,-26.68605],[-56.646612,-26.687789],[-56.64779,-26.68879],[-56.648719,-26.688801],[-56.649926,-26.685707],[-56.650981,-26.685602],[-56.652112,-26.686051],[-56.652473,-26.687054],[-56.652099,-26.687893],[-56.648198,-26.690466],[-56.650209,-26.693563],[-56.650113,-26.694714],[-56.648164,-26.694962],[-56.647169,-26.696002],[-56.647648,-26.697137],[-56.64987,-26.697905],[-56.65061,-26.699496],[-56.650522,-26.70039],[-56.649523,-26.701782],[-56.649714,-26.703042],[-56.649,-26.705429],[-56.649205,-26.706842],[-56.649988,-26.708578],[-56.650739,-26.709008],[-56.651672,-26.709092],[-56.652701,-26.708562],[-56.653187,-26.706577],[-56.654274,-26.706028],[-56.655639,-26.706276],[-56.655638,-26.707621],[-56.65361,-26.709697],[-56.653295,-26.710586],[-56.653445,-26.711236],[-56.655333,-26.712207],[-56.656225,-26.713757],[-56.656404,-26.716877],[-56.654982,-26.718878],[-56.655458,-26.720301],[-56.656358,-26.720678],[-56.657467,-26.720469],[-56.659064,-26.718938],[-56.660376,-26.71825],[-56.661398,-26.718275],[-56.662085,-26.718977],[-56.661626,-26.721124],[-56.662076,-26.723017],[-56.660561,-26.724539],[-56.659787,-26.725964],[-56.658796,-26.726242],[-56.656861,-26.755197],[-56.647044,-26.924488],[-56.652578,-26.925698],[-56.667483,-26.938053],[-56.670426,-26.939482],[-56.675659,-26.942934],[-56.678038,-26.944037],[-56.680183,-26.944398],[-56.681563,-26.943828],[-56.682247,-26.943857],[-56.682176,-26.944624],[-56.683782,-26.944998],[-56.684667,-26.94644],[-56.685112,-26.946531],[-56.685079,-26.945763],[-56.685353,-26.945642],[-56.685931,-26.947052],[-56.686545,-26.947514],[-56.687263,-26.947457],[-56.68764,-26.947087],[-56.687318,-26.946017],[-56.687558,-26.945832],[-56.688003,-26.945865],[-56.688172,-26.946384],[-56.688753,-26.946322],[-56.688448,-26.945527],[-56.689132,-26.945714],[-56.689541,-26.946202],[-56.689197,-26.946847],[-56.689435,-26.947213],[-56.691025,-26.947081],[-56.691609,-26.947909],[-56.691503,-26.948518],[-56.69212,-26.948587],[-56.691875,-26.950144],[-56.692314,-26.950366],[-56.691937,-26.950609],[-56.692082,-26.950826],[-56.692573,-26.951233],[-56.694528,-26.951797],[-56.695185,-26.952693],[-56.69614,-26.952564],[-56.696278,-26.952162],[-56.696722,-26.952226],[-56.696823,-26.952841],[-56.697302,-26.952842],[-56.700578,-26.955512],[-56.700713,-26.956158],[-56.700095,-26.957258],[-56.700054,-26.95965],[-56.702071,-26.960084],[-56.702033,-26.961063],[-56.70251,-26.962075],[-56.702195,-26.964801],[-56.702878,-26.965173],[-56.703528,-26.965021],[-56.703834,-26.965757],[-56.705041,-26.965019],[-56.706644,-26.962535],[-56.707667,-26.962064],[-56.708357,-26.95877],[-56.709196,-26.95864],[-56.710045,-26.959211],[-56.711573,-26.959273],[-56.712281,-26.958574],[-56.713209,-26.95854],[-56.714127,-26.959147],[-56.714656,-26.958706],[-56.717132,-26.96034],[-56.717948,-26.959742],[-56.719844,-26.960409],[-56.721459,-26.959739],[-56.723427,-26.96019],[-56.725062,-26.960103],[-56.726106,-26.959514],[-56.726792,-26.95817],[-56.727346,-26.958054],[-56.729198,-26.958603],[-56.730605,-26.959374],[-56.731239,-26.960047],[-56.73119,-26.960837],[-56.733237,-26.960796],[-56.735431,-26.961419],[-56.735715,-26.96178],[-56.73554,-26.963012],[-56.735778,-26.963582],[-56.737825,-26.964398],[-56.739158,-26.96557],[-56.740799,-26.966065],[-56.742974,-26.966033],[-56.74755,-26.96712],[-56.748727,-26.966418],[-56.749427,-26.966342],[-56.75253,-26.967084],[-56.753467,-26.966611],[-56.754463,-26.966879],[-56.755091,-26.966637],[-56.755718,-26.965766],[-56.757274,-26.966049],[-56.758244,-26.964602],[-56.759436,-26.964414],[-56.760414,-26.963562],[-56.761293,-26.963424],[-56.762081,-26.962315],[-56.763962,-26.962602],[-56.764184,-26.962883],[-56.766787,-26.961713],[-56.769756,-26.961443],[-56.771164,-26.960289],[-56.771712,-26.959229],[-56.773851,-26.959576],[-56.775569,-26.957656],[-56.77814,-26.953723],[-56.780424,-26.953063],[-56.781098,-26.952369],[-56.783191,-26.951397],[-56.785018,-26.951125],[-56.786607,-26.950233],[-56.790443,-26.949557],[-56.791207,-26.948376],[-56.792149,-26.947799],[-56.792743,-26.948062],[-56.793919,-26.947639],[-56.796318,-26.947981],[-56.799648,-26.946343],[-56.801554,-26.947208],[-56.80274,-26.946194],[-56.803464,-26.946073],[-56.806367,-26.946352],[-56.807791,-26.945984],[-56.81116,-26.946607],[-56.812293,-26.945877],[-56.813042,-26.944614],[-56.814505,-26.944359],[-56.815866,-26.944699],[-56.818067,-26.94361],[-56.819059,-26.944247],[-56.81918,-26.944911],[-56.819551,-26.945151],[-56.82395,-26.944895],[-56.825061,-26.943803],[-56.825596,-26.943849],[-56.826085,-26.943475],[-56.826172,-26.942785],[-56.826941,-26.94219],[-56.827297,-26.941156],[-56.83071,-26.93972],[-56.832024,-26.937885],[-56.83322,-26.9374],[-56.8337,-26.938747],[-56.833213,-26.940105],[-56.833634,-26.942062],[-56.83539,-26.943749],[-56.838174,-26.947719],[-56.83914,-26.950601],[-56.840214,-26.95157],[-56.841633,-26.951842],[-56.843036,-26.954823],[-56.832596,-26.965659],[-56.82966,-26.967813],[-56.834381,-26.969537],[-56.836362,-26.981358],[-56.837688,-26.981585],[-56.838125,-26.981071],[-56.838575,-26.981406],[-56.839128,-26.981199],[-56.839924,-26.981954],[-56.84163,-26.98187],[-56.84302,-26.98323],[-56.846522,-26.983645],[-56.849276,-26.985422],[-56.850035,-26.987626],[-56.852011,-26.989199],[-56.852775,-26.990229],[-56.853585,-26.991552],[-56.853649,-26.9926],[-56.854176,-26.993652],[-56.854732,-26.994488],[-56.855438,-26.994881],[-56.856288,-26.996399],[-56.856622,-26.998701],[-56.856288,-27.000331],[-56.8574,-27.002079],[-56.857346,-27.003365],[-56.857619,-27.00374],[-56.861278,-27.0075],[-56.864852,-27.009287],[-56.865291,-27.011066],[-56.867409,-27.012449],[-56.86904,-27.014586],[-56.871776,-27.015541],[-56.872789,-27.017361],[-56.875012,-27.018726],[-56.875493,-27.018221],[-56.876662,-27.019667],[-56.876835,-27.020403],[-56.879158,-27.02277],[-56.879309,-27.024048],[-56.880113,-27.025489],[-56.881262,-27.026243],[-56.883178,-27.026588],[-56.884481,-27.028147],[-56.888049,-27.028141],[-56.889116,-27.028516],[-56.890189,-27.029582],[-56.892191,-27.033001],[-56.892287,-27.034044],[-56.891385,-27.036287],[-56.891895,-27.037095],[-56.892016,-27.038098],[-56.893497,-27.04008],[-56.893715,-27.041232],[-56.89279,-27.042518],[-56.892983,-27.043651],[-56.892215,-27.046458],[-56.89204,-27.051509],[-56.891636,-27.053753],[-56.892024,-27.0548],[-56.892933,-27.055483],[-56.892776,-27.056101],[-56.893976,-27.058115],[-56.893406,-27.059374],[-56.893307,-27.061117],[-56.894596,-27.061989],[-56.894618,-27.06412],[-56.895906,-27.065561],[-56.896052,-27.066622],[-56.896778,-27.066803],[-56.897062,-27.068053],[-56.896764,-27.068956],[-56.895163,-27.070557],[-56.895477,-27.071578],[-56.894491,-27.0729],[-56.894391,-27.073916],[-56.894744,-27.074999],[-56.895414,-27.075049],[-56.896116,-27.075709],[-56.897429,-27.07613],[-56.898279,-27.076934],[-56.898617,-27.076821],[-56.899095,-27.077115],[-56.900386,-27.079757],[-56.902226,-27.080724],[-56.902244,-27.082295],[-56.902881,-27.083578],[-56.903344,-27.083736],[-56.903101,-27.084472],[-56.903697,-27.085786],[-56.903747,-27.086774],[-56.90466,-27.087163],[-56.904668,-27.087551],[-56.905816,-27.088915],[-56.904082,-27.091068],[-56.903072,-27.092999],[-56.903265,-27.093509],[-56.902545,-27.093771],[-56.901116,-27.09516],[-56.900243,-27.095064],[-56.899955,-27.095416],[-56.900008,-27.096676],[-56.899466,-27.098323],[-56.900354,-27.098622],[-56.900825,-27.10027],[-56.901671,-27.101133],[-56.901873,-27.103313],[-56.901625,-27.10506],[-56.901997,-27.105634],[-56.90163,-27.106175],[-56.902169,-27.107119],[-56.90176,-27.108333],[-56.902543,-27.109029],[-56.902398,-27.109624],[-56.903368,-27.11065],[-56.905693,-27.114692],[-56.906201,-27.115157],[-56.907331,-27.115207],[-56.907999,-27.115605],[-56.908534,-27.117045],[-56.908338,-27.117768],[-56.909688,-27.118676],[-56.910035,-27.121159],[-56.910897,-27.121674],[-56.911724,-27.124103],[-56.913118,-27.126673],[-56.914846,-27.128597],[-56.915225,-27.129747],[-56.914969,-27.129739],[-56.915283,-27.141377],[-56.92135,-27.161152],[-56.921544,-27.164777],[-56.921313,-27.166768],[-56.920454,-27.16856],[-56.91985,-27.169336],[-56.914389,-27.17249],[-56.96618,-27.174065],[-56.966137,-27.174257],[-56.966791,-27.172628],[-56.966024,-27.17177],[-56.965599,-27.170415],[-56.964298,-27.169413],[-56.964067,-27.168848],[-56.963072,-27.168297],[-56.96294,-27.166298],[-56.963315,-27.165269],[-56.963247,-27.164411],[-56.962546,-27.163679],[-56.961626,-27.163377],[-56.96147,-27.160862],[-56.962053,-27.159418],[-56.962064,-27.158104],[-56.961699,-27.157129],[-56.960471,-27.15544],[-56.959991,-27.154],[-56.956595,-27.15041],[-56.955769,-27.148298],[-56.957092,-27.146564],[-56.957138,-27.144944],[-56.955509,-27.142366],[-56.955378,-27.140804],[-56.953438,-27.136176],[-56.953292,-27.13391],[-56.952208,-27.131206],[-56.951865,-27.129291],[-56.951933,-27.128095],[-56.953141,-27.125468],[-56.953174,-27.124028],[-56.953921,-27.122417],[-56.953698,-27.122114],[-56.953904,-27.121613],[-56.953322,-27.121397],[-56.952926,-27.119261]]]}}]}
