{"type":"FeatureCollection","name":"distrito","features":[{"type":"Feature","properties":{"clave":"4-27","nombre":"Paso Yobai"},"geometry":{"type":"Polygon","coordinates":[[[-55.997689,-25.872776],[-55.999246,-25.873559],[-56.003622,-25.873331],[-56.006717,-25.874192],[-56.009762,-25.877585],[-56.011991,-25.877388],[-56.015147,-25.875541],[-56.016883,-25.873602],[-56.030236,-25.870703],[-56.031367,-25.868174],[-56.033131,-25.866154],[-56.033612,-25.864898],[-56.033785,-25.862741],[-56.035564,-25.860098],[-56.035107,-25.859364],[-56.035267,-25.858381],[-56.034356,-25.856528],[-56.034539,-25.852484],[-56.035649,-25.851115],[-56.036633,-25.850408],[-56.037433,-25.84826],[-56.036435,-25.846],[-56.034823,-25.843958],[-56.035013,-25.839467],[-56.035535,-25.838066],[-56.034196,-25.83501],[-56.033235,-25.831771],[-56.033778,-25.825712],[-56.032484,-25.821256],[-56.033958,-25.816928],[-56.033993,-25.815456],[-56.033762,-25.812425],[-56.032663,-25.809023],[-56.032698,-25.806165],[-56.032941,-25.805788],[-56.032179,-25.802564],[-56.031238,-25.801289],[-56.030702,-25.799276],[-56.029072,-25.795771],[-56.030662,-25.794048],[-56.032478,-25.79387],[-56.033694,-25.793441],[-56.035343,-25.793447],[-56.036315,-25.79269],[-56.036414,-25.79038],[-56.035783,-25.788899],[-56.034003,-25.786409],[-56.033441,-25.783168],[-56.033903,-25.782006],[-56.037319,-25.779419],[-56.038455,-25.777341],[-56.038818,-25.773479],[-56.038455,-25.771702],[-56.039206,-25.769865],[-56.039152,-25.769174],[-56.038413,-25.768537],[-56.038455,-25.76824],[-56.039809,-25.767359],[-56.04078,-25.766196],[-56.042301,-25.768825],[-56.043914,-25.76996],[-56.049971,-25.771331],[-56.04998,-25.773661],[-56.051507,-25.775531],[-56.051847,-25.775555],[-56.057006,-25.771151],[-56.057997,-25.770841],[-56.058888,-25.77222],[-56.059665,-25.771493],[-56.060836,-25.769176],[-56.060831,-25.767799],[-56.06019,-25.765853],[-56.060972,-25.764341],[-56.062433,-25.76399],[-56.063888,-25.765101],[-56.064177,-25.764168],[-56.06582,-25.763623],[-56.065989,-25.760766],[-56.064725,-25.757422],[-56.06408,-25.756632],[-56.063601,-25.753257],[-56.064364,-25.751361],[-56.065276,-25.750306],[-56.066038,-25.748568],[-56.066143,-25.747259],[-56.066512,-25.746648],[-56.068157,-25.745476],[-56.069466,-25.746134],[-56.070416,-25.747169],[-56.070945,-25.746812],[-56.071706,-25.747223],[-56.072132,-25.746761],[-56.073496,-25.746331],[-56.074267,-25.746675],[-56.074323,-25.746034],[-56.076033,-25.745214],[-56.076437,-25.745501],[-56.077135,-25.744869],[-56.077959,-25.743511],[-56.078074,-25.741317],[-56.078666,-25.739894],[-56.078,-25.739488],[-56.077904,-25.738418],[-56.079772,-25.736123],[-56.080605,-25.733884],[-56.08179,-25.733711],[-56.082263,-25.733046],[-56.080912,-25.730112],[-56.080552,-25.727884],[-56.081651,-25.725245],[-56.081466,-25.724621],[-56.081896,-25.722976],[-56.082469,-25.722604],[-56.084392,-25.722653],[-56.08488,-25.721983],[-56.08533,-25.722121],[-56.085891,-25.721741],[-56.087883,-25.722047],[-56.091255,-25.721156],[-56.092203,-25.720399],[-56.093064,-25.718382],[-56.096238,-25.714523],[-56.097131,-25.71131],[-56.096673,-25.710169],[-56.095926,-25.709397],[-56.096322,-25.707797],[-56.095163,-25.707045],[-56.095344,-25.706247],[-56.094903,-25.705129],[-56.096013,-25.703795],[-56.096015,-25.703068],[-56.097543,-25.701425],[-56.099767,-25.699976],[-56.100171,-25.69903],[-56.099261,-25.697409],[-56.099712,-25.696526],[-56.100177,-25.696782],[-56.100278,-25.696548],[-56.099824,-25.695277],[-56.099813,-25.692942],[-56.100286,-25.691528],[-56.101544,-25.689698],[-56.102128,-25.687015],[-56.100914,-25.683829],[-56.106556,-25.678785],[-56.10805,-25.676902],[-56.109027,-25.676466],[-56.109642,-25.67674],[-56.110016,-25.675849],[-56.111064,-25.675792],[-56.112453,-25.674672],[-56.11231,-25.673565],[-56.113144,-25.672956],[-56.112701,-25.671888],[-56.112844,-25.671469],[-56.112507,-25.671191],[-56.112601,-25.670659],[-56.110854,-25.66989],[-56.110877,-25.665836],[-56.111642,-25.665118],[-56.112049,-25.664208],[-56.113577,-25.6635],[-56.1143,-25.662737],[-56.115219,-25.662214],[-56.116659,-25.662169],[-56.11702,-25.661412],[-56.116941,-25.660712],[-56.117541,-25.659867],[-56.117099,-25.659526],[-56.117967,-25.659003],[-56.118457,-25.659177],[-56.118619,-25.658185],[-56.118119,-25.658128],[-56.117424,-25.658656],[-56.116774,-25.658476],[-56.116421,-25.658903],[-56.116013,-25.658476],[-56.115507,-25.658902],[-56.11475,-25.65864],[-56.115356,-25.659348],[-56.115193,-25.65969],[-56.113994,-25.658956],[-56.113655,-25.659342],[-56.114237,-25.659621],[-56.113666,-25.660024],[-56.113073,-25.659578],[-56.11241,-25.660125],[-56.111736,-25.659737],[-56.111352,-25.660922],[-56.110885,-25.660522],[-56.11125,-25.659617],[-56.108328,-25.660001],[-56.107759,-25.659144],[-56.108097,-25.658681],[-56.106717,-25.658889],[-56.106533,-25.658617],[-56.107235,-25.657809],[-56.107665,-25.658213],[-56.108327,-25.657716],[-56.109458,-25.657818],[-56.109777,-25.656547],[-56.110869,-25.656747],[-56.11073,-25.655229],[-56.110098,-25.655379],[-56.109469,-25.654752],[-56.106775,-25.654004],[-56.102121,-25.654432],[-56.10179,-25.654037],[-56.101277,-25.651095],[-56.099537,-25.652046],[-56.098182,-25.653509],[-56.097641,-25.653537],[-56.09694,-25.652364],[-56.097792,-25.650852],[-56.09773,-25.650387],[-56.094231,-25.649923],[-56.095039,-25.647413],[-56.093946,-25.644498],[-56.09177,-25.6443],[-56.089992,-25.644939],[-56.088564,-25.646212],[-56.08618,-25.64748],[-56.085969,-25.646792],[-56.085222,-25.647049],[-56.084511,-25.64653],[-56.084821,-25.644469],[-56.083905,-25.644115],[-56.08386,-25.642417],[-56.082711,-25.641877],[-56.083029,-25.642656],[-56.082896,-25.643508],[-56.082392,-25.643569],[-56.082121,-25.644136],[-56.081679,-25.64393],[-56.080319,-25.644106],[-56.079437,-25.643293],[-56.079729,-25.639814],[-56.079112,-25.639421],[-56.077069,-25.63925],[-56.0735,-25.640627],[-56.073756,-25.642385],[-56.072592,-25.644166],[-56.071909,-25.644468],[-56.071057,-25.644106],[-56.070882,-25.643527],[-56.070339,-25.643407],[-56.06967,-25.642161],[-56.067722,-25.640907],[-56.067706,-25.641471],[-56.067042,-25.642194],[-56.067382,-25.642638],[-56.067066,-25.642767],[-56.066868,-25.643651],[-56.067025,-25.645115],[-56.066485,-25.645517],[-56.066345,-25.64637],[-56.065522,-25.646672],[-56.065946,-25.647243],[-56.065443,-25.647177],[-56.065539,-25.64785],[-56.064941,-25.648244],[-56.065731,-25.648659],[-56.065293,-25.648918],[-56.065568,-25.649263],[-56.065201,-25.649482],[-56.065971,-25.650015],[-56.06566,-25.650289],[-56.065792,-25.650624],[-56.064918,-25.65125],[-56.065553,-25.651448],[-56.064932,-25.651887],[-56.06534,-25.652142],[-56.065307,-25.652625],[-56.065037,-25.652854],[-56.064808,-25.65227],[-56.064311,-25.653201],[-56.062348,-25.655252],[-56.062409,-25.656462],[-56.062127,-25.656885],[-56.060845,-25.657134],[-56.059615,-25.65681],[-56.058375,-25.657068],[-56.057788,-25.659534],[-56.056476,-25.661381],[-56.055572,-25.661303],[-56.054299,-25.660378],[-56.05407,-25.659072],[-56.052919,-25.657299],[-56.050345,-25.658578],[-56.048983,-25.658046],[-56.04845,-25.658218],[-56.048063,-25.657543],[-56.046408,-25.658056],[-56.045546,-25.658777],[-56.044635,-25.658528],[-56.044143,-25.658782],[-56.043233,-25.658288],[-56.042514,-25.658509],[-56.042246,-25.658823],[-56.04258,-25.65911],[-56.042071,-25.660046],[-56.042428,-25.661073],[-56.042216,-25.66183],[-56.041659,-25.661429],[-56.040078,-25.661762],[-56.039696,-25.661272],[-56.038759,-25.661062],[-56.038249,-25.661371],[-56.037848,-25.661133],[-56.037684,-25.661389],[-56.037282,-25.661166],[-56.03567,-25.661218],[-56.034363,-25.660334],[-56.03168,-25.661724],[-56.029438,-25.661678],[-56.028433,-25.662845],[-56.028928,-25.66274],[-56.029075,-25.663427],[-56.028537,-25.663803],[-56.028593,-25.664255],[-56.027885,-25.665284],[-56.028417,-25.66559],[-56.027762,-25.666005],[-56.027956,-25.666386],[-56.027227,-25.6663],[-56.027563,-25.666853],[-56.027072,-25.666886],[-56.026159,-25.668297],[-56.023769,-25.669965],[-56.023085,-25.671293],[-56.023064,-25.671979],[-56.021628,-25.673983],[-56.020146,-25.673607],[-56.019821,-25.674169],[-56.019076,-25.673929],[-56.017506,-25.674695],[-56.017057,-25.675397],[-56.016899,-25.674881],[-56.016215,-25.675404],[-56.016218,-25.674863],[-56.015609,-25.674877],[-56.015699,-25.674363],[-56.015228,-25.67426],[-56.014567,-25.673425],[-56.014635,-25.673064],[-56.013483,-25.673178],[-56.012814,-25.67353],[-56.01305,-25.673925],[-56.012244,-25.674263],[-56.012366,-25.674755],[-56.010725,-25.675747],[-56.0096,-25.675545],[-56.008856,-25.675716],[-56.008164,-25.674926],[-56.008006,-25.673615],[-56.007285,-25.673687],[-56.006588,-25.674409],[-56.005227,-25.67463],[-56.004782,-25.671589],[-56.00456,-25.671655],[-56.004423,-25.671207],[-56.003955,-25.671285],[-56.003747,-25.670281],[-56.003168,-25.670693],[-56.003256,-25.670237],[-56.002915,-25.669869],[-56.00259,-25.670269],[-56.002061,-25.670225],[-56.001324,-25.669366],[-55.999698,-25.668881],[-55.9979,-25.666241],[-55.996678,-25.665122],[-55.996706,-25.664522],[-55.995936,-25.663668],[-55.995918,-25.662174],[-55.995665,-25.662],[-55.995471,-25.662374],[-55.994878,-25.661661],[-55.994368,-25.661689],[-55.992302,-25.660501],[-55.991622,-25.659503],[-55.991609,-25.659006],[-55.990127,-25.65789],[-55.989652,-25.656613],[-55.988704,-25.656097],[-55.986958,-25.65436],[-55.985885,-25.65405],[-55.985551,-25.652842],[-55.983426,-25.65215],[-55.983012,-25.651831],[-55.982927,-25.651095],[-55.978871,-25.648511],[-55.975265,-25.646621],[-55.973816,-25.646494],[-55.97313,-25.645889],[-55.969581,-25.641254],[-55.968351,-25.640139],[-55.966257,-25.636738],[-55.964351,-25.634585],[-55.964238,-25.633614],[-55.96294,-25.631956],[-55.962134,-25.631635],[-55.961039,-25.628747],[-55.959858,-25.628314],[-55.957751,-25.628321],[-55.954804,-25.628892],[-55.952194,-25.630115],[-55.950371,-25.630007],[-55.946439,-25.630827],[-55.943138,-25.626837],[-55.933161,-25.627229],[-55.860078,-25.656747],[-55.859171,-25.658559],[-55.858628,-25.661449],[-55.8592,-25.668113],[-55.860578,-25.670326],[-55.860977,-25.671883],[-55.861992,-25.673019],[-55.863253,-25.673814],[-55.863225,-25.674604],[-55.864544,-25.675247],[-55.863925,-25.675887],[-55.862563,-25.676292],[-55.862349,-25.677875],[-55.861755,-25.678484],[-55.857968,-25.679782],[-55.853459,-25.682433],[-55.850446,-25.683091],[-55.847122,-25.685602],[-55.844871,-25.686252],[-55.844172,-25.686156],[-55.843208,-25.686826],[-55.840902,-25.686478],[-55.839247,-25.685743],[-55.837178,-25.685342],[-55.835676,-25.685944],[-55.834725,-25.687079],[-55.833413,-25.686301],[-55.833223,-25.686633],[-55.83264,-25.68648],[-55.831519,-25.686818],[-55.831253,-25.686257],[-55.829793,-25.687261],[-55.827695,-25.687176],[-55.825499,-25.688021],[-55.82467,-25.687748],[-55.824634,-25.687197],[-55.82378,-25.687023],[-55.822899,-25.68772],[-55.821609,-25.687271],[-55.819342,-25.687975],[-55.818765,-25.687718],[-55.817469,-25.687748],[-55.816072,-25.68822],[-55.815067,-25.689358],[-55.81422,-25.689609],[-55.812267,-25.689457],[-55.811186,-25.690568],[-55.810654,-25.69181],[-55.808851,-25.692536],[-55.807671,-25.691438],[-55.803545,-25.691422],[-55.802265,-25.690771],[-55.8019,-25.690849],[-55.80102,-25.689785],[-55.79922,-25.689414],[-55.798018,-25.689788],[-55.796373,-25.69158],[-55.792684,-25.694746],[-55.786869,-25.692779],[-55.785676,-25.691631],[-55.782527,-25.689519],[-55.781344,-25.688065],[-55.776751,-25.684031],[-55.772901,-25.683367],[-55.768352,-25.681103],[-55.766773,-25.681094],[-55.761948,-25.683107],[-55.761373,-25.68377],[-55.760192,-25.68423],[-55.758275,-25.686669],[-55.755413,-25.687494],[-55.754161,-25.687587],[-55.751542,-25.689668],[-55.75056,-25.689917],[-55.750159,-25.691069],[-55.749588,-25.690766],[-55.746604,-25.691246],[-55.744953,-25.690609],[-55.743935,-25.689774],[-55.740606,-25.689384],[-55.740566,-25.688468],[-55.740116,-25.687963],[-55.739401,-25.687853],[-55.737815,-25.68685],[-55.736676,-25.686741],[-55.735865,-25.684657],[-55.734881,-25.683787],[-55.733955,-25.683404],[-55.732992,-25.683666],[-55.732329,-25.683155],[-55.730685,-25.682748],[-55.73028,-25.681742],[-55.729367,-25.680863],[-55.724257,-25.677595],[-55.723323,-25.677108],[-55.721012,-25.676668],[-55.720324,-25.675498],[-55.719458,-25.675332],[-55.717899,-25.675585],[-55.716551,-25.675257],[-55.714871,-25.673933],[-55.713932,-25.674046],[-55.71188,-25.67359],[-55.711399,-25.673925],[-55.709174,-25.674095],[-55.706209,-25.674926],[-55.704234,-25.676308],[-55.701855,-25.676892],[-55.700589,-25.67754],[-55.696371,-25.677656],[-55.696036,-25.677784],[-55.696596,-25.678344],[-55.695766,-25.678503],[-55.695154,-25.6782],[-55.693944,-25.678532],[-55.693557,-25.677739],[-55.693165,-25.6776],[-55.693495,-25.67693],[-55.69338,-25.676112],[-55.692903,-25.675462],[-55.693197,-25.675131],[-55.692785,-25.674906],[-55.692459,-25.674081],[-55.690854,-25.672902],[-55.688106,-25.67267],[-55.6883,-25.671976],[-55.6877,-25.671813],[-55.688082,-25.671437],[-55.686964,-25.670831],[-55.687466,-25.670028],[-55.686518,-25.669378],[-55.686806,-25.668893],[-55.686607,-25.668494],[-55.684362,-25.666804],[-55.683771,-25.666031],[-55.683224,-25.666003],[-55.682665,-25.665547],[-55.682964,-25.664037],[-55.682161,-25.663317],[-55.680684,-25.662662],[-55.680768,-25.661711],[-55.679334,-25.660443],[-55.679389,-25.659454],[-55.679729,-25.659719],[-55.67991,-25.659446],[-55.679482,-25.658724],[-55.679739,-25.657859],[-55.679431,-25.657626],[-55.679528,-25.656417],[-55.680097,-25.655885],[-55.679729,-25.655611],[-55.679731,-25.654212],[-55.679083,-25.654039],[-55.678917,-25.653482],[-55.678017,-25.65328],[-55.677871,-25.653062],[-55.678421,-25.652963],[-55.678243,-25.652496],[-55.676929,-25.651875],[-55.676545,-25.651858],[-55.675889,-25.65252],[-55.67572,-25.651851],[-55.675098,-25.651556],[-55.6748,-25.651598],[-55.674542,-25.652291],[-55.673996,-25.651713],[-55.674001,-25.65235],[-55.672908,-25.652908],[-55.67285,-25.652362],[-55.671638,-25.652396],[-55.671432,-25.651518],[-55.670604,-25.652003],[-55.669545,-25.651632],[-55.669515,-25.650562],[-55.669241,-25.650505],[-55.669043,-25.651027],[-55.668715,-25.650979],[-55.668658,-25.650662],[-55.668914,-25.649748],[-55.66981,-25.649251],[-55.669651,-25.648062],[-55.669084,-25.647249],[-55.668533,-25.647257],[-55.66766,-25.646572],[-55.666666,-25.646847],[-55.666603,-25.646206],[-55.666345,-25.646109],[-55.666542,-25.645794],[-55.666021,-25.645763],[-55.664396,-25.646809],[-55.663957,-25.64666],[-55.663745,-25.647245],[-55.663024,-25.647387],[-55.662917,-25.647888],[-55.662331,-25.647602],[-55.661366,-25.648785],[-55.65994,-25.649138],[-55.658198,-25.649054],[-55.657629,-25.649722],[-55.656431,-25.650103],[-55.654266,-25.649808],[-55.652641,-25.648994],[-55.651736,-25.647735],[-55.65072,-25.64764],[-55.650374,-25.64733],[-55.646557,-25.647872],[-55.643999,-25.647478],[-55.641612,-25.646693],[-55.641524,-25.646363],[-55.640663,-25.646102],[-55.640521,-25.645884],[-55.641067,-25.645659],[-55.640839,-25.645436],[-55.639548,-25.645293],[-55.638928,-25.644944],[-55.637873,-25.646627],[-55.637475,-25.646519],[-55.637407,-25.648139],[-55.636972,-25.647901],[-55.636326,-25.649461],[-55.635451,-25.649353],[-55.634094,-25.650451],[-55.633585,-25.65027],[-55.633582,-25.650713],[-55.634874,-25.650612],[-55.635225,-25.651085],[-55.635941,-25.650816],[-55.635948,-25.652076],[-55.636559,-25.652023],[-55.6368,-25.653515],[-55.63761,-25.654114],[-55.637383,-25.65468],[-55.638081,-25.655224],[-55.638791,-25.655217],[-55.639244,-25.655962],[-55.638957,-25.656451],[-55.641033,-25.658041],[-55.64229,-25.659448],[-55.641594,-25.659961],[-55.641986,-25.660542],[-55.642898,-25.661056],[-55.64229,-25.66166],[-55.64296,-25.661698],[-55.642623,-25.6622],[-55.642902,-25.662794],[-55.641563,-25.664421],[-55.642369,-25.665512],[-55.642159,-25.666778],[-55.642944,-25.666686],[-55.64322,-25.667185],[-55.643018,-25.667594],[-55.642325,-25.667317],[-55.642354,-25.667985],[-55.641583,-25.667743],[-55.641959,-25.668383],[-55.641462,-25.668817],[-55.642812,-25.66933],[-55.642271,-25.669917],[-55.642732,-25.670512],[-55.642215,-25.671126],[-55.64249,-25.671517],[-55.643192,-25.671135],[-55.643452,-25.671309],[-55.643654,-25.672724],[-55.643458,-25.673101],[-55.64227,-25.67244],[-55.6419,-25.672938],[-55.642156,-25.673365],[-55.643028,-25.673395],[-55.642804,-25.674233],[-55.643317,-25.675285],[-55.644018,-25.675224],[-55.644632,-25.674462],[-55.645074,-25.674719],[-55.644982,-25.67516],[-55.643573,-25.676357],[-55.643674,-25.676593],[-55.644334,-25.676315],[-55.644763,-25.676526],[-55.644425,-25.678234],[-55.645541,-25.678123],[-55.646398,-25.678437],[-55.646945,-25.68009],[-55.6489,-25.681409],[-55.651159,-25.683709],[-55.650924,-25.684429],[-55.651364,-25.684849],[-55.650842,-25.68521],[-55.6509,-25.685508],[-55.652931,-25.686222],[-55.652168,-25.686987],[-55.653276,-25.687412],[-55.653051,-25.688291],[-55.65224,-25.688419],[-55.652464,-25.688971],[-55.65185,-25.689304],[-55.651638,-25.689948],[-55.652406,-25.69023],[-55.652969,-25.690863],[-55.653874,-25.691061],[-55.653325,-25.691828],[-55.655113,-25.691668],[-55.655495,-25.69099],[-55.655822,-25.691165],[-55.656174,-25.692089],[-55.655272,-25.69362],[-55.655587,-25.694372],[-55.655379,-25.694587],[-55.654764,-25.694175],[-55.65454,-25.69462],[-55.654681,-25.69556],[-55.655401,-25.695526],[-55.655147,-25.696188],[-55.655655,-25.695854],[-55.656355,-25.695941],[-55.656626,-25.696531],[-55.656224,-25.697069],[-55.656931,-25.697558],[-55.657562,-25.696986],[-55.657883,-25.698009],[-55.658743,-25.697376],[-55.658987,-25.6975],[-55.658693,-25.698148],[-55.65943,-25.697902],[-55.660708,-25.698004],[-55.662527,-25.699718],[-55.662106,-25.700491],[-55.662073,-25.702747],[-55.663427,-25.703785],[-55.663182,-25.705168],[-55.663499,-25.705925],[-55.665631,-25.707836],[-55.665073,-25.709352],[-55.664729,-25.709047],[-55.664336,-25.709346],[-55.662919,-25.708836],[-55.662938,-25.709328],[-55.663635,-25.709696],[-55.663104,-25.710002],[-55.662967,-25.711545],[-55.661901,-25.713269],[-55.664491,-25.714272],[-55.664555,-25.715013],[-55.665407,-25.714642],[-55.665579,-25.715411],[-55.666487,-25.715198],[-55.666715,-25.715665],[-55.667861,-25.71637],[-55.668394,-25.717779],[-55.669638,-25.717682],[-55.669751,-25.718631],[-55.670144,-25.718933],[-55.670297,-25.719729],[-55.670819,-25.719892],[-55.670813,-25.720537],[-55.671625,-25.720657],[-55.671176,-25.721231],[-55.672364,-25.722389],[-55.672206,-25.722969],[-55.67169,-25.722951],[-55.671156,-25.722129],[-55.670644,-25.722477],[-55.669873,-25.722109],[-55.668348,-25.722907],[-55.667263,-25.72292],[-55.667518,-25.723708],[-55.666686,-25.724012],[-55.667742,-25.724211],[-55.667178,-25.724422],[-55.667526,-25.725039],[-55.666848,-25.72525],[-55.666451,-25.726239],[-55.667678,-25.726996],[-55.66777,-25.728035],[-55.668034,-25.727915],[-55.668161,-25.727086],[-55.668607,-25.727194],[-55.66785,-25.729214],[-55.668577,-25.729252],[-55.669344,-25.728862],[-55.6691,-25.729473],[-55.670484,-25.729667],[-55.670539,-25.731094],[-55.671301,-25.732347],[-55.675054,-25.734466],[-55.674719,-25.734901],[-55.675147,-25.735402],[-55.673929,-25.736059],[-55.674438,-25.736709],[-55.673667,-25.737298],[-55.674354,-25.738374],[-55.675078,-25.738331],[-55.67565,-25.737704],[-55.675925,-25.737801],[-55.67609,-25.738096],[-55.675736,-25.738639],[-55.675956,-25.739269],[-55.677898,-25.740149],[-55.677821,-25.740568],[-55.678344,-25.741033],[-55.679177,-25.74119],[-55.679038,-25.742218],[-55.680772,-25.742427],[-55.682292,-25.741588],[-55.682531,-25.74099],[-55.681337,-25.740798],[-55.681064,-25.740304],[-55.682405,-25.74046],[-55.683578,-25.739934],[-55.684389,-25.737652],[-55.685383,-25.737309],[-55.685576,-25.738065],[-55.686854,-25.738117],[-55.688795,-25.739042],[-55.688355,-25.739525],[-55.688813,-25.73999],[-55.688305,-25.74078],[-55.688604,-25.741063],[-55.688366,-25.741679],[-55.68886,-25.741426],[-55.6893,-25.741877],[-55.690072,-25.74164],[-55.690023,-25.742082],[-55.689381,-25.742415],[-55.689608,-25.742986],[-55.690535,-25.743482],[-55.691695,-25.742991],[-55.691858,-25.742694],[-55.691201,-25.742874],[-55.691421,-25.742641],[-55.691125,-25.742214],[-55.691622,-25.741997],[-55.691909,-25.742289],[-55.692603,-25.741604],[-55.691947,-25.740763],[-55.693767,-25.739565],[-55.693945,-25.740248],[-55.694397,-25.740329],[-55.69428,-25.739728],[-55.694928,-25.739223],[-55.694471,-25.73856],[-55.695119,-25.738543],[-55.694964,-25.737969],[-55.695611,-25.737446],[-55.695492,-25.736876],[-55.696121,-25.736629],[-55.696351,-25.73581],[-55.697132,-25.735451],[-55.697464,-25.734673],[-55.698228,-25.734671],[-55.699215,-25.732743],[-55.700183,-25.732092],[-55.699873,-25.729738],[-55.700292,-25.729453],[-55.701241,-25.729398],[-55.701857,-25.729724],[-55.702064,-25.729523],[-55.701603,-25.728963],[-55.701745,-25.726247],[-55.702414,-25.725688],[-55.702619,-25.724679],[-55.703397,-25.725264],[-55.70398,-25.724994],[-55.702263,-25.723425],[-55.702205,-25.722964],[-55.702773,-25.722789],[-55.702282,-25.722283],[-55.702352,-25.721485],[-55.703032,-25.721405],[-55.70336,-25.72209],[-55.704125,-25.722079],[-55.705355,-25.720406],[-55.705995,-25.72154],[-55.70604,-25.719698],[-55.707509,-25.71861],[-55.707931,-25.719264],[-55.708255,-25.719127],[-55.70764,-25.717681],[-55.70786,-25.717453],[-55.71084,-25.71803],[-55.710146,-25.718837],[-55.710453,-25.719309],[-55.712458,-25.71953],[-55.71376,-25.719194],[-55.714155,-25.72024],[-55.714537,-25.719706],[-55.714515,-25.717896],[-55.715312,-25.717939],[-55.715848,-25.719122],[-55.716601,-25.718162],[-55.717231,-25.718023],[-55.716991,-25.717696],[-55.71755,-25.717412],[-55.716385,-25.716968],[-55.716758,-25.716055],[-55.719377,-25.71546],[-55.719622,-25.715011],[-55.720361,-25.715292],[-55.720612,-25.714536],[-55.721696,-25.714577],[-55.720946,-25.714941],[-55.722262,-25.715589],[-55.72211,-25.714518],[-55.722971,-25.715239],[-55.72282,-25.713888],[-55.723868,-25.713779],[-55.724052,-25.713357],[-55.723796,-25.712605],[-55.724759,-25.713692],[-55.725428,-25.713734],[-55.72434,-25.711156],[-55.7274,-25.711106],[-55.72754,-25.710873],[-55.726975,-25.710339],[-55.727761,-25.71017],[-55.727799,-25.709362],[-55.728473,-25.710592],[-55.729301,-25.711127],[-55.730382,-25.711123],[-55.731921,-25.710626],[-55.732838,-25.711442],[-55.733533,-25.71157],[-55.736014,-25.710382],[-55.737996,-25.711117],[-55.741608,-25.711184],[-55.7417,-25.711754],[-55.742147,-25.712146],[-55.741786,-25.713258],[-55.742537,-25.714352],[-55.746422,-25.715275],[-55.747467,-25.716164],[-55.74725,-25.71675],[-55.747638,-25.717466],[-55.749722,-25.717755],[-55.750491,-25.718493],[-55.752556,-25.719025],[-55.752993,-25.719485],[-55.754098,-25.719431],[-55.754487,-25.720125],[-55.754775,-25.719861],[-55.754665,-25.718885],[-55.755838,-25.718633],[-55.756501,-25.718075],[-55.757139,-25.718202],[-55.756625,-25.719037],[-55.757334,-25.719084],[-55.758683,-25.716947],[-55.759513,-25.717879],[-55.762213,-25.717974],[-55.762329,-25.718743],[-55.761708,-25.718882],[-55.762307,-25.719813],[-55.761767,-25.719691],[-55.761743,-25.720178],[-55.761872,-25.720441],[-55.762604,-25.720199],[-55.76204,-25.720921],[-55.762431,-25.720865],[-55.7619,-25.721868],[-55.762756,-25.723004],[-55.762231,-25.723044],[-55.762523,-25.723616],[-55.761593,-25.723951],[-55.762709,-25.724136],[-55.762454,-25.724834],[-55.763854,-25.724421],[-55.764025,-25.724883],[-55.764567,-25.724838],[-55.764435,-25.725857],[-55.765268,-25.726668],[-55.765058,-25.7271],[-55.764389,-25.727396],[-55.764728,-25.727864],[-55.763856,-25.729071],[-55.76321,-25.728204],[-55.762445,-25.729104],[-55.762392,-25.731591],[-55.764056,-25.731962],[-55.764798,-25.73284],[-55.764052,-25.733786],[-55.764095,-25.734509],[-55.763287,-25.73503],[-55.763133,-25.734442],[-55.762617,-25.734334],[-55.763006,-25.735601],[-55.761781,-25.737004],[-55.761984,-25.737177],[-55.76237,-25.73681],[-55.762648,-25.737729],[-55.76217,-25.737431],[-55.761833,-25.737541],[-55.761147,-25.738289],[-55.761391,-25.738783],[-55.760675,-25.739265],[-55.760706,-25.739545],[-55.761811,-25.739848],[-55.761116,-25.740185],[-55.761644,-25.74112],[-55.759879,-25.746477],[-55.760553,-25.748193],[-55.759764,-25.748751],[-55.757636,-25.748656],[-55.756845,-25.749345],[-55.757647,-25.747473],[-55.757402,-25.747052],[-55.756894,-25.747097],[-55.755612,-25.749655],[-55.75465,-25.750414],[-55.754826,-25.751011],[-55.754392,-25.751062],[-55.754507,-25.751501],[-55.75409,-25.752156],[-55.754082,-25.753054],[-55.754666,-25.752364],[-55.755315,-25.752478],[-55.755364,-25.753711],[-55.754037,-25.754381],[-55.752171,-25.754036],[-55.752442,-25.755695],[-55.75316,-25.755457],[-55.753904,-25.756118],[-55.754119,-25.756761],[-55.753594,-25.757231],[-55.75512,-25.757713],[-55.755063,-25.758146],[-55.757715,-25.757735],[-55.758333,-25.758079],[-55.758755,-25.759117],[-55.759912,-25.759822],[-55.760373,-25.759812],[-55.760433,-25.760404],[-55.759981,-25.76031],[-55.759688,-25.761142],[-55.759138,-25.761625],[-55.758738,-25.761423],[-55.758425,-25.760468],[-55.758029,-25.760478],[-55.75804,-25.760979],[-55.759098,-25.762713],[-55.758902,-25.763185],[-55.758248,-25.763509],[-55.758604,-25.763851],[-55.758161,-25.763897],[-55.758146,-25.764326],[-55.757275,-25.764937],[-55.757387,-25.76561],[-55.75819,-25.765473],[-55.758237,-25.766177],[-55.759045,-25.76627],[-55.758453,-25.766594],[-55.759479,-25.767659],[-55.759106,-25.767878],[-55.759422,-25.768192],[-55.758349,-25.768359],[-55.758341,-25.768675],[-55.757905,-25.768716],[-55.75783,-25.769699],[-55.757008,-25.76925],[-55.756516,-25.76944],[-55.755155,-25.771857],[-55.755688,-25.771663],[-55.755619,-25.772394],[-55.756043,-25.771991],[-55.756317,-25.772093],[-55.756216,-25.772579],[-55.756613,-25.773052],[-55.756036,-25.773088],[-55.755806,-25.773732],[-55.756686,-25.773965],[-55.756557,-25.774989],[-55.757005,-25.774582],[-55.757484,-25.775154],[-55.75769,-25.774754],[-55.757838,-25.775067],[-55.759881,-25.775039],[-55.761053,-25.775542],[-55.759986,-25.777103],[-55.76028,-25.7779],[-55.760918,-25.778511],[-55.761353,-25.778691],[-55.762526,-25.777071],[-55.762612,-25.778232],[-55.763305,-25.778075],[-55.76304,-25.77759],[-55.763911,-25.777087],[-55.764851,-25.777402],[-55.765722,-25.776114],[-55.766315,-25.775807],[-55.766587,-25.776031],[-55.766886,-25.775668],[-55.767247,-25.775937],[-55.76893,-25.775784],[-55.769432,-25.776678],[-55.769886,-25.776772],[-55.770463,-25.776398],[-55.770014,-25.77513],[-55.770974,-25.774709],[-55.771639,-25.7749],[-55.771019,-25.775337],[-55.771488,-25.77633],[-55.771668,-25.77592],[-55.77215,-25.77615],[-55.772707,-25.775541],[-55.773818,-25.775546],[-55.774395,-25.776147],[-55.773867,-25.776774],[-55.774884,-25.777094],[-55.775876,-25.77666],[-55.775981,-25.777677],[-55.777106,-25.776752],[-55.778799,-25.776608],[-55.779264,-25.777384],[-55.778659,-25.77765],[-55.779403,-25.778071],[-55.779188,-25.778539],[-55.780197,-25.77834],[-55.780587,-25.779724],[-55.781496,-25.779335],[-55.783231,-25.781494],[-55.783599,-25.781257],[-55.78405,-25.781871],[-55.784645,-25.781587],[-55.784854,-25.781805],[-55.784592,-25.782787],[-55.785271,-25.783511],[-55.784804,-25.784599],[-55.785543,-25.784953],[-55.785107,-25.785581],[-55.786566,-25.785521],[-55.786814,-25.786115],[-55.78806,-25.785972],[-55.788428,-25.786476],[-55.788908,-25.786579],[-55.788793,-25.787043],[-55.789678,-25.787213],[-55.789392,-25.78833],[-55.79021,-25.788463],[-55.790902,-25.78823],[-55.791118,-25.78778],[-55.792009,-25.788713],[-55.792009,-25.787955],[-55.79264,-25.788145],[-55.792694,-25.788832],[-55.79318,-25.7888],[-55.793108,-25.789129],[-55.794252,-25.789386],[-55.794819,-25.79],[-55.79545,-25.789798],[-55.795174,-25.78938],[-55.795343,-25.789165],[-55.795872,-25.78954],[-55.797639,-25.791676],[-55.796704,-25.791975],[-55.797367,-25.792256],[-55.796415,-25.792885],[-55.796665,-25.793645],[-55.796472,-25.794461],[-55.798127,-25.794935],[-55.798987,-25.795561],[-55.800143,-25.794369],[-55.799677,-25.794054],[-55.799764,-25.79345],[-55.799229,-25.793183],[-55.799146,-25.792551],[-55.800145,-25.792103],[-55.800379,-25.792507],[-55.802505,-25.791238],[-55.802009,-25.790927],[-55.801837,-25.790266],[-55.802027,-25.789649],[-55.802656,-25.789442],[-55.802658,-25.789126],[-55.800659,-25.788094],[-55.801023,-25.787081],[-55.803747,-25.786779],[-55.804479,-25.787502],[-55.804233,-25.786787],[-55.804741,-25.78704],[-55.805374,-25.786241],[-55.806115,-25.786595],[-55.807401,-25.786691],[-55.808246,-25.785014],[-55.810167,-25.784023],[-55.81109,-25.784415],[-55.813625,-25.784088],[-55.814985,-25.785877],[-55.814619,-25.78689],[-55.816938,-25.78829],[-55.816864,-25.788768],[-55.816195,-25.788975],[-55.81675,-25.789156],[-55.817161,-25.78975],[-55.816536,-25.790517],[-55.817067,-25.790878],[-55.817592,-25.790418],[-55.817436,-25.79131],[-55.818154,-25.792503],[-55.820327,-25.79406],[-55.820252,-25.794556],[-55.820623,-25.794573],[-55.820686,-25.795296],[-55.819471,-25.796211],[-55.821237,-25.796758],[-55.821876,-25.797594],[-55.821479,-25.798489],[-55.821785,-25.798858],[-55.822614,-25.799149],[-55.823313,-25.798482],[-55.823814,-25.797235],[-55.824676,-25.797752],[-55.826558,-25.797822],[-55.826675,-25.798405],[-55.828125,-25.799193],[-55.828592,-25.800055],[-55.829955,-25.799668],[-55.830825,-25.800524],[-55.83139,-25.80052],[-55.832166,-25.801248],[-55.833617,-25.800966],[-55.834111,-25.80232],[-55.834335,-25.8015],[-55.834556,-25.801416],[-55.834947,-25.801875],[-55.835615,-25.800143],[-55.836257,-25.799859],[-55.837269,-25.800598],[-55.838673,-25.801029],[-55.839518,-25.801149],[-55.84028,-25.800609],[-55.840417,-25.800894],[-55.840715,-25.800748],[-55.843626,-25.80213],[-55.845305,-25.802112],[-55.846151,-25.80247],[-55.847659,-25.801638],[-55.847753,-25.802172],[-55.848217,-25.802523],[-55.84804,-25.802959],[-55.848391,-25.80387],[-55.848042,-25.80463],[-55.848368,-25.805395],[-55.850241,-25.806968],[-55.852584,-25.807948],[-55.853219,-25.809632],[-55.854081,-25.808795],[-55.853134,-25.810394],[-55.853803,-25.811637],[-55.857943,-25.813728],[-55.858062,-25.814189],[-55.857427,-25.814297],[-55.857275,-25.814734],[-55.857449,-25.814979],[-55.857935,-25.81473],[-55.858088,-25.816],[-55.860148,-25.817072],[-55.860184,-25.817682],[-55.861334,-25.81817],[-55.861942,-25.817876],[-55.86246,-25.816553],[-55.863486,-25.817184],[-55.862869,-25.817658],[-55.863407,-25.818506],[-55.864702,-25.818602],[-55.867591,-25.819641],[-55.869113,-25.820749],[-55.869329,-25.821699],[-55.870924,-25.822754],[-55.87064,-25.823172],[-55.871901,-25.824125],[-55.870937,-25.824709],[-55.870887,-25.825206],[-55.873163,-25.82623],[-55.873442,-25.82713],[-55.874435,-25.827043],[-55.875162,-25.827925],[-55.875464,-25.829923],[-55.876417,-25.830377],[-55.876375,-25.831009],[-55.876972,-25.831708],[-55.875933,-25.833921],[-55.8763,-25.8362],[-55.878117,-25.839148],[-55.880119,-25.84124],[-55.88176,-25.84356],[-55.882557,-25.84692],[-55.884104,-25.850205],[-55.886152,-25.852681],[-55.886412,-25.853712],[-55.887567,-25.855247],[-55.888979,-25.856256],[-55.889937,-25.857414],[-55.890964,-25.857815],[-55.895489,-25.862879],[-55.899399,-25.865138],[-55.90005,-25.865834],[-55.900777,-25.867528],[-55.903643,-25.8688],[-55.906151,-25.87109],[-55.908942,-25.871797],[-55.911379,-25.872989],[-55.911612,-25.874485],[-55.912352,-25.876041],[-55.935799,-25.854337],[-55.939454,-25.854367],[-55.943979,-25.854987],[-55.945132,-25.855424],[-55.946529,-25.856653],[-55.949131,-25.855792],[-55.951457,-25.85547],[-55.95324,-25.855587],[-55.955805,-25.856467],[-55.959165,-25.856979],[-55.962844,-25.856111],[-55.964173,-25.855227],[-55.972715,-25.853184],[-55.974202,-25.853113],[-55.977098,-25.853671],[-55.979345,-25.854653],[-55.983521,-25.854425],[-55.985997,-25.856695],[-55.986016,-25.857174],[-55.986647,-25.857598],[-55.986525,-25.858134],[-55.989141,-25.859566],[-55.991806,-25.862907],[-55.992091,-25.863776],[-55.99343,-25.864864],[-55.99361,-25.865646],[-55.994291,-25.866152],[-55.994744,-25.867374],[-55.995712,-25.868211],[-55.996005,-25.870028],[-55.997689,-25.872776]]]}}]}
