{"type":"FeatureCollection","name":"distrito","features":[{"type":"Feature","properties":{"clave":"15-1","nombre":"Benjamín Aceval"},"geometry":{"type":"Polygon","coordinates":[[[-57.590018,-25.068962],[-57.690801,-25.100726],[-57.693462,-25.100427],[-57.697137,-25.100649],[-57.708682,-25.100595],[-57.736476,-25.097113],[-57.739107,-25.098297],[-57.743066,-25.102097],[-57.760693,-25.102492],[-57.768137,-25.090714],[-57.766155,-25.086191],[-57.781026,-25.071691],[-57.784006,-25.066257],[-57.815753,-25.064903],[-57.815257,-24.946246],[-57.914972,-24.946696],[-57.915458,-24.839357],[-57.955497,-24.840741],[-57.954756,-24.842993],[-57.954476,-24.848598],[-57.955039,-24.852022],[-58.032039,-24.85068],[-58.037488,-24.840709],[-58.053867,-24.838445],[-58.053361,-24.842973],[-58.073203,-24.838443],[-58.08908,-24.832106],[-58.114375,-24.825761],[-58.113881,-24.746055],[-58.118849,-24.746506],[-58.121295,-24.703918],[-58.171925,-24.704841],[-58.17192,-24.70122],[-58.207793,-24.702217],[-58.22786,-24.701869],[-58.259736,-24.702341],[-58.322056,-24.701439],[-58.479784,-24.689553],[-58.485052,-24.662336],[-58.487746,-24.651636],[-58.531788,-24.272547],[-58.717981,-24.114743],[-58.712062,-23.808446],[-58.711791,-23.808027],[-58.710036,-23.809162],[-58.710085,-23.810405],[-58.709715,-23.810637],[-58.709105,-23.809484],[-58.70936,-23.80788],[-58.708618,-23.807826],[-58.707203,-23.808397],[-58.705653,-23.808221],[-58.705547,-23.807742],[-58.706394,-23.805982],[-58.706624,-23.80583],[-58.707347,-23.806494],[-58.707592,-23.805659],[-58.706349,-23.805106],[-58.705487,-23.804178],[-58.704691,-23.805201],[-58.704321,-23.805216],[-58.703751,-23.80405],[-58.704403,-23.802495],[-58.702794,-23.80212],[-58.702158,-23.802578],[-58.700311,-23.802064],[-58.700459,-23.803243],[-58.699291,-23.803345],[-58.699281,-23.803591],[-58.700656,-23.804084],[-58.700612,-23.80502],[-58.701189,-23.805367],[-58.701359,-23.805916],[-58.701015,-23.806094],[-58.69998,-23.805592],[-58.700025,-23.806468],[-58.699745,-23.806678],[-58.698301,-23.804995],[-58.696891,-23.804244],[-58.695569,-23.805024],[-58.692955,-23.807327],[-58.691797,-23.807848],[-58.689751,-23.808049],[-58.689462,-23.808836],[-58.688032,-23.808974],[-58.687622,-23.808146],[-58.687126,-23.80815],[-58.686989,-23.808852],[-58.687969,-23.810284],[-58.68782,-23.811187],[-58.688753,-23.811063],[-58.689261,-23.810568],[-58.689366,-23.809468],[-58.689762,-23.809466],[-58.69024,-23.809803],[-58.690075,-23.811478],[-58.688755,-23.811476],[-58.687459,-23.812421],[-58.687233,-23.812937],[-58.686722,-23.813105],[-58.686775,-23.813432],[-58.687958,-23.81401],[-58.687873,-23.814643],[-58.687437,-23.814599],[-58.686496,-23.813739],[-58.68569,-23.813674],[-58.685692,-23.812363],[-58.684812,-23.812488],[-58.684513,-23.813693],[-58.683593,-23.813723],[-58.683534,-23.814484],[-58.682923,-23.814851],[-58.682836,-23.815273],[-58.684622,-23.816256],[-58.684412,-23.817088],[-58.685553,-23.817385],[-58.685955,-23.818153],[-58.684972,-23.818419],[-58.684137,-23.81791],[-58.683373,-23.818593],[-58.682903,-23.817414],[-58.68257,-23.817369],[-58.682234,-23.818379],[-58.681556,-23.81843],[-58.681959,-23.818978],[-58.683622,-23.819271],[-58.683883,-23.820007],[-58.683753,-23.821225],[-58.683285,-23.821801],[-58.683166,-23.822584],[-58.682232,-23.822324],[-58.681297,-23.822965],[-58.679203,-23.822662],[-58.679202,-23.824251],[-58.677321,-23.823725],[-58.67763,-23.822247],[-58.676672,-23.822378],[-58.675758,-23.823443],[-58.675965,-23.825219],[-58.676845,-23.826582],[-58.676578,-23.826748],[-58.675086,-23.825588],[-58.673661,-23.825247],[-58.673268,-23.826569],[-58.672607,-23.826759],[-58.671807,-23.825294],[-58.670798,-23.825184],[-58.670933,-23.824253],[-58.67003,-23.824578],[-58.670571,-23.823414],[-58.669852,-23.822776],[-58.669333,-23.823646],[-58.667721,-23.822263],[-58.66653,-23.822247],[-58.666399,-23.821955],[-58.666958,-23.821307],[-58.665767,-23.821116],[-58.665405,-23.820662],[-58.66544,-23.82031],[-58.666488,-23.820127],[-58.666497,-23.819729],[-58.665562,-23.819571],[-58.665529,-23.818658],[-58.665057,-23.818848],[-58.664772,-23.81973],[-58.663708,-23.819433],[-58.664553,-23.818405],[-58.66395,-23.817816],[-58.663005,-23.818498],[-58.662809,-23.819356],[-58.662091,-23.81951],[-58.662756,-23.821158],[-58.660976,-23.820993],[-58.660382,-23.82191],[-58.659754,-23.821949],[-58.659533,-23.822958],[-58.660763,-23.823255],[-58.660612,-23.823548],[-58.659474,-23.823532],[-58.65849,-23.822672],[-58.658332,-23.823482],[-58.657922,-23.823613],[-58.657789,-23.823099],[-58.658174,-23.821829],[-58.657687,-23.821832],[-58.655472,-23.823114],[-58.657053,-23.824018],[-58.65678,-23.824592],[-58.655892,-23.824829],[-58.6546,-23.823477],[-58.653935,-23.823598],[-58.654508,-23.823009],[-58.654404,-23.822575],[-58.653156,-23.822397],[-58.652632,-23.822705],[-58.652402,-23.823047],[-58.652595,-23.823549],[-58.65337,-23.823625],[-58.652879,-23.823933],[-58.65193,-23.823401],[-58.651812,-23.82257],[-58.652345,-23.821898],[-58.650999,-23.821921],[-58.650108,-23.822512],[-58.649683,-23.822128],[-58.64951,-23.822936],[-58.650322,-23.823563],[-58.651166,-23.823476],[-58.651434,-23.824129],[-58.649035,-23.824403],[-58.648873,-23.823408],[-58.647556,-23.823452],[-58.647962,-23.824585],[-58.646737,-23.825626],[-58.648204,-23.826045],[-58.648055,-23.826762],[-58.647212,-23.827359],[-58.647503,-23.828187],[-58.647272,-23.828328],[-58.645978,-23.827401],[-58.645761,-23.827496],[-58.645144,-23.828611],[-58.644269,-23.828782],[-58.645007,-23.829568],[-58.64488,-23.829906],[-58.643176,-23.829643],[-58.643391,-23.827147],[-58.642737,-23.827104],[-58.641933,-23.827672],[-58.642103,-23.826392],[-58.641374,-23.826713],[-58.641075,-23.827783],[-58.640218,-23.827977],[-58.640249,-23.828798],[-58.639941,-23.828788],[-58.639628,-23.827933],[-58.64017,-23.826781],[-58.639372,-23.826142],[-58.638977,-23.827949],[-58.6374,-23.829353],[-58.636664,-23.82911],[-58.635947,-23.829513],[-58.635527,-23.829135],[-58.634871,-23.8304],[-58.633526,-23.830643],[-58.634314,-23.831317],[-58.634079,-23.831858],[-58.633327,-23.832215],[-58.632374,-23.831646],[-58.630875,-23.831808],[-58.630779,-23.830941],[-58.630193,-23.83139],[-58.629845,-23.832776],[-58.629375,-23.833366],[-58.628784,-23.833171],[-58.629232,-23.831349],[-58.627961,-23.831088],[-58.627964,-23.829635],[-58.627044,-23.830167],[-58.626825,-23.830051],[-58.626937,-23.8295],[-58.627871,-23.828983],[-58.627448,-23.828567],[-58.625875,-23.828157],[-58.624597,-23.828467],[-58.624348,-23.829127],[-58.624849,-23.829637],[-58.624652,-23.830106],[-58.623177,-23.830047],[-58.621911,-23.829538],[-58.621969,-23.830276],[-58.622817,-23.830646],[-58.622716,-23.83087],[-58.621278,-23.830433],[-58.620678,-23.829041],[-58.620684,-23.82828],[-58.621265,-23.827541],[-58.621588,-23.827926],[-58.621969,-23.827772],[-58.621948,-23.827262],[-58.621551,-23.827029],[-58.620075,-23.827464],[-58.618998,-23.82745],[-58.619297,-23.827973],[-58.619134,-23.828359],[-58.617633,-23.828217],[-58.617296,-23.827632],[-58.61704,-23.82767],[-58.617433,-23.828829],[-58.618206,-23.829361],[-58.619104,-23.829402],[-58.61921,-23.829859],[-58.617683,-23.829799],[-58.61759,-23.830937],[-58.616781,-23.83059],[-58.616321,-23.830769],[-58.616048,-23.83206],[-58.614758,-23.832513],[-58.614556,-23.833218],[-58.613363,-23.833241],[-58.61297,-23.833712],[-58.612573,-23.833633],[-58.611641,-23.832196],[-58.612155,-23.831139],[-58.610538,-23.830465],[-58.610095,-23.831703],[-58.608881,-23.832179],[-58.60871,-23.833152],[-58.607826,-23.833111],[-58.607187,-23.833409],[-58.606977,-23.832682],[-58.606605,-23.832603],[-58.606252,-23.83372],[-58.606718,-23.834186],[-58.607142,-23.834183],[-58.6069,-23.83449],[-58.605759,-23.834437],[-58.604873,-23.832239],[-58.604543,-23.832756],[-58.603238,-23.833268],[-58.603682,-23.831732],[-58.602208,-23.831273],[-58.60193,-23.830763],[-58.601248,-23.831324],[-58.600447,-23.830745],[-58.599876,-23.831157],[-58.599829,-23.829772],[-58.599285,-23.829842],[-58.598559,-23.831129],[-58.598186,-23.83105],[-58.597267,-23.830017],[-58.59777,-23.829376],[-58.597235,-23.829306],[-58.596655,-23.83023],[-58.596935,-23.832767],[-58.595197,-23.833669],[-58.595408,-23.834523],[-58.594767,-23.834455],[-58.593814,-23.833559],[-58.592035,-23.834263],[-58.590562,-23.833005],[-58.589613,-23.834794],[-58.590226,-23.835728],[-58.589632,-23.835686],[-58.589167,-23.83516],[-58.5885,-23.83514],[-58.58827,-23.835282],[-58.588393,-23.836409],[-58.587455,-23.83631],[-58.587548,-23.836696],[-58.58841,-23.837102],[-58.58826,-23.837749],[-58.58748,-23.837965],[-58.588111,-23.838442],[-58.589132,-23.837662],[-58.589148,-23.838564],[-58.588132,-23.839404],[-58.5874,-23.839374],[-58.586806,-23.838873],[-58.585579,-23.839443],[-58.585418,-23.840076],[-58.586686,-23.839989],[-58.586511,-23.840647],[-58.585743,-23.840837],[-58.585073,-23.840255],[-58.585113,-23.838906],[-58.584801,-23.838356],[-58.583852,-23.838538],[-58.583546,-23.838963],[-58.584328,-23.840449],[-58.583917,-23.840605],[-58.582753,-23.839673],[-58.582653,-23.840049],[-58.583233,-23.840658],[-58.583211,-23.841081],[-58.582657,-23.840967],[-58.582044,-23.839418],[-58.581399,-23.839222],[-58.580603,-23.839461],[-58.579986,-23.840746],[-58.57775,-23.840558],[-58.577592,-23.840054],[-58.57722,-23.839963],[-58.577097,-23.840776],[-58.576584,-23.840838],[-58.575722,-23.838893],[-58.57485,-23.838944],[-58.57519,-23.838038],[-58.576677,-23.837642],[-58.576569,-23.836938],[-58.576104,-23.836588],[-58.574606,-23.836892],[-58.57364,-23.838611],[-58.572475,-23.837189],[-58.571971,-23.837094],[-58.571347,-23.837556],[-58.570987,-23.837473],[-58.571019,-23.836585],[-58.570026,-23.835793],[-58.570755,-23.835472],[-58.570817,-23.835132],[-58.569263,-23.834918],[-58.568966,-23.834603],[-58.569078,-23.834086],[-58.570792,-23.833466],[-58.570572,-23.833103],[-58.569453,-23.832746],[-58.57045,-23.832153],[-58.570407,-23.83159],[-58.569917,-23.831288],[-58.569225,-23.831304],[-58.568344,-23.831943],[-58.567852,-23.831394],[-58.567183,-23.831221],[-58.568029,-23.832801],[-58.566605,-23.832985],[-58.566363,-23.83429],[-58.564198,-23.832455],[-58.564067,-23.832116],[-58.564578,-23.831514],[-58.564423,-23.831268],[-58.563856,-23.831295],[-58.563308,-23.83192],[-58.562357,-23.83175],[-58.562456,-23.831303],[-58.563456,-23.830992],[-58.562937,-23.830044],[-58.561961,-23.830038],[-58.561776,-23.831096],[-58.560666,-23.83015],[-58.559868,-23.830002],[-58.558451,-23.830998],[-58.556196,-23.830929],[-58.556336,-23.832699],[-58.554685,-23.832027],[-58.55484,-23.833059],[-58.554263,-23.833758],[-58.555402,-23.833433],[-58.555853,-23.833687],[-58.554904,-23.835485],[-58.553815,-23.835764],[-58.552883,-23.834144],[-58.551949,-23.834069],[-58.552017,-23.835528],[-58.552789,-23.835689],[-58.552779,-23.836333],[-58.551852,-23.83622],[-58.551149,-23.836812],[-58.551019,-23.836179],[-58.550522,-23.836136],[-58.550291,-23.836817],[-58.551157,-23.837704],[-58.552347,-23.837204],[-58.552501,-23.838706],[-58.551574,-23.838595],[-58.551107,-23.838093],[-58.550763,-23.8382],[-58.550682,-23.839433],[-58.549749,-23.839127],[-58.549722,-23.840371],[-58.548796,-23.840248],[-58.548761,-23.841035],[-58.547751,-23.841334],[-58.547491,-23.840195],[-58.546461,-23.840024],[-58.546204,-23.840144],[-58.546454,-23.841483],[-58.546083,-23.841532],[-58.544147,-23.840063],[-58.543807,-23.841063],[-58.542477,-23.840084],[-58.538922,-23.84158],[-58.538523,-23.840936],[-58.538151,-23.841067],[-58.538446,-23.842041],[-58.538239,-23.842266],[-58.537754,-23.841187],[-58.536394,-23.84136],[-58.53561,-23.840597],[-58.535018,-23.840542],[-58.533961,-23.841784],[-58.532747,-23.84212],[-58.532294,-23.843682],[-58.531581,-23.843755],[-58.532351,-23.844738],[-58.531727,-23.845399],[-58.531019,-23.845619],[-58.532295,-23.846253],[-58.531743,-23.847323],[-58.531695,-23.848216],[-58.533287,-23.848419],[-58.533392,-23.848854],[-58.532971,-23.849279],[-58.532204,-23.849456],[-58.531572,-23.849051],[-58.531005,-23.849055],[-58.53101,-23.848075],[-58.529745,-23.8482],[-58.529121,-23.847452],[-58.528998,-23.846513],[-58.527394,-23.84664],[-58.527621,-23.84773],[-58.526709,-23.847689],[-58.526906,-23.84831],[-58.526484,-23.848664],[-58.525019,-23.848379],[-58.524174,-23.848618],[-58.523424,-23.84793],[-58.522245,-23.847948],[-58.522214,-23.847174],[-58.521465,-23.847013],[-58.521249,-23.847379],[-58.521986,-23.84951],[-58.521653,-23.84963],[-58.520724,-23.849178],[-58.520463,-23.848204],[-58.519821,-23.848173],[-58.51932,-23.84879],[-58.518182,-23.849267],[-58.517798,-23.850143],[-58.517109,-23.850713],[-58.516869,-23.85284],[-58.518448,-23.853044],[-58.518618,-23.853466],[-58.516896,-23.854247],[-58.516385,-23.854802],[-58.516871,-23.855715],[-58.515291,-23.856398],[-58.514735,-23.857445],[-58.514193,-23.857273],[-58.513594,-23.856088],[-58.512493,-23.856753],[-58.511553,-23.856534],[-58.511572,-23.857265],[-58.512269,-23.857814],[-58.511465,-23.858359],[-58.512225,-23.858882],[-58.511393,-23.859369],[-58.510905,-23.859336],[-58.509498,-23.858181],[-58.509938,-23.860421],[-58.508657,-23.859478],[-58.507733,-23.861092],[-58.507058,-23.861084],[-58.506774,-23.860862],[-58.506761,-23.859803],[-58.506077,-23.859607],[-58.505169,-23.860765],[-58.505613,-23.86209],[-58.505331,-23.862665],[-58.504795,-23.862366],[-58.504402,-23.861463],[-58.504677,-23.860145],[-58.503805,-23.860491],[-58.50338,-23.860364],[-58.50348,-23.859976],[-58.504661,-23.859686],[-58.504697,-23.859322],[-58.503835,-23.859198],[-58.502656,-23.859722],[-58.503007,-23.860272],[-58.502835,-23.86153],[-58.501481,-23.862796],[-58.500901,-23.862575],[-58.501153,-23.861774],[-58.500919,-23.861235],[-58.500226,-23.861427],[-58.500057,-23.862542],[-58.499658,-23.862651],[-58.499382,-23.861936],[-58.500044,-23.86111],[-58.499876,-23.860806],[-58.499259,-23.861009],[-58.498958,-23.862151],[-58.499636,-23.863144],[-58.498146,-23.864496],[-58.49807,-23.864732],[-58.498581,-23.865011],[-58.498439,-23.86527],[-58.497365,-23.864865],[-58.496978,-23.863949],[-58.496465,-23.863951],[-58.494949,-23.864454],[-58.494758,-23.864914],[-58.495066,-23.865147],[-58.496378,-23.865023],[-58.496323,-23.865376],[-58.494646,-23.865972],[-58.493632,-23.865884],[-58.493167,-23.865381],[-58.494063,-23.864788],[-58.494162,-23.864235],[-58.492839,-23.864442],[-58.492129,-23.86387],[-58.491953,-23.864541],[-58.491541,-23.864484],[-58.490738,-23.863326],[-58.488888,-23.863114],[-58.488836,-23.863676],[-58.489766,-23.864611],[-58.490835,-23.864794],[-58.491109,-23.865451],[-58.489209,-23.865567],[-58.489197,-23.867317],[-58.488136,-23.867603],[-58.487502,-23.868097],[-58.486747,-23.867891],[-58.486592,-23.866869],[-58.485936,-23.866708],[-58.485582,-23.867273],[-58.485776,-23.868742],[-58.485571,-23.868848],[-58.484942,-23.868781],[-58.484121,-23.867869],[-58.484105,-23.867481],[-58.484655,-23.867008],[-58.483702,-23.866494],[-58.48321,-23.865825],[-58.482333,-23.865535],[-58.482089,-23.865667],[-58.482253,-23.867279],[-58.481547,-23.8676],[-58.482,-23.868116],[-58.481862,-23.868634],[-58.481142,-23.86852],[-58.481043,-23.867109],[-58.480141,-23.866751],[-58.480114,-23.866458],[-58.481,-23.866404],[-58.481177,-23.866062],[-58.479777,-23.86556],[-58.479117,-23.867169],[-58.478171,-23.867351],[-58.478366,-23.868077],[-58.478777,-23.868345],[-58.476846,-23.869306],[-58.477437,-23.869385],[-58.477823,-23.869783],[-58.476321,-23.870485],[-58.476866,-23.870869],[-58.477689,-23.870923],[-58.478453,-23.870109],[-58.479306,-23.870845],[-58.479291,-23.871178],[-58.477507,-23.871705],[-58.475732,-23.871148],[-58.476205,-23.873617],[-58.473906,-23.873109],[-58.474314,-23.874588],[-58.473843,-23.875331],[-58.473483,-23.875286],[-58.47299,-23.874619],[-58.473305,-23.873711],[-58.472323,-23.873034],[-58.471907,-23.874448],[-58.470963,-23.874312],[-58.470706,-23.874619],[-58.470655,-23.875125],[-58.471303,-23.876368],[-58.472272,-23.876986],[-58.472417,-23.877561],[-58.468868,-23.877581],[-58.467871,-23.879022],[-58.46755,-23.879094],[-58.467157,-23.877826],[-58.466769,-23.877476],[-58.46628,-23.877384],[-58.465858,-23.877703],[-58.465841,-23.879103],[-58.465043,-23.879071],[-58.464703,-23.878145],[-58.464113,-23.878125],[-58.46405,-23.878829],[-58.464492,-23.879663],[-58.464288,-23.880064],[-58.463581,-23.880091],[-58.462005,-23.879529],[-58.462161,-23.880184],[-58.461832,-23.88095],[-58.460578,-23.881322],[-58.460658,-23.881897],[-58.461983,-23.882783],[-58.46029,-23.883132],[-58.460267,-23.884215],[-58.45992,-23.884358],[-58.459098,-23.884123],[-58.458827,-23.883748],[-58.458897,-23.882995],[-58.45817,-23.883104],[-58.458083,-23.884128],[-58.457654,-23.884531],[-58.457687,-23.885285],[-58.457403,-23.885475],[-58.456291,-23.885079],[-58.456105,-23.883844],[-58.455273,-23.882577],[-58.455113,-23.881718],[-58.453545,-23.88228],[-58.453473,-23.882999],[-58.452095,-23.882912],[-58.45264,-23.881823],[-58.452354,-23.881203],[-58.451608,-23.881441],[-58.451293,-23.882304],[-58.450869,-23.882494],[-58.449889,-23.882322],[-58.449956,-23.882734],[-58.450853,-23.883124],[-58.451346,-23.883923],[-58.451192,-23.884159],[-58.450394,-23.884069],[-58.449348,-23.883402],[-58.449093,-23.883697],[-58.449186,-23.884333],[-58.449601,-23.88479],[-58.450877,-23.885184],[-58.451309,-23.8863],[-58.451184,-23.8867],[-58.449877,-23.88772],[-58.449426,-23.887592],[-58.449163,-23.886829],[-58.448699,-23.886807],[-58.448266,-23.887492],[-58.448131,-23.888551],[-58.448365,-23.888926],[-58.449257,-23.889274],[-58.448262,-23.89049],[-58.448345,-23.891125],[-58.450156,-23.890822],[-58.450332,-23.891483],[-58.45002,-23.892035],[-58.448919,-23.892782],[-58.449142,-23.893523],[-58.448462,-23.893762],[-58.44799,-23.894518],[-58.446818,-23.894371],[-58.446376,-23.893596],[-58.445951,-23.893563],[-58.445493,-23.894718],[-58.4448,-23.89498],[-58.442943,-23.894686],[-58.442386,-23.894324],[-58.444819,-23.893769],[-58.444891,-23.892968],[-58.44417,-23.892936],[-58.443401,-23.893717],[-58.442153,-23.894113],[-58.44256,-23.892492],[-58.442099,-23.89195],[-58.441316,-23.892079],[-58.440413,-23.891789],[-58.440105,-23.891371],[-58.440302,-23.890265],[-58.440046,-23.889971],[-58.439452,-23.89004],[-58.438847,-23.891315],[-58.438136,-23.891722],[-58.43754,-23.891585],[-58.437062,-23.890672],[-58.436566,-23.890674],[-58.435586,-23.891486],[-58.436101,-23.889991],[-58.435233,-23.889886],[-58.434936,-23.890961],[-58.43441,-23.89115],[-58.433859,-23.890349],[-58.432099,-23.889923],[-58.431452,-23.888946],[-58.430907,-23.888855],[-58.430042,-23.889233],[-58.428795,-23.888525],[-58.428014,-23.888857],[-58.42758,-23.889976],[-58.426648,-23.890478],[-58.425832,-23.890576],[-58.42496,-23.889973],[-58.424866,-23.891109],[-58.424458,-23.891251],[-58.423519,-23.890743],[-58.422266,-23.890749],[-58.421697,-23.889695],[-58.420748,-23.89043],[-58.420255,-23.890308],[-58.420145,-23.889066],[-58.419461,-23.888495],[-58.419116,-23.887486],[-58.418844,-23.887471],[-58.418068,-23.888361],[-58.418032,-23.890988],[-58.418529,-23.89156],[-58.418464,-23.892182],[-58.415508,-23.892539],[-58.413768,-23.891739],[-58.413289,-23.891135],[-58.413371,-23.890529],[-58.415015,-23.890333],[-58.415025,-23.889382],[-58.413329,-23.889208],[-58.412467,-23.88971],[-58.411464,-23.889699],[-58.410985,-23.889406],[-58.412107,-23.887826],[-58.410798,-23.887832],[-58.410435,-23.888672],[-58.409269,-23.889424],[-58.409012,-23.889363],[-58.40897,-23.888741],[-58.409283,-23.887886],[-58.408555,-23.887812],[-58.407784,-23.888763],[-58.406838,-23.889281],[-58.406402,-23.890139],[-58.406009,-23.889784],[-58.406088,-23.888912],[-58.406849,-23.888441],[-58.407145,-23.887182],[-58.406769,-23.88678],[-58.405732,-23.886536],[-58.405352,-23.885593],[-58.404911,-23.885641],[-58.403221,-23.88703],[-58.402916,-23.887016],[-58.402607,-23.886414],[-58.402907,-23.885342],[-58.402209,-23.885142],[-58.401022,-23.885457],[-58.401264,-23.886109],[-58.401067,-23.887398],[-58.402221,-23.88747],[-58.402443,-23.887763],[-58.401816,-23.888279],[-58.400642,-23.887648],[-58.400125,-23.886222],[-58.399628,-23.88568],[-58.398877,-23.885589],[-58.398301,-23.885902],[-58.398225,-23.885232],[-58.397598,-23.885268],[-58.397723,-23.886184],[-58.397375,-23.886607],[-58.395642,-23.885845],[-58.395518,-23.885415],[-58.396043,-23.885054],[-58.396376,-23.884061],[-58.397616,-23.884197],[-58.398003,-23.883494],[-58.396395,-23.881887],[-58.395906,-23.882542],[-58.395122,-23.882578],[-58.395557,-23.880834],[-58.395006,-23.879515],[-58.39599,-23.878845],[-58.394374,-23.878372],[-58.395441,-23.877869],[-58.395445,-23.877012],[-58.393102,-23.876449],[-58.392687,-23.877461],[-58.391598,-23.877248],[-58.391502,-23.877934],[-58.388373,-23.878088],[-58.38818,-23.876814],[-58.387822,-23.876614],[-58.387006,-23.876882],[-58.386568,-23.877818],[-58.384795,-23.876395],[-58.384379,-23.875699],[-58.384896,-23.873394],[-58.386734,-23.873882],[-58.388039,-23.873206],[-58.387473,-23.870062],[-58.385682,-23.868613],[-58.384337,-23.868138],[-58.383735,-23.867238],[-58.38265,-23.868456],[-58.381821,-23.868927],[-58.380304,-23.868187],[-58.380097,-23.867908],[-58.380436,-23.866866],[-58.380257,-23.865219],[-58.381042,-23.861988],[-58.381006,-23.858641],[-58.380528,-23.858425],[-58.378115,-23.858483],[-58.376059,-23.855865],[-58.37585,-23.854902],[-58.375457,-23.854577],[-58.374038,-23.854982],[-58.373608,-23.856803],[-58.373122,-23.857087],[-58.371756,-23.856502],[-58.369078,-23.856294],[-58.368294,-23.855878],[-58.367754,-23.856301],[-58.367826,-23.857417],[-58.366757,-23.857821],[-58.366265,-23.857792],[-58.365244,-23.85707],[-58.36409,-23.85717],[-58.363145,-23.857699],[-58.362423,-23.856572],[-58.361566,-23.856112],[-58.361278,-23.856424],[-58.361186,-23.857682],[-58.360946,-23.857669],[-58.3597,-23.857069],[-58.359818,-23.856446],[-58.36049,-23.855838],[-58.360486,-23.8552],[-58.360076,-23.854813],[-58.359412,-23.854722],[-58.358058,-23.855615],[-58.357604,-23.855277],[-58.357359,-23.854361],[-58.356745,-23.854054],[-58.356043,-23.854154],[-58.355738,-23.854593],[-58.356529,-23.856789],[-58.355613,-23.857821],[-58.355178,-23.859099],[-58.353754,-23.860086],[-58.354317,-23.861929],[-58.354147,-23.862593],[-58.35337,-23.862447],[-58.353114,-23.861086],[-58.352298,-23.861262],[-58.35157,-23.862457],[-58.350937,-23.861624],[-58.350631,-23.861656],[-58.350329,-23.862477],[-58.349686,-23.862869],[-58.3489,-23.862111],[-58.348741,-23.861165],[-58.3484,-23.86112],[-58.347958,-23.861465],[-58.348374,-23.862645],[-58.348207,-23.863284],[-58.347523,-23.862915],[-58.347144,-23.862108],[-58.345871,-23.862096],[-58.344953,-23.861398],[-58.342789,-23.862171],[-58.342582,-23.861986],[-58.342832,-23.861456],[-58.343678,-23.860519],[-58.343612,-23.860207],[-58.342984,-23.859976],[-58.341912,-23.860573],[-58.341199,-23.860576],[-58.340911,-23.860966],[-58.341117,-23.861354],[-58.340531,-23.862679],[-58.341335,-23.863375],[-58.341314,-23.86449],[-58.340589,-23.864804],[-58.340001,-23.864715],[-58.339052,-23.864255],[-58.338303,-23.863342],[-58.336483,-23.863273],[-58.336161,-23.863523],[-58.336949,-23.864469],[-58.336934,-23.864827],[-58.336017,-23.865111],[-58.335954,-23.866103],[-58.335411,-23.866198],[-58.334216,-23.865725],[-58.333701,-23.864607],[-58.334069,-23.863439],[-58.333846,-23.863129],[-58.33337,-23.863286],[-58.332527,-23.864644],[-58.331949,-23.864771],[-58.330501,-23.863703],[-58.330815,-23.862753],[-58.330588,-23.862147],[-58.329928,-23.862617],[-58.329439,-23.863925],[-58.328833,-23.863958],[-58.328824,-23.863306],[-58.32919,-23.862807],[-58.3287,-23.861362],[-58.329368,-23.860803],[-58.329349,-23.860243],[-58.327507,-23.859705],[-58.326607,-23.860144],[-58.325553,-23.860242],[-58.325195,-23.860104],[-58.325191,-23.859293],[-58.323372,-23.859237],[-58.323556,-23.858599],[-58.32464,-23.857942],[-58.324518,-23.857445],[-58.323873,-23.857478],[-58.322891,-23.858385],[-58.321843,-23.858589],[-58.321996,-23.856912],[-58.322658,-23.856365],[-58.322464,-23.85537],[-58.324376,-23.856295],[-58.324541,-23.855423],[-58.323501,-23.854852],[-58.323157,-23.854231],[-58.324769,-23.853492],[-58.325071,-23.852632],[-58.32483,-23.852169],[-58.322328,-23.851499],[-58.320534,-23.852226],[-58.317432,-23.852431],[-58.316199,-23.853448],[-58.316963,-23.853725],[-58.317919,-23.854918],[-58.316169,-23.855703],[-58.315812,-23.855565],[-58.315964,-23.854476],[-58.315348,-23.853171],[-58.314643,-23.852225],[-58.314284,-23.852195],[-58.31371,-23.853147],[-58.313712,-23.853599],[-58.314397,-23.854529],[-58.314245,-23.854918],[-58.313564,-23.854983],[-58.312676,-23.854225],[-58.312286,-23.85432],[-58.312991,-23.85564],[-58.313945,-23.856117],[-58.31366,-23.856649],[-58.312469,-23.856716],[-58.311951,-23.855333],[-58.31132,-23.854931],[-58.309992,-23.854922],[-58.309718,-23.854566],[-58.307922,-23.856004],[-58.307113,-23.857111],[-58.306292,-23.856462],[-58.305187,-23.856263],[-58.304926,-23.854818],[-58.303902,-23.854169],[-58.304387,-23.853028],[-58.303757,-23.852455],[-58.303012,-23.852551],[-58.302549,-23.854325],[-58.301208,-23.85447],[-58.300872,-23.855421],[-58.300516,-23.855454],[-58.299592,-23.854337],[-58.299794,-23.853962],[-58.301404,-23.853147],[-58.301469,-23.852493],[-58.299476,-23.85166],[-58.299347,-23.853249],[-58.298603,-23.853998],[-58.298031,-23.855231],[-58.296076,-23.855892],[-58.296081,-23.856887],[-58.294412,-23.8566],[-58.294191,-23.856803],[-58.294042,-23.857426],[-58.294542,-23.858369],[-58.294156,-23.85916],[-58.293663,-23.859133],[-58.292022,-23.857712],[-58.292136,-23.85709],[-58.292743,-23.856529],[-58.292347,-23.856002],[-58.291141,-23.856147],[-58.290164,-23.855637],[-58.289772,-23.855733],[-58.289385,-23.85656],[-58.288011,-23.856709],[-58.28802,-23.857829],[-58.286848,-23.858753],[-58.28632,-23.858568],[-58.285908,-23.85765],[-58.285122,-23.857014],[-58.284081,-23.856722],[-58.282911,-23.857928],[-58.281208,-23.857842],[-58.280461,-23.858344],[-58.280378,-23.858749],[-58.281097,-23.859587],[-58.28146,-23.86069],[-58.280934,-23.861034],[-58.279608,-23.86121],[-58.27997,-23.862392],[-58.278287,-23.86296],[-58.277219,-23.863821],[-58.276541,-23.863883],[-58.277108,-23.862499],[-58.276799,-23.861176],[-58.276285,-23.860586],[-58.275606,-23.860682],[-58.275218,-23.861649],[-58.275638,-23.863108],[-58.274974,-23.863735],[-58.273628,-23.86265],[-58.273861,-23.861653],[-58.273311,-23.861081],[-58.273461,-23.860504],[-58.27409,-23.86005],[-58.274786,-23.859892],[-58.275077,-23.86028],[-58.275654,-23.8602],[-58.275481,-23.859733],[-58.274306,-23.858898],[-58.274563,-23.856838],[-58.273573,-23.856138],[-58.273055,-23.854786],[-58.271679,-23.854544],[-58.271233,-23.854109],[-58.269797,-23.852309],[-58.269572,-23.851625],[-58.268571,-23.852594],[-58.26806,-23.852581],[-58.267819,-23.851897],[-58.26851,-23.850619],[-58.268439,-23.850012],[-58.267605,-23.849906],[-58.266491,-23.852104],[-58.265777,-23.851843],[-58.264834,-23.850632],[-58.264393,-23.850852],[-58.264281,-23.851927],[-58.263752,-23.851929],[-58.263302,-23.850918],[-58.262976,-23.850701],[-58.262347,-23.850984],[-58.2622,-23.849564],[-58.261311,-23.848509],[-58.261164,-23.847595],[-58.257688,-23.847158],[-58.25799,-23.846268],[-58.259893,-23.846087],[-58.26011,-23.845742],[-58.259528,-23.844671],[-58.259679,-23.843362],[-58.255826,-23.843019],[-58.254316,-23.844115],[-58.254296,-23.84343],[-58.253903,-23.843105],[-58.252337,-23.843344],[-58.252281,-23.842114],[-58.250883,-23.841528],[-58.250872,-23.840448],[-58.250599,-23.840371],[-58.248557,-23.841757],[-58.249644,-23.842312],[-58.249869,-23.842794],[-58.249699,-23.843323],[-58.248798,-23.843233],[-58.247021,-23.842197],[-58.246111,-23.842274],[-58.245922,-23.841979],[-58.246531,-23.84168],[-58.246732,-23.841228],[-58.246492,-23.840793],[-58.245965,-23.840919],[-58.245259,-23.841935],[-58.244253,-23.841908],[-58.244331,-23.840988],[-58.245467,-23.839862],[-58.245144,-23.839489],[-58.243712,-23.839573],[-58.242909,-23.83914],[-58.243669,-23.836985],[-58.242387,-23.837026],[-58.240927,-23.837998],[-58.239817,-23.836986],[-58.239513,-23.837422],[-58.24007,-23.840225],[-58.239121,-23.841117],[-58.238061,-23.840451],[-58.237128,-23.841452],[-58.237046,-23.841888],[-58.237832,-23.842634],[-58.237479,-23.843476],[-58.236745,-23.843354],[-58.235955,-23.842298],[-58.235563,-23.842175],[-58.235158,-23.84308],[-58.234683,-23.843331],[-58.232963,-23.843353],[-58.232815,-23.841998],[-58.232268,-23.841954],[-58.230757,-23.844459],[-58.230727,-23.845441],[-58.229672,-23.845428],[-58.229763,-23.84298],[-58.227463,-23.842844],[-58.227458,-23.846061],[-58.226847,-23.8465],[-58.226111,-23.845799],[-58.225462,-23.845583],[-58.225327,-23.845801],[-58.225877,-23.846721],[-58.226449,-23.849072],[-58.224729,-23.849125],[-58.224136,-23.849985],[-58.221935,-23.849541],[-58.221904,-23.850134],[-58.222776,-23.85105],[-58.222676,-23.851394],[-58.221805,-23.851257],[-58.220865,-23.850168],[-58.219788,-23.850705],[-58.219475,-23.849364],[-58.218317,-23.849056],[-58.218467,-23.848557],[-58.219709,-23.848256],[-58.219861,-23.847865],[-58.219585,-23.847398],[-58.217944,-23.848442],[-58.217073,-23.848538],[-58.216522,-23.847278],[-58.2158,-23.846921],[-58.21522,-23.847016],[-58.214785,-23.847969],[-58.214208,-23.848361],[-58.214111,-23.849189],[-58.213667,-23.849174],[-58.213083,-23.848163],[-58.213057,-23.846744],[-58.212358,-23.846404],[-58.211187,-23.847219],[-58.209603,-23.847474],[-58.208736,-23.848304],[-58.207728,-23.847715],[-58.206791,-23.847593],[-58.205739,-23.84872],[-58.20538,-23.848565],[-58.205347,-23.848081],[-58.205705,-23.847253],[-58.20667,-23.846424],[-58.206475,-23.845879],[-58.205462,-23.846351],[-58.204595,-23.847289],[-58.203232,-23.847113],[-58.202065,-23.84796],[-58.201586,-23.847774],[-58.201041,-23.84698],[-58.200407,-23.846888],[-58.199672,-23.84764],[-58.198583,-23.847582],[-58.197938,-23.848676],[-58.196828,-23.848477],[-58.195926,-23.848948],[-58.194556,-23.847346],[-58.195406,-23.846953],[-58.196771,-23.846995],[-58.196888,-23.84648],[-58.196392,-23.846263],[-58.193973,-23.84674],[-58.193314,-23.847662],[-58.193555,-23.848301],[-58.193131,-23.84852],[-58.192444,-23.84765],[-58.191893,-23.84748],[-58.191429,-23.849383],[-58.190899,-23.849339],[-58.190186,-23.847752],[-58.189657,-23.847816],[-58.189285,-23.848473],[-58.190112,-23.849327],[-58.190019,-23.850495],[-58.189592,-23.850828],[-58.188536,-23.850952],[-58.187567,-23.851843],[-58.187439,-23.853749],[-58.186878,-23.854033],[-58.186158,-23.853225],[-58.184935,-23.853217],[-58.184762,-23.854398],[-58.185107,-23.855037],[-58.184012,-23.855477],[-58.184534,-23.85738],[-58.185986,-23.857484],[-58.18606,-23.858323],[-58.185156,-23.858562],[-58.184607,-23.857846],[-58.183889,-23.857678],[-58.183832,-23.859813],[-58.182754,-23.859382],[-58.18243,-23.859476],[-58.182227,-23.860071],[-58.181646,-23.860281],[-58.182316,-23.861265],[-58.183189,-23.861636],[-58.183722,-23.862648],[-58.185684,-23.8628],[-58.185635,-23.863643],[-58.182875,-23.864182],[-58.182602,-23.864402],[-58.182505,-23.865651],[-58.180796,-23.865376],[-58.18024,-23.866814],[-58.179659,-23.866769],[-58.178992,-23.866084],[-58.178379,-23.866211],[-58.178282,-23.867443],[-58.177428,-23.867884],[-58.177385,-23.868521],[-58.17822,-23.869205],[-58.178672,-23.870231],[-58.177617,-23.870547],[-58.176957,-23.871313],[-58.175455,-23.871536],[-58.175149,-23.872673],[-58.17469,-23.872566],[-58.174653,-23.871741],[-58.17426,-23.871446],[-58.173681,-23.871651],[-58.173293,-23.872604],[-58.172987,-23.872605],[-58.172402,-23.871563],[-58.171361,-23.87166],[-58.171072,-23.872004],[-58.171454,-23.873423],[-58.171151,-23.874375],[-58.169425,-23.87393],[-58.16966,-23.87268],[-58.168594,-23.871045],[-58.16769,-23.870892],[-58.166852,-23.871214],[-58.167424,-23.873444],[-58.168857,-23.872861],[-58.168181,-23.874862],[-58.168387,-23.875221],[-58.169122,-23.875468],[-58.16894,-23.876624],[-58.168083,-23.875862],[-58.167503,-23.875754],[-58.167111,-23.876052],[-58.166981,-23.878082],[-58.168397,-23.877875],[-58.16869,-23.878202],[-58.168538,-23.878826],[-58.168008,-23.878952],[-58.166368,-23.878335],[-58.166336,-23.878944],[-58.167142,-23.879769],[-58.167042,-23.880208],[-58.164153,-23.87956],[-58.164455,-23.878137],[-58.164198,-23.878045],[-58.162801,-23.878643],[-58.161706,-23.878429],[-58.16135,-23.879321],[-58.160888,-23.879244],[-58.160166,-23.877872],[-58.159127,-23.877312],[-58.159208,-23.87689],[-58.159961,-23.876357],[-58.159792,-23.875937],[-58.15926,-23.875735],[-58.158388,-23.875867],[-58.156399,-23.87693],[-58.1564,-23.878262],[-58.157481,-23.878394],[-58.157465,-23.878879],[-58.157105,-23.879132],[-58.15477,-23.879732],[-58.154227,-23.88067],[-58.153903,-23.880734],[-58.152806,-23.879862],[-58.15226,-23.879864],[-58.152128,-23.881145],[-58.150805,-23.882366],[-58.150892,-23.882708],[-58.151678,-23.883173],[-58.152698,-23.882642],[-58.15304,-23.882813],[-58.153216,-23.883807],[-58.152741,-23.884196],[-58.151138,-23.884187],[-58.15039,-23.8845],[-58.15047,-23.88565],[-58.150012,-23.886382],[-58.148166,-23.886089],[-58.14905,-23.888991],[-58.148711,-23.889725],[-58.147155,-23.889948],[-58.14921,-23.891895],[-58.148993,-23.892989],[-58.149456,-23.89369],[-58.149649,-23.894784],[-58.149343,-23.895036],[-58.14755,-23.894513],[-58.147234,-23.895811],[-58.14586,-23.896533],[-58.146021,-23.897124],[-58.146761,-23.897778],[-58.148211,-23.897555],[-58.14864,-23.897865],[-58.148746,-23.899004],[-58.149174,-23.899503],[-58.150249,-23.899564],[-58.150421,-23.900128],[-58.150119,-23.901204],[-58.147895,-23.900795],[-58.146917,-23.900958],[-58.146611,-23.901631],[-58.146836,-23.90241],[-58.147569,-23.902471],[-58.148046,-23.902001],[-58.148665,-23.902059],[-58.148239,-23.902842],[-58.147472,-23.902906],[-58.1446,-23.902183],[-58.144765,-23.900857],[-58.144013,-23.900641],[-58.143349,-23.901049],[-58.142535,-23.902157],[-58.142434,-23.902485],[-58.142967,-23.903451],[-58.14143,-23.903348],[-58.140987,-23.903677],[-58.140548,-23.905098],[-58.13978,-23.905194],[-58.139471,-23.904431],[-58.138926,-23.904308],[-58.138348,-23.90456],[-58.13717,-23.904111],[-58.136079,-23.904457],[-58.135619,-23.905379],[-58.135277,-23.905505],[-58.134647,-23.90546],[-58.134002,-23.904869],[-58.134434,-23.9028],[-58.133867,-23.901959],[-58.134738,-23.901737],[-58.134787,-23.901285],[-58.133403,-23.900649],[-58.132885,-23.900027],[-58.134521,-23.898898],[-58.134588,-23.89846],[-58.133934,-23.897447],[-58.134598,-23.897022],[-58.134611,-23.896441],[-58.131898,-23.895831],[-58.132035,-23.895225],[-58.132684,-23.894834],[-58.132768,-23.894381],[-58.132047,-23.893088],[-58.132074,-23.891604],[-58.130743,-23.892029],[-58.129719,-23.891939],[-58.12887,-23.89344],[-58.128016,-23.893224],[-58.127877,-23.892554],[-58.127483,-23.892415],[-58.126993,-23.893758],[-58.126291,-23.893309],[-58.127323,-23.890635],[-58.127801,-23.89043],[-58.128622,-23.890615],[-58.128655,-23.889895],[-58.12662,-23.8897],[-58.125346,-23.891609],[-58.124064,-23.891269],[-58.123454,-23.892035],[-58.123009,-23.892006],[-58.12176,-23.891619],[-58.121551,-23.891214],[-58.122251,-23.890588],[-58.12252,-23.889135],[-58.121892,-23.8885],[-58.120548,-23.888178],[-58.120175,-23.888787],[-58.120221,-23.891452],[-58.120467,-23.892123],[-58.121375,-23.892587],[-58.121426,-23.892947],[-58.121049,-23.893261],[-58.119331,-23.893323],[-58.119442,-23.894573],[-58.118502,-23.894592],[-58.117024,-23.892893],[-58.117122,-23.892627],[-58.118174,-23.892421],[-58.118255,-23.891813],[-58.116908,-23.891771],[-58.116239,-23.892458],[-58.11662,-23.894767],[-58.116125,-23.894847],[-58.115271,-23.894335],[-58.114827,-23.894586],[-58.116198,-23.895675],[-58.116188,-23.896538],[-58.115675,-23.89654],[-58.114451,-23.895743],[-58.113797,-23.894261],[-58.112586,-23.894282],[-58.11267,-23.893859],[-58.113503,-23.893279],[-58.113417,-23.892654],[-58.112265,-23.892143],[-58.110787,-23.893146],[-58.110223,-23.893039],[-58.110135,-23.892336],[-58.111393,-23.891178],[-58.112041,-23.891067],[-58.112675,-23.891626],[-58.112932,-23.891485],[-58.11283,-23.890562],[-58.111631,-23.889768],[-58.111051,-23.889894],[-58.109722,-23.891588],[-58.109362,-23.891199],[-58.109257,-23.890245],[-58.10847,-23.890262],[-58.108561,-23.89156],[-58.107219,-23.892672],[-58.106724,-23.892674],[-58.106343,-23.892004],[-58.105917,-23.891865],[-58.105306,-23.892459],[-58.103532,-23.893214],[-58.102706,-23.892897],[-58.101535,-23.891639],[-58.100955,-23.891719],[-58.100786,-23.892156],[-58.101628,-23.893182],[-58.101309,-23.893525],[-58.099904,-23.892827],[-58.099151,-23.892863],[-58.098742,-23.893207],[-58.099016,-23.894394],[-58.100404,-23.894715],[-58.100269,-23.895403],[-58.099757,-23.895841],[-58.099932,-23.896699],[-58.098178,-23.896345],[-58.096777,-23.896911],[-58.094823,-23.895107],[-58.093716,-23.895469],[-58.093118,-23.894879],[-58.091123,-23.896162],[-58.090561,-23.895743],[-58.090355,-23.894902],[-58.089548,-23.894668],[-58.089154,-23.894809],[-58.089313,-23.895949],[-58.0888,-23.896387],[-58.088426,-23.897466],[-58.087723,-23.897499],[-58.086072,-23.896217],[-58.084713,-23.896603],[-58.08444,-23.896453],[-58.084819,-23.895542],[-58.084631,-23.894776],[-58.08558,-23.895117],[-58.086188,-23.894992],[-58.086252,-23.894188],[-58.085128,-23.893117],[-58.08427,-23.893306],[-58.083099,-23.894259],[-58.082469,-23.894342],[-58.083164,-23.892564],[-58.08296,-23.892153],[-58.082193,-23.892381],[-58.081092,-23.893873],[-58.081027,-23.894408],[-58.081862,-23.894653],[-58.081683,-23.895148],[-58.080961,-23.895108],[-58.079781,-23.892864],[-58.078697,-23.892515],[-58.077594,-23.89279],[-58.076272,-23.894815],[-58.075684,-23.894794],[-58.075368,-23.894506],[-58.075386,-23.893844],[-58.076174,-23.892527],[-58.07633,-23.891517],[-58.075541,-23.891376],[-58.073941,-23.892244],[-58.073358,-23.892926],[-58.072547,-23.892869],[-58.072449,-23.890949],[-58.073733,-23.890822],[-58.074021,-23.890037],[-58.07224,-23.889157],[-58.071142,-23.891118],[-58.070646,-23.891099],[-58.070733,-23.889922],[-58.071091,-23.889324],[-58.070751,-23.888687],[-58.07019,-23.888874],[-58.069763,-23.890009],[-58.069334,-23.88997],[-58.069692,-23.888237],[-58.069577,-23.88725],[-58.069104,-23.88721],[-58.067553,-23.88816],[-58.067237,-23.887914],[-58.067095,-23.886719],[-58.065746,-23.88695],[-58.064457,-23.886602],[-58.064316,-23.885983],[-58.065013,-23.885301],[-58.064896,-23.884763],[-58.064196,-23.884785],[-58.06365,-23.885657],[-58.063967,-23.88685],[-58.064623,-23.887755],[-58.064401,-23.888231],[-58.06325,-23.888172],[-58.062643,-23.88877],[-58.062193,-23.888649],[-58.061192,-23.886115],[-58.061504,-23.885002],[-58.062271,-23.884712],[-58.062155,-23.883742],[-58.061409,-23.883353],[-58.060575,-23.883335],[-58.060233,-23.882079],[-58.060727,-23.881499],[-58.060274,-23.880839],[-58.059144,-23.880572],[-58.057837,-23.880844],[-58.057952,-23.880231],[-58.059031,-23.879876],[-58.059029,-23.878768],[-58.05673,-23.879304],[-58.052919,-23.878861],[-58.052862,-23.877773],[-58.053255,-23.877377],[-58.054835,-23.877192],[-58.054906,-23.875789],[-58.053135,-23.875938],[-58.052781,-23.877162],[-58.051883,-23.877919],[-58.051372,-23.877921],[-58.05125,-23.877166],[-58.052308,-23.875616],[-58.051479,-23.875332],[-58.050576,-23.875838],[-58.049987,-23.875767],[-58.049944,-23.874868],[-58.050415,-23.874219],[-58.049785,-23.873824],[-58.048567,-23.874188],[-58.047111,-23.873866],[-58.04605,-23.874447],[-58.044946,-23.87387],[-58.044514,-23.874159],[-58.044515,-23.874555],[-58.045031,-23.875456],[-58.047039,-23.876097],[-58.046175,-23.876855],[-58.045348,-23.876425],[-58.044203,-23.875205],[-58.043613,-23.875458],[-58.043658,-23.876825],[-58.042751,-23.876611],[-58.040393,-23.877409],[-58.040236,-23.876762],[-58.04094,-23.875609],[-58.041132,-23.874601],[-58.040346,-23.874423],[-58.038975,-23.876981],[-58.038105,-23.875328],[-58.038375,-23.873923],[-58.037469,-23.873782],[-58.03772,-23.877919],[-58.036031,-23.877672],[-58.034525,-23.876164],[-58.034091,-23.876201],[-58.033698,-23.876706],[-58.033897,-23.878253],[-58.033607,-23.880985],[-58.032696,-23.880953],[-58.032411,-23.879084],[-58.03166,-23.879014],[-58.031381,-23.879446],[-58.030827,-23.879519],[-58.030044,-23.879377],[-58.029803,-23.877435],[-58.029409,-23.877184],[-58.027638,-23.878196],[-58.027247,-23.878988],[-58.027843,-23.879563],[-58.027771,-23.880103],[-58.02663,-23.879998],[-58.026227,-23.878919],[-58.027241,-23.87629],[-58.026181,-23.875968],[-58.024453,-23.876908],[-58.023624,-23.876622],[-58.023228,-23.876156],[-58.023344,-23.875832],[-58.024835,-23.874821],[-58.023658,-23.873923],[-58.022676,-23.875509],[-58.022205,-23.87551],[-58.021176,-23.87411],[-58.022158,-23.873532],[-58.022199,-23.872306],[-58.020508,-23.873102],[-58.019136,-23.874833],[-58.017756,-23.873972],[-58.01563,-23.874122],[-58.015666,-23.873114],[-58.016492,-23.872318],[-58.016606,-23.871275],[-58.016171,-23.869],[-58.014791,-23.869662],[-58.013063,-23.871323],[-58.012237,-23.871247],[-58.012625,-23.869416],[-58.011755,-23.867832],[-58.011831,-23.866782],[-58.011163,-23.867323],[-58.010146,-23.86942],[-58.008846,-23.869096],[-58.008608,-23.868451],[-58.007902,-23.868814],[-58.007588,-23.869461],[-58.006447,-23.869357],[-58.005817,-23.869036],[-58.005775,-23.867796],[-58.004703,-23.867554],[-58.003863,-23.867872],[-58.002315,-23.867299],[-58.001606,-23.868662],[-58.000072,-23.868793],[-57.998922,-23.86761],[-57.997972,-23.867874],[-57.998087,-23.865597],[-57.999968,-23.865878],[-58.000122,-23.865265],[-57.997901,-23.863097],[-57.995606,-23.864038],[-57.995836,-23.864908],[-57.995517,-23.865463],[-57.994055,-23.865252],[-57.993309,-23.864513],[-57.992768,-23.864536],[-57.992341,-23.865031],[-57.993468,-23.866464],[-57.993231,-23.867073],[-57.991604,-23.866854],[-57.989977,-23.867076],[-57.989141,-23.865431],[-57.990047,-23.865012],[-57.990604,-23.86424],[-57.989563,-23.863666],[-57.990596,-23.862995],[-57.990644,-23.862687],[-57.989626,-23.862658],[-57.987285,-23.863567],[-57.987233,-23.865097],[-57.986364,-23.864922],[-57.985475,-23.862929],[-57.98477,-23.864136],[-57.983588,-23.864385],[-57.983327,-23.863619],[-57.984405,-23.862353],[-57.984438,-23.86106],[-57.983607,-23.860159],[-57.982861,-23.861078],[-57.982435,-23.861055],[-57.981759,-23.860683],[-57.981464,-23.860145],[-57.979777,-23.859925],[-57.979697,-23.859349],[-57.980441,-23.858846],[-57.980197,-23.858289],[-57.978579,-23.858307],[-57.978097,-23.858694],[-57.977348,-23.859689],[-57.977607,-23.860119],[-57.977575,-23.860743],[-57.97732,-23.860756],[-57.976518,-23.860428],[-57.97626,-23.859972],[-57.975764,-23.857172],[-57.974768,-23.85717],[-57.973165,-23.857863],[-57.972429,-23.857382],[-57.972455,-23.856969],[-57.970816,-23.857762],[-57.970428,-23.857611],[-57.970394,-23.857246],[-57.97097,-23.8558],[-57.970133,-23.855573],[-57.967376,-23.857035],[-57.96693,-23.856467],[-57.967186,-23.85469],[-57.965866,-23.854956],[-57.965445,-23.855348],[-57.965343,-23.856017],[-57.964833,-23.855991],[-57.964065,-23.855146],[-57.964134,-23.854112],[-57.963329,-23.85381],[-57.962353,-23.854432],[-57.96177,-23.854245],[-57.962163,-23.85297],[-57.960941,-23.851324],[-57.960184,-23.851206],[-57.959469,-23.851711],[-57.958597,-23.851587],[-57.958796,-23.85069],[-57.960214,-23.850248],[-57.959924,-23.849428],[-57.958304,-23.849603],[-57.954152,-23.848745],[-57.953747,-23.848879],[-57.953645,-23.850144],[-57.953212,-23.850276],[-57.952588,-23.849828],[-57.953068,-23.848013],[-57.952065,-23.846947],[-57.949967,-23.847328],[-57.949371,-23.845924],[-57.948428,-23.845249],[-57.947961,-23.845432],[-57.947931,-23.84766],[-57.947684,-23.848035],[-57.946978,-23.848049],[-57.946568,-23.847793],[-57.946628,-23.845905],[-57.945948,-23.844938],[-57.945001,-23.84473],[-57.943416,-23.845114],[-57.942541,-23.843768],[-57.941315,-23.844323],[-57.941152,-23.845094],[-57.942498,-23.845738],[-57.943657,-23.84673],[-57.943574,-23.847607],[-57.94231,-23.847384],[-57.941338,-23.845726],[-57.940534,-23.845449],[-57.940192,-23.845483],[-57.940287,-23.846654],[-57.93963,-23.847163],[-57.938513,-23.846483],[-57.938211,-23.847191],[-57.937481,-23.847073],[-57.936827,-23.846649],[-57.937184,-23.845115],[-57.936606,-23.844355],[-57.935975,-23.844477],[-57.935894,-23.846185],[-57.93558,-23.846687],[-57.934966,-23.846965],[-57.933767,-23.846668],[-57.933358,-23.848097],[-57.932558,-23.84738],[-57.932178,-23.846272],[-57.93155,-23.846394],[-57.930877,-23.847213],[-57.930154,-23.846527],[-57.929234,-23.846375],[-57.929176,-23.847173],[-57.930019,-23.848074],[-57.929878,-23.848507],[-57.928357,-23.849332],[-57.928334,-23.849668],[-57.930453,-23.849991],[-57.930585,-23.850595],[-57.930166,-23.850961],[-57.923947,-23.850154],[-57.92292,-23.850797],[-57.922391,-23.850249],[-57.921446,-23.85077],[-57.9212,-23.852365],[-57.919997,-23.852612],[-57.919748,-23.852936],[-57.919696,-23.854124],[-57.919389,-23.854496],[-57.917423,-23.853768],[-57.917411,-23.853095],[-57.918212,-23.852542],[-57.917769,-23.851947],[-57.917289,-23.851922],[-57.916537,-23.853022],[-57.9164,-23.8547],[-57.91584,-23.855475],[-57.915228,-23.855286],[-57.91481,-23.854745],[-57.914502,-23.854235],[-57.914526,-23.852991],[-57.914036,-23.852679],[-57.91253,-23.852313],[-57.911827,-23.853495],[-57.911107,-23.853223],[-57.911429,-23.850906],[-57.91085,-23.850201],[-57.91032,-23.85095],[-57.909855,-23.851133],[-57.909529,-23.850908],[-57.909764,-23.849442],[-57.909372,-23.849369],[-57.908879,-23.849965],[-57.908358,-23.850092],[-57.907601,-23.849974],[-57.906801,-23.849257],[-57.90516,-23.849531],[-57.905018,-23.848693],[-57.905262,-23.84806],[-57.906434,-23.847475],[-57.906628,-23.84707],[-57.906674,-23.846319],[-57.906309,-23.845833],[-57.904873,-23.845533],[-57.90344,-23.845818],[-57.902623,-23.84523],[-57.902392,-23.844414],[-57.900803,-23.843942],[-57.90016,-23.845201],[-57.900688,-23.846215],[-57.900384,-23.847002],[-57.897818,-23.846345],[-57.897838,-23.845595],[-57.899013,-23.844908],[-57.898782,-23.844117],[-57.896475,-23.844254],[-57.896423,-23.846918],[-57.89559,-23.847547],[-57.893422,-23.847741],[-57.891741,-23.845653],[-57.890479,-23.845872],[-57.890368,-23.847163],[-57.889776,-23.848426],[-57.889273,-23.848762],[-57.888156,-23.848105],[-57.887653,-23.848415],[-57.888339,-23.849178],[-57.889299,-23.84923],[-57.889322,-23.850166],[-57.888705,-23.850496],[-57.886012,-23.850456],[-57.885477,-23.849959],[-57.885295,-23.8493],[-57.884421,-23.849643],[-57.884317,-23.850363],[-57.883832,-23.85044],[-57.883559,-23.850295],[-57.883318,-23.848752],[-57.881771,-23.849032],[-57.881157,-23.848766],[-57.881315,-23.8481],[-57.88202,-23.847697],[-57.882057,-23.847102],[-57.880438,-23.846719],[-57.879186,-23.84712],[-57.878293,-23.848499],[-57.878163,-23.848803],[-57.879117,-23.849944],[-57.879019,-23.850588],[-57.877726,-23.851633],[-57.875653,-23.850768],[-57.873305,-23.850305],[-57.872753,-23.850923],[-57.872589,-23.851665],[-57.872103,-23.85169],[-57.87187,-23.851367],[-57.872104,-23.849565],[-57.871528,-23.848834],[-57.871021,-23.84878],[-57.869876,-23.850222],[-57.870266,-23.852057],[-57.87073,-23.852728],[-57.870634,-23.85329],[-57.869542,-23.853129],[-57.8688,-23.85154],[-57.868317,-23.851567],[-57.867807,-23.853744],[-57.866598,-23.854458],[-57.865583,-23.854347],[-57.864571,-23.852915],[-57.863336,-23.853602],[-57.862728,-23.853337],[-57.863124,-23.852476],[-57.864227,-23.851654],[-57.864561,-23.850845],[-57.86415,-23.850615],[-57.862344,-23.851347],[-57.861241,-23.851288],[-57.860592,-23.85076],[-57.858543,-23.852281],[-57.857797,-23.85193],[-57.85777,-23.851487],[-57.858565,-23.850207],[-57.858561,-23.849377],[-57.858247,-23.849048],[-57.857557,-23.84927],[-57.856805,-23.850395],[-57.856162,-23.850544],[-57.855844,-23.850189],[-57.855658,-23.848753],[-57.856166,-23.848366],[-57.857517,-23.848128],[-57.85761,-23.847563],[-57.856507,-23.847347],[-57.855406,-23.848169],[-57.85422,-23.847275],[-57.854497,-23.846102],[-57.85485,-23.845781],[-57.85395,-23.845425],[-57.853198,-23.846112],[-57.85283,-23.846091],[-57.852812,-23.845547],[-57.853727,-23.844947],[-57.853823,-23.844435],[-57.852722,-23.842973],[-57.852331,-23.842848],[-57.850671,-23.843898],[-57.849362,-23.845333],[-57.848729,-23.845093],[-57.849473,-23.843212],[-57.851854,-23.842329],[-57.851963,-23.841609],[-57.849982,-23.841449],[-57.848606,-23.843036],[-57.847589,-23.842487],[-57.847534,-23.841576],[-57.848031,-23.840928],[-57.849588,-23.840597],[-57.850295,-23.838744],[-57.851474,-23.838547],[-57.851534,-23.837794],[-57.849398,-23.837634],[-57.846604,-23.838438],[-57.846338,-23.838165],[-57.846386,-23.836926],[-57.845688,-23.836783],[-57.843327,-23.839117],[-57.84313,-23.839521],[-57.843512,-23.841072],[-57.843477,-23.841616],[-57.843195,-23.8416],[-57.842604,-23.841516],[-57.841995,-23.840419],[-57.842114,-23.838583],[-57.843803,-23.837457],[-57.843825,-23.836657],[-57.841219,-23.835762],[-57.839785,-23.83773],[-57.839234,-23.837907],[-57.839115,-23.836239],[-57.839378,-23.835711],[-57.84035,-23.83517],[-57.840407,-23.834733],[-57.838176,-23.834997],[-57.836655,-23.836575],[-57.835437,-23.83739],[-57.834872,-23.837306],[-57.834789,-23.835591],[-57.835652,-23.832922],[-57.834872,-23.832642],[-57.83411,-23.833015],[-57.83335,-23.835955],[-57.83297,-23.836089],[-57.832393,-23.835798],[-57.832044,-23.834224],[-57.83293,-23.83282],[-57.832906,-23.832298],[-57.832228,-23.832316],[-57.830821,-23.83345],[-57.829995,-23.833094],[-57.829826,-23.831348],[-57.830258,-23.82989],[-57.829905,-23.829222],[-57.827759,-23.827236],[-57.827628,-23.826659],[-57.827143,-23.82671],[-57.825205,-23.828629],[-57.824795,-23.8284],[-57.825008,-23.827295],[-57.826724,-23.826195],[-57.827801,-23.826201],[-57.828421,-23.825379],[-57.828248,-23.824981],[-57.827306,-23.824644],[-57.824758,-23.826347],[-57.824088,-23.826181],[-57.824172,-23.824008],[-57.826236,-23.824093],[-57.826777,-23.823654],[-57.826001,-23.822938],[-57.823739,-23.823257],[-57.823616,-23.821666],[-57.822054,-23.820799],[-57.822607,-23.820155],[-57.822716,-23.819357],[-57.822109,-23.819089],[-57.821494,-23.819366],[-57.820289,-23.821769],[-57.81938,-23.821799],[-57.818856,-23.820707],[-57.817753,-23.820232],[-57.816452,-23.820989],[-57.816381,-23.822544],[-57.81592,-23.823036],[-57.814859,-23.822877],[-57.814557,-23.822343],[-57.81399,-23.822338],[-57.813044,-23.822909],[-57.81256,-23.822467],[-57.812508,-23.821542],[-57.812235,-23.821372],[-57.809739,-23.82098],[-57.809874,-23.820179],[-57.810859,-23.818546],[-57.810215,-23.81802],[-57.809062,-23.819591],[-57.808335,-23.819419],[-57.807594,-23.818158],[-57.80693,-23.818769],[-57.807026,-23.819473],[-57.808722,-23.820453],[-57.808773,-23.820975],[-57.808021,-23.820748],[-57.806998,-23.819912],[-57.805607,-23.819505],[-57.805735,-23.818839],[-57.807258,-23.816792],[-57.808091,-23.81492],[-57.807604,-23.814556],[-57.803818,-23.813441],[-57.804504,-23.811196],[-57.804387,-23.810414],[-57.803432,-23.810284],[-57.801441,-23.811987],[-57.799676,-23.812618],[-57.799436,-23.813643],[-57.800447,-23.814607],[-57.80025,-23.815012],[-57.799716,-23.814956],[-57.798744,-23.813423],[-57.797495,-23.812629],[-57.797568,-23.811985],[-57.798218,-23.811606],[-57.798367,-23.810912],[-57.797395,-23.810758],[-57.796523,-23.811337],[-57.795698,-23.812715],[-57.796147,-23.813647],[-57.794889,-23.813372],[-57.794523,-23.814207],[-57.79505,-23.816571],[-57.796321,-23.817108],[-57.796242,-23.817442],[-57.793368,-23.817128],[-57.791768,-23.816444],[-57.791878,-23.81606],[-57.792667,-23.815714],[-57.792662,-23.81491],[-57.791752,-23.814523],[-57.790617,-23.814539],[-57.790884,-23.813931],[-57.79292,-23.814431],[-57.793603,-23.81439],[-57.793853,-23.814041],[-57.793612,-23.812965],[-57.792466,-23.812721],[-57.790197,-23.813167],[-57.789114,-23.814067],[-57.789057,-23.815362],[-57.790547,-23.816846],[-57.788125,-23.816634],[-57.786188,-23.817708],[-57.786264,-23.818359],[-57.787,-23.818968],[-57.786939,-23.819612],[-57.785591,-23.819434],[-57.784765,-23.817913],[-57.784726,-23.816743],[-57.784273,-23.816744],[-57.796767,-24.219176],[-57.793785,-24.223924],[-57.793161,-24.227283],[-57.792365,-24.237741],[-57.793898,-24.242072],[-57.795218,-24.24376],[-57.706457,-24.252312],[-57.702239,-24.254572],[-57.702065,-24.254969],[-57.702631,-24.256232],[-57.704316,-24.256678],[-57.704635,-24.25714],[-57.704383,-24.257802],[-57.704685,-24.25844],[-57.704357,-24.258702],[-57.704596,-24.259815],[-57.703465,-24.259594],[-57.702943,-24.25987],[-57.702472,-24.260843],[-57.701588,-24.260775],[-57.700853,-24.261299],[-57.699928,-24.261139],[-57.699901,-24.261891],[-57.700296,-24.26233],[-57.699914,-24.262943],[-57.699015,-24.262854],[-57.697844,-24.263533],[-57.697537,-24.262908],[-57.696687,-24.262915],[-57.695608,-24.263732],[-57.69536,-24.262818],[-57.695795,-24.262274],[-57.694983,-24.262095],[-57.694339,-24.262632],[-57.693991,-24.262516],[-57.693814,-24.261698],[-57.694298,-24.261297],[-57.692471,-24.261076],[-57.692495,-24.260741],[-57.693141,-24.260565],[-57.692834,-24.260093],[-57.691182,-24.260529],[-57.691248,-24.261376],[-57.690978,-24.261765],[-57.689944,-24.261451],[-57.688905,-24.262782],[-57.688336,-24.262592],[-57.687915,-24.261809],[-57.685587,-24.261652],[-57.685757,-24.263784],[-57.685971,-24.264014],[-57.68676,-24.263937],[-57.686791,-24.264281],[-57.684822,-24.264821],[-57.68425,-24.265351],[-57.682966,-24.265351],[-57.682967,-24.266507],[-57.682094,-24.266735],[-57.682306,-24.267555],[-57.681385,-24.266814],[-57.681498,-24.266105],[-57.680692,-24.26645],[-57.680574,-24.266956],[-57.681478,-24.268171],[-57.68257,-24.268422],[-57.682475,-24.269171],[-57.68317,-24.269426],[-57.683225,-24.269771],[-57.681834,-24.27006],[-57.681388,-24.268672],[-57.68025,-24.268826],[-57.680283,-24.269253],[-57.68098,-24.2698],[-57.680877,-24.270797],[-57.681326,-24.271489],[-57.681016,-24.273448],[-57.679986,-24.273555],[-57.680196,-24.274176],[-57.679851,-24.27447],[-57.67869,-24.274587],[-57.678128,-24.274299],[-57.677751,-24.275689],[-57.677249,-24.275313],[-57.677649,-24.274173],[-57.677515,-24.273419],[-57.674834,-24.273575],[-57.674634,-24.273904],[-57.675643,-24.275335],[-57.674875,-24.276638],[-57.674107,-24.27612],[-57.672856,-24.276714],[-57.672711,-24.277319],[-57.671405,-24.277097],[-57.671024,-24.276886],[-57.670813,-24.276198],[-57.669988,-24.275744],[-57.670223,-24.275489],[-57.671077,-24.275484],[-57.671109,-24.275164],[-57.670237,-24.274947],[-57.669094,-24.275176],[-57.669045,-24.274371],[-57.668383,-24.274022],[-57.668355,-24.273054],[-57.666563,-24.271527],[-57.666016,-24.27163],[-57.664985,-24.27274],[-57.665364,-24.274514],[-57.664989,-24.27457],[-57.664104,-24.273574],[-57.6641,-24.274362],[-57.663181,-24.275133],[-57.661917,-24.275025],[-57.661172,-24.274138],[-57.662205,-24.273204],[-57.662098,-24.272091],[-57.661818,-24.271763],[-57.659756,-24.27172],[-57.659832,-24.271329],[-57.660976,-24.27064],[-57.661218,-24.270063],[-57.660419,-24.269971],[-57.659758,-24.270396],[-57.659418,-24.269683],[-57.658529,-24.269637],[-57.658298,-24.269337],[-57.658598,-24.268789],[-57.66033,-24.268258],[-57.660415,-24.267473],[-57.659537,-24.266999],[-57.658202,-24.267141],[-57.656791,-24.267985],[-57.656837,-24.266701],[-57.655636,-24.266899],[-57.655162,-24.266323],[-57.654692,-24.26662],[-57.653702,-24.268342],[-57.65451,-24.268816],[-57.653802,-24.269796],[-57.654941,-24.270255],[-57.654049,-24.271036],[-57.654997,-24.271045],[-57.655163,-24.271302],[-57.654782,-24.271793],[-57.65366,-24.271991],[-57.654239,-24.272789],[-57.653293,-24.273353],[-57.653972,-24.274575],[-57.655078,-24.274234],[-57.655116,-24.274742],[-57.654341,-24.275276],[-57.653697,-24.275302],[-57.652761,-24.274147],[-57.651897,-24.274742],[-57.652136,-24.275131],[-57.653595,-24.275638],[-57.654393,-24.276285],[-57.654506,-24.277033],[-57.654282,-24.277194],[-57.652305,-24.277082],[-57.652459,-24.277721],[-57.65416,-24.277985],[-57.654167,-24.27841],[-57.653105,-24.279201],[-57.652081,-24.278887],[-57.651374,-24.276738],[-57.651591,-24.275467],[-57.649897,-24.276556],[-57.649321,-24.27642],[-57.649309,-24.275857],[-57.650699,-24.275042],[-57.650521,-24.274831],[-57.647988,-24.27604],[-57.647601,-24.276614],[-57.64691,-24.276363],[-57.646504,-24.275407],[-57.646006,-24.275432],[-57.645825,-24.275751],[-57.64687,-24.277209],[-57.646456,-24.277331],[-57.645081,-24.276314],[-57.644812,-24.276783],[-57.645214,-24.277945],[-57.644466,-24.277897],[-57.644224,-24.278156],[-57.646098,-24.279718],[-57.646585,-24.279548],[-57.64704,-24.278706],[-57.647571,-24.278635],[-57.647682,-24.279979],[-57.647008,-24.280878],[-57.645065,-24.280659],[-57.644141,-24.279732],[-57.643392,-24.279827],[-57.642864,-24.280309],[-57.642077,-24.279904],[-57.641932,-24.280406],[-57.642341,-24.281355],[-57.643582,-24.282021],[-57.643222,-24.282734],[-57.642533,-24.282916],[-57.641311,-24.282768],[-57.640747,-24.280756],[-57.64043,-24.280517],[-57.637434,-24.281446],[-57.637477,-24.281939],[-57.640128,-24.283237],[-57.640424,-24.28388],[-57.639313,-24.285073],[-57.637158,-24.285682],[-57.637071,-24.287418],[-57.637659,-24.288856],[-57.637167,-24.289499],[-57.636499,-24.289439],[-57.635785,-24.288966],[-57.633943,-24.286614],[-57.634212,-24.285617],[-57.634829,-24.28504],[-57.634884,-24.283985],[-57.634034,-24.282478],[-57.632811,-24.282467],[-57.632118,-24.283086],[-57.63257,-24.281232],[-57.632254,-24.280789],[-57.631058,-24.281453],[-57.631214,-24.282291],[-57.630823,-24.283636],[-57.630878,-24.284945],[-57.628518,-24.286874],[-57.627213,-24.286851],[-57.626359,-24.287292],[-57.626264,-24.289591],[-57.626151,-24.290092],[-57.625756,-24.290267],[-57.625358,-24.29013],[-57.625138,-24.289047],[-57.622645,-24.288496],[-57.622163,-24.288093],[-57.62195,-24.287273],[-57.621071,-24.28752],[-57.620131,-24.286953],[-57.619486,-24.287888],[-57.618744,-24.287722],[-57.618208,-24.287996],[-57.617445,-24.289818],[-57.616026,-24.289829],[-57.614504,-24.290854],[-57.613865,-24.290827],[-57.612795,-24.289798],[-57.612043,-24.290743],[-57.610237,-24.29137],[-57.608877,-24.291695],[-57.608523,-24.291055],[-57.607975,-24.291154],[-57.60746,-24.291994],[-57.607858,-24.292581],[-57.607365,-24.293934],[-57.605532,-24.293592],[-57.604517,-24.292351],[-57.603817,-24.292269],[-57.603096,-24.293535],[-57.603424,-24.294739],[-57.602821,-24.295978],[-57.601916,-24.296324],[-57.601017,-24.296212],[-57.599871,-24.295489],[-57.600023,-24.294964],[-57.601057,-24.294282],[-57.601127,-24.293381],[-57.600905,-24.293234],[-57.599865,-24.293197],[-57.598361,-24.293753],[-57.598352,-24.294379],[-57.599228,-24.295807],[-57.599112,-24.296395],[-57.598321,-24.296337],[-57.597638,-24.295538],[-57.595021,-24.29446],[-57.594592,-24.294653],[-57.594507,-24.295246],[-57.59678,-24.296178],[-57.598031,-24.298112],[-57.598754,-24.298233],[-57.598413,-24.300076],[-57.59707,-24.300755],[-57.596191,-24.300497],[-57.594921,-24.298316],[-57.593985,-24.298634],[-57.593272,-24.297833],[-57.593121,-24.298396],[-57.593474,-24.299001],[-57.593028,-24.299269],[-57.591437,-24.297095],[-57.59097,-24.297566],[-57.591229,-24.299602],[-57.59051,-24.299924],[-57.590076,-24.299468],[-57.589906,-24.296786],[-57.589231,-24.297067],[-57.588693,-24.299335],[-57.588296,-24.298905],[-57.588485,-24.29772],[-57.588023,-24.29738],[-57.587623,-24.297565],[-57.587386,-24.29881],[-57.586577,-24.300376],[-57.587857,-24.301124],[-57.588746,-24.300079],[-57.5891,-24.300498],[-57.589011,-24.301404],[-57.590185,-24.301163],[-57.589682,-24.303307],[-57.587975,-24.304462],[-57.585947,-24.303913],[-57.586002,-24.302365],[-57.585583,-24.302081],[-57.583541,-24.301714],[-57.582645,-24.302351],[-57.582933,-24.303201],[-57.583972,-24.30392],[-57.583989,-24.304569],[-57.583398,-24.305094],[-57.581203,-24.305315],[-57.579756,-24.303947],[-57.579189,-24.303918],[-57.578742,-24.304243],[-57.578044,-24.306575],[-57.577227,-24.307235],[-57.576724,-24.307041],[-57.576251,-24.306074],[-57.576362,-24.304731],[-57.575231,-24.304088],[-57.575115,-24.301769],[-57.574129,-24.301329],[-57.573095,-24.302143],[-57.570264,-24.302454],[-57.569059,-24.301873],[-57.568833,-24.302255],[-57.570581,-24.303496],[-57.570731,-24.304066],[-57.570275,-24.304191],[-57.568701,-24.303106],[-57.568369,-24.303061],[-57.567893,-24.303585],[-57.566612,-24.303402],[-57.56553,-24.304653],[-57.565581,-24.305681],[-57.565084,-24.306023],[-57.564362,-24.30512],[-57.564629,-24.302539],[-57.564196,-24.301921],[-57.562075,-24.303046],[-57.560075,-24.303008],[-57.560154,-24.303502],[-57.561461,-24.305033],[-57.56314,-24.306391],[-57.563147,-24.308093],[-57.562043,-24.310481],[-57.561312,-24.313379],[-57.562869,-24.32921],[-57.556237,-24.342859],[-57.553283,-24.347471],[-57.55274,-24.350706],[-57.551454,-24.354287],[-57.546936,-24.362821],[-57.54658,-24.366398],[-57.545849,-24.369467],[-57.544303,-24.373207],[-57.494531,-24.700068],[-57.416807,-24.868048],[-57.417168,-24.97559],[-57.47928,-24.975566],[-57.480898,-25.009426],[-57.498581,-25.022003],[-57.518798,-25.03829],[-57.531344,-25.042811],[-57.542096,-25.048],[-57.550628,-25.051723],[-57.545816,-25.058081],[-57.550928,-25.060047],[-57.590018,-25.068962]]]}}]}
