{"type":"FeatureCollection","name":"distrito","features":[{"type":"Feature","properties":{"clave":"14-15","nombre":"Villa Ygatimí"},"geometry":{"type":"Polygon","coordinates":[[[-55.639298,-24.245714],[-55.639693,-24.246966],[-55.640056,-24.247025],[-55.640438,-24.246626],[-55.641542,-24.246761],[-55.64259,-24.247825],[-55.643659,-24.248306],[-55.644884,-24.248386],[-55.645815,-24.249172],[-55.64642,-24.249136],[-55.64649,-24.248304],[-55.645153,-24.247306],[-55.644835,-24.245916],[-55.645111,-24.24553],[-55.646022,-24.245274],[-55.645562,-24.244424],[-55.645751,-24.243759],[-55.645099,-24.243837],[-55.645151,-24.244684],[-55.644754,-24.244944],[-55.64443,-24.244122],[-55.644586,-24.243666],[-55.647072,-24.241856],[-55.648014,-24.241545],[-55.652025,-24.241484],[-55.652046,-24.240957],[-55.650882,-24.24078],[-55.650553,-24.240458],[-55.650616,-24.240208],[-55.65245,-24.239919],[-55.652096,-24.239042],[-55.652703,-24.238895],[-55.652783,-24.238521],[-55.65206,-24.23814],[-55.651917,-24.237361],[-55.651629,-24.237387],[-55.651668,-24.238025],[-55.651199,-24.238035],[-55.650681,-24.236948],[-55.65091,-24.236742],[-55.651938,-24.236848],[-55.652122,-24.236586],[-55.651271,-24.235538],[-55.651959,-24.23485],[-55.652434,-24.235756],[-55.653311,-24.235736],[-55.653333,-24.235126],[-55.653896,-24.234853],[-55.655006,-24.235751],[-55.656412,-24.235861],[-55.656477,-24.238359],[-55.657703,-24.238328],[-55.658026,-24.237832],[-55.658283,-24.237917],[-55.658555,-24.239349],[-55.659717,-24.239651],[-55.659622,-24.240066],[-55.658482,-24.240514],[-55.659964,-24.240638],[-55.660453,-24.240184],[-55.660622,-24.241379],[-55.661309,-24.240872],[-55.662198,-24.242656],[-55.662576,-24.242673],[-55.662931,-24.242052],[-55.663415,-24.24207],[-55.664655,-24.243552],[-55.665077,-24.242307],[-55.666107,-24.242191],[-55.670881,-24.243079],[-55.670947,-24.242483],[-55.67008,-24.241448],[-55.669441,-24.241817],[-55.669095,-24.241565],[-55.669496,-24.240833],[-55.672045,-24.238801],[-55.673944,-24.239553],[-55.674062,-24.239859],[-55.673665,-24.240217],[-55.673858,-24.240565],[-55.675048,-24.239577],[-55.67501,-24.238924],[-55.676478,-24.238923],[-55.676951,-24.238511],[-55.67743,-24.239028],[-55.677589,-24.238294],[-55.678084,-24.238757],[-55.678495,-24.238441],[-55.678547,-24.237845],[-55.677492,-24.237419],[-55.677333,-24.236669],[-55.677578,-24.236407],[-55.679532,-24.236285],[-55.68002,-24.235887],[-55.680026,-24.235276],[-55.67855,-24.235469],[-55.678317,-24.235165],[-55.680279,-24.23421],[-55.680464,-24.233893],[-55.679786,-24.233609],[-55.679624,-24.233247],[-55.680609,-24.233089],[-55.681043,-24.233509],[-55.681332,-24.233387],[-55.681311,-24.232484],[-55.682474,-24.232689],[-55.682651,-24.231437],[-55.680855,-24.23119],[-55.680124,-24.231725],[-55.68002,-24.23146],[-55.680803,-24.230399],[-55.680144,-24.229782],[-55.680074,-24.229213],[-55.680525,-24.227982],[-55.681376,-24.227642],[-55.681442,-24.227171],[-55.679793,-24.227129],[-55.679765,-24.225422],[-55.680175,-24.225286],[-55.680474,-24.22558],[-55.680691,-24.225083],[-55.680513,-24.224818],[-55.679576,-24.224698],[-55.679434,-24.223726],[-55.678992,-24.224069],[-55.678241,-24.223535],[-55.679213,-24.223169],[-55.678757,-24.22193],[-55.678411,-24.221663],[-55.678123,-24.221786],[-55.677766,-24.222643],[-55.677284,-24.222417],[-55.677795,-24.221311],[-55.678312,-24.221038],[-55.678043,-24.220744],[-55.678517,-24.220249],[-55.67833,-24.219331],[-55.679108,-24.218672],[-55.68029,-24.218488],[-55.680034,-24.216931],[-55.681006,-24.216607],[-55.681074,-24.215802],[-55.683511,-24.214255],[-55.683379,-24.213852],[-55.682367,-24.213746],[-55.682328,-24.213052],[-55.682542,-24.212887],[-55.683281,-24.213157],[-55.683775,-24.213633],[-55.684231,-24.213471],[-55.684678,-24.2126],[-55.684201,-24.211972],[-55.684272,-24.210862],[-55.68497,-24.210716],[-55.685798,-24.21107],[-55.685702,-24.210181],[-55.687557,-24.209253],[-55.687649,-24.20763],[-55.688086,-24.206357],[-55.687502,-24.205769],[-55.688038,-24.205177],[-55.687964,-24.204955],[-55.687161,-24.205059],[-55.687043,-24.204808],[-55.687577,-24.204313],[-55.688424,-24.204417],[-55.688384,-24.203876],[-55.687908,-24.203025],[-55.687842,-24.202109],[-55.68714,-24.201242],[-55.687046,-24.20009],[-55.685403,-24.199521],[-55.684685,-24.19864],[-55.685083,-24.198213],[-55.682578,-24.197553],[-55.681767,-24.197005],[-55.680719,-24.197399],[-55.680834,-24.196581],[-55.680579,-24.196343],[-55.680067,-24.196116],[-55.679294,-24.196248],[-55.67833,-24.194353],[-55.678471,-24.193868],[-55.6781,-24.193213],[-55.676948,-24.193411],[-55.676044,-24.193015],[-55.674925,-24.192991],[-55.674867,-24.192768],[-55.675886,-24.192222],[-55.676027,-24.191752],[-55.675116,-24.19062],[-55.674213,-24.19014],[-55.672422,-24.190749],[-55.672093,-24.190344],[-55.673303,-24.188925],[-55.67536,-24.187513],[-55.676681,-24.187067],[-55.678118,-24.186996],[-55.678322,-24.186304],[-55.679401,-24.1858],[-55.679545,-24.18508],[-55.682952,-24.18479],[-55.683841,-24.185117],[-55.684175,-24.185023],[-55.684438,-24.1844],[-55.685817,-24.18419],[-55.686913,-24.183492],[-55.688443,-24.183269],[-55.689435,-24.182417],[-55.690868,-24.182846],[-55.691084,-24.182431],[-55.690684,-24.181568],[-55.690838,-24.181347],[-55.691766,-24.180828],[-55.692181,-24.180193],[-55.693075,-24.179992],[-55.693719,-24.179124],[-55.69477,-24.178439],[-55.695862,-24.178157],[-55.69594,-24.177935],[-55.694875,-24.177066],[-55.694932,-24.175887],[-55.695192,-24.175625],[-55.694853,-24.17479],[-55.694041,-24.174283],[-55.694909,-24.17375],[-55.693986,-24.172229],[-55.695135,-24.172294],[-55.696194,-24.170832],[-55.696723,-24.170879],[-55.696575,-24.17053],[-55.694522,-24.17011],[-55.694435,-24.171206],[-55.693857,-24.171576],[-55.693739,-24.169785],[-55.692948,-24.170222],[-55.692619,-24.169858],[-55.693416,-24.167367],[-55.692535,-24.167734],[-55.692353,-24.169204],[-55.692111,-24.169257],[-55.69172,-24.169046],[-55.691688,-24.167658],[-55.690891,-24.167276],[-55.690849,-24.166901],[-55.69237,-24.166095],[-55.6934,-24.165938],[-55.696196,-24.166114],[-55.700661,-24.167346],[-55.701251,-24.167295],[-55.702093,-24.166359],[-55.702683,-24.164851],[-55.704455,-24.166046],[-55.704714,-24.165909],[-55.704562,-24.164451],[-55.70464,-24.164243],[-55.70529,-24.164291],[-55.704451,-24.163492],[-55.70441,-24.16302],[-55.704609,-24.162842],[-55.705469,-24.163057],[-55.70564,-24.162587],[-55.705518,-24.161156],[-55.705053,-24.160764],[-55.705613,-24.160713],[-55.70612,-24.161411],[-55.706394,-24.161261],[-55.70672,-24.158932],[-55.706542,-24.158639],[-55.705151,-24.158586],[-55.704285,-24.158898],[-55.70543,-24.157867],[-55.705617,-24.157369],[-55.705309,-24.156353],[-55.706307,-24.154891],[-55.709741,-24.153268],[-55.711187,-24.153891],[-55.711928,-24.15387],[-55.712601,-24.153168],[-55.713465,-24.152939],[-55.713338,-24.151994],[-55.713794,-24.151818],[-55.715407,-24.152359],[-55.717044,-24.15351],[-55.717515,-24.153306],[-55.718554,-24.153676],[-55.720257,-24.15283],[-55.721858,-24.153051],[-55.721863,-24.152482],[-55.720962,-24.151892],[-55.72085,-24.150989],[-55.720594,-24.150834],[-55.71938,-24.151254],[-55.719271,-24.150087],[-55.718534,-24.149637],[-55.719761,-24.147968],[-55.720349,-24.148084],[-55.720493,-24.148807],[-55.721265,-24.148814],[-55.72075,-24.147366],[-55.721581,-24.147442],[-55.721223,-24.146926],[-55.720363,-24.146683],[-55.720291,-24.146391],[-55.721244,-24.146274],[-55.718492,-24.141713],[-55.717579,-24.140817],[-55.717348,-24.139663],[-55.717535,-24.139138],[-55.718433,-24.138521],[-55.718186,-24.13752],[-55.719188,-24.137139],[-55.719449,-24.136753],[-55.719567,-24.135519],[-55.720778,-24.135404],[-55.719597,-24.13402],[-55.718811,-24.134042],[-55.71932,-24.132977],[-55.720523,-24.133709],[-55.720977,-24.133685],[-55.719903,-24.132177],[-55.720257,-24.13157],[-55.719639,-24.131356],[-55.719824,-24.130969],[-55.720995,-24.130299],[-55.722293,-24.130504],[-55.721605,-24.129805],[-55.72056,-24.129963],[-55.721458,-24.127819],[-55.720562,-24.126729],[-55.721165,-24.123903],[-55.722028,-24.12373],[-55.722947,-24.124085],[-55.723403,-24.123839],[-55.724067,-24.122443],[-55.723906,-24.1219],[-55.72297,-24.12174],[-55.723365,-24.120064],[-55.723025,-24.119256],[-55.723134,-24.118938],[-55.72497,-24.118273],[-55.724626,-24.117868],[-55.723584,-24.117831],[-55.723572,-24.117443],[-55.724136,-24.117059],[-55.726975,-24.117332],[-55.72725,-24.117043],[-55.727045,-24.116362],[-55.724759,-24.116717],[-55.725116,-24.11579],[-55.725345,-24.11557],[-55.725869,-24.11606],[-55.726278,-24.116036],[-55.727193,-24.115155],[-55.727733,-24.115604],[-55.728248,-24.115553],[-55.728614,-24.115209],[-55.728033,-24.114358],[-55.72879,-24.114211],[-55.72983,-24.114553],[-55.729282,-24.113397],[-55.732166,-24.11374],[-55.735512,-24.113309],[-55.741071,-24.113799],[-55.742372,-24.113755],[-55.743649,-24.11296],[-55.744026,-24.111562],[-55.743237,-24.110348],[-55.742455,-24.109828],[-55.742003,-24.109727],[-55.74141,-24.110055],[-55.741426,-24.111554],[-55.740793,-24.111272],[-55.740755,-24.110522],[-55.739939,-24.108961],[-55.740421,-24.107563],[-55.74143,-24.106434],[-55.741634,-24.105658],[-55.739735,-24.105143],[-55.739541,-24.10485],[-55.739636,-24.104407],[-55.741001,-24.103974],[-55.741468,-24.10413],[-55.742065,-24.104954],[-55.742503,-24.104944],[-55.743314,-24.103937],[-55.744313,-24.103876],[-55.744213,-24.103265],[-55.742871,-24.102305],[-55.74222,-24.101417],[-55.742515,-24.100628],[-55.743814,-24.100764],[-55.744287,-24.100323],[-55.74275,-24.098243],[-55.742587,-24.097867],[-55.742851,-24.097161],[-55.744519,-24.09662],[-55.746423,-24.096788],[-55.746926,-24.097833],[-55.74686,-24.099984],[-55.748263,-24.100245],[-55.748367,-24.100496],[-55.747678,-24.10142],[-55.748294,-24.101772],[-55.748976,-24.101569],[-55.749499,-24.100713],[-55.749618,-24.097772],[-55.750119,-24.097554],[-55.751397,-24.098231],[-55.752064,-24.098069],[-55.753126,-24.099202],[-55.754223,-24.101445],[-55.752816,-24.104737],[-55.751886,-24.105534],[-55.752049,-24.105813],[-55.752851,-24.105764],[-55.753844,-24.104704],[-55.75556,-24.103954],[-55.757708,-24.105359],[-55.758865,-24.104536],[-55.758893,-24.101594],[-55.760596,-24.102163],[-55.761731,-24.102075],[-55.762618,-24.10261],[-55.764111,-24.101359],[-55.763797,-24.10101],[-55.762284,-24.101164],[-55.762273,-24.100692],[-55.763282,-24.099535],[-55.764706,-24.100795],[-55.765327,-24.100731],[-55.765545,-24.100025],[-55.764699,-24.098436],[-55.765665,-24.098555],[-55.76652,-24.099297],[-55.766913,-24.099217],[-55.767527,-24.098292],[-55.766948,-24.097149],[-55.768894,-24.097623],[-55.769153,-24.097417],[-55.769117,-24.096445],[-55.769984,-24.095842],[-55.769753,-24.094744],[-55.770555,-24.094653],[-55.771589,-24.095633],[-55.772516,-24.095113],[-55.773877,-24.095054],[-55.773702,-24.094373],[-55.772361,-24.093849],[-55.771632,-24.092663],[-55.771771,-24.092373],[-55.772885,-24.092812],[-55.775182,-24.092914],[-55.775426,-24.092694],[-55.774923,-24.091552],[-55.774485,-24.091465],[-55.773529,-24.091929],[-55.773168,-24.091746],[-55.773101,-24.090788],[-55.774513,-24.090202],[-55.774774,-24.08976],[-55.775423,-24.089821],[-55.775941,-24.090963],[-55.776259,-24.089328],[-55.776563,-24.089178],[-55.777635,-24.08927],[-55.778791,-24.088571],[-55.781739,-24.088553],[-55.78213,-24.088737],[-55.783337,-24.092146],[-55.784978,-24.094532],[-55.785579,-24.094912],[-55.787046,-24.094812],[-55.789033,-24.094106],[-55.790198,-24.094032],[-55.790201,-24.093727],[-55.789071,-24.093288],[-55.788945,-24.092191],[-55.789166,-24.091277],[-55.78953,-24.091044],[-55.791379,-24.092182],[-55.792033,-24.093339],[-55.793168,-24.093279],[-55.793264,-24.091115],[-55.793702,-24.091146],[-55.794009,-24.092245],[-55.79437,-24.092456],[-55.794826,-24.092182],[-55.795108,-24.091074],[-55.795901,-24.0904],[-55.795723,-24.09001],[-55.795165,-24.089895],[-55.79371,-24.090244],[-55.793887,-24.089107],[-55.79439,-24.088723],[-55.79507,-24.088742],[-55.796844,-24.089783],[-55.797243,-24.089064],[-55.795546,-24.087858],[-55.794625,-24.087781],[-55.793428,-24.088105],[-55.793279,-24.087812],[-55.79354,-24.087453],[-55.795675,-24.087068],[-55.796323,-24.087225],[-55.797071,-24.088119],[-55.797448,-24.08815],[-55.797753,-24.087917],[-55.797744,-24.087223],[-55.797431,-24.086762],[-55.795925,-24.086195],[-55.795689,-24.085569],[-55.796978,-24.085066],[-55.797361,-24.086179],[-55.799644,-24.086127],[-55.799918,-24.08588],[-55.799786,-24.085518],[-55.7989,-24.084859],[-55.798874,-24.084387],[-55.801606,-24.084824],[-55.803609,-24.085659],[-55.804072,-24.086259],[-55.805341,-24.084715],[-55.805945,-24.08472],[-55.806666,-24.085266],[-55.807288,-24.085035],[-55.806298,-24.084167],[-55.806107,-24.083611],[-55.806291,-24.083293],[-55.807244,-24.083273],[-55.807531,-24.082427],[-55.807902,-24.082362],[-55.80814,-24.082794],[-55.80781,-24.084165],[-55.808218,-24.084196],[-55.809496,-24.083276],[-55.811112,-24.083428],[-55.811588,-24.082654],[-55.811905,-24.082657],[-55.811976,-24.083171],[-55.811165,-24.084261],[-55.811265,-24.084858],[-55.813304,-24.08504],[-55.813315,-24.085499],[-55.812341,-24.086185],[-55.812566,-24.086409],[-55.813476,-24.086097],[-55.814868,-24.084275],[-55.815981,-24.084853],[-55.815897,-24.084131],[-55.81486,-24.083512],[-55.814729,-24.082942],[-55.815244,-24.082863],[-55.817126,-24.083682],[-55.817244,-24.083989],[-55.816493,-24.085135],[-55.817265,-24.085016],[-55.817833,-24.084049],[-55.817164,-24.082808],[-55.817289,-24.082324],[-55.817819,-24.082244],[-55.818991,-24.082989],[-55.820508,-24.082376],[-55.820747,-24.082767],[-55.820575,-24.08332],[-55.819966,-24.083871],[-55.820175,-24.084136],[-55.821069,-24.083879],[-55.821491,-24.084035],[-55.821921,-24.084913],[-55.822195,-24.084748],[-55.822248,-24.083888],[-55.823974,-24.083541],[-55.827908,-24.079824],[-55.828651,-24.077915],[-55.829591,-24.07763],[-55.830661,-24.077972],[-55.830952,-24.077544],[-55.830693,-24.076126],[-55.829365,-24.07588],[-55.828922,-24.076362],[-55.82806,-24.076383],[-55.826909,-24.074959],[-55.826898,-24.074571],[-55.828865,-24.074322],[-55.831895,-24.075247],[-55.832866,-24.074824],[-55.833787,-24.074915],[-55.83582,-24.075707],[-55.836131,-24.07478],[-55.8342,-24.074363],[-55.834202,-24.074127],[-55.835415,-24.073692],[-55.836621,-24.074048],[-55.837039,-24.072997],[-55.838346,-24.073895],[-55.838221,-24.072659],[-55.838676,-24.07244],[-55.840307,-24.072675],[-55.840581,-24.072455],[-55.840287,-24.071536],[-55.840579,-24.071011],[-55.841182,-24.071127],[-55.841886,-24.07184],[-55.842144,-24.071717],[-55.841512,-24.069728],[-55.84295,-24.069558],[-55.844269,-24.067389],[-55.844013,-24.066658],[-55.841452,-24.066047],[-55.841163,-24.066424],[-55.842204,-24.068351],[-55.841547,-24.068134],[-55.841005,-24.067411],[-55.840209,-24.064881],[-55.839272,-24.065095],[-55.839198,-24.063162],[-55.838808,-24.063191],[-55.838569,-24.064029],[-55.837929,-24.063654],[-55.837798,-24.062854],[-55.838275,-24.062356],[-55.838061,-24.061916],[-55.838397,-24.061598],[-55.837406,-24.061315],[-55.836999,-24.059971],[-55.835969,-24.060257],[-55.835947,-24.059783],[-55.835363,-24.059376],[-55.835209,-24.057957],[-55.834458,-24.057843],[-55.834957,-24.05721],[-55.834952,-24.056506],[-55.83434,-24.056704],[-55.833644,-24.055633],[-55.832744,-24.055455],[-55.83241,-24.055606],[-55.832768,-24.056182],[-55.832234,-24.056246],[-55.831876,-24.055232],[-55.831482,-24.054998],[-55.831899,-24.054536],[-55.830192,-24.053417],[-55.829748,-24.052334],[-55.829272,-24.052958],[-55.828795,-24.052386],[-55.82808,-24.052105],[-55.827576,-24.050606],[-55.826597,-24.050482],[-55.826166,-24.049286],[-55.825588,-24.049498],[-55.825419,-24.048969],[-55.824908,-24.048717],[-55.825217,-24.048136],[-55.824788,-24.047108],[-55.823985,-24.047125],[-55.824511,-24.046573],[-55.823866,-24.045923],[-55.824201,-24.045618],[-55.824119,-24.044601],[-55.823698,-24.044287],[-55.823049,-24.044345],[-55.822921,-24.043658],[-55.822186,-24.044112],[-55.821876,-24.043442],[-55.821031,-24.043097],[-55.820758,-24.041794],[-55.820173,-24.041297],[-55.818132,-24.041006],[-55.817893,-24.041456],[-55.817358,-24.040305],[-55.814562,-24.040337],[-55.81457,-24.039538],[-55.813919,-24.039511],[-55.813507,-24.039819],[-55.813466,-24.039186],[-55.812646,-24.039826],[-55.811785,-24.038717],[-55.81146,-24.039076],[-55.810977,-24.039099],[-55.81083,-24.039961],[-55.810238,-24.039712],[-55.809852,-24.039976],[-55.80944,-24.039656],[-55.80882,-24.039986],[-55.808223,-24.039123],[-55.806993,-24.0391],[-55.80585,-24.038441],[-55.804138,-24.038193],[-55.803675,-24.037787],[-55.801795,-24.037619],[-55.801527,-24.03745],[-55.801582,-24.036895],[-55.80043,-24.036863],[-55.800574,-24.035979],[-55.799558,-24.034531],[-55.798885,-24.034363],[-55.79932,-24.032786],[-55.79888,-24.032638],[-55.79872,-24.032154],[-55.797765,-24.031794],[-55.797862,-24.031118],[-55.79742,-24.030717],[-55.79779,-24.030322],[-55.797296,-24.029971],[-55.797859,-24.029546],[-55.797482,-24.029349],[-55.797001,-24.029752],[-55.797146,-24.029017],[-55.79663,-24.029112],[-55.796169,-24.028431],[-55.795372,-24.028222],[-55.795264,-24.027923],[-55.795906,-24.027842],[-55.795583,-24.027487],[-55.794641,-24.027376],[-55.795253,-24.026369],[-55.79466,-24.026283],[-55.794636,-24.02561],[-55.793805,-24.025658],[-55.793825,-24.024552],[-55.793044,-24.025029],[-55.79062,-24.024603],[-55.789942,-24.02528],[-55.790579,-24.025705],[-55.790564,-24.026016],[-55.788876,-24.026464],[-55.78767,-24.026201],[-55.787832,-24.025304],[-55.786885,-24.02498],[-55.786786,-24.024532],[-55.786279,-24.024547],[-55.786151,-24.02418],[-55.785687,-24.024054],[-55.785709,-24.023716],[-55.785224,-24.023545],[-55.784937,-24.023931],[-55.78449,-24.02367],[-55.784337,-24.023976],[-55.783729,-24.024007],[-55.783629,-24.024512],[-55.783258,-24.024211],[-55.78241,-24.02443],[-55.7826,-24.024725],[-55.783363,-24.024839],[-55.783067,-24.025393],[-55.782131,-24.024961],[-55.781659,-24.025386],[-55.781442,-24.024635],[-55.78117,-24.025116],[-55.780818,-24.024815],[-55.77984,-24.024951],[-55.778945,-24.024655],[-55.778437,-24.02504],[-55.778428,-24.025608],[-55.777877,-24.025333],[-55.777548,-24.02552],[-55.777499,-24.026373],[-55.776871,-24.026039],[-55.776501,-24.026726],[-55.777155,-24.026863],[-55.777063,-24.027368],[-55.776386,-24.027547],[-55.775995,-24.028307],[-55.775367,-24.028487],[-55.775518,-24.029125],[-55.774563,-24.029289],[-55.774009,-24.029863],[-55.774086,-24.030807],[-55.774521,-24.031298],[-55.773501,-24.032311],[-55.77376,-24.032484],[-55.774255,-24.032127],[-55.774564,-24.032378],[-55.773958,-24.033186],[-55.773171,-24.033202],[-55.773341,-24.03393],[-55.772988,-24.033973],[-55.772647,-24.033442],[-55.77228,-24.033416],[-55.772527,-24.034714],[-55.771603,-24.033894],[-55.770342,-24.034295],[-55.769936,-24.034982],[-55.768505,-24.033905],[-55.76665,-24.033809],[-55.76512,-24.033178],[-55.763419,-24.033864],[-55.763331,-24.033209],[-55.761569,-24.032675],[-55.761096,-24.032107],[-55.760853,-24.031062],[-55.761076,-24.030377],[-55.760765,-24.030059],[-55.760186,-24.030059],[-55.759794,-24.029238],[-55.760105,-24.027656],[-55.759555,-24.026653],[-55.759732,-24.026176],[-55.757653,-24.025189],[-55.755119,-24.025204],[-55.752416,-24.02627],[-55.752043,-24.026958],[-55.750495,-24.026539],[-55.748992,-24.026861],[-55.747991,-24.02744],[-55.740725,-24.029796],[-55.739002,-24.029258],[-55.738447,-24.028468],[-55.735641,-24.027474],[-55.734983,-24.026651],[-55.734526,-24.026602],[-55.733469,-24.025645],[-55.733015,-24.025619],[-55.7319,-24.024553],[-55.730542,-24.024695],[-55.729841,-24.025231],[-55.7279,-24.025622],[-55.727492,-24.026187],[-55.726687,-24.026388],[-55.725005,-24.025756],[-55.722253,-24.02357],[-55.720925,-24.023342],[-55.719738,-24.022172],[-55.719535,-24.020973],[-55.718478,-24.019849],[-55.715791,-24.018851],[-55.715004,-24.018872],[-55.713546,-24.017645],[-55.71218,-24.014626],[-55.712293,-24.012668],[-55.711753,-24.011241],[-55.711229,-24.010961],[-55.710151,-24.011092],[-55.707131,-24.009387],[-55.707182,-24.005743],[-55.708014,-24.00463],[-55.70919,-24.00404],[-55.709268,-24.003128],[-55.708933,-24.002484],[-55.70789,-24.001875],[-55.706942,-24.000616],[-55.706199,-23.999097],[-55.704722,-23.997179],[-55.703265,-23.993966],[-55.702619,-23.993346],[-55.701478,-23.992907],[-55.700732,-23.992838],[-55.698882,-23.993323],[-55.697652,-23.993137],[-55.696269,-23.992516],[-55.695651,-23.991336],[-55.696354,-23.988755],[-55.695883,-23.98792],[-55.693605,-23.98721],[-55.692033,-23.986257],[-55.688582,-23.982868],[-55.684103,-23.981168],[-55.682172,-23.980976],[-55.680701,-23.979545],[-55.679752,-23.977708],[-55.679321,-23.974648],[-55.678094,-23.971991],[-55.675503,-23.968343],[-55.676298,-23.966788],[-55.675949,-23.965994],[-55.675931,-23.964825],[-55.675354,-23.964264],[-55.675403,-23.96352],[-55.674193,-23.961965],[-55.674713,-23.960091],[-55.674468,-23.95882],[-55.674916,-23.957939],[-55.677281,-23.955228],[-55.67875,-23.954622],[-55.68012,-23.953022],[-55.679916,-23.951498],[-55.677006,-23.948606],[-55.676561,-23.946299],[-55.674712,-23.945326],[-55.673433,-23.945134],[-55.672387,-23.944561],[-55.670279,-23.941761],[-55.669369,-23.941383],[-55.66885,-23.940769],[-55.665662,-23.939825],[-55.664575,-23.938276],[-55.664278,-23.936887],[-55.663778,-23.936386],[-55.657341,-23.936759],[-55.655672,-23.935963],[-55.654806,-23.935933],[-55.653812,-23.934181],[-55.652962,-23.93383],[-55.651855,-23.932457],[-55.650141,-23.931959],[-55.646905,-23.9303],[-55.645173,-23.930628],[-55.643636,-23.930561],[-55.641504,-23.931363],[-55.637305,-23.931787],[-55.635811,-23.930907],[-55.635173,-23.929334],[-55.633646,-23.928526],[-55.631516,-23.926737],[-55.629802,-23.925972],[-55.628771,-23.92459],[-55.627235,-23.923592],[-55.626184,-23.922278],[-55.621347,-23.919562],[-55.618037,-23.916348],[-55.61672,-23.915691],[-55.615967,-23.915594],[-55.614603,-23.916029],[-55.613228,-23.915705],[-55.612176,-23.916661],[-55.611098,-23.917175],[-55.6071,-23.917604],[-55.603412,-23.919251],[-55.601979,-23.919301],[-55.600486,-23.918849],[-55.597387,-23.914834],[-55.596716,-23.913324],[-55.596868,-23.911316],[-55.595281,-23.910128],[-55.594825,-23.907216],[-55.594214,-23.905662],[-55.592923,-23.905158],[-55.593502,-23.903632],[-55.592913,-23.902367],[-55.589323,-23.90009],[-55.587524,-23.898209],[-55.58757,-23.896674],[-55.586928,-23.89264],[-55.585233,-23.89248],[-55.584475,-23.890288],[-55.583811,-23.889428],[-55.58076,-23.888263],[-55.578017,-23.883912],[-55.575075,-23.883099],[-55.573827,-23.88204],[-55.572889,-23.881837],[-55.571245,-23.882092],[-55.569756,-23.88272],[-55.567753,-23.8829],[-55.563464,-23.885673],[-55.562932,-23.885605],[-55.5626,-23.884193],[-55.561896,-23.883468],[-55.561171,-23.883692],[-55.559405,-23.88549],[-55.558754,-23.885651],[-55.552782,-23.884119],[-55.550776,-23.884565],[-55.550092,-23.884152],[-55.54972,-23.882826],[-55.548417,-23.883874],[-55.547923,-23.883472],[-55.547547,-23.882439],[-55.546657,-23.882887],[-55.544787,-23.88277],[-55.544552,-23.880939],[-55.543462,-23.880161],[-55.542885,-23.878625],[-55.541513,-23.877858],[-55.540379,-23.878078],[-55.53974,-23.877814],[-55.539603,-23.877276],[-55.539866,-23.876944],[-55.539502,-23.876227],[-55.540094,-23.875659],[-55.538907,-23.875197],[-55.538474,-23.874298],[-55.53626,-23.874151],[-55.535585,-23.873101],[-55.535131,-23.873174],[-55.534812,-23.873659],[-55.533348,-23.873834],[-55.532642,-23.873069],[-55.532052,-23.873908],[-55.531365,-23.874244],[-55.530489,-23.87424],[-55.529872,-23.873824],[-55.52936,-23.874103],[-55.5274,-23.87394],[-55.525411,-23.875542],[-55.525093,-23.876248],[-55.524141,-23.87669],[-55.523038,-23.87905],[-55.522422,-23.879198],[-55.521286,-23.87888],[-55.519724,-23.879853],[-55.518033,-23.879851],[-55.516507,-23.8812],[-55.512116,-23.883907],[-55.510918,-23.883615],[-55.509951,-23.884356],[-55.509039,-23.884505],[-55.506866,-23.883793],[-55.506915,-23.885134],[-55.505337,-23.890208],[-55.503704,-23.892571],[-55.502334,-23.895371],[-55.501169,-23.89647],[-55.500398,-23.896512],[-55.49801,-23.898354],[-55.497246,-23.899344],[-55.496152,-23.899239],[-55.495142,-23.899956],[-55.495104,-23.900276],[-55.494572,-23.900244],[-55.492697,-23.901399],[-55.492195,-23.901968],[-55.491824,-23.9041],[-55.49085,-23.904853],[-55.488399,-23.905732],[-55.486286,-23.908068],[-55.485049,-23.908061],[-55.483693,-23.908847],[-55.48285,-23.909746],[-55.480499,-23.910702],[-55.478781,-23.912532],[-55.47831,-23.91357],[-55.476763,-23.914002],[-55.473719,-23.916207],[-55.427431,-23.971693],[-55.414083,-23.964834],[-55.413704,-23.965328],[-55.405267,-23.964874],[-55.401758,-23.970483],[-55.40288,-23.974155],[-55.397568,-23.974143],[-55.396346,-23.976258],[-55.394334,-23.973515],[-55.392023,-23.972336],[-55.389278,-23.972227],[-55.39008,-23.970665],[-55.389581,-23.969402],[-55.387616,-23.967492],[-55.378372,-23.970611],[-55.379288,-23.974955],[-55.375269,-23.979883],[-55.372547,-23.978827],[-55.366798,-23.981437],[-55.363971,-23.982212],[-55.358472,-23.989203],[-55.353051,-23.989713],[-55.352194,-23.990231],[-55.349329,-23.993549],[-55.345503,-23.994597],[-55.341224,-23.994571],[-55.336099,-23.992949],[-55.333855,-23.988597],[-55.325435,-23.976477],[-55.322327,-23.967669],[-55.317725,-23.962891],[-55.312276,-23.965081],[-55.304178,-23.965023],[-55.302681,-23.966851],[-55.295909,-23.971935],[-55.283259,-23.977654],[-55.277802,-23.984555],[-55.274409,-23.984832],[-55.271043,-23.985508],[-55.270363,-23.987729],[-55.269081,-23.988916],[-55.266308,-23.989444],[-55.26425,-23.987534],[-55.262029,-23.991707],[-55.260241,-23.994224],[-55.256868,-23.996228],[-55.254147,-23.996557],[-55.252139,-23.998674],[-55.248047,-24.000119],[-55.24596,-23.998234],[-55.243757,-24.001231],[-55.242197,-24.004633],[-55.240445,-24.005994],[-55.235377,-24.006624],[-55.232914,-24.010109],[-55.229024,-24.013978],[-55.228737,-24.013829],[-55.229083,-24.020428],[-55.230075,-24.021094],[-55.236941,-24.022595],[-55.238466,-24.022317],[-55.237263,-24.024197],[-55.235037,-24.026158],[-55.233032,-24.03139],[-55.233108,-24.032046],[-55.233832,-24.032754],[-55.233193,-24.034489],[-55.233054,-24.03865],[-55.233902,-24.040172],[-55.233982,-24.040936],[-55.233092,-24.042763],[-55.232865,-24.044273],[-55.233079,-24.0467],[-55.232587,-24.046952],[-55.232754,-24.047572],[-55.232197,-24.047931],[-55.232431,-24.048656],[-55.232068,-24.048882],[-55.231873,-24.050709],[-55.231217,-24.052751],[-55.230072,-24.053586],[-55.227413,-24.053646],[-55.225812,-24.054891],[-55.223335,-24.05465],[-55.22287,-24.056947],[-55.221697,-24.057864],[-55.221817,-24.059071],[-55.221469,-24.060096],[-55.299419,-24.085633],[-55.302107,-24.082078],[-55.303371,-24.081564],[-55.305486,-24.079786],[-55.306354,-24.080585],[-55.308146,-24.080569],[-55.308549,-24.081039],[-55.309544,-24.081122],[-55.311027,-24.081739],[-55.312464,-24.082865],[-55.314289,-24.083423],[-55.314409,-24.083767],[-55.314852,-24.083537],[-55.316283,-24.084171],[-55.317002,-24.08413],[-55.317385,-24.08366],[-55.31795,-24.08354],[-55.31861,-24.084319],[-55.319667,-24.084204],[-55.320294,-24.084942],[-55.320216,-24.085885],[-55.320498,-24.086376],[-55.322104,-24.086588],[-55.323153,-24.087303],[-55.324553,-24.087666],[-55.324521,-24.089612],[-55.323307,-24.092687],[-55.322207,-24.097068],[-55.322723,-24.099299],[-55.322663,-24.10045],[-55.32097,-24.102815],[-55.320479,-24.10401],[-55.317894,-24.105499],[-55.317344,-24.107615],[-55.315364,-24.109616],[-55.315185,-24.110589],[-55.315579,-24.112792],[-55.314539,-24.114072],[-55.314803,-24.114856],[-55.315832,-24.116023],[-55.316847,-24.119411],[-55.317108,-24.124339],[-55.318376,-24.128227],[-55.31818,-24.129322],[-55.318474,-24.131763],[-55.318035,-24.133835],[-55.317416,-24.134745],[-55.315827,-24.135472],[-55.315047,-24.136227],[-55.315331,-24.137115],[-55.31509,-24.138832],[-55.315399,-24.140303],[-55.315032,-24.14136],[-55.315993,-24.142811],[-55.316423,-24.144319],[-55.317964,-24.145185],[-55.317748,-24.146568],[-55.319157,-24.146981],[-55.319273,-24.148486],[-55.319951,-24.149486],[-55.319812,-24.151684],[-55.320339,-24.153075],[-55.319612,-24.155411],[-55.319531,-24.157518],[-55.318997,-24.157661],[-55.319236,-24.158029],[-55.319764,-24.158126],[-55.320002,-24.159063],[-55.32054,-24.159123],[-55.320693,-24.159526],[-55.32106,-24.159472],[-55.323411,-24.160861],[-55.324387,-24.16252],[-55.327804,-24.162611],[-55.328069,-24.163206],[-55.327761,-24.164381],[-55.328125,-24.164678],[-55.329104,-24.164729],[-55.329126,-24.165885],[-55.330063,-24.166618],[-55.330978,-24.167901],[-55.332294,-24.1689],[-55.333455,-24.168854],[-55.334119,-24.171286],[-55.334385,-24.171433],[-55.335074,-24.171039],[-55.335422,-24.172234],[-55.337404,-24.172798],[-55.338417,-24.175129],[-55.338937,-24.17467],[-55.339405,-24.175077],[-55.339475,-24.175385],[-55.338739,-24.175873],[-55.339094,-24.176536],[-55.339623,-24.17661],[-55.33997,-24.176302],[-55.340343,-24.176672],[-55.340575,-24.176115],[-55.341155,-24.177051],[-55.341375,-24.176886],[-55.34163,-24.177173],[-55.341861,-24.176499],[-55.342939,-24.175901],[-55.34361,-24.176861],[-55.34399,-24.176359],[-55.344337,-24.176923],[-55.345058,-24.176479],[-55.346108,-24.176608],[-55.346181,-24.177372],[-55.346649,-24.177973],[-55.347243,-24.178666],[-55.347692,-24.17835],[-55.348319,-24.179187],[-55.348223,-24.179945],[-55.349353,-24.180404],[-55.348873,-24.18127],[-55.349142,-24.18251],[-55.350196,-24.182914],[-55.351149,-24.183787],[-55.352038,-24.183729],[-55.352688,-24.184047],[-55.353767,-24.185251],[-55.354712,-24.185695],[-55.354777,-24.186138],[-55.355383,-24.185959],[-55.354944,-24.186903],[-55.356044,-24.187443],[-55.356461,-24.186942],[-55.356601,-24.187557],[-55.357251,-24.187523],[-55.357438,-24.187923],[-55.35908,-24.188085],[-55.359178,-24.190158],[-55.359683,-24.190231],[-55.35969,-24.190462],[-55.359177,-24.191621],[-55.359675,-24.192082],[-55.359104,-24.192383],[-55.359146,-24.192623],[-55.35979,-24.192612],[-55.359277,-24.193816],[-55.359682,-24.194299],[-55.359254,-24.194918],[-55.359904,-24.195891],[-55.359936,-24.196645],[-55.360348,-24.196731],[-55.360326,-24.196997],[-55.361139,-24.197028],[-55.361142,-24.197453],[-55.361907,-24.198269],[-55.361728,-24.19959],[-55.362381,-24.19985],[-55.362027,-24.200212],[-55.362199,-24.201392],[-55.361016,-24.202178],[-55.361863,-24.202156],[-55.362293,-24.202639],[-55.363243,-24.202162],[-55.364197,-24.202226],[-55.364529,-24.201408],[-55.367311,-24.200476],[-55.367967,-24.202114],[-55.367697,-24.20234],[-55.36751,-24.203907],[-55.367996,-24.203128],[-55.36816,-24.203635],[-55.368815,-24.203676],[-55.369337,-24.20496],[-55.369953,-24.205031],[-55.370643,-24.204886],[-55.370734,-24.204267],[-55.3713,-24.203768],[-55.372219,-24.203957],[-55.373532,-24.205372],[-55.373234,-24.20587],[-55.374274,-24.206107],[-55.374304,-24.207691],[-55.374837,-24.207474],[-55.37663,-24.207687],[-55.377352,-24.207389],[-55.37783,-24.207631],[-55.378017,-24.206368],[-55.378688,-24.206532],[-55.379089,-24.205996],[-55.380308,-24.205953],[-55.381139,-24.206476],[-55.380338,-24.207072],[-55.381328,-24.207242],[-55.381377,-24.207675],[-55.382093,-24.207801],[-55.382136,-24.207016],[-55.382827,-24.206724],[-55.382202,-24.206483],[-55.383224,-24.206322],[-55.38283,-24.205801],[-55.384146,-24.205654],[-55.384801,-24.20616],[-55.384823,-24.205517],[-55.386017,-24.205174],[-55.385649,-24.204232],[-55.385872,-24.203808],[-55.386631,-24.20379],[-55.386431,-24.203455],[-55.385963,-24.203468],[-55.385885,-24.203121],[-55.386122,-24.203056],[-55.387015,-24.203062],[-55.388386,-24.204477],[-55.388923,-24.20399],[-55.389248,-24.204833],[-55.389603,-24.204734],[-55.38968,-24.204214],[-55.390053,-24.204954],[-55.390431,-24.20474],[-55.391092,-24.205055],[-55.391066,-24.205614],[-55.39178,-24.205712],[-55.392108,-24.205182],[-55.392757,-24.205647],[-55.393348,-24.205662],[-55.393727,-24.205231],[-55.393568,-24.204956],[-55.3941,-24.204512],[-55.393677,-24.20417],[-55.393796,-24.203112],[-55.394993,-24.202509],[-55.394925,-24.202091],[-55.394375,-24.201805],[-55.394986,-24.200273],[-55.39458,-24.199707],[-55.394871,-24.19951],[-55.394733,-24.199061],[-55.395143,-24.198219],[-55.394882,-24.19807],[-55.395427,-24.197458],[-55.396238,-24.197503],[-55.395745,-24.196405],[-55.395848,-24.196234],[-55.396473,-24.196544],[-55.396287,-24.195683],[-55.396948,-24.19592],[-55.396654,-24.194438],[-55.396244,-24.194615],[-55.395922,-24.194046],[-55.396521,-24.193828],[-55.395737,-24.193505],[-55.396566,-24.193277],[-55.396551,-24.192756],[-55.397053,-24.192594],[-55.396772,-24.192122],[-55.397099,-24.19171],[-55.396955,-24.191441],[-55.397355,-24.191301],[-55.397181,-24.190768],[-55.397818,-24.190867],[-55.398276,-24.190248],[-55.398666,-24.191149],[-55.399046,-24.190204],[-55.39944,-24.190611],[-55.399663,-24.190217],[-55.400018,-24.190563],[-55.400627,-24.190298],[-55.40029,-24.190745],[-55.400511,-24.190891],[-55.401428,-24.190655],[-55.401546,-24.190201],[-55.401987,-24.190526],[-55.402046,-24.189978],[-55.402899,-24.190025],[-55.403814,-24.190254],[-55.404322,-24.190744],[-55.405387,-24.190899],[-55.405561,-24.191273],[-55.406429,-24.191065],[-55.406581,-24.191353],[-55.406176,-24.191848],[-55.406452,-24.191853],[-55.40695,-24.191232],[-55.407904,-24.190966],[-55.407804,-24.190694],[-55.409298,-24.190561],[-55.409121,-24.190045],[-55.409629,-24.18982],[-55.409021,-24.189603],[-55.408651,-24.189775],[-55.408541,-24.189157],[-55.408715,-24.188547],[-55.40936,-24.188025],[-55.411254,-24.187954],[-55.411799,-24.187557],[-55.412694,-24.187446],[-55.412762,-24.186859],[-55.412925,-24.187339],[-55.413565,-24.187446],[-55.414185,-24.186564],[-55.41473,-24.186382],[-55.415118,-24.186638],[-55.415745,-24.185857],[-55.416126,-24.185794],[-55.415912,-24.185407],[-55.416389,-24.185171],[-55.416273,-24.184554],[-55.417677,-24.184594],[-55.417979,-24.184871],[-55.419023,-24.184481],[-55.419398,-24.183736],[-55.419812,-24.183657],[-55.41938,-24.183308],[-55.419403,-24.182966],[-55.42022,-24.183118],[-55.419982,-24.182632],[-55.420267,-24.182168],[-55.420566,-24.182692],[-55.420926,-24.182213],[-55.421549,-24.182437],[-55.421669,-24.181881],[-55.422209,-24.182033],[-55.422144,-24.18161],[-55.422843,-24.181226],[-55.422954,-24.180558],[-55.425201,-24.181037],[-55.426723,-24.18067],[-55.427792,-24.180826],[-55.429151,-24.181865],[-55.429562,-24.181853],[-55.429654,-24.182335],[-55.430548,-24.182374],[-55.430826,-24.182084],[-55.431147,-24.182673],[-55.431893,-24.182699],[-55.431477,-24.183189],[-55.431655,-24.18345],[-55.433108,-24.183539],[-55.433345,-24.183297],[-55.433523,-24.183666],[-55.435228,-24.183886],[-55.435459,-24.184349],[-55.436119,-24.184493],[-55.43633,-24.18391],[-55.436776,-24.183676],[-55.438244,-24.183975],[-55.438746,-24.183756],[-55.438872,-24.184554],[-55.439282,-24.184067],[-55.439718,-24.184696],[-55.44079,-24.184845],[-55.441706,-24.185447],[-55.442968,-24.185859],[-55.443753,-24.185597],[-55.444816,-24.186162],[-55.445215,-24.18573],[-55.445537,-24.186034],[-55.445389,-24.186598],[-55.446619,-24.186533],[-55.446919,-24.187366],[-55.446669,-24.188373],[-55.446011,-24.18998],[-55.445393,-24.190683],[-55.443569,-24.191044],[-55.440045,-24.19541],[-55.438299,-24.196367],[-55.435906,-24.196974],[-55.43476,-24.198015],[-55.434883,-24.198991],[-55.435532,-24.200036],[-55.434852,-24.202729],[-55.435548,-24.20503],[-55.43535,-24.208075],[-55.433927,-24.211388],[-55.432807,-24.212185],[-55.432681,-24.21357],[-55.432056,-24.215103],[-55.432777,-24.216835],[-55.432517,-24.220936],[-55.432857,-24.221585],[-55.434301,-24.222508],[-55.434829,-24.224545],[-55.434823,-24.226545],[-55.434343,-24.227669],[-55.434329,-24.228594],[-55.435653,-24.231118],[-55.435623,-24.232969],[-55.436062,-24.234454],[-55.436793,-24.235613],[-55.439244,-24.236347],[-55.440209,-24.239147],[-55.442376,-24.240406],[-55.443225,-24.242727],[-55.44328,-24.244569],[-55.439986,-24.249281],[-55.437511,-24.249188],[-55.43537,-24.250362],[-55.434272,-24.253832],[-55.43363,-24.254669],[-55.432849,-24.255032],[-55.431664,-24.257259],[-55.431841,-24.261085],[-55.437215,-24.2718],[-55.437776,-24.271978],[-55.442863,-24.28393],[-55.445731,-24.283043],[-55.452856,-24.282113],[-55.45848,-24.282392],[-55.461837,-24.28309],[-55.46409,-24.282972],[-55.465191,-24.282279],[-55.465428,-24.272191],[-55.475663,-24.260316],[-55.500562,-24.257809],[-55.502032,-24.268736],[-55.506722,-24.269893],[-55.514044,-24.270516],[-55.516767,-24.272199],[-55.518113,-24.273571],[-55.518014,-24.27446],[-55.518603,-24.27553],[-55.518448,-24.285605],[-55.516891,-24.287106],[-55.520957,-24.28902],[-55.524502,-24.286454],[-55.526983,-24.285942],[-55.528373,-24.286408],[-55.531829,-24.288094],[-55.533426,-24.290096],[-55.535346,-24.290466],[-55.536565,-24.292785],[-55.538865,-24.295932],[-55.539112,-24.297451],[-55.53949,-24.297834],[-55.544051,-24.296925],[-55.544941,-24.296099],[-55.546563,-24.292768],[-55.549664,-24.291836],[-55.550373,-24.292575],[-55.550003,-24.292991],[-55.550161,-24.293345],[-55.550938,-24.293325],[-55.552661,-24.294335],[-55.554613,-24.293653],[-55.555897,-24.293964],[-55.556411,-24.296881],[-55.557542,-24.297474],[-55.558627,-24.299873],[-55.558773,-24.301138],[-55.559645,-24.301932],[-55.560335,-24.302065],[-55.562115,-24.301649],[-55.562481,-24.300203],[-55.563036,-24.299851],[-55.565834,-24.299751],[-55.56618,-24.299971],[-55.566459,-24.30127],[-55.567672,-24.303105],[-55.568235,-24.304831],[-55.569,-24.305493],[-55.570191,-24.30535],[-55.570466,-24.304129],[-55.570807,-24.303925],[-55.572889,-24.303999],[-55.574185,-24.304607],[-55.574127,-24.306963],[-55.575158,-24.307424],[-55.575682,-24.308052],[-55.577658,-24.308111],[-55.578161,-24.307765],[-55.578796,-24.30791],[-55.579874,-24.308961],[-55.580361,-24.308785],[-55.580413,-24.308161],[-55.580959,-24.308041],[-55.581302,-24.308558],[-55.581071,-24.308875],[-55.581677,-24.308852],[-55.582401,-24.307721],[-55.585048,-24.30801],[-55.58633,-24.308438],[-55.586999,-24.308194],[-55.586887,-24.307277],[-55.585993,-24.307422],[-55.584951,-24.307176],[-55.584761,-24.306564],[-55.586906,-24.305696],[-55.58661,-24.305041],[-55.586688,-24.302114],[-55.586814,-24.301657],[-55.587945,-24.300682],[-55.586888,-24.300464],[-55.586897,-24.299687],[-55.587236,-24.299135],[-55.588194,-24.29877],[-55.588381,-24.298258],[-55.588729,-24.298317],[-55.589276,-24.299473],[-55.589548,-24.299518],[-55.589387,-24.297643],[-55.590994,-24.296104],[-55.592084,-24.296128],[-55.592426,-24.29663],[-55.593032,-24.296608],[-55.59438,-24.297939],[-55.595059,-24.298209],[-55.595937,-24.298203],[-55.596546,-24.297876],[-55.596812,-24.297115],[-55.596634,-24.296711],[-55.596333,-24.296583],[-55.59504,-24.297182],[-55.594693,-24.296998],[-55.594756,-24.295445],[-55.59541,-24.295131],[-55.596676,-24.295643],[-55.595897,-24.293582],[-55.596218,-24.293307],[-55.596987,-24.293523],[-55.597565,-24.293334],[-55.596708,-24.292771],[-55.596756,-24.292521],[-55.598261,-24.291966],[-55.60023,-24.291929],[-55.602489,-24.294392],[-55.605117,-24.294943],[-55.604988,-24.292944],[-55.603763,-24.29278],[-55.602864,-24.291898],[-55.603081,-24.291511],[-55.605608,-24.290216],[-55.605675,-24.289592],[-55.607126,-24.288468],[-55.608326,-24.288035],[-55.608436,-24.287689],[-55.607457,-24.285848],[-55.607109,-24.284416],[-55.605927,-24.284585],[-55.605688,-24.284278],[-55.605804,-24.283307],[-55.60473,-24.28327],[-55.605274,-24.281998],[-55.60667,-24.281664],[-55.605059,-24.280886],[-55.605356,-24.280015],[-55.60601,-24.279771],[-55.60533,-24.279584],[-55.605348,-24.279376],[-55.605957,-24.278993],[-55.606454,-24.279234],[-55.607289,-24.279089],[-55.605737,-24.277021],[-55.605508,-24.275784],[-55.606267,-24.274223],[-55.607346,-24.273802],[-55.607178,-24.272552],[-55.60636,-24.272669],[-55.606416,-24.272304],[-55.60784,-24.271573],[-55.607783,-24.271253],[-55.606511,-24.271255],[-55.606775,-24.270703],[-55.607775,-24.270559],[-55.607675,-24.270031],[-55.60703,-24.269456],[-55.607707,-24.268435],[-55.608424,-24.268012],[-55.608629,-24.26725],[-55.609823,-24.266026],[-55.610028,-24.265223],[-55.610877,-24.265092],[-55.611399,-24.265777],[-55.612152,-24.266159],[-55.612327,-24.266771],[-55.61393,-24.266938],[-55.613619,-24.267657],[-55.614928,-24.267016],[-55.615933,-24.267858],[-55.616833,-24.26727],[-55.618188,-24.267879],[-55.619127,-24.267846],[-55.619728,-24.26688],[-55.620743,-24.266806],[-55.621205,-24.266019],[-55.621554,-24.265939],[-55.621778,-24.266302],[-55.622946,-24.266007],[-55.623056,-24.265675],[-55.622322,-24.264974],[-55.622886,-24.264591],[-55.623806,-24.264905],[-55.623706,-24.264335],[-55.624259,-24.26359],[-55.62368,-24.262558],[-55.62519,-24.261462],[-55.624466,-24.261219],[-55.623886,-24.260243],[-55.625195,-24.259561],[-55.624679,-24.258349],[-55.625325,-24.257356],[-55.626068,-24.257224],[-55.625549,-24.256261],[-55.626411,-24.254854],[-55.627049,-24.254707],[-55.626969,-24.253693],[-55.628197,-24.253496],[-55.627453,-24.252296],[-55.628264,-24.251498],[-55.627235,-24.25142],[-55.627164,-24.250961],[-55.628047,-24.250553],[-55.627874,-24.249705],[-55.628303,-24.249195],[-55.627591,-24.247843],[-55.627715,-24.247566],[-55.628849,-24.247702],[-55.628587,-24.246728],[-55.627779,-24.247289],[-55.627756,-24.246651],[-55.628839,-24.245828],[-55.628569,-24.245576],[-55.627931,-24.245834],[-55.627844,-24.245431],[-55.628604,-24.245174],[-55.629935,-24.243826],[-55.630068,-24.242675],[-55.630295,-24.242663],[-55.630741,-24.243445],[-55.629468,-24.245001],[-55.629632,-24.245239],[-55.630193,-24.245174],[-55.631241,-24.244795],[-55.631581,-24.245575],[-55.632006,-24.245482],[-55.631464,-24.243729],[-55.632131,-24.243679],[-55.631849,-24.243163],[-55.632048,-24.242957],[-55.632484,-24.243183],[-55.633442,-24.242789],[-55.633978,-24.242211],[-55.634279,-24.242325],[-55.634706,-24.243439],[-55.636084,-24.243354],[-55.635845,-24.244503],[-55.637175,-24.24471],[-55.637412,-24.245128],[-55.638592,-24.245194],[-55.639298,-24.245714]]]}}]}
