{"type":"FeatureCollection","name":"distrito","features":[{"type":"Feature","properties":{"clave":"2-7","nombre":"Choré"},"geometry":{"type":"Polygon","coordinates":[[[-56.579855,-24.346607],[-56.581527,-24.348061],[-56.581887,-24.348843],[-56.581845,-24.349651],[-56.584352,-24.350909],[-56.584649,-24.351217],[-56.584657,-24.351998],[-56.587485,-24.353058],[-56.58833,-24.354388],[-56.590358,-24.354109],[-56.590723,-24.354214],[-56.590732,-24.354982],[-56.593429,-24.354745],[-56.594401,-24.355131],[-56.59536,-24.355093],[-56.596225,-24.355687],[-56.59715,-24.355532],[-56.597607,-24.355966],[-56.59913,-24.355167],[-56.600017,-24.355336],[-56.600604,-24.35583],[-56.601979,-24.355192],[-56.602689,-24.353907],[-56.602559,-24.353207],[-56.603079,-24.352838],[-56.60422,-24.350922],[-56.604657,-24.350521],[-56.605263,-24.350513],[-56.606007,-24.34916],[-56.606815,-24.348706],[-56.606727,-24.348268],[-56.607249,-24.34766],[-56.607258,-24.346499],[-56.607567,-24.346044],[-56.607372,-24.345926],[-56.607945,-24.345354],[-56.607721,-24.342933],[-56.607332,-24.342512],[-56.607643,-24.342341],[-56.607383,-24.340173],[-56.607011,-24.339743],[-56.606907,-24.337909],[-56.606603,-24.337755],[-56.607066,-24.337332],[-56.606673,-24.33687],[-56.607049,-24.336654],[-56.607114,-24.335914],[-56.606629,-24.335714],[-56.606988,-24.335484],[-56.606839,-24.33496],[-56.60625,-24.334751],[-56.60683,-24.334193],[-56.606694,-24.332688],[-56.607095,-24.332111],[-56.607157,-24.330337],[-56.606593,-24.329563],[-56.60649,-24.328818],[-56.606002,-24.328546],[-56.605961,-24.327209],[-56.605447,-24.326173],[-56.604358,-24.325868],[-56.603835,-24.321206],[-56.603321,-24.32088],[-56.603424,-24.319751],[-56.602086,-24.31567],[-56.602709,-24.315518],[-56.603167,-24.314444],[-56.602983,-24.312118],[-56.603356,-24.311731],[-56.604009,-24.311619],[-56.604396,-24.310798],[-56.604101,-24.310617],[-56.604219,-24.310161],[-56.604725,-24.309833],[-56.604496,-24.309254],[-56.605348,-24.308733],[-56.606297,-24.307394],[-56.606341,-24.306703],[-56.607114,-24.306402],[-56.607211,-24.305825],[-56.608843,-24.30521],[-56.609192,-24.304182],[-56.611307,-24.303031],[-56.611663,-24.301438],[-56.612814,-24.300126],[-56.614005,-24.299863],[-56.615891,-24.299976],[-56.617886,-24.299421],[-56.620887,-24.299488],[-56.620738,-24.299045],[-56.620992,-24.298761],[-56.621747,-24.298663],[-56.622306,-24.298245],[-56.622178,-24.298095],[-56.623724,-24.297214],[-56.625074,-24.297059],[-56.626769,-24.295352],[-56.627983,-24.294587],[-56.629918,-24.294931],[-56.630948,-24.294382],[-56.632416,-24.294318],[-56.634034,-24.294769],[-56.635425,-24.296597],[-56.638166,-24.296463],[-56.63901,-24.296976],[-56.642992,-24.297798],[-56.645764,-24.297393],[-56.645918,-24.296694],[-56.646672,-24.296745],[-56.64808,-24.29627],[-56.648884,-24.296629],[-56.649995,-24.296414],[-56.651277,-24.296905],[-56.652013,-24.296044],[-56.65227,-24.295083],[-56.65592,-24.294075],[-56.656973,-24.292808],[-56.659248,-24.29173],[-56.659514,-24.291197],[-56.660381,-24.290752],[-56.661037,-24.289426],[-56.66269,-24.288581],[-56.663262,-24.287769],[-56.664375,-24.287036],[-56.66519,-24.286681],[-56.666107,-24.286692],[-56.666629,-24.285948],[-56.668108,-24.285192],[-56.669942,-24.284984],[-56.672364,-24.282149],[-56.674167,-24.282405],[-56.675097,-24.280971],[-56.677453,-24.280078],[-56.679382,-24.27842],[-56.681284,-24.275303],[-56.684546,-24.274511],[-56.68577,-24.273877],[-56.688518,-24.27064],[-56.689046,-24.267367],[-56.689464,-24.26721],[-56.690115,-24.26745],[-56.690951,-24.267145],[-56.691291,-24.265633],[-56.692461,-24.266046],[-56.695171,-24.265903],[-56.700429,-24.264924],[-56.702353,-24.265497],[-56.703332,-24.264975],[-56.7069,-24.26402],[-56.711226,-24.264839],[-56.712491,-24.265334],[-56.715994,-24.264057],[-56.72333,-24.259182],[-56.724787,-24.257752],[-56.726191,-24.255879],[-56.726895,-24.254053],[-56.72728,-24.250548],[-56.732026,-24.247297],[-56.735266,-24.243106],[-56.739526,-24.239855],[-56.741469,-24.237833],[-56.748111,-24.228315],[-56.749518,-24.225058],[-56.750866,-24.223777],[-56.757386,-24.221318],[-56.759271,-24.221025],[-56.761749,-24.22014],[-56.766925,-24.216297],[-56.767789,-24.214866],[-56.768817,-24.212102],[-56.773824,-24.211715],[-56.776895,-24.210732],[-56.783361,-24.207186],[-56.790311,-24.204085],[-56.794674,-24.202955],[-56.798175,-24.20138],[-56.800438,-24.200247],[-56.805611,-24.196946],[-56.809973,-24.195717],[-56.811374,-24.195027],[-56.812571,-24.193302],[-56.812573,-24.191276],[-56.808492,-24.17883],[-56.807872,-24.171789],[-56.806096,-24.165845],[-56.803948,-24.162447],[-56.802138,-24.158433],[-56.800057,-24.155838],[-56.798111,-24.15244],[-56.796918,-24.14102],[-56.797596,-24.13812],[-56.797667,-24.135775],[-56.797672,-24.132565],[-56.797205,-24.130219],[-56.795055,-24.128426],[-56.789948,-24.126197],[-56.787659,-24.127244],[-56.785372,-24.127611],[-56.780666,-24.126555],[-56.777102,-24.12655],[-56.775016,-24.127287],[-56.769101,-24.125427],[-56.768026,-24.124438],[-56.76897,-24.123328],[-56.773212,-24.120619],[-56.775569,-24.118523],[-56.776446,-24.117105],[-56.776449,-24.114883],[-56.775245,-24.111363],[-56.776119,-24.111673],[-56.778872,-24.114023],[-56.779948,-24.113654],[-56.780758,-24.112112],[-56.78076,-24.110877],[-56.779956,-24.109395],[-56.780562,-24.108902],[-56.781304,-24.107422],[-56.780835,-24.106372],[-56.777805,-24.108528],[-56.776932,-24.107971],[-56.776532,-24.105995],[-56.778348,-24.105689],[-56.779629,-24.103654],[-56.779296,-24.102049],[-56.773112,-24.101052],[-56.771298,-24.1],[-56.769552,-24.098516],[-56.766677,-24.076293],[-56.766356,-24.075947],[-56.763951,-24.077678],[-56.762096,-24.078015],[-56.760299,-24.077178],[-56.759079,-24.07498],[-56.758208,-24.074706],[-56.757428,-24.07513],[-56.755601,-24.077218],[-56.754744,-24.077217],[-56.749769,-24.075544],[-56.748751,-24.073605],[-56.747697,-24.073119],[-56.744233,-24.073779],[-56.742912,-24.07532],[-56.742808,-24.07753],[-56.742081,-24.078497],[-56.740035,-24.079553],[-56.737792,-24.080125],[-56.73621,-24.079668],[-56.730747,-24.074664],[-56.720211,-24.068288],[-56.719552,-24.068226],[-56.718092,-24.07231],[-56.716837,-24.073246],[-56.715023,-24.073485],[-56.713145,-24.073148],[-56.712026,-24.072359],[-56.710648,-24.069148],[-56.709891,-24.068541],[-56.707222,-24.068021],[-56.705577,-24.066626],[-56.704855,-24.065141],[-56.704197,-24.064535],[-56.703241,-24.064412],[-56.702746,-24.064865],[-56.701649,-24.068465],[-56.698767,-24.074665],[-56.697444,-24.076327],[-56.694704,-24.077774],[-56.693386,-24.07759],[-56.692893,-24.077075],[-56.692895,-24.076227],[-56.695803,-24.073387],[-56.696365,-24.072359],[-56.696534,-24.070634],[-56.696306,-24.069605],[-56.695022,-24.068815],[-56.690439,-24.069139],[-56.687639,-24.068013],[-56.686023,-24.068161],[-56.684472,-24.068824],[-56.683975,-24.070034],[-56.684368,-24.070973],[-56.688289,-24.071798],[-56.688749,-24.072798],[-56.688514,-24.074341],[-56.68749,-24.075157],[-56.686038,-24.075638],[-56.684853,-24.074939],[-56.683969,-24.072243],[-56.682092,-24.071422],[-56.675038,-24.070923],[-56.67237,-24.070221],[-56.671511,-24.070976],[-56.670614,-24.073638],[-56.669985,-24.074514],[-56.668666,-24.074693],[-56.665106,-24.074413],[-56.664217,-24.073836],[-56.663727,-24.07223],[-56.664127,-24.070566],[-56.664854,-24.06963],[-56.669276,-24.068247],[-56.669541,-24.06743],[-56.66928,-24.066461],[-56.668392,-24.065763],[-56.666776,-24.06579],[-56.665822,-24.065364],[-56.663786,-24.062302],[-56.662672,-24.059636],[-56.661882,-24.05924],[-56.660563,-24.059298],[-56.659045,-24.0599],[-56.657921,-24.060927],[-56.654587,-24.062645],[-56.653532,-24.062824],[-56.649744,-24.061453],[-56.646842,-24.061961],[-56.644166,-24.063953],[-56.642716,-24.06398],[-56.641401,-24.062584],[-56.640747,-24.060524],[-56.640855,-24.057225],[-56.640331,-24.056194],[-56.639343,-24.055587],[-56.638552,-24.055555],[-56.637925,-24.056007],[-56.638378,-24.058944],[-56.63798,-24.0597],[-56.636891,-24.060273],[-56.635935,-24.060271],[-56.633465,-24.059538],[-56.631783,-24.059625],[-56.630199,-24.060348],[-56.629635,-24.061557],[-56.629861,-24.06298],[-56.630681,-24.064647],[-56.630773,-24.066857],[-56.628792,-24.068124],[-56.627605,-24.068212],[-56.626452,-24.067936],[-56.626156,-24.067361],[-56.626459,-24.065303],[-56.626099,-24.064606],[-56.625309,-24.064059],[-56.622442,-24.063719],[-56.621521,-24.063081],[-56.619825,-24.056932],[-56.61874,-24.05593],[-56.616861,-24.055774],[-56.615112,-24.056405],[-56.613596,-24.056371],[-56.612905,-24.055946],[-56.612119,-24.054309],[-56.611098,-24.054004],[-56.609911,-24.054152],[-56.609939,-24.055484],[-56.61102,-24.057909],[-56.610391,-24.058724],[-56.609072,-24.058903],[-56.607821,-24.058445],[-56.605058,-24.05641],[-56.601337,-24.055069],[-56.60022,-24.053946],[-56.599133,-24.05367],[-56.598341,-24.054032],[-56.598404,-24.054819],[-56.599651,-24.056517],[-56.600207,-24.057972],[-56.599873,-24.059424],[-56.598848,-24.060571],[-56.59584,-24.063136],[-56.594582,-24.064859],[-56.591938,-24.066698],[-56.590158,-24.066875],[-56.587126,-24.066534],[-56.585909,-24.065743],[-56.585385,-24.06441],[-56.585588,-24.062958],[-56.586913,-24.060994],[-56.588368,-24.059635],[-56.591207,-24.05822],[-56.591473,-24.057495],[-56.591149,-24.055738],[-56.58865,-24.053733],[-56.58747,-24.051672],[-56.58702,-24.047947],[-56.585242,-24.047519],[-56.583632,-24.046031],[-56.582116,-24.045755],[-56.580631,-24.046326],[-56.578248,-24.049255],[-56.577357,-24.049646],[-56.575742,-24.049521],[-56.574789,-24.04864],[-56.57325,-24.045518],[-56.572764,-24.043186],[-56.572009,-24.042094],[-56.570693,-24.041394],[-56.569012,-24.041299],[-56.563437,-24.042736],[-56.56146,-24.042609],[-56.558432,-24.041238],[-56.556854,-24.039993],[-56.556561,-24.038872],[-56.557067,-24.035604],[-56.556773,-24.034756],[-56.556017,-24.034209],[-56.55506,-24.034478],[-56.554596,-24.035294],[-56.554819,-24.037686],[-56.554551,-24.038715],[-56.553735,-24.039579],[-56.552438,-24.039919],[-56.551055,-24.039401],[-56.550011,-24.036552],[-56.548596,-24.035731],[-56.547146,-24.035666],[-56.546353,-24.036208],[-56.545887,-24.037599],[-56.545325,-24.038022],[-56.544436,-24.037898],[-56.542823,-24.037106],[-56.541934,-24.037103],[-56.541437,-24.037647],[-56.542814,-24.039891],[-56.542777,-24.040829],[-56.542314,-24.041403],[-56.53938,-24.041485],[-56.537532,-24.041994],[-56.535617,-24.042957],[-56.532676,-24.045037],[-56.530068,-24.046239],[-56.529934,-24.046814],[-56.530722,-24.047785],[-56.532828,-24.04876],[-56.535333,-24.048768],[-56.537573,-24.049198],[-56.538822,-24.050019],[-56.539213,-24.051231],[-56.538946,-24.052351],[-56.537025,-24.054948],[-56.535871,-24.055005],[-56.534471,-24.054137],[-56.533931,-24.054622],[-56.533978,-24.055516],[-56.533276,-24.056494],[-56.533468,-24.05719],[-56.533148,-24.060215],[-56.532679,-24.060791],[-56.532708,-24.061749],[-56.53191,-24.062582],[-56.530869,-24.066946],[-56.531025,-24.067989],[-56.531592,-24.068447],[-56.531726,-24.068967],[-56.531008,-24.069507],[-56.530688,-24.072902],[-56.531636,-24.074598],[-56.531537,-24.075013],[-56.532285,-24.075571],[-56.532157,-24.076081],[-56.532532,-24.07638],[-56.532836,-24.077505],[-56.532065,-24.078727],[-56.532219,-24.079658],[-56.533086,-24.08036],[-56.532886,-24.081195],[-56.533095,-24.083233],[-56.532502,-24.084595],[-56.534372,-24.086881],[-56.534768,-24.087817],[-56.534791,-24.088467],[-56.53408,-24.089377],[-56.53414,-24.090385],[-56.534396,-24.091916],[-56.535424,-24.092755],[-56.535385,-24.095397],[-56.535894,-24.09608],[-56.536191,-24.097445],[-56.535469,-24.098757],[-56.535516,-24.099199],[-56.533663,-24.100666],[-56.534314,-24.103224],[-56.533941,-24.10628],[-56.532545,-24.107667],[-56.532177,-24.109693],[-56.532687,-24.110711],[-56.532356,-24.111713],[-56.532692,-24.112468],[-56.531826,-24.113748],[-56.534297,-24.119459],[-56.533549,-24.120879],[-56.535129,-24.123305],[-56.534328,-24.124544],[-56.534672,-24.12804],[-56.533941,-24.129881],[-56.531754,-24.132263],[-56.531444,-24.13377],[-56.530087,-24.13513],[-56.529641,-24.136547],[-56.529093,-24.136911],[-56.528716,-24.137736],[-56.527138,-24.139325],[-56.526498,-24.140723],[-56.526001,-24.141024],[-56.52591,-24.141805],[-56.524323,-24.143733],[-56.523499,-24.145808],[-56.522922,-24.145901],[-56.523041,-24.146719],[-56.522687,-24.14767],[-56.52159,-24.148493],[-56.521316,-24.15006],[-56.51996,-24.150782],[-56.519932,-24.151455],[-56.519245,-24.151868],[-56.518421,-24.153194],[-56.518344,-24.154517],[-56.516793,-24.156788],[-56.515469,-24.159719],[-56.515727,-24.160243],[-56.515441,-24.160762],[-56.515665,-24.161286],[-56.515437,-24.161593],[-56.515365,-24.162907],[-56.515625,-24.163382],[-56.515384,-24.164216],[-56.513568,-24.165845],[-56.514017,-24.16661],[-56.513481,-24.167204],[-56.513747,-24.168221],[-56.513353,-24.168554],[-56.51295,-24.170039],[-56.512572,-24.17025],[-56.512883,-24.170915],[-56.512833,-24.171818],[-56.511664,-24.178583],[-56.510364,-24.180191],[-56.509147,-24.1832],[-56.505101,-24.18856],[-56.504755,-24.190013],[-56.503214,-24.191679],[-56.502749,-24.193172],[-56.500451,-24.197324],[-56.500468,-24.200088],[-56.499904,-24.201364],[-56.498768,-24.208545],[-56.500319,-24.212398],[-56.500288,-24.214001],[-56.498738,-24.216705],[-56.497296,-24.221754],[-56.496183,-24.22469],[-56.495271,-24.226046],[-56.494991,-24.22754],[-56.491747,-24.235428],[-56.491363,-24.240168],[-56.488021,-24.250647],[-56.48768,-24.255686],[-56.487,-24.258235],[-56.487132,-24.259861],[-56.485212,-24.263354],[-56.48433,-24.265925],[-56.484486,-24.268094],[-56.484035,-24.269939],[-56.484895,-24.271807],[-56.484831,-24.273523],[-56.485462,-24.276925],[-56.485396,-24.279129],[-56.487129,-24.283118],[-56.487947,-24.286006],[-56.487747,-24.28694],[-56.487954,-24.287654],[-56.490508,-24.292043],[-56.492231,-24.296091],[-56.493885,-24.301152],[-56.523264,-24.299393],[-56.543095,-24.298768],[-56.546507,-24.299016],[-56.545546,-24.343532],[-56.549408,-24.346041],[-56.55244,-24.348578],[-56.550646,-24.351224],[-56.556044,-24.355462],[-56.556587,-24.354949],[-56.557774,-24.354519],[-56.55767,-24.354026],[-56.558359,-24.353821],[-56.558154,-24.35359],[-56.558478,-24.352764],[-56.559054,-24.352513],[-56.559379,-24.351764],[-56.560531,-24.350883],[-56.561306,-24.350962],[-56.561601,-24.35033],[-56.562053,-24.350205],[-56.561882,-24.349902],[-56.562552,-24.348974],[-56.56316,-24.348867],[-56.562898,-24.348564],[-56.563201,-24.34856],[-56.56379,-24.34741],[-56.564372,-24.347272],[-56.564938,-24.346686],[-56.565446,-24.346692],[-56.565534,-24.346363],[-56.567095,-24.346047],[-56.568392,-24.346507],[-56.568655,-24.346106],[-56.569237,-24.346103],[-56.570155,-24.345405],[-56.570733,-24.345357],[-56.571016,-24.345652],[-56.571809,-24.345464],[-56.57172,-24.345234],[-56.572502,-24.344789],[-56.57319,-24.345206],[-56.573594,-24.344995],[-56.574866,-24.345884],[-56.57511,-24.345577],[-56.575501,-24.345922],[-56.576649,-24.345956],[-56.577258,-24.345538],[-56.579855,-24.346607]]]}}]}
