{"type":"FeatureCollection","name":"distrito","features":[{"type":"Feature","properties":{"clave":"7-25","nombre":"Hohenau"},"geometry":{"type":"Polygon","coordinates":[[[-55.652096,-27.112932],[-55.674586,-27.092932],[-55.673163,-27.090407],[-55.673349,-27.088893],[-55.673725,-27.088257],[-55.678386,-27.087544],[-55.682435,-27.087269],[-55.683303,-27.086948],[-55.683435,-27.086604],[-55.683394,-27.085418],[-55.679561,-27.084576],[-55.678632,-27.08381],[-55.678329,-27.07989],[-55.677905,-27.079935],[-55.676882,-27.080979],[-55.674897,-27.083989],[-55.67412,-27.084426],[-55.672629,-27.084576],[-55.671019,-27.085384],[-55.66917,-27.081614],[-55.66909,-27.079062],[-55.668314,-27.076273],[-55.666915,-27.076408],[-55.666064,-27.076877],[-55.665728,-27.074175],[-55.666538,-27.074034],[-55.671314,-27.076005],[-55.675761,-27.076228],[-55.676862,-27.07484],[-55.678442,-27.070213],[-55.680404,-27.067516],[-55.68144,-27.066999],[-55.6833,-27.066704],[-55.68607,-27.06724],[-55.685767,-27.067994],[-55.684117,-27.069164],[-55.685047,-27.076184],[-55.685481,-27.07678],[-55.689826,-27.077891],[-55.692255,-27.077716],[-55.692609,-27.075695],[-55.689421,-27.07476],[-55.688141,-27.072542],[-55.688626,-27.071971],[-55.692084,-27.070209],[-55.693558,-27.069976],[-55.694749,-27.070333],[-55.696725,-27.072787],[-55.696983,-27.074303],[-55.697275,-27.074471],[-55.698085,-27.074379],[-55.699419,-27.073519],[-55.700028,-27.071682],[-55.700078,-27.06895],[-55.701683,-27.066858],[-55.701834,-27.066547],[-55.701562,-27.066215],[-55.698037,-27.065804],[-55.696669,-27.064902],[-55.693642,-27.065895],[-55.692821,-27.065311],[-55.69161,-27.065152],[-55.691157,-27.064588],[-55.690829,-27.062725],[-55.690175,-27.062093],[-55.6903,-27.060794],[-55.689692,-27.060937],[-55.687137,-27.064007],[-55.685547,-27.064799],[-55.684204,-27.064902],[-55.683586,-27.06427],[-55.685162,-27.06152],[-55.685284,-27.060583],[-55.683093,-27.059312],[-55.68225,-27.057493],[-55.680378,-27.057196],[-55.677888,-27.057913],[-55.677355,-27.057892],[-55.676736,-27.057359],[-55.679263,-27.055062],[-55.681368,-27.054259],[-55.681926,-27.053705],[-55.682272,-27.050861],[-55.683089,-27.05016],[-55.681841,-27.048453],[-55.681881,-27.048108],[-55.685411,-27.048075],[-55.686841,-27.048451],[-55.689447,-27.050384],[-55.691934,-27.05309],[-55.692897,-27.052398],[-55.693889,-27.05237],[-55.695961,-27.05388],[-55.69857,-27.053608],[-55.698889,-27.052861],[-55.697012,-27.051538],[-55.69539,-27.049579],[-55.694165,-27.049114],[-55.69418,-27.048725],[-55.694804,-27.048407],[-55.698399,-27.048718],[-55.701731,-27.048443],[-55.702247,-27.04767],[-55.705006,-27.04601],[-55.70549,-27.045228],[-55.705387,-27.044375],[-55.70472,-27.043897],[-55.70071,-27.043721],[-55.697426,-27.044339],[-55.694894,-27.043343],[-55.694991,-27.042946],[-55.696064,-27.042299],[-55.698923,-27.04177],[-55.700399,-27.040191],[-55.702555,-27.039794],[-55.703097,-27.039373],[-55.703771,-27.036482],[-55.70209,-27.037022],[-55.700663,-27.037018],[-55.700059,-27.036512],[-55.69976,-27.035528],[-55.700195,-27.03456],[-55.702265,-27.035283],[-55.704484,-27.034701],[-55.703365,-27.032247],[-55.700989,-27.02942],[-55.704148,-27.027097],[-55.704071,-27.026587],[-55.702881,-27.02579],[-55.703003,-27.024124],[-55.702711,-27.023464],[-55.70423,-27.024404],[-55.706849,-27.025067],[-55.709604,-27.023703],[-55.711492,-27.022165],[-55.712871,-27.021789],[-55.715274,-27.019561],[-55.714488,-27.018702],[-55.715313,-27.015247],[-55.715222,-27.013247],[-55.719182,-27.012136],[-55.721462,-27.01048],[-55.721885,-27.010619],[-55.722589,-27.011573],[-55.723925,-27.011721],[-55.724684,-27.010946],[-55.724272,-27.008766],[-55.726424,-27.009244],[-55.72614,-27.008158],[-55.727644,-27.007696],[-55.729478,-27.008731],[-55.731425,-27.009037],[-55.733188,-27.00908],[-55.735707,-27.008665],[-55.736322,-27.009731],[-55.737141,-27.010379],[-55.736992,-27.01198],[-55.737434,-27.012837],[-55.737006,-27.013547],[-55.737149,-27.013846],[-55.737672,-27.014528],[-55.73871,-27.01483],[-55.740476,-27.01727],[-55.744097,-27.020349],[-55.744499,-27.021228],[-55.744414,-27.022324],[-55.745405,-27.023571],[-55.747678,-27.010758],[-55.76684,-27.012466],[-55.767162,-27.009489],[-55.786451,-26.992066],[-55.811983,-27.018813],[-55.822887,-27.011457],[-55.800939,-26.988511],[-55.797918,-26.98249],[-55.798082,-26.982357],[-55.791817,-26.968093],[-55.817976,-26.943992],[-55.888503,-26.880028],[-55.887126,-26.879949],[-55.885342,-26.878856],[-55.884442,-26.878831],[-55.88271,-26.879355],[-55.880623,-26.878034],[-55.87958,-26.876879],[-55.877081,-26.872065],[-55.875978,-26.871447],[-55.874381,-26.871141],[-55.872718,-26.870424],[-55.871871,-26.868986],[-55.871813,-26.868141],[-55.871396,-26.867799],[-55.869099,-26.86774],[-55.867977,-26.867172],[-55.866794,-26.865221],[-55.865583,-26.864458],[-55.863738,-26.861753],[-55.863229,-26.861545],[-55.861704,-26.861944],[-55.858989,-26.860381],[-55.814438,-26.899395],[-55.768656,-26.941373],[-55.67517,-27.028013],[-55.637613,-27.062362],[-55.636592,-27.063279],[-55.636301,-27.063032],[-55.623153,-27.075414],[-55.585731,-27.108799],[-55.586088,-27.109119],[-55.568159,-27.123544],[-55.564899,-27.125635],[-55.565794,-27.132374],[-55.56305,-27.142186],[-55.561883,-27.151546],[-55.562304,-27.159517],[-55.56853,-27.164266],[-55.57449,-27.16741],[-55.580013,-27.167663],[-55.588925,-27.16202],[-55.597777,-27.161121],[-55.606375,-27.162788],[-55.611695,-27.167655],[-55.618296,-27.161768],[-55.620194,-27.161596],[-55.621182,-27.160333],[-55.621288,-27.159402],[-55.62063,-27.158971],[-55.617978,-27.158733],[-55.616681,-27.15819],[-55.616331,-27.157763],[-55.615966,-27.156572],[-55.616928,-27.153507],[-55.615873,-27.152585],[-55.61562,-27.151968],[-55.617705,-27.152052],[-55.618301,-27.151761],[-55.61859,-27.14941],[-55.620008,-27.145947],[-55.620107,-27.143616],[-55.620825,-27.142002],[-55.620842,-27.138152],[-55.621143,-27.136859],[-55.624502,-27.136554],[-55.652096,-27.112932]]]}}]}
