{"type":"FeatureCollection","name":"distrito","features":[{"type":"Feature","properties":{"clave":"9-5","nombre":"Carapeguá"},"geometry":{"type":"Polygon","coordinates":[[[-57.413742,-25.879232],[-57.414172,-25.879944],[-57.415845,-25.879571],[-57.41697,-25.877173],[-57.421208,-25.87235],[-57.419865,-25.868746],[-57.419318,-25.864418],[-57.420904,-25.861768],[-57.423013,-25.856711],[-57.423004,-25.854065],[-57.425657,-25.852614],[-57.427776,-25.850443],[-57.429641,-25.85164],[-57.43283,-25.85139],[-57.43813,-25.847044],[-57.440785,-25.846074],[-57.442906,-25.844625],[-57.445015,-25.840048],[-57.449638,-25.832457],[-57.452551,-25.829562],[-57.452524,-25.822586],[-57.454113,-25.821138],[-57.456491,-25.817523],[-57.456219,-25.81584],[-57.454878,-25.812476],[-57.453799,-25.808391],[-57.454856,-25.806704],[-57.455907,-25.803574],[-57.458264,-25.794666],[-57.461435,-25.790086],[-57.461156,-25.78672],[-57.46008,-25.783355],[-57.463252,-25.779256],[-57.461917,-25.777577],[-57.459519,-25.77566],[-57.45765,-25.773261],[-57.45738,-25.772059],[-57.461623,-25.770121],[-57.463475,-25.768191],[-57.462401,-25.765308],[-57.468209,-25.756149],[-57.466869,-25.753026],[-57.463135,-25.748949],[-57.46073,-25.745349],[-57.458322,-25.740546],[-57.455649,-25.736225],[-57.455543,-25.735954],[-57.457725,-25.73471],[-57.457377,-25.734029],[-57.457985,-25.732219],[-57.457138,-25.731762],[-57.453505,-25.731357],[-57.449227,-25.723163],[-57.447648,-25.721693],[-57.446851,-25.720068],[-57.444951,-25.719058],[-57.444118,-25.718226],[-57.443332,-25.715168],[-57.442806,-25.714294],[-57.442036,-25.713489],[-57.439335,-25.711953],[-57.43709,-25.708844],[-57.434484,-25.707934],[-57.433857,-25.706461],[-57.43206,-25.704408],[-57.431581,-25.70345],[-57.428136,-25.701999],[-57.426842,-25.700779],[-57.427134,-25.700681],[-57.431716,-25.702642],[-57.432682,-25.704267],[-57.433467,-25.704891],[-57.436276,-25.704632],[-57.436557,-25.703908],[-57.436188,-25.701558],[-57.435042,-25.701019],[-57.432726,-25.70154],[-57.43178,-25.701042],[-57.429582,-25.698239],[-57.428692,-25.696308],[-57.428565,-25.695237],[-57.428014,-25.695559],[-57.427208,-25.697815],[-57.427645,-25.6999],[-57.426141,-25.69996],[-57.425487,-25.699531],[-57.425175,-25.698057],[-57.425273,-25.697681],[-57.426898,-25.696856],[-57.426588,-25.69605],[-57.425622,-25.696498],[-57.424885,-25.696417],[-57.422294,-25.695464],[-57.41983,-25.693301],[-57.41937,-25.693386],[-57.418147,-25.694878],[-57.417027,-25.695118],[-57.416626,-25.694516],[-57.417086,-25.693751],[-57.417316,-25.691082],[-57.418109,-25.688989],[-57.417383,-25.688335],[-57.417241,-25.687456],[-57.416104,-25.68618],[-57.415958,-25.685553],[-57.415719,-25.681684],[-57.416632,-25.680329],[-57.416782,-25.677617],[-57.417249,-25.676969],[-57.416346,-25.674799],[-57.416483,-25.674113],[-57.417141,-25.673454],[-57.419055,-25.672367],[-57.419553,-25.671545],[-57.42204,-25.669819],[-57.422154,-25.668795],[-57.4218,-25.668207],[-57.420155,-25.667131],[-57.419582,-25.664776],[-57.419409,-25.66077],[-57.420423,-25.658469],[-57.42191,-25.657103],[-57.421746,-25.656012],[-57.422825,-25.65375],[-57.422334,-25.653481],[-57.419926,-25.653343],[-57.419577,-25.651075],[-57.420241,-25.649074],[-57.421513,-25.647052],[-57.421095,-25.646571],[-57.417993,-25.645971],[-57.417832,-25.645479],[-57.418118,-25.645169],[-57.419428,-25.644982],[-57.419608,-25.644547],[-57.416566,-25.642914],[-57.416196,-25.640772],[-57.41403,-25.639523],[-57.413493,-25.638336],[-57.413317,-25.636753],[-57.412676,-25.63633],[-57.4133,-25.635025],[-57.413033,-25.634717],[-57.411648,-25.634499],[-57.411602,-25.633668],[-57.410222,-25.631838],[-57.407732,-25.630773],[-57.407409,-25.629478],[-57.406309,-25.62839],[-57.405688,-25.628371],[-57.405068,-25.629697],[-57.404736,-25.629779],[-57.404871,-25.628552],[-57.404482,-25.628047],[-57.402972,-25.628968],[-57.401585,-25.628113],[-57.398041,-25.628885],[-57.397016,-25.628212],[-57.396366,-25.628301],[-57.396052,-25.629808],[-57.394695,-25.631666],[-57.394839,-25.633355],[-57.394489,-25.633964],[-57.395069,-25.635537],[-57.394923,-25.636062],[-57.393602,-25.6349],[-57.392955,-25.63489],[-57.392426,-25.635083],[-57.391647,-25.636136],[-57.390388,-25.636195],[-57.389734,-25.636609],[-57.38985,-25.637782],[-57.391217,-25.638242],[-57.391917,-25.63971],[-57.391135,-25.63998],[-57.389663,-25.639231],[-57.387393,-25.638998],[-57.386524,-25.639587],[-57.386168,-25.640819],[-57.382256,-25.641402],[-57.382178,-25.641988],[-57.381119,-25.643135],[-57.380469,-25.644875],[-57.382032,-25.645511],[-57.382198,-25.646619],[-57.38008,-25.646538],[-57.379885,-25.647445],[-57.379419,-25.647957],[-57.377609,-25.649094],[-57.376401,-25.649391],[-57.376648,-25.65047],[-57.375015,-25.65146],[-57.375458,-25.652448],[-57.373632,-25.653256],[-57.373617,-25.654209],[-57.371088,-25.654671],[-57.371391,-25.65551],[-57.370575,-25.65609],[-57.371319,-25.656867],[-57.371064,-25.657299],[-57.370124,-25.65689],[-57.36979,-25.65535],[-57.369136,-25.655511],[-57.368367,-25.6551],[-57.367869,-25.655271],[-57.36776,-25.655641],[-57.368172,-25.656259],[-57.367925,-25.65714],[-57.368456,-25.657915],[-57.367487,-25.658008],[-57.366634,-25.658904],[-57.366216,-25.658061],[-57.365429,-25.657801],[-57.365399,-25.65702],[-57.365108,-25.656827],[-57.364473,-25.657266],[-57.364242,-25.658097],[-57.364643,-25.659306],[-57.3637,-25.660243],[-57.361885,-25.65953],[-57.361414,-25.660804],[-57.360352,-25.660843],[-57.358725,-25.659285],[-57.357917,-25.659775],[-57.358242,-25.660519],[-57.357251,-25.661004],[-57.356826,-25.660856],[-57.356908,-25.659795],[-57.356499,-25.659385],[-57.355409,-25.660255],[-57.355189,-25.661718],[-57.354816,-25.661096],[-57.354501,-25.66111],[-57.354214,-25.661694],[-57.354658,-25.662004],[-57.353765,-25.662494],[-57.353355,-25.662445],[-57.35245,-25.661377],[-57.350959,-25.661372],[-57.350714,-25.661878],[-57.351299,-25.662631],[-57.351193,-25.663403],[-57.351841,-25.664038],[-57.35158,-25.664499],[-57.350914,-25.664153],[-57.350404,-25.665482],[-57.349898,-25.665203],[-57.34908,-25.665377],[-57.348652,-25.666543],[-57.347548,-25.666297],[-57.346992,-25.66675],[-57.346087,-25.666716],[-57.345701,-25.667344],[-57.344361,-25.66788],[-57.343441,-25.668722],[-57.340959,-25.668073],[-57.340371,-25.668644],[-57.339847,-25.667891],[-57.339169,-25.669337],[-57.338727,-25.668747],[-57.337778,-25.669377],[-57.337116,-25.66834],[-57.337035,-25.667202],[-57.336155,-25.666942],[-57.335611,-25.667589],[-57.336272,-25.668301],[-57.335224,-25.669121],[-57.333679,-25.668433],[-57.331796,-25.668311],[-57.331411,-25.668434],[-57.331291,-25.669193],[-57.330432,-25.669154],[-57.329801,-25.668442],[-57.329388,-25.668389],[-57.329254,-25.669328],[-57.328215,-25.669543],[-57.327913,-25.669878],[-57.327862,-25.670745],[-57.327168,-25.67183],[-57.326446,-25.671217],[-57.326667,-25.670436],[-57.326411,-25.670188],[-57.32536,-25.670746],[-57.325035,-25.671586],[-57.324034,-25.671841],[-57.322342,-25.671502],[-57.322647,-25.670038],[-57.322296,-25.669628],[-57.321571,-25.669829],[-57.320481,-25.671091],[-57.319839,-25.671209],[-57.31927,-25.669716],[-57.317785,-25.669358],[-57.316639,-25.669618],[-57.315517,-25.669512],[-57.315258,-25.668361],[-57.314438,-25.667979],[-57.314089,-25.668337],[-57.314281,-25.669172],[-57.313558,-25.6699],[-57.311529,-25.669011],[-57.310506,-25.669297],[-57.310409,-25.669902],[-57.311345,-25.670149],[-57.311467,-25.670889],[-57.310326,-25.671076],[-57.310553,-25.671862],[-57.310203,-25.672169],[-57.309055,-25.672113],[-57.308286,-25.672643],[-57.307717,-25.672328],[-57.307218,-25.673724],[-57.307872,-25.674427],[-57.307734,-25.674875],[-57.306901,-25.67494],[-57.306499,-25.674381],[-57.305871,-25.675122],[-57.305565,-25.674676],[-57.304509,-25.674462],[-57.303557,-25.675118],[-57.302508,-25.675224],[-57.30217,-25.676164],[-57.301796,-25.676002],[-57.301595,-25.674784],[-57.301887,-25.673979],[-57.301759,-25.673162],[-57.299608,-25.673235],[-57.299436,-25.672047],[-57.299035,-25.671682],[-57.29856,-25.671688],[-57.298172,-25.672339],[-57.297487,-25.67169],[-57.297056,-25.671655],[-57.296785,-25.673565],[-57.295429,-25.67257],[-57.295426,-25.673744],[-57.293728,-25.673016],[-57.293055,-25.673695],[-57.291869,-25.673927],[-57.292101,-25.673168],[-57.291619,-25.672167],[-57.290914,-25.67188],[-57.290835,-25.672593],[-57.290521,-25.672648],[-57.289534,-25.671697],[-57.289578,-25.670889],[-57.288966,-25.670673],[-57.289725,-25.670035],[-57.290664,-25.66997],[-57.291517,-25.668108],[-57.29016,-25.6684],[-57.289588,-25.667931],[-57.289391,-25.667209],[-57.286291,-25.667663],[-57.285577,-25.668409],[-57.284667,-25.667788],[-57.28358,-25.668566],[-57.282653,-25.667579],[-57.282501,-25.666672],[-57.281512,-25.665888],[-57.280945,-25.666133],[-57.279977,-25.66735],[-57.277915,-25.66762],[-57.277803,-25.668758],[-57.278743,-25.66863],[-57.279702,-25.669057],[-57.278881,-25.669528],[-57.279416,-25.670082],[-57.279353,-25.670453],[-57.278608,-25.670174],[-57.278076,-25.670853],[-57.276952,-25.671035],[-57.277688,-25.672443],[-57.277552,-25.67307],[-57.276049,-25.67455],[-57.275428,-25.673278],[-57.274835,-25.672832],[-57.274292,-25.672819],[-57.27404,-25.673741],[-57.273359,-25.674126],[-57.27314,-25.676298],[-57.271227,-25.6765],[-57.269446,-25.678138],[-57.26922,-25.679412],[-57.270018,-25.680133],[-57.268973,-25.680464],[-57.268665,-25.680885],[-57.269055,-25.683634],[-57.270359,-25.684227],[-57.269979,-25.685966],[-57.269031,-25.686419],[-57.268802,-25.685476],[-57.267088,-25.686026],[-57.266606,-25.68567],[-57.266805,-25.684834],[-57.265217,-25.685058],[-57.264687,-25.687141],[-57.265997,-25.688466],[-57.2656,-25.689234],[-57.266128,-25.689685],[-57.266089,-25.690141],[-57.265422,-25.690625],[-57.264289,-25.690605],[-57.262589,-25.689745],[-57.262462,-25.689109],[-57.260728,-25.689157],[-57.260569,-25.689573],[-57.261663,-25.690673],[-57.260693,-25.691586],[-57.26092,-25.69285],[-57.260681,-25.693596],[-57.260135,-25.694025],[-57.259122,-25.693698],[-57.258491,-25.692249],[-57.257933,-25.69184],[-57.258019,-25.690995],[-57.256845,-25.691002],[-57.256671,-25.691571],[-57.257297,-25.693705],[-57.255707,-25.695216],[-57.256469,-25.695409],[-57.256122,-25.695888],[-57.255796,-25.698584],[-57.254281,-25.698659],[-57.253569,-25.699089],[-57.253301,-25.698115],[-57.252286,-25.697168],[-57.251068,-25.696385],[-57.250504,-25.696733],[-57.249918,-25.696531],[-57.249326,-25.695909],[-57.249115,-25.694943],[-57.249643,-25.694604],[-57.249659,-25.694202],[-57.249052,-25.69353],[-57.249232,-25.693002],[-57.24874,-25.692384],[-57.247337,-25.693515],[-57.246162,-25.693097],[-57.244945,-25.693375],[-57.24445,-25.695773],[-57.243038,-25.696154],[-57.242672,-25.696552],[-57.242311,-25.696499],[-57.241751,-25.695782],[-57.241086,-25.695855],[-57.240506,-25.695405],[-57.240104,-25.695645],[-57.239978,-25.697189],[-57.238936,-25.69785],[-57.238725,-25.698451],[-57.238988,-25.698965],[-57.237793,-25.699951],[-57.2382,-25.701228],[-57.23974,-25.702219],[-57.239775,-25.703118],[-57.2391,-25.70404],[-57.239891,-25.704179],[-57.24028,-25.70481],[-57.241196,-25.705084],[-57.241353,-25.706181],[-57.2392,-25.706564],[-57.238355,-25.707197],[-57.237976,-25.708611],[-57.238571,-25.711107],[-57.235675,-25.713058],[-57.235817,-25.714863],[-57.235007,-25.71556],[-57.234375,-25.716857],[-57.23366,-25.71721],[-57.23387,-25.718393],[-57.233607,-25.719274],[-57.233101,-25.719464],[-57.233378,-25.720073],[-57.233034,-25.72076],[-57.233961,-25.720709],[-57.235065,-25.721131],[-57.235274,-25.721524],[-57.234745,-25.721868],[-57.234693,-25.722884],[-57.233554,-25.723202],[-57.234256,-25.725007],[-57.234125,-25.725774],[-57.234423,-25.726424],[-57.2336,-25.727563],[-57.232946,-25.727587],[-57.232789,-25.728152],[-57.232304,-25.728423],[-57.232874,-25.728955],[-57.232398,-25.730234],[-57.234457,-25.730912],[-57.233974,-25.731608],[-57.234168,-25.73224],[-57.235029,-25.73269],[-57.235165,-25.73455],[-57.234085,-25.734538],[-57.234007,-25.735058],[-57.23336,-25.735605],[-57.233361,-25.737849],[-57.232749,-25.738875],[-57.232253,-25.739092],[-57.231428,-25.738439],[-57.230902,-25.73844],[-57.229939,-25.73966],[-57.229108,-25.73991],[-57.229084,-25.740827],[-57.228387,-25.74039],[-57.227835,-25.739343],[-57.227489,-25.739407],[-57.227038,-25.741787],[-57.228832,-25.742015],[-57.229563,-25.74284],[-57.228544,-25.744106],[-57.227836,-25.744192],[-57.227469,-25.744793],[-57.226445,-25.744407],[-57.22474,-25.744884],[-57.224395,-25.744604],[-57.224738,-25.743683],[-57.223735,-25.74368],[-57.22314,-25.744471],[-57.221189,-25.74441],[-57.218846,-25.745547],[-57.218827,-25.746107],[-57.219566,-25.746892],[-57.218936,-25.74822],[-57.216936,-25.749067],[-57.216748,-25.750661],[-57.215699,-25.751575],[-57.215115,-25.753355],[-57.214668,-25.752498],[-57.214238,-25.752385],[-57.214175,-25.753532],[-57.213202,-25.753913],[-57.214029,-25.754688],[-57.214845,-25.754764],[-57.214792,-25.756827],[-57.215721,-25.758975],[-57.216515,-25.758983],[-57.21628,-25.759837],[-57.216722,-25.760269],[-57.215746,-25.761061],[-57.216509,-25.761597],[-57.215785,-25.762343],[-57.215231,-25.762222],[-57.215001,-25.762986],[-57.214295,-25.762594],[-57.213205,-25.763142],[-57.212284,-25.762556],[-57.211649,-25.763397],[-57.211707,-25.763993],[-57.209659,-25.764492],[-57.208885,-25.765338],[-57.208744,-25.765975],[-57.208218,-25.765646],[-57.207144,-25.766437],[-57.206977,-25.766912],[-57.205097,-25.766969],[-57.205031,-25.767366],[-57.205725,-25.768381],[-57.205361,-25.768765],[-57.20452,-25.768505],[-57.204395,-25.769218],[-57.204727,-25.769656],[-57.205692,-25.769731],[-57.205587,-25.770137],[-57.202435,-25.770824],[-57.200029,-25.771847],[-57.199281,-25.771582],[-57.198439,-25.771809],[-57.197228,-25.772276],[-57.196726,-25.773071],[-57.19574,-25.772278],[-57.195232,-25.772342],[-57.194987,-25.772658],[-57.195384,-25.77305],[-57.194839,-25.774144],[-57.195228,-25.774996],[-57.193984,-25.776104],[-57.192205,-25.776039],[-57.191254,-25.775543],[-57.190867,-25.774871],[-57.190299,-25.77475],[-57.189149,-25.775772],[-57.189113,-25.776589],[-57.189484,-25.777067],[-57.188879,-25.776964],[-57.188397,-25.777299],[-57.187942,-25.777124],[-57.187633,-25.776541],[-57.186991,-25.776768],[-57.186468,-25.77592],[-57.185958,-25.775808],[-57.185739,-25.776124],[-57.18598,-25.776656],[-57.184039,-25.777463],[-57.183853,-25.778005],[-57.182434,-25.777857],[-57.182727,-25.777356],[-57.182192,-25.777194],[-57.181551,-25.777872],[-57.18116,-25.777868],[-57.180539,-25.777589],[-57.180266,-25.776813],[-57.179347,-25.776724],[-57.178925,-25.775767],[-57.178188,-25.775673],[-57.178373,-25.774178],[-57.178166,-25.773953],[-57.177502,-25.773994],[-57.176573,-25.774582],[-57.174746,-25.77449],[-57.172496,-25.773951],[-57.171735,-25.774412],[-57.170363,-25.773926],[-57.169832,-25.774441],[-57.169244,-25.773304],[-57.167684,-25.774647],[-57.167831,-25.775432],[-57.167446,-25.776209],[-57.166385,-25.776865],[-57.166284,-25.775953],[-57.165495,-25.775778],[-57.164248,-25.774719],[-57.162798,-25.774774],[-57.162851,-25.7744],[-57.163582,-25.77411],[-57.163051,-25.773198],[-57.161548,-25.772812],[-57.160529,-25.773224],[-57.158432,-25.773447],[-57.158164,-25.773646],[-57.158357,-25.774274],[-57.159435,-25.774096],[-57.159218,-25.774882],[-57.155805,-25.776394],[-57.155469,-25.777604],[-57.154296,-25.778527],[-57.152,-25.778818],[-57.151487,-25.779997],[-57.149855,-25.77971],[-57.149839,-25.780726],[-57.149298,-25.781033],[-57.149192,-25.781693],[-57.148058,-25.782064],[-57.146933,-25.782932],[-57.144861,-25.783494],[-57.144316,-25.784163],[-57.143298,-25.783866],[-57.142472,-25.784061],[-57.142027,-25.786115],[-57.141418,-25.786802],[-57.140591,-25.786898],[-57.139918,-25.787833],[-57.139508,-25.789265],[-57.139863,-25.790664],[-57.139536,-25.791269],[-57.138691,-25.791172],[-57.138705,-25.79267],[-57.137083,-25.79916],[-57.138275,-25.799321],[-57.138443,-25.800472],[-57.137608,-25.801525],[-57.138571,-25.802897],[-57.138978,-25.802743],[-57.13946,-25.803451],[-57.139005,-25.805659],[-57.139358,-25.80607],[-57.140372,-25.805947],[-57.140947,-25.806317],[-57.140917,-25.807622],[-57.141848,-25.808452],[-57.142288,-25.809417],[-57.143563,-25.809719],[-57.143616,-25.810418],[-57.144097,-25.810567],[-57.143629,-25.812491],[-57.142857,-25.813273],[-57.142523,-25.814411],[-57.1429,-25.814862],[-57.143778,-25.814956],[-57.144019,-25.815881],[-57.144522,-25.816355],[-57.145441,-25.8163],[-57.145891,-25.81657],[-57.146749,-25.818095],[-57.147536,-25.820636],[-57.147561,-25.823987],[-57.148704,-25.82702],[-57.148612,-25.828663],[-57.149648,-25.829913],[-57.149175,-25.83125],[-57.149504,-25.831606],[-57.153717,-25.833349],[-57.155307,-25.834729],[-57.156909,-25.837007],[-57.158351,-25.836843],[-57.160212,-25.83741],[-57.163445,-25.839912],[-57.16563,-25.840722],[-57.166916,-25.840789],[-57.168679,-25.842918],[-57.169567,-25.84298],[-57.17063,-25.843864],[-57.170575,-25.844496],[-57.171157,-25.845087],[-57.170873,-25.845692],[-57.171064,-25.846116],[-57.174306,-25.847995],[-57.177367,-25.847698],[-57.177777,-25.846334],[-57.179008,-25.845411],[-57.179505,-25.84579],[-57.181806,-25.845828],[-57.185069,-25.846821],[-57.186223,-25.846869],[-57.187575,-25.845098],[-57.188053,-25.844858],[-57.188823,-25.845931],[-57.188725,-25.847309],[-57.189212,-25.84911],[-57.189892,-25.849339],[-57.190289,-25.849889],[-57.191849,-25.849878],[-57.193521,-25.852215],[-57.194295,-25.85253],[-57.194725,-25.853662],[-57.195885,-25.85353],[-57.196668,-25.854078],[-57.198519,-25.852963],[-57.201099,-25.853293],[-57.202545,-25.853058],[-57.203241,-25.852493],[-57.203889,-25.85238],[-57.204684,-25.851229],[-57.205729,-25.851048],[-57.206497,-25.848455],[-57.206419,-25.8469],[-57.207662,-25.845659],[-57.209739,-25.841496],[-57.210602,-25.840917],[-57.210854,-25.833598],[-57.210593,-25.831851],[-57.211077,-25.830525],[-57.212924,-25.829833],[-57.213224,-25.830031],[-57.214862,-25.829807],[-57.216991,-25.829943],[-57.218245,-25.829442],[-57.221721,-25.823287],[-57.225053,-25.821043],[-57.226919,-25.81609],[-57.229301,-25.811994],[-57.232075,-25.811821],[-57.233562,-25.812424],[-57.237974,-25.810385],[-57.240801,-25.810353],[-57.243526,-25.808994],[-57.246061,-25.809003],[-57.248133,-25.809438],[-57.249547,-25.808948],[-57.253204,-25.809167],[-57.255339,-25.809782],[-57.256059,-25.809465],[-57.257248,-25.809526],[-57.259961,-25.808573],[-57.262475,-25.809571],[-57.264211,-25.81145],[-57.265209,-25.811561],[-57.266383,-25.811184],[-57.266896,-25.810642],[-57.267401,-25.809255],[-57.267029,-25.808583],[-57.267507,-25.807832],[-57.268236,-25.807172],[-57.269663,-25.806921],[-57.270382,-25.807077],[-57.271158,-25.807708],[-57.273151,-25.807555],[-57.274385,-25.808266],[-57.275147,-25.808215],[-57.277132,-25.808911],[-57.277633,-25.808802],[-57.279313,-25.809706],[-57.282061,-25.810301],[-57.28286,-25.8116],[-57.282916,-25.812313],[-57.283974,-25.812677],[-57.284663,-25.814044],[-57.285676,-25.813798],[-57.286779,-25.814753],[-57.288729,-25.814402],[-57.292361,-25.8155],[-57.294288,-25.814783],[-57.297591,-25.815025],[-57.299213,-25.814511],[-57.299506,-25.813829],[-57.303341,-25.813564],[-57.303797,-25.81289],[-57.30448,-25.813218],[-57.305047,-25.813077],[-57.305136,-25.813691],[-57.306269,-25.813548],[-57.306789,-25.812364],[-57.307661,-25.812462],[-57.307837,-25.813094],[-57.308273,-25.813251],[-57.308665,-25.812974],[-57.308664,-25.812577],[-57.309012,-25.812558],[-57.309974,-25.813563],[-57.310866,-25.813105],[-57.311869,-25.813004],[-57.312738,-25.812194],[-57.313392,-25.812152],[-57.314941,-25.812839],[-57.315768,-25.81211],[-57.317271,-25.812026],[-57.318277,-25.813247],[-57.320088,-25.813835],[-57.322355,-25.813812],[-57.324161,-25.813036],[-57.324748,-25.812307],[-57.325859,-25.812187],[-57.326776,-25.812596],[-57.327565,-25.814233],[-57.328678,-25.814804],[-57.328746,-25.815847],[-57.329403,-25.817029],[-57.332744,-25.819134],[-57.333007,-25.819585],[-57.332945,-25.820772],[-57.33382,-25.821895],[-57.333892,-25.82412],[-57.33457,-25.82509],[-57.338152,-25.827723],[-57.338851,-25.828019],[-57.34127,-25.82809],[-57.342626,-25.829328],[-57.343655,-25.829692],[-57.345058,-25.828686],[-57.347814,-25.828196],[-57.3491,-25.828153],[-57.351685,-25.828828],[-57.352458,-25.828537],[-57.353376,-25.829474],[-57.354431,-25.828474],[-57.355979,-25.828619],[-57.356545,-25.828293],[-57.359973,-25.830474],[-57.360599,-25.831813],[-57.361637,-25.832718],[-57.362343,-25.835678],[-57.362237,-25.836586],[-57.362664,-25.837213],[-57.364584,-25.837741],[-57.365667,-25.83902],[-57.366847,-25.839649],[-57.368405,-25.839605],[-57.368585,-25.841482],[-57.371514,-25.843949],[-57.372182,-25.844864],[-57.373379,-25.845514],[-57.374926,-25.847324],[-57.379118,-25.848852],[-57.385539,-25.851795],[-57.388818,-25.854036],[-57.392878,-25.855091],[-57.400869,-25.857792],[-57.402678,-25.861366],[-57.407957,-25.864047],[-57.412155,-25.867114],[-57.413343,-25.869834],[-57.415441,-25.871012],[-57.413222,-25.879062],[-57.413742,-25.879232]]]}}]}
