{"type":"FeatureCollection","name":"distrito","features":[{"type":"Feature","properties":{"clave":"9-29","nombre":"Ybycuí"},"geometry":{"type":"Polygon","coordinates":[[[-56.98101,-26.119618],[-56.982729,-26.122282],[-56.983135,-26.122115],[-56.983573,-26.12235],[-56.984159,-26.121803],[-56.984735,-26.121912],[-56.98532,-26.121505],[-56.986309,-26.121677],[-56.987495,-26.123641],[-56.988734,-26.124206],[-56.989281,-26.124842],[-56.990349,-26.125091],[-56.991271,-26.126179],[-56.992164,-26.126147],[-56.992778,-26.126495],[-56.993112,-26.125746],[-56.99467,-26.125755],[-56.995007,-26.12603],[-56.995613,-26.125872],[-56.99567,-26.126373],[-56.996435,-26.126983],[-56.996772,-26.127827],[-56.996591,-26.12868],[-56.997018,-26.129136],[-56.99782,-26.129123],[-56.998183,-26.128834],[-56.998669,-26.128924],[-56.998803,-26.12966],[-56.999757,-26.129597],[-57.000037,-26.130355],[-57.00081,-26.130608],[-57.000884,-26.131145],[-57.001484,-26.131168],[-57.002727,-26.132179],[-57.003244,-26.133791],[-57.003061,-26.135137],[-57.003618,-26.135398],[-57.0046,-26.135331],[-57.00572,-26.136098],[-57.007956,-26.136107],[-57.009488,-26.134888],[-57.013,-26.13519],[-57.01401,-26.1358],[-57.015329,-26.135831],[-57.024895,-26.135347],[-57.026352,-26.135518],[-57.029565,-26.134727],[-57.036116,-26.138216],[-57.040965,-26.14221],[-57.041993,-26.144016],[-57.042573,-26.144435],[-57.045356,-26.144087],[-57.045965,-26.143635],[-57.047788,-26.143138],[-57.049433,-26.143729],[-57.052729,-26.143795],[-57.05809,-26.142592],[-57.059295,-26.142678],[-57.060394,-26.143215],[-57.061589,-26.143056],[-57.063663,-26.143358],[-57.064667,-26.142824],[-57.065818,-26.142806],[-57.069198,-26.143635],[-57.072058,-26.143516],[-57.073241,-26.143073],[-57.075117,-26.144273],[-57.076219,-26.144169],[-57.077251,-26.143527],[-57.078685,-26.143468],[-57.081993,-26.142007],[-57.082453,-26.141307],[-57.084073,-26.140656],[-57.083781,-26.139826],[-57.084016,-26.139221],[-57.088914,-26.138653],[-57.089321,-26.137664],[-57.089036,-26.136992],[-57.089207,-26.136382],[-57.090002,-26.136422],[-57.092415,-26.135486],[-57.093311,-26.134465],[-57.099462,-26.132023],[-57.100086,-26.131345],[-57.101139,-26.13092],[-57.101722,-26.129629],[-57.102993,-26.128955],[-57.104387,-26.128679],[-57.106263,-26.126853],[-57.106327,-26.126027],[-57.105665,-26.125106],[-57.103716,-26.124647],[-57.10378,-26.124435],[-57.104836,-26.124312],[-57.104784,-26.123572],[-57.10549,-26.123116],[-57.105614,-26.122393],[-57.106569,-26.122587],[-57.1072,-26.122442],[-57.108042,-26.121678],[-57.109247,-26.121844],[-57.109973,-26.121338],[-57.110637,-26.121319],[-57.110646,-26.120344],[-57.111716,-26.120718],[-57.114393,-26.119434],[-57.115534,-26.119356],[-57.118969,-26.117845],[-57.12095,-26.11643],[-57.123473,-26.116762],[-57.125382,-26.116332],[-57.127876,-26.114727],[-57.129862,-26.114901],[-57.130165,-26.114242],[-57.129874,-26.113068],[-57.130378,-26.112964],[-57.130419,-26.112652],[-57.130417,-26.110454],[-57.131013,-26.110087],[-57.130727,-26.10937],[-57.13108,-26.108832],[-57.13099,-26.107898],[-57.132249,-26.105793],[-57.133369,-26.105819],[-57.132924,-26.10432],[-57.133801,-26.10445],[-57.133556,-26.103046],[-57.133783,-26.102581],[-57.134875,-26.101853],[-57.139732,-26.101375],[-57.140966,-26.100132],[-57.141596,-26.096736],[-57.142387,-26.095859],[-57.142264,-26.094667],[-57.141057,-26.092231],[-57.141422,-26.091318],[-57.140172,-26.09052],[-57.138209,-26.087768],[-57.137476,-26.086451],[-57.13771,-26.084861],[-57.136434,-26.083147],[-57.13609,-26.081942],[-57.136205,-26.081102],[-57.135669,-26.080276],[-57.134345,-26.079505],[-57.133678,-26.07798],[-57.133944,-26.077239],[-57.133861,-26.075194],[-57.134633,-26.072444],[-57.136021,-26.070659],[-57.137243,-26.070012],[-57.137956,-26.069127],[-57.137976,-26.068327],[-57.137437,-26.068468],[-57.137192,-26.068265],[-57.136492,-26.065119],[-57.137453,-26.06412],[-57.138249,-26.062589],[-57.137516,-26.056865],[-57.13864,-26.055753],[-57.140673,-26.054414],[-57.137506,-26.050968],[-57.135256,-26.04911],[-57.133022,-26.045663],[-57.13301,-26.044999],[-57.134826,-26.040153],[-57.134377,-26.039268],[-57.13293,-26.037915],[-57.132987,-26.035884],[-57.131695,-26.032006],[-57.131693,-26.03062],[-57.132451,-26.029346],[-57.133552,-26.028695],[-57.135052,-26.026743],[-57.131281,-26.026666],[-57.130759,-26.027176],[-57.129457,-26.027101],[-57.128273,-26.026632],[-57.128017,-26.026863],[-57.128324,-26.027476],[-57.127157,-26.027762],[-57.125845,-26.027921],[-57.122518,-26.027685],[-57.121841,-26.02866],[-57.120732,-26.029298],[-57.120571,-26.030657],[-57.119841,-26.030689],[-57.11962,-26.030297],[-57.118448,-26.031201],[-57.117334,-26.031287],[-57.116997,-26.032344],[-57.116195,-26.032209],[-57.115505,-26.031465],[-57.110285,-26.031327],[-57.110619,-26.03055],[-57.109636,-26.028885],[-57.111003,-26.027594],[-57.112137,-26.027304],[-57.11205,-26.026646],[-57.112541,-26.025173],[-57.114373,-26.022562],[-57.115086,-26.020566],[-57.114449,-26.019989],[-57.113386,-26.019863],[-57.112966,-26.01948],[-57.111121,-26.015653],[-57.11112,-26.014307],[-57.111891,-26.012329],[-57.113869,-26.011181],[-57.113571,-26.010644],[-57.113044,-26.006481],[-57.112426,-26.00473],[-57.11114,-26.003494],[-57.11057,-26.002239],[-57.110498,-25.999702],[-57.109249,-25.995155],[-57.108553,-25.993283],[-57.107867,-25.993403],[-57.105405,-25.984183],[-57.105666,-25.984278],[-57.106467,-25.983582],[-57.106934,-25.982787],[-57.106854,-25.982313],[-57.107197,-25.982074],[-57.109577,-25.981593],[-57.109117,-25.977584],[-57.107902,-25.971864],[-57.107567,-25.971906],[-57.107706,-25.971713],[-57.103395,-25.969173],[-57.100848,-25.96675],[-57.100483,-25.965626],[-57.102165,-25.963837],[-57.097683,-25.961975],[-57.097194,-25.961488],[-57.095247,-25.961534],[-57.094192,-25.961176],[-57.093579,-25.957942],[-57.091207,-25.956106],[-57.086228,-25.957603],[-57.078383,-25.956939],[-57.075365,-25.954223],[-57.0682,-25.95377],[-57.065192,-25.954047],[-57.062807,-25.953407],[-57.060978,-25.954392],[-57.054585,-25.950553],[-57.047824,-25.948031],[-57.040226,-25.947148],[-57.025321,-25.946578],[-57.022389,-25.945202],[-57.020211,-25.939658],[-57.016665,-25.932999],[-57.001373,-25.932097],[-57.000106,-25.927035],[-56.994893,-25.922954],[-56.992924,-25.923057],[-56.986049,-25.921779],[-56.97408,-25.92096],[-56.955635,-25.920694],[-56.950664,-25.919081],[-56.946751,-25.917106],[-56.94467,-25.918478],[-56.941789,-25.919294],[-56.928457,-25.917207],[-56.922451,-25.914228],[-56.919409,-25.909386],[-56.916657,-25.906893],[-56.917821,-25.913607],[-56.896488,-25.914835],[-56.890371,-25.918826],[-56.879946,-25.921243],[-56.870018,-25.921952],[-56.850212,-25.922199],[-56.849869,-25.923883],[-56.850173,-25.92605],[-56.852308,-25.929416],[-56.850158,-25.933346],[-56.846623,-25.937406],[-56.844666,-25.938005],[-56.836832,-25.944642],[-56.830999,-25.947399],[-56.82584,-25.948277],[-56.802381,-25.948107],[-56.790715,-25.944181],[-56.793624,-25.929412],[-56.787733,-25.923137],[-56.785187,-25.919941],[-56.783829,-25.919293],[-56.779095,-25.919512],[-56.775529,-25.92036],[-56.769908,-25.922992],[-56.764666,-25.92679],[-56.75202,-25.935126],[-56.747988,-25.941148],[-56.752771,-25.943033],[-56.748241,-25.94945],[-56.747651,-25.952113],[-56.742581,-25.956118],[-56.741335,-25.959149],[-56.741531,-25.960856],[-56.741085,-25.962337],[-56.741198,-25.963732],[-56.739772,-25.965856],[-56.740006,-25.966493],[-56.739472,-25.968036],[-56.738675,-25.968644],[-56.738324,-25.970973],[-56.73702,-25.972646],[-56.741865,-25.98],[-56.740886,-25.996753],[-56.748161,-26.028082],[-56.753314,-26.037152],[-56.767786,-26.045772],[-56.784386,-26.054173],[-56.786222,-26.054772],[-56.790884,-26.055018],[-56.794456,-26.058215],[-56.795633,-26.057846],[-56.79654,-26.057965],[-56.796805,-26.058295],[-56.796858,-26.059735],[-56.797351,-26.060418],[-56.799725,-26.062525],[-56.801762,-26.063331],[-56.802381,-26.063879],[-56.802452,-26.064493],[-56.801131,-26.06594],[-56.801274,-26.066568],[-56.802719,-26.067956],[-56.802576,-26.068773],[-56.801986,-26.069228],[-56.801046,-26.069421],[-56.797219,-26.067705],[-56.796057,-26.067531],[-56.793709,-26.068616],[-56.793139,-26.069401],[-56.790102,-26.070101],[-56.789674,-26.070498],[-56.789578,-26.071179],[-56.790029,-26.07202],[-56.791314,-26.072672],[-56.794733,-26.073972],[-56.798546,-26.074628],[-56.800192,-26.075416],[-56.802468,-26.077419],[-56.80427,-26.080546],[-56.805615,-26.080457],[-56.805014,-26.082348],[-56.802851,-26.082467],[-56.799202,-26.08188],[-56.796533,-26.08216],[-56.79596,-26.082778],[-56.795383,-26.082872],[-56.791568,-26.082207],[-56.789675,-26.082674],[-56.788151,-26.083494],[-56.783796,-26.084295],[-56.783565,-26.084155],[-56.783853,-26.083438],[-56.783652,-26.082864],[-56.782807,-26.082452],[-56.782349,-26.082573],[-56.782891,-26.086267],[-56.785127,-26.087426],[-56.784142,-26.089411],[-56.784306,-26.090527],[-56.785317,-26.091296],[-56.787607,-26.092057],[-56.788523,-26.093039],[-56.788883,-26.094434],[-56.791616,-26.09633],[-56.79217,-26.097617],[-56.792298,-26.099916],[-56.792978,-26.101181],[-56.791685,-26.102019],[-56.791172,-26.103115],[-56.791588,-26.103639],[-56.792835,-26.102774],[-56.793101,-26.103669],[-56.792794,-26.104242],[-56.791149,-26.104533],[-56.791122,-26.105341],[-56.79164,-26.10652],[-56.790406,-26.106992],[-56.790405,-26.107647],[-56.791577,-26.108082],[-56.791943,-26.10922],[-56.790515,-26.111196],[-56.790213,-26.112369],[-56.790338,-26.113308],[-56.792764,-26.115827],[-56.793362,-26.117724],[-56.794104,-26.118113],[-56.795708,-26.11812],[-56.796984,-26.117711],[-56.797875,-26.118294],[-56.798903,-26.117984],[-56.80007,-26.118275],[-56.800392,-26.117521],[-56.802104,-26.11737],[-56.802636,-26.118847],[-56.802955,-26.118974],[-56.803653,-26.117968],[-56.804481,-26.118155],[-56.804868,-26.117514],[-56.807661,-26.118087],[-56.80783,-26.116638],[-56.808999,-26.116608],[-56.809353,-26.116888],[-56.80938,-26.117926],[-56.810087,-26.118772],[-56.812961,-26.119177],[-56.814101,-26.121662],[-56.814639,-26.121608],[-56.815926,-26.120278],[-56.817124,-26.120185],[-56.817608,-26.120533],[-56.818793,-26.119695],[-56.818816,-26.120598],[-56.819807,-26.120432],[-56.819755,-26.121263],[-56.82072,-26.12163],[-56.820915,-26.122176],[-56.822238,-26.122372],[-56.822324,-26.123117],[-56.823113,-26.1238],[-56.823248,-26.124314],[-56.824818,-26.124908],[-56.825965,-26.124629],[-56.825771,-26.124069],[-56.826084,-26.123799],[-56.827093,-26.123728],[-56.828538,-26.123025],[-56.829603,-26.123261],[-56.830912,-26.121822],[-56.832705,-26.121626],[-56.833982,-26.121731],[-56.834392,-26.122183],[-56.834587,-26.123186],[-56.835937,-26.123237],[-56.837022,-26.123653],[-56.837683,-26.123492],[-56.838934,-26.124857],[-56.838947,-26.125651],[-56.840326,-26.127251],[-56.840889,-26.129717],[-56.8393,-26.131137],[-56.839839,-26.134908],[-56.840014,-26.135246],[-56.840432,-26.135269],[-56.839461,-26.136618],[-56.839018,-26.136744],[-56.83854,-26.138134],[-56.839032,-26.1392],[-56.839019,-26.140099],[-56.839401,-26.140492],[-56.840409,-26.140723],[-56.840976,-26.141957],[-56.841618,-26.141736],[-56.842177,-26.142901],[-56.843146,-26.142618],[-56.843984,-26.143107],[-56.844664,-26.142584],[-56.845221,-26.142571],[-56.84573,-26.142824],[-56.845836,-26.14361],[-56.847951,-26.144556],[-56.848695,-26.146236],[-56.849769,-26.146517],[-56.849954,-26.149158],[-56.850764,-26.149299],[-56.850911,-26.151141],[-56.850644,-26.152694],[-56.849993,-26.15286],[-56.850134,-26.153493],[-56.849601,-26.154436],[-56.849219,-26.154503],[-56.84907,-26.153844],[-56.847925,-26.154258],[-56.84789,-26.154705],[-56.848377,-26.154913],[-56.848351,-26.15582],[-56.847587,-26.156226],[-56.847927,-26.156664],[-56.847776,-26.157098],[-56.848431,-26.157532],[-56.848506,-26.158304],[-56.849924,-26.159118],[-56.850266,-26.160084],[-56.851294,-26.161011],[-56.849164,-26.163122],[-56.85001,-26.164581],[-56.848649,-26.164945],[-56.848639,-26.165288],[-56.849549,-26.166179],[-56.849458,-26.166657],[-56.850781,-26.167747],[-56.850586,-26.168925],[-56.852646,-26.168606],[-56.85341,-26.168779],[-56.853124,-26.169487],[-56.85368,-26.169917],[-56.853834,-26.171145],[-56.854811,-26.171719],[-56.854789,-26.172491],[-56.855476,-26.172767],[-56.85529,-26.173562],[-56.856272,-26.173387],[-56.856496,-26.174561],[-56.857108,-26.174661],[-56.8576,-26.17588],[-56.8584,-26.176233],[-56.857801,-26.177221],[-56.858908,-26.178356],[-56.858805,-26.179006],[-56.859583,-26.180153],[-56.8592,-26.180505],[-56.85884,-26.181773],[-56.859104,-26.182139],[-56.859773,-26.181937],[-56.859527,-26.182921],[-56.860542,-26.18396],[-56.860458,-26.184606],[-56.861811,-26.185058],[-56.86135,-26.185798],[-56.862362,-26.186513],[-56.861815,-26.187189],[-56.862314,-26.187781],[-56.861895,-26.188273],[-56.862081,-26.188648],[-56.862689,-26.188861],[-56.862399,-26.189651],[-56.863891,-26.191038],[-56.863036,-26.191705],[-56.86389,-26.19162],[-56.864137,-26.192081],[-56.864956,-26.192195],[-56.86548,-26.193301],[-56.866116,-26.193582],[-56.865481,-26.194132],[-56.865578,-26.194444],[-56.866622,-26.194932],[-56.866621,-26.195361],[-56.867253,-26.195312],[-56.867936,-26.196274],[-56.868455,-26.196049],[-56.86888,-26.196271],[-56.868739,-26.196758],[-56.869872,-26.19745],[-56.869923,-26.197924],[-56.870659,-26.198349],[-56.871013,-26.198061],[-56.871529,-26.198273],[-56.871396,-26.198833],[-56.871636,-26.198991],[-56.872821,-26.199092],[-56.873222,-26.200555],[-56.874148,-26.200817],[-56.874075,-26.201671],[-56.874604,-26.201951],[-56.874486,-26.202922],[-56.875552,-26.20309],[-56.875292,-26.203884],[-56.87603,-26.204286],[-56.876431,-26.205136],[-56.876957,-26.205199],[-56.876735,-26.205899],[-56.877767,-26.206599],[-56.876919,-26.206892],[-56.877873,-26.207182],[-56.878925,-26.2086],[-56.878278,-26.209404],[-56.879103,-26.209969],[-56.878956,-26.210921],[-56.879567,-26.211319],[-56.880086,-26.21103],[-56.88086,-26.211582],[-56.881392,-26.213045],[-56.882352,-26.21296],[-56.88239,-26.213813],[-56.883223,-26.214293],[-56.883431,-26.214735],[-56.884063,-26.214348],[-56.88443,-26.215043],[-56.885649,-26.215134],[-56.885571,-26.215604],[-56.884521,-26.216217],[-56.88514,-26.216877],[-56.885628,-26.216922],[-56.885545,-26.217658],[-56.886082,-26.217514],[-56.886861,-26.218309],[-56.887073,-26.219027],[-56.888333,-26.21929],[-56.889001,-26.219006],[-56.889477,-26.219833],[-56.889861,-26.219138],[-56.890775,-26.219066],[-56.890862,-26.218822],[-56.890142,-26.218587],[-56.890493,-26.218149],[-56.890033,-26.21758],[-56.889023,-26.217173],[-56.889146,-26.21688],[-56.890173,-26.216583],[-56.890158,-26.21572],[-56.889726,-26.215417],[-56.889499,-26.216054],[-56.88863,-26.216049],[-56.888476,-26.215484],[-56.888739,-26.214771],[-56.889456,-26.214672],[-56.891652,-26.2155],[-56.891907,-26.214886],[-56.892396,-26.214765],[-56.89231,-26.214024],[-56.893497,-26.21328],[-56.894523,-26.21338],[-56.895494,-26.21293],[-56.895884,-26.212533],[-56.89571,-26.211828],[-56.8966,-26.211617],[-56.895937,-26.211454],[-56.895846,-26.211002],[-56.896759,-26.21093],[-56.896956,-26.210303],[-56.89822,-26.209509],[-56.897802,-26.208877],[-56.898668,-26.208047],[-56.89815,-26.207017],[-56.898651,-26.207225],[-56.899399,-26.206783],[-56.89951,-26.205966],[-56.899872,-26.206513],[-56.900123,-26.206513],[-56.900259,-26.206025],[-56.900765,-26.20659],[-56.901129,-26.20659],[-56.902175,-26.20525],[-56.902098,-26.204961],[-56.901266,-26.204798],[-56.901634,-26.20422],[-56.90251,-26.204018],[-56.903078,-26.203183],[-56.902044,-26.202586],[-56.902589,-26.201616],[-56.901134,-26.201493],[-56.90173,-26.200934],[-56.901277,-26.200532],[-56.900632,-26.200612],[-56.900357,-26.200246],[-56.899692,-26.200652],[-56.899489,-26.20011],[-56.899846,-26.199763],[-56.899474,-26.199411],[-56.900108,-26.199217],[-56.899723,-26.198625],[-56.901139,-26.197944],[-56.901148,-26.19915],[-56.901426,-26.199457],[-56.902664,-26.197964],[-56.902981,-26.197959],[-56.903298,-26.198479],[-56.904053,-26.197784],[-56.903437,-26.197061],[-56.903508,-26.196321],[-56.902788,-26.19637],[-56.902471,-26.195638],[-56.903827,-26.194985],[-56.903679,-26.194632],[-56.903134,-26.194794],[-56.902993,-26.194591],[-56.903694,-26.193382],[-56.903524,-26.192564],[-56.904369,-26.19256],[-56.904409,-26.19201],[-56.905132,-26.191658],[-56.904543,-26.191184],[-56.904852,-26.190719],[-56.904597,-26.190046],[-56.905207,-26.190105],[-56.906407,-26.191198],[-56.906711,-26.191153],[-56.906657,-26.190237],[-56.90613,-26.189848],[-56.906072,-26.188471],[-56.906242,-26.188232],[-56.907059,-26.188323],[-56.906918,-26.18691],[-56.908416,-26.186793],[-56.908664,-26.185981],[-56.911525,-26.185359],[-56.911206,-26.183856],[-56.911401,-26.183224],[-56.911872,-26.182867],[-56.912687,-26.183121],[-56.913918,-26.182124],[-56.912975,-26.181852],[-56.913719,-26.181058],[-56.91507,-26.180454],[-56.915254,-26.17993],[-56.914645,-26.179465],[-56.914628,-26.179063],[-56.916733,-26.178202],[-56.916607,-26.177069],[-56.91805,-26.176808],[-56.919266,-26.175765],[-56.919479,-26.172429],[-56.920496,-26.170804],[-56.920179,-26.170213],[-56.920306,-26.169468],[-56.921008,-26.168118],[-56.921845,-26.167306],[-56.921498,-26.166669],[-56.922858,-26.165343],[-56.922052,-26.164602],[-56.921045,-26.164412],[-56.920904,-26.163766],[-56.921864,-26.162349],[-56.922703,-26.162218],[-56.924123,-26.162635],[-56.92458,-26.161962],[-56.924499,-26.16119],[-56.922234,-26.159563],[-56.922085,-26.158728],[-56.922913,-26.158602],[-56.923714,-26.15653],[-56.925064,-26.155253],[-56.926699,-26.152947],[-56.927794,-26.152207],[-56.92971,-26.148366],[-56.92953,-26.146488],[-56.929015,-26.145661],[-56.92985,-26.14465],[-56.928736,-26.144203],[-56.928687,-26.143702],[-56.929614,-26.143354],[-56.930332,-26.144303],[-56.93226,-26.14383],[-56.932382,-26.14215],[-56.933847,-26.142639],[-56.934189,-26.14146],[-56.935107,-26.142431],[-56.936045,-26.142378],[-56.936452,-26.141931],[-56.936368,-26.141145],[-56.936866,-26.140789],[-56.937493,-26.140907],[-56.93772,-26.140415],[-56.936965,-26.139592],[-56.936327,-26.139836],[-56.935958,-26.139664],[-56.935905,-26.138811],[-56.93719,-26.138365],[-56.93822,-26.136731],[-56.938653,-26.137002],[-56.938321,-26.137674],[-56.938648,-26.137941],[-56.9392,-26.138013],[-56.939959,-26.137377],[-56.940851,-26.137883],[-56.940942,-26.136818],[-56.940451,-26.136158],[-56.939446,-26.135792],[-56.93946,-26.135295],[-56.940168,-26.134944],[-56.941412,-26.135021],[-56.940621,-26.134],[-56.940648,-26.133485],[-56.941984,-26.132579],[-56.941671,-26.132],[-56.942911,-26.131771],[-56.944139,-26.130742],[-56.944447,-26.129509],[-56.943727,-26.128863],[-56.944182,-26.127563],[-56.943607,-26.126954],[-56.944006,-26.125816],[-56.94567,-26.125085],[-56.945413,-26.12458],[-56.946937,-26.124314],[-56.946819,-26.12314],[-56.947986,-26.123059],[-56.948289,-26.122472],[-56.948777,-26.122341],[-56.949175,-26.120892],[-56.948732,-26.119601],[-56.949338,-26.119181],[-56.95007,-26.119312],[-56.949815,-26.118432],[-56.950116,-26.1178],[-56.951231,-26.117588],[-56.95142,-26.118356],[-56.95258,-26.118618],[-56.953324,-26.119639],[-56.954055,-26.119905],[-56.953837,-26.118803],[-56.954676,-26.119138],[-56.954854,-26.118339],[-56.955687,-26.118578],[-56.955671,-26.117888],[-56.95661,-26.117418],[-56.956537,-26.116827],[-56.956993,-26.11619],[-56.957686,-26.116556],[-56.958889,-26.115897],[-56.958865,-26.11508],[-56.959737,-26.114295],[-56.960429,-26.114891],[-56.96114,-26.114051],[-56.963175,-26.114458],[-56.964698,-26.112856],[-56.964977,-26.113705],[-56.966047,-26.114387],[-56.968112,-26.114812],[-56.970178,-26.114505],[-56.971408,-26.115426],[-56.971942,-26.115436],[-56.972101,-26.115147],[-56.972671,-26.115314],[-56.973032,-26.116298],[-56.975771,-26.117278],[-56.97689,-26.118105],[-56.97776,-26.119238],[-56.979006,-26.119776],[-56.980167,-26.119478],[-56.98101,-26.119618]]]}}]}
