{"type":"FeatureCollection","name":"distrito","features":[{"type":"Feature","properties":{"clave":"9-1","nombre":"Acahay"},"geometry":{"type":"Polygon","coordinates":[[[-57.100483,-25.965626],[-57.100848,-25.96675],[-57.102903,-25.968785],[-57.107706,-25.971713],[-57.107567,-25.971906],[-57.110796,-25.971477],[-57.112019,-25.971762],[-57.113165,-25.972673],[-57.124195,-25.977807],[-57.124491,-25.977301],[-57.124028,-25.97666],[-57.124648,-25.97615],[-57.125319,-25.973445],[-57.12666,-25.972689],[-57.126897,-25.972174],[-57.128261,-25.971776],[-57.129055,-25.970913],[-57.129835,-25.971499],[-57.130235,-25.972488],[-57.13259,-25.972988],[-57.133629,-25.971738],[-57.13661,-25.971299],[-57.138529,-25.971527],[-57.139025,-25.971242],[-57.140051,-25.967426],[-57.140549,-25.961908],[-57.140931,-25.96087],[-57.146857,-25.961428],[-57.151074,-25.960986],[-57.151266,-25.960706],[-57.150707,-25.95904],[-57.152539,-25.958411],[-57.158947,-25.960201],[-57.160864,-25.961892],[-57.163302,-25.960651],[-57.162745,-25.959031],[-57.163901,-25.958654],[-57.163851,-25.958035],[-57.165405,-25.958239],[-57.168079,-25.957924],[-57.174404,-25.956151],[-57.177742,-25.956526],[-57.179782,-25.956421],[-57.179927,-25.952262],[-57.179501,-25.948713],[-57.182752,-25.947862],[-57.183876,-25.948022],[-57.180096,-25.938211],[-57.17973,-25.935967],[-57.168797,-25.916553],[-57.163354,-25.903501],[-57.189861,-25.898598],[-57.197159,-25.895649],[-57.205784,-25.89551],[-57.206124,-25.89495],[-57.20575,-25.894111],[-57.206684,-25.893373],[-57.207308,-25.892235],[-57.205216,-25.8917],[-57.203464,-25.890696],[-57.202088,-25.889312],[-57.201729,-25.888111],[-57.202151,-25.887325],[-57.201809,-25.884937],[-57.202068,-25.883284],[-57.201749,-25.882779],[-57.202263,-25.882602],[-57.201339,-25.881073],[-57.200896,-25.876726],[-57.201381,-25.876585],[-57.201559,-25.876034],[-57.20292,-25.875346],[-57.202579,-25.874552],[-57.203329,-25.873169],[-57.203035,-25.872036],[-57.20411,-25.871032],[-57.204233,-25.870039],[-57.203112,-25.8686],[-57.202794,-25.865643],[-57.20159,-25.864462],[-57.201388,-25.862837],[-57.200759,-25.861777],[-57.19964,-25.86139],[-57.198929,-25.860601],[-57.198916,-25.8593],[-57.198445,-25.858877],[-57.196478,-25.858342],[-57.195955,-25.857936],[-57.195817,-25.856365],[-57.196473,-25.855285],[-57.196628,-25.853944],[-57.195885,-25.85353],[-57.194725,-25.853662],[-57.194295,-25.85253],[-57.193521,-25.852215],[-57.191849,-25.849878],[-57.190289,-25.849889],[-57.189892,-25.849339],[-57.189212,-25.84911],[-57.188725,-25.847309],[-57.188868,-25.846103],[-57.188338,-25.845043],[-57.187713,-25.844967],[-57.18656,-25.846688],[-57.186023,-25.846906],[-57.182975,-25.846043],[-57.180442,-25.845631],[-57.179505,-25.84579],[-57.178836,-25.845443],[-57.177777,-25.846334],[-57.177367,-25.847698],[-57.174306,-25.847995],[-57.171064,-25.846116],[-57.170873,-25.845692],[-57.171157,-25.845087],[-57.170575,-25.844496],[-57.17063,-25.843864],[-57.169567,-25.84298],[-57.168679,-25.842918],[-57.166916,-25.840789],[-57.16563,-25.840722],[-57.163445,-25.839912],[-57.160212,-25.83741],[-57.158351,-25.836843],[-57.156909,-25.837007],[-57.155307,-25.834729],[-57.153717,-25.833349],[-57.149504,-25.831606],[-57.149175,-25.83125],[-57.149648,-25.829913],[-57.148612,-25.828663],[-57.148704,-25.82702],[-57.147561,-25.823987],[-57.147536,-25.820636],[-57.146749,-25.818095],[-57.145891,-25.81657],[-57.145441,-25.8163],[-57.144522,-25.816355],[-57.144019,-25.815881],[-57.143778,-25.814956],[-57.1429,-25.814862],[-57.142523,-25.814411],[-57.142857,-25.813273],[-57.143629,-25.812491],[-57.144097,-25.810567],[-57.143616,-25.810418],[-57.143563,-25.809719],[-57.142288,-25.809417],[-57.141848,-25.808452],[-57.140917,-25.807622],[-57.140947,-25.806317],[-57.140372,-25.805947],[-57.139358,-25.80607],[-57.139005,-25.805659],[-57.13946,-25.803451],[-57.138978,-25.802743],[-57.138571,-25.802897],[-57.137608,-25.801525],[-57.138443,-25.80017],[-57.138222,-25.799226],[-57.137136,-25.799227],[-57.137104,-25.798667],[-57.138705,-25.79267],[-57.138691,-25.791172],[-57.137779,-25.791222],[-57.137101,-25.790911],[-57.136497,-25.791733],[-57.136541,-25.792329],[-57.134401,-25.792344],[-57.132553,-25.794053],[-57.13175,-25.793548],[-57.131878,-25.794731],[-57.131327,-25.794329],[-57.13032,-25.794402],[-57.130319,-25.794904],[-57.130965,-25.795242],[-57.130977,-25.795648],[-57.129471,-25.797013],[-57.128639,-25.797118],[-57.127981,-25.796549],[-57.126585,-25.796695],[-57.126464,-25.79702],[-57.126821,-25.79748],[-57.125947,-25.797996],[-57.12594,-25.798976],[-57.124052,-25.798747],[-57.123859,-25.799348],[-57.122982,-25.799434],[-57.122533,-25.798816],[-57.122491,-25.799349],[-57.121819,-25.799241],[-57.120667,-25.799707],[-57.120325,-25.799545],[-57.120538,-25.799328],[-57.119685,-25.799396],[-57.117112,-25.798373],[-57.116279,-25.798315],[-57.116066,-25.797783],[-57.115394,-25.798072],[-57.115084,-25.797418],[-57.114679,-25.797987],[-57.114326,-25.797229],[-57.1128,-25.7969],[-57.112428,-25.798409],[-57.112161,-25.798495],[-57.111808,-25.798111],[-57.109953,-25.799761],[-57.110082,-25.80028],[-57.111639,-25.800039],[-57.111651,-25.800387],[-57.109817,-25.802005],[-57.107992,-25.801708],[-57.107651,-25.802173],[-57.108089,-25.80313],[-57.106456,-25.802987],[-57.105326,-25.803633],[-57.104984,-25.803462],[-57.105005,-25.802794],[-57.103074,-25.803612],[-57.102295,-25.803283],[-57.100567,-25.804052],[-57.100589,-25.804829],[-57.099831,-25.8045],[-57.09997,-25.805186],[-57.09965,-25.805407],[-57.098956,-25.804789],[-57.097089,-25.805386],[-57.096598,-25.805008],[-57.095072,-25.804869],[-57.094826,-25.804282],[-57.093183,-25.804089],[-57.092874,-25.804455],[-57.093824,-25.805014],[-57.093376,-25.805574],[-57.092608,-25.805543],[-57.093057,-25.80641],[-57.092886,-25.806766],[-57.091189,-25.806618],[-57.090012,-25.807229],[-57.089946,-25.808254],[-57.089389,-25.808638],[-57.090154,-25.8087],[-57.090221,-25.80894],[-57.089772,-25.809233],[-57.089399,-25.810593],[-57.089008,-25.810128],[-57.088708,-25.810178],[-57.088975,-25.811153],[-57.088012,-25.812869],[-57.087662,-25.812928],[-57.087146,-25.812432],[-57.086356,-25.812717],[-57.085991,-25.813688],[-57.084835,-25.813612],[-57.083896,-25.815174],[-57.083156,-25.815324],[-57.083247,-25.81452],[-57.082964,-25.814466],[-57.081759,-25.815564],[-57.081594,-25.816801],[-57.079988,-25.816743],[-57.079523,-25.817055],[-57.078782,-25.8165],[-57.078276,-25.817178],[-57.077643,-25.816966],[-57.077553,-25.818745],[-57.07722,-25.818844],[-57.077261,-25.818253],[-57.077045,-25.818293],[-57.076718,-25.819942],[-57.076035,-25.819721],[-57.076057,-25.820511],[-57.075468,-25.820322],[-57.075006,-25.821121],[-57.074818,-25.822092],[-57.075239,-25.822967],[-57.075964,-25.823477],[-57.075933,-25.823802],[-57.074914,-25.824182],[-57.075408,-25.824507],[-57.075408,-25.824828],[-57.075135,-25.824972],[-57.074139,-25.828205],[-57.073855,-25.828576],[-57.072972,-25.828617],[-57.072111,-25.829119],[-57.07127,-25.828586],[-57.070861,-25.830243],[-57.071314,-25.83125],[-57.071073,-25.832677],[-57.070779,-25.832822],[-57.070474,-25.832343],[-57.070043,-25.832537],[-57.069204,-25.835066],[-57.06893,-25.835102],[-57.068783,-25.834457],[-57.06851,-25.83443],[-57.067901,-25.835284],[-57.066955,-25.835388],[-57.066188,-25.835068],[-57.065495,-25.835781],[-57.065431,-25.834707],[-57.064958,-25.834639],[-57.064622,-25.834856],[-57.064422,-25.835782],[-57.063687,-25.836437],[-57.063393,-25.835922],[-57.062489,-25.836324],[-57.062436,-25.835507],[-57.062037,-25.835431],[-57.061249,-25.836677],[-57.061018,-25.836781],[-57.060703,-25.836334],[-57.059652,-25.837427],[-57.058292,-25.837416],[-57.056647,-25.836801],[-57.055175,-25.836801],[-57.051392,-25.837033],[-57.049858,-25.837544],[-57.045172,-25.840421],[-57.041768,-25.841583],[-57.039772,-25.843958],[-57.039688,-25.845977],[-57.039394,-25.846487],[-57.03789,-25.847776],[-57.034709,-25.849697],[-57.032269,-25.849265],[-57.029671,-25.848354],[-57.029087,-25.847874],[-57.028813,-25.847121],[-57.027603,-25.850923],[-57.026888,-25.851398],[-57.024534,-25.851439],[-57.021423,-25.852351],[-57.016504,-25.85241],[-57.013099,-25.85163],[-57.011396,-25.850889],[-57.010387,-25.849955],[-57.008453,-25.848853],[-57.006477,-25.848113],[-57.003366,-25.848664],[-57.002568,-25.849102],[-57.00076,-25.848854],[-56.997716,-25.846587],[-56.987235,-25.851219],[-56.981811,-25.852239],[-56.979064,-25.851376],[-56.975085,-25.849271],[-56.973958,-25.84835],[-56.972198,-25.845894],[-56.969944,-25.84411],[-56.967444,-25.842994],[-56.96425,-25.842729],[-56.946842,-25.857346],[-56.946521,-25.858737],[-56.948435,-25.859242],[-56.948945,-25.861008],[-56.94999,-25.862921],[-56.952627,-25.8657],[-56.954027,-25.868762],[-56.926669,-25.876119],[-56.915865,-25.880949],[-56.915875,-25.881739],[-56.915168,-25.882809],[-56.917293,-25.889632],[-56.917032,-25.890725],[-56.917792,-25.894847],[-56.917286,-25.896215],[-56.915693,-25.898616],[-56.915664,-25.901036],[-56.916657,-25.906893],[-56.919409,-25.909386],[-56.922451,-25.914228],[-56.928457,-25.917207],[-56.941789,-25.919294],[-56.94467,-25.918478],[-56.946751,-25.917106],[-56.950664,-25.919081],[-56.955635,-25.920694],[-56.97408,-25.92096],[-56.986049,-25.921779],[-56.992924,-25.923057],[-56.994893,-25.922954],[-57.000106,-25.927035],[-57.001373,-25.932097],[-57.016665,-25.932999],[-57.020211,-25.939658],[-57.022389,-25.945202],[-57.025321,-25.946578],[-57.040226,-25.947148],[-57.047824,-25.948031],[-57.054585,-25.950553],[-57.060978,-25.954392],[-57.062807,-25.953407],[-57.065192,-25.954047],[-57.0682,-25.95377],[-57.075365,-25.954223],[-57.078383,-25.956939],[-57.086228,-25.957603],[-57.091207,-25.956106],[-57.093579,-25.957942],[-57.094192,-25.961176],[-57.095247,-25.961534],[-57.097194,-25.961488],[-57.097683,-25.961975],[-57.102165,-25.963837],[-57.100483,-25.965626]]]}}]}
