{"type":"FeatureCollection","name":"distrito","features":[{"type":"Feature","properties":{"clave":"16-0","nombre":"Fuerte Olimpo"},"geometry":{"type":"Polygon","coordinates":[[[-58.459181,-21.352568],[-58.459393,-21.352052],[-58.46076,-21.350879],[-58.461415,-21.350903],[-58.461765,-21.351441],[-58.462175,-21.354687],[-58.463231,-21.356122],[-58.463767,-21.356664],[-58.465615,-21.357169],[-58.467109,-21.357224],[-58.467768,-21.355156],[-58.466351,-21.353446],[-58.465587,-21.351758],[-58.465411,-21.349653],[-58.467572,-21.347633],[-58.468628,-21.347147],[-58.469822,-21.351478],[-58.470224,-21.354636],[-58.47109,-21.356064],[-58.470996,-21.358064],[-58.472025,-21.360018],[-58.472976,-21.359705],[-58.473004,-21.359096],[-58.474409,-21.357233],[-58.475553,-21.356927],[-58.476963,-21.356979],[-58.479991,-21.358137],[-58.482612,-21.359888],[-58.48372,-21.36019],[-58.48525,-21.361378],[-58.485745,-21.361397],[-58.526379,-21.3269],[-58.655027,-21.327828],[-58.728726,-21.383168],[-59.015269,-21.381404],[-59.307563,-21.366618],[-59.715144,-21.345951],[-59.766985,-21.201298],[-59.75087,-21.182933],[-59.751441,-21.15854],[-59.755849,-21.096831],[-59.759982,-21.07567],[-59.762325,-21.06029],[-59.768323,-21.037456],[-59.776379,-21.031294],[-59.785691,-21.022105],[-59.789366,-21.015743],[-59.803268,-20.994692],[-59.809842,-20.987461],[-59.814891,-20.976694],[-59.816309,-20.951195],[-59.817786,-20.936654],[-59.823769,-20.929157],[-59.839607,-20.903143],[-59.838542,-20.893023],[-59.83831,-20.8807],[-59.841408,-20.874898],[-59.8541,-20.843032],[-59.858639,-20.830508],[-59.863118,-20.820841],[-59.871264,-20.81249],[-59.880375,-20.801378],[-59.886896,-20.791957],[-59.887103,-20.756887],[-59.886141,-20.729235],[-59.886381,-20.711153],[-59.885348,-20.687339],[-59.883453,-20.664084],[-59.881153,-20.650153],[-59.879076,-20.640325],[-59.879513,-20.630417],[-59.877613,-20.624461],[-59.84279,-20.559015],[-59.83768,-20.550062],[-59.83234,-20.544394],[-59.832821,-20.538906],[-59.824709,-20.524793],[-59.790492,-20.457957],[-59.767191,-20.414769],[-59.759325,-20.397361],[-59.75859,-20.315178],[-59.759282,-20.281663],[-59.578477,-20.281219],[-59.579959,-20.177611],[-59.579345,-20.155638],[-59.580264,-20.138252],[-59.566722,-20.137732],[-59.481096,-20.138002],[-59.439085,-20.136918],[-59.379762,-20.137012],[-59.334721,-20.136423],[-59.28514,-20.136834],[-59.278849,-20.130463],[-59.271257,-20.130321],[-59.145155,-20.131663],[-59.032319,-20.13244],[-58.976144,-20.132208],[-58.934528,-20.132905],[-58.89834,-20.132585],[-58.861661,-20.13369],[-58.803087,-20.134299],[-58.468038,-20.285636],[-58.46407,-20.41442],[-58.464676,-20.467303],[-58.466901,-20.469424],[-58.469351,-20.473816],[-58.472344,-20.47737],[-58.473178,-20.477328],[-58.474059,-20.476275],[-58.474043,-20.473235],[-58.47364,-20.47127],[-58.474017,-20.470352],[-58.476507,-20.470458],[-58.47857,-20.472493],[-58.480294,-20.472956],[-58.485589,-20.471779],[-58.488299,-20.475947],[-58.489929,-20.47664],[-58.493534,-20.476013],[-58.503794,-20.480499],[-58.504704,-20.480616],[-58.506389,-20.48038],[-58.507781,-20.479193],[-58.509208,-20.478863],[-58.511416,-20.481214],[-58.48526,-20.522925],[-58.481846,-20.518325],[-58.478731,-20.513346],[-58.473243,-20.511147],[-58.471308,-20.510672],[-58.472298,-20.507571],[-58.471887,-20.504542],[-58.469863,-20.503014],[-58.464559,-20.502786],[-58.463862,-20.501535],[-58.462097,-20.500411],[-58.456596,-20.49493],[-58.451661,-20.49328],[-58.448071,-20.495356],[-58.443752,-20.494908],[-58.440026,-20.493831],[-58.432213,-20.490482],[-58.42738,-20.489227],[-58.421958,-20.48847],[-58.413533,-20.486274],[-58.410604,-20.486148],[-58.408251,-20.485654],[-58.398465,-20.482743],[-58.39544,-20.481696],[-58.39329,-20.479901],[-58.387923,-20.478096],[-58.385209,-20.476407],[-58.3823,-20.473006],[-58.379994,-20.468714],[-58.378992,-20.460681],[-58.377995,-20.458144],[-58.376258,-20.456496],[-58.372956,-20.452554],[-58.37087,-20.450773],[-58.364667,-20.448933],[-58.357298,-20.450842],[-58.350833,-20.454229],[-58.338138,-20.453547],[-58.332627,-20.451867],[-58.327136,-20.446909],[-58.319745,-20.435186],[-58.298462,-20.430065],[-58.286634,-20.42614],[-58.28015,-20.421533],[-58.277341,-20.416168],[-58.271537,-20.403461],[-58.2701,-20.398546],[-58.2695,-20.393803],[-58.267982,-20.390591],[-58.26561,-20.387737],[-58.263462,-20.386075],[-58.259418,-20.385898],[-58.257256,-20.38711],[-58.253969,-20.391019],[-58.253609,-20.397518],[-58.255094,-20.404137],[-58.255265,-20.409124],[-58.258262,-20.410825],[-58.259613,-20.414555],[-58.257806,-20.416968],[-58.254028,-20.419687],[-58.246992,-20.423569],[-58.241838,-20.425704],[-58.237646,-20.425651],[-58.232955,-20.424526],[-58.229828,-20.422814],[-58.22555,-20.424461],[-58.22137,-20.426898],[-58.214052,-20.427885],[-58.207198,-20.430726],[-58.202436,-20.433661],[-58.198171,-20.435045],[-58.19214,-20.438185],[-58.184127,-20.444515],[-58.178805,-20.447424],[-58.174624,-20.447236],[-58.172495,-20.445046],[-58.171552,-20.441597],[-58.170308,-20.438528],[-58.169877,-20.436019],[-58.168834,-20.434401],[-58.167581,-20.434214],[-58.162223,-20.437778],[-58.160234,-20.438735],[-58.155325,-20.43904],[-58.149187,-20.440231],[-58.145762,-20.44165],[-58.144017,-20.442885],[-58.142766,-20.442699],[-58.141884,-20.438198],[-58.140507,-20.437744],[-58.13794,-20.438679],[-58.136324,-20.440054],[-58.135079,-20.439738],[-58.133284,-20.436639],[-58.131104,-20.435494],[-58.129147,-20.435409],[-58.127445,-20.435858],[-58.125104,-20.437853],[-58.122143,-20.441],[-58.121198,-20.443055],[-58.116479,-20.445199],[-58.114152,-20.446931],[-58.113458,-20.449522],[-58.108243,-20.453088],[-58.107522,-20.456329],[-58.103395,-20.454965],[-58.101879,-20.457257],[-58.101678,-20.458428],[-58.098933,-20.460141],[-58.09615,-20.462635],[-58.09434,-20.465177],[-58.094119,-20.469492],[-58.093739,-20.47144],[-58.088775,-20.47279],[-58.08726,-20.472329],[-58.085998,-20.469652],[-58.080461,-20.471238],[-58.080161,-20.47437],[-58.085006,-20.478126],[-58.083789,-20.480038],[-58.083078,-20.480268],[-58.082711,-20.481956],[-58.084699,-20.484142],[-58.083821,-20.484889],[-58.083307,-20.485958],[-58.084264,-20.487988],[-58.08605,-20.48827],[-58.086091,-20.489561],[-58.085385,-20.490921],[-58.082809,-20.493587],[-58.079348,-20.494923],[-58.079479,-20.496517],[-58.080707,-20.497367],[-58.081794,-20.498906],[-58.081452,-20.501471],[-58.079872,-20.503291],[-58.081006,-20.503936],[-58.081907,-20.504969],[-58.081305,-20.508419],[-58.080121,-20.508763],[-58.079224,-20.509716],[-58.077759,-20.509353],[-58.076107,-20.510568],[-58.076707,-20.51129],[-58.077146,-20.513096],[-58.076581,-20.513765],[-58.078425,-20.512955],[-58.078011,-20.514823],[-58.076913,-20.515568],[-58.076857,-20.516657],[-58.075683,-20.516803],[-58.072606,-20.518949],[-58.072066,-20.519123],[-58.070812,-20.518769],[-58.068329,-20.51965],[-58.066797,-20.520574],[-58.0659,-20.521526],[-58.063394,-20.522806],[-58.060644,-20.522681],[-58.055851,-20.523063],[-58.054203,-20.526265],[-58.053602,-20.529714],[-58.052755,-20.529676],[-58.051521,-20.528925],[-58.050332,-20.527283],[-58.047682,-20.525178],[-58.047608,-20.522493],[-58.048412,-20.519251],[-58.050261,-20.516355],[-58.052811,-20.515898],[-58.055677,-20.515829],[-58.057612,-20.51532],[-58.05968,-20.510152],[-58.060723,-20.50841],[-58.063,-20.507421],[-58.068629,-20.507174],[-58.071528,-20.506409],[-58.071834,-20.504638],[-58.071109,-20.502324],[-58.070511,-20.501603],[-58.065717,-20.499895],[-58.066236,-20.498032],[-58.066986,-20.497867],[-58.068648,-20.496452],[-58.070842,-20.493076],[-58.071617,-20.492416],[-58.071663,-20.491524],[-58.070509,-20.491273],[-58.066712,-20.488818],[-58.062269,-20.488618],[-58.060702,-20.490236],[-58.057792,-20.497355],[-58.057751,-20.498148],[-58.057065,-20.49911],[-58.053418,-20.499939],[-58.051106,-20.499537],[-58.050346,-20.497815],[-58.050196,-20.496616],[-58.050788,-20.49128],[-58.052507,-20.488775],[-58.054683,-20.487681],[-58.056135,-20.486257],[-58.056604,-20.485384],[-58.056241,-20.484176],[-58.053669,-20.480585],[-58.051375,-20.47571],[-58.050574,-20.47478],[-58.045061,-20.47066],[-58.042277,-20.469145],[-58.042157,-20.467352],[-58.041341,-20.466719],[-58.041608,-20.465637],[-58.042112,-20.464069],[-58.043367,-20.462336],[-58.043906,-20.462161],[-58.04439,-20.460989],[-58.043775,-20.460564],[-58.039861,-20.460388],[-58.03836,-20.460717],[-58.035608,-20.460591],[-58.034076,-20.461515],[-58.033834,-20.464189],[-58.036347,-20.475191],[-58.036241,-20.477273],[-58.034126,-20.481143],[-58.029983,-20.483341],[-58.027752,-20.485424],[-58.02704,-20.486781],[-58.026984,-20.487871],[-58.028164,-20.489714],[-58.029728,-20.494456],[-58.030902,-20.500513],[-58.017797,-20.501686],[-58.017943,-20.503056],[-58.018963,-20.506126],[-58.019581,-20.510047],[-58.019393,-20.515438],[-58.01887,-20.520219],[-58.01648,-20.52725],[-58.007974,-20.545003],[-58.007024,-20.548401],[-58.005167,-20.55158],[-58.001392,-20.554117],[-57.999114,-20.55637],[-57.996283,-20.560631],[-57.995245,-20.56349],[-57.995291,-20.567798],[-57.997103,-20.575556],[-57.999789,-20.580689],[-58.006121,-20.588099],[-58.007966,-20.591163],[-58.010922,-20.598751],[-58.011531,-20.602052],[-58.013056,-20.60577],[-58.012876,-20.611855],[-58.012243,-20.614403],[-58.011025,-20.61611],[-58.002974,-20.624499],[-57.999489,-20.629304],[-57.995739,-20.632268],[-57.991402,-20.634464],[-57.985986,-20.635824],[-57.980995,-20.637945],[-57.976814,-20.63906],[-57.973458,-20.640863],[-57.970133,-20.644661],[-57.970396,-20.646197],[-57.972922,-20.652728],[-57.974871,-20.659068],[-57.977916,-20.666744],[-57.982373,-20.675634],[-57.984381,-20.678619],[-57.986062,-20.681838],[-57.988757,-20.688125],[-57.989292,-20.692045],[-57.989338,-20.69605],[-57.98847,-20.699143],[-57.986691,-20.702087],[-57.98359,-20.704658],[-57.979325,-20.706239],[-57.975539,-20.706349],[-57.971412,-20.705387],[-57.967867,-20.704958],[-57.963997,-20.70476],[-57.96022,-20.705095],[-57.955604,-20.704056],[-57.951782,-20.701327],[-57.949258,-20.696501],[-57.947165,-20.691125],[-57.941082,-20.679249],[-57.939567,-20.675643],[-57.934728,-20.667677],[-57.93182,-20.665085],[-57.931325,-20.664935],[-57.924977,-20.66415],[-57.92169,-20.664644],[-57.916783,-20.667465],[-57.914102,-20.670873],[-57.912246,-20.674736],[-57.909334,-20.679461],[-57.904663,-20.689125],[-57.898368,-20.694266],[-57.893426,-20.697878],[-57.890336,-20.701837],[-57.882591,-20.709379],[-57.873242,-20.721239],[-57.870004,-20.725962],[-57.868701,-20.735438],[-57.86659,-20.739236],[-57.864961,-20.741404],[-57.864402,-20.74295],[-57.86443,-20.745569],[-57.865275,-20.747563],[-57.867106,-20.749241],[-57.870406,-20.750213],[-57.873781,-20.750415],[-57.878144,-20.750376],[-57.886686,-20.748839],[-57.899205,-20.747727],[-57.907531,-20.745965],[-57.910813,-20.744936],[-57.918048,-20.743946],[-57.926775,-20.744022],[-57.932968,-20.745736],[-57.935788,-20.747171],[-57.941283,-20.752126],[-57.947466,-20.760235],[-57.950261,-20.767097],[-57.951383,-20.771322],[-57.951673,-20.774863],[-57.952441,-20.777705],[-57.953618,-20.780082],[-57.955457,-20.7823],[-57.958456,-20.7852],[-57.959304,-20.788039],[-57.961729,-20.792857],[-57.961751,-20.795012],[-57.96021,-20.797258],[-57.95776,-20.799053],[-57.948271,-20.800993],[-57.943842,-20.800958],[-57.939227,-20.800307],[-57.928406,-20.798018],[-57.924192,-20.796593],[-57.915902,-20.791583],[-57.909283,-20.788793],[-57.901209,-20.788788],[-57.897425,-20.789207],[-57.89309,-20.791098],[-57.885479,-20.798169],[-57.882379,-20.801432],[-57.879517,-20.803768],[-57.876778,-20.805014],[-57.871876,-20.809604],[-57.870333,-20.812006],[-57.867556,-20.814495],[-57.860549,-20.822408],[-57.859426,-20.825419],[-57.854663,-20.835083],[-57.85403,-20.83805],[-57.85492,-20.84459],[-57.856863,-20.849424],[-57.85795,-20.851109],[-57.860027,-20.852785],[-57.862426,-20.853765],[-57.865064,-20.854049],[-57.869424,-20.853548],[-57.871323,-20.853687],[-57.87389,-20.854897],[-57.880117,-20.858851],[-57.888176,-20.865097],[-57.894226,-20.867608],[-57.896218,-20.868977],[-57.897467,-20.870275],[-57.898148,-20.872348],[-57.899739,-20.874799],[-57.902238,-20.877471],[-57.907377,-20.88081],[-57.914825,-20.883442],[-57.917813,-20.884958],[-57.92188,-20.888154],[-57.927032,-20.89303],[-57.928564,-20.895802],[-57.928864,-20.897478],[-57.928382,-20.899566],[-57.927396,-20.901584],[-57.926262,-20.903055],[-57.922905,-20.904391],[-57.918709,-20.90458],[-57.913263,-20.904168],[-57.90575,-20.90285],[-57.902533,-20.902493],[-57.898742,-20.902524],[-57.891597,-20.905357],[-57.888237,-20.907312],[-57.885137,-20.910728],[-57.882196,-20.913296],[-57.880341,-20.917394],[-57.878759,-20.923258],[-57.878462,-20.926571],[-57.877582,-20.929351],[-57.875921,-20.936932],[-57.874631,-20.939792],[-57.872598,-20.942581],[-57.870146,-20.944681],[-57.867855,-20.946394],[-57.864821,-20.94796],[-57.858079,-20.949866],[-57.851805,-20.949074],[-57.846929,-20.947961],[-57.844276,-20.94652],[-57.842379,-20.94646],[-57.840973,-20.94247],[-57.83964,-20.941016],[-57.829594,-20.934016],[-57.824727,-20.933751],[-57.822755,-20.93446],[-57.821279,-20.935547],[-57.819496,-20.938798],[-57.818865,-20.941807],[-57.819051,-20.943886],[-57.81858,-20.946278],[-57.818771,-20.948818],[-57.820538,-20.952577],[-57.824636,-20.958472],[-57.825074,-20.96132],[-57.824884,-20.967252],[-57.821884,-20.972828],[-57.818543,-20.976935],[-57.817327,-20.9791],[-57.817506,-20.980876],[-57.818579,-20.982073],[-57.821151,-20.983744],[-57.825395,-20.987407],[-57.827319,-20.990164],[-57.839583,-21.004155],[-57.844858,-21.015998],[-57.853711,-21.027009],[-57.857299,-21.030984],[-57.867549,-21.040833],[-57.868599,-21.04668],[-57.868095,-21.058658],[-57.867589,-21.062963],[-57.863449,-21.069542],[-57.858148,-21.076057],[-57.856777,-21.07938],[-57.854665,-21.082713],[-57.853219,-21.086809],[-57.846275,-21.09632],[-57.846296,-21.098401],[-57.847153,-21.101401],[-57.848415,-21.10393],[-57.852764,-21.109743],[-57.855324,-21.118041],[-57.859047,-21.124134],[-57.861217,-21.126658],[-57.862312,-21.128881],[-57.863945,-21.135028],[-57.864222,-21.137799],[-57.862982,-21.1459],[-57.861787,-21.150302],[-57.860252,-21.153782],[-57.856957,-21.165911],[-57.855093,-21.169626],[-57.852849,-21.176655],[-57.850099,-21.183149],[-57.848347,-21.18955],[-57.84826,-21.197477],[-57.848986,-21.204165],[-57.851488,-21.219022],[-57.853551,-21.22717],[-57.854823,-21.230394],[-57.856582,-21.232997],[-57.862727,-21.236025],[-57.86864,-21.239983],[-57.878723,-21.249271],[-57.887873,-21.255201],[-57.894515,-21.258297],[-57.900171,-21.26179],[-57.911053,-21.269631],[-57.91715,-21.275507],[-57.919397,-21.276874],[-57.92087,-21.278237],[-57.923542,-21.278146],[-57.938128,-21.285957],[-57.943896,-21.289344],[-57.948143,-21.291067],[-57.965965,-21.296205],[-57.977002,-21.299952],[-57.988867,-21.300835],[-58.010914,-21.304038],[-58.038128,-21.306664],[-58.046281,-21.320147],[-58.055907,-21.334377],[-58.080803,-21.374623],[-58.086423,-21.382876],[-58.08723,-21.381939],[-58.087447,-21.380443],[-58.086701,-21.379114],[-58.086279,-21.377113],[-58.087547,-21.376684],[-58.089429,-21.377238],[-58.090245,-21.377065],[-58.090156,-21.375829],[-58.089082,-21.375238],[-58.089038,-21.37462],[-58.090099,-21.367719],[-58.095662,-21.365322],[-58.094239,-21.364235],[-58.093946,-21.362703],[-58.097789,-21.362571],[-58.098115,-21.36196],[-58.096839,-21.361456],[-58.096137,-21.360748],[-58.095646,-21.358549],[-58.097247,-21.358749],[-58.097951,-21.35939],[-58.099472,-21.359791],[-58.100063,-21.359678],[-58.101191,-21.359039],[-58.102947,-21.355833],[-58.103969,-21.355941],[-58.105604,-21.35703],[-58.106691,-21.357277],[-58.107581,-21.357039],[-58.107855,-21.355889],[-58.106723,-21.355025],[-58.106111,-21.353976],[-58.108251,-21.353717],[-58.113124,-21.351581],[-58.114662,-21.351641],[-58.117433,-21.350517],[-58.118752,-21.350569],[-58.118858,-21.351395],[-58.118161,-21.353626],[-58.118865,-21.354269],[-58.119457,-21.354155],[-58.120403,-21.351319],[-58.120915,-21.351339],[-58.12161,-21.352119],[-58.122828,-21.352715],[-58.123556,-21.351374],[-58.128792,-21.352467],[-58.129212,-21.352758],[-58.129438,-21.354203],[-58.129407,-21.354749],[-58.128822,-21.355225],[-58.128754,-21.356936],[-58.129449,-21.358062],[-58.130589,-21.358997],[-58.131551,-21.358761],[-58.131489,-21.356495],[-58.132366,-21.356598],[-58.133499,-21.357671],[-58.134669,-21.357715],[-58.139638,-21.354894],[-58.140992,-21.357552],[-58.144051,-21.358152],[-58.14589,-21.35973],[-58.145621,-21.360814],[-58.144445,-21.362545],[-58.143983,-21.364712],[-58.144495,-21.364732],[-58.148355,-21.362015],[-58.149443,-21.362262],[-58.149805,-21.363984],[-58.14868,-21.364554],[-58.147677,-21.365675],[-58.15156,-21.367257],[-58.151507,-21.368413],[-58.150438,-21.369393],[-58.149254,-21.372882],[-58.149757,-21.374666],[-58.151318,-21.375675],[-58.152861,-21.375463],[-58.151716,-21.373384],[-58.151869,-21.371694],[-58.152334,-21.371099],[-58.153651,-21.371082],[-58.154475,-21.375323],[-58.155423,-21.37536],[-58.156319,-21.37499],[-58.157129,-21.373324],[-58.157259,-21.370611],[-58.157795,-21.36859],[-58.158619,-21.368214],[-58.15993,-21.368263],[-58.160536,-21.367879],[-58.160433,-21.367057],[-58.155101,-21.363575],[-58.154742,-21.361853],[-58.158179,-21.360483],[-58.160821,-21.358944],[-58.162225,-21.358859],[-58.163665,-21.359462],[-58.164871,-21.358824],[-58.166296,-21.356755],[-58.167599,-21.357148],[-58.16787,-21.357638],[-58.168691,-21.357328],[-58.169475,-21.356397],[-58.170623,-21.353973],[-58.172039,-21.352306],[-58.173662,-21.352298],[-58.174232,-21.352664],[-58.17531,-21.351676],[-58.175899,-21.351698],[-58.176264,-21.35178],[-58.176345,-21.357008],[-58.179004,-21.358346],[-58.181845,-21.358865],[-58.182523,-21.358481],[-58.18444,-21.358284],[-58.186174,-21.358899],[-58.186661,-21.359466],[-58.185951,-21.360533],[-58.18568,-21.363191],[-58.186552,-21.363361],[-58.18758,-21.36176],[-58.190595,-21.360031],[-58.191548,-21.360067],[-58.192184,-21.360571],[-58.192264,-21.36201],[-58.190451,-21.367675],[-58.190214,-21.369574],[-58.193317,-21.370442],[-58.197474,-21.37067],[-58.197199,-21.373312],[-58.198709,-21.373846],[-58.200396,-21.375133],[-58.203006,-21.375505],[-58.203929,-21.37459],[-58.204095,-21.374188],[-58.203675,-21.373833],[-58.201304,-21.373062],[-58.201255,-21.372585],[-58.20194,-21.37057],[-58.202708,-21.369851],[-58.203895,-21.369625],[-58.208072,-21.370745],[-58.209622,-21.372789],[-58.212451,-21.375492],[-58.215357,-21.376367],[-58.21861,-21.376797],[-58.223234,-21.372093],[-58.226338,-21.372213],[-58.227917,-21.373494],[-58.229156,-21.375068],[-58.230341,-21.377858],[-58.232232,-21.379457],[-58.235122,-21.380636],[-58.23997,-21.381889],[-58.24454,-21.382064],[-58.249007,-21.381015],[-58.252248,-21.378091],[-58.252638,-21.376733],[-58.253698,-21.375095],[-58.258436,-21.371914],[-58.259899,-21.368759],[-58.260938,-21.367575],[-58.271076,-21.364597],[-58.271201,-21.362001],[-58.267644,-21.357577],[-58.265741,-21.355983],[-58.26514,-21.354886],[-58.264384,-21.350249],[-58.265797,-21.351533],[-58.267574,-21.352063],[-58.270189,-21.352313],[-58.272266,-21.350091],[-58.272982,-21.34889],[-58.273695,-21.344604],[-58.276171,-21.344389],[-58.275182,-21.343142],[-58.273599,-21.341862],[-58.275709,-21.338131],[-58.277323,-21.33865],[-58.278793,-21.341493],[-58.280737,-21.342091],[-58.281878,-21.341786],[-58.283312,-21.338864],[-58.284644,-21.338387],[-58.285382,-21.338677],[-58.285576,-21.340787],[-58.284168,-21.343097],[-58.284045,-21.343793],[-58.284381,-21.344767],[-58.285231,-21.344625],[-58.287444,-21.341035],[-58.289904,-21.340604],[-58.290826,-21.34099],[-58.29116,-21.341966],[-58.290921,-21.343182],[-58.289779,-21.343576],[-58.28918,-21.344427],[-58.290269,-21.345255],[-58.292025,-21.345846],[-58.295106,-21.346138],[-58.298027,-21.347908],[-58.300584,-21.347307],[-58.301594,-21.347782],[-58.302673,-21.348783],[-58.306643,-21.350068],[-58.308136,-21.350212],[-58.309119,-21.349203],[-58.31351,-21.349457],[-58.314906,-21.347677],[-58.316714,-21.347134],[-58.318586,-21.347205],[-58.325534,-21.348953],[-58.329768,-21.348589],[-58.331384,-21.34996],[-58.334551,-21.350342],[-58.335169,-21.351063],[-58.33511,-21.352194],[-58.335928,-21.352661],[-58.338262,-21.352836],[-58.339815,-21.351849],[-58.341051,-21.351547],[-58.342854,-21.352662],[-58.345273,-21.352928],[-58.345972,-21.35182],[-58.346034,-21.350252],[-58.34665,-21.348878],[-58.347693,-21.348568],[-58.348242,-21.348939],[-58.348917,-21.350885],[-58.350814,-21.352701],[-58.35185,-21.352565],[-58.353762,-21.351591],[-58.35371,-21.350542],[-58.352361,-21.349094],[-58.347768,-21.346649],[-58.347821,-21.345252],[-58.34989,-21.345156],[-58.35286,-21.345968],[-58.356714,-21.345764],[-58.357921,-21.346072],[-58.359015,-21.346812],[-58.361729,-21.346914],[-58.363163,-21.346269],[-58.364001,-21.346388],[-58.365052,-21.348175],[-58.366502,-21.349365],[-58.367052,-21.349648],[-58.369856,-21.349841],[-58.372001,-21.347912],[-58.376,-21.348675],[-58.377341,-21.348026],[-58.380344,-21.343766],[-58.382406,-21.341742],[-58.383621,-21.339774],[-58.3848,-21.338592],[-58.387433,-21.338516],[-58.391444,-21.33919],[-58.393197,-21.339869],[-58.394635,-21.341238],[-58.401492,-21.343072],[-58.401986,-21.344492],[-58.403693,-21.344118],[-58.404793,-21.340831],[-58.40697,-21.338804],[-58.408302,-21.338502],[-58.409861,-21.339262],[-58.411285,-21.340808],[-58.411309,-21.342124],[-58.410437,-21.342618],[-58.409701,-21.34408],[-58.409814,-21.345572],[-58.410358,-21.345943],[-58.413109,-21.347183],[-58.41564,-21.347277],[-58.418854,-21.345121],[-58.419618,-21.345677],[-58.425869,-21.346522],[-58.430103,-21.348516],[-58.432188,-21.350254],[-58.434702,-21.350697],[-58.438475,-21.350139],[-58.438903,-21.351116],[-58.438796,-21.353731],[-58.440919,-21.356687],[-58.443424,-21.357217],[-58.444,-21.356889],[-58.44621,-21.353396],[-58.446778,-21.353243],[-58.448336,-21.351904],[-58.448029,-21.35032],[-58.447015,-21.349934],[-58.446315,-21.348771],[-58.446979,-21.346432],[-58.449726,-21.345833],[-58.450711,-21.346921],[-58.449865,-21.349078],[-58.449793,-21.350735],[-58.451247,-21.35175],[-58.453828,-21.352719],[-58.455505,-21.352956],[-58.457284,-21.353022],[-58.459181,-21.352568]]]}}]}
