{"type":"FeatureCollection","name":"distrito","features":[{"type":"Feature","properties":{"clave":"6-15","nombre":"Tavaí"},"geometry":{"type":"Polygon","coordinates":[[[-55.649982,-26.374072],[-55.650118,-26.373649],[-55.651159,-26.373605],[-55.65171,-26.372757],[-55.652385,-26.372741],[-55.653696,-26.371972],[-55.654413,-26.372205],[-55.655108,-26.372026],[-55.655994,-26.373253],[-55.656662,-26.373638],[-55.658645,-26.373314],[-55.659032,-26.373634],[-55.659353,-26.374901],[-55.660182,-26.375956],[-55.661237,-26.378507],[-55.662256,-26.379193],[-55.663149,-26.379017],[-55.663449,-26.377927],[-55.666354,-26.375038],[-55.666157,-26.37379],[-55.666891,-26.37215],[-55.668193,-26.370478],[-55.66826,-26.370082],[-55.667601,-26.36999],[-55.667274,-26.369436],[-55.667927,-26.367961],[-55.667365,-26.366263],[-55.667652,-26.36553],[-55.671193,-26.363848],[-55.674722,-26.36296],[-55.674964,-26.361612],[-55.675618,-26.361551],[-55.676247,-26.362446],[-55.67714,-26.362359],[-55.678574,-26.361226],[-55.678599,-26.36068],[-55.679559,-26.360544],[-55.679932,-26.35951],[-55.680915,-26.358652],[-55.682667,-26.358271],[-55.683712,-26.358181],[-55.683749,-26.359066],[-55.684603,-26.360821],[-55.686613,-26.362117],[-55.688323,-26.361636],[-55.68809,-26.360871],[-55.688665,-26.360091],[-55.690425,-26.360915],[-55.690753,-26.35969],[-55.69194,-26.358356],[-55.692176,-26.359762],[-55.693756,-26.36118],[-55.694409,-26.361376],[-55.695967,-26.361191],[-55.697534,-26.361702],[-55.700204,-26.36443],[-55.701159,-26.363793],[-55.70234,-26.362066],[-55.702607,-26.361148],[-55.703507,-26.360709],[-55.704032,-26.360696],[-55.704589,-26.36131],[-55.705469,-26.361025],[-55.707198,-26.361144],[-55.710663,-26.362403],[-55.711141,-26.362331],[-55.711078,-26.361766],[-55.712167,-26.361595],[-55.714525,-26.362993],[-55.715596,-26.362813],[-55.716718,-26.361902],[-55.717767,-26.362133],[-55.719392,-26.364486],[-55.72108,-26.366045],[-55.720481,-26.367736],[-55.720046,-26.372432],[-55.720988,-26.372047],[-55.722869,-26.373057],[-55.725919,-26.373387],[-55.726398,-26.373102],[-55.726758,-26.37199],[-55.727537,-26.371099],[-55.72886,-26.370366],[-55.729457,-26.36955],[-55.730818,-26.369174],[-55.732368,-26.369995],[-55.732097,-26.370715],[-55.732522,-26.371658],[-55.734285,-26.373759],[-55.734172,-26.374877],[-55.734961,-26.377485],[-55.736625,-26.379657],[-55.737332,-26.379717],[-55.739634,-26.378903],[-55.742755,-26.379643],[-55.743624,-26.380229],[-55.745681,-26.38291],[-55.750667,-26.383572],[-55.753598,-26.386315],[-55.754332,-26.386294],[-55.755953,-26.384706],[-55.756175,-26.383313],[-55.758118,-26.38073],[-55.758475,-26.380742],[-55.758865,-26.381463],[-55.760668,-26.379984],[-55.761772,-26.379795],[-55.762617,-26.380471],[-55.763316,-26.382048],[-55.762979,-26.383525],[-55.763194,-26.384367],[-55.76301,-26.386193],[-55.763844,-26.387067],[-55.765242,-26.390325],[-55.766044,-26.39383],[-55.769721,-26.393614],[-55.774079,-26.392468],[-55.774974,-26.392607],[-55.776344,-26.393878],[-55.776952,-26.394041],[-55.778554,-26.39387],[-55.779726,-26.392368],[-55.779771,-26.3917],[-55.781379,-26.390937],[-55.782002,-26.390916],[-55.783655,-26.389968],[-55.78657,-26.391063],[-55.78762,-26.39104],[-55.788687,-26.392119],[-55.790634,-26.39195],[-55.791373,-26.390724],[-55.793278,-26.390623],[-55.794125,-26.391438],[-55.795285,-26.3912],[-55.795538,-26.390854],[-55.795345,-26.388988],[-55.798065,-26.390094],[-55.798684,-26.390691],[-55.799855,-26.39001],[-55.799195,-26.388646],[-55.801287,-26.388758],[-55.801769,-26.389566],[-55.802343,-26.389462],[-55.803047,-26.388836],[-55.803671,-26.387667],[-55.802633,-26.387664],[-55.800404,-26.386138],[-55.79989,-26.385407],[-55.801328,-26.385348],[-55.801801,-26.386274],[-55.8024,-26.386483],[-55.803696,-26.385793],[-55.80364,-26.385562],[-55.802519,-26.385446],[-55.802079,-26.385106],[-55.803193,-26.384938],[-55.803168,-26.383527],[-55.802178,-26.381258],[-55.801555,-26.381466],[-55.801173,-26.381267],[-55.801879,-26.380635],[-55.801635,-26.379444],[-55.803917,-26.379667],[-55.80396,-26.379322],[-55.802963,-26.37864],[-55.80488,-26.377884],[-55.805639,-26.376853],[-55.805317,-26.375627],[-55.806556,-26.374839],[-55.805591,-26.374866],[-55.8048,-26.374248],[-55.804634,-26.373103],[-55.805933,-26.37314],[-55.806163,-26.372805],[-55.804202,-26.372097],[-55.803406,-26.370929],[-55.804204,-26.36996],[-55.804963,-26.369824],[-55.805075,-26.369497],[-55.803951,-26.368725],[-55.802947,-26.368726],[-55.802676,-26.36828],[-55.802748,-26.367944],[-55.803564,-26.368022],[-55.804195,-26.366023],[-55.806368,-26.365314],[-55.806273,-26.365047],[-55.805088,-26.365383],[-55.805022,-26.364105],[-55.804681,-26.363766],[-55.803658,-26.364653],[-55.803364,-26.364562],[-55.803825,-26.363767],[-55.803782,-26.363137],[-55.802921,-26.3636],[-55.802637,-26.36342],[-55.803318,-26.362327],[-55.805031,-26.362314],[-55.804633,-26.36177],[-55.804826,-26.361186],[-55.805589,-26.361609],[-55.806131,-26.36157],[-55.805766,-26.360671],[-55.805032,-26.360257],[-55.803979,-26.360257],[-55.804175,-26.359354],[-55.802896,-26.358324],[-55.802355,-26.357424],[-55.800882,-26.357988],[-55.799299,-26.357815],[-55.798292,-26.358072],[-55.796891,-26.357493],[-55.794819,-26.353237],[-55.794331,-26.352843],[-55.793278,-26.352772],[-55.792836,-26.35181],[-55.791769,-26.352183],[-55.790343,-26.352073],[-55.789958,-26.349294],[-55.78919,-26.349359],[-55.789387,-26.348394],[-55.787434,-26.34593],[-55.787081,-26.345874],[-55.787039,-26.346104],[-55.78754,-26.347075],[-55.78654,-26.34672],[-55.785552,-26.34712],[-55.7853,-26.346772],[-55.785885,-26.345402],[-55.785105,-26.345618],[-55.784175,-26.347986],[-55.783009,-26.347471],[-55.783193,-26.346798],[-55.781651,-26.347397],[-55.782104,-26.346426],[-55.780798,-26.346166],[-55.780624,-26.347752],[-55.778996,-26.347171],[-55.778973,-26.347481],[-55.779795,-26.348002],[-55.779781,-26.348383],[-55.779273,-26.348938],[-55.778131,-26.348946],[-55.77741,-26.349259],[-55.777077,-26.34907],[-55.77767,-26.347913],[-55.777348,-26.347671],[-55.77592,-26.347739],[-55.774929,-26.348386],[-55.773919,-26.348023],[-55.773235,-26.34846],[-55.773068,-26.349363],[-55.772661,-26.349661],[-55.772389,-26.349375],[-55.772594,-26.348588],[-55.772389,-26.348382],[-55.770266,-26.349091],[-55.770718,-26.348199],[-55.769942,-26.347182],[-55.76948,-26.347116],[-55.768581,-26.348358],[-55.768142,-26.347947],[-55.767081,-26.348727],[-55.766574,-26.348208],[-55.767557,-26.347419],[-55.766437,-26.347276],[-55.765919,-26.346926],[-55.76571,-26.347119],[-55.766029,-26.347716],[-55.765905,-26.348185],[-55.764271,-26.347302],[-55.763408,-26.347968],[-55.762707,-26.347244],[-55.762206,-26.347151],[-55.762424,-26.348882],[-55.761332,-26.348846],[-55.760961,-26.348541],[-55.760821,-26.347777],[-55.759844,-26.347139],[-55.758842,-26.346962],[-55.758967,-26.346342],[-55.760063,-26.345979],[-55.761397,-26.346434],[-55.761023,-26.345509],[-55.759391,-26.345309],[-55.759797,-26.344168],[-55.758478,-26.343261],[-55.758249,-26.342621],[-55.758422,-26.342055],[-55.759433,-26.342329],[-55.759966,-26.342192],[-55.759185,-26.339747],[-55.758849,-26.33985],[-55.758393,-26.341114],[-55.757958,-26.341261],[-55.756914,-26.340437],[-55.756837,-26.339345],[-55.755735,-26.339327],[-55.754786,-26.338822],[-55.754883,-26.337989],[-55.755514,-26.338793],[-55.755792,-26.338618],[-55.755903,-26.337448],[-55.754936,-26.336731],[-55.755712,-26.335948],[-55.755231,-26.334898],[-55.755214,-26.333727],[-55.755938,-26.333183],[-55.756508,-26.333286],[-55.756043,-26.334435],[-55.757751,-26.334857],[-55.757731,-26.333917],[-55.758765,-26.333004],[-55.759191,-26.331793],[-55.760624,-26.331247],[-55.760558,-26.330953],[-55.759186,-26.330356],[-55.758824,-26.33116],[-55.758619,-26.330999],[-55.758222,-26.330392],[-55.758586,-26.329438],[-55.75784,-26.328394],[-55.758019,-26.328174],[-55.760527,-26.328257],[-55.761159,-26.327671],[-55.760419,-26.326608],[-55.761273,-26.326868],[-55.762189,-26.327916],[-55.763076,-26.326741],[-55.762057,-26.325519],[-55.762433,-26.324671],[-55.762322,-26.323677],[-55.763094,-26.3234],[-55.763186,-26.323022],[-55.762664,-26.321047],[-55.762988,-26.320246],[-55.763814,-26.31989],[-55.764804,-26.318858],[-55.764791,-26.318448],[-55.764087,-26.318852],[-55.763108,-26.318781],[-55.762901,-26.318527],[-55.764187,-26.317639],[-55.763691,-26.316642],[-55.764601,-26.316602],[-55.764609,-26.31583],[-55.762441,-26.315685],[-55.762312,-26.314722],[-55.762637,-26.313779],[-55.761497,-26.314053],[-55.761288,-26.31391],[-55.761913,-26.312748],[-55.760805,-26.313275],[-55.760342,-26.312467],[-55.760415,-26.312136],[-55.761169,-26.311954],[-55.760286,-26.311095],[-55.760736,-26.309948],[-55.761521,-26.310081],[-55.762806,-26.31099],[-55.763303,-26.310348],[-55.762493,-26.309206],[-55.761683,-26.309672],[-55.761145,-26.309337],[-55.760942,-26.308625],[-55.759925,-26.308916],[-55.75928,-26.308643],[-55.759303,-26.30817],[-55.761264,-26.307966],[-55.761215,-26.307666],[-55.760137,-26.307058],[-55.761332,-26.306501],[-55.761511,-26.304516],[-55.760871,-26.303817],[-55.759781,-26.304343],[-55.759065,-26.304258],[-55.758982,-26.3038],[-55.759964,-26.303572],[-55.760197,-26.303023],[-55.759378,-26.302795],[-55.758624,-26.302946],[-55.757845,-26.303822],[-55.757356,-26.303739],[-55.757614,-26.302496],[-55.757448,-26.30169],[-55.756996,-26.301387],[-55.755398,-26.302067],[-55.756352,-26.302816],[-55.7564,-26.30321],[-55.755036,-26.303167],[-55.753294,-26.302553],[-55.75213,-26.303441],[-55.750892,-26.303084],[-55.750785,-26.303592],[-55.751405,-26.304196],[-55.751319,-26.304648],[-55.750845,-26.30481],[-55.750217,-26.302896],[-55.749383,-26.303534],[-55.748835,-26.302358],[-55.74819,-26.301921],[-55.747891,-26.302304],[-55.747367,-26.302372],[-55.745514,-26.301738],[-55.744904,-26.300143],[-55.742825,-26.299985],[-55.742178,-26.300491],[-55.742598,-26.298427],[-55.740481,-26.298435],[-55.739293,-26.297673],[-55.739635,-26.297503],[-55.740503,-26.297723],[-55.740571,-26.296932],[-55.741614,-26.296675],[-55.742324,-26.295092],[-55.740069,-26.294188],[-55.739548,-26.294616],[-55.738748,-26.294216],[-55.73835,-26.294831],[-55.737989,-26.294781],[-55.73795,-26.29367],[-55.738546,-26.29315],[-55.737723,-26.292844],[-55.738237,-26.292376],[-55.737894,-26.292001],[-55.7381,-26.290041],[-55.737236,-26.290086],[-55.736867,-26.289425],[-55.736433,-26.289288],[-55.735933,-26.289855],[-55.735216,-26.289962],[-55.734766,-26.29063],[-55.734132,-26.289926],[-55.732706,-26.290046],[-55.733636,-26.289323],[-55.732513,-26.288788],[-55.732363,-26.288327],[-55.733156,-26.288082],[-55.733875,-26.28844],[-55.73422,-26.287872],[-55.734151,-26.286814],[-55.734922,-26.28575],[-55.733845,-26.285767],[-55.733772,-26.286371],[-55.732748,-26.287526],[-55.731468,-26.287249],[-55.731169,-26.286927],[-55.731209,-26.286608],[-55.73183,-26.28646],[-55.732063,-26.286083],[-55.73153,-26.284126],[-55.731973,-26.284189],[-55.732334,-26.285361],[-55.733064,-26.284736],[-55.732588,-26.283865],[-55.732615,-26.283048],[-55.731793,-26.282689],[-55.732213,-26.28183],[-55.732958,-26.281444],[-55.733134,-26.280999],[-55.73285,-26.280807],[-55.730662,-26.281044],[-55.730653,-26.280471],[-55.729857,-26.280843],[-55.729864,-26.2792],[-55.730205,-26.278914],[-55.730704,-26.279253],[-55.73087,-26.277724],[-55.730119,-26.27755],[-55.728587,-26.275952],[-55.727698,-26.275448],[-55.727912,-26.27503],[-55.726798,-26.274704],[-55.727879,-26.274077],[-55.728915,-26.274493],[-55.729122,-26.273578],[-55.729058,-26.273343],[-55.728427,-26.273825],[-55.72794,-26.273703],[-55.727785,-26.273512],[-55.728267,-26.273241],[-55.726369,-26.271586],[-55.727318,-26.270691],[-55.726309,-26.270267],[-55.726857,-26.267794],[-55.725778,-26.266529],[-55.725035,-26.266947],[-55.725441,-26.267934],[-55.72392,-26.267429],[-55.724671,-26.266492],[-55.723544,-26.267168],[-55.722746,-26.26657],[-55.723864,-26.266083],[-55.724291,-26.264751],[-55.725387,-26.264891],[-55.72445,-26.26398],[-55.724682,-26.263572],[-55.725328,-26.263428],[-55.725206,-26.26303],[-55.724706,-26.262899],[-55.723994,-26.263277],[-55.723141,-26.262141],[-55.723645,-26.261486],[-55.724186,-26.261825],[-55.724576,-26.261386],[-55.724071,-26.260673],[-55.723049,-26.26037],[-55.72335,-26.259899],[-55.723017,-26.259043],[-55.723581,-26.25879],[-55.724748,-26.259275],[-55.725226,-26.258453],[-55.726329,-26.257587],[-55.727735,-26.257184],[-55.727502,-26.256826],[-55.726289,-26.25681],[-55.725497,-26.257747],[-55.725019,-26.257377],[-55.724706,-26.256399],[-55.726355,-26.25621],[-55.726277,-26.255627],[-55.725401,-26.255633],[-55.726492,-26.254903],[-55.726782,-26.253835],[-55.726306,-26.2537],[-55.724736,-26.254242],[-55.724562,-26.253843],[-55.725275,-26.253014],[-55.724475,-26.252244],[-55.72449,-26.251919],[-55.725677,-26.252061],[-55.725714,-26.250982],[-55.727278,-26.249858],[-55.727102,-26.249505],[-55.726389,-26.249805],[-55.726366,-26.249358],[-55.727088,-26.248412],[-55.727918,-26.248058],[-55.727923,-26.247602],[-55.728909,-26.246532],[-55.729064,-26.24596],[-55.728399,-26.245228],[-55.728657,-26.24258],[-55.728068,-26.243243],[-55.727736,-26.243236],[-55.727098,-26.241862],[-55.725765,-26.242234],[-55.725219,-26.241828],[-55.725,-26.240972],[-55.724426,-26.242227],[-55.723851,-26.242294],[-55.723346,-26.241396],[-55.721981,-26.240616],[-55.7227,-26.239914],[-55.72259,-26.239628],[-55.720474,-26.238016],[-55.720483,-26.237583],[-55.721367,-26.237148],[-55.721314,-26.236872],[-55.719817,-26.236313],[-55.719151,-26.23572],[-55.719918,-26.235285],[-55.720745,-26.235626],[-55.721576,-26.235367],[-55.721249,-26.23471],[-55.719919,-26.234725],[-55.719593,-26.234478],[-55.721453,-26.233903],[-55.721916,-26.232761],[-55.720956,-26.232391],[-55.720815,-26.231663],[-55.723646,-26.229576],[-55.722326,-26.229217],[-55.721857,-26.228734],[-55.723252,-26.227117],[-55.722451,-26.22585],[-55.723193,-26.225491],[-55.722022,-26.224099],[-55.722517,-26.222384],[-55.721407,-26.22158],[-55.721233,-26.221018],[-55.719826,-26.220875],[-55.719985,-26.219603],[-55.718526,-26.218692],[-55.719778,-26.217146],[-55.718304,-26.217652],[-55.717626,-26.217474],[-55.71683,-26.216569],[-55.717128,-26.215989],[-55.716345,-26.216375],[-55.716002,-26.216263],[-55.716387,-26.215915],[-55.716208,-26.215511],[-55.716829,-26.215201],[-55.715705,-26.214983],[-55.715867,-26.214276],[-55.715412,-26.214529],[-55.714805,-26.214406],[-55.714811,-26.213991],[-55.713959,-26.213541],[-55.712996,-26.21453],[-55.712306,-26.214352],[-55.712505,-26.213898],[-55.712282,-26.213693],[-55.711515,-26.214282],[-55.711567,-26.213759],[-55.710847,-26.213297],[-55.710344,-26.213477],[-55.709563,-26.213285],[-55.708505,-26.213935],[-55.706943,-26.213248],[-55.70616,-26.213787],[-55.705012,-26.213068],[-55.703971,-26.213122],[-55.704027,-26.212703],[-55.703336,-26.211997],[-55.703761,-26.210737],[-55.702606,-26.210203],[-55.702675,-26.209255],[-55.70198,-26.20989],[-55.701245,-26.208312],[-55.700186,-26.20912],[-55.70043,-26.208301],[-55.700143,-26.208086],[-55.69917,-26.20833],[-55.699558,-26.207792],[-55.698667,-26.207594],[-55.698016,-26.20627],[-55.69836,-26.204269],[-55.698761,-26.20439],[-55.699259,-26.203568],[-55.699948,-26.203394],[-55.70036,-26.203854],[-55.699951,-26.204405],[-55.700557,-26.204618],[-55.702218,-26.202981],[-55.703132,-26.200254],[-55.703516,-26.200212],[-55.704068,-26.20065],[-55.703874,-26.201208],[-55.704117,-26.201441],[-55.705278,-26.201149],[-55.705404,-26.200866],[-55.704757,-26.200819],[-55.705895,-26.199493],[-55.705013,-26.198619],[-55.705425,-26.198392],[-55.706745,-26.198824],[-55.706898,-26.198631],[-55.706205,-26.198038],[-55.706071,-26.1974],[-55.706629,-26.197058],[-55.707367,-26.197322],[-55.707753,-26.196991],[-55.707135,-26.195965],[-55.70432,-26.194202],[-55.704469,-26.193626],[-55.705144,-26.193388],[-55.704643,-26.193031],[-55.70463,-26.192422],[-55.703983,-26.192271],[-55.703993,-26.192827],[-55.703309,-26.192414],[-55.703376,-26.192018],[-55.702334,-26.19],[-55.703431,-26.188818],[-55.701459,-26.188592],[-55.702504,-26.18806],[-55.702083,-26.18663],[-55.702686,-26.186933],[-55.702927,-26.186475],[-55.702111,-26.18561],[-55.702833,-26.185404],[-55.703498,-26.185622],[-55.703949,-26.186872],[-55.704642,-26.186991],[-55.704915,-26.186682],[-55.704619,-26.185646],[-55.705949,-26.185685],[-55.705379,-26.185057],[-55.705675,-26.184658],[-55.70751,-26.184507],[-55.707637,-26.184251],[-55.707124,-26.18384],[-55.706286,-26.183991],[-55.706406,-26.183261],[-55.707402,-26.183387],[-55.707622,-26.182179],[-55.70845,-26.182051],[-55.70832,-26.181296],[-55.708927,-26.180304],[-55.710294,-26.180754],[-55.711241,-26.180076],[-55.711968,-26.177875],[-55.711461,-26.177438],[-55.712033,-26.177208],[-55.712409,-26.176268],[-55.71229,-26.174822],[-55.711855,-26.1749],[-55.711805,-26.174475],[-55.710982,-26.174535],[-55.71044,-26.174201],[-55.710833,-26.172977],[-55.709628,-26.172063],[-55.710593,-26.171738],[-55.709396,-26.171357],[-55.708826,-26.172092],[-55.7078,-26.171035],[-55.707799,-26.170196],[-55.708661,-26.170136],[-55.709013,-26.169805],[-55.7081,-26.169436],[-55.708229,-26.1688],[-55.707094,-26.168709],[-55.707419,-26.167691],[-55.70578,-26.165758],[-55.706298,-26.165009],[-55.705686,-26.164764],[-55.70502,-26.165503],[-55.704615,-26.165206],[-55.704894,-26.164744],[-55.704288,-26.164138],[-55.705079,-26.163048],[-55.705148,-26.161712],[-55.70567,-26.162141],[-55.706493,-26.161783],[-55.705939,-26.161404],[-55.706334,-26.161285],[-55.706256,-26.160824],[-55.707053,-26.160425],[-55.706799,-26.159709],[-55.707324,-26.15933],[-55.707695,-26.157221],[-55.708393,-26.156645],[-55.707473,-26.156027],[-55.708846,-26.155038],[-55.707649,-26.15528],[-55.707489,-26.154434],[-55.706263,-26.153994],[-55.706372,-26.153548],[-55.707082,-26.153388],[-55.706531,-26.150801],[-55.706098,-26.151492],[-55.704307,-26.151359],[-55.704535,-26.151704],[-55.704318,-26.151851],[-55.703771,-26.151412],[-55.703374,-26.150501],[-55.702412,-26.150854],[-55.70219,-26.150509],[-55.70118,-26.150337],[-55.70105,-26.149384],[-55.69942,-26.149441],[-55.698778,-26.149128],[-55.69813,-26.147755],[-55.698441,-26.147175],[-55.698949,-26.147848],[-55.699353,-26.147134],[-55.698961,-26.145144],[-55.698414,-26.145026],[-55.697966,-26.145826],[-55.6971,-26.146075],[-55.696903,-26.14583],[-55.697316,-26.145346],[-55.696934,-26.145099],[-55.696101,-26.146337],[-55.695809,-26.146077],[-55.696099,-26.145484],[-55.695743,-26.145223],[-55.695077,-26.145434],[-55.69511,-26.145931],[-55.693471,-26.145618],[-55.692603,-26.145804],[-55.691872,-26.145215],[-55.69204,-26.144792],[-55.691601,-26.144305],[-55.691487,-26.143456],[-55.689621,-26.143592],[-55.689561,-26.144201],[-55.68853,-26.143849],[-55.688197,-26.144103],[-55.687969,-26.14304],[-55.687316,-26.143499],[-55.686826,-26.143418],[-55.686807,-26.142289],[-55.686294,-26.141865],[-55.683992,-26.142403],[-55.682606,-26.143108],[-55.680125,-26.141813],[-55.679356,-26.142095],[-55.678823,-26.141354],[-55.677795,-26.141232],[-55.676871,-26.141652],[-55.676101,-26.141347],[-55.675368,-26.142509],[-55.674823,-26.142568],[-55.67394,-26.143318],[-55.673921,-26.143832],[-55.672502,-26.143747],[-55.671807,-26.14398],[-55.670424,-26.141796],[-55.670237,-26.140512],[-55.669583,-26.140511],[-55.668839,-26.140088],[-55.669953,-26.138957],[-55.668665,-26.138507],[-55.669217,-26.138295],[-55.669487,-26.137345],[-55.669096,-26.137315],[-55.669087,-26.137879],[-55.668585,-26.137874],[-55.668019,-26.137025],[-55.667961,-26.136464],[-55.668706,-26.135632],[-55.668066,-26.135192],[-55.667862,-26.133669],[-55.668288,-26.133222],[-55.667802,-26.132531],[-55.667909,-26.131959],[-55.668516,-26.131405],[-55.6679,-26.131205],[-55.667433,-26.130492],[-55.668406,-26.12939],[-55.667512,-26.129202],[-55.66662,-26.128277],[-55.665456,-26.128393],[-55.664958,-26.127941],[-55.664128,-26.127816],[-55.663845,-26.124816],[-55.662378,-26.124004],[-55.66225,-26.121592],[-55.660987,-26.120127],[-55.660989,-26.118781],[-55.660218,-26.116463],[-55.660615,-26.114002],[-55.659808,-26.111656],[-55.658988,-26.110719],[-55.658176,-26.110472],[-55.65838,-26.109246],[-55.658142,-26.108282],[-55.657024,-26.10731],[-55.656561,-26.106006],[-55.655347,-26.104279],[-55.653728,-26.103501],[-55.652198,-26.103469],[-55.650408,-26.102933],[-55.649349,-26.102007],[-55.647307,-26.098968],[-55.648873,-26.095362],[-55.649304,-26.092865],[-55.649988,-26.092339],[-55.649856,-26.088541],[-55.651194,-26.08548],[-55.65071,-26.081209],[-55.651385,-26.078354],[-55.651131,-26.077024],[-55.651665,-26.075549],[-55.651349,-26.071912],[-55.651594,-26.069865],[-55.650939,-26.068843],[-55.649172,-26.067829],[-55.648737,-26.06689],[-55.649251,-26.064832],[-55.650878,-26.062915],[-55.651133,-26.06127],[-55.65034,-26.058306],[-55.649328,-26.057114],[-55.647214,-26.056155],[-55.616826,-26.031216],[-55.615745,-26.029693],[-55.614679,-26.029128],[-55.613512,-26.027184],[-55.612674,-26.027014],[-55.611077,-26.025847],[-55.607071,-26.026265],[-55.605382,-26.024957],[-55.601357,-26.02068],[-55.599051,-26.016482],[-55.597236,-26.015029],[-55.593269,-26.013609],[-55.589106,-26.013465],[-55.584052,-26.012738],[-55.580363,-26.015546],[-55.579023,-26.014919],[-55.576381,-26.014491],[-55.572169,-26.011985],[-55.571435,-26.011034],[-55.569443,-26.00962],[-55.566845,-26.008596],[-55.56458,-26.0068],[-55.563367,-26.00663],[-55.562079,-26.005222],[-55.559407,-26.003909],[-55.557932,-26.003028],[-55.557976,-26.002816],[-55.557362,-26.002765],[-55.556956,-26.00202],[-55.556011,-26.001541],[-55.555473,-26.00034],[-55.553868,-25.998757],[-55.551972,-25.998012],[-55.549933,-25.99652],[-55.545014,-25.995066],[-55.544508,-25.995115],[-55.544624,-25.995703],[-55.544294,-25.996327],[-55.54365,-25.995332],[-55.542371,-25.996615],[-55.541097,-25.996485],[-55.540652,-25.996882],[-55.540277,-25.996743],[-55.540319,-25.997484],[-55.539821,-25.997488],[-55.539737,-25.996674],[-55.538128,-25.996071],[-55.537944,-25.995582],[-55.537354,-25.99544],[-55.53709,-25.994982],[-55.535053,-25.995313],[-55.534669,-25.994393],[-55.533566,-25.993429],[-55.533247,-25.993855],[-55.53299,-25.993482],[-55.532715,-25.99357],[-55.532623,-25.994178],[-55.531854,-25.993123],[-55.531491,-25.994519],[-55.530688,-25.994163],[-55.530483,-25.99357],[-55.530102,-25.993778],[-55.529828,-25.994227],[-55.530393,-25.994462],[-55.529968,-25.994819],[-55.528904,-25.997264],[-55.527867,-25.998445],[-55.527467,-25.99827],[-55.526568,-25.998491],[-55.525533,-25.997988],[-55.525484,-25.996611],[-55.524705,-25.994301],[-55.523344,-25.993213],[-55.521805,-25.992678],[-55.519109,-25.990158],[-55.519169,-25.988999],[-55.518725,-25.987925],[-55.51671,-25.98762],[-55.516281,-25.987064],[-55.516603,-25.986743],[-55.515935,-25.986488],[-55.51552,-25.987698],[-55.515109,-25.987581],[-55.514487,-25.98798],[-55.513331,-25.987783],[-55.512939,-25.987445],[-55.513639,-25.98683],[-55.51331,-25.986677],[-55.51258,-25.986959],[-55.512364,-25.986591],[-55.51168,-25.986791],[-55.510064,-25.986206],[-55.507922,-25.986563],[-55.506749,-25.9854],[-55.505603,-25.986232],[-55.504623,-25.98638],[-55.504181,-25.986913],[-55.503999,-25.986225],[-55.501938,-25.986181],[-55.500892,-25.986766],[-55.500549,-25.986627],[-55.499013,-25.987166],[-55.498852,-25.987544],[-55.497986,-25.986871],[-55.49725,-25.987432],[-55.49681,-25.988258],[-55.496249,-25.988135],[-55.495672,-25.988558],[-55.49504,-25.988389],[-55.491235,-25.990457],[-55.490105,-25.990495],[-55.486133,-25.992169],[-55.484895,-25.992959],[-55.485521,-25.993485],[-55.484437,-25.993374],[-55.483569,-25.993984],[-55.483251,-25.993764],[-55.483475,-25.993193],[-55.482472,-25.993977],[-55.48196,-25.993502],[-55.481343,-25.993888],[-55.481499,-25.992558],[-55.480608,-25.99277],[-55.478628,-25.992144],[-55.477732,-25.992681],[-55.477095,-25.992534],[-55.477617,-25.993452],[-55.476677,-25.993532],[-55.475366,-25.994204],[-55.472919,-25.994124],[-55.472459,-25.993578],[-55.4718,-25.993395],[-55.471269,-25.994473],[-55.470209,-25.994664],[-55.468876,-25.996153],[-55.466648,-25.996667],[-55.465021,-25.998085],[-55.464803,-25.997947],[-55.465046,-25.996957],[-55.464228,-25.995847],[-55.464477,-25.995484],[-55.463144,-25.994919],[-55.462081,-25.989342],[-55.460639,-25.989101],[-55.458597,-25.989513],[-55.45823,-25.989906],[-55.458323,-25.991658],[-55.459129,-25.9928],[-55.459208,-25.995058],[-55.457035,-25.996957],[-55.456639,-25.998321],[-55.457387,-25.999683],[-55.456825,-26.000056],[-55.456481,-26.003023],[-55.455414,-26.004244],[-55.45434,-26.003758],[-55.452802,-26.001787],[-55.451643,-26.000904],[-55.451281,-26.000841],[-55.450808,-26.001301],[-55.450104,-26.00105],[-55.45037,-26.000041],[-55.446679,-26.002164],[-55.443524,-26.002902],[-55.441659,-26.002137],[-55.44118,-26.001599],[-55.441038,-26.000848],[-55.439709,-26.000744],[-55.438846,-26.000039],[-55.437207,-25.999588],[-55.436261,-26.000846],[-55.435805,-26.000855],[-55.434787,-26.0033],[-55.433335,-26.003103],[-55.431058,-26.002144],[-55.4304,-26.002259],[-55.430333,-26.002908],[-55.431952,-26.00642],[-55.432542,-26.008769],[-55.432258,-26.009384],[-55.431236,-26.00982],[-55.428199,-26.008825],[-55.428126,-26.00836],[-55.42876,-26.007599],[-55.427929,-26.007247],[-55.427296,-26.006432],[-55.427125,-26.006805],[-55.427414,-26.00726],[-55.426826,-26.006951],[-55.426952,-26.00567],[-55.425281,-26.003318],[-55.425593,-26.001516],[-55.425027,-26.001402],[-55.425957,-26.000802],[-55.426528,-26.001328],[-55.426966,-26.001174],[-55.4265,-26.000497],[-55.425611,-26.000623],[-55.425234,-26.000321],[-55.425533,-25.999692],[-55.426607,-25.998765],[-55.426286,-25.998504],[-55.425655,-25.99861],[-55.426612,-25.997817],[-55.426644,-25.99737],[-55.424795,-25.996529],[-55.422991,-25.997448],[-55.422321,-25.997265],[-55.422365,-25.997938],[-55.421052,-26.000049],[-55.420658,-26.000226],[-55.420056,-25.999628],[-55.418945,-26.000988],[-55.41755,-26.001564],[-55.416426,-26.002666],[-55.416182,-26.001932],[-55.415517,-26.002503],[-55.414613,-26.002556],[-55.415011,-26.001915],[-55.411279,-25.998593],[-55.409658,-25.998503],[-55.408749,-25.999761],[-55.408286,-25.999228],[-55.407877,-25.999539],[-55.408094,-26.000693],[-55.408752,-26.000691],[-55.409014,-26.001881],[-55.407446,-26.003132],[-55.406674,-26.003105],[-55.405598,-26.004041],[-55.404562,-26.006314],[-55.404549,-26.007722],[-55.404247,-26.007931],[-55.404109,-26.007198],[-55.403847,-26.007385],[-55.404108,-26.008959],[-55.403718,-26.009956],[-55.405267,-26.009937],[-55.405455,-26.010152],[-55.405413,-26.011036],[-55.404869,-26.012064],[-55.40497,-26.012719],[-55.404458,-26.013057],[-55.405194,-26.013543],[-55.405652,-26.01539],[-55.406491,-26.016067],[-55.406437,-26.017001],[-55.405941,-26.016783],[-55.405754,-26.016993],[-55.406216,-26.017522],[-55.40623,-26.018041],[-55.405671,-26.018464],[-55.404777,-26.017809],[-55.405036,-26.018953],[-55.403636,-26.019737],[-55.40368,-26.022143],[-55.402427,-26.023592],[-55.40175,-26.026031],[-55.400552,-26.026821],[-55.398343,-26.027004],[-55.398213,-26.028316],[-55.396983,-26.028673],[-55.395909,-26.030101],[-55.396741,-26.031649],[-55.396131,-26.032013],[-55.395601,-26.031804],[-55.394781,-26.032756],[-55.393949,-26.033126],[-55.393929,-26.033983],[-55.394421,-26.035239],[-55.394155,-26.035326],[-55.391914,-26.035189],[-55.390955,-26.034352],[-55.390079,-26.032907],[-55.38921,-26.032532],[-55.388725,-26.031804],[-55.387071,-26.031799],[-55.385176,-26.030934],[-55.387207,-26.02837],[-55.388007,-26.025337],[-55.387573,-26.024397],[-55.38701,-26.024463],[-55.386327,-26.02669],[-55.385942,-26.026433],[-55.386357,-26.025485],[-55.385733,-26.02574],[-55.385679,-26.026588],[-55.386062,-26.027324],[-55.38445,-26.026863],[-55.38401,-26.026317],[-55.384386,-26.025549],[-55.384206,-26.025064],[-55.382793,-26.024335],[-55.382711,-26.022822],[-55.380432,-26.021961],[-55.380546,-26.0225],[-55.380319,-26.022583],[-55.378603,-26.019485],[-55.377293,-26.018816],[-55.377041,-26.018172],[-55.376106,-26.017602],[-55.376636,-26.017328],[-55.377013,-26.016412],[-55.378313,-26.016575],[-55.378605,-26.016145],[-55.378803,-26.015172],[-55.378003,-26.01301],[-55.380334,-26.013578],[-55.382339,-26.014562],[-55.384473,-26.01441],[-55.381055,-26.010955],[-55.38031,-26.010843],[-55.37757,-26.011417],[-55.377666,-26.011106],[-55.376129,-26.010466],[-55.375119,-26.009241],[-55.379404,-26.007655],[-55.382071,-26.00926],[-55.382999,-26.00918],[-55.383823,-26.008711],[-55.383416,-26.006598],[-55.382205,-26.005109],[-55.38163,-26.003134],[-55.380733,-26.002718],[-55.381727,-26.000914],[-55.381575,-25.999784],[-55.380835,-25.999781],[-55.378146,-26.001114],[-55.377212,-26.003355],[-55.377345,-26.003601],[-55.377964,-26.00359],[-55.377478,-26.004297],[-55.376319,-26.004361],[-55.375611,-26.003681],[-55.37524,-26.002715],[-55.375437,-26.001485],[-55.374726,-26.000109],[-55.372486,-26.000585],[-55.372031,-26.001997],[-55.371003,-26.002676],[-55.370255,-26.004081],[-55.369875,-26.003909],[-55.370205,-26.002631],[-55.369725,-26.002387],[-55.36917,-26.002705],[-55.368916,-26.003199],[-55.369517,-26.00349],[-55.368477,-26.003672],[-55.368917,-26.005],[-55.367368,-26.004897],[-55.364736,-26.005801],[-55.364951,-26.004639],[-55.36388,-26.004767],[-55.363168,-26.0035],[-55.364441,-26.003017],[-55.364361,-26.002294],[-55.363134,-26.002055],[-55.364454,-26.001266],[-55.364584,-26.000794],[-55.364085,-26.000535],[-55.362823,-26.000968],[-55.362624,-26.000663],[-55.362765,-25.999961],[-55.363845,-25.999585],[-55.364112,-25.998929],[-55.363376,-25.99795],[-55.363836,-25.99707],[-55.362295,-25.997026],[-55.362959,-25.995896],[-55.36208,-25.9958],[-55.362209,-25.995265],[-55.360306,-25.99643],[-55.359638,-25.995836],[-55.358079,-25.995308],[-55.357691,-25.994356],[-55.358963,-25.993161],[-55.358763,-25.992775],[-55.356896,-25.993146],[-55.35615,-25.992727],[-55.354203,-25.992714],[-55.352243,-25.993197],[-55.351043,-25.992782],[-55.350288,-25.993292],[-55.349949,-25.99322],[-55.348869,-25.992495],[-55.348564,-25.991936],[-55.349456,-25.991495],[-55.350037,-25.992174],[-55.350442,-25.992229],[-55.350727,-25.991943],[-55.350543,-25.991255],[-55.347169,-25.989767],[-55.347204,-25.992115],[-55.34683,-25.992413],[-55.34593,-25.992254],[-55.344726,-25.995612],[-55.343305,-25.995004],[-55.343046,-25.994013],[-55.343888,-25.993372],[-55.343063,-25.992934],[-55.342167,-25.994066],[-55.340581,-25.994133],[-55.33962,-25.996203],[-55.341383,-25.997726],[-55.341344,-25.998001],[-55.340443,-25.998284],[-55.340588,-25.998652],[-55.343946,-25.999489],[-55.343774,-25.999984],[-55.342269,-26.000093],[-55.344333,-26.001425],[-55.344587,-26.001844],[-55.344406,-26.002225],[-55.342113,-26.002519],[-55.340778,-26.006151],[-55.339728,-26.007259],[-55.338843,-26.006621],[-55.338793,-26.006119],[-55.339195,-26.005618],[-55.338533,-26.004812],[-55.337575,-26.005103],[-55.336916,-26.006725],[-55.336352,-26.007297],[-55.33599,-26.00694],[-55.33599,-26.005518],[-55.334802,-26.006832],[-55.33418,-26.007095],[-55.333225,-26.006796],[-55.333612,-26.005793],[-55.332291,-26.006221],[-55.331799,-26.007546],[-55.330957,-26.007568],[-55.330874,-26.007879],[-55.332015,-26.008619],[-55.33069,-26.00915],[-55.330127,-26.008999],[-55.329882,-26.009312],[-55.330411,-26.011742],[-55.330116,-26.012447],[-55.329582,-26.012436],[-55.329128,-26.011795],[-55.328091,-26.01269],[-55.32636,-26.01272],[-55.32604,-26.012626],[-55.325803,-26.011955],[-55.325443,-26.012063],[-55.324804,-26.013207],[-55.325378,-26.018811],[-55.326135,-26.019375],[-55.327236,-26.019622],[-55.32931,-26.01859],[-55.330024,-26.019474],[-55.330082,-26.020106],[-55.328106,-26.022011],[-55.326207,-26.022346],[-55.324452,-26.021802],[-55.323042,-26.019862],[-55.3221,-26.019757],[-55.321106,-26.02183],[-55.322085,-26.023268],[-55.323084,-26.02342],[-55.32317,-26.023755],[-55.322664,-26.023866],[-55.322945,-26.02502],[-55.321635,-26.026991],[-55.320857,-26.027768],[-55.32039,-26.027825],[-55.319806,-26.026252],[-55.319452,-26.026199],[-55.318627,-26.029953],[-55.318009,-26.030109],[-55.316863,-26.029599],[-55.316629,-26.030314],[-55.315776,-26.030304],[-55.314214,-26.031175],[-55.312847,-26.031493],[-55.313492,-26.031911],[-55.314742,-26.03142],[-55.315062,-26.031699],[-55.313388,-26.033296],[-55.312,-26.032819],[-55.310853,-26.03328],[-55.310394,-26.034421],[-55.309103,-26.035304],[-55.307651,-26.035192],[-55.306698,-26.035528],[-55.305049,-26.040059],[-55.305879,-26.041247],[-55.305197,-26.042381],[-55.304812,-26.042426],[-55.30404,-26.041812],[-55.304007,-26.040178],[-55.301384,-26.038477],[-55.300659,-26.038337],[-55.298168,-26.03908],[-55.297338,-26.038731],[-55.296083,-26.039177],[-55.294283,-26.038745],[-55.293524,-26.040045],[-55.292227,-26.040066],[-55.291773,-26.040891],[-55.290621,-26.040841],[-55.290023,-26.041371],[-55.289229,-26.041579],[-55.288725,-26.042913],[-55.288867,-26.046029],[-55.287762,-26.048964],[-55.283889,-26.052361],[-55.28304,-26.052649],[-55.282378,-26.05233],[-55.281482,-26.052396],[-55.28046,-26.051377],[-55.278585,-26.050741],[-55.278842,-26.049553],[-55.277374,-26.047982],[-55.276031,-26.045908],[-55.276174,-26.044944],[-55.275167,-26.043104],[-55.27503,-26.042096],[-55.274009,-26.040499],[-55.273252,-26.040549],[-55.270468,-26.042799],[-55.269536,-26.044228],[-55.26903,-26.043401],[-55.2652,-26.044149],[-55.264157,-26.043541],[-55.263303,-26.039667],[-55.260695,-26.039365],[-55.259532,-26.037838],[-55.257966,-26.03693],[-55.257201,-26.036993],[-55.255979,-26.037917],[-55.255306,-26.03897],[-55.25541,-26.039757],[-55.25595,-26.040228],[-55.256889,-26.04014],[-55.257099,-26.040432],[-55.255573,-26.042471],[-55.255005,-26.042519],[-55.254011,-26.041884],[-55.25341,-26.041849],[-55.253299,-26.044457],[-55.251903,-26.047202],[-55.253632,-26.050302],[-55.252294,-26.052154],[-55.251074,-26.053046],[-55.250929,-26.054471],[-55.249937,-26.055818],[-55.249055,-26.058122],[-55.249461,-26.060184],[-55.251282,-26.060298],[-55.24994,-26.061694],[-55.251563,-26.062594],[-55.251771,-26.063513],[-55.25503,-26.063241],[-55.255009,-26.063615],[-55.253545,-26.06529],[-55.254176,-26.064977],[-55.254892,-26.065212],[-55.255501,-26.06489],[-55.255803,-26.0652],[-55.251777,-26.068194],[-55.249299,-26.069342],[-55.248622,-26.070173],[-55.248192,-26.071508],[-55.24847,-26.072053],[-55.249663,-26.07228],[-55.251842,-26.071543],[-55.253405,-26.072916],[-55.255624,-26.07325],[-55.255894,-26.073578],[-55.25548,-26.074526],[-55.254853,-26.075073],[-55.250799,-26.076586],[-55.250517,-26.077887],[-55.25071,-26.078521],[-55.255449,-26.078484],[-55.255833,-26.078953],[-55.255717,-26.080274],[-55.257879,-26.081298],[-55.25887,-26.080981],[-55.260351,-26.078922],[-55.260498,-26.078242],[-55.259753,-26.077836],[-55.259751,-26.077471],[-55.262961,-26.076227],[-55.263713,-26.076264],[-55.263861,-26.077285],[-55.265076,-26.078158],[-55.267632,-26.077471],[-55.26816,-26.077608],[-55.269782,-26.078878],[-55.269549,-26.079407],[-55.267469,-26.080809],[-55.268389,-26.082196],[-55.271662,-26.083897],[-55.275045,-26.083396],[-55.275543,-26.08513],[-55.278243,-26.086855],[-55.27817,-26.08745],[-55.276906,-26.088383],[-55.276944,-26.088776],[-55.278049,-26.089484],[-55.280536,-26.088909],[-55.281046,-26.089019],[-55.281109,-26.095271],[-55.28153,-26.096161],[-55.283777,-26.094937],[-55.285282,-26.09486],[-55.286067,-26.095371],[-55.286076,-26.096738],[-55.286706,-26.097071],[-55.287463,-26.097017],[-55.289741,-26.095062],[-55.289951,-26.094392],[-55.289666,-26.093441],[-55.287604,-26.093195],[-55.286771,-26.092323],[-55.286861,-26.090758],[-55.287192,-26.090297],[-55.287793,-26.089948],[-55.288013,-26.090587],[-55.288341,-26.09064],[-55.288721,-26.089986],[-55.288804,-26.088967],[-55.288331,-26.086935],[-55.287084,-26.085367],[-55.288391,-26.083586],[-55.290049,-26.083949],[-55.291505,-26.085433],[-55.291748,-26.086289],[-55.292463,-26.087132],[-55.291905,-26.0875],[-55.291931,-26.088715],[-55.295932,-26.089516],[-55.299017,-26.087846],[-55.299402,-26.087919],[-55.299967,-26.089983],[-55.30092,-26.090893],[-55.300523,-26.093935],[-55.299871,-26.095218],[-55.29778,-26.095834],[-55.297039,-26.097017],[-55.29584,-26.098032],[-55.296443,-26.098536],[-55.297596,-26.098522],[-55.299374,-26.09899],[-55.298937,-26.100023],[-55.296651,-26.10256],[-55.296715,-26.102962],[-55.297586,-26.103654],[-55.298341,-26.103695],[-55.299558,-26.103186],[-55.302631,-26.101069],[-55.305598,-26.101216],[-55.307179,-26.100707],[-55.307983,-26.100139],[-55.308298,-26.100079],[-55.308428,-26.100487],[-55.308776,-26.100405],[-55.310009,-26.098429],[-55.31031,-26.096893],[-55.308185,-26.095176],[-55.30815,-26.094088],[-55.308919,-26.094489],[-55.310249,-26.094013],[-55.309589,-26.09317],[-55.309565,-26.092597],[-55.311392,-26.092469],[-55.312336,-26.093266],[-55.314458,-26.092162],[-55.315554,-26.09268],[-55.316739,-26.092604],[-55.316632,-26.093185],[-55.315592,-26.093773],[-55.315589,-26.094265],[-55.316022,-26.095498],[-55.316902,-26.095571],[-55.317409,-26.096615],[-55.314103,-26.099976],[-55.315354,-26.101322],[-55.316819,-26.101998],[-55.316299,-26.105142],[-55.317141,-26.104511],[-55.317932,-26.10615],[-55.319353,-26.105846],[-55.319739,-26.10655],[-55.321321,-26.106415],[-55.322395,-26.106125],[-55.323476,-26.105226],[-55.323577,-26.103029],[-55.322502,-26.102127],[-55.321864,-26.102418],[-55.32133,-26.1021],[-55.32276,-26.1013],[-55.322131,-26.100191],[-55.322401,-26.10009],[-55.323728,-26.100196],[-55.324763,-26.101219],[-55.326581,-26.101619],[-55.327327,-26.102287],[-55.332311,-26.103225],[-55.334466,-26.104496],[-55.337605,-26.103264],[-55.340576,-26.104092],[-55.341859,-26.104969],[-55.341154,-26.105769],[-55.340495,-26.10568],[-55.34093,-26.106055],[-55.337959,-26.10895],[-55.340532,-26.111616],[-55.339837,-26.114619],[-55.339982,-26.11629],[-55.341815,-26.117083],[-55.343463,-26.116985],[-55.345815,-26.117355],[-55.347441,-26.118412],[-55.346875,-26.118726],[-55.346567,-26.11981],[-55.345557,-26.120796],[-55.34544,-26.121463],[-55.344683,-26.12205],[-55.34506,-26.122528],[-55.343794,-26.124147],[-55.343269,-26.125441],[-55.343719,-26.126521],[-55.343618,-26.128027],[-55.344108,-26.128155],[-55.344354,-26.129029],[-55.345624,-26.129526],[-55.344987,-26.131735],[-55.345681,-26.132411],[-55.344593,-26.132945],[-55.344905,-26.133458],[-55.344265,-26.133559],[-55.344776,-26.134035],[-55.344338,-26.134332],[-55.344456,-26.135051],[-55.343774,-26.135012],[-55.343914,-26.135501],[-55.343497,-26.136958],[-55.344023,-26.137917],[-55.343739,-26.139999],[-55.342461,-26.138982],[-55.341823,-26.139494],[-55.341906,-26.140014],[-55.342511,-26.140558],[-55.342021,-26.141008],[-55.343346,-26.141276],[-55.343288,-26.141935],[-55.342692,-26.142257],[-55.343083,-26.143034],[-55.341733,-26.143474],[-55.342612,-26.144441],[-55.342044,-26.145125],[-55.343123,-26.145178],[-55.342514,-26.145839],[-55.343003,-26.146129],[-55.343044,-26.147249],[-55.342167,-26.148336],[-55.343723,-26.147961],[-55.343058,-26.148915],[-55.343327,-26.148999],[-55.343534,-26.148505],[-55.344605,-26.149871],[-55.3445,-26.150096],[-55.345912,-26.151344],[-55.346908,-26.15062],[-55.347573,-26.151982],[-55.348087,-26.15173],[-55.347773,-26.152882],[-55.348867,-26.152678],[-55.349427,-26.153113],[-55.348312,-26.153349],[-55.34873,-26.153593],[-55.348978,-26.154571],[-55.349596,-26.154988],[-55.348715,-26.155524],[-55.349499,-26.155989],[-55.3498,-26.158186],[-55.35008,-26.158063],[-55.350306,-26.158355],[-55.350446,-26.159313],[-55.34899,-26.16093],[-55.349204,-26.161127],[-55.349625,-26.160482],[-55.349889,-26.160589],[-55.350041,-26.161949],[-55.350802,-26.163158],[-55.350051,-26.163051],[-55.349905,-26.163279],[-55.350469,-26.164613],[-55.350905,-26.164374],[-55.350702,-26.165039],[-55.351562,-26.165672],[-55.350826,-26.168187],[-55.349763,-26.168919],[-55.348053,-26.169297],[-55.347679,-26.169663],[-55.347742,-26.170214],[-55.346746,-26.170406],[-55.347128,-26.17069],[-55.346985,-26.170959],[-55.345735,-26.171428],[-55.346615,-26.172097],[-55.34766,-26.176022],[-55.348637,-26.176774],[-55.34886,-26.177562],[-55.349385,-26.177523],[-55.349543,-26.177822],[-55.348552,-26.178425],[-55.348892,-26.179539],[-55.348365,-26.180075],[-55.349167,-26.180359],[-55.349579,-26.180897],[-55.349511,-26.182886],[-55.349874,-26.183856],[-55.349535,-26.184358],[-55.349783,-26.184686],[-55.349363,-26.184997],[-55.348505,-26.184947],[-55.348425,-26.185397],[-55.349429,-26.186298],[-55.349667,-26.18691],[-55.350308,-26.187202],[-55.350439,-26.188106],[-55.351334,-26.187922],[-55.351804,-26.188221],[-55.351559,-26.188787],[-55.351822,-26.189787],[-55.351504,-26.192803],[-55.352241,-26.193281],[-55.352974,-26.192924],[-55.353279,-26.19337],[-55.352691,-26.194988],[-55.353879,-26.195557],[-55.353423,-26.195637],[-55.353698,-26.196403],[-55.352867,-26.197676],[-55.353339,-26.198751],[-55.354457,-26.199653],[-55.354241,-26.201153],[-55.354635,-26.201912],[-55.355864,-26.203162],[-55.357198,-26.203963],[-55.356994,-26.205057],[-55.35774,-26.205815],[-55.35882,-26.2058],[-55.360154,-26.205215],[-55.360834,-26.204045],[-55.360909,-26.201776],[-55.361313,-26.201279],[-55.360896,-26.200868],[-55.362174,-26.199939],[-55.361566,-26.199481],[-55.362837,-26.199432],[-55.363236,-26.200073],[-55.363712,-26.199713],[-55.363821,-26.201217],[-55.364797,-26.204113],[-55.364172,-26.204923],[-55.364077,-26.206745],[-55.364789,-26.207507],[-55.3655,-26.207181],[-55.366323,-26.209578],[-55.367114,-26.209894],[-55.366457,-26.210767],[-55.367039,-26.210742],[-55.368154,-26.211711],[-55.367234,-26.211764],[-55.367101,-26.212069],[-55.367619,-26.212969],[-55.367232,-26.214278],[-55.367807,-26.216198],[-55.367698,-26.217502],[-55.367344,-26.218026],[-55.367813,-26.218216],[-55.367364,-26.219114],[-55.367867,-26.219119],[-55.36764,-26.220029],[-55.367025,-26.220216],[-55.367245,-26.220417],[-55.366736,-26.221445],[-55.367988,-26.221743],[-55.367201,-26.221946],[-55.367598,-26.222727],[-55.366102,-26.22262],[-55.365971,-26.222334],[-55.366536,-26.222061],[-55.365494,-26.221895],[-55.3641,-26.222272],[-55.363736,-26.223036],[-55.363146,-26.222979],[-55.361332,-26.224182],[-55.361387,-26.224918],[-55.360653,-26.225018],[-55.360085,-26.225865],[-55.358128,-26.227381],[-55.358078,-26.228649],[-55.35742,-26.230826],[-55.356705,-26.231464],[-55.356821,-26.231993],[-55.357331,-26.232184],[-55.357105,-26.233039],[-55.357565,-26.233459],[-55.357745,-26.235244],[-55.3575,-26.236582],[-55.358222,-26.237448],[-55.357833,-26.237814],[-55.359674,-26.239595],[-55.359635,-26.240583],[-55.358997,-26.241095],[-55.359036,-26.243524],[-55.35827,-26.24421],[-55.359068,-26.244616],[-55.359296,-26.245472],[-55.359387,-26.248271],[-55.360543,-26.251995],[-55.360818,-26.253253],[-55.360519,-26.253376],[-55.36108,-26.254434],[-55.36105,-26.255733],[-55.361924,-26.255743],[-55.360997,-26.257317],[-55.361352,-26.258346],[-55.361154,-26.259585],[-55.361504,-26.260419],[-55.361159,-26.261002],[-55.361492,-26.261507],[-55.361007,-26.263104],[-55.36146,-26.264043],[-55.361665,-26.263887],[-55.361182,-26.265985],[-55.359861,-26.266792],[-55.35965,-26.268125],[-55.360003,-26.269488],[-55.360862,-26.270631],[-55.360864,-26.271791],[-55.362052,-26.273772],[-55.362401,-26.275221],[-55.363121,-26.276186],[-55.364101,-26.27932],[-55.368007,-26.282714],[-55.369493,-26.292122],[-55.375114,-26.297436],[-55.381447,-26.298032],[-55.38602,-26.299659],[-55.389999,-26.302037],[-55.391636,-26.310047],[-55.411005,-26.313529],[-55.418802,-26.316065],[-55.425788,-26.316434],[-55.436284,-26.320457],[-55.440493,-26.320328],[-55.448336,-26.32438],[-55.455124,-26.325036],[-55.457256,-26.320451],[-55.462533,-26.317883],[-55.469404,-26.317139],[-55.47141,-26.317219],[-55.482375,-26.310219],[-55.498401,-26.307179],[-55.502027,-26.307101],[-55.507194,-26.307913],[-55.513137,-26.313866],[-55.511288,-26.316764],[-55.507104,-26.319987],[-55.507141,-26.327221],[-55.499317,-26.346564],[-55.498236,-26.350111],[-55.501301,-26.35341],[-55.506617,-26.356778],[-55.517175,-26.352583],[-55.531096,-26.352552],[-55.532806,-26.355603],[-55.53894,-26.362821],[-55.545852,-26.366186],[-55.554726,-26.367211],[-55.562965,-26.367225],[-55.56474,-26.370335],[-55.564461,-26.377157],[-55.566223,-26.386566],[-55.567476,-26.390021],[-55.572099,-26.393275],[-55.579597,-26.399883],[-55.582394,-26.405073],[-55.585216,-26.407338],[-55.591065,-26.410322],[-55.595002,-26.416836],[-55.595899,-26.417391],[-55.599126,-26.415549],[-55.600747,-26.41542],[-55.601608,-26.415045],[-55.603242,-26.413982],[-55.604646,-26.41252],[-55.609011,-26.411037],[-55.612579,-26.409338],[-55.615695,-26.406367],[-55.620401,-26.403081],[-55.622362,-26.400437],[-55.623162,-26.398512],[-55.624044,-26.397623],[-55.627703,-26.396908],[-55.629941,-26.395643],[-55.633997,-26.390523],[-55.637804,-26.387196],[-55.640691,-26.385256],[-55.641535,-26.384009],[-55.641862,-26.381841],[-55.642396,-26.381268],[-55.643345,-26.380663],[-55.644252,-26.380505],[-55.646876,-26.378737],[-55.647469,-26.377154],[-55.64884,-26.376025],[-55.649063,-26.374948],[-55.650271,-26.374477],[-55.649982,-26.374072]]]}}]}
