{"type":"FeatureCollection","name":"distrito","features":[{"type":"Feature","properties":{"clave":"12-9","nombre":"Guazú-cuá"},"geometry":{"type":"Polygon","coordinates":[[[-57.879003,-26.943882],[-57.853944,-26.939897],[-57.832583,-26.932572],[-57.810651,-26.925748],[-57.808201,-26.928005],[-57.798971,-26.933696],[-57.793525,-26.94011],[-57.79008,-26.945406],[-57.788084,-26.953086],[-57.78735,-26.97627],[-57.787225,-26.986825],[-57.788765,-27.002259],[-57.765285,-27.009484],[-57.727807,-27.023058],[-57.65347,-27.065323],[-57.611404,-27.098429],[-57.610891,-27.099167],[-57.627753,-27.097526],[-57.894506,-27.05811],[-57.918368,-27.048364],[-57.939044,-27.044296],[-57.972466,-27.034233],[-57.974296,-27.032988],[-57.976858,-27.030104],[-57.978996,-27.03009],[-57.981997,-27.028751],[-57.983422,-27.028614],[-57.984078,-27.027404],[-57.985823,-27.025839],[-57.987542,-27.025579],[-57.988728,-27.025061],[-57.989243,-27.024448],[-57.989732,-27.024517],[-57.990612,-27.025386],[-57.99233,-27.024832],[-57.992935,-27.024986],[-57.993748,-27.024737],[-57.995121,-27.023048],[-57.997599,-27.022186],[-57.999162,-27.01925],[-58.001771,-27.018681],[-58.003133,-27.018865],[-58.004431,-27.018292],[-58.006324,-27.018405],[-58.006799,-27.018094],[-58.007787,-27.018719],[-58.008974,-27.018832],[-58.009131,-27.018366],[-58.011859,-27.016689],[-58.060155,-26.987696],[-58.068285,-26.989042],[-58.150764,-26.935858],[-58.164255,-26.913798],[-58.196646,-26.856715],[-58.20003,-26.853105],[-58.200419,-26.852511],[-58.200451,-26.851369],[-58.202267,-26.85096],[-58.202875,-26.850326],[-58.203706,-26.850082],[-58.204611,-26.848501],[-58.20632,-26.848329],[-58.207524,-26.846036],[-58.207471,-26.843405],[-58.207801,-26.842044],[-58.208683,-26.84103],[-58.210227,-26.840294],[-58.211252,-26.838335],[-58.211982,-26.838108],[-58.212476,-26.83675],[-58.213181,-26.835845],[-58.212986,-26.834524],[-58.213706,-26.834252],[-58.214565,-26.832994],[-58.21522,-26.833115],[-58.216091,-26.832697],[-58.216172,-26.832285],[-58.21712,-26.831772],[-58.217771,-26.830823],[-58.218919,-26.830677],[-58.219416,-26.831052],[-58.219894,-26.830994],[-58.220935,-26.830245],[-58.221416,-26.829112],[-58.224885,-26.82831],[-58.225816,-26.827169],[-58.22626,-26.827292],[-58.226653,-26.826896],[-58.227369,-26.826853],[-58.227852,-26.825581],[-58.228609,-26.825033],[-58.229372,-26.824994],[-58.2297,-26.823818],[-58.230469,-26.823743],[-58.23066,-26.82283],[-58.231655,-26.821973],[-58.231019,-26.821622],[-58.231885,-26.821479],[-58.231182,-26.820727],[-58.231906,-26.820549],[-58.232325,-26.81994],[-58.231594,-26.81959],[-58.231754,-26.818903],[-58.231162,-26.818795],[-58.231965,-26.818021],[-58.23084,-26.81711],[-58.230336,-26.816189],[-58.230792,-26.815575],[-58.23064,-26.815161],[-58.231469,-26.815037],[-58.230707,-26.81433],[-58.231264,-26.813955],[-58.23045,-26.813186],[-58.230792,-26.813025],[-58.231837,-26.813305],[-58.231894,-26.812713],[-58.23285,-26.812276],[-58.232579,-26.811732],[-58.232031,-26.811525],[-58.232062,-26.81096],[-58.231173,-26.810223],[-58.231969,-26.810166],[-58.233119,-26.809543],[-58.23323,-26.808946],[-58.233899,-26.808511],[-58.233355,-26.808105],[-58.233582,-26.807489],[-58.234914,-26.807771],[-58.235144,-26.80827],[-58.235652,-26.808315],[-58.235827,-26.807668],[-58.235234,-26.80729],[-58.235122,-26.806731],[-58.235758,-26.806712],[-58.236414,-26.806115],[-58.236744,-26.806992],[-58.237426,-26.80677],[-58.236987,-26.806421],[-58.23764,-26.80605],[-58.239755,-26.80665],[-58.240547,-26.806517],[-58.240768,-26.805937],[-58.241412,-26.806107],[-58.242484,-26.803624],[-58.242945,-26.803273],[-58.244144,-26.803222],[-58.244102,-26.802599],[-58.244563,-26.802581],[-58.244576,-26.803362],[-58.245145,-26.80361],[-58.245407,-26.803459],[-58.244896,-26.802949],[-58.245603,-26.802784],[-58.245704,-26.802472],[-58.246468,-26.802732],[-58.246799,-26.803239],[-58.24739,-26.802751],[-58.247475,-26.803382],[-58.248021,-26.803454],[-58.248622,-26.801963],[-58.249556,-26.801535],[-58.251586,-26.801423],[-58.250947,-26.800837],[-58.251076,-26.800132],[-58.251822,-26.79938],[-58.252934,-26.798937],[-58.252863,-26.798541],[-58.253716,-26.797928],[-58.254023,-26.798043],[-58.25388,-26.798514],[-58.255311,-26.798032],[-58.2551,-26.7969],[-58.255566,-26.796531],[-58.255607,-26.796007],[-58.25505,-26.795583],[-58.255612,-26.794964],[-58.255771,-26.794218],[-58.256973,-26.794279],[-58.258216,-26.793763],[-58.258582,-26.79399],[-58.260528,-26.793593],[-58.260808,-26.793081],[-58.259922,-26.793215],[-58.259883,-26.792863],[-58.260595,-26.792198],[-58.261533,-26.792325],[-58.26201,-26.791738],[-58.262551,-26.791594],[-58.262695,-26.791132],[-58.263146,-26.791286],[-58.263263,-26.792174],[-58.264501,-26.79205],[-58.264037,-26.792768],[-58.264384,-26.793157],[-58.26593,-26.793513],[-58.267246,-26.79315],[-58.267736,-26.792613],[-58.268694,-26.793448],[-58.270294,-26.793592],[-58.270647,-26.794658],[-58.271282,-26.794928],[-58.272404,-26.794773],[-58.272588,-26.79414],[-58.27343,-26.793753],[-58.273852,-26.793163],[-58.274571,-26.793612],[-58.275115,-26.793472],[-58.275704,-26.791909],[-58.278696,-26.791801],[-58.278976,-26.792024],[-58.278954,-26.79285],[-58.281103,-26.792719],[-58.280724,-26.7908],[-58.281132,-26.788732],[-58.282116,-26.786724],[-58.289436,-26.778982],[-58.293121,-26.774175],[-58.294099,-26.771651],[-58.294711,-26.768549],[-58.294787,-26.76255],[-58.294182,-26.759911],[-58.29294,-26.758181],[-58.291053,-26.756586],[-58.288956,-26.755508],[-58.283774,-26.755104],[-58.281409,-26.75577],[-58.274472,-26.759948],[-58.269798,-26.761901],[-58.267327,-26.762508],[-58.264676,-26.762649],[-58.262109,-26.762515],[-58.259973,-26.762027],[-58.254377,-26.759152],[-58.250762,-26.755668],[-58.248573,-26.752522],[-58.247502,-26.750356],[-58.246563,-26.747109],[-58.246119,-26.742258],[-58.227188,-26.747222],[-58.226987,-26.746976],[-58.225318,-26.746954],[-58.225285,-26.747523],[-58.22457,-26.747529],[-58.22406,-26.748107],[-58.223777,-26.747644],[-58.223425,-26.74818],[-58.222788,-26.74801],[-58.222835,-26.748758],[-58.222441,-26.749082],[-58.221922,-26.748802],[-58.220459,-26.749456],[-58.220417,-26.749208],[-58.219743,-26.749354],[-58.219378,-26.748608],[-58.218722,-26.748613],[-58.218176,-26.749476],[-58.215799,-26.750101],[-58.215208,-26.750499],[-58.215019,-26.751498],[-58.214381,-26.751255],[-58.214191,-26.752006],[-58.213473,-26.751728],[-58.212918,-26.751836],[-58.21267,-26.750877],[-58.211836,-26.750992],[-58.211552,-26.75039],[-58.21084,-26.75068],[-58.210321,-26.7504],[-58.209572,-26.750976],[-58.208812,-26.750445],[-58.208539,-26.750948],[-58.207941,-26.750669],[-58.207946,-26.751166],[-58.206294,-26.750895],[-58.206101,-26.751362],[-58.205547,-26.751615],[-58.205123,-26.75276],[-58.2056,-26.752829],[-58.205483,-26.753078],[-58.204148,-26.754516],[-58.203044,-26.755274],[-58.201334,-26.755113],[-58.200821,-26.755474],[-58.199162,-26.758232],[-58.197844,-26.757494],[-58.1133,-26.758395],[-58.037758,-26.827581],[-58.035171,-26.827207],[-58.029486,-26.829388],[-58.024675,-26.829175],[-58.019262,-26.828429],[-58.015367,-26.826281],[-58.012367,-26.824163],[-58.009935,-26.823327],[-58.00736,-26.824271],[-58.002059,-26.82481],[-58.000195,-26.829924],[-57.997543,-26.831188],[-57.995316,-26.833307],[-57.993205,-26.837389],[-57.992161,-26.838503],[-57.986543,-26.841643],[-57.984121,-26.841908],[-57.982526,-26.84135],[-57.981415,-26.841679],[-57.980293,-26.842932],[-57.979421,-26.843263],[-57.971279,-26.8441],[-57.944176,-26.857302],[-57.937101,-26.864838],[-57.932042,-26.878314],[-57.912318,-26.90555],[-57.899584,-26.922532],[-57.879003,-26.943882]]]}}]}
