{"type":"FeatureCollection","name":"distrito","features":[{"type":"Feature","properties":{"clave":"1-4","nombre":"Sargento José Félix López"},"geometry":{"type":"Polygon","coordinates":[[[-57.216233,-22.785082],[-57.216788,-22.783307],[-57.216029,-22.781718],[-57.21531,-22.781204],[-57.213696,-22.781129],[-57.213376,-22.780502],[-57.213231,-22.776956],[-57.214064,-22.774385],[-57.215138,-22.772943],[-57.215494,-22.771538],[-57.215747,-22.767472],[-57.216464,-22.767196],[-57.216365,-22.767543],[-57.216644,-22.767489],[-57.218814,-22.766727],[-57.219651,-22.766893],[-57.220369,-22.766689],[-57.220906,-22.766318],[-57.221281,-22.764303],[-57.222237,-22.764121],[-57.223193,-22.763379],[-57.222969,-22.760664],[-57.222809,-22.760294],[-57.221872,-22.760146],[-57.221632,-22.759388],[-57.222109,-22.758705],[-57.222926,-22.758686],[-57.222802,-22.756044],[-57.223179,-22.75523],[-57.223657,-22.754913],[-57.22541,-22.754762],[-57.226445,-22.754114],[-57.22724,-22.753115],[-57.228013,-22.750621],[-57.229854,-22.748861],[-57.230685,-22.748255],[-57.233241,-22.747424],[-57.237661,-22.744744],[-57.238146,-22.74384],[-57.237941,-22.742634],[-57.238792,-22.742014],[-57.239726,-22.742107],[-57.240578,-22.741614],[-57.244345,-22.737466],[-57.2455,-22.736507],[-57.247224,-22.735976],[-57.248035,-22.735374],[-57.248963,-22.732229],[-57.250157,-22.730664],[-57.27251,-22.681202],[-57.272349,-22.681529],[-57.255275,-22.68184],[-57.249298,-22.675609],[-57.249446,-22.672004],[-57.249638,-22.671638],[-57.25014,-22.671886],[-57.250549,-22.671506],[-57.250808,-22.667752],[-57.251317,-22.666383],[-57.251162,-22.665398],[-57.249663,-22.662726],[-57.249887,-22.659641],[-57.249067,-22.65868],[-57.248331,-22.657042],[-57.248258,-22.655488],[-57.247001,-22.65301],[-57.247189,-22.651569],[-57.246757,-22.65077],[-57.246546,-22.648828],[-57.245013,-22.648126],[-57.240935,-22.643033],[-57.241182,-22.641582],[-57.241702,-22.640651],[-57.241579,-22.639685],[-57.242495,-22.637931],[-57.242188,-22.635225],[-57.242881,-22.632668],[-57.243041,-22.632293],[-57.277484,-22.615878],[-57.259999,-22.615435],[-57.248942,-22.609051],[-57.246466,-22.608918],[-57.240243,-22.605592],[-57.236699,-22.604962],[-57.232018,-22.608658],[-57.228333,-22.612474],[-57.221346,-22.610712],[-57.21484,-22.608642],[-57.208375,-22.605958],[-57.181583,-22.605839],[-57.180911,-22.607475],[-57.180411,-22.607338],[-57.179218,-22.604735],[-57.179471,-22.602589],[-57.1687,-22.584214],[-57.159139,-22.568635],[-57.148817,-22.574809],[-57.134159,-22.572968],[-57.132022,-22.573414],[-57.125901,-22.571819],[-57.109877,-22.570167],[-57.114542,-22.573034],[-57.109255,-22.576042],[-57.106981,-22.556532],[-57.120603,-22.530272],[-57.119435,-22.528293],[-57.120392,-22.527439],[-57.118681,-22.520178],[-57.121844,-22.512887],[-57.121083,-22.510518],[-57.127233,-22.504225],[-57.128873,-22.501031],[-57.129086,-22.494037],[-57.131532,-22.490952],[-57.131752,-22.490139],[-57.131097,-22.489315],[-57.102388,-22.486622],[-57.116847,-22.393121],[-57.121445,-22.377726],[-57.051724,-22.38124],[-57.041859,-22.3713],[-57.021881,-22.352792],[-57.029704,-22.347703],[-57.005233,-22.330435],[-56.999176,-22.308473],[-56.996796,-22.294084],[-56.994573,-22.290623],[-56.989071,-22.263836],[-56.986601,-22.255065],[-56.98375,-22.242528],[-56.976955,-22.243293],[-56.974027,-22.244573],[-56.971297,-22.24441],[-56.970948,-22.243353],[-56.971057,-22.242316],[-56.971407,-22.241909],[-56.972018,-22.241787],[-56.972346,-22.241218],[-56.97156,-22.240608],[-56.966318,-22.24083],[-56.961447,-22.239426],[-56.959635,-22.238084],[-56.958761,-22.237921],[-56.957757,-22.238287],[-56.956926,-22.239323],[-56.956664,-22.240177],[-56.956597,-22.244508],[-56.954543,-22.246602],[-56.953603,-22.249937],[-56.950457,-22.251502],[-56.949539,-22.253535],[-56.948555,-22.254978],[-56.947506,-22.255852],[-56.946152,-22.256177],[-56.944579,-22.256075],[-56.937983,-22.254039],[-56.935864,-22.253733],[-56.933679,-22.254322],[-56.929922,-22.254036],[-56.929376,-22.253832],[-56.929049,-22.253161],[-56.92846,-22.251005],[-56.926451,-22.249784],[-56.925927,-22.250333],[-56.924833,-22.252976],[-56.922604,-22.254642],[-56.920594,-22.255292],[-56.918191,-22.255555],[-56.917667,-22.25466],[-56.917143,-22.254457],[-56.91581,-22.255188],[-56.915023,-22.256204],[-56.914936,-22.256713],[-56.915328,-22.257384],[-56.916748,-22.257832],[-56.918605,-22.257528],[-56.918889,-22.258158],[-56.918692,-22.258687],[-56.91725,-22.259133],[-56.911811,-22.258826],[-56.90912,-22.263969],[-56.908268,-22.265025],[-56.90558,-22.266386],[-56.904575,-22.266528],[-56.903526,-22.266263],[-56.902369,-22.265449],[-56.901649,-22.264249],[-56.901235,-22.262764],[-56.901411,-22.2613],[-56.902919,-22.259268],[-56.90231,-22.256055],[-56.900761,-22.253166],[-56.899713,-22.251885],[-56.898644,-22.251132],[-56.895281,-22.249198],[-56.89146,-22.247589],[-56.89015,-22.246795],[-56.889496,-22.245514],[-56.888491,-22.245188],[-56.883334,-22.247482],[-56.880666,-22.251201],[-56.879705,-22.251587],[-56.879026,-22.253538],[-56.879091,-22.254555],[-56.880028,-22.256874],[-56.878344,-22.258702],[-56.876113,-22.262157],[-56.875872,-22.263011],[-56.875739,-22.2648],[-56.876763,-22.268421],[-56.878704,-22.272001],[-56.880166,-22.27371],[-56.880973,-22.275358],[-56.880185,-22.277451],[-56.879748,-22.277919],[-56.87389,-22.280517],[-56.868141,-22.283868],[-56.867638,-22.284436],[-56.86805,-22.287304],[-56.867263,-22.288645],[-56.860661,-22.292056],[-56.859917,-22.29238],[-56.859328,-22.292278],[-56.857954,-22.289491],[-56.857277,-22.289206],[-56.855594,-22.289408],[-56.853299,-22.290565],[-56.850126,-22.294649],[-56.848027,-22.296355],[-56.843848,-22.301211],[-56.841182,-22.301432],[-56.839609,-22.301166],[-56.835262,-22.299596],[-56.830983,-22.296338],[-56.826067,-22.295926],[-56.609426,-22.365286],[-56.610309,-22.366878],[-56.612303,-22.368996],[-56.617544,-22.371525],[-56.620656,-22.373452],[-56.621808,-22.374534],[-56.623975,-22.375569],[-56.631804,-22.377827],[-56.634533,-22.379243],[-56.637909,-22.379756],[-56.640088,-22.381573],[-56.642165,-22.381699],[-56.642731,-22.382378],[-56.64365,-22.382773],[-56.644167,-22.383967],[-56.64489,-22.384519],[-56.644353,-22.385792],[-56.64543,-22.386363],[-56.646004,-22.387372],[-56.645896,-22.389034],[-56.645149,-22.390202],[-56.646161,-22.391668],[-56.645862,-22.392729],[-56.646756,-22.393386],[-56.646096,-22.395688],[-56.646108,-22.397576],[-56.646574,-22.398982],[-56.646183,-22.39988],[-56.646263,-22.400915],[-56.646838,-22.401783],[-56.645993,-22.404049],[-56.646393,-22.406033],[-56.646015,-22.407604],[-56.647253,-22.409309],[-56.647591,-22.410362],[-56.647402,-22.411722],[-56.648684,-22.414087],[-56.648249,-22.416466],[-56.649148,-22.41753],[-56.649353,-22.41823],[-56.64915,-22.418984],[-56.64839,-22.419859],[-56.648325,-22.421503],[-56.648658,-22.42215],[-56.650709,-22.423035],[-56.651916,-22.423923],[-56.655346,-22.424057],[-56.657422,-22.423668],[-56.659285,-22.423835],[-56.661104,-22.426363],[-56.66553,-22.42743],[-56.666961,-22.428521],[-56.668082,-22.430398],[-56.671638,-22.430139],[-56.67323,-22.429528],[-56.677095,-22.431324],[-56.678163,-22.431534],[-56.67876,-22.433288],[-56.680236,-22.434488],[-56.681169,-22.434286],[-56.681199,-22.433356],[-56.682098,-22.432536],[-56.683527,-22.433044],[-56.686241,-22.434567],[-56.688317,-22.43664],[-56.688371,-22.437368],[-56.689875,-22.437511],[-56.693632,-22.438539],[-56.699045,-22.440523],[-56.70027,-22.442842],[-56.701514,-22.443599],[-56.701841,-22.444394],[-56.70272,-22.44483],[-56.703266,-22.445594],[-56.703507,-22.447731],[-56.705254,-22.449952],[-56.70718,-22.450068],[-56.708775,-22.4498],[-56.709731,-22.449992],[-56.710475,-22.450576],[-56.710922,-22.452293],[-56.710726,-22.453941],[-56.711068,-22.454611],[-56.712592,-22.455453],[-56.712589,-22.456303],[-56.713871,-22.456648],[-56.716417,-22.458229],[-56.717501,-22.459844],[-56.716808,-22.462083],[-56.71704,-22.462566],[-56.717878,-22.462198],[-56.71799,-22.462419],[-56.717579,-22.464532],[-56.715971,-22.46611],[-56.716014,-22.466752],[-56.715101,-22.469442],[-56.716482,-22.470823],[-56.716096,-22.473094],[-56.716305,-22.47351],[-56.716826,-22.473651],[-56.716829,-22.473958],[-56.716346,-22.474567],[-56.717232,-22.474686],[-56.717353,-22.475992],[-56.718438,-22.47696],[-56.718048,-22.477434],[-56.715454,-22.477872],[-56.715917,-22.479454],[-56.717045,-22.48072],[-56.716754,-22.483005],[-56.717482,-22.486164],[-56.72037,-22.488486],[-56.720386,-22.489015],[-56.719812,-22.489063],[-56.719208,-22.491176],[-56.718775,-22.491704],[-56.719098,-22.492572],[-56.720359,-22.493911],[-56.719744,-22.495983],[-56.721458,-22.497228],[-56.721383,-22.498412],[-56.722234,-22.49914],[-56.722849,-22.499042],[-56.723303,-22.499323],[-56.722557,-22.501061],[-56.723535,-22.502192],[-56.723643,-22.503095],[-56.7222,-22.506846],[-56.722646,-22.507339],[-56.722629,-22.509426],[-56.723289,-22.510832],[-56.724863,-22.511932],[-56.724392,-22.512429],[-56.72654,-22.512708],[-56.727705,-22.513315],[-56.728672,-22.515444],[-56.731422,-22.518647],[-56.730685,-22.520412],[-56.73104,-22.521677],[-56.733116,-22.523695],[-56.735006,-22.524719],[-56.733942,-22.526176],[-56.73453,-22.529082],[-56.733991,-22.529749],[-56.732729,-22.530461],[-56.732504,-22.532217],[-56.733333,-22.53473],[-56.735035,-22.536779],[-56.734816,-22.538405],[-56.7352,-22.539454],[-56.738667,-22.54366],[-56.738379,-22.545308],[-56.737365,-22.546093],[-56.737017,-22.5469],[-56.737731,-22.54986],[-56.7367,-22.552113],[-56.736822,-22.554014],[-56.736534,-22.555274],[-56.73567,-22.556836],[-56.73081,-22.55858],[-56.728596,-22.561083],[-56.728668,-22.563676],[-56.729385,-22.565972],[-56.729202,-22.56702],[-56.730344,-22.568164],[-56.730509,-22.568815],[-56.728787,-22.570903],[-56.729363,-22.573664],[-56.727955,-22.574836],[-56.726854,-22.576564],[-56.726272,-22.57692],[-56.726396,-22.57795],[-56.727191,-22.57834],[-56.72636,-22.579563],[-56.726504,-22.582147],[-56.72567,-22.583207],[-56.726017,-22.585136],[-56.727598,-22.588066],[-56.727733,-22.589651],[-56.72677,-22.590314],[-56.727621,-22.592262],[-56.72701,-22.592433],[-56.726844,-22.593345],[-56.724289,-22.596854],[-56.722808,-22.597593],[-56.722665,-22.597972],[-56.723155,-22.598985],[-56.721175,-22.6003],[-56.719968,-22.602335],[-56.720103,-22.604025],[-56.719197,-22.60723],[-56.71824,-22.609351],[-56.71984,-22.615226],[-56.719283,-22.616761],[-56.717755,-22.619301],[-56.715585,-22.621339],[-56.715341,-22.622066],[-56.715603,-22.62264],[-56.719735,-22.623573],[-56.720491,-22.624035],[-56.721183,-22.625039],[-56.72106,-22.625509],[-56.720264,-22.62544],[-56.720004,-22.625846],[-56.720149,-22.626442],[-56.721228,-22.627704],[-56.720211,-22.629071],[-56.72059,-22.629966],[-56.720306,-22.631524],[-56.719608,-22.631943],[-56.719236,-22.632611],[-56.71938,-22.633266],[-56.720092,-22.633466],[-56.720116,-22.633976],[-56.719352,-22.634499],[-56.718752,-22.634448],[-56.719732,-22.636622],[-56.718842,-22.637059],[-56.718227,-22.63783],[-56.718196,-22.638327],[-56.720843,-22.639881],[-56.7217,-22.640845],[-56.722129,-22.646984],[-56.72282,-22.649009],[-56.723306,-22.649384],[-56.725841,-22.649989],[-56.726699,-22.650867],[-56.726784,-22.651482],[-56.726291,-22.652163],[-56.725718,-22.652257],[-56.724975,-22.651853],[-56.72439,-22.650877],[-56.723617,-22.650939],[-56.723041,-22.65335],[-56.722316,-22.654157],[-56.719604,-22.655227],[-56.719747,-22.656293],[-56.719477,-22.656903],[-56.718944,-22.65701],[-56.717538,-22.65661],[-56.716319,-22.657019],[-56.715371,-22.658616],[-56.715344,-22.660477],[-56.714066,-22.660922],[-56.713518,-22.661621],[-56.713041,-22.662926],[-56.713467,-22.664173],[-56.713138,-22.664995],[-56.712258,-22.665025],[-56.710384,-22.66387],[-56.708999,-22.664378],[-56.708495,-22.665361],[-56.708749,-22.667232],[-56.708473,-22.667977],[-56.703589,-22.671116],[-56.70414,-22.672377],[-56.703812,-22.67337],[-56.703983,-22.674933],[-56.702628,-22.676385],[-56.702975,-22.676643],[-56.703982,-22.67646],[-56.704104,-22.676966],[-56.701108,-22.678293],[-56.700506,-22.677998],[-56.699377,-22.678954],[-56.698722,-22.680556],[-56.69417,-22.682219],[-56.694425,-22.683705],[-56.693827,-22.684616],[-56.693649,-22.686043],[-56.693083,-22.687325],[-56.692507,-22.689488],[-56.692659,-22.690165],[-56.693093,-22.690067],[-56.693783,-22.688785],[-56.696381,-22.688202],[-57.216401,-22.786026],[-57.216233,-22.785082]]]}}]}
