{"type":"FeatureCollection","name":"distrito","features":[{"type":"Feature","properties":{"clave":"14-19","nombre":"Yby Pyta"},"geometry":{"type":"Polygon","coordinates":[[[-55.400272,-24.427418],[-55.416716,-24.432806],[-55.420498,-24.43313],[-55.447143,-24.426769],[-55.449608,-24.426767],[-55.452191,-24.427913],[-55.465395,-24.435619],[-55.478546,-24.438709],[-55.480035,-24.440034],[-55.480995,-24.442274],[-55.483141,-24.442571],[-55.483617,-24.442323],[-55.484571,-24.442377],[-55.486051,-24.440857],[-55.489563,-24.439655],[-55.490358,-24.436349],[-55.491627,-24.43554],[-55.492402,-24.434442],[-55.492859,-24.43413],[-55.493698,-24.434229],[-55.494139,-24.433709],[-55.495988,-24.433556],[-55.497306,-24.432468],[-55.498757,-24.432261],[-55.499067,-24.432056],[-55.499683,-24.430126],[-55.500287,-24.429459],[-55.501058,-24.429336],[-55.501733,-24.428236],[-55.502342,-24.427994],[-55.504051,-24.428327],[-55.505065,-24.428079],[-55.506145,-24.427214],[-55.506893,-24.425407],[-55.507676,-24.425031],[-55.508001,-24.424528],[-55.510333,-24.42484],[-55.511275,-24.425612],[-55.512969,-24.425403],[-55.513662,-24.425704],[-55.514547,-24.425283],[-55.51559,-24.423275],[-55.516918,-24.423058],[-55.518252,-24.423505],[-55.519202,-24.423139],[-55.51968,-24.422313],[-55.520881,-24.422438],[-55.52171,-24.4219],[-55.522379,-24.421897],[-55.52282,-24.420389],[-55.524686,-24.420949],[-55.525554,-24.420677],[-55.526808,-24.42087],[-55.527387,-24.41921],[-55.529868,-24.417627],[-55.530239,-24.417007],[-55.53094,-24.416874],[-55.531568,-24.415697],[-55.532418,-24.415444],[-55.533287,-24.413023],[-55.53376,-24.41315],[-55.534033,-24.411576],[-55.533722,-24.410594],[-55.535068,-24.408105],[-55.53639,-24.407545],[-55.536566,-24.406418],[-55.536437,-24.406087],[-55.535847,-24.406014],[-55.535664,-24.405222],[-55.533998,-24.40437],[-55.533533,-24.403648],[-55.532554,-24.404239],[-55.530458,-24.404413],[-55.528434,-24.405138],[-55.526245,-24.404602],[-55.524346,-24.40457],[-55.522755,-24.405516],[-55.521146,-24.405514],[-55.517707,-24.408271],[-55.515754,-24.40854],[-55.51442,-24.409466],[-55.512244,-24.409337],[-55.51156,-24.408517],[-55.508825,-24.408256],[-55.508093,-24.407923],[-55.507827,-24.406945],[-55.508057,-24.402492],[-55.505077,-24.396006],[-55.503596,-24.395088],[-55.50176,-24.393178],[-55.498533,-24.391855],[-55.496845,-24.39178],[-55.495729,-24.391511],[-55.49528,-24.390983],[-55.494082,-24.390931],[-55.495512,-24.384461],[-55.498615,-24.379557],[-55.500279,-24.377538],[-55.50064,-24.375008],[-55.501852,-24.373955],[-55.502149,-24.372053],[-55.502068,-24.369659],[-55.50295,-24.368855],[-55.504807,-24.365907],[-55.507983,-24.362854],[-55.509314,-24.360833],[-55.521774,-24.363034],[-55.526962,-24.359862],[-55.526952,-24.358394],[-55.529291,-24.351653],[-55.533447,-24.349265],[-55.534121,-24.348021],[-55.534915,-24.34731],[-55.538286,-24.345853],[-55.540856,-24.342925],[-55.541999,-24.343121],[-55.542602,-24.342869],[-55.54287,-24.34243],[-55.542765,-24.341358],[-55.543305,-24.341179],[-55.543545,-24.340526],[-55.544277,-24.340258],[-55.54569,-24.338723],[-55.546891,-24.336847],[-55.548618,-24.335301],[-55.54917,-24.334088],[-55.549841,-24.334001],[-55.549957,-24.334742],[-55.550643,-24.334785],[-55.551163,-24.335234],[-55.551567,-24.335164],[-55.552123,-24.334208],[-55.552764,-24.334676],[-55.553089,-24.334513],[-55.553219,-24.333774],[-55.553747,-24.333483],[-55.555229,-24.333927],[-55.55566,-24.333279],[-55.559348,-24.332607],[-55.559776,-24.33225],[-55.559661,-24.331652],[-55.55789,-24.331594],[-55.55762,-24.331327],[-55.557866,-24.329748],[-55.559539,-24.32907],[-55.560934,-24.328958],[-55.561376,-24.328657],[-55.565648,-24.329905],[-55.566725,-24.329707],[-55.566376,-24.328399],[-55.567515,-24.328174],[-55.567633,-24.327051],[-55.566429,-24.323751],[-55.567069,-24.323383],[-55.567345,-24.324426],[-55.56771,-24.324304],[-55.567807,-24.323736],[-55.567692,-24.323194],[-55.567075,-24.322869],[-55.566529,-24.32156],[-55.56581,-24.320873],[-55.566236,-24.320669],[-55.566961,-24.320884],[-55.567731,-24.319753],[-55.567999,-24.32013],[-55.56862,-24.320136],[-55.569131,-24.319073],[-55.568101,-24.319105],[-55.567622,-24.318614],[-55.568554,-24.317902],[-55.571543,-24.317347],[-55.57278,-24.316401],[-55.574027,-24.315969],[-55.575127,-24.316409],[-55.575312,-24.316189],[-55.575076,-24.315604],[-55.572528,-24.314595],[-55.572487,-24.314248],[-55.573129,-24.313698],[-55.575056,-24.3133],[-55.575455,-24.312846],[-55.57842,-24.311722],[-55.579783,-24.310375],[-55.578457,-24.309808],[-55.578409,-24.308614],[-55.577658,-24.308111],[-55.575711,-24.308062],[-55.575158,-24.307424],[-55.574147,-24.306995],[-55.574283,-24.304883],[-55.573739,-24.304241],[-55.570947,-24.303886],[-55.570466,-24.304129],[-55.570083,-24.30544],[-55.569229,-24.30554],[-55.56867,-24.3053],[-55.566459,-24.30127],[-55.566032,-24.299821],[-55.564866,-24.299625],[-55.562886,-24.299909],[-55.562325,-24.300522],[-55.562243,-24.301519],[-55.561846,-24.301736],[-55.560111,-24.302058],[-55.559178,-24.301657],[-55.557542,-24.297474],[-55.556411,-24.296881],[-55.555769,-24.293881],[-55.554613,-24.293653],[-55.552661,-24.294335],[-55.550938,-24.293325],[-55.550161,-24.293345],[-55.550003,-24.292991],[-55.550336,-24.292484],[-55.549856,-24.291929],[-55.549324,-24.291824],[-55.546563,-24.292768],[-55.544941,-24.296099],[-55.544051,-24.296925],[-55.53949,-24.297834],[-55.539112,-24.297451],[-55.538865,-24.295932],[-55.536565,-24.292785],[-55.535346,-24.290466],[-55.533426,-24.290096],[-55.531829,-24.288094],[-55.528373,-24.286408],[-55.526983,-24.285942],[-55.524502,-24.286454],[-55.520957,-24.28902],[-55.516891,-24.287106],[-55.518448,-24.285605],[-55.518603,-24.27553],[-55.518014,-24.27446],[-55.518113,-24.273571],[-55.516767,-24.272199],[-55.514044,-24.270516],[-55.506722,-24.269893],[-55.502032,-24.268736],[-55.500562,-24.257809],[-55.475663,-24.260316],[-55.465428,-24.272191],[-55.465191,-24.282279],[-55.46409,-24.282972],[-55.461837,-24.28309],[-55.45848,-24.282392],[-55.452856,-24.282113],[-55.445731,-24.283043],[-55.442863,-24.28393],[-55.437776,-24.271978],[-55.437215,-24.2718],[-55.431841,-24.261085],[-55.431664,-24.257259],[-55.432849,-24.255032],[-55.43363,-24.254669],[-55.434272,-24.253832],[-55.43537,-24.250362],[-55.437511,-24.249188],[-55.439986,-24.249281],[-55.44328,-24.244569],[-55.443225,-24.242727],[-55.442376,-24.240406],[-55.440209,-24.239147],[-55.439244,-24.236347],[-55.436793,-24.235613],[-55.436062,-24.234454],[-55.435623,-24.232969],[-55.435653,-24.231118],[-55.434329,-24.228594],[-55.434343,-24.227669],[-55.434823,-24.226545],[-55.434829,-24.224545],[-55.434301,-24.222508],[-55.432857,-24.221585],[-55.432517,-24.220936],[-55.432777,-24.216835],[-55.432056,-24.215103],[-55.432681,-24.21357],[-55.432807,-24.212185],[-55.433927,-24.211388],[-55.43535,-24.208075],[-55.435548,-24.20503],[-55.434852,-24.202729],[-55.435532,-24.200036],[-55.434883,-24.198991],[-55.43473,-24.198082],[-55.435906,-24.196974],[-55.438299,-24.196367],[-55.440045,-24.19541],[-55.443569,-24.191044],[-55.445393,-24.190683],[-55.445995,-24.190007],[-55.446919,-24.187366],[-55.446619,-24.186533],[-55.445389,-24.186598],[-55.445537,-24.186034],[-55.445215,-24.18573],[-55.444816,-24.186162],[-55.443753,-24.185597],[-55.442968,-24.185859],[-55.44079,-24.184845],[-55.439718,-24.184696],[-55.439282,-24.184067],[-55.438872,-24.184554],[-55.438746,-24.183756],[-55.438244,-24.183975],[-55.436776,-24.183676],[-55.43633,-24.18391],[-55.436194,-24.184487],[-55.435459,-24.184349],[-55.435389,-24.183961],[-55.433523,-24.183666],[-55.433345,-24.183297],[-55.433108,-24.183539],[-55.431655,-24.18345],[-55.431477,-24.183189],[-55.431893,-24.182699],[-55.431147,-24.182673],[-55.430826,-24.182084],[-55.430548,-24.182374],[-55.429654,-24.182335],[-55.429562,-24.181853],[-55.429151,-24.181865],[-55.427792,-24.180826],[-55.426723,-24.18067],[-55.425201,-24.181037],[-55.422954,-24.180558],[-55.422843,-24.181226],[-55.422144,-24.18161],[-55.422209,-24.182033],[-55.421669,-24.181881],[-55.421549,-24.182437],[-55.420926,-24.182213],[-55.420566,-24.182692],[-55.420267,-24.182168],[-55.419982,-24.182632],[-55.42022,-24.183118],[-55.419403,-24.182966],[-55.41938,-24.183308],[-55.419812,-24.183657],[-55.419398,-24.183736],[-55.419023,-24.184481],[-55.417979,-24.184871],[-55.417677,-24.184594],[-55.416273,-24.184554],[-55.416389,-24.185171],[-55.415912,-24.185407],[-55.416126,-24.185794],[-55.415745,-24.185857],[-55.415118,-24.186638],[-55.41473,-24.186382],[-55.414185,-24.186564],[-55.413565,-24.187446],[-55.412925,-24.187339],[-55.412762,-24.186859],[-55.412694,-24.187446],[-55.411799,-24.187557],[-55.411254,-24.187954],[-55.40936,-24.188025],[-55.408715,-24.188547],[-55.408541,-24.189157],[-55.408651,-24.189775],[-55.409021,-24.189603],[-55.409629,-24.18982],[-55.409121,-24.190045],[-55.409298,-24.190561],[-55.407804,-24.190694],[-55.407904,-24.190966],[-55.40695,-24.191232],[-55.406452,-24.191853],[-55.406176,-24.191848],[-55.406581,-24.191353],[-55.406429,-24.191065],[-55.405561,-24.191273],[-55.405387,-24.190899],[-55.404322,-24.190744],[-55.403814,-24.190254],[-55.402899,-24.190025],[-55.402046,-24.189978],[-55.401987,-24.190526],[-55.401546,-24.190201],[-55.401428,-24.190655],[-55.400511,-24.190891],[-55.40029,-24.190745],[-55.400627,-24.190298],[-55.400018,-24.190563],[-55.399663,-24.190217],[-55.39944,-24.190611],[-55.399046,-24.190204],[-55.398666,-24.191149],[-55.398276,-24.190248],[-55.397818,-24.190867],[-55.397181,-24.190768],[-55.397355,-24.191301],[-55.396955,-24.191441],[-55.397099,-24.19171],[-55.396772,-24.192122],[-55.397053,-24.192594],[-55.396551,-24.192756],[-55.396566,-24.193277],[-55.395737,-24.193505],[-55.396521,-24.193828],[-55.395922,-24.194046],[-55.396244,-24.194615],[-55.396654,-24.194438],[-55.396948,-24.19592],[-55.396287,-24.195683],[-55.396473,-24.196544],[-55.395848,-24.196234],[-55.395745,-24.196405],[-55.396238,-24.197503],[-55.395427,-24.197458],[-55.394882,-24.19807],[-55.395143,-24.198219],[-55.394733,-24.199061],[-55.394871,-24.19951],[-55.39458,-24.199707],[-55.394986,-24.200273],[-55.394375,-24.201805],[-55.394925,-24.202091],[-55.394993,-24.202509],[-55.393796,-24.203112],[-55.393677,-24.20417],[-55.3941,-24.204512],[-55.393568,-24.204956],[-55.393727,-24.205231],[-55.393348,-24.205662],[-55.392757,-24.205647],[-55.392108,-24.205182],[-55.39178,-24.205712],[-55.391066,-24.205614],[-55.391092,-24.205055],[-55.390431,-24.20474],[-55.390053,-24.204954],[-55.38968,-24.204214],[-55.389603,-24.204734],[-55.389248,-24.204833],[-55.388923,-24.20399],[-55.388386,-24.204477],[-55.387015,-24.203062],[-55.386122,-24.203056],[-55.385885,-24.203121],[-55.385963,-24.203468],[-55.386431,-24.203455],[-55.386631,-24.20379],[-55.385872,-24.203808],[-55.385649,-24.204232],[-55.386017,-24.205174],[-55.384823,-24.205517],[-55.384801,-24.20616],[-55.384146,-24.205654],[-55.38283,-24.205801],[-55.383224,-24.206322],[-55.382202,-24.206483],[-55.382827,-24.206724],[-55.382136,-24.207016],[-55.382093,-24.207801],[-55.381377,-24.207675],[-55.381328,-24.207242],[-55.380338,-24.207072],[-55.381139,-24.206476],[-55.380308,-24.205953],[-55.379089,-24.205996],[-55.378688,-24.206532],[-55.378017,-24.206368],[-55.37783,-24.207631],[-55.377352,-24.207389],[-55.37663,-24.207687],[-55.374837,-24.207474],[-55.374304,-24.207691],[-55.374274,-24.206107],[-55.373234,-24.20587],[-55.373532,-24.205372],[-55.372219,-24.203957],[-55.3713,-24.203768],[-55.370734,-24.204267],[-55.370643,-24.204886],[-55.369953,-24.205031],[-55.369337,-24.20496],[-55.368815,-24.203676],[-55.36816,-24.203635],[-55.367996,-24.203128],[-55.36751,-24.203907],[-55.367697,-24.20234],[-55.367967,-24.202114],[-55.367311,-24.200476],[-55.364529,-24.201408],[-55.364197,-24.202226],[-55.363243,-24.202162],[-55.362293,-24.202639],[-55.361863,-24.202156],[-55.361016,-24.202178],[-55.362199,-24.201392],[-55.362027,-24.200212],[-55.362381,-24.19985],[-55.361728,-24.19959],[-55.361907,-24.198269],[-55.361142,-24.197453],[-55.361139,-24.197028],[-55.360326,-24.196997],[-55.360348,-24.196731],[-55.359936,-24.196645],[-55.359904,-24.195891],[-55.359254,-24.194918],[-55.359682,-24.194299],[-55.359277,-24.193816],[-55.35979,-24.192612],[-55.359146,-24.192623],[-55.359104,-24.192383],[-55.359675,-24.192082],[-55.359177,-24.191621],[-55.35969,-24.190462],[-55.359683,-24.190231],[-55.359178,-24.190158],[-55.35908,-24.188085],[-55.357438,-24.187923],[-55.357251,-24.187523],[-55.356601,-24.187557],[-55.356461,-24.186942],[-55.356044,-24.187443],[-55.354944,-24.186903],[-55.355383,-24.185959],[-55.354777,-24.186138],[-55.354712,-24.185695],[-55.353767,-24.185251],[-55.352688,-24.184047],[-55.352038,-24.183729],[-55.351149,-24.183787],[-55.350196,-24.182914],[-55.349142,-24.18251],[-55.348873,-24.18127],[-55.349353,-24.180404],[-55.348223,-24.179945],[-55.348319,-24.179187],[-55.347692,-24.17835],[-55.347243,-24.178666],[-55.346649,-24.177973],[-55.346181,-24.177372],[-55.346108,-24.176608],[-55.345058,-24.176479],[-55.344337,-24.176923],[-55.34399,-24.176359],[-55.34361,-24.176861],[-55.342939,-24.175901],[-55.341861,-24.176499],[-55.34163,-24.177173],[-55.341375,-24.176886],[-55.341155,-24.177051],[-55.340575,-24.176115],[-55.340343,-24.176672],[-55.33997,-24.176302],[-55.339623,-24.17661],[-55.339094,-24.176536],[-55.338739,-24.175873],[-55.339475,-24.175385],[-55.339405,-24.175077],[-55.338937,-24.17467],[-55.338417,-24.175129],[-55.337404,-24.172798],[-55.335422,-24.172234],[-55.335074,-24.171039],[-55.334385,-24.171433],[-55.334119,-24.171286],[-55.333455,-24.168854],[-55.332294,-24.1689],[-55.330978,-24.167901],[-55.330063,-24.166618],[-55.329126,-24.165885],[-55.329104,-24.164729],[-55.328125,-24.164678],[-55.327761,-24.164381],[-55.328069,-24.163206],[-55.327804,-24.162611],[-55.324387,-24.16252],[-55.323411,-24.160861],[-55.319791,-24.158866],[-55.319764,-24.158126],[-55.319236,-24.158029],[-55.318997,-24.157661],[-55.319531,-24.157518],[-55.319612,-24.155411],[-55.320343,-24.152908],[-55.319812,-24.151684],[-55.319976,-24.149627],[-55.319273,-24.148486],[-55.31923,-24.147131],[-55.317748,-24.146568],[-55.317964,-24.145185],[-55.316423,-24.144319],[-55.315993,-24.142811],[-55.315092,-24.141658],[-55.315399,-24.140303],[-55.31509,-24.138832],[-55.315331,-24.137115],[-55.315047,-24.136227],[-55.313513,-24.135514],[-55.312169,-24.133987],[-55.309615,-24.131882],[-55.30771,-24.131333],[-55.304465,-24.131653],[-55.302658,-24.13129],[-55.301185,-24.131454],[-55.300196,-24.131877],[-55.298938,-24.131366],[-55.294769,-24.131907],[-55.290821,-24.131456],[-55.287219,-24.132707],[-55.278583,-24.132723],[-55.275628,-24.134581],[-55.273253,-24.135209],[-55.26914,-24.135505],[-55.268066,-24.135222],[-55.265108,-24.133518],[-55.262628,-24.131856],[-55.26153,-24.13052],[-55.259813,-24.129453],[-55.254524,-24.12872],[-55.252575,-24.129827],[-55.251114,-24.129918],[-55.249896,-24.130473],[-55.247358,-24.131009],[-55.244134,-24.13136],[-55.242018,-24.130735],[-55.240769,-24.131538],[-55.238958,-24.131779],[-55.23753,-24.133645],[-55.235154,-24.135333],[-55.233842,-24.135575],[-55.231645,-24.137161],[-55.228546,-24.138624],[-55.228132,-24.139197],[-55.227024,-24.13937],[-55.225996,-24.13873],[-55.226229,-24.137509],[-55.225642,-24.134482],[-55.223872,-24.131852],[-55.218992,-24.129917],[-55.216757,-24.12953],[-55.214167,-24.129563],[-55.213292,-24.131083],[-55.211234,-24.132106],[-55.209056,-24.134081],[-55.207317,-24.134408],[-55.205598,-24.135146],[-55.205021,-24.136196],[-55.205017,-24.13797],[-55.203838,-24.137536],[-55.202059,-24.13938],[-55.199591,-24.139531],[-55.19883,-24.140443],[-55.198679,-24.141597],[-55.197335,-24.141645],[-55.195779,-24.142511],[-55.194868,-24.143774],[-55.193919,-24.144376],[-55.192448,-24.147478],[-55.190962,-24.14989],[-55.190082,-24.150552],[-55.189443,-24.15198],[-55.18827,-24.152259],[-55.187716,-24.15288],[-55.186238,-24.153662],[-55.183995,-24.153703],[-55.175846,-24.157831],[-55.175741,-24.160494],[-55.175347,-24.161771],[-55.175537,-24.163245],[-55.176397,-24.164443],[-55.175098,-24.166134],[-55.17162,-24.169582],[-55.171217,-24.170362],[-55.17024,-24.171145],[-55.169614,-24.172853],[-55.167617,-24.174057],[-55.165062,-24.17684],[-55.164706,-24.178424],[-55.165095,-24.180961],[-55.16362,-24.185223],[-55.162145,-24.18781],[-55.162102,-24.188618],[-55.161269,-24.190088],[-55.161545,-24.190895],[-55.161325,-24.191926],[-55.162144,-24.193182],[-55.164138,-24.195008],[-55.166244,-24.197557],[-55.167159,-24.199662],[-55.167503,-24.203644],[-55.171135,-24.204112],[-55.171446,-24.207113],[-55.175879,-24.220003],[-55.172186,-24.229792],[-55.178626,-24.229054],[-55.180117,-24.229749],[-55.180318,-24.231489],[-55.184074,-24.232929],[-55.185576,-24.235227],[-55.187249,-24.235093],[-55.189228,-24.235672],[-55.19064,-24.235662],[-55.192168,-24.235089],[-55.195157,-24.234813],[-55.197729,-24.236802],[-55.198098,-24.239204],[-55.198673,-24.239901],[-55.199401,-24.240208],[-55.200825,-24.239439],[-55.203826,-24.23938],[-55.206483,-24.240012],[-55.208464,-24.241439],[-55.208658,-24.241852],[-55.208394,-24.249912],[-55.209558,-24.25218],[-55.201788,-24.26024],[-55.197633,-24.262597],[-55.196158,-24.263839],[-55.192451,-24.268784],[-55.193154,-24.272981],[-55.192485,-24.278003],[-55.191611,-24.281071],[-55.190569,-24.282734],[-55.190356,-24.285697],[-55.189045,-24.289194],[-55.188199,-24.290502],[-55.188397,-24.291448],[-55.187994,-24.292639],[-55.188183,-24.293598],[-55.186316,-24.295698],[-55.185875,-24.296659],[-55.185646,-24.298065],[-55.185992,-24.299292],[-55.185588,-24.300931],[-55.18549,-24.304275],[-55.184892,-24.306701],[-55.18414,-24.308299],[-55.184633,-24.310111],[-55.184395,-24.312591],[-55.185488,-24.313565],[-55.18599,-24.314863],[-55.186846,-24.315392],[-55.187462,-24.317471],[-55.189189,-24.317889],[-55.189718,-24.318302],[-55.190554,-24.320492],[-55.190942,-24.32033],[-55.190823,-24.319656],[-55.191109,-24.319239],[-55.191677,-24.320718],[-55.192514,-24.320674],[-55.19204,-24.321305],[-55.192918,-24.321681],[-55.193162,-24.322587],[-55.192985,-24.323307],[-55.193709,-24.323514],[-55.193871,-24.324551],[-55.194307,-24.324112],[-55.194586,-24.32428],[-55.194515,-24.324882],[-55.193786,-24.325518],[-55.195241,-24.324962],[-55.195029,-24.325604],[-55.193855,-24.326178],[-55.194986,-24.326392],[-55.19489,-24.327143],[-55.19588,-24.327356],[-55.196089,-24.326943],[-55.19736,-24.326693],[-55.197311,-24.326233],[-55.197909,-24.326018],[-55.1986,-24.326342],[-55.198679,-24.325777],[-55.199127,-24.32614],[-55.199528,-24.325995],[-55.199742,-24.32528],[-55.200648,-24.326467],[-55.200352,-24.32695],[-55.200597,-24.327304],[-55.201236,-24.326932],[-55.202036,-24.327329],[-55.200896,-24.327724],[-55.201119,-24.329066],[-55.200869,-24.329644],[-55.201475,-24.329364],[-55.201664,-24.329811],[-55.202581,-24.329686],[-55.202495,-24.330237],[-55.203286,-24.329035],[-55.203644,-24.329175],[-55.20387,-24.329823],[-55.20468,-24.329503],[-55.204399,-24.328926],[-55.20505,-24.329299],[-55.204583,-24.328584],[-55.205045,-24.328009],[-55.205554,-24.327951],[-55.206401,-24.328376],[-55.206863,-24.327744],[-55.206573,-24.327232],[-55.207569,-24.327609],[-55.207605,-24.327266],[-55.206799,-24.32674],[-55.207602,-24.326377],[-55.207777,-24.325648],[-55.208455,-24.325262],[-55.209588,-24.326393],[-55.21023,-24.325842],[-55.209972,-24.326921],[-55.210696,-24.326034],[-55.211779,-24.327451],[-55.211961,-24.327295],[-55.211653,-24.326382],[-55.21217,-24.326338],[-55.212348,-24.32702],[-55.213269,-24.327203],[-55.213459,-24.328166],[-55.214429,-24.329224],[-55.213924,-24.33068],[-55.214528,-24.331074],[-55.213672,-24.331365],[-55.214163,-24.332037],[-55.213513,-24.332058],[-55.213335,-24.333066],[-55.212477,-24.332935],[-55.212027,-24.333166],[-55.212054,-24.333496],[-55.212765,-24.333554],[-55.212407,-24.334016],[-55.212425,-24.334382],[-55.21289,-24.33471],[-55.212748,-24.335303],[-55.214304,-24.334827],[-55.21482,-24.334288],[-55.215482,-24.334453],[-55.21578,-24.333848],[-55.216571,-24.334344],[-55.216588,-24.334796],[-55.217118,-24.334931],[-55.216823,-24.335903],[-55.217194,-24.336215],[-55.218788,-24.335195],[-55.220717,-24.334873],[-55.22188,-24.335639],[-55.221804,-24.334907],[-55.223369,-24.334833],[-55.223871,-24.335283],[-55.223922,-24.334459],[-55.224885,-24.334922],[-55.22452,-24.336451],[-55.223768,-24.337073],[-55.224337,-24.338313],[-55.223375,-24.34058],[-55.223968,-24.341827],[-55.223398,-24.342294],[-55.224304,-24.342426],[-55.223751,-24.342806],[-55.22471,-24.343018],[-55.224228,-24.34393],[-55.224645,-24.344286],[-55.224219,-24.344561],[-55.224598,-24.344845],[-55.224498,-24.345331],[-55.225267,-24.345161],[-55.225471,-24.345665],[-55.225478,-24.344583],[-55.226448,-24.344601],[-55.226624,-24.344854],[-55.22586,-24.34582],[-55.226699,-24.345693],[-55.227758,-24.346573],[-55.227705,-24.345848],[-55.228657,-24.345465],[-55.228538,-24.346202],[-55.228734,-24.346118],[-55.229212,-24.345486],[-55.229277,-24.344756],[-55.229727,-24.346137],[-55.230107,-24.345876],[-55.231579,-24.346897],[-55.231167,-24.349508],[-55.230427,-24.349256],[-55.231157,-24.350189],[-55.23064,-24.350835],[-55.231079,-24.351313],[-55.230702,-24.351473],[-55.23022,-24.351224],[-55.230443,-24.352646],[-55.229914,-24.352984],[-55.23173,-24.352883],[-55.231726,-24.353743],[-55.232506,-24.353903],[-55.232326,-24.353363],[-55.233929,-24.352837],[-55.234528,-24.351396],[-55.236514,-24.349792],[-55.237078,-24.349742],[-55.237508,-24.350284],[-55.237509,-24.351911],[-55.237964,-24.352397],[-55.2414,-24.353382],[-55.242384,-24.352971],[-55.243242,-24.353683],[-55.244879,-24.353588],[-55.245561,-24.354606],[-55.246651,-24.354977],[-55.246514,-24.356387],[-55.24564,-24.356829],[-55.24681,-24.357086],[-55.244717,-24.357965],[-55.244608,-24.358995],[-55.24521,-24.359597],[-55.246396,-24.35984],[-55.246608,-24.359226],[-55.247136,-24.35896],[-55.247791,-24.35909],[-55.247666,-24.358536],[-55.248164,-24.358714],[-55.249053,-24.358366],[-55.249324,-24.358548],[-55.249191,-24.359106],[-55.249472,-24.359216],[-55.251213,-24.3589],[-55.252233,-24.359212],[-55.253257,-24.360443],[-55.255105,-24.361431],[-55.256859,-24.364218],[-55.256989,-24.364958],[-55.257607,-24.365008],[-55.25834,-24.364572],[-55.258245,-24.365216],[-55.258502,-24.365326],[-55.258885,-24.364772],[-55.259325,-24.364676],[-55.25902,-24.365791],[-55.259639,-24.365719],[-55.260415,-24.36504],[-55.26103,-24.365864],[-55.261774,-24.36636],[-55.262337,-24.366388],[-55.26256,-24.365516],[-55.262899,-24.365312],[-55.26256,-24.364921],[-55.263923,-24.364822],[-55.265141,-24.36503],[-55.265011,-24.365351],[-55.264385,-24.365372],[-55.26429,-24.36603],[-55.266164,-24.365686],[-55.266387,-24.365402],[-55.26684,-24.366038],[-55.267157,-24.365741],[-55.266808,-24.364999],[-55.267399,-24.364625],[-55.266275,-24.364498],[-55.266851,-24.364139],[-55.270106,-24.363538],[-55.271036,-24.363592],[-55.274937,-24.364969],[-55.275885,-24.364851],[-55.276476,-24.363998],[-55.277192,-24.363641],[-55.277298,-24.363907],[-55.276829,-24.364518],[-55.277596,-24.365071],[-55.278361,-24.364019],[-55.278697,-24.364632],[-55.27929,-24.364754],[-55.280067,-24.363953],[-55.281119,-24.3637],[-55.282223,-24.364199],[-55.282627,-24.363853],[-55.283569,-24.364759],[-55.283989,-24.36442],[-55.2842,-24.36554],[-55.284496,-24.365651],[-55.284865,-24.364953],[-55.28554,-24.364825],[-55.285569,-24.364431],[-55.28594,-24.364743],[-55.286922,-24.364432],[-55.286951,-24.363486],[-55.2875,-24.363937],[-55.288388,-24.36366],[-55.288201,-24.362984],[-55.288439,-24.362191],[-55.287909,-24.362035],[-55.288715,-24.361471],[-55.288049,-24.360947],[-55.288313,-24.359896],[-55.288895,-24.359667],[-55.290907,-24.360184],[-55.291391,-24.359645],[-55.291883,-24.360338],[-55.292362,-24.359605],[-55.29295,-24.359547],[-55.292964,-24.359039],[-55.293652,-24.359097],[-55.293597,-24.358523],[-55.2946,-24.359587],[-55.29503,-24.359012],[-55.295923,-24.359502],[-55.296308,-24.358818],[-55.297479,-24.360193],[-55.299115,-24.359524],[-55.299076,-24.358892],[-55.299933,-24.359203],[-55.299989,-24.35967],[-55.300689,-24.359978],[-55.302127,-24.359536],[-55.302556,-24.35901],[-55.302693,-24.359341],[-55.301733,-24.360348],[-55.301688,-24.360742],[-55.302829,-24.360827],[-55.302936,-24.36105],[-55.301636,-24.361143],[-55.301854,-24.361819],[-55.302579,-24.361992],[-55.302503,-24.362414],[-55.303132,-24.362751],[-55.30331,-24.363527],[-55.303283,-24.363777],[-55.302553,-24.363912],[-55.302415,-24.364312],[-55.303154,-24.364621],[-55.303428,-24.365191],[-55.304222,-24.36492],[-55.304778,-24.365485],[-55.305292,-24.364466],[-55.306476,-24.364902],[-55.306462,-24.364164],[-55.307449,-24.364691],[-55.308086,-24.364447],[-55.308223,-24.364714],[-55.307582,-24.365237],[-55.307945,-24.365571],[-55.309281,-24.363952],[-55.31002,-24.36368],[-55.309762,-24.363111],[-55.310429,-24.361793],[-55.311215,-24.361486],[-55.311326,-24.360785],[-55.312093,-24.360815],[-55.311428,-24.360177],[-55.311996,-24.359854],[-55.312152,-24.359261],[-55.312523,-24.359057],[-55.313253,-24.359445],[-55.314465,-24.358305],[-55.314563,-24.357983],[-55.313813,-24.357366],[-55.314756,-24.357003],[-55.314267,-24.356117],[-55.315142,-24.356205],[-55.315728,-24.354535],[-55.316486,-24.35397],[-55.316531,-24.353547],[-55.317078,-24.353589],[-55.317364,-24.353277],[-55.31776,-24.353489],[-55.317709,-24.354392],[-55.31866,-24.353442],[-55.3188,-24.35444],[-55.319644,-24.353589],[-55.319755,-24.354085],[-55.32045,-24.354737],[-55.320658,-24.354403],[-55.320338,-24.353776],[-55.321201,-24.354158],[-55.321978,-24.353973],[-55.321992,-24.354726],[-55.322316,-24.355038],[-55.321857,-24.355434],[-55.322751,-24.35644],[-55.322361,-24.356995],[-55.322245,-24.358061],[-55.323001,-24.35769],[-55.322878,-24.356914],[-55.323163,-24.356631],[-55.323801,-24.356946],[-55.324264,-24.356851],[-55.32479,-24.357301],[-55.324846,-24.356621],[-55.325814,-24.357348],[-55.325774,-24.356251],[-55.326352,-24.356888],[-55.327175,-24.356733],[-55.327577,-24.357697],[-55.32822,-24.357604],[-55.328616,-24.35844],[-55.329344,-24.35839],[-55.329703,-24.357843],[-55.330108,-24.35865],[-55.331027,-24.35833],[-55.331579,-24.358573],[-55.332352,-24.358144],[-55.332768,-24.358593],[-55.333417,-24.358643],[-55.333518,-24.359289],[-55.333875,-24.358906],[-55.334442,-24.359199],[-55.334822,-24.358293],[-55.335186,-24.359193],[-55.335447,-24.358379],[-55.336179,-24.358623],[-55.335931,-24.357847],[-55.336581,-24.358355],[-55.336665,-24.359173],[-55.338305,-24.358873],[-55.339597,-24.359541],[-55.340732,-24.359019],[-55.340814,-24.359495],[-55.340337,-24.360072],[-55.340615,-24.360266],[-55.341176,-24.35952],[-55.34117,-24.358465],[-55.341464,-24.358388],[-55.34171,-24.358773],[-55.341611,-24.359877],[-55.342216,-24.359504],[-55.342439,-24.358393],[-55.34314,-24.35791],[-55.342639,-24.356564],[-55.343004,-24.356099],[-55.34294,-24.355516],[-55.343943,-24.354849],[-55.344,-24.354225],[-55.344582,-24.354838],[-55.345181,-24.354889],[-55.344838,-24.353918],[-55.345919,-24.35332],[-55.346371,-24.353665],[-55.346164,-24.354479],[-55.346892,-24.354938],[-55.347791,-24.354042],[-55.348473,-24.353942],[-55.34914,-24.355061],[-55.350967,-24.355009],[-55.350833,-24.356017],[-55.351406,-24.355835],[-55.35214,-24.356058],[-55.351862,-24.356596],[-55.352279,-24.357888],[-55.352795,-24.357355],[-55.353175,-24.357984],[-55.354518,-24.35801],[-55.353579,-24.356976],[-55.353638,-24.356687],[-55.354638,-24.357268],[-55.354888,-24.357856],[-55.355287,-24.357774],[-55.355766,-24.357029],[-55.355979,-24.357172],[-55.35582,-24.357878],[-55.356277,-24.358394],[-55.357236,-24.358342],[-55.357869,-24.359012],[-55.358451,-24.358397],[-55.358583,-24.359808],[-55.359073,-24.359467],[-55.359419,-24.359984],[-55.360212,-24.35944],[-55.360299,-24.360773],[-55.360947,-24.360529],[-55.361277,-24.360736],[-55.360313,-24.361194],[-55.36099,-24.361742],[-55.360745,-24.362334],[-55.361387,-24.362834],[-55.361955,-24.362571],[-55.361335,-24.363371],[-55.361509,-24.363731],[-55.362226,-24.363757],[-55.36311,-24.363262],[-55.363853,-24.363769],[-55.363708,-24.364675],[-55.364379,-24.364715],[-55.363967,-24.36529],[-55.363913,-24.366239],[-55.365179,-24.366677],[-55.365415,-24.36656],[-55.365301,-24.366084],[-55.365614,-24.366064],[-55.366389,-24.366625],[-55.366852,-24.365889],[-55.367253,-24.365908],[-55.368291,-24.366307],[-55.369191,-24.367303],[-55.369982,-24.367709],[-55.369906,-24.367992],[-55.369124,-24.367759],[-55.369728,-24.368919],[-55.368868,-24.369109],[-55.368855,-24.369381],[-55.369504,-24.369845],[-55.370458,-24.369201],[-55.371246,-24.370046],[-55.371184,-24.369311],[-55.371912,-24.369516],[-55.371593,-24.370746],[-55.370849,-24.370538],[-55.370783,-24.370812],[-55.37137,-24.371302],[-55.372361,-24.371094],[-55.372699,-24.371468],[-55.372647,-24.371958],[-55.373406,-24.371775],[-55.372902,-24.37444],[-55.371814,-24.374717],[-55.369039,-24.376994],[-55.368351,-24.377172],[-55.367977,-24.37771],[-55.365758,-24.378088],[-55.363902,-24.378917],[-55.360651,-24.379527],[-55.359833,-24.380231],[-55.358561,-24.382967],[-55.357543,-24.383669],[-55.355978,-24.385427],[-55.351355,-24.385702],[-55.349789,-24.386709],[-55.348546,-24.386903],[-55.346142,-24.389455],[-55.345463,-24.390775],[-55.343928,-24.391259],[-55.342097,-24.391424],[-55.340946,-24.392595],[-55.340463,-24.393587],[-55.339428,-24.393526],[-55.338835,-24.393809],[-55.338653,-24.394398],[-55.339458,-24.395088],[-55.339533,-24.39564],[-55.338313,-24.396363],[-55.337874,-24.396218],[-55.337867,-24.396922],[-55.335508,-24.399894],[-55.334882,-24.401928],[-55.334178,-24.402389],[-55.333152,-24.403931],[-55.332474,-24.404334],[-55.332632,-24.405492],[-55.333256,-24.40567],[-55.3327,-24.406116],[-55.33239,-24.406907],[-55.331685,-24.407468],[-55.331075,-24.407159],[-55.330298,-24.407353],[-55.328832,-24.408863],[-55.327824,-24.408816],[-55.327885,-24.409322],[-55.327441,-24.409037],[-55.326879,-24.40923],[-55.326613,-24.409854],[-55.327419,-24.41008],[-55.326016,-24.410683],[-55.326029,-24.411464],[-55.326638,-24.411927],[-55.32643,-24.414534],[-55.325638,-24.414733],[-55.325587,-24.415455],[-55.325914,-24.415657],[-55.325295,-24.416585],[-55.324808,-24.416751],[-55.324633,-24.417841],[-55.324113,-24.418043],[-55.324516,-24.419655],[-55.324444,-24.420674],[-55.324881,-24.421176],[-55.324498,-24.421781],[-55.323842,-24.421399],[-55.323444,-24.42181],[-55.323883,-24.423192],[-55.323568,-24.423834],[-55.323059,-24.424018],[-55.322585,-24.427381],[-55.322612,-24.429521],[-55.322154,-24.431164],[-55.321769,-24.431584],[-55.322082,-24.433312],[-55.364676,-24.436392],[-55.367637,-24.435887],[-55.394941,-24.427646],[-55.397692,-24.427233],[-55.400272,-24.427418]]]}}]}
