{"type":"FeatureCollection","name":"distrito","features":[{"type":"Feature","properties":{"clave":"10-11","nombre":"Juan E. O'Leary"},"geometry":{"type":"Polygon","coordinates":[[[-55.412305,-25.594289],[-55.411716,-25.593174],[-55.411854,-25.592476],[-55.413141,-25.592329],[-55.413489,-25.590737],[-55.414845,-25.589864],[-55.41541,-25.589018],[-55.415011,-25.588503],[-55.412822,-25.588766],[-55.412493,-25.588233],[-55.412798,-25.587654],[-55.41344,-25.586881],[-55.417512,-25.587014],[-55.418132,-25.586501],[-55.418049,-25.586061],[-55.416994,-25.585816],[-55.415049,-25.586378],[-55.414279,-25.586298],[-55.413759,-25.585978],[-55.413088,-25.584402],[-55.414667,-25.582375],[-55.415426,-25.582517],[-55.415874,-25.582298],[-55.41599,-25.581725],[-55.417107,-25.580267],[-55.417085,-25.579675],[-55.415681,-25.578153],[-55.416188,-25.576446],[-55.416713,-25.576353],[-55.417097,-25.577971],[-55.418033,-25.578233],[-55.418702,-25.577808],[-55.41891,-25.576243],[-55.420528,-25.57574],[-55.420165,-25.574759],[-55.420332,-25.573299],[-55.418671,-25.572546],[-55.418195,-25.571967],[-55.418238,-25.571653],[-55.420121,-25.571342],[-55.420392,-25.571049],[-55.420396,-25.570744],[-55.419152,-25.569834],[-55.419108,-25.568695],[-55.41946,-25.568196],[-55.421294,-25.567858],[-55.421534,-25.566899],[-55.420868,-25.566391],[-55.419335,-25.566456],[-55.418856,-25.56602],[-55.418941,-25.56559],[-55.419432,-25.565067],[-55.420088,-25.563281],[-55.422049,-25.561481],[-55.422118,-25.560747],[-55.421286,-25.559357],[-55.421408,-25.559116],[-55.421991,-25.559132],[-55.423026,-25.560102],[-55.424195,-25.559962],[-55.425156,-25.55904],[-55.425033,-25.557864],[-55.423415,-25.55686],[-55.423238,-25.555998],[-55.424245,-25.555363],[-55.42473,-25.555465],[-55.425298,-25.557185],[-55.426062,-25.557542],[-55.426096,-25.557101],[-55.418529,-25.527595],[-55.409743,-25.490715],[-55.4082,-25.48204],[-55.406539,-25.47512],[-55.382659,-25.380192],[-55.378436,-25.361914],[-55.355386,-25.357609],[-55.338556,-25.345122],[-55.32846,-25.33526],[-55.31318,-25.341488],[-55.30686,-25.349476],[-55.307103,-25.360316],[-55.305723,-25.367376],[-55.309034,-25.390252],[-55.313092,-25.409235],[-55.321485,-25.451669],[-55.330932,-25.503751],[-55.334028,-25.519974],[-55.335105,-25.523304],[-55.344275,-25.57391],[-55.347186,-25.588519],[-55.347002,-25.588659],[-55.348907,-25.591002],[-55.349554,-25.593945],[-55.351376,-25.596469],[-55.357801,-25.601409],[-55.360758,-25.603068],[-55.360465,-25.605232],[-55.361219,-25.606676],[-55.36204,-25.607051],[-55.362518,-25.606786],[-55.363256,-25.60426],[-55.363945,-25.60398],[-55.364573,-25.604402],[-55.364196,-25.606231],[-55.364278,-25.607921],[-55.36488,-25.608948],[-55.365651,-25.6091],[-55.368787,-25.607334],[-55.370033,-25.607523],[-55.369918,-25.608176],[-55.368271,-25.60905],[-55.368173,-25.609798],[-55.368589,-25.610265],[-55.369984,-25.609802],[-55.370792,-25.609843],[-55.373156,-25.611894],[-55.372199,-25.613732],[-55.372264,-25.614148],[-55.373495,-25.615421],[-55.373849,-25.616508],[-55.373618,-25.61802],[-55.372828,-25.619191],[-55.373239,-25.619977],[-55.375401,-25.62008],[-55.377132,-25.619462],[-55.377709,-25.619692],[-55.378362,-25.620831],[-55.378432,-25.622154],[-55.379197,-25.622785],[-55.382252,-25.621782],[-55.382772,-25.622362],[-55.382819,-25.624116],[-55.383431,-25.625669],[-55.384597,-25.62659],[-55.385665,-25.626905],[-55.387365,-25.625999],[-55.388386,-25.625947],[-55.389509,-25.628733],[-55.390133,-25.629409],[-55.391463,-25.629838],[-55.394777,-25.629237],[-55.396831,-25.628144],[-55.398241,-25.626581],[-55.398729,-25.62563],[-55.398779,-25.624483],[-55.400045,-25.623158],[-55.400234,-25.622219],[-55.401037,-25.621336],[-55.401244,-25.62027],[-55.400294,-25.619259],[-55.401139,-25.618973],[-55.401532,-25.618147],[-55.401303,-25.617818],[-55.400133,-25.618047],[-55.39963,-25.61788],[-55.399412,-25.617187],[-55.401034,-25.616452],[-55.401496,-25.615937],[-55.399443,-25.614865],[-55.39928,-25.613761],[-55.400109,-25.613124],[-55.402335,-25.613848],[-55.403922,-25.613462],[-55.403647,-25.612562],[-55.402669,-25.611726],[-55.400444,-25.611747],[-55.399918,-25.611176],[-55.401441,-25.609615],[-55.402037,-25.607998],[-55.401563,-25.606388],[-55.399963,-25.605519],[-55.39929,-25.604848],[-55.39926,-25.604094],[-55.403821,-25.599437],[-55.404668,-25.59976],[-55.405056,-25.600318],[-55.404984,-25.601279],[-55.405239,-25.601389],[-55.405548,-25.601231],[-55.40589,-25.600078],[-55.408404,-25.598393],[-55.408623,-25.59749],[-55.409733,-25.595825],[-55.409817,-25.595283],[-55.409308,-25.594287],[-55.409716,-25.593386],[-55.410705,-25.59337],[-55.411662,-25.594595],[-55.412305,-25.594289]]]}}]}
