{"type":"FeatureCollection","name":"distrito","features":[{"type":"Feature","properties":{"clave":"13-0","nombre":"Pedro Juan Caballero"},"geometry":{"type":"Polygon","coordinates":[[[-56.217794,-23.306891],[-56.220235,-23.305481],[-56.221594,-23.305838],[-56.223031,-23.308319],[-56.22316,-23.309186],[-56.222303,-23.310624],[-56.219948,-23.312571],[-56.220409,-23.313893],[-56.221563,-23.315094],[-56.222018,-23.317467],[-56.221815,-23.317796],[-56.219154,-23.318628],[-56.218616,-23.319038],[-56.217893,-23.320395],[-56.217957,-23.320931],[-56.2211,-23.321792],[-56.224692,-23.322057],[-56.225545,-23.32134],[-56.224995,-23.319915],[-56.225022,-23.31907],[-56.225359,-23.31868],[-56.226786,-23.319058],[-56.229063,-23.322842],[-56.230106,-23.327733],[-56.230703,-23.328746],[-56.231526,-23.329307],[-56.232173,-23.329351],[-56.233046,-23.328922],[-56.23341,-23.328208],[-56.233692,-23.325735],[-56.235082,-23.32282],[-56.235548,-23.320302],[-56.237492,-23.317157],[-56.238294,-23.314532],[-56.238682,-23.313947],[-56.239471,-23.313579],[-56.241112,-23.313572],[-56.242395,-23.314568],[-56.243874,-23.316492],[-56.247757,-23.31922],[-56.249524,-23.322116],[-56.250228,-23.321923],[-56.25147,-23.319934],[-56.251949,-23.319716],[-56.254605,-23.320761],[-56.256764,-23.32091],[-56.259437,-23.323416],[-56.259684,-23.326455],[-56.260269,-23.327386],[-56.261047,-23.327355],[-56.262256,-23.326769],[-56.263026,-23.326019],[-56.263816,-23.324005],[-56.264168,-23.323879],[-56.267252,-23.324902],[-56.269643,-23.323847],[-56.270208,-23.323872],[-56.272237,-23.324879],[-56.272745,-23.328465],[-56.273817,-23.329908],[-56.274274,-23.33122],[-56.276805,-23.332334],[-56.277913,-23.331852],[-56.278954,-23.329618],[-56.282177,-23.328079],[-56.282766,-23.328372],[-56.281744,-23.329214],[-56.281918,-23.329713],[-56.285616,-23.328582],[-56.286104,-23.328735],[-56.286728,-23.329596],[-56.287132,-23.33143],[-56.287507,-23.331733],[-56.289444,-23.328924],[-56.29045,-23.328697],[-56.292355,-23.329239],[-56.293731,-23.33037],[-56.2943,-23.332054],[-56.29321,-23.336235],[-56.293452,-23.337941],[-56.29174,-23.33878],[-56.291068,-23.33996],[-56.293573,-23.343624],[-56.294464,-23.343628],[-56.297385,-23.342261],[-56.298771,-23.339055],[-56.300157,-23.338122],[-56.300924,-23.337998],[-56.301376,-23.338069],[-56.302025,-23.338722],[-56.30437,-23.341863],[-56.307561,-23.344092],[-56.30941,-23.345944],[-56.311917,-23.34686],[-56.312634,-23.346689],[-56.314223,-23.345397],[-56.313593,-23.344539],[-56.31487,-23.341103],[-56.314612,-23.340447],[-56.313394,-23.33971],[-56.313369,-23.339218],[-56.314021,-23.338191],[-56.313382,-23.337763],[-56.310359,-23.337037],[-56.309769,-23.335756],[-56.31172,-23.333601],[-56.311407,-23.332701],[-56.31205,-23.33017],[-56.311411,-23.32972],[-56.310177,-23.330094],[-56.30989,-23.329587],[-56.310217,-23.328762],[-56.31193,-23.327555],[-56.311682,-23.326845],[-56.308765,-23.32503],[-56.307494,-23.326149],[-56.30607,-23.326698],[-56.302506,-23.3268],[-56.30092,-23.325383],[-56.299853,-23.32149],[-56.299304,-23.320887],[-56.298451,-23.320937],[-56.296802,-23.321774],[-56.295181,-23.320467],[-56.290407,-23.319921],[-56.287564,-23.317844],[-56.287887,-23.315872],[-56.289568,-23.31429],[-56.28985,-23.313609],[-56.289536,-23.310699],[-56.290272,-23.309632],[-56.289163,-23.308539],[-56.289303,-23.307428],[-56.290342,-23.306973],[-56.293392,-23.307867],[-56.295232,-23.307794],[-56.298039,-23.307066],[-56.299545,-23.305677],[-56.300122,-23.304275],[-56.300275,-23.302921],[-56.298917,-23.299519],[-56.299476,-23.296509],[-56.298978,-23.295757],[-56.296104,-23.296552],[-56.294214,-23.292447],[-56.292956,-23.290748],[-56.292151,-23.290442],[-56.291472,-23.28977],[-56.288443,-23.288601],[-56.287124,-23.287619],[-56.286137,-23.287493],[-56.285456,-23.287973],[-56.285067,-23.287921],[-56.284976,-23.287406],[-56.286001,-23.286909],[-56.286086,-23.286558],[-56.285108,-23.284607],[-56.283851,-23.283327],[-56.281864,-23.282745],[-56.281779,-23.282433],[-56.282436,-23.281446],[-56.282437,-23.280692],[-56.284042,-23.280767],[-56.285802,-23.279655],[-56.287207,-23.279901],[-56.28836,-23.278601],[-56.288305,-23.278262],[-56.287103,-23.277295],[-56.286893,-23.273681],[-56.285661,-23.271485],[-56.281255,-23.271081],[-56.280167,-23.272114],[-56.278425,-23.272883],[-56.277939,-23.272899],[-56.276605,-23.272062],[-56.274736,-23.272658],[-56.272236,-23.273943],[-56.271344,-23.273018],[-56.271316,-23.272516],[-56.27346,-23.27146],[-56.273586,-23.271077],[-56.273026,-23.269548],[-56.272165,-23.268297],[-56.27187,-23.265789],[-56.269093,-23.26406],[-56.268236,-23.261536],[-56.270492,-23.261163],[-56.27257,-23.259027],[-56.273978,-23.260041],[-56.274465,-23.259944],[-56.27568,-23.258983],[-56.275595,-23.258061],[-56.274531,-23.257564],[-56.273952,-23.256401],[-56.273242,-23.256041],[-56.271515,-23.256832],[-56.269788,-23.256874],[-56.267955,-23.256364],[-56.266625,-23.254808],[-56.266018,-23.254846],[-56.265291,-23.255371],[-56.264885,-23.255265],[-56.264625,-23.25376],[-56.263788,-23.252551],[-56.266513,-23.250418],[-56.266793,-23.248924],[-56.263917,-23.248861],[-56.262449,-23.24637],[-56.260562,-23.245598],[-56.259565,-23.244555],[-56.259082,-23.244679],[-56.257731,-23.246177],[-56.256437,-23.246405],[-56.254828,-23.24554],[-56.255257,-23.243785],[-56.255055,-23.243391],[-56.252394,-23.243437],[-56.250475,-23.24411],[-56.249721,-23.243474],[-56.248038,-23.243032],[-56.246061,-23.24137],[-56.243746,-23.24079],[-56.242443,-23.239939],[-56.240964,-23.240108],[-56.239977,-23.240817],[-56.239513,-23.240832],[-56.23891,-23.23816],[-56.236447,-23.235777],[-56.235977,-23.234316],[-56.236354,-23.233681],[-56.238152,-23.232227],[-56.240573,-23.232103],[-56.241334,-23.231497],[-56.240693,-23.229561],[-56.238795,-23.226598],[-56.237484,-23.226416],[-56.236503,-23.226673],[-56.235577,-23.22908],[-56.234693,-23.230169],[-56.233411,-23.230885],[-56.223724,-23.230937],[-56.220486,-23.232926],[-56.219009,-23.234825],[-56.218491,-23.235016],[-56.215998,-23.234033],[-56.211506,-23.230664],[-56.211558,-23.226206],[-56.213604,-23.224388],[-56.213817,-23.222808],[-56.213591,-23.22217],[-56.211734,-23.221366],[-56.21064,-23.221527],[-56.210618,-23.222038],[-56.211842,-23.222807],[-56.212068,-23.223612],[-56.211883,-23.224234],[-56.211203,-23.224457],[-56.210331,-23.223463],[-56.209816,-23.223325],[-56.207645,-23.223829],[-56.206955,-23.22453],[-56.207039,-23.226301],[-56.206312,-23.226903],[-56.203128,-23.227338],[-56.201356,-23.226891],[-56.201079,-23.226587],[-56.201291,-23.225717],[-56.203254,-23.225275],[-56.203466,-23.224472],[-56.203285,-23.223166],[-56.202797,-23.222897],[-56.200455,-23.223093],[-56.199564,-23.222722],[-56.198694,-23.221435],[-56.198088,-23.219287],[-56.198521,-23.218833],[-56.199766,-23.218559],[-56.200135,-23.215996],[-56.202183,-23.216476],[-56.204205,-23.21557],[-56.205025,-23.206948],[-56.208131,-23.205383],[-56.208411,-23.204025],[-56.210153,-23.200511],[-56.211063,-23.200186],[-56.212253,-23.202246],[-56.212895,-23.202832],[-56.213832,-23.202358],[-56.214514,-23.201589],[-56.215341,-23.198843],[-56.214906,-23.198326],[-56.213428,-23.197822],[-56.212558,-23.195952],[-56.212495,-23.195012],[-56.213408,-23.191752],[-56.214328,-23.191558],[-56.21825,-23.191686],[-56.21866,-23.191182],[-56.217494,-23.188697],[-56.217302,-23.186871],[-56.217552,-23.185879],[-56.213419,-23.178817],[-56.2139,-23.175762],[-56.213561,-23.174469],[-56.212146,-23.173676],[-56.208922,-23.175376],[-56.206925,-23.175469],[-56.20546,-23.174631],[-56.203447,-23.174233],[-56.203114,-23.173838],[-56.202819,-23.17086],[-56.203141,-23.169344],[-56.203639,-23.168624],[-56.205382,-23.168132],[-56.206138,-23.167065],[-56.207092,-23.162965],[-56.207648,-23.162051],[-56.207526,-23.161671],[-56.207096,-23.161682],[-56.203973,-23.163658],[-56.202493,-23.163551],[-56.200268,-23.162704],[-56.20061,-23.164147],[-56.200258,-23.164434],[-56.198101,-23.162824],[-56.196553,-23.164054],[-56.194843,-23.164027],[-56.191595,-23.160872],[-56.190161,-23.160105],[-56.189479,-23.160134],[-56.187926,-23.16106],[-56.186869,-23.161258],[-56.183326,-23.161046],[-56.182436,-23.160544],[-56.182397,-23.160111],[-56.183143,-23.158913],[-56.183124,-23.156994],[-56.186346,-23.153614],[-56.185818,-23.151999],[-56.186695,-23.150775],[-56.184816,-23.150079],[-56.183098,-23.148232],[-56.182931,-23.147206],[-56.183796,-23.146171],[-56.186157,-23.145678],[-56.187032,-23.14486],[-56.187206,-23.143421],[-56.186407,-23.1424],[-56.186353,-23.139762],[-56.185934,-23.138735],[-56.187349,-23.138381],[-56.187614,-23.137375],[-56.188711,-23.13674],[-56.188676,-23.136139],[-56.189041,-23.135576],[-56.188919,-23.132766],[-56.187227,-23.132292],[-56.187063,-23.131921],[-56.187372,-23.130708],[-56.189087,-23.130527],[-56.189283,-23.129891],[-56.188485,-23.129115],[-56.187137,-23.129695],[-56.186227,-23.129352],[-56.186345,-23.12872],[-56.187914,-23.128778],[-56.18795,-23.127997],[-56.186971,-23.127237],[-56.187094,-23.126195],[-56.186845,-23.125674],[-56.185375,-23.12521],[-56.185813,-23.124305],[-56.18566,-23.123536],[-56.184974,-23.122955],[-56.183826,-23.122872],[-56.183965,-23.121734],[-56.18351,-23.121104],[-56.182052,-23.121648],[-56.181342,-23.121436],[-56.180335,-23.119232],[-56.179593,-23.11851],[-56.175337,-23.117494],[-56.174842,-23.117681],[-56.175246,-23.118866],[-56.17514,-23.119448],[-56.173938,-23.120228],[-56.17291,-23.12146],[-56.171326,-23.121768],[-56.170736,-23.122149],[-56.169474,-23.124793],[-56.168775,-23.124966],[-56.167778,-23.124256],[-56.166374,-23.124257],[-56.165415,-23.125792],[-56.163576,-23.124057],[-56.160837,-23.123103],[-56.155497,-23.12247],[-56.155017,-23.123325],[-56.15467,-23.123441],[-56.154277,-23.122951],[-56.153949,-23.121328],[-56.151765,-23.123073],[-56.151182,-23.12298],[-56.14928,-23.121691],[-56.148697,-23.121625],[-56.147914,-23.121684],[-56.147559,-23.122377],[-56.1464,-23.1229],[-56.144352,-23.123214],[-56.141744,-23.121167],[-56.14086,-23.119911],[-56.140408,-23.116377],[-56.139018,-23.114017],[-56.139407,-23.111593],[-56.139955,-23.111158],[-56.142249,-23.110475],[-56.145808,-23.109754],[-56.147322,-23.106903],[-56.145955,-23.105058],[-56.145095,-23.10531],[-56.144749,-23.106388],[-56.143744,-23.106274],[-56.144023,-23.103354],[-56.145405,-23.102137],[-56.146115,-23.099937],[-56.148173,-23.10016],[-56.151362,-23.09974],[-56.151895,-23.099313],[-56.152101,-23.098325],[-56.151657,-23.097768],[-56.149716,-23.097418],[-56.149011,-23.096963],[-56.148438,-23.095871],[-56.148208,-23.093589],[-56.145462,-23.091226],[-56.144642,-23.091176],[-56.143132,-23.091819],[-56.140552,-23.091958],[-56.139847,-23.091458],[-56.139214,-23.089774],[-56.138257,-23.088689],[-56.136144,-23.088222],[-56.136126,-23.086998],[-56.137596,-23.083795],[-56.137769,-23.082531],[-56.139267,-23.079721],[-56.138806,-23.078842],[-56.138698,-23.077487],[-56.135945,-23.076424],[-56.134189,-23.077291],[-56.131719,-23.075543],[-56.131229,-23.075612],[-56.130551,-23.076263],[-56.130212,-23.076207],[-56.129041,-23.075144],[-56.129891,-23.073013],[-56.128127,-23.072149],[-56.127512,-23.070037],[-56.125802,-23.069454],[-56.125949,-23.068913],[-56.127249,-23.068093],[-56.126346,-23.066864],[-56.126209,-23.064222],[-56.128434,-23.061899],[-56.128614,-23.061381],[-56.127001,-23.058721],[-56.126554,-23.055647],[-56.128172,-23.055249],[-56.12894,-23.054567],[-56.129335,-23.052871],[-56.129132,-23.051592],[-56.129547,-23.050348],[-56.129195,-23.049447],[-56.13188,-23.04756],[-56.131406,-23.045873],[-56.130793,-23.045518],[-56.129948,-23.045735],[-56.127719,-23.048284],[-56.126762,-23.047097],[-56.124556,-23.047959],[-56.124077,-23.048658],[-56.125614,-23.04932],[-56.125363,-23.04957],[-56.122304,-23.049736],[-56.123012,-23.046371],[-56.124163,-23.045746],[-56.123965,-23.045125],[-56.122644,-23.044457],[-56.120457,-23.04495],[-56.120144,-23.043294],[-56.119394,-23.042495],[-56.118407,-23.042267],[-56.118282,-23.04033],[-56.117755,-23.039833],[-56.117107,-23.03983],[-56.115896,-23.040756],[-56.115321,-23.039155],[-56.109801,-23.03784],[-56.109773,-23.03746],[-56.110663,-23.037099],[-56.111428,-23.036306],[-56.113095,-23.032552],[-56.114462,-23.032218],[-56.114553,-23.029717],[-56.114129,-23.029544],[-56.11227,-23.030261],[-56.111458,-23.030197],[-56.110217,-23.025766],[-56.109712,-23.02578],[-56.108309,-23.026826],[-56.106087,-23.025698],[-56.105686,-23.024639],[-56.10686,-23.023485],[-56.105342,-23.021365],[-56.10379,-23.018077],[-56.103004,-23.017411],[-56.10128,-23.016971],[-56.099962,-23.016063],[-56.100064,-23.01547],[-56.101399,-23.0137],[-56.102926,-23.012942],[-56.104008,-23.013162],[-56.104549,-23.012905],[-56.104525,-23.011776],[-56.103937,-23.010879],[-56.105385,-23.01096],[-56.105655,-23.010544],[-56.103882,-23.009988],[-56.103082,-23.009202],[-56.102729,-23.008084],[-56.103144,-23.00596],[-56.10268,-23.005649],[-56.101416,-23.005851],[-56.10039,-23.0051],[-56.099194,-23.002773],[-56.099508,-23.001284],[-56.097124,-23.001585],[-56.096863,-23.003219],[-56.095793,-23.003999],[-56.093015,-23.004281],[-56.091654,-23.002872],[-56.091654,-23.002348],[-56.09222,-23.001462],[-56.091765,-22.999853],[-56.093435,-22.998083],[-56.095099,-22.997722],[-56.094742,-22.996524],[-56.09612,-22.996555],[-56.098333,-22.995674],[-56.098282,-22.995241],[-56.096518,-22.99435],[-56.096513,-22.993995],[-56.098152,-22.99341],[-56.100688,-22.99181],[-56.101257,-22.990848],[-56.102132,-22.990676],[-56.102596,-22.99018],[-56.103215,-22.988248],[-56.104204,-22.987366],[-56.104343,-22.984172],[-56.105427,-22.983678],[-56.107424,-22.981442],[-56.109066,-22.980901],[-56.110114,-22.983016],[-56.110876,-22.983653],[-56.111422,-22.983802],[-56.11306,-22.983266],[-56.112761,-22.978693],[-56.113792,-22.977466],[-56.11336,-22.976816],[-56.111299,-22.97632],[-56.11053,-22.975611],[-56.108961,-22.975908],[-56.108333,-22.975501],[-56.110551,-22.972618],[-56.110345,-22.97138],[-56.111497,-22.970352],[-56.111156,-22.969666],[-56.11013,-22.968869],[-56.110196,-22.96794],[-56.109185,-22.967894],[-56.10871,-22.967347],[-56.108383,-22.966319],[-56.108618,-22.965188],[-56.106908,-22.964482],[-56.104464,-22.961961],[-56.103265,-22.961892],[-56.103045,-22.961392],[-56.103374,-22.960563],[-56.100846,-22.958978],[-56.099844,-22.957231],[-56.098248,-22.956826],[-56.098649,-22.956038],[-56.099428,-22.95546],[-56.100464,-22.956124],[-56.101334,-22.955717],[-56.101206,-22.954854],[-56.100417,-22.953357],[-56.100989,-22.951892],[-56.100843,-22.950543],[-56.099547,-22.950048],[-56.097421,-22.950769],[-56.09634,-22.949754],[-56.097242,-22.948289],[-56.097174,-22.947797],[-56.093823,-22.947045],[-56.09357,-22.9467],[-56.094388,-22.94557],[-56.094337,-22.944738],[-56.093629,-22.944306],[-56.091024,-22.944503],[-56.090271,-22.94356],[-56.090733,-22.942558],[-56.090668,-22.941475],[-56.090245,-22.941117],[-56.089336,-22.941182],[-56.088625,-22.940113],[-56.088584,-22.939768],[-56.089455,-22.938916],[-56.089962,-22.937863],[-56.091002,-22.937408],[-56.092095,-22.936407],[-56.091977,-22.935623],[-56.090769,-22.935275],[-56.089248,-22.93321],[-56.090611,-22.932167],[-56.09158,-22.932123],[-56.091842,-22.931207],[-56.091046,-22.930647],[-56.089093,-22.93083],[-56.088504,-22.930407],[-56.089114,-22.929469],[-56.090712,-22.929679],[-56.091376,-22.929165],[-56.090728,-22.928238],[-56.090747,-22.927508],[-56.090217,-22.926675],[-56.089825,-22.926485],[-56.088877,-22.927004],[-56.088272,-22.926644],[-56.088637,-22.925743],[-56.088619,-22.924495],[-56.089587,-22.924069],[-56.089112,-22.923536],[-56.088228,-22.923241],[-56.088334,-22.922683],[-56.089144,-22.922201],[-56.08922,-22.921786],[-56.087453,-22.920502],[-56.088242,-22.91818],[-56.088123,-22.916415],[-56.083526,-22.914235],[-56.082406,-22.914197],[-56.082958,-22.913053],[-56.08464,-22.912718],[-56.084625,-22.912012],[-56.083644,-22.911845],[-56.082637,-22.912394],[-56.081589,-22.911931],[-56.080642,-22.912307],[-56.079766,-22.911919],[-56.07979,-22.911363],[-56.080344,-22.910797],[-56.082003,-22.910691],[-56.083964,-22.909766],[-56.08257,-22.908428],[-56.082386,-22.906901],[-56.080443,-22.907468],[-56.07976,-22.906271],[-56.077732,-22.905065],[-56.077526,-22.905955],[-56.076481,-22.906404],[-56.077658,-22.907585],[-56.077157,-22.90837],[-56.076139,-22.908891],[-56.076854,-22.909519],[-56.076038,-22.911251],[-56.075591,-22.911231],[-56.074832,-22.910228],[-56.073944,-22.91033],[-56.073078,-22.910875],[-56.072873,-22.911605],[-56.071471,-22.912055],[-56.072215,-22.913241],[-56.071637,-22.913663],[-56.071149,-22.913517],[-56.069786,-22.911842],[-56.070521,-22.911059],[-56.071802,-22.910471],[-56.072778,-22.908346],[-56.074138,-22.907571],[-56.074212,-22.904505],[-56.072937,-22.90451],[-56.072628,-22.903362],[-56.07135,-22.903541],[-56.070861,-22.904121],[-56.070082,-22.904436],[-56.069945,-22.904824],[-56.071592,-22.905175],[-56.072059,-22.905717],[-56.070106,-22.906531],[-56.069246,-22.906494],[-56.068654,-22.904489],[-56.066836,-22.90467],[-56.065286,-22.903825],[-56.066341,-22.901877],[-56.065925,-22.901206],[-56.0664,-22.900266],[-56.066134,-22.899908],[-56.064436,-22.899589],[-56.063417,-22.898253],[-56.062306,-22.898341],[-56.062469,-22.896928],[-56.059905,-22.896855],[-56.058921,-22.897101],[-56.058268,-22.895005],[-56.058456,-22.892958],[-56.056932,-22.89346],[-56.054485,-22.892884],[-56.054261,-22.891338],[-56.053095,-22.890618],[-56.052776,-22.889445],[-56.051293,-22.888945],[-56.050867,-22.888383],[-56.050932,-22.887901],[-56.052274,-22.887655],[-56.052394,-22.886577],[-56.053474,-22.887066],[-56.053669,-22.886767],[-56.053074,-22.885955],[-56.051029,-22.885965],[-56.050729,-22.885743],[-56.051396,-22.883937],[-56.052369,-22.882834],[-56.052169,-22.882353],[-56.05129,-22.881926],[-56.051141,-22.880902],[-56.050383,-22.880041],[-56.049593,-22.880043],[-56.048566,-22.879359],[-56.044601,-22.883751],[-56.043719,-22.885101],[-56.042551,-22.885568],[-56.041151,-22.885543],[-56.038102,-22.887181],[-56.036222,-22.889941],[-56.036123,-22.89077],[-56.036896,-22.891527],[-56.036987,-22.892279],[-56.03673,-22.892864],[-56.036026,-22.892932],[-56.033644,-22.891767],[-56.033932,-22.890408],[-56.035169,-22.889211],[-56.034102,-22.887458],[-56.033721,-22.887278],[-56.031385,-22.887591],[-56.031076,-22.887318],[-56.031723,-22.885487],[-56.03271,-22.885202],[-56.032599,-22.884557],[-56.030567,-22.88461],[-56.030548,-22.885559],[-56.0293,-22.886],[-56.029048,-22.885897],[-56.028754,-22.884594],[-56.026523,-22.884644],[-56.025306,-22.883159],[-56.02554,-22.8816],[-56.02493,-22.880613],[-56.02487,-22.879017],[-56.02607,-22.878907],[-56.026142,-22.878467],[-56.023466,-22.875376],[-56.023392,-22.873881],[-56.021214,-22.872961],[-56.020881,-22.87386],[-56.019523,-22.873906],[-56.017876,-22.876806],[-56.016871,-22.876235],[-56.015342,-22.874369],[-56.012627,-22.872538],[-56.012401,-22.87204],[-56.013464,-22.869897],[-56.013174,-22.869073],[-56.013397,-22.868244],[-56.012553,-22.868191],[-56.011804,-22.866845],[-56.012006,-22.866269],[-56.012954,-22.865878],[-56.012191,-22.864903],[-56.011887,-22.863427],[-56.012604,-22.862964],[-56.013548,-22.863413],[-56.0139,-22.863305],[-56.013013,-22.860849],[-56.013357,-22.860538],[-56.015118,-22.860547],[-56.01492,-22.860098],[-56.012878,-22.859611],[-56.010979,-22.858135],[-56.006416,-22.859645],[-56.005797,-22.860173],[-56.004885,-22.859985],[-56.003859,-22.860168],[-56.002402,-22.856988],[-56.003688,-22.855082],[-56.004357,-22.854807],[-56.005608,-22.855354],[-56.00563,-22.854521],[-56.005228,-22.854199],[-56.004091,-22.854445],[-56.002965,-22.853233],[-56.000829,-22.852701],[-55.999664,-22.851655],[-55.999443,-22.850355],[-55.997738,-22.849422],[-55.99554,-22.850508],[-55.99723,-22.852119],[-55.995562,-22.853272],[-55.994807,-22.852917],[-55.99388,-22.851886],[-55.991162,-22.850284],[-55.990499,-22.850344],[-55.989471,-22.851043],[-55.988204,-22.850835],[-55.986018,-22.846949],[-55.98514,-22.847227],[-55.984639,-22.847868],[-55.98448,-22.850286],[-55.983858,-22.851177],[-55.983262,-22.851019],[-55.982185,-22.849836],[-55.980992,-22.849225],[-55.979013,-22.846752],[-55.976988,-22.845001],[-55.976003,-22.845261],[-55.975929,-22.848165],[-55.975376,-22.848497],[-55.974691,-22.848203],[-55.97411,-22.847269],[-55.973272,-22.840392],[-55.973716,-22.836646],[-55.97135,-22.834492],[-55.97186,-22.833604],[-55.972118,-22.832207],[-55.974217,-22.830717],[-55.972148,-22.830516],[-55.96945,-22.831501],[-55.968737,-22.832252],[-55.967979,-22.832235],[-55.966701,-22.83134],[-55.966042,-22.830248],[-55.964338,-22.829456],[-55.964905,-22.827666],[-55.964572,-22.826251],[-55.963382,-22.826361],[-55.962109,-22.825983],[-55.961607,-22.825433],[-55.961276,-22.824349],[-55.959929,-22.826161],[-55.959481,-22.825991],[-55.958791,-22.824997],[-55.958297,-22.825024],[-55.958228,-22.825335],[-55.958851,-22.825999],[-55.958867,-22.826739],[-55.957564,-22.828291],[-55.956841,-22.82803],[-55.956259,-22.827192],[-55.955391,-22.826754],[-55.955358,-22.826433],[-55.956623,-22.826217],[-55.956931,-22.8258],[-55.956333,-22.825056],[-55.95624,-22.824113],[-55.955597,-22.823054],[-55.955791,-22.822095],[-55.956596,-22.821315],[-55.95646,-22.818947],[-55.957233,-22.81628],[-55.957102,-22.815363],[-55.957571,-22.814274],[-55.95597,-22.813954],[-55.95554,-22.812859],[-55.956466,-22.812345],[-55.956441,-22.81132],[-55.957032,-22.810562],[-55.956922,-22.809921],[-55.956176,-22.809272],[-55.955268,-22.809127],[-55.953968,-22.810888],[-55.953109,-22.810993],[-55.951587,-22.810246],[-55.949332,-22.808178],[-55.9492,-22.807515],[-55.949604,-22.806829],[-55.950359,-22.80673],[-55.951197,-22.807027],[-55.952771,-22.806262],[-55.952528,-22.805601],[-55.951324,-22.80452],[-55.950394,-22.802801],[-55.950372,-22.801401],[-55.94987,-22.800568],[-55.949536,-22.800478],[-55.948435,-22.801027],[-55.947643,-22.800879],[-55.946135,-22.799929],[-55.945519,-22.798684],[-55.945168,-22.798803],[-55.944668,-22.799995],[-55.943657,-22.800946],[-55.943722,-22.802371],[-55.942831,-22.802278],[-55.942226,-22.801439],[-55.942061,-22.799284],[-55.941136,-22.797633],[-55.941543,-22.795923],[-55.94128,-22.795352],[-55.940621,-22.795419],[-55.939032,-22.796569],[-55.9383,-22.798257],[-55.937042,-22.798233],[-55.936455,-22.79784],[-55.936539,-22.795995],[-55.937241,-22.795286],[-55.937645,-22.79409],[-55.938534,-22.79396],[-55.938719,-22.793601],[-55.939273,-22.790202],[-55.938819,-22.790049],[-55.936859,-22.790897],[-55.935748,-22.790899],[-55.934974,-22.790012],[-55.935383,-22.78926],[-55.933109,-22.788906],[-55.93428,-22.786001],[-55.935466,-22.785386],[-55.933899,-22.784485],[-55.93264,-22.784197],[-55.932514,-22.783144],[-55.933356,-22.781826],[-55.932355,-22.781716],[-55.931545,-22.783187],[-55.928268,-22.782316],[-55.92873,-22.781231],[-55.929805,-22.781075],[-55.9297,-22.780004],[-55.93117,-22.779915],[-55.931042,-22.779521],[-55.929193,-22.778768],[-55.928939,-22.778491],[-55.929061,-22.777918],[-55.821381,-22.707067],[-55.864988,-22.650589],[-55.847383,-22.636398],[-55.837329,-22.632667],[-55.81875,-22.624866],[-55.824931,-22.614768],[-55.826403,-22.613458],[-55.825374,-22.612983],[-55.839331,-22.563075],[-55.880135,-22.54824],[-55.937737,-22.550401],[-55.947077,-22.567724],[-55.997373,-22.562012],[-56.081146,-22.592051],[-56.181134,-22.53234],[-56.179656,-22.531243],[-56.17981,-22.530594],[-56.180599,-22.530774],[-56.18089,-22.530432],[-56.180983,-22.529846],[-56.180578,-22.529288],[-56.175688,-22.526837],[-56.174852,-22.525718],[-56.173848,-22.525356],[-56.171956,-22.523593],[-56.171579,-22.522458],[-56.17023,-22.521846],[-56.17042,-22.520988],[-56.168429,-22.517604],[-56.166295,-22.516523],[-56.165257,-22.514923],[-56.162909,-22.513795],[-56.160511,-22.511899],[-56.158416,-22.511414],[-56.155815,-22.5114],[-56.153547,-22.510702],[-56.151691,-22.510475],[-56.147804,-22.511869],[-56.145212,-22.514195],[-56.14408,-22.514798],[-56.141768,-22.51489],[-56.138311,-22.514058],[-56.1376,-22.513644],[-56.137142,-22.512842],[-56.136098,-22.512448],[-56.135486,-22.511532],[-56.133701,-22.511057],[-56.132687,-22.508319],[-56.131982,-22.508094],[-56.131568,-22.507094],[-56.130675,-22.506737],[-56.130556,-22.505891],[-56.129506,-22.504476],[-56.127073,-22.503479],[-56.125,-22.503273],[-56.124532,-22.50281],[-56.124036,-22.500671],[-56.123429,-22.500234],[-56.120929,-22.500184],[-56.120506,-22.499604],[-56.119244,-22.499891],[-56.119066,-22.499068],[-56.118012,-22.498506],[-56.118025,-22.498154],[-56.116854,-22.498509],[-56.116536,-22.497297],[-56.11562,-22.497567],[-56.116072,-22.496811],[-56.115983,-22.496417],[-56.114885,-22.496439],[-56.114421,-22.495822],[-56.112818,-22.495433],[-56.1127,-22.494755],[-56.113222,-22.494085],[-56.112329,-22.493985],[-56.112597,-22.493364],[-56.111744,-22.493237],[-56.112316,-22.492865],[-56.112268,-22.4924],[-56.111294,-22.492074],[-56.110416,-22.49117],[-56.109321,-22.490676],[-56.107423,-22.488719],[-56.104542,-22.487795],[-56.10184,-22.487609],[-56.101528,-22.485552],[-56.100237,-22.482256],[-56.099751,-22.482227],[-56.097627,-22.483647],[-56.096815,-22.483642],[-56.096227,-22.4833],[-56.09485,-22.484038],[-56.093674,-22.483656],[-56.093534,-22.483335],[-56.091178,-22.483019],[-56.090785,-22.482488],[-56.090237,-22.482322],[-56.090781,-22.48158],[-56.088052,-22.482346],[-56.087767,-22.482345],[-56.087466,-22.481823],[-56.086614,-22.481584],[-56.08584,-22.481733],[-56.085267,-22.482321],[-56.082768,-22.482131],[-56.082454,-22.482052],[-56.082527,-22.481673],[-56.081952,-22.482036],[-56.081804,-22.481809],[-56.081755,-22.482035],[-56.081032,-22.481543],[-56.080996,-22.481109],[-56.081271,-22.481011],[-56.081034,-22.480748],[-56.079473,-22.480762],[-56.079549,-22.480518],[-56.07898,-22.48061],[-56.078361,-22.479685],[-56.07766,-22.479821],[-56.077613,-22.479405],[-56.078139,-22.479087],[-56.077441,-22.47851],[-56.076446,-22.478382],[-56.076211,-22.477622],[-56.076604,-22.477435],[-56.076414,-22.476833],[-56.076142,-22.476804],[-56.076349,-22.476552],[-56.075967,-22.47613],[-56.076136,-22.476023],[-56.075614,-22.475934],[-56.075766,-22.475723],[-56.074711,-22.474813],[-56.074338,-22.474125],[-56.07447,-22.47361],[-56.073867,-22.472582],[-56.07268,-22.471635],[-56.072955,-22.471136],[-56.072758,-22.469481],[-56.072252,-22.469185],[-56.071093,-22.469178],[-56.070409,-22.468239],[-56.071238,-22.467309],[-56.071216,-22.466063],[-56.071594,-22.465685],[-56.093143,-22.402298],[-56.086331,-22.350758],[-56.087272,-22.345903],[-56.087832,-22.344723],[-56.088804,-22.344272],[-56.089558,-22.342813],[-56.089201,-22.341736],[-56.089716,-22.33972],[-56.089524,-22.338382],[-56.090653,-22.336419],[-56.092466,-22.33483],[-56.093821,-22.331021],[-56.093841,-22.329707],[-56.094327,-22.328124],[-56.096218,-22.325836],[-56.097117,-22.324197],[-56.09913,-22.319172],[-56.100222,-22.318098],[-56.101892,-22.317706],[-56.102764,-22.317024],[-56.104244,-22.316675],[-56.104248,-22.315347],[-56.104749,-22.314257],[-56.105605,-22.314009],[-56.106693,-22.312691],[-56.10798,-22.312197],[-56.108651,-22.309974],[-56.109867,-22.308608],[-56.111173,-22.30819],[-56.111653,-22.306689],[-56.114688,-22.306963],[-56.115825,-22.306675],[-56.116868,-22.307011],[-56.118602,-22.306343],[-56.120139,-22.30496],[-56.121071,-22.304662],[-56.122531,-22.301856],[-56.124121,-22.300998],[-56.125833,-22.299512],[-56.127808,-22.298949],[-56.134038,-22.294335],[-56.135748,-22.292487],[-56.13893,-22.289812],[-56.139664,-22.287969],[-56.1395,-22.285731],[-56.136195,-22.285873],[-56.135619,-22.284975],[-56.133705,-22.284541],[-56.133731,-22.283086],[-56.13351,-22.2829],[-56.132719,-22.283754],[-56.131514,-22.284402],[-56.130661,-22.284393],[-56.129764,-22.283968],[-56.128261,-22.282136],[-56.129307,-22.281369],[-56.129269,-22.280786],[-56.128719,-22.280386],[-56.127661,-22.280411],[-56.128513,-22.27916],[-56.128485,-22.27771],[-56.128111,-22.276733],[-56.128647,-22.275972],[-56.128505,-22.275113],[-56.12564,-22.274447],[-56.123973,-22.275486],[-56.12337,-22.275555],[-56.124293,-22.27295],[-56.12523,-22.273135],[-56.125544,-22.272934],[-56.124563,-22.270733],[-56.124309,-22.270682],[-56.123395,-22.271703],[-56.119793,-22.273223],[-56.119812,-22.272262],[-56.119069,-22.271038],[-56.11841,-22.270497],[-56.11769,-22.270394],[-56.117168,-22.270955],[-56.11585,-22.274693],[-56.113642,-22.274803],[-56.113474,-22.27369],[-56.112368,-22.273296],[-56.111672,-22.273893],[-56.111669,-22.274692],[-56.110547,-22.274628],[-56.109987,-22.275194],[-56.109953,-22.275871],[-56.110559,-22.276249],[-56.110184,-22.276893],[-56.108826,-22.276736],[-56.107063,-22.277386],[-56.105237,-22.277277],[-56.104814,-22.277532],[-56.104534,-22.27847],[-56.102136,-22.278506],[-56.10157,-22.279795],[-56.10092,-22.278825],[-56.100001,-22.280459],[-56.098359,-22.280613],[-56.096288,-22.282223],[-56.096517,-22.282513],[-56.098038,-22.28225],[-56.098404,-22.282618],[-56.098138,-22.283172],[-56.09656,-22.284072],[-56.094775,-22.283764],[-56.093426,-22.284009],[-56.092939,-22.284471],[-56.092972,-22.285262],[-56.09262,-22.285739],[-56.088991,-22.284504],[-56.088746,-22.284145],[-56.088841,-22.282565],[-56.08789,-22.282063],[-56.087742,-22.283462],[-56.086775,-22.284225],[-56.088294,-22.285276],[-56.087217,-22.285605],[-56.086365,-22.28625],[-56.085287,-22.284745],[-56.084541,-22.283033],[-56.082667,-22.282128],[-56.081532,-22.282962],[-56.08136,-22.284858],[-56.080561,-22.284212],[-56.080114,-22.284273],[-56.079881,-22.284732],[-56.080043,-22.285307],[-56.078862,-22.285643],[-56.07853,-22.286093],[-56.07814,-22.285644],[-56.078778,-22.285327],[-56.078669,-22.284883],[-56.076909,-22.284688],[-56.076913,-22.285217],[-56.077461,-22.285622],[-56.077473,-22.286055],[-56.075836,-22.286814],[-56.074861,-22.285566],[-56.07383,-22.286992],[-56.07272,-22.287248],[-56.072791,-22.286404],[-56.072515,-22.286045],[-56.071825,-22.287003],[-56.071286,-22.287145],[-56.070661,-22.286789],[-56.070503,-22.285772],[-56.07016,-22.285503],[-56.069726,-22.286648],[-56.069346,-22.286741],[-56.068525,-22.286004],[-56.068164,-22.284467],[-56.067224,-22.284168],[-56.066772,-22.282607],[-56.066168,-22.282197],[-56.066783,-22.281148],[-56.066039,-22.281067],[-56.066187,-22.280137],[-56.064995,-22.280176],[-56.065623,-22.279443],[-56.065147,-22.279029],[-56.065041,-22.278338],[-56.064713,-22.278412],[-56.064501,-22.278953],[-56.064006,-22.278874],[-56.064515,-22.278091],[-56.064331,-22.277548],[-56.06379,-22.278362],[-56.062835,-22.278203],[-56.062768,-22.277516],[-56.063318,-22.27648],[-56.062305,-22.27582],[-56.061649,-22.27624],[-56.061838,-22.276788],[-56.060826,-22.276674],[-56.060581,-22.276392],[-56.061261,-22.275705],[-56.060875,-22.275522],[-56.05984,-22.276085],[-56.060191,-22.276833],[-56.060949,-22.277262],[-56.060751,-22.277577],[-56.059425,-22.277388],[-56.059004,-22.276871],[-56.059209,-22.276398],[-56.057605,-22.276709],[-56.056641,-22.276451],[-56.055163,-22.277201],[-56.054151,-22.277145],[-56.054108,-22.277759],[-56.053158,-22.278183],[-56.052815,-22.277978],[-56.053088,-22.277388],[-56.052588,-22.277245],[-56.052211,-22.277595],[-56.052322,-22.278146],[-56.05152,-22.278151],[-56.050755,-22.27881],[-56.049984,-22.278783],[-56.049639,-22.277955],[-56.047873,-22.277438],[-56.047766,-22.27938],[-56.047515,-22.279424],[-56.047209,-22.27864],[-56.046568,-22.278641],[-56.046746,-22.279631],[-56.046162,-22.280197],[-56.044485,-22.280819],[-56.044945,-22.282118],[-56.043463,-22.283054],[-56.04283,-22.282287],[-56.041317,-22.283267],[-56.039525,-22.283225],[-56.038468,-22.282658],[-56.037615,-22.282685],[-56.037654,-22.281877],[-56.037347,-22.281378],[-56.036475,-22.282118],[-56.035675,-22.28098],[-56.035226,-22.281442],[-56.033995,-22.281385],[-56.033911,-22.281845],[-56.034462,-22.282576],[-56.033669,-22.283339],[-56.033369,-22.284453],[-56.032715,-22.284846],[-56.03184,-22.284814],[-56.03107,-22.285221],[-56.03002,-22.284591],[-56.029246,-22.284491],[-56.029142,-22.285625],[-56.027627,-22.28557],[-56.026554,-22.285916],[-56.025963,-22.285583],[-56.025181,-22.286093],[-56.025075,-22.285126],[-56.024281,-22.28471],[-56.023922,-22.285494],[-56.022897,-22.285447],[-56.02295,-22.286319],[-56.021909,-22.287221],[-56.02113,-22.287139],[-56.020892,-22.286347],[-56.020417,-22.286236],[-56.019901,-22.286929],[-56.018263,-22.287063],[-56.017075,-22.28851],[-56.015881,-22.28825],[-56.013603,-22.286511],[-56.012406,-22.286269],[-56.011842,-22.288339],[-56.010074,-22.289782],[-56.009869,-22.290395],[-56.010379,-22.291356],[-56.012291,-22.291792],[-56.01261,-22.293004],[-56.012384,-22.293247],[-56.011477,-22.292781],[-56.011316,-22.293633],[-56.010947,-22.293983],[-56.010458,-22.293438],[-56.010505,-22.294324],[-56.010087,-22.294633],[-56.009274,-22.294267],[-56.008732,-22.293094],[-56.008089,-22.293487],[-56.007656,-22.292712],[-56.006003,-22.292743],[-56.005268,-22.294251],[-56.004787,-22.294217],[-56.004157,-22.293675],[-56.004313,-22.292227],[-56.002945,-22.290917],[-56.002945,-22.289824],[-56.002411,-22.289288],[-56.002769,-22.288793],[-56.002064,-22.287398],[-56.002076,-22.2864],[-56.001768,-22.286375],[-56.001387,-22.286987],[-56.000635,-22.286779],[-56.001704,-22.285652],[-55.999706,-22.286033],[-55.999217,-22.285894],[-55.999448,-22.285173],[-56.000323,-22.284763],[-56.000204,-22.284202],[-55.999273,-22.284599],[-55.998374,-22.283613],[-55.998576,-22.28473],[-55.99773,-22.284467],[-55.997256,-22.28422],[-55.997168,-22.283407],[-55.996434,-22.28347],[-55.996013,-22.282713],[-55.994229,-22.282219],[-55.992113,-22.280602],[-55.991506,-22.280906],[-55.991237,-22.282178],[-55.99026,-22.281625],[-55.98944,-22.281918],[-55.989112,-22.281234],[-55.984873,-22.280815],[-55.984375,-22.280486],[-55.984159,-22.279803],[-55.983514,-22.279555],[-55.983816,-22.278915],[-55.98345,-22.278665],[-55.982332,-22.278698],[-55.981711,-22.279178],[-55.980954,-22.278604],[-55.980103,-22.279127],[-55.979786,-22.279536],[-55.980108,-22.280175],[-55.979879,-22.281235],[-55.979117,-22.28123],[-55.979175,-22.281831],[-55.978797,-22.282113],[-55.977264,-22.282415],[-55.977909,-22.283598],[-55.978628,-22.283824],[-55.977656,-22.284771],[-55.975665,-22.284641],[-55.974626,-22.287037],[-55.971294,-22.290191],[-55.969781,-22.291076],[-55.969582,-22.292073],[-55.96734,-22.290383],[-55.966035,-22.288776],[-55.964655,-22.288672],[-55.963727,-22.289398],[-55.961943,-22.289337],[-55.960978,-22.290171],[-55.959275,-22.290106],[-55.957449,-22.290803],[-55.957089,-22.290065],[-55.954114,-22.289734],[-55.953076,-22.29143],[-55.952115,-22.291469],[-55.950983,-22.292835],[-55.950236,-22.292766],[-55.949487,-22.293073],[-55.949301,-22.292652],[-55.948547,-22.292674],[-55.948868,-22.291439],[-55.948525,-22.291161],[-55.948884,-22.290088],[-55.9484,-22.288753],[-55.947262,-22.288348],[-55.946105,-22.286728],[-55.945787,-22.285127],[-55.946097,-22.284799],[-55.946673,-22.284781],[-55.946753,-22.284406],[-55.945687,-22.283419],[-55.944418,-22.28328],[-55.943742,-22.282815],[-55.943263,-22.283232],[-55.942838,-22.283216],[-55.942408,-22.282946],[-55.942326,-22.282377],[-55.941409,-22.282791],[-55.939693,-22.282414],[-55.9375,-22.28155],[-55.935807,-22.280238],[-55.934278,-22.279492],[-55.932078,-22.279636],[-55.928526,-22.278415],[-55.925531,-22.279602],[-55.923871,-22.279193],[-55.92272,-22.279371],[-55.920888,-22.280506],[-55.91947,-22.280695],[-55.918057,-22.279954],[-55.917646,-22.278172],[-55.916305,-22.277838],[-55.915103,-22.278236],[-55.91395,-22.279109],[-55.912844,-22.278957],[-55.912354,-22.279153],[-55.907428,-22.282837],[-55.905477,-22.283645],[-55.904428,-22.284569],[-55.90193,-22.285035],[-55.900089,-22.28589],[-55.89902,-22.285901],[-55.896472,-22.284989],[-55.892866,-22.28435],[-55.888937,-22.282788],[-55.887665,-22.282729],[-55.884399,-22.283348],[-55.87574,-22.282078],[-55.874645,-22.283027],[-55.865254,-22.28356],[-55.86414,-22.282431],[-55.86157,-22.283127],[-55.858196,-22.282024],[-55.856801,-22.28073],[-55.853292,-22.280298],[-55.851187,-22.281823],[-55.849422,-22.286015],[-55.843135,-22.287096],[-55.841809,-22.288707],[-55.841708,-22.290852],[-55.839154,-22.294133],[-55.835316,-22.296105],[-55.838756,-22.297437],[-55.838124,-22.300406],[-55.839144,-22.301538],[-55.835647,-22.305032],[-55.836324,-22.308056],[-55.835024,-22.312271],[-55.833145,-22.314698],[-55.831767,-22.314567],[-55.828864,-22.315998],[-55.832461,-22.321132],[-55.830756,-22.323987],[-55.8324,-22.325656],[-55.828918,-22.330261],[-55.828264,-22.332828],[-55.827003,-22.335566],[-55.82471,-22.336727],[-55.824262,-22.339055],[-55.824304,-22.340677],[-55.821007,-22.345148],[-55.814716,-22.34567],[-55.809821,-22.349775],[-55.809276,-22.352474],[-55.804407,-22.354726],[-55.800853,-22.355343],[-55.798548,-22.364754],[-55.799638,-22.368711],[-55.803177,-22.369737],[-55.803711,-22.372303],[-55.791321,-22.380536],[-55.791109,-22.388472],[-55.788222,-22.389034],[-55.7849,-22.387355],[-55.78373,-22.385876],[-55.779819,-22.384371],[-55.777241,-22.385084],[-55.776248,-22.385983],[-55.766697,-22.384264],[-55.757076,-22.386255],[-55.748685,-22.383451],[-55.746708,-22.384106],[-55.747777,-22.3861],[-55.74695,-22.388632],[-55.744543,-22.389713],[-55.742005,-22.395385],[-55.74581,-22.403703],[-55.740848,-22.407219],[-55.737219,-22.41122],[-55.737198,-22.414122],[-55.739598,-22.423807],[-55.73641,-22.429198],[-55.736334,-22.43528],[-55.733909,-22.441544],[-55.736715,-22.444665],[-55.73817,-22.454463],[-55.735232,-22.458906],[-55.735764,-22.460128],[-55.738309,-22.459916],[-55.741134,-22.461346],[-55.743411,-22.463774],[-55.748078,-22.464548],[-55.746574,-22.469532],[-55.751078,-22.474732],[-55.752852,-22.474828],[-55.751178,-22.481772],[-55.747694,-22.483135],[-55.746703,-22.486248],[-55.747761,-22.495521],[-55.747266,-22.505485],[-55.740691,-22.515494],[-55.740435,-22.519067],[-55.737026,-22.527982],[-55.735961,-22.530199],[-55.732366,-22.535776],[-55.728262,-22.544074],[-55.723604,-22.551771],[-55.717149,-22.554684],[-55.71369,-22.557364],[-55.698421,-22.563258],[-55.694778,-22.571145],[-55.694779,-22.57754],[-55.688229,-22.58138],[-55.68367,-22.586734],[-55.682899,-22.588887],[-55.677197,-22.5917],[-55.669631,-22.594052],[-55.666542,-22.598773],[-55.661161,-22.602409],[-55.655748,-22.605428],[-55.656546,-22.606506],[-55.713496,-22.652766],[-55.735198,-22.629942],[-55.737209,-22.631534],[-55.737646,-22.632685],[-55.737115,-22.633105],[-55.737174,-22.633706],[-55.738068,-22.634219],[-55.738536,-22.635546],[-55.739938,-22.637318],[-55.739185,-22.637561],[-55.739607,-22.637862],[-55.739274,-22.638004],[-55.739309,-22.638515],[-55.738956,-22.638882],[-55.739565,-22.638923],[-55.739455,-22.639527],[-55.739839,-22.639436],[-55.739553,-22.640052],[-55.740608,-22.640977],[-55.740021,-22.641727],[-55.740373,-22.641991],[-55.740345,-22.641594],[-55.740745,-22.641773],[-55.740475,-22.642986],[-55.741396,-22.643788],[-55.741458,-22.644737],[-55.741943,-22.644637],[-55.742183,-22.6449],[-55.74209,-22.646295],[-55.743129,-22.647315],[-55.743244,-22.648029],[-55.743733,-22.647455],[-55.745589,-22.648779],[-55.746274,-22.650253],[-55.746706,-22.650455],[-55.746095,-22.650874],[-55.747588,-22.651234],[-55.74759,-22.652083],[-55.747953,-22.651973],[-55.74788,-22.651548],[-55.74865,-22.651969],[-55.749099,-22.651602],[-55.749599,-22.652216],[-55.749615,-22.651859],[-55.750419,-22.651595],[-55.749804,-22.651165],[-55.750138,-22.650391],[-55.750497,-22.650846],[-55.750998,-22.650935],[-55.750738,-22.650016],[-55.751461,-22.649855],[-55.752243,-22.650647],[-55.753106,-22.64952],[-55.753607,-22.649632],[-55.753805,-22.648853],[-55.754573,-22.649026],[-55.75468,-22.648688],[-55.755158,-22.648511],[-55.755319,-22.648729],[-55.7556,-22.64823],[-55.755869,-22.648516],[-55.756371,-22.648358],[-55.75709,-22.647596],[-55.757609,-22.64797],[-55.75769,-22.64751],[-55.757813,-22.648342],[-55.758397,-22.64869],[-55.758362,-22.648351],[-55.758612,-22.648393],[-55.759035,-22.649336],[-55.75923,-22.648913],[-55.759613,-22.648862],[-55.759411,-22.649452],[-55.7606,-22.650865],[-55.761296,-22.650225],[-55.762044,-22.650411],[-55.762088,-22.650963],[-55.762939,-22.651633],[-55.763409,-22.651492],[-55.763793,-22.650881],[-55.764192,-22.651354],[-55.764165,-22.652022],[-55.765832,-22.652541],[-55.766017,-22.653305],[-55.766429,-22.653484],[-55.767339,-22.653225],[-55.767868,-22.653473],[-55.767999,-22.65542],[-55.768932,-22.655464],[-55.768894,-22.658711],[-55.769431,-22.659604],[-55.770377,-22.660005],[-55.771358,-22.660021],[-55.771347,-22.660369],[-55.771875,-22.660558],[-55.772138,-22.661459],[-55.772633,-22.661214],[-55.773395,-22.661604],[-55.773534,-22.663195],[-55.773951,-22.664047],[-55.773734,-22.664939],[-55.774439,-22.665767],[-55.774257,-22.666041],[-55.774693,-22.666279],[-55.774108,-22.666857],[-55.774566,-22.667136],[-55.77489,-22.668512],[-55.77651,-22.668474],[-55.77733,-22.669027],[-55.776892,-22.670961],[-55.778252,-22.671532],[-55.778615,-22.671147],[-55.77839,-22.670468],[-55.778631,-22.670167],[-55.780322,-22.669827],[-55.781705,-22.670172],[-55.781925,-22.67134],[-55.782594,-22.671402],[-55.782458,-22.672107],[-55.783403,-22.672467],[-55.783778,-22.673091],[-55.783362,-22.673311],[-55.783309,-22.673913],[-55.78242,-22.674571],[-55.782375,-22.675009],[-55.783939,-22.675658],[-55.784375,-22.676603],[-55.787844,-22.676869],[-55.788862,-22.678207],[-55.788695,-22.679757],[-55.788907,-22.680455],[-55.789376,-22.680811],[-55.789118,-22.681459],[-55.789688,-22.68199],[-55.789876,-22.684045],[-55.79103,-22.684927],[-55.791894,-22.685195],[-55.794832,-22.683644],[-55.795394,-22.684247],[-55.795499,-22.684727],[-55.793631,-22.685832],[-55.794529,-22.687576],[-55.794295,-22.688715],[-55.793235,-22.689155],[-55.792433,-22.689902],[-55.792622,-22.690836],[-55.791562,-22.690523],[-55.791494,-22.691247],[-55.792424,-22.692152],[-55.792987,-22.691829],[-55.794508,-22.692338],[-55.794224,-22.692995],[-55.794426,-22.693217],[-55.79874,-22.695119],[-55.798301,-22.69562],[-55.798321,-22.696042],[-55.799159,-22.696632],[-55.798754,-22.697455],[-55.797943,-22.697751],[-55.797824,-22.698176],[-55.798283,-22.698507],[-55.797849,-22.698734],[-55.797202,-22.698593],[-55.797201,-22.699454],[-55.796409,-22.699527],[-55.79653,-22.700064],[-55.7977,-22.700687],[-55.79841,-22.701852],[-55.798414,-22.702164],[-55.797706,-22.702358],[-55.797193,-22.70312],[-55.797679,-22.703785],[-55.798457,-22.703816],[-55.798518,-22.704611],[-55.799609,-22.704229],[-55.800658,-22.704637],[-55.801175,-22.704218],[-55.801605,-22.704335],[-55.803025,-22.706293],[-55.803075,-22.707583],[-55.802736,-22.707959],[-55.802309,-22.707855],[-55.802376,-22.708697],[-55.803093,-22.708639],[-55.803226,-22.708981],[-55.803853,-22.70919],[-55.804262,-22.708998],[-55.80397,-22.71054],[-55.803422,-22.710668],[-55.80312,-22.710222],[-55.802489,-22.710179],[-55.802247,-22.711003],[-55.80266,-22.71234],[-55.802534,-22.713212],[-55.802935,-22.715554],[-55.803752,-22.715301],[-55.803975,-22.715851],[-55.80468,-22.715652],[-55.80458,-22.716285],[-55.804875,-22.716709],[-55.805869,-22.716102],[-55.806208,-22.716177],[-55.806473,-22.718806],[-55.805694,-22.719342],[-55.805763,-22.720318],[-55.805342,-22.720726],[-55.805986,-22.721198],[-55.805788,-22.722095],[-55.806613,-22.722022],[-55.806953,-22.721549],[-55.807615,-22.723017],[-55.807025,-22.723588],[-55.807055,-22.724395],[-55.806721,-22.724712],[-55.806815,-22.725894],[-55.807225,-22.726683],[-55.806479,-22.727043],[-55.806527,-22.727266],[-55.807859,-22.727722],[-55.808291,-22.727036],[-55.80882,-22.727199],[-55.809087,-22.727701],[-55.809818,-22.727619],[-55.810052,-22.728021],[-55.8095,-22.729889],[-55.809824,-22.730144],[-55.810279,-22.729918],[-55.810503,-22.728462],[-55.812204,-22.728705],[-55.812547,-22.731078],[-55.814493,-22.73177],[-55.814699,-22.731626],[-55.814357,-22.730637],[-55.814585,-22.730213],[-55.817563,-22.728728],[-55.818403,-22.728695],[-55.818386,-22.730028],[-55.817127,-22.730569],[-55.816809,-22.731243],[-55.817529,-22.73202],[-55.817779,-22.733143],[-55.819055,-22.733729],[-55.819721,-22.733566],[-55.820053,-22.732823],[-55.821025,-22.732214],[-55.821522,-22.730604],[-55.822339,-22.730436],[-55.823453,-22.730831],[-55.824722,-22.730162],[-55.824868,-22.730746],[-55.824578,-22.731585],[-55.824846,-22.731693],[-55.826509,-22.730895],[-55.82699,-22.730264],[-55.827975,-22.730082],[-55.82867,-22.730306],[-55.828983,-22.729203],[-55.830051,-22.729375],[-55.829479,-22.730636],[-55.830146,-22.732595],[-55.831836,-22.733082],[-55.832131,-22.733589],[-55.832057,-22.734298],[-55.833157,-22.734416],[-55.834607,-22.733897],[-55.834896,-22.733495],[-55.834834,-22.732776],[-55.83775,-22.732949],[-55.837956,-22.733257],[-55.837162,-22.734432],[-55.837747,-22.735479],[-55.836917,-22.736141],[-55.837227,-22.736425],[-55.838989,-22.73645],[-55.837848,-22.737493],[-55.838497,-22.738439],[-55.838384,-22.739951],[-55.841028,-22.74026],[-55.841451,-22.741142],[-55.841878,-22.740401],[-55.84173,-22.739172],[-55.842098,-22.739024],[-55.844327,-22.740179],[-55.844313,-22.741326],[-55.845618,-22.741327],[-55.846033,-22.740397],[-55.847281,-22.740768],[-55.847226,-22.741356],[-55.846212,-22.742391],[-55.846951,-22.742341],[-55.84703,-22.742615],[-55.845644,-22.743084],[-55.845418,-22.743532],[-55.846085,-22.744638],[-55.847258,-22.745252],[-55.847343,-22.74593],[-55.8481,-22.746412],[-55.848507,-22.747592],[-55.849589,-22.747456],[-55.849319,-22.748943],[-55.851096,-22.751046],[-55.851734,-22.751308],[-55.852055,-22.752033],[-55.853714,-22.752247],[-55.854206,-22.753455],[-55.855145,-22.753154],[-55.855886,-22.753378],[-55.856001,-22.755564],[-55.856975,-22.756165],[-55.856683,-22.759273],[-55.85605,-22.760546],[-55.857878,-22.76233],[-55.855743,-22.765492],[-55.855448,-22.766823],[-55.854952,-22.766848],[-55.854546,-22.766279],[-55.853877,-22.766818],[-55.853533,-22.766742],[-55.853393,-22.766159],[-55.852941,-22.765993],[-55.851597,-22.767715],[-55.850832,-22.76823],[-55.850871,-22.768612],[-55.852068,-22.769948],[-55.85379,-22.769927],[-55.85421,-22.770283],[-55.853992,-22.7711],[-55.854602,-22.771855],[-55.854307,-22.773904],[-55.853243,-22.773498],[-55.851847,-22.773691],[-55.850262,-22.773283],[-55.844798,-22.773135],[-55.84177,-22.773957],[-55.840115,-22.77521],[-55.837695,-22.776073],[-55.835147,-22.775196],[-55.830722,-22.774274],[-55.82499,-22.773762],[-55.821739,-22.774091],[-55.815391,-22.773822],[-55.796825,-22.775505],[-55.798684,-22.776421],[-55.803362,-22.777775],[-55.805428,-22.777813],[-55.808259,-22.778994],[-55.812178,-22.780884],[-55.813896,-22.782938],[-55.814883,-22.786717],[-55.81565,-22.792828],[-55.815626,-22.795944],[-55.816422,-22.798411],[-55.815244,-22.800137],[-55.793548,-22.810782],[-55.789239,-22.808536],[-55.788955,-22.808782],[-55.787609,-22.808031],[-55.786207,-22.80774],[-55.781554,-22.807095],[-55.775883,-22.80758],[-55.774187,-22.808913],[-55.770226,-22.810364],[-55.767045,-22.811933],[-55.765922,-22.813252],[-55.765756,-22.815478],[-55.76486,-22.816993],[-55.761759,-22.819096],[-55.760003,-22.821521],[-55.753121,-22.825427],[-55.75197,-22.826656],[-55.750966,-22.829583],[-55.750207,-22.830467],[-55.749123,-22.831037],[-55.748374,-22.832923],[-55.749012,-22.834793],[-55.751237,-22.83902],[-55.751586,-22.843547],[-55.752567,-22.846906],[-55.752633,-22.850095],[-55.752178,-22.852128],[-55.753214,-22.853324],[-55.753904,-22.855524],[-55.755669,-22.856753],[-55.757026,-22.858439],[-55.757185,-22.860603],[-55.759186,-22.862312],[-55.759208,-22.863148],[-55.75966,-22.863152],[-55.760866,-22.864322],[-55.761819,-22.864573],[-55.76283,-22.868198],[-55.761493,-22.86863],[-55.761275,-22.869333],[-55.761612,-22.869706],[-55.761678,-22.870524],[-55.762138,-22.870749],[-55.762069,-22.870342],[-55.762351,-22.870349],[-55.762326,-22.871333],[-55.762738,-22.871711],[-55.763005,-22.871672],[-55.763016,-22.871289],[-55.763737,-22.87175],[-55.76399,-22.871278],[-55.764986,-22.871164],[-55.764655,-22.872141],[-55.764755,-22.872973],[-55.764074,-22.874232],[-55.763616,-22.874391],[-55.763291,-22.876258],[-55.764181,-22.877959],[-55.763699,-22.879621],[-55.764161,-22.880208],[-55.764729,-22.880212],[-55.764746,-22.880849],[-55.765116,-22.881186],[-55.765872,-22.880803],[-55.766163,-22.880973],[-55.766118,-22.882413],[-55.766964,-22.883061],[-55.766652,-22.88356],[-55.767336,-22.883719],[-55.767228,-22.884327],[-55.767861,-22.88473],[-55.767587,-22.885337],[-55.767896,-22.886031],[-55.768277,-22.886183],[-55.768655,-22.888728],[-55.769563,-22.889354],[-55.768244,-22.890649],[-55.767639,-22.892116],[-55.76702,-22.892599],[-55.764791,-22.893539],[-55.762632,-22.89378],[-55.761991,-22.894204],[-55.76118,-22.896939],[-55.7603,-22.897655],[-55.760338,-22.898409],[-55.759497,-22.899568],[-55.758086,-22.899913],[-55.756282,-22.899357],[-55.753938,-22.901254],[-55.752599,-22.902964],[-55.74861,-22.903073],[-55.745837,-22.904053],[-55.744105,-22.903556],[-55.742308,-22.904152],[-55.740043,-22.904301],[-55.738115,-22.904963],[-55.736579,-22.905122],[-55.735128,-22.90591],[-55.734189,-22.907289],[-55.733073,-22.907222],[-55.727905,-22.91017],[-55.725406,-22.910457],[-55.724714,-22.910844],[-55.723173,-22.910028],[-55.722064,-22.909866],[-55.721276,-22.909254],[-55.719697,-22.908848],[-55.718281,-22.909889],[-55.716559,-22.910535],[-55.716463,-22.910995],[-55.715785,-22.911215],[-55.715421,-22.912025],[-55.714669,-22.912344],[-55.713378,-22.913566],[-55.712487,-22.914051],[-55.711866,-22.913613],[-55.710506,-22.914446],[-55.709722,-22.914562],[-55.708121,-22.916175],[-55.704121,-22.91625],[-55.701825,-22.915789],[-55.700246,-22.915934],[-55.699734,-22.91654],[-55.697737,-22.917621],[-55.696186,-22.917319],[-55.695603,-22.917481],[-55.69084,-22.92082],[-55.690032,-22.922227],[-55.688412,-22.92257],[-55.688142,-22.923932],[-55.687509,-22.924753],[-55.68655,-22.927242],[-55.685125,-22.928639],[-55.683291,-22.929392],[-55.682985,-22.930103],[-55.682204,-22.930268],[-55.681794,-22.93091],[-55.680859,-22.931219],[-55.679238,-22.932722],[-55.678952,-22.933687],[-55.679001,-22.935931],[-55.67749,-22.937712],[-55.676493,-22.938236],[-55.675521,-22.939231],[-55.674447,-22.943652],[-55.673631,-22.944679],[-55.672353,-22.948033],[-55.671502,-22.948626],[-55.667815,-22.948889],[-55.665869,-22.948651],[-55.66521,-22.950348],[-55.665333,-22.951316],[-55.664777,-22.954034],[-55.664943,-22.954604],[-55.661185,-22.964045],[-55.661474,-22.964867],[-55.661248,-22.96622],[-55.662533,-22.968588],[-55.662445,-22.969775],[-55.663506,-22.971617],[-55.663393,-22.972619],[-55.664482,-22.973043],[-55.665208,-22.974115],[-55.666041,-22.9747],[-55.666339,-22.976297],[-55.669262,-22.979898],[-55.671542,-22.985327],[-55.672889,-22.987109],[-55.673023,-22.988261],[-55.672495,-22.990614],[-55.671335,-22.992935],[-55.67163,-22.994351],[-55.672772,-22.996794],[-55.67236,-22.999419],[-55.674094,-23.00161],[-55.675007,-23.004499],[-55.676108,-23.006139],[-55.677556,-23.006693],[-55.679922,-23.00664],[-55.680754,-23.006927],[-55.683054,-23.008445],[-55.684388,-23.010258],[-55.687969,-23.010956],[-55.690175,-23.01405],[-55.691996,-23.014914],[-55.694489,-23.015427],[-55.699747,-23.018708],[-55.700738,-23.022288],[-55.702558,-23.024543],[-55.702882,-23.027115],[-55.704289,-23.02798],[-55.705762,-23.027902],[-55.706725,-23.029513],[-55.708361,-23.030235],[-55.71026,-23.031651],[-55.711957,-23.033616],[-55.71166,-23.034277],[-55.712812,-23.036075],[-55.717027,-23.035111],[-55.717305,-23.035212],[-55.717809,-23.037393],[-55.719172,-23.038773],[-55.722202,-23.039199],[-55.723407,-23.039118],[-55.72409,-23.038641],[-55.724799,-23.038908],[-55.725648,-23.038613],[-55.726023,-23.038814],[-55.726391,-23.039892],[-55.727042,-23.040232],[-55.729673,-23.039458],[-55.730839,-23.040249],[-55.73267,-23.04015],[-55.734852,-23.040976],[-55.736534,-23.040904],[-55.73711,-23.041355],[-55.739068,-23.040987],[-55.73982,-23.042086],[-55.741482,-23.04181],[-55.742338,-23.042756],[-55.74395,-23.042945],[-55.744702,-23.043958],[-55.746756,-23.04388],[-55.747727,-23.044822],[-55.748884,-23.045274],[-55.749111,-23.045705],[-55.750733,-23.045593],[-55.7528,-23.046516],[-55.752774,-23.047421],[-55.753655,-23.047844],[-55.753488,-23.049346],[-55.754718,-23.04864],[-55.755826,-23.049285],[-55.75777,-23.049623],[-55.758257,-23.050201],[-55.759494,-23.050628],[-55.759117,-23.051962],[-55.759482,-23.052949],[-55.757693,-23.053312],[-55.758674,-23.053878],[-55.759849,-23.053722],[-55.760379,-23.056189],[-55.761516,-23.056371],[-55.761103,-23.056981],[-55.759562,-23.057126],[-55.759538,-23.057944],[-55.760138,-23.05828],[-55.760906,-23.058042],[-55.763497,-23.058243],[-55.764954,-23.058781],[-55.765009,-23.059293],[-55.763892,-23.059623],[-55.762595,-23.059282],[-55.762562,-23.060092],[-55.763389,-23.06072],[-55.76458,-23.060682],[-55.765661,-23.061462],[-55.768215,-23.061993],[-55.768205,-23.063047],[-55.767815,-23.063949],[-55.768022,-23.065406],[-55.768545,-23.065874],[-55.771233,-23.065682],[-55.771689,-23.066087],[-55.770756,-23.067669],[-55.770768,-23.068204],[-55.772527,-23.070208],[-55.773165,-23.070189],[-55.773672,-23.069627],[-55.775494,-23.069342],[-55.775306,-23.067586],[-55.777457,-23.067556],[-55.778287,-23.068805],[-55.780525,-23.06953],[-55.781073,-23.071029],[-55.780973,-23.07272],[-55.782175,-23.072289],[-55.78344,-23.074383],[-55.784619,-23.073834],[-55.785421,-23.074453],[-55.787367,-23.074555],[-55.787391,-23.076648],[-55.788717,-23.077555],[-55.788115,-23.078368],[-55.788875,-23.080844],[-55.792282,-23.079242],[-55.793619,-23.078009],[-55.794389,-23.078479],[-55.794369,-23.078849],[-55.793159,-23.080106],[-55.793091,-23.081026],[-55.795258,-23.081105],[-55.795424,-23.081618],[-55.7944,-23.082027],[-55.794465,-23.082374],[-55.796211,-23.082922],[-55.796588,-23.083554],[-55.797459,-23.084127],[-55.797428,-23.084811],[-55.796428,-23.086283],[-55.796102,-23.087562],[-55.796344,-23.088036],[-55.796997,-23.088332],[-55.799577,-23.087927],[-55.79968,-23.088723],[-55.800725,-23.090768],[-55.800567,-23.091349],[-55.799661,-23.091798],[-55.799632,-23.092262],[-55.800493,-23.092985],[-55.801123,-23.092887],[-55.80137,-23.091914],[-55.802289,-23.091755],[-55.8048,-23.092435],[-55.804772,-23.092758],[-55.803856,-23.093435],[-55.805556,-23.096398],[-55.805747,-23.097886],[-55.806343,-23.097843],[-55.806797,-23.097414],[-55.807128,-23.096544],[-55.808299,-23.096828],[-55.809364,-23.09859],[-55.809818,-23.101048],[-55.810105,-23.101357],[-55.81042,-23.101265],[-55.81186,-23.098042],[-55.812253,-23.097888],[-55.813464,-23.098385],[-55.813509,-23.099125],[-55.812976,-23.099711],[-55.813041,-23.103015],[-55.81325,-23.103426],[-55.813683,-23.103469],[-55.814996,-23.102141],[-55.815417,-23.102616],[-55.815125,-23.104832],[-55.814212,-23.105227],[-55.813556,-23.106347],[-55.812953,-23.10624],[-55.812441,-23.105457],[-55.81169,-23.105798],[-55.812388,-23.107644],[-55.813445,-23.109233],[-55.813048,-23.110882],[-55.814092,-23.111134],[-55.816555,-23.110602],[-55.817523,-23.108855],[-55.817415,-23.107556],[-55.819074,-23.106506],[-55.81948,-23.106745],[-55.820215,-23.10823],[-55.820101,-23.108693],[-55.818726,-23.109344],[-55.819446,-23.110686],[-55.81914,-23.112509],[-55.819358,-23.113872],[-55.818949,-23.114978],[-55.8201,-23.115655],[-55.817577,-23.116258],[-55.817215,-23.117765],[-55.817232,-23.118773],[-55.817895,-23.119737],[-55.818354,-23.121684],[-55.81762,-23.122984],[-55.817771,-23.123237],[-55.819415,-23.122966],[-55.820873,-23.121577],[-55.822002,-23.122726],[-55.821284,-23.123232],[-55.821315,-23.124467],[-55.823388,-23.12383],[-55.824688,-23.123997],[-55.824771,-23.125225],[-55.82378,-23.126633],[-55.824015,-23.128035],[-55.823482,-23.128606],[-55.823786,-23.129811],[-55.822148,-23.130421],[-55.820312,-23.130273],[-55.819443,-23.131376],[-55.819602,-23.131731],[-55.821935,-23.132441],[-55.823769,-23.131857],[-55.82587,-23.131841],[-55.825207,-23.132717],[-55.824122,-23.133267],[-55.823527,-23.133239],[-55.823226,-23.133591],[-55.82372,-23.135459],[-55.823573,-23.136678],[-55.82441,-23.137345],[-55.82305,-23.138216],[-55.822113,-23.139278],[-55.822211,-23.139775],[-55.823783,-23.140919],[-55.825526,-23.141035],[-55.826517,-23.142505],[-55.826365,-23.143377],[-55.82539,-23.143008],[-55.824579,-23.143238],[-55.82484,-23.144562],[-55.824595,-23.147321],[-55.825318,-23.147342],[-55.826312,-23.1465],[-55.827348,-23.146704],[-55.827532,-23.147091],[-55.826883,-23.148384],[-55.828959,-23.150272],[-55.831453,-23.151125],[-55.832123,-23.153301],[-55.833657,-23.152942],[-55.836087,-23.153322],[-55.838402,-23.153206],[-55.838969,-23.155593],[-55.839257,-23.155666],[-55.83975,-23.154757],[-55.840117,-23.15465],[-55.843133,-23.156306],[-55.844506,-23.158805],[-55.844453,-23.160315],[-55.845316,-23.160769],[-55.847151,-23.160801],[-55.851559,-23.15936],[-55.851895,-23.160202],[-55.851545,-23.161076],[-55.850054,-23.160878],[-55.849767,-23.161417],[-55.851171,-23.162322],[-55.851481,-23.163891],[-55.852357,-23.165147],[-55.854621,-23.166879],[-55.858122,-23.167949],[-55.859464,-23.166653],[-55.86013,-23.166602],[-55.861695,-23.167564],[-55.862293,-23.168314],[-55.863947,-23.168326],[-55.864162,-23.169092],[-55.863082,-23.170446],[-55.861251,-23.169929],[-55.860759,-23.168471],[-55.860154,-23.168541],[-55.859838,-23.170049],[-55.860266,-23.171899],[-55.859888,-23.173667],[-55.860067,-23.173986],[-55.861984,-23.173869],[-55.863303,-23.175296],[-55.863239,-23.17578],[-55.862467,-23.176371],[-55.862824,-23.177138],[-55.866288,-23.17776],[-55.868044,-23.177624],[-55.868485,-23.177944],[-55.86831,-23.179472],[-55.867339,-23.179875],[-55.867029,-23.180786],[-55.867287,-23.181236],[-55.868417,-23.181169],[-55.868637,-23.181413],[-55.868705,-23.182868],[-55.867351,-23.183231],[-55.867187,-23.183529],[-55.86978,-23.184666],[-55.870019,-23.184985],[-55.869904,-23.186606],[-55.871475,-23.186897],[-55.871674,-23.18729],[-55.871461,-23.188613],[-55.871742,-23.188783],[-55.87356,-23.188441],[-55.875128,-23.189124],[-55.876509,-23.187978],[-55.877376,-23.188058],[-55.877627,-23.189347],[-55.876931,-23.190591],[-55.878112,-23.191737],[-55.877338,-23.192627],[-55.877411,-23.193541],[-55.878809,-23.195173],[-55.878881,-23.196218],[-55.879162,-23.19635],[-55.881084,-23.195674],[-55.881765,-23.19635],[-55.879672,-23.198107],[-55.879199,-23.19926],[-55.879804,-23.199283],[-55.880634,-23.19886],[-55.882741,-23.20018],[-55.883279,-23.20106],[-55.885036,-23.200774],[-55.885821,-23.201078],[-55.886418,-23.201996],[-55.886242,-23.203785],[-55.887688,-23.204523],[-55.888108,-23.205048],[-55.88784,-23.20568],[-55.889198,-23.207349],[-55.891758,-23.207591],[-55.891977,-23.207928],[-55.891668,-23.208746],[-55.89031,-23.20952],[-55.889777,-23.210486],[-55.88975,-23.211418],[-55.890401,-23.21312],[-55.890136,-23.213528],[-55.889327,-23.213727],[-55.888644,-23.21335],[-55.885653,-23.214037],[-55.886069,-23.214916],[-55.887132,-23.215632],[-55.886854,-23.217533],[-55.88758,-23.217575],[-55.889897,-23.215577],[-55.891515,-23.215123],[-55.891976,-23.215387],[-55.891903,-23.216897],[-55.894928,-23.217067],[-55.896878,-23.217939],[-55.896891,-23.218834],[-55.895933,-23.220039],[-55.896309,-23.220974],[-55.896162,-23.221626],[-55.897405,-23.222623],[-55.89845,-23.223041],[-55.902157,-23.223775],[-55.9034,-23.224772],[-55.905348,-23.228347],[-55.908327,-23.229189],[-55.908139,-23.230026],[-55.911089,-23.231986],[-55.91209,-23.233019],[-55.91127,-23.234561],[-55.911181,-23.235586],[-55.911542,-23.235868],[-55.911926,-23.23574],[-55.912787,-23.234124],[-55.914796,-23.232776],[-55.915159,-23.232798],[-55.916016,-23.234016],[-55.917922,-23.235371],[-55.918281,-23.235933],[-55.918885,-23.238678],[-55.91959,-23.238758],[-55.920144,-23.237624],[-55.920911,-23.237667],[-55.921429,-23.238454],[-55.922478,-23.238442],[-55.923197,-23.239435],[-55.924281,-23.240133],[-55.926153,-23.240649],[-55.926384,-23.242049],[-55.929707,-23.242986],[-55.929461,-23.243394],[-55.928392,-23.243368],[-55.928908,-23.244453],[-55.931315,-23.246316],[-55.931813,-23.247028],[-55.933909,-23.247396],[-55.933721,-23.248197],[-55.932324,-23.248784],[-55.932383,-23.248971],[-55.934464,-23.248649],[-55.935296,-23.248114],[-55.935582,-23.247631],[-55.934903,-23.246788],[-55.935437,-23.245635],[-55.935469,-23.244106],[-55.935816,-23.243586],[-55.937092,-23.24298],[-55.937455,-23.243094],[-55.937377,-23.245275],[-55.937676,-23.245688],[-55.943231,-23.247553],[-55.943596,-23.24735],[-55.9436,-23.246884],[-55.94296,-23.246133],[-55.941814,-23.245641],[-55.942084,-23.244673],[-55.943757,-23.244889],[-55.944983,-23.245532],[-55.945109,-23.244917],[-55.944147,-23.244072],[-55.94415,-23.243624],[-55.944699,-23.24318],[-55.946405,-23.244329],[-55.947638,-23.244095],[-55.947726,-23.24307],[-55.948461,-23.242012],[-55.94821,-23.240593],[-55.948395,-23.240165],[-55.948862,-23.239777],[-55.950682,-23.23936],[-55.950833,-23.238037],[-55.953139,-23.237381],[-55.953485,-23.236992],[-55.955478,-23.237565],[-55.955834,-23.238518],[-55.956614,-23.239362],[-55.955857,-23.240756],[-55.954664,-23.241084],[-55.954621,-23.241382],[-55.955647,-23.241724],[-55.955475,-23.243196],[-55.954592,-23.242538],[-55.953805,-23.242439],[-55.954014,-23.244194],[-55.955107,-23.243791],[-55.955891,-23.244113],[-55.956029,-23.244524],[-55.955638,-23.24551],[-55.956625,-23.245703],[-55.957495,-23.245466],[-55.958198,-23.2459],[-55.958403,-23.245435],[-55.957883,-23.244853],[-55.958233,-23.243961],[-55.958118,-23.243232],[-55.958944,-23.243443],[-55.960207,-23.244477],[-55.960677,-23.243753],[-55.961906,-23.243966],[-55.963428,-23.242801],[-55.964947,-23.242084],[-55.965035,-23.24119],[-55.965339,-23.241042],[-55.965797,-23.241847],[-55.965267,-23.242497],[-55.965302,-23.243261],[-55.96574,-23.243973],[-55.968639,-23.244887],[-55.970437,-23.244694],[-55.970554,-23.245217],[-55.969439,-23.245862],[-55.97159,-23.24692],[-55.970895,-23.248128],[-55.971208,-23.249361],[-55.971709,-23.249867],[-55.970001,-23.251497],[-55.969876,-23.252037],[-55.970154,-23.252542],[-55.971363,-23.25283],[-55.97193,-23.252517],[-55.973216,-23.250623],[-55.973777,-23.251205],[-55.973793,-23.251727],[-55.973122,-23.25245],[-55.973381,-23.252806],[-55.974005,-23.253052],[-55.974917,-23.252574],[-55.975358,-23.252949],[-55.975294,-23.253415],[-55.975979,-23.25355],[-55.97697,-23.253277],[-55.977262,-23.252011],[-55.978416,-23.251496],[-55.981017,-23.251905],[-55.981277,-23.252242],[-55.981267,-23.253529],[-55.981845,-23.254502],[-55.982338,-23.253293],[-55.982764,-23.253053],[-55.983449,-23.253244],[-55.985764,-23.25656],[-55.987887,-23.258774],[-55.989118,-23.258745],[-55.988953,-23.25921],[-55.987336,-23.259554],[-55.988604,-23.260009],[-55.98876,-23.260738],[-55.987229,-23.260448],[-55.987106,-23.260653],[-55.988695,-23.261427],[-55.989787,-23.261061],[-55.990281,-23.262538],[-55.989311,-23.262681],[-55.989228,-23.262923],[-55.990391,-23.2639],[-55.990344,-23.26485],[-55.990585,-23.264964],[-55.991417,-23.264466],[-55.992181,-23.264825],[-55.992138,-23.265104],[-55.991371,-23.265118],[-55.990924,-23.265488],[-55.989559,-23.267232],[-55.989288,-23.268387],[-55.995077,-23.268815],[-55.996164,-23.269307],[-55.997656,-23.269466],[-55.998628,-23.271822],[-55.999507,-23.273021],[-56.000329,-23.273679],[-56.002262,-23.2744],[-56.002728,-23.274142],[-56.002071,-23.272888],[-56.0024,-23.272144],[-56.002908,-23.271644],[-56.003818,-23.271407],[-56.005536,-23.271157],[-56.005573,-23.271549],[-56.004579,-23.272195],[-56.004147,-23.273349],[-56.004367,-23.273518],[-56.005337,-23.273394],[-56.006516,-23.272319],[-56.007322,-23.272548],[-56.007636,-23.273762],[-56.007979,-23.273671],[-56.008386,-23.273226],[-56.008153,-23.272031],[-56.008438,-23.271754],[-56.00882,-23.271868],[-56.009011,-23.273342],[-56.009292,-23.273549],[-56.010566,-23.273315],[-56.011482,-23.27222],[-56.012729,-23.272788],[-56.0132,-23.271951],[-56.012479,-23.271164],[-56.012002,-23.270135],[-56.012186,-23.269801],[-56.015208,-23.270621],[-56.016632,-23.271768],[-56.01729,-23.272928],[-56.019082,-23.273592],[-56.020133,-23.273356],[-56.020535,-23.273526],[-56.021192,-23.27478],[-56.022846,-23.274977],[-56.022012,-23.275904],[-56.022068,-23.27652],[-56.023355,-23.277106],[-56.023962,-23.276942],[-56.02423,-23.27616],[-56.024611,-23.27648],[-56.024629,-23.276871],[-56.023774,-23.277836],[-56.023868,-23.27875],[-56.025413,-23.277286],[-56.025898,-23.277215],[-56.027547,-23.278046],[-56.028441,-23.280084],[-56.029714,-23.279812],[-56.029667,-23.280819],[-56.029197,-23.281506],[-56.029839,-23.28205],[-56.030628,-23.281887],[-56.03115,-23.282319],[-56.031123,-23.283196],[-56.029797,-23.285108],[-56.030852,-23.287147],[-56.032059,-23.287714],[-56.032981,-23.28869],[-56.035887,-23.288857],[-56.037092,-23.289591],[-56.038028,-23.288609],[-56.039812,-23.287594],[-56.040012,-23.287856],[-56.039619,-23.289215],[-56.039778,-23.289477],[-56.042641,-23.289961],[-56.042982,-23.290336],[-56.043227,-23.292724],[-56.042514,-23.293615],[-56.042792,-23.294363],[-56.041555,-23.295083],[-56.041835,-23.295439],[-56.046666,-23.297426],[-56.048052,-23.298441],[-56.050467,-23.299519],[-56.051107,-23.300399],[-56.051531,-23.300346],[-56.05196,-23.299659],[-56.053823,-23.298831],[-56.054776,-23.301074],[-56.05451,-23.301595],[-56.053903,-23.301852],[-56.052874,-23.301659],[-56.052913,-23.301921],[-56.054839,-23.303629],[-56.053338,-23.304609],[-56.053891,-23.30629],[-56.053762,-23.30752],[-56.054847,-23.308179],[-56.056723,-23.308489],[-56.057814,-23.308309],[-56.060797,-23.309129],[-56.06129,-23.31068],[-56.061201,-23.311966],[-56.060316,-23.314273],[-56.060577,-23.314517],[-56.06328,-23.314831],[-56.064008,-23.314668],[-56.065774,-23.31341],[-56.069376,-23.312182],[-56.072063,-23.311993],[-56.075026,-23.312757],[-56.07601,-23.313452],[-56.076269,-23.314032],[-56.077863,-23.314209],[-56.077917,-23.315049],[-56.078279,-23.315331],[-56.08185,-23.315724],[-56.08221,-23.31623],[-56.081732,-23.31826],[-56.081911,-23.318597],[-56.084617,-23.318594],[-56.085635,-23.320353],[-56.087395,-23.319747],[-56.090216,-23.320659],[-56.09469,-23.324899],[-56.094789,-23.328275],[-56.09626,-23.328675],[-56.096659,-23.329368],[-56.09499,-23.331297],[-56.093957,-23.33172],[-56.094313,-23.332841],[-56.095279,-23.333369],[-56.098854,-23.333315],[-56.103191,-23.333955],[-56.10478,-23.334897],[-56.106598,-23.334907],[-56.108767,-23.336728],[-56.109516,-23.336397],[-56.110457,-23.334556],[-56.113721,-23.332616],[-56.113616,-23.327115],[-56.112917,-23.326011],[-56.113287,-23.324968],[-56.114155,-23.325122],[-56.116706,-23.327188],[-56.119303,-23.328303],[-56.122477,-23.327761],[-56.122941,-23.324687],[-56.123345,-23.324745],[-56.124508,-23.325964],[-56.125166,-23.327236],[-56.126318,-23.327112],[-56.12731,-23.323648],[-56.126648,-23.319878],[-56.126872,-23.319581],[-56.128406,-23.31972],[-56.12826,-23.317332],[-56.128464,-23.316923],[-56.129844,-23.315886],[-56.130801,-23.31468],[-56.134059,-23.31356],[-56.135619,-23.312729],[-56.139367,-23.313944],[-56.139821,-23.31555],[-56.139403,-23.317823],[-56.139583,-23.318066],[-56.142587,-23.318679],[-56.143681,-23.318238],[-56.143659,-23.315254],[-56.14648,-23.313087],[-56.147381,-23.311134],[-56.148497,-23.310189],[-56.151646,-23.310337],[-56.151967,-23.310656],[-56.151866,-23.313918],[-56.15212,-23.315244],[-56.153058,-23.316853],[-56.154189,-23.316952],[-56.155281,-23.316641],[-56.15591,-23.316197],[-56.157031,-23.314543],[-56.157436,-23.314303],[-56.158484,-23.31457],[-56.158965,-23.315169],[-56.159101,-23.31599],[-56.159024,-23.318675],[-56.158653,-23.319773],[-56.15939,-23.321512],[-56.160858,-23.322377],[-56.163477,-23.322938],[-56.164527,-23.322779],[-56.165043,-23.322431],[-56.164782,-23.321337],[-56.16267,-23.319986],[-56.162516,-23.319573],[-56.16329,-23.317206],[-56.166112,-23.315737],[-56.168174,-23.314325],[-56.168333,-23.313831],[-56.167939,-23.312696],[-56.16547,-23.31126],[-56.16396,-23.309994],[-56.163895,-23.309602],[-56.164791,-23.309112],[-56.166998,-23.30966],[-56.16854,-23.309359],[-56.170421,-23.308297],[-56.171822,-23.309191],[-56.173738,-23.309758],[-56.173881,-23.308295],[-56.172496,-23.304906],[-56.172591,-23.304],[-56.174123,-23.301555],[-56.174569,-23.301681],[-56.17632,-23.30369],[-56.177654,-23.304521],[-56.177964,-23.304935],[-56.178352,-23.307225],[-56.178882,-23.308053],[-56.179528,-23.308365],[-56.180219,-23.308369],[-56.180802,-23.30796],[-56.181588,-23.303511],[-56.182174,-23.302669],[-56.187477,-23.304098],[-56.189084,-23.304107],[-56.192149,-23.302885],[-56.194187,-23.301762],[-56.19531,-23.300696],[-56.196329,-23.301856],[-56.196524,-23.302949],[-56.195798,-23.304925],[-56.196547,-23.306495],[-56.197257,-23.307138],[-56.198838,-23.307785],[-56.203236,-23.307704],[-56.204944,-23.309465],[-56.20746,-23.310571],[-56.208153,-23.31043],[-56.208519,-23.308803],[-56.20774,-23.304717],[-56.208455,-23.304577],[-56.21086,-23.305496],[-56.211642,-23.305417],[-56.212538,-23.304865],[-56.21391,-23.303079],[-56.214178,-23.30308],[-56.216792,-23.306371],[-56.217794,-23.306891]]]}}]}
