{"type":"FeatureCollection","name":"distrito","features":[{"type":"Feature","properties":{"clave":"3-37","nombre":"Valenzuela"},"geometry":{"type":"Polygon","coordinates":[[[-56.903072,-25.664448],[-56.908081,-25.662045],[-56.919123,-25.658334],[-56.923287,-25.656149],[-56.924554,-25.655767],[-56.925821,-25.655604],[-56.929501,-25.655934],[-56.93861,-25.655282],[-56.942592,-25.653042],[-56.943377,-25.652878],[-56.94392,-25.652168],[-56.945308,-25.651621],[-56.947591,-25.641511],[-56.945125,-25.641118],[-56.943041,-25.640173],[-56.937963,-25.634924],[-56.934943,-25.630295],[-56.932099,-25.628271],[-56.931111,-25.624243],[-56.929602,-25.622481],[-56.928785,-25.622016],[-56.929107,-25.620567],[-56.928709,-25.620259],[-56.928171,-25.620584],[-56.927613,-25.61913],[-56.92707,-25.618999],[-56.926259,-25.617639],[-56.926177,-25.61652],[-56.92523,-25.616646],[-56.925578,-25.615463],[-56.925371,-25.61502],[-56.924869,-25.614821],[-56.924115,-25.613376],[-56.924204,-25.612432],[-56.923548,-25.611764],[-56.923615,-25.610811],[-56.922535,-25.60956],[-56.922825,-25.609077],[-56.922645,-25.608503],[-56.921239,-25.607234],[-56.920857,-25.606335],[-56.919942,-25.606086],[-56.918938,-25.60633],[-56.918256,-25.605905],[-56.917941,-25.60516],[-56.91684,-25.604604],[-56.916375,-25.60403],[-56.915465,-25.604011],[-56.914141,-25.60448],[-56.914379,-25.603844],[-56.913996,-25.603554],[-56.911058,-25.604487],[-56.910925,-25.603661],[-56.909943,-25.602857],[-56.909706,-25.602048],[-56.90983,-25.601759],[-56.910316,-25.601724],[-56.909857,-25.600599],[-56.910327,-25.60078],[-56.910302,-25.600283],[-56.910617,-25.600107],[-56.910199,-25.599069],[-56.91053,-25.598717],[-56.909926,-25.598156],[-56.910412,-25.597683],[-56.910924,-25.597687],[-56.910878,-25.597182],[-56.911219,-25.596897],[-56.911329,-25.595615],[-56.911008,-25.595118],[-56.911376,-25.594938],[-56.911656,-25.59404],[-56.912649,-25.593471],[-56.912344,-25.593056],[-56.913875,-25.591905],[-56.91429,-25.590262],[-56.914849,-25.589603],[-56.916209,-25.590087],[-56.916783,-25.589749],[-56.916707,-25.587875],[-56.917084,-25.587243],[-56.916785,-25.58648],[-56.917049,-25.585699],[-56.917536,-25.585347],[-56.917257,-25.584746],[-56.916559,-25.584655],[-56.916228,-25.584303],[-56.916125,-25.583535],[-56.917274,-25.58243],[-56.917704,-25.581057],[-56.918283,-25.581058],[-56.918728,-25.579767],[-56.919277,-25.579437],[-56.919505,-25.578724],[-56.920047,-25.578946],[-56.920332,-25.578359],[-56.920963,-25.578468],[-56.920881,-25.577415],[-56.920349,-25.576697],[-56.92096,-25.575546],[-56.920422,-25.575239],[-56.920262,-25.574593],[-56.919037,-25.574195],[-56.917941,-25.574416],[-56.915832,-25.573742],[-56.913941,-25.572652],[-56.913207,-25.572959],[-56.912121,-25.572624],[-56.910592,-25.570614],[-56.909858,-25.570614],[-56.908484,-25.570003],[-56.907491,-25.570021],[-56.907408,-25.569678],[-56.906995,-25.569646],[-56.906964,-25.56919],[-56.905786,-25.56941],[-56.905558,-25.56899],[-56.905663,-25.567116],[-56.905302,-25.566637],[-56.905592,-25.565396],[-56.906667,-25.565613],[-56.906926,-25.564706],[-56.908353,-25.564639],[-56.908561,-25.563732],[-56.908809,-25.563664],[-56.909997,-25.564351],[-56.910804,-25.564352],[-56.911735,-25.563937],[-56.91377,-25.565442],[-56.915032,-25.564232],[-56.916645,-25.564296],[-56.917328,-25.564044],[-56.919229,-25.565639],[-56.920521,-25.566014],[-56.921523,-25.567807],[-56.922247,-25.567537],[-56.923094,-25.568111],[-56.926071,-25.568889],[-56.927664,-25.568723],[-56.927974,-25.568592],[-56.928192,-25.567861],[-56.92876,-25.567757],[-56.929039,-25.568073],[-56.929288,-25.567775],[-56.929391,-25.568186],[-56.930156,-25.568281],[-56.930321,-25.568656],[-56.931686,-25.568291],[-56.931841,-25.568865],[-56.932606,-25.568734],[-56.932947,-25.569041],[-56.933681,-25.56906],[-56.933992,-25.568798],[-56.934467,-25.569042],[-56.934674,-25.568238],[-56.934984,-25.568424],[-56.935263,-25.568239],[-56.936453,-25.566465],[-56.936588,-25.566889],[-56.936918,-25.566803],[-56.93667,-25.566203],[-56.937291,-25.566673],[-56.938397,-25.566326],[-56.938883,-25.566615],[-56.939679,-25.566091],[-56.940848,-25.565961],[-56.940807,-25.565315],[-56.94121,-25.565455],[-56.941892,-25.565153],[-56.942048,-25.564629],[-56.942647,-25.564535],[-56.945026,-25.562341],[-56.945585,-25.5624],[-56.945905,-25.56175],[-56.947115,-25.562645],[-56.947776,-25.562455],[-56.948479,-25.562993],[-56.950092,-25.56228],[-56.95155,-25.562289],[-56.951787,-25.562962],[-56.952408,-25.562466],[-56.953866,-25.56257],[-56.954765,-25.563013],[-56.95522,-25.562291],[-56.955779,-25.56225],[-56.956151,-25.562702],[-56.956802,-25.56244],[-56.95675,-25.563361],[-56.957731,-25.565068],[-56.961722,-25.566501],[-56.964647,-25.569224],[-56.966983,-25.569965],[-56.970803,-25.570088],[-56.980261,-25.547324],[-56.973454,-25.544354],[-56.965982,-25.529797],[-56.966136,-25.529222],[-56.962017,-25.527742],[-56.932216,-25.512452],[-56.930862,-25.513237],[-56.929673,-25.513173],[-56.928072,-25.511587],[-56.927329,-25.510386],[-56.927,-25.508377],[-56.851227,-25.507642],[-56.851207,-25.506612],[-56.850491,-25.507655],[-56.849732,-25.50783],[-56.846711,-25.506834],[-56.845033,-25.505563],[-56.844579,-25.504863],[-56.843291,-25.504324],[-56.843255,-25.506657],[-56.843582,-25.507518],[-56.844473,-25.508148],[-56.844648,-25.509225],[-56.844423,-25.510029],[-56.843249,-25.510801],[-56.841882,-25.512738],[-56.840938,-25.512986],[-56.840469,-25.513523],[-56.840394,-25.515383],[-56.839782,-25.51683],[-56.839539,-25.519063],[-56.838506,-25.519942],[-56.83725,-25.523347],[-56.837508,-25.524851],[-56.83733,-25.525703],[-56.83432,-25.530601],[-56.808321,-25.539573],[-56.810162,-25.552552],[-56.801748,-25.553724],[-56.802188,-25.557548],[-56.803342,-25.562986],[-56.799072,-25.563776],[-56.803062,-25.581242],[-56.803111,-25.582893],[-56.804162,-25.586482],[-56.80429,-25.58916],[-56.805482,-25.592642],[-56.807599,-25.603826],[-56.811463,-25.618011],[-56.810964,-25.618335],[-56.811334,-25.619094],[-56.810622,-25.619639],[-56.810791,-25.620452],[-56.810342,-25.620285],[-56.809721,-25.62121],[-56.807353,-25.621116],[-56.807615,-25.621803],[-56.807429,-25.622322],[-56.806685,-25.6227],[-56.80608,-25.623557],[-56.805466,-25.623774],[-56.810808,-25.625527],[-56.815086,-25.628682],[-56.817763,-25.632484],[-56.820318,-25.633997],[-56.820935,-25.635049],[-56.821229,-25.638088],[-56.82266,-25.638934],[-56.823006,-25.640285],[-56.823499,-25.640637],[-56.823447,-25.64317],[-56.825907,-25.644848],[-56.829639,-25.6459],[-56.832113,-25.647781],[-56.835957,-25.648996],[-56.838321,-25.649265],[-56.841299,-25.648564],[-56.842328,-25.64884],[-56.844227,-25.648666],[-56.845646,-25.648013],[-56.8468,-25.648267],[-56.84971,-25.646455],[-56.853417,-25.646093],[-56.855323,-25.646158],[-56.857589,-25.646702],[-56.857887,-25.651308],[-56.85849,-25.652216],[-56.860404,-25.652367],[-56.860254,-25.654214],[-56.861282,-25.654173],[-56.861185,-25.65832],[-56.862565,-25.662256],[-56.8635,-25.663105],[-56.864734,-25.663615],[-56.867803,-25.664025],[-56.873209,-25.665354],[-56.877491,-25.66667],[-56.882679,-25.667167],[-56.889072,-25.668976],[-56.895649,-25.667231],[-56.903072,-25.664448]]]}}]}
