{"type":"FeatureCollection","name":"distrito","features":[{"type":"Feature","properties":{"clave":"12-11","nombre":"Humaitá"},"geometry":{"type":"Polygon","coordinates":[[[-58.387952,-27.07085],[-58.400158,-27.153292],[-58.463053,-27.164116],[-58.483898,-27.167118],[-58.487054,-27.166285],[-58.488592,-27.166205],[-58.490213,-27.165672],[-58.490836,-27.165132],[-58.491736,-27.165609],[-58.49223,-27.165525],[-58.492564,-27.164957],[-58.492231,-27.164287],[-58.493287,-27.162998],[-58.494967,-27.159596],[-58.496112,-27.158745],[-58.497163,-27.158397],[-58.498697,-27.15849],[-58.499816,-27.159293],[-58.499936,-27.159762],[-58.502358,-27.160347],[-58.504369,-27.163013],[-58.504522,-27.163364],[-58.504139,-27.164183],[-58.504351,-27.16433],[-58.505487,-27.16413],[-58.507806,-27.164873],[-58.509336,-27.164852],[-58.514209,-27.164177],[-58.518544,-27.16572],[-58.519422,-27.165539],[-58.519615,-27.163585],[-58.520039,-27.162915],[-58.521815,-27.16147],[-58.523676,-27.160728],[-58.525651,-27.160762],[-58.527895,-27.161458],[-58.540708,-27.161752],[-58.544572,-27.168672],[-58.545287,-27.169377],[-58.548179,-27.170717],[-58.552246,-27.170844],[-58.553671,-27.171314],[-58.554973,-27.172616],[-58.557272,-27.173507],[-58.557646,-27.173362],[-58.557721,-27.173683],[-58.559111,-27.174067],[-58.559387,-27.17444],[-58.561646,-27.174955],[-58.561593,-27.175239],[-58.56209,-27.175405],[-58.562689,-27.176229],[-58.564675,-27.176677],[-58.567273,-27.182015],[-58.621909,-27.191362],[-58.645827,-27.196756],[-58.649619,-27.195014],[-58.653895,-27.192579],[-58.659632,-27.187018],[-58.661328,-27.184557],[-58.662702,-27.181822],[-58.663743,-27.179306],[-58.664397,-27.176413],[-58.664912,-27.170917],[-58.664337,-27.16555],[-58.662414,-27.159913],[-58.658138,-27.150108],[-58.651705,-27.133666],[-58.647934,-27.127701],[-58.643788,-27.124124],[-58.640855,-27.122069],[-58.627128,-27.115174],[-58.623031,-27.113891],[-58.617717,-27.112715],[-58.595752,-27.110768],[-58.587961,-27.109347],[-58.584279,-27.108991],[-58.569145,-27.108785],[-58.561204,-27.10812],[-58.556879,-27.107318],[-58.555555,-27.106599],[-58.554679,-27.105488],[-58.553346,-27.102325],[-58.553127,-27.09863],[-58.554392,-27.093771],[-58.557888,-27.085611],[-58.558965,-27.082337],[-58.559404,-27.079684],[-58.55964,-27.074345],[-58.559216,-27.070662],[-58.556856,-27.060141],[-58.556694,-27.057857],[-58.557001,-27.054205],[-58.558815,-27.045738],[-58.558865,-27.041845],[-58.55721,-27.038096],[-58.555307,-27.036528],[-58.552982,-27.035249],[-58.551147,-27.034737],[-58.548774,-27.034526],[-58.540636,-27.035239],[-58.53573,-27.036125],[-58.531056,-27.037528],[-58.525462,-27.039966],[-58.522649,-27.042017],[-58.521436,-27.043433],[-58.518748,-27.048263],[-58.520198,-27.059382],[-58.516196,-27.062368],[-58.508983,-27.062489],[-58.502864,-27.05173],[-58.502949,-27.034635],[-58.492872,-27.033087],[-58.489125,-27.032059],[-58.486976,-27.030643],[-58.485402,-27.030331],[-58.480752,-27.03045],[-58.478723,-27.028855],[-58.477718,-27.029283],[-58.476253,-27.02866],[-58.474665,-27.029782],[-58.47306,-27.029688],[-58.469967,-27.028947],[-58.465651,-27.028992],[-58.465164,-27.029439],[-58.461463,-27.029367],[-58.459319,-27.030494],[-58.454798,-27.029969],[-58.453632,-27.029448],[-58.452276,-27.029462],[-58.450042,-27.028381],[-58.444894,-27.024217],[-58.441299,-27.019745],[-58.439558,-27.018513],[-58.439018,-27.019388],[-58.437824,-27.020387],[-58.436129,-27.023343],[-58.434576,-27.024453],[-58.434836,-27.025554],[-58.433743,-27.026891],[-58.432687,-27.031099],[-58.428914,-27.035113],[-58.427444,-27.035901],[-58.425897,-27.035177],[-58.423091,-27.036357],[-58.422481,-27.036092],[-58.421878,-27.036369],[-58.421798,-27.038044],[-58.421356,-27.038998],[-58.421411,-27.03936],[-58.422189,-27.039869],[-58.421672,-27.040462],[-58.418579,-27.040846],[-58.414484,-27.040864],[-58.410561,-27.040374],[-58.410472,-27.039334],[-58.409553,-27.038529],[-58.409186,-27.037492],[-58.408484,-27.037906],[-58.407624,-27.037779],[-58.407578,-27.038187],[-58.406714,-27.037743],[-58.405754,-27.037753],[-58.405394,-27.037213],[-58.40543,-27.036037],[-58.404568,-27.035774],[-58.403492,-27.034563],[-58.403374,-27.033207],[-58.403067,-27.032894],[-58.403248,-27.031218],[-58.402993,-27.028958],[-58.402084,-27.029058],[-58.400713,-27.028483],[-58.400698,-27.027217],[-58.399584,-27.027047],[-58.398994,-27.028365],[-58.398342,-27.028688],[-58.397784,-27.028558],[-58.396782,-27.029201],[-58.396715,-27.027845],[-58.39556,-27.028399],[-58.395202,-27.028041],[-58.393532,-27.027831],[-58.393571,-27.02688],[-58.393212,-27.026432],[-58.392147,-27.026125],[-58.39107,-27.024779],[-58.389302,-27.024842],[-58.389348,-27.024479],[-58.388793,-27.024485],[-58.388225,-27.02354],[-58.386746,-27.024414],[-58.385901,-27.025554],[-58.384993,-27.025653],[-58.384547,-27.026381],[-58.384107,-27.027562],[-58.384461,-27.027604],[-58.385034,-27.028955],[-58.383616,-27.028698],[-58.382868,-27.029519],[-58.382211,-27.029435],[-58.381308,-27.029987],[-58.381312,-27.030304],[-58.379175,-27.031139],[-58.378759,-27.030148],[-58.378404,-27.030061],[-58.378033,-27.028662],[-58.377019,-27.02831],[-58.376495,-27.026777],[-58.375782,-27.026332],[-58.37553,-27.026334],[-58.375235,-27.027061],[-58.374733,-27.027247],[-58.374073,-27.026982],[-58.372611,-27.027267],[-58.371594,-27.026734],[-58.37043,-27.026565],[-58.370173,-27.02616],[-58.369668,-27.026165],[-58.369321,-27.026711],[-58.3673,-27.026731],[-58.366712,-27.028579],[-58.361781,-27.034558],[-58.360949,-27.035023],[-58.374123,-27.073871],[-58.387952,-27.07085]]]}}]}
