{"type":"FeatureCollection","name":"distrito","features":[{"type":"Feature","properties":{"clave":"1-5","nombre":"Loreto"},"geometry":{"type":"Polygon","coordinates":[[[-57.330458,-23.304793],[-57.331633,-23.305929],[-57.332138,-23.305806],[-57.333439,-23.304647],[-57.335698,-23.306498],[-57.337519,-23.307104],[-57.338166,-23.307035],[-57.338607,-23.305449],[-57.338454,-23.304989],[-57.337927,-23.304515],[-57.336997,-23.30463],[-57.336995,-23.303741],[-57.33752,-23.303301],[-57.338108,-23.303937],[-57.338821,-23.302206],[-57.338708,-23.301574],[-57.33907,-23.300593],[-57.339333,-23.300619],[-57.339983,-23.301869],[-57.341478,-23.3015],[-57.341901,-23.300867],[-57.341927,-23.299241],[-57.343096,-23.297978],[-57.342862,-23.297147],[-57.34365,-23.297137],[-57.34434,-23.298079],[-57.344916,-23.298028],[-57.345972,-23.296066],[-57.346376,-23.29588],[-57.347044,-23.296289],[-57.347906,-23.29327],[-57.348211,-23.290207],[-57.348746,-23.290102],[-57.349214,-23.290923],[-57.350254,-23.290681],[-57.351023,-23.290946],[-57.351775,-23.288713],[-57.352916,-23.288219],[-57.353725,-23.288461],[-57.354372,-23.288288],[-57.354499,-23.286666],[-57.354851,-23.286195],[-57.357224,-23.285192],[-57.358337,-23.285618],[-57.358629,-23.285487],[-57.358677,-23.284285],[-57.359333,-23.283823],[-57.360859,-23.284],[-57.36118,-23.283214],[-57.361076,-23.282058],[-57.36157,-23.28142],[-57.363003,-23.280648],[-57.364408,-23.280817],[-57.365336,-23.280169],[-57.366723,-23.277216],[-57.367036,-23.276936],[-57.368148,-23.277389],[-57.368792,-23.276064],[-57.370223,-23.274697],[-57.370473,-23.273734],[-57.371814,-23.272647],[-57.372996,-23.272346],[-57.376978,-23.272513],[-57.378204,-23.272298],[-57.378252,-23.272054],[-57.377928,-23.271869],[-57.377324,-23.269409],[-57.376959,-23.269157],[-57.376221,-23.26943],[-57.375652,-23.268844],[-57.375407,-23.267987],[-57.375801,-23.26762],[-57.375354,-23.266966],[-57.374598,-23.267171],[-57.373989,-23.266274],[-57.373281,-23.265901],[-57.372292,-23.266576],[-57.370043,-23.264436],[-57.369558,-23.264396],[-57.368913,-23.264999],[-57.367618,-23.264554],[-57.366686,-23.263694],[-57.367129,-23.263282],[-57.366885,-23.262722],[-57.366219,-23.262801],[-57.365533,-23.263286],[-57.363794,-23.26305],[-57.363227,-23.262754],[-57.362353,-23.260868],[-57.360636,-23.261246],[-57.359847,-23.26091],[-57.359781,-23.259026],[-57.357861,-23.258972],[-57.357477,-23.258729],[-57.357534,-23.257573],[-57.356196,-23.25595],[-57.356594,-23.253505],[-57.355397,-23.25181],[-57.35511,-23.250352],[-57.355253,-23.246305],[-57.354631,-23.244025],[-57.353796,-23.241836],[-57.351902,-23.240039],[-57.351888,-23.238237],[-57.351401,-23.237646],[-57.351611,-23.236828],[-57.351286,-23.236115],[-57.350379,-23.235801],[-57.349626,-23.236042],[-57.350411,-23.235307],[-57.351298,-23.233721],[-57.352164,-23.231104],[-57.352092,-23.224298],[-57.33685,-23.219684],[-57.334555,-23.217995],[-57.331155,-23.213472],[-57.330534,-23.212033],[-57.329864,-23.20848],[-57.329731,-23.202581],[-57.328554,-23.198794],[-57.328539,-23.197159],[-57.329105,-23.195672],[-57.329096,-23.194828],[-57.32761,-23.191651],[-57.326231,-23.191636],[-57.325903,-23.191302],[-57.325535,-23.188358],[-57.323953,-23.184017],[-57.323321,-23.180152],[-57.320485,-23.171612],[-57.319673,-23.170184],[-57.317689,-23.164908],[-57.315766,-23.163724],[-57.316604,-23.150541],[-57.313563,-23.135408],[-57.314613,-23.13307],[-57.328239,-23.122561],[-57.328234,-23.120289],[-57.325259,-23.114622],[-57.323776,-23.113451],[-57.323771,-23.111495],[-57.32461,-23.108363],[-57.326294,-23.105425],[-57.329465,-23.104831],[-57.33115,-23.101893],[-57.331525,-23.100669],[-57.332571,-23.100157],[-57.333916,-23.097842],[-57.335967,-23.096451],[-57.339818,-23.095485],[-57.340063,-23.09394],[-57.339218,-23.093124],[-57.333362,-23.092762],[-57.332734,-23.092524],[-57.332455,-23.092073],[-57.332868,-23.090581],[-57.334349,-23.089241],[-57.336348,-23.089328],[-57.338253,-23.090841],[-57.339335,-23.090586],[-57.340444,-23.089811],[-57.340631,-23.089305],[-57.340377,-23.088614],[-57.338247,-23.086997],[-57.337454,-23.085834],[-57.334911,-23.085108],[-57.332939,-23.085413],[-57.331296,-23.087223],[-57.330938,-23.090648],[-57.330087,-23.091873],[-57.328849,-23.092778],[-57.321097,-23.092274],[-57.319989,-23.092932],[-57.318711,-23.094258],[-57.317157,-23.095118],[-57.315955,-23.094898],[-57.315164,-23.093937],[-57.315356,-23.092921],[-57.316303,-23.09185],[-57.3167,-23.090378],[-57.315597,-23.08856],[-57.312835,-23.086216],[-57.312397,-23.084746],[-57.311687,-23.084567],[-57.310774,-23.085384],[-57.308797,-23.08633],[-57.306511,-23.086937],[-57.30609,-23.087806],[-57.30687,-23.089138],[-57.308977,-23.089663],[-57.309654,-23.090836],[-57.309714,-23.091969],[-57.310532,-23.09457],[-57.309734,-23.095535],[-57.308589,-23.095474],[-57.307555,-23.093264],[-57.306626,-23.092239],[-57.305286,-23.091713],[-57.30324,-23.092267],[-57.300826,-23.092324],[-57.299691,-23.091162],[-57.29904,-23.086623],[-57.297505,-23.085927],[-57.294806,-23.08588],[-57.290144,-23.083126],[-57.288405,-23.082854],[-57.28661,-23.083651],[-57.285983,-23.084488],[-57.286065,-23.085504],[-57.288438,-23.087606],[-57.288647,-23.089288],[-57.288397,-23.090178],[-57.28698,-23.090857],[-57.283379,-23.091891],[-57.280017,-23.092447],[-57.277406,-23.091361],[-57.274843,-23.091186],[-57.269474,-23.088983],[-57.268579,-23.087535],[-57.268588,-23.086403],[-57.270283,-23.081648],[-57.269695,-23.079627],[-57.263299,-23.074409],[-57.262051,-23.074035],[-57.26048,-23.074815],[-57.258397,-23.077051],[-57.255534,-23.082725],[-57.258095,-23.089143],[-57.26091,-23.101004],[-57.262573,-23.105316],[-57.262007,-23.107048],[-57.258111,-23.108928],[-57.256617,-23.10917],[-57.254291,-23.109059],[-57.252305,-23.109994],[-57.248113,-23.110605],[-57.247107,-23.11174],[-57.246049,-23.113807],[-57.244988,-23.114565],[-57.242429,-23.115022],[-57.239461,-23.1148],[-57.236325,-23.112789],[-57.235154,-23.112665],[-57.233575,-23.11302],[-57.232509,-23.110856],[-57.230221,-23.110179],[-57.229974,-23.10897],[-57.232721,-23.107052],[-57.233236,-23.106069],[-57.233262,-23.104985],[-57.231681,-23.104282],[-57.231301,-23.104812],[-57.231168,-23.106676],[-57.230244,-23.107509],[-57.229154,-23.10746],[-57.228418,-23.106831],[-57.22798,-23.105346],[-57.228224,-23.104741],[-57.228849,-23.104337],[-57.230537,-23.103705],[-57.231324,-23.102646],[-57.231622,-23.101663],[-57.231267,-23.100706],[-57.230367,-23.100027],[-57.229468,-23.099852],[-57.229087,-23.10008],[-57.229118,-23.101893],[-57.226724,-23.103458],[-57.226233,-23.103207],[-57.225987,-23.102578],[-57.22721,-23.100989],[-57.227209,-23.100259],[-57.226908,-23.099705],[-57.226227,-23.099353],[-57.225138,-23.099582],[-57.223915,-23.101095],[-57.223017,-23.101524],[-57.22201,-23.101425],[-57.22141,-23.100897],[-57.220644,-23.099084],[-57.219609,-23.098557],[-57.215144,-23.098664],[-57.213701,-23.098943],[-57.213101,-23.098666],[-57.213046,-23.098037],[-57.214623,-23.096624],[-57.214322,-23.095944],[-57.212741,-23.09441],[-57.212058,-23.093227],[-57.21105,-23.09275],[-57.208844,-23.092375],[-57.207862,-23.09162],[-57.207671,-23.09084],[-57.208293,-23.088522],[-57.208074,-23.087842],[-57.207421,-23.087565],[-57.204918,-23.088753],[-57.202358,-23.088957],[-57.201922,-23.088505],[-57.201921,-23.08785],[-57.202817,-23.086337],[-57.202707,-23.085078],[-57.202161,-23.084348],[-57.200417,-23.083393],[-57.199817,-23.082689],[-57.199272,-23.082639],[-57.198976,-23.084352],[-57.198486,-23.084756],[-57.197724,-23.084681],[-57.196171,-23.083877],[-57.195463,-23.083878],[-57.194674,-23.084509],[-57.194593,-23.085088],[-57.195194,-23.086498],[-57.195197,-23.088412],[-57.194735,-23.088816],[-57.193945,-23.088792],[-57.193508,-23.088137],[-57.193643,-23.08713],[-57.193261,-23.086374],[-57.192553,-23.086048],[-57.191546,-23.086402],[-57.190787,-23.089098],[-57.189263,-23.089704],[-57.18714,-23.090085],[-57.186161,-23.090841],[-57.185812,-23.094771],[-57.185215,-23.095729],[-57.184044,-23.096083],[-57.182791,-23.095782],[-57.182028,-23.094826],[-57.182081,-23.093869],[-57.183739,-23.091953],[-57.183791,-23.090265],[-57.183626,-23.08898],[-57.183108,-23.088578],[-57.182074,-23.088529],[-57.181639,-23.089159],[-57.182132,-23.091451],[-57.181697,-23.092308],[-57.180881,-23.092837],[-57.177968,-23.092916],[-57.177016,-23.093522],[-57.176908,-23.09453],[-57.178163,-23.096065],[-57.178355,-23.097122],[-57.177893,-23.098206],[-57.177104,-23.09861],[-57.17596,-23.098511],[-57.174025,-23.096699],[-57.171927,-23.095971],[-57.171927,-23.095392],[-57.172851,-23.094484],[-57.173204,-23.093526],[-57.172413,-23.092242],[-57.171813,-23.092117],[-57.168357,-23.093456],[-57.167624,-23.094842],[-57.166318,-23.095876],[-57.164875,-23.09623],[-57.161797,-23.094697],[-57.16019,-23.094573],[-57.154585,-23.097853],[-57.153278,-23.097904],[-57.152134,-23.097528],[-57.151534,-23.096798],[-57.151696,-23.09584],[-57.153219,-23.094353],[-57.153463,-23.093547],[-57.153299,-23.092539],[-57.149567,-23.090931],[-57.149049,-23.090024],[-57.149184,-23.089042],[-57.151769,-23.087629],[-57.152557,-23.08652],[-57.152501,-23.085537],[-57.152065,-23.084958],[-57.150949,-23.084808],[-57.148609,-23.0867],[-57.147276,-23.087381],[-57.146105,-23.087231],[-57.145015,-23.086628],[-57.14308,-23.084337],[-57.141854,-23.08391],[-57.140139,-23.083861],[-57.138234,-23.084744],[-57.131537,-23.085959],[-57.129931,-23.085784],[-57.128596,-23.084677],[-57.12824,-23.083367],[-57.128839,-23.08241],[-57.131615,-23.081501],[-57.13341,-23.080215],[-57.134253,-23.078728],[-57.134251,-23.076612],[-57.133377,-23.07422],[-57.133265,-23.071096],[-57.132038,-23.068578],[-57.127542,-23.064224],[-57.124298,-23.059919],[-57.12152,-23.058083],[-57.119775,-23.054684],[-57.117159,-23.051335],[-57.116261,-23.051185],[-57.115499,-23.051866],[-57.114086,-23.055015],[-57.113107,-23.055495],[-57.109512,-23.053482],[-57.107851,-23.053407],[-57.105974,-23.054316],[-57.105077,-23.055601],[-57.105105,-23.056659],[-57.106359,-23.059706],[-57.10598,-23.06157],[-57.104783,-23.063359],[-57.10228,-23.065401],[-57.100675,-23.065856],[-57.099149,-23.065051],[-57.097324,-23.063414],[-57.09599,-23.063012],[-57.092778,-23.063065],[-57.087334,-23.063672],[-57.084286,-23.064782],[-57.083279,-23.064758],[-57.08189,-23.064204],[-57.079956,-23.062744],[-57.075682,-23.061915],[-57.07462,-23.061135],[-57.071242,-23.057459],[-57.069473,-23.056552],[-57.066178,-23.055798],[-57.061497,-23.057135],[-57.05766,-23.059479],[-57.056109,-23.059984],[-57.055592,-23.062729],[-57.053661,-23.066408],[-57.053389,-23.067743],[-57.047973,-23.069684],[-57.047211,-23.070868],[-57.045115,-23.07301],[-57.043919,-23.076209],[-57.04332,-23.076335],[-57.042857,-23.076033],[-57.041985,-23.074799],[-57.041196,-23.074396],[-57.040597,-23.074598],[-57.039644,-23.077016],[-57.038501,-23.077369],[-57.037358,-23.076916],[-57.036159,-23.074473],[-57.036676,-23.072282],[-57.036076,-23.07067],[-57.035341,-23.070594],[-57.033245,-23.071124],[-57.030604,-23.070293],[-57.029651,-23.070268],[-57.027664,-23.071301],[-57.025133,-23.071856],[-57.02369,-23.072536],[-57.021757,-23.071831],[-57.018381,-23.07226],[-57.017755,-23.072688],[-57.017565,-23.073519],[-57.01849,-23.074955],[-57.018572,-23.076063],[-57.018273,-23.07692],[-57.017565,-23.077449],[-57.015986,-23.077575],[-57.013808,-23.076996],[-57.011358,-23.077197],[-57.004279,-23.076593],[-57.004252,-23.077651],[-57.00673,-23.079389],[-57.007819,-23.080548],[-57.008418,-23.081757],[-57.008391,-23.08289],[-57.007165,-23.083445],[-57.001992,-23.079137],[-57.000876,-23.079238],[-57.000468,-23.08017],[-57.000577,-23.080624],[-57.002537,-23.081984],[-57.003163,-23.083369],[-57.005287,-23.083822],[-57.005886,-23.084427],[-57.005886,-23.085208],[-57.005423,-23.085913],[-57.004879,-23.086215],[-57.002728,-23.085812],[-57.001856,-23.085989],[-57.000958,-23.087399],[-57.000304,-23.087903],[-56.999351,-23.088105],[-56.998099,-23.087425],[-56.996847,-23.087248],[-56.996003,-23.087525],[-56.994233,-23.089515],[-56.993389,-23.089868],[-56.992626,-23.089843],[-56.991646,-23.089036],[-56.991238,-23.087651],[-56.990612,-23.086795],[-56.989196,-23.085888],[-56.987426,-23.085384],[-56.987018,-23.085787],[-56.987072,-23.086442],[-56.989359,-23.087701],[-56.989495,-23.088407],[-56.988515,-23.08959],[-56.987753,-23.08959],[-56.986936,-23.088809],[-56.985983,-23.088583],[-56.983696,-23.090623],[-56.982552,-23.090824],[-56.98002,-23.088859],[-56.977842,-23.08838],[-56.977406,-23.088783],[-56.977297,-23.091151],[-56.976425,-23.09236],[-56.975146,-23.092914],[-56.974356,-23.092687],[-56.973131,-23.090571],[-56.972423,-23.090092],[-56.971552,-23.089941],[-56.969946,-23.090268],[-56.968829,-23.090041],[-56.968203,-23.089159],[-56.968177,-23.086464],[-56.967768,-23.085834],[-56.967115,-23.085532],[-56.965835,-23.085632],[-56.965073,-23.086413],[-56.964909,-23.08727],[-56.965018,-23.087925],[-56.966515,-23.08863],[-56.967277,-23.089638],[-56.967658,-23.090671],[-56.966787,-23.091754],[-56.965752,-23.091854],[-56.964228,-23.091476],[-56.960634,-23.088352],[-56.959872,-23.088326],[-56.958783,-23.088603],[-56.958428,-23.090946],[-56.957638,-23.092683],[-56.95418,-23.093967],[-56.951539,-23.093034],[-56.949442,-23.093235],[-56.947319,-23.091824],[-56.946748,-23.090464],[-56.946721,-23.089733],[-56.947129,-23.089179],[-56.94645,-23.086811],[-56.946014,-23.086257],[-56.945306,-23.08613],[-56.943373,-23.086835],[-56.940568,-23.087111],[-56.939534,-23.08769],[-56.937898,-23.090989],[-56.937245,-23.091543],[-56.936074,-23.091719],[-56.934467,-23.091366],[-56.931936,-23.090105],[-56.929023,-23.090205],[-56.926328,-23.088969],[-56.925539,-23.087961],[-56.925158,-23.086601],[-56.925323,-23.084183],[-56.924915,-23.083553],[-56.923799,-23.082872],[-56.922547,-23.082544],[-56.921349,-23.082619],[-56.920504,-23.083097],[-56.91797,-23.087504],[-56.914837,-23.089921],[-56.906347,-23.09302],[-56.904225,-23.095849],[-56.904169,-23.096897],[-56.902475,-23.097912],[-56.902393,-23.10237],[-56.90098,-23.102825],[-56.900386,-23.103543],[-56.899655,-23.105855],[-56.899474,-23.107919],[-56.898487,-23.108871],[-56.898777,-23.11214],[-56.899448,-23.113104],[-56.9003,-23.113186],[-56.900692,-23.113593],[-56.900801,-23.115696],[-57.14352,-23.255227],[-57.178065,-23.239618],[-57.214028,-23.294973],[-57.21347,-23.305841],[-57.20691,-23.307478],[-57.20778,-23.310097],[-57.187629,-23.308403],[-57.184207,-23.321785],[-57.182351,-23.325802],[-57.203639,-23.329146],[-57.203237,-23.355072],[-57.205065,-23.354585],[-57.210282,-23.354393],[-57.212729,-23.354593],[-57.213677,-23.353079],[-57.215758,-23.351527],[-57.219839,-23.349412],[-57.222813,-23.349932],[-57.22336,-23.350789],[-57.224412,-23.350882],[-57.22518,-23.350542],[-57.225704,-23.349553],[-57.226816,-23.349235],[-57.228193,-23.350484],[-57.228719,-23.350537],[-57.229445,-23.349136],[-57.230495,-23.348444],[-57.23225,-23.346237],[-57.233948,-23.345882],[-57.234495,-23.346514],[-57.235709,-23.346476],[-57.236416,-23.3461],[-57.236576,-23.345241],[-57.237506,-23.34524],[-57.238196,-23.346174],[-57.2386,-23.346227],[-57.239044,-23.345874],[-57.239203,-23.344379],[-57.241001,-23.343482],[-57.241304,-23.342881],[-57.242842,-23.34361],[-57.243569,-23.343289],[-57.24385,-23.341947],[-57.244941,-23.341421],[-57.245588,-23.341587],[-57.246096,-23.342594],[-57.246904,-23.342502],[-57.247268,-23.342127],[-57.247387,-23.341191],[-57.248154,-23.340427],[-57.249368,-23.340818],[-57.251602,-23.338935],[-57.252644,-23.338857],[-57.253421,-23.338183],[-57.253918,-23.338923],[-57.25399,-23.339763],[-57.254577,-23.340024],[-57.254575,-23.339143],[-57.257241,-23.33716],[-57.257868,-23.337087],[-57.258111,-23.337615],[-57.25891,-23.33742],[-57.259998,-23.335272],[-57.260697,-23.335233],[-57.26108,-23.335754],[-57.261961,-23.336145],[-57.262458,-23.336976],[-57.264259,-23.337551],[-57.264433,-23.338838],[-57.265779,-23.339413],[-57.267486,-23.338191],[-57.268735,-23.335786],[-57.269967,-23.335292],[-57.273294,-23.335471],[-57.274013,-23.336152],[-57.275825,-23.336935],[-57.276136,-23.33585],[-57.276854,-23.335605],[-57.277629,-23.334249],[-57.278741,-23.33393],[-57.279787,-23.331304],[-57.280676,-23.33096],[-57.281855,-23.32935],[-57.282906,-23.328973],[-57.284484,-23.329354],[-57.285686,-23.328774],[-57.287233,-23.328866],[-57.289234,-23.328496],[-57.290267,-23.328878],[-57.290741,-23.328272],[-57.291266,-23.328212],[-57.293033,-23.326904],[-57.293366,-23.326975],[-57.293743,-23.328004],[-57.295375,-23.325544],[-57.29764,-23.325355],[-57.298601,-23.325836],[-57.300065,-23.324917],[-57.300618,-23.323665],[-57.30194,-23.322583],[-57.302018,-23.321124],[-57.3023,-23.320721],[-57.302968,-23.320901],[-57.303293,-23.321568],[-57.304788,-23.320996],[-57.30584,-23.321527],[-57.3068,-23.321069],[-57.308327,-23.321355],[-57.30827,-23.322765],[-57.309131,-23.323382],[-57.3101,-23.323118],[-57.312312,-23.321794],[-57.313161,-23.321712],[-57.313655,-23.321169],[-57.314484,-23.321289],[-57.314776,-23.320679],[-57.314318,-23.319541],[-57.315233,-23.316662],[-57.318503,-23.315043],[-57.319905,-23.313509],[-57.320957,-23.313927],[-57.321431,-23.313272],[-57.322987,-23.313006],[-57.324258,-23.312109],[-57.32481,-23.310388],[-57.324684,-23.308559],[-57.325975,-23.307296],[-57.326397,-23.306265],[-57.327862,-23.305702],[-57.328721,-23.305813],[-57.329195,-23.305148],[-57.330458,-23.304793]]]}}]}
