{"type":"FeatureCollection","name":"barrios","features":[{"type":"Feature","properties":{"clave":"00001066","nombre":"SAN BLAS","poblacion_2022":4649},"geometry":{"type":"Polygon","coordinates":[[[-57.524805,-25.242793],[-57.52497,-25.243453],[-57.524969,-25.243539],[-57.525042,-25.243702],[-57.525274,-25.243892],[-57.526033,-25.244682],[-57.526663,-25.245184],[-57.527113,-25.245489],[-57.528461,-25.246505],[-57.528906,-25.246756],[-57.530525,-25.248154],[-57.530688,-25.248239],[-57.530952,-25.248254],[-57.53112,-25.248296],[-57.531986,-25.247365],[-57.533054,-25.246755],[-57.533137,-25.246763],[-57.534358,-25.246077],[-57.535824,-25.245318],[-57.540961,-25.242468],[-57.543205,-25.24078],[-57.541754,-25.239404],[-57.541244,-25.238764],[-57.540904,-25.238264],[-57.539899,-25.236317],[-57.538844,-25.23707],[-57.538363,-25.236488],[-57.53722,-25.237358],[-57.536544,-25.237833],[-57.535982,-25.237159],[-57.534769,-25.237938],[-57.534755,-25.23792],[-57.534132,-25.238308],[-57.534109,-25.238279],[-57.533108,-25.238899],[-57.532743,-25.238339],[-57.530107,-25.239916],[-57.530607,-25.24128],[-57.528761,-25.241957],[-57.528027,-25.241385],[-57.527853,-25.241187],[-57.526873,-25.241726],[-57.524805,-25.242793]]]}},{"type":"Feature","properties":{"clave":"00001056","nombre":"CAÑADA DEL YVYRAY","poblacion_2022":3324},"geometry":{"type":"Polygon","coordinates":[[[-57.577048,-25.274534],[-57.584558,-25.272653],[-57.581614,-25.262858],[-57.581325,-25.261884],[-57.58105,-25.260828],[-57.578406,-25.263457],[-57.578055,-25.263856],[-57.57733,-25.264595],[-57.574166,-25.268103],[-57.574914,-25.268641],[-57.574441,-25.269176],[-57.575395,-25.270089],[-57.575348,-25.270135],[-57.57694,-25.27183],[-57.575988,-25.272529],[-57.575598,-25.272842],[-57.575931,-25.273048],[-57.576511,-25.273362],[-57.576748,-25.273723],[-57.577048,-25.274534]]]}},{"type":"Feature","properties":{"clave":"00001055","nombre":"SANTO DOMINGO","poblacion_2022":1722},"geometry":{"type":"Polygon","coordinates":[[[-57.580228,-25.285065],[-57.581996,-25.28522],[-57.582345,-25.285313],[-57.583264,-25.285757],[-57.583558,-25.285887],[-57.583798,-25.285954],[-57.585315,-25.286143],[-57.58872,-25.286503],[-57.588159,-25.284686],[-57.587415,-25.282387],[-57.587225,-25.281658],[-57.58667,-25.279852],[-57.584558,-25.272653],[-57.57646,-25.274673],[-57.576754,-25.275682],[-57.576899,-25.275614],[-57.576985,-25.275623],[-57.57706,-25.275704],[-57.578921,-25.278609],[-57.579092,-25.279114],[-57.579603,-25.280868],[-57.580483,-25.283745],[-57.580468,-25.28403],[-57.580228,-25.285065]]]}},{"type":"Feature","properties":{"clave":"00001054","nombre":"BELLA VISTA","poblacion_2022":6812},"geometry":{"type":"Polygon","coordinates":[[[-57.58872,-25.286503],[-57.594961,-25.287169],[-57.593384,-25.271067],[-57.593213,-25.268894],[-57.593067,-25.267603],[-57.591633,-25.267988],[-57.591255,-25.268175],[-57.589968,-25.268934],[-57.589978,-25.26916],[-57.589498,-25.269058],[-57.586567,-25.267385],[-57.585925,-25.268273],[-57.585139,-25.269472],[-57.584622,-25.270197],[-57.58421,-25.270862],[-57.584024,-25.270913],[-57.584558,-25.272653],[-57.58667,-25.279852],[-57.587225,-25.281658],[-57.587415,-25.282387],[-57.588159,-25.284686],[-57.58872,-25.286503]]]}},{"type":"Feature","properties":{"clave":"00001053","nombre":"VIRGEN DE LA ASUNCION","poblacion_2022":6894},"geometry":{"type":"Polygon","coordinates":[[[-57.593067,-25.267603],[-57.594639,-25.267908],[-57.595267,-25.26805],[-57.595513,-25.268153],[-57.597789,-25.269747],[-57.597075,-25.266783],[-57.597095,-25.266706],[-57.597198,-25.266638],[-57.597312,-25.266665],[-57.598024,-25.267165],[-57.598264,-25.266918],[-57.584878,-25.256961],[-57.582341,-25.259595],[-57.58105,-25.260828],[-57.581325,-25.261884],[-57.584024,-25.270913],[-57.58421,-25.270862],[-57.584622,-25.270197],[-57.585139,-25.269472],[-57.585925,-25.268273],[-57.586567,-25.267385],[-57.589498,-25.269058],[-57.589978,-25.26916],[-57.589968,-25.268934],[-57.591255,-25.268175],[-57.591633,-25.267988],[-57.593067,-25.267603]]]}},{"type":"Feature","properties":{"clave":"00001062","nombre":"SALVADOR DEL MUNDO","poblacion_2022":2670},"geometry":{"type":"Polygon","coordinates":[[[-57.545145,-25.275292],[-57.551693,-25.277114],[-57.553257,-25.277587],[-57.555736,-25.278445],[-57.556089,-25.27862],[-57.55617,-25.278542],[-57.555834,-25.277862],[-57.555199,-25.276781],[-57.554383,-25.275655],[-57.554296,-25.275685],[-57.553674,-25.27475],[-57.553682,-25.27419],[-57.552798,-25.272997],[-57.552678,-25.272875],[-57.552402,-25.272723],[-57.550888,-25.271994],[-57.550563,-25.271705],[-57.550213,-25.271286],[-57.549972,-25.270881],[-57.549886,-25.270642],[-57.549832,-25.270303],[-57.549822,-25.269852],[-57.549789,-25.269608],[-57.549171,-25.268236],[-57.546197,-25.269901],[-57.545974,-25.27113],[-57.545193,-25.274897],[-57.545145,-25.275292]]]}},{"type":"Feature","properties":{"clave":"00001059","nombre":"LAS LOMAS","poblacion_2022":4751},"geometry":{"type":"Polygon","coordinates":[[[-57.559986,-25.280725],[-57.560158,-25.280817],[-57.561379,-25.281909],[-57.562317,-25.282687],[-57.562792,-25.282978],[-57.563913,-25.28336],[-57.563939,-25.281931],[-57.566596,-25.281551],[-57.56863,-25.281308],[-57.570938,-25.280956],[-57.571137,-25.28203],[-57.57587,-25.281312],[-57.578255,-25.280368],[-57.579363,-25.280061],[-57.579092,-25.279114],[-57.578921,-25.278609],[-57.57706,-25.275704],[-57.576985,-25.275623],[-57.576899,-25.275614],[-57.576754,-25.275682],[-57.57646,-25.274673],[-57.577048,-25.274534],[-57.576748,-25.273723],[-57.576511,-25.273362],[-57.575931,-25.273048],[-57.575598,-25.272842],[-57.575988,-25.272529],[-57.57694,-25.27183],[-57.575348,-25.270135],[-57.575395,-25.270089],[-57.574441,-25.269176],[-57.574914,-25.268641],[-57.574166,-25.268103],[-57.571806,-25.270965],[-57.570779,-25.272351],[-57.57,-25.273455],[-57.566242,-25.276251],[-57.565739,-25.276556],[-57.564943,-25.276986],[-57.563328,-25.277928],[-57.562608,-25.278322],[-57.559986,-25.280725]]]}},{"type":"Feature","properties":{"clave":"00001058","nombre":"MANORA","poblacion_2022":1320},"geometry":{"type":"Polygon","coordinates":[[[-57.563913,-25.28336],[-57.564284,-25.283443],[-57.566192,-25.283679],[-57.566592,-25.283786],[-57.567281,-25.284045],[-57.567958,-25.284358],[-57.569991,-25.285654],[-57.571833,-25.286485],[-57.571871,-25.286542],[-57.572838,-25.286304],[-57.578452,-25.285017],[-57.578989,-25.284975],[-57.580228,-25.285065],[-57.580468,-25.28403],[-57.580483,-25.283745],[-57.579363,-25.280061],[-57.578255,-25.280368],[-57.57587,-25.281312],[-57.571137,-25.28203],[-57.570938,-25.280956],[-57.56863,-25.281308],[-57.566596,-25.281551],[-57.563939,-25.281931],[-57.563913,-25.28336]]]}},{"type":"Feature","properties":{"clave":"00001057","nombre":"SANTISIMA TRINIDAD","poblacion_2022":3803},"geometry":{"type":"Polygon","coordinates":[[[-57.579181,-25.262687],[-57.580776,-25.261096],[-57.582341,-25.259595],[-57.584878,-25.256961],[-57.579133,-25.252659],[-57.578282,-25.252072],[-57.575153,-25.253685],[-57.568589,-25.257494],[-57.571534,-25.258617],[-57.574894,-25.259683],[-57.575423,-25.259929],[-57.576941,-25.260808],[-57.578036,-25.261695],[-57.579181,-25.262687]]]}},{"type":"Feature","properties":{"clave":"00001043","nombre":"MARISCAL JOSE FELIX ESTIGARRIBIA","poblacion_2022":6524},"geometry":{"type":"Polygon","coordinates":[[[-57.570449,-25.312068],[-57.572366,-25.311202],[-57.579525,-25.308732],[-57.58038,-25.308304],[-57.582344,-25.307384],[-57.583445,-25.306901],[-57.583934,-25.306642],[-57.582054,-25.303579],[-57.577106,-25.295326],[-57.571856,-25.297577],[-57.569721,-25.298435],[-57.568744,-25.298926],[-57.566442,-25.300226],[-57.562469,-25.302348],[-57.56353,-25.303601],[-57.564304,-25.304601],[-57.570449,-25.312068]]]}},{"type":"Feature","properties":{"clave":"00001041","nombre":"RECOLETA","poblacion_2022":7544},"geometry":{"type":"Polygon","coordinates":[[[-57.582054,-25.303579],[-57.584515,-25.307592],[-57.587312,-25.30619],[-57.588302,-25.305721],[-57.592459,-25.303664],[-57.593544,-25.303167],[-57.593617,-25.303135],[-57.594688,-25.303018],[-57.59269,-25.296145],[-57.594733,-25.295606],[-57.594596,-25.295176],[-57.594228,-25.294557],[-57.594071,-25.294119],[-57.594719,-25.294051],[-57.594862,-25.293974],[-57.595197,-25.293643],[-57.595469,-25.293244],[-57.595967,-25.292434],[-57.596228,-25.292126],[-57.597035,-25.291328],[-57.596988,-25.291319],[-57.595081,-25.287819],[-57.594961,-25.287169],[-57.58872,-25.286503],[-57.589602,-25.289403],[-57.589451,-25.289633],[-57.58928,-25.290001],[-57.577106,-25.295326],[-57.582054,-25.303579]]]}},{"type":"Feature","properties":{"clave":"00001040","nombre":"TEMBETARY","poblacion_2022":2458},"geometry":{"type":"Polygon","coordinates":[[[-57.584515,-25.307592],[-57.587134,-25.311885],[-57.596331,-25.308633],[-57.594688,-25.303018],[-57.593617,-25.303135],[-57.593544,-25.303167],[-57.592459,-25.303664],[-57.588302,-25.305721],[-57.587312,-25.30619],[-57.584515,-25.307592]]]}},{"type":"Feature","properties":{"clave":"00001039","nombre":"LOS LAURELES","poblacion_2022":2900},"geometry":{"type":"Polygon","coordinates":[[[-57.574089,-25.316393],[-57.574835,-25.316164],[-57.57787,-25.315154],[-57.587134,-25.311885],[-57.583934,-25.306642],[-57.583445,-25.306901],[-57.582344,-25.307384],[-57.58038,-25.308304],[-57.579525,-25.308732],[-57.572366,-25.311202],[-57.570449,-25.312068],[-57.573272,-25.31547],[-57.574089,-25.316393]]]}},{"type":"Feature","properties":{"clave":"00001049","nombre":"SAN JORGE","poblacion_2022":5045},"geometry":{"type":"Polygon","coordinates":[[[-57.550292,-25.293167],[-57.552088,-25.291327],[-57.553708,-25.289552],[-57.554533,-25.288812],[-57.555588,-25.288103],[-57.556946,-25.287249],[-57.558284,-25.286359],[-57.559721,-25.285363],[-57.560891,-25.284729],[-57.562308,-25.284199],[-57.564195,-25.283565],[-57.564284,-25.283443],[-57.563592,-25.283264],[-57.562792,-25.282978],[-57.562317,-25.282687],[-57.561379,-25.281909],[-57.560158,-25.280817],[-57.557452,-25.279545],[-57.556089,-25.27862],[-57.555736,-25.278445],[-57.553257,-25.277587],[-57.551693,-25.277114],[-57.545145,-25.275292],[-57.545231,-25.275683],[-57.545956,-25.278296],[-57.545999,-25.278303],[-57.546098,-25.278419],[-57.546557,-25.279779],[-57.547034,-25.281466],[-57.547133,-25.281902],[-57.547368,-25.282709],[-57.547742,-25.28416],[-57.548904,-25.288256],[-57.548931,-25.288416],[-57.549676,-25.291176],[-57.550292,-25.293167]]]}},{"type":"Feature","properties":{"clave":"00001045","nombre":"YKUA SATI","poblacion_2022":5671},"geometry":{"type":"Polygon","coordinates":[[[-57.550903,-25.293354],[-57.561697,-25.292767],[-57.562704,-25.29275],[-57.562867,-25.292727],[-57.573698,-25.289687],[-57.571952,-25.286795],[-57.571833,-25.286485],[-57.569991,-25.285654],[-57.567958,-25.284358],[-57.567281,-25.284045],[-57.566592,-25.283786],[-57.566192,-25.283679],[-57.564284,-25.283443],[-57.564195,-25.283565],[-57.562308,-25.284199],[-57.560891,-25.284729],[-57.559721,-25.285363],[-57.558284,-25.286359],[-57.556946,-25.287249],[-57.555588,-25.288103],[-57.554533,-25.288812],[-57.553708,-25.289552],[-57.552088,-25.291327],[-57.550292,-25.293167],[-57.550332,-25.293404],[-57.550903,-25.293354]]]}},{"type":"Feature","properties":{"clave":"00001044","nombre":"SAN CRISTOBAL","poblacion_2022":5085},"geometry":{"type":"Polygon","coordinates":[[[-57.577106,-25.295326],[-57.573698,-25.289687],[-57.562867,-25.292727],[-57.562704,-25.29275],[-57.561697,-25.292767],[-57.557003,-25.293029],[-57.55751,-25.293862],[-57.560739,-25.298781],[-57.562886,-25.302123],[-57.566442,-25.300226],[-57.568744,-25.298926],[-57.569721,-25.298435],[-57.571856,-25.297577],[-57.577106,-25.295326]]]}},{"type":"Feature","properties":{"clave":"00001042","nombre":"VILLA MORRA","poblacion_2022":2782},"geometry":{"type":"Polygon","coordinates":[[[-57.577106,-25.295326],[-57.58928,-25.290001],[-57.589451,-25.289633],[-57.589602,-25.289403],[-57.58872,-25.286503],[-57.585315,-25.286143],[-57.583798,-25.285954],[-57.583558,-25.285887],[-57.583264,-25.285757],[-57.582345,-25.285313],[-57.581996,-25.28522],[-57.579254,-25.284983],[-57.578989,-25.284975],[-57.578631,-25.284994],[-57.578323,-25.285041],[-57.571855,-25.286541],[-57.571952,-25.286795],[-57.577106,-25.295326]]]}},{"type":"Feature","properties":{"clave":"00001032","nombre":"SAN JUAN","poblacion_2022":2796},"geometry":{"type":"Polygon","coordinates":[[[-57.5976,-25.266423],[-57.604516,-25.271562],[-57.609786,-25.275445],[-57.609841,-25.2741],[-57.609963,-25.273869],[-57.6112,-25.27225],[-57.607139,-25.268706],[-57.606624,-25.268317],[-57.60635,-25.268474],[-57.60636,-25.26842],[-57.606147,-25.268209],[-57.605946,-25.268187],[-57.605268,-25.267431],[-57.604857,-25.267595],[-57.604465,-25.26711],[-57.604317,-25.266861],[-57.604234,-25.26681],[-57.604145,-25.266716],[-57.603827,-25.266501],[-57.60328,-25.26624],[-57.603102,-25.265985],[-57.603009,-25.265905],[-57.602442,-25.266461],[-57.602013,-25.265952],[-57.601705,-25.265649],[-57.601325,-25.265402],[-57.601061,-25.265265],[-57.60093,-25.265349],[-57.600761,-25.265201],[-57.600622,-25.265037],[-57.600291,-25.264316],[-57.600366,-25.264243],[-57.600147,-25.26381],[-57.599941,-25.263919],[-57.599835,-25.264019],[-57.5976,-25.266423]]]}},{"type":"Feature","properties":{"clave":"00001025","nombre":"VIRGEN DEL HUERTO","poblacion_2022":3857},"geometry":{"type":"Polygon","coordinates":[[[-57.594484,-25.282358],[-57.600529,-25.281462],[-57.600631,-25.281475],[-57.597789,-25.269747],[-57.595513,-25.268153],[-57.595267,-25.26805],[-57.594639,-25.267908],[-57.593067,-25.267603],[-57.593213,-25.268894],[-57.593384,-25.271067],[-57.594484,-25.282358]]]}},{"type":"Feature","properties":{"clave":"00001023","nombre":"JARA","poblacion_2022":8136},"geometry":{"type":"Polygon","coordinates":[[[-57.600631,-25.281475],[-57.601315,-25.28168],[-57.604034,-25.282626],[-57.605583,-25.283132],[-57.605422,-25.283556],[-57.605655,-25.283564],[-57.606025,-25.285051],[-57.60858,-25.284531],[-57.609536,-25.284355],[-57.609543,-25.283073],[-57.609742,-25.275414],[-57.598264,-25.266918],[-57.598024,-25.267165],[-57.597312,-25.266665],[-57.597198,-25.266638],[-57.597095,-25.266706],[-57.597075,-25.266783],[-57.600631,-25.281475]]]}},{"type":"Feature","properties":{"clave":"00001024","nombre":"MARISCAL FRANCISCO SOLANO LOPEZ","poblacion_2022":3685},"geometry":{"type":"Polygon","coordinates":[[[-57.596988,-25.291319],[-57.608031,-25.293346],[-57.611041,-25.293885],[-57.6112,-25.293884],[-57.609551,-25.287534],[-57.609536,-25.284355],[-57.60858,-25.284531],[-57.606025,-25.285051],[-57.605655,-25.283564],[-57.605422,-25.283556],[-57.605583,-25.283132],[-57.604034,-25.282626],[-57.601315,-25.28168],[-57.600631,-25.281475],[-57.600529,-25.281462],[-57.594484,-25.282358],[-57.594961,-25.287169],[-57.595081,-25.287819],[-57.596988,-25.291319]]]}},{"type":"Feature","properties":{"clave":"00001037","nombre":"SAN PABLO","poblacion_2022":18679},"geometry":{"type":"Polygon","coordinates":[[[-57.589788,-25.335134],[-57.589125,-25.334941],[-57.589983,-25.334237],[-57.583141,-25.326629],[-57.581275,-25.324627],[-57.578251,-25.321194],[-57.575451,-25.317941],[-57.574089,-25.316393],[-57.570297,-25.317568],[-57.56036,-25.320215],[-57.563083,-25.322297],[-57.566992,-25.325375],[-57.577152,-25.333207],[-57.583465,-25.338121],[-57.584423,-25.338827],[-57.584664,-25.339055],[-57.584921,-25.339387],[-57.585256,-25.339889],[-57.586143,-25.341411],[-57.588354,-25.340335],[-57.588524,-25.340029],[-57.589208,-25.340275],[-57.589484,-25.340443],[-57.59049,-25.338846],[-57.58816,-25.338047],[-57.589788,-25.335134]]]}},{"type":"Feature","properties":{"clave":"00001036","nombre":"HIPODROMO","poblacion_2022":7383},"geometry":{"type":"Polygon","coordinates":[[[-57.594189,-25.3217],[-57.58763,-25.3127],[-57.587134,-25.311885],[-57.57787,-25.315154],[-57.574835,-25.316164],[-57.574089,-25.316393],[-57.575451,-25.317941],[-57.578251,-25.321194],[-57.581275,-25.324627],[-57.583141,-25.326629],[-57.586516,-25.330377],[-57.587751,-25.329022],[-57.587084,-25.328623],[-57.589591,-25.325095],[-57.589354,-25.324961],[-57.589683,-25.324417],[-57.592741,-25.322556],[-57.594189,-25.3217]]]}},{"type":"Feature","properties":{"clave":"00001035","nombre":"TERMINAL","poblacion_2022":3690},"geometry":{"type":"Polygon","coordinates":[[[-57.598957,-25.328006],[-57.597301,-25.326247],[-57.597425,-25.326161],[-57.594189,-25.3217],[-57.592741,-25.322556],[-57.589683,-25.324417],[-57.589354,-25.324961],[-57.589591,-25.325095],[-57.587084,-25.328623],[-57.587751,-25.329022],[-57.586516,-25.330377],[-57.589983,-25.334237],[-57.589125,-25.334941],[-57.591893,-25.335736],[-57.59245,-25.333822],[-57.593468,-25.332313],[-57.59438,-25.332828],[-57.595222,-25.331584],[-57.596194,-25.330329],[-57.595613,-25.329866],[-57.596359,-25.329152],[-57.595715,-25.328481],[-57.596358,-25.327953],[-57.597471,-25.329101],[-57.598957,-25.328006]]]}},{"type":"Feature","properties":{"clave":"00001034","nombre":"NAZARETH","poblacion_2022":6260},"geometry":{"type":"Polygon","coordinates":[[[-57.58763,-25.3127],[-57.597425,-25.326161],[-57.597301,-25.326247],[-57.598957,-25.328006],[-57.602347,-25.325599],[-57.60153,-25.324659],[-57.600892,-25.323971],[-57.599348,-25.318943],[-57.599076,-25.318145],[-57.598766,-25.316945],[-57.598215,-25.315091],[-57.59708,-25.3111],[-57.596331,-25.308633],[-57.587134,-25.311885],[-57.58763,-25.3127]]]}},{"type":"Feature","properties":{"clave":"00001013","nombre":"SAN ROQUE","poblacion_2022":5472},"geometry":{"type":"Polygon","coordinates":[[[-57.631699,-25.295162],[-57.632854,-25.294548],[-57.634818,-25.293432],[-57.634114,-25.292338],[-57.629592,-25.285901],[-57.629626,-25.285863],[-57.628424,-25.284172],[-57.62755,-25.284673],[-57.627081,-25.28397],[-57.626981,-25.283916],[-57.626851,-25.283912],[-57.624328,-25.284555],[-57.61667,-25.286217],[-57.619112,-25.289503],[-57.621868,-25.293117],[-57.623925,-25.295763],[-57.624489,-25.294587],[-57.624991,-25.293452],[-57.625567,-25.291957],[-57.626172,-25.290805],[-57.627689,-25.292858],[-57.628524,-25.293947],[-57.630165,-25.293005],[-57.631699,-25.295162]]]}},{"type":"Feature","properties":{"clave":"00001010","nombre":"OBRERO INTENDENTE B. GUGGIARI","poblacion_2022":17055},"geometry":{"type":"Polygon","coordinates":[[[-57.650714,-25.303274],[-57.649475,-25.301487],[-57.644004,-25.293365],[-57.641775,-25.294648],[-57.638577,-25.296536],[-57.634348,-25.298916],[-57.632119,-25.299318],[-57.632485,-25.301448],[-57.632479,-25.302026],[-57.632065,-25.304059],[-57.631763,-25.308346],[-57.631319,-25.310632],[-57.631018,-25.312083],[-57.630899,-25.312512],[-57.632918,-25.313027],[-57.633094,-25.313018],[-57.633341,-25.31294],[-57.635333,-25.312042],[-57.63566,-25.311805],[-57.636418,-25.311373],[-57.640322,-25.309185],[-57.643666,-25.307269],[-57.646854,-25.305503],[-57.648449,-25.304557],[-57.650714,-25.303274]]]}},{"type":"Feature","properties":{"clave":"00001009","nombre":"GENERAL JOSE EDUVIGIS DIAZ","poblacion_2022":5092},"geometry":{"type":"Polygon","coordinates":[[[-57.644004,-25.293365],[-57.641459,-25.289561],[-57.639946,-25.287364],[-57.636973,-25.289052],[-57.633298,-25.291186],[-57.634114,-25.292338],[-57.634818,-25.293432],[-57.632854,-25.294548],[-57.631609,-25.295212],[-57.631822,-25.296848],[-57.631882,-25.298144],[-57.632119,-25.299318],[-57.634348,-25.298916],[-57.638577,-25.296536],[-57.641775,-25.294648],[-57.644004,-25.293365]]]}},{"type":"Feature","properties":{"clave":"00001006","nombre":"TACUMBU","poblacion_2022":19461},"geometry":{"type":"Polygon","coordinates":[[[-57.641459,-25.289561],[-57.643473,-25.292596],[-57.645536,-25.295621],[-57.649475,-25.301487],[-57.652033,-25.305218],[-57.652483,-25.304957],[-57.655247,-25.308893],[-57.661233,-25.317075],[-57.665077,-25.322395],[-57.665455,-25.322203],[-57.666443,-25.321527],[-57.668104,-25.32076],[-57.672484,-25.321951],[-57.673097,-25.319992],[-57.673858,-25.315799],[-57.673833,-25.31127],[-57.673058,-25.306294],[-57.673035,-25.302061],[-57.670949,-25.301914],[-57.670223,-25.301953],[-57.669641,-25.30192],[-57.669414,-25.301975],[-57.669266,-25.301987],[-57.669008,-25.301968],[-57.668812,-25.301991],[-57.66873,-25.302026],[-57.668691,-25.302086],[-57.668676,-25.302174],[-57.668724,-25.302235],[-57.668935,-25.302314],[-57.669003,-25.302361],[-57.669062,-25.302458],[-57.669046,-25.302679],[-57.668924,-25.302816],[-57.668727,-25.302874],[-57.668613,-25.302904],[-57.668321,-25.302873],[-57.667731,-25.302568],[-57.66749,-25.302483],[-57.66726,-25.302438],[-57.66696,-25.30232],[-57.666741,-25.302196],[-57.666363,-25.301799],[-57.666091,-25.301602],[-57.665571,-25.301092],[-57.665469,-25.30095],[-57.665454,-25.300894],[-57.665397,-25.300848],[-57.665469,-25.300763],[-57.665342,-25.300633],[-57.664609,-25.300146],[-57.663473,-25.299019],[-57.662707,-25.299496],[-57.662719,-25.299507],[-57.662586,-25.299608],[-57.661218,-25.298831],[-57.659192,-25.30045],[-57.658724,-25.300087],[-57.658078,-25.299697],[-57.657512,-25.299406],[-57.657092,-25.299223],[-57.656466,-25.299],[-57.655813,-25.298704],[-57.655518,-25.298466],[-57.653159,-25.295118],[-57.649668,-25.290248],[-57.646987,-25.286435],[-57.646898,-25.286508],[-57.644131,-25.288041],[-57.641459,-25.289561]]]}},{"type":"Feature","properties":{"clave":"00001020","nombre":"CIUDAD NUEVA","poblacion_2022":7322},"geometry":{"type":"Polygon","coordinates":[[[-57.6112,-25.293884],[-57.61161,-25.295382],[-57.613344,-25.301009],[-57.61372,-25.302154],[-57.613914,-25.302863],[-57.617803,-25.3016],[-57.618301,-25.301381],[-57.620435,-25.300153],[-57.621736,-25.299433],[-57.622885,-25.297741],[-57.623925,-25.295763],[-57.621868,-25.293117],[-57.619112,-25.289503],[-57.613017,-25.29301],[-57.612151,-25.293483],[-57.6116,-25.293756],[-57.6112,-25.293884]]]}},{"type":"Feature","properties":{"clave":"00001018","nombre":"MBURICAO","poblacion_2022":5603},"geometry":{"type":"Polygon","coordinates":[[[-57.607601,-25.304898],[-57.604435,-25.297091],[-57.603291,-25.292467],[-57.597035,-25.291328],[-57.596228,-25.292126],[-57.595967,-25.292434],[-57.595469,-25.293244],[-57.595197,-25.293643],[-57.594862,-25.293974],[-57.594719,-25.294051],[-57.594071,-25.294119],[-57.594228,-25.294557],[-57.594596,-25.295176],[-57.594733,-25.295606],[-57.59269,-25.296145],[-57.59419,-25.301359],[-57.596331,-25.308633],[-57.601201,-25.306958],[-57.607601,-25.304898]]]}},{"type":"Feature","properties":{"clave":"00001019","nombre":"GENERAL BERNARDINO CABALLERO","poblacion_2022":6182},"geometry":{"type":"Polygon","coordinates":[[[-57.607601,-25.304898],[-57.613914,-25.302863],[-57.61372,-25.302154],[-57.613344,-25.301009],[-57.61161,-25.295382],[-57.6112,-25.293884],[-57.611041,-25.293885],[-57.609504,-25.293611],[-57.603291,-25.292467],[-57.604435,-25.297091],[-57.607601,-25.304898]]]}},{"type":"Feature","properties":{"clave":"00001016","nombre":"PINOZA","poblacion_2022":6504},"geometry":{"type":"Polygon","coordinates":[[[-57.617803,-25.3016],[-57.607601,-25.304898],[-57.608847,-25.307634],[-57.610245,-25.310613],[-57.611377,-25.31318],[-57.612226,-25.314904],[-57.614625,-25.312522],[-57.616649,-25.31059],[-57.615755,-25.308779],[-57.617976,-25.30746],[-57.618246,-25.30727],[-57.618623,-25.306938],[-57.618774,-25.306784],[-57.618945,-25.306522],[-57.619983,-25.3041],[-57.620676,-25.3015],[-57.621464,-25.300012],[-57.621521,-25.299964],[-57.621736,-25.299433],[-57.620435,-25.300153],[-57.618301,-25.301381],[-57.617803,-25.3016]]]}},{"type":"Feature","properties":{"clave":"00001002","nombre":"SAN ANTONIO","poblacion_2022":9146},"geometry":{"type":"Polygon","coordinates":[[[-57.666414,-25.288412],[-57.661482,-25.287594],[-57.662236,-25.284227],[-57.661274,-25.284051],[-57.66167,-25.282261],[-57.662618,-25.282447],[-57.663016,-25.280775],[-57.66319,-25.280294],[-57.663365,-25.280333],[-57.663488,-25.279998],[-57.665677,-25.277344],[-57.656889,-25.272738],[-57.656105,-25.275317],[-57.655393,-25.278307],[-57.655214,-25.279193],[-57.654788,-25.280978],[-57.653988,-25.284548],[-57.653766,-25.285425],[-57.653598,-25.286293],[-57.653322,-25.287405],[-57.653069,-25.288567],[-57.665881,-25.290699],[-57.666414,-25.288412]]]}},{"type":"Feature","properties":{"clave":"00001012","nombre":"RICARDO BRUGADA","poblacion_2022":13153},"geometry":{"type":"Polygon","coordinates":[[[-57.62755,-25.284673],[-57.629188,-25.283722],[-57.628357,-25.282541],[-57.628109,-25.282142],[-57.629242,-25.282051],[-57.629287,-25.282001],[-57.629364,-25.281969],[-57.629675,-25.281927],[-57.629918,-25.281994],[-57.629939,-25.281883],[-57.630187,-25.281722],[-57.63024,-25.281712],[-57.630361,-25.281746],[-57.630511,-25.281712],[-57.630766,-25.281719],[-57.630806,-25.281696],[-57.630768,-25.281575],[-57.630782,-25.281514],[-57.631554,-25.281111],[-57.63143,-25.280891],[-57.631698,-25.28074],[-57.631815,-25.280724],[-57.632212,-25.280555],[-57.632273,-25.28055],[-57.632383,-25.2807],[-57.632465,-25.280659],[-57.632429,-25.280583],[-57.632466,-25.280485],[-57.632777,-25.280296],[-57.632745,-25.280258],[-57.633241,-25.279839],[-57.633271,-25.279743],[-57.633409,-25.279563],[-57.63444,-25.278732],[-57.634365,-25.278495],[-57.634323,-25.278144],[-57.634039,-25.277628],[-57.633777,-25.277742],[-57.63372,-25.277703],[-57.633263,-25.276609],[-57.632709,-25.276056],[-57.632631,-25.27573],[-57.63229,-25.275769],[-57.631719,-25.275738],[-57.630851,-25.275631],[-57.630602,-25.275625],[-57.630381,-25.275486],[-57.630146,-25.275287],[-57.629735,-25.275096],[-57.629485,-25.274864],[-57.62927,-25.274485],[-57.629014,-25.273824],[-57.628867,-25.273745],[-57.62864,-25.273746],[-57.628436,-25.273813],[-57.628334,-25.273934],[-57.6281,-25.273994],[-57.627683,-25.273952],[-57.627542,-25.27383],[-57.6273,-25.273678],[-57.627196,-25.273366],[-57.627012,-25.273293],[-57.626814,-25.273154],[-57.626791,-25.272955],[-57.626878,-25.272761],[-57.627031,-25.272687],[-57.627309,-25.27262],[-57.627485,-25.272612],[-57.627624,-25.272671],[-57.627755,-25.272816],[-57.628138,-25.272802],[-57.628285,-25.272942],[-57.628476,-25.273021],[-57.628717,-25.27298],[-57.628746,-25.272873],[-57.628621,-25.272814],[-57.628365,-25.272788],[-57.628284,-25.272735],[-57.628216,-25.272369],[-57.628039,-25.272157],[-57.627921,-25.272231],[-57.627799,-25.272371],[-57.627242,-25.272453],[-57.626972,-25.272454],[-57.626722,-25.272376],[-57.626531,-25.27225],[-57.626319,-25.272211],[-57.626084,-25.272259],[-57.625982,-25.272312],[-57.625983,-25.272419],[-57.626159,-25.272431],[-57.626414,-25.272344],[-57.626539,-25.27235],[-57.626481,-25.272497],[-57.626211,-25.272631],[-57.626087,-25.272771],[-57.625955,-25.272712],[-57.625801,-25.272706],[-57.625423,-25.272589],[-57.625215,-25.272575],[-57.625098,-25.272649],[-57.625062,-25.272769],[-57.625242,-25.272887],[-57.62513,-25.273093],[-57.624878,-25.273037],[-57.62442,-25.273088],[-57.624365,-25.273123],[-57.624423,-25.273288],[-57.624341,-25.273352],[-57.624143,-25.273334],[-57.624004,-25.273203],[-57.623893,-25.273233],[-57.623574,-25.273914],[-57.623362,-25.273955],[-57.623076,-25.273929],[-57.622717,-25.273964],[-57.622257,-25.274186],[-57.622096,-25.27418],[-57.621515,-25.273769],[-57.62139,-25.27359],[-57.621302,-25.273511],[-57.62117,-25.273501],[-57.621032,-25.273867],[-57.620197,-25.274593],[-57.619871,-25.274739],[-57.61945,-25.275146],[-57.618972,-25.275392],[-57.61879,-25.275457],[-57.618353,-25.275814],[-57.618018,-25.276012],[-57.617851,-25.276141],[-57.617599,-25.276269],[-57.617571,-25.276317],[-57.617569,-25.276525],[-57.617477,-25.276626],[-57.617396,-25.276802],[-57.617228,-25.277015],[-57.616873,-25.277605],[-57.616585,-25.278015],[-57.616388,-25.278426],[-57.61617,-25.278669],[-57.616076,-25.27881],[-57.615965,-25.279099],[-57.615977,-25.279241],[-57.615904,-25.279325],[-57.615946,-25.279514],[-57.615912,-25.279692],[-57.615762,-25.279918],[-57.616041,-25.281646],[-57.616611,-25.285978],[-57.61667,-25.286217],[-57.624328,-25.284555],[-57.626851,-25.283912],[-57.626981,-25.283916],[-57.627081,-25.28397],[-57.62755,-25.284673]]]}},{"type":"Feature","properties":{"clave":"00001008","nombre":"LA CATEDRAL","poblacion_2022":2471},"geometry":{"type":"Polygon","coordinates":[[[-57.63444,-25.278732],[-57.633409,-25.279563],[-57.633271,-25.279743],[-57.633241,-25.279839],[-57.632745,-25.280258],[-57.632777,-25.280296],[-57.632466,-25.280485],[-57.632429,-25.280583],[-57.632465,-25.280659],[-57.632383,-25.2807],[-57.632273,-25.28055],[-57.632212,-25.280555],[-57.631815,-25.280724],[-57.631698,-25.28074],[-57.63143,-25.280891],[-57.631554,-25.281111],[-57.630782,-25.281514],[-57.630768,-25.281575],[-57.630806,-25.281696],[-57.630766,-25.281719],[-57.630511,-25.281712],[-57.630361,-25.281746],[-57.63024,-25.281712],[-57.630187,-25.281722],[-57.629939,-25.281883],[-57.629918,-25.281994],[-57.629675,-25.281927],[-57.629364,-25.281969],[-57.629287,-25.282001],[-57.629242,-25.282051],[-57.628109,-25.282142],[-57.628357,-25.282541],[-57.629188,-25.283722],[-57.628424,-25.284172],[-57.629626,-25.285863],[-57.629592,-25.285901],[-57.633298,-25.291186],[-57.636973,-25.289052],[-57.639946,-25.287364],[-57.636774,-25.282741],[-57.635013,-25.280906],[-57.634629,-25.280533],[-57.635321,-25.279938],[-57.634543,-25.279233],[-57.634611,-25.279186],[-57.63444,-25.278732]]]}},{"type":"Feature","properties":{"clave":"00001033","nombre":"PRESIDENTE CARLOS ANTONIO LOPEZ","poblacion_2022":10384},"geometry":{"type":"Polygon","coordinates":[[[-57.66686,-25.290862],[-57.652035,-25.288391],[-57.647896,-25.287722],[-57.649668,-25.290248],[-57.653159,-25.295118],[-57.655518,-25.298466],[-57.655813,-25.298704],[-57.656466,-25.299],[-57.657092,-25.299223],[-57.657512,-25.299406],[-57.658078,-25.299697],[-57.658724,-25.300087],[-57.659192,-25.30045],[-57.661218,-25.298831],[-57.662586,-25.299608],[-57.662719,-25.299507],[-57.662707,-25.299496],[-57.663473,-25.299019],[-57.664609,-25.300146],[-57.665342,-25.300633],[-57.665469,-25.300763],[-57.665744,-25.300362],[-57.665422,-25.300123],[-57.66487,-25.299772],[-57.664836,-25.299662],[-57.665022,-25.298911],[-57.665206,-25.298017],[-57.665844,-25.295373],[-57.66686,-25.290862]]]}},{"type":"Feature","properties":{"clave":"00001004","nombre":"ITA PYTA PUNTA","poblacion_2022":2708},"geometry":{"type":"Polygon","coordinates":[[[-57.665677,-25.277344],[-57.663488,-25.279998],[-57.663365,-25.280333],[-57.66319,-25.280294],[-57.663016,-25.280775],[-57.662618,-25.282447],[-57.66167,-25.282261],[-57.661274,-25.284051],[-57.662236,-25.284227],[-57.661482,-25.287594],[-57.666414,-25.288412],[-57.666605,-25.287544],[-57.667067,-25.28568],[-57.667044,-25.285254],[-57.667277,-25.285228],[-57.667232,-25.284948],[-57.66762,-25.284906],[-57.671568,-25.284897],[-57.66868,-25.280049],[-57.665677,-25.277344]]]}},{"type":"Feature","properties":{"clave":"00001005","nombre":"LA ENCARNACION","poblacion_2022":3712},"geometry":{"type":"Polygon","coordinates":[[[-57.636774,-25.282741],[-57.641459,-25.289561],[-57.644131,-25.288041],[-57.646898,-25.286508],[-57.646987,-25.286435],[-57.642663,-25.280228],[-57.641742,-25.278967],[-57.640127,-25.276676],[-57.639958,-25.276594],[-57.639553,-25.276547],[-57.63889,-25.276171],[-57.639351,-25.275866],[-57.638895,-25.275614],[-57.638718,-25.275489],[-57.638315,-25.275331],[-57.637647,-25.275127],[-57.636842,-25.275057],[-57.636497,-25.274932],[-57.636167,-25.274927],[-57.635845,-25.274882],[-57.635625,-25.27479],[-57.635082,-25.274652],[-57.634877,-25.274766],[-57.634643,-25.274794],[-57.634614,-25.274701],[-57.634466,-25.274581],[-57.634181,-25.274656],[-57.63354,-25.275231],[-57.63333,-25.275672],[-57.633271,-25.275679],[-57.633154,-25.275612],[-57.632956,-25.27568],[-57.632631,-25.27573],[-57.632709,-25.276056],[-57.633263,-25.276609],[-57.63372,-25.277703],[-57.633777,-25.277742],[-57.634039,-25.277628],[-57.634323,-25.278144],[-57.634365,-25.278495],[-57.634611,-25.279186],[-57.634543,-25.279233],[-57.635321,-25.279938],[-57.634629,-25.280533],[-57.635013,-25.280906],[-57.636774,-25.282741]]]}},{"type":"Feature","properties":{"clave":"00001068","nombre":"ZEBALLOS KUE","poblacion_2022":18156},"geometry":{"type":"Polygon","coordinates":[[[-57.575426,-25.234784],[-57.574512,-25.234407],[-57.578394,-25.230952],[-57.579975,-25.229198],[-57.576662,-25.226493],[-57.575086,-25.224663],[-57.575012,-25.224638],[-57.572133,-25.225362],[-57.571797,-25.225599],[-57.571217,-25.225794],[-57.569202,-25.226215],[-57.569004,-25.226012],[-57.567701,-25.22636],[-57.567754,-25.22651],[-57.566431,-25.226882],[-57.564121,-25.227485],[-57.564184,-25.227686],[-57.560924,-25.22855],[-57.560887,-25.228432],[-57.56075,-25.228371],[-57.560467,-25.228363],[-57.560246,-25.228406],[-57.559933,-25.228363],[-57.559615,-25.228402],[-57.559521,-25.228356],[-57.559448,-25.22826],[-57.559303,-25.228207],[-57.559209,-25.228125],[-57.557975,-25.228784],[-57.557831,-25.22888],[-57.550819,-25.232466],[-57.545186,-25.234384],[-57.546473,-25.238163],[-57.546781,-25.238934],[-57.547352,-25.239835],[-57.54792,-25.239252],[-57.551442,-25.242032],[-57.552167,-25.242662],[-57.552721,-25.242447],[-57.554672,-25.241524],[-57.5555,-25.243046],[-57.561041,-25.240099],[-57.563197,-25.238922],[-57.563782,-25.238665],[-57.56474,-25.240258],[-57.57174,-25.236761],[-57.572877,-25.236259],[-57.57247,-25.235764],[-57.574068,-25.235218],[-57.575426,-25.234784]]]}},{"type":"Feature","properties":{"clave":"00001060","nombre":"MBURUCUYA","poblacion_2022":8209},"geometry":{"type":"Polygon","coordinates":[[[-57.567389,-25.275411],[-57.57,-25.273455],[-57.570779,-25.272351],[-57.571806,-25.270965],[-57.574166,-25.268103],[-57.57733,-25.264595],[-57.578055,-25.263856],[-57.578406,-25.263457],[-57.579181,-25.262687],[-57.578036,-25.261695],[-57.576941,-25.260808],[-57.575423,-25.259929],[-57.574894,-25.259683],[-57.571534,-25.258617],[-57.568589,-25.257494],[-57.564381,-25.259827],[-57.559855,-25.262414],[-57.558878,-25.262946],[-57.561649,-25.267179],[-57.563603,-25.269624],[-57.567389,-25.275411]]]}},{"type":"Feature","properties":{"clave":"00001051","nombre":"VIRGEN DE FATIMA","poblacion_2022":4142},"geometry":{"type":"Polygon","coordinates":[[[-57.584904,-25.256981],[-57.586187,-25.257918],[-57.592243,-25.262448],[-57.592522,-25.262302],[-57.592924,-25.261927],[-57.592998,-25.261707],[-57.592982,-25.26139],[-57.593004,-25.261307],[-57.593219,-25.260952],[-57.593303,-25.260864],[-57.59365,-25.260722],[-57.593863,-25.26057],[-57.5939,-25.260459],[-57.593862,-25.260332],[-57.593817,-25.260282],[-57.59344,-25.260087],[-57.593262,-25.259954],[-57.593232,-25.259841],[-57.593241,-25.259678],[-57.593275,-25.259574],[-57.593526,-25.259348],[-57.593654,-25.25914],[-57.593662,-25.258606],[-57.593721,-25.258331],[-57.593787,-25.258161],[-57.594364,-25.25758],[-57.594919,-25.25716],[-57.59512,-25.257048],[-57.595558,-25.256897],[-57.595767,-25.256803],[-57.596096,-25.256742],[-57.596498,-25.256747],[-57.596657,-25.256699],[-57.596782,-25.256622],[-57.597116,-25.25635],[-57.59722,-25.256144],[-57.597269,-25.255903],[-57.596843,-25.255379],[-57.596733,-25.255145],[-57.596673,-25.254999],[-57.596638,-25.254422],[-57.595918,-25.254242],[-57.595755,-25.254246],[-57.595659,-25.254227],[-57.595387,-25.25466],[-57.595244,-25.254564],[-57.595108,-25.25443],[-57.595009,-25.254192],[-57.594672,-25.253611],[-57.594095,-25.252958],[-57.593895,-25.253155],[-57.59369,-25.253567],[-57.593461,-25.253829],[-57.593417,-25.253852],[-57.593208,-25.253677],[-57.593007,-25.253553],[-57.592871,-25.253515],[-57.592761,-25.253426],[-57.592644,-25.253384],[-57.592452,-25.25366],[-57.592268,-25.253716],[-57.592194,-25.253514],[-57.592115,-25.253166],[-57.59211,-25.253003],[-57.591841,-25.252905],[-57.591624,-25.252777],[-57.591606,-25.252669],[-57.591257,-25.252382],[-57.591025,-25.252513],[-57.59093,-25.252528],[-57.590809,-25.252614],[-57.590722,-25.252494],[-57.590554,-25.25235],[-57.59064,-25.252174],[-57.58985,-25.25157],[-57.588192,-25.253538],[-57.587173,-25.254586],[-57.586357,-25.255374],[-57.584904,-25.256981]]]}},{"type":"Feature","properties":{"clave":"00001001","nombre":"SAJONIA","poblacion_2022":2097},"geometry":{"type":"Polygon","coordinates":[[[-57.671568,-25.284897],[-57.66762,-25.284906],[-57.667232,-25.284948],[-57.667277,-25.285228],[-57.667044,-25.285254],[-57.667067,-25.28568],[-57.666605,-25.287544],[-57.665881,-25.290699],[-57.66686,-25.290862],[-57.665844,-25.295373],[-57.665206,-25.298017],[-57.665022,-25.298911],[-57.664836,-25.299662],[-57.664841,-25.299719],[-57.66487,-25.299772],[-57.665422,-25.300123],[-57.665744,-25.300362],[-57.665397,-25.300848],[-57.665454,-25.300894],[-57.665469,-25.30095],[-57.665571,-25.301092],[-57.666091,-25.301602],[-57.666363,-25.301799],[-57.666741,-25.302196],[-57.66696,-25.30232],[-57.66726,-25.302438],[-57.66749,-25.302483],[-57.667731,-25.302568],[-57.668321,-25.302873],[-57.668502,-25.302902],[-57.668613,-25.302904],[-57.668924,-25.302816],[-57.669046,-25.302679],[-57.669062,-25.302458],[-57.669003,-25.302361],[-57.668935,-25.302314],[-57.668724,-25.302235],[-57.668676,-25.302174],[-57.668691,-25.302086],[-57.66873,-25.302026],[-57.668812,-25.301991],[-57.669008,-25.301968],[-57.669266,-25.301987],[-57.669414,-25.301975],[-57.669641,-25.30192],[-57.670223,-25.301953],[-57.670949,-25.301914],[-57.673035,-25.302061],[-57.673028,-25.300857],[-57.673222,-25.290896],[-57.67283,-25.287615],[-57.671568,-25.284897]]]}},{"type":"Feature","properties":{"clave":"00001061","nombre":"MADAME ELISA ALICIA LINCH","poblacion_2022":7652},"geometry":{"type":"Polygon","coordinates":[[[-57.558878,-25.262946],[-57.549171,-25.268236],[-57.549789,-25.269608],[-57.549822,-25.269852],[-57.549832,-25.270303],[-57.549886,-25.270642],[-57.549972,-25.270881],[-57.550213,-25.271286],[-57.550563,-25.271705],[-57.550888,-25.271994],[-57.552402,-25.272723],[-57.552678,-25.272875],[-57.552798,-25.272997],[-57.553682,-25.27419],[-57.553674,-25.27475],[-57.554296,-25.275685],[-57.554383,-25.275655],[-57.555199,-25.276781],[-57.555454,-25.277191],[-57.555834,-25.277862],[-57.55617,-25.278542],[-57.556089,-25.27862],[-57.557452,-25.279545],[-57.559986,-25.280725],[-57.562608,-25.278322],[-57.563328,-25.277928],[-57.564943,-25.276986],[-57.565739,-25.276556],[-57.566242,-25.276251],[-57.567389,-25.275411],[-57.563603,-25.269624],[-57.561649,-25.267179],[-57.558878,-25.262946]]]}},{"type":"Feature","properties":{"clave":"00001014","nombre":"TTE. SILVIO PETTIROSSI","poblacion_2022":7782},"geometry":{"type":"Polygon","coordinates":[[[-57.631911,-25.30639],[-57.632065,-25.304059],[-57.632479,-25.302026],[-57.632485,-25.301448],[-57.632119,-25.299318],[-57.631882,-25.298144],[-57.631822,-25.296848],[-57.631609,-25.295212],[-57.631699,-25.295162],[-57.630165,-25.293005],[-57.628524,-25.293947],[-57.627689,-25.292858],[-57.626172,-25.290805],[-57.625567,-25.291957],[-57.624991,-25.293452],[-57.624489,-25.294587],[-57.623925,-25.295763],[-57.622885,-25.297741],[-57.621736,-25.299433],[-57.621521,-25.299964],[-57.621464,-25.300012],[-57.620676,-25.3015],[-57.620158,-25.303469],[-57.619936,-25.304206],[-57.623508,-25.308606],[-57.625774,-25.307147],[-57.626369,-25.306797],[-57.627095,-25.306415],[-57.627941,-25.306221],[-57.628145,-25.306194],[-57.628778,-25.306209],[-57.631911,-25.30639]]]}},{"type":"Feature","properties":{"clave":"00001030","nombre":"ITA ENRAMADA","poblacion_2022":5802},"geometry":{"type":"Polygon","coordinates":[[[-57.640026,-25.343292],[-57.634518,-25.342672],[-57.636434,-25.349093],[-57.635305,-25.349388],[-57.636414,-25.353099],[-57.636359,-25.353696],[-57.636081,-25.353693],[-57.635969,-25.354301],[-57.636024,-25.354306],[-57.635968,-25.355026],[-57.636685,-25.35508],[-57.636547,-25.358479],[-57.63679,-25.360644],[-57.6369,-25.36226],[-57.637676,-25.362244],[-57.63816,-25.364645],[-57.638617,-25.365376],[-57.637456,-25.366017],[-57.636189,-25.367185],[-57.636032,-25.367267],[-57.635462,-25.367465],[-57.635298,-25.367545],[-57.641447,-25.380903],[-57.645094,-25.376818],[-57.646645,-25.374055],[-57.648327,-25.368403],[-57.650131,-25.366114],[-57.651621,-25.365087],[-57.653729,-25.363154],[-57.656582,-25.360875],[-57.659189,-25.359053],[-57.661791,-25.35644],[-57.663768,-25.353375],[-57.66661,-25.349059],[-57.667835,-25.345315],[-57.667903,-25.342768],[-57.667384,-25.339036],[-57.667242,-25.33575],[-57.66797,-25.332238],[-57.669444,-25.328497],[-57.671787,-25.324184],[-57.672484,-25.321951],[-57.668104,-25.32076],[-57.666443,-25.321527],[-57.665455,-25.322203],[-57.66461,-25.322631],[-57.663493,-25.323547],[-57.662817,-25.324185],[-57.662147,-25.324729],[-57.661312,-25.325091],[-57.659915,-25.325842],[-57.658095,-25.326886],[-57.656944,-25.327659],[-57.656057,-25.327954],[-57.654155,-25.328874],[-57.654264,-25.328975],[-57.654272,-25.329123],[-57.652205,-25.33071],[-57.652011,-25.330896],[-57.651838,-25.331104],[-57.651848,-25.331222],[-57.652025,-25.331426],[-57.652017,-25.331552],[-57.652159,-25.331547],[-57.652332,-25.331575],[-57.652394,-25.331659],[-57.65244,-25.3319],[-57.652493,-25.331965],[-57.652889,-25.332124],[-57.653579,-25.332542],[-57.653708,-25.332654],[-57.65396,-25.332713],[-57.654359,-25.332711],[-57.654388,-25.332733],[-57.654392,-25.332806],[-57.654493,-25.332989],[-57.654392,-25.333204],[-57.654334,-25.333247],[-57.654063,-25.333396],[-57.65383,-25.333389],[-57.653813,-25.333537],[-57.653747,-25.33371],[-57.653688,-25.333803],[-57.653477,-25.333989],[-57.653414,-25.334081],[-57.653417,-25.33417],[-57.653356,-25.334396],[-57.65331,-25.334462],[-57.653329,-25.334561],[-57.653316,-25.33463],[-57.653066,-25.334888],[-57.652905,-25.335139],[-57.65277,-25.335198],[-57.652609,-25.335231],[-57.652547,-25.33534],[-57.652574,-25.335471],[-57.652541,-25.335515],[-57.652346,-25.335491],[-57.652202,-25.335421],[-57.652039,-25.335577],[-57.65197,-25.335675],[-57.651929,-25.335687],[-57.651945,-25.335557],[-57.651875,-25.3356],[-57.651814,-25.335738],[-57.651754,-25.335789],[-57.651718,-25.335798],[-57.65163,-25.335761],[-57.651587,-25.3357],[-57.651479,-25.335634],[-57.651325,-25.335653],[-57.651273,-25.335734],[-57.651223,-25.335776],[-57.65119,-25.335771],[-57.651132,-25.335661],[-57.651017,-25.335638],[-57.650982,-25.3356],[-57.651075,-25.335505],[-57.651065,-25.335473],[-57.650978,-25.335505],[-57.650929,-25.335397],[-57.650889,-25.335379],[-57.650459,-25.33536],[-57.65032,-25.335272],[-57.650132,-25.335233],[-57.649999,-25.335295],[-57.649893,-25.335297],[-57.649878,-25.335241],[-57.649833,-25.335197],[-57.649687,-25.335167],[-57.649583,-25.335071],[-57.649511,-25.334963],[-57.649303,-25.334808],[-57.649257,-25.334736],[-57.64916,-25.334705],[-57.649137,-25.334541],[-57.649053,-25.334507],[-57.648803,-25.334262],[-57.648593,-25.33418],[-57.648258,-25.334235],[-57.647926,-25.334655],[-57.647862,-25.334788],[-57.647188,-25.33524],[-57.647051,-25.335293],[-57.646869,-25.335281],[-57.646663,-25.335201],[-57.646543,-25.335076],[-57.646481,-25.335082],[-57.646485,-25.335434],[-57.646432,-25.335636],[-57.646417,-25.33594],[-57.646476,-25.336044],[-57.646652,-25.336246],[-57.646708,-25.336684],[-57.646804,-25.336725],[-57.646915,-25.336821],[-57.647097,-25.337056],[-57.647137,-25.337208],[-57.647154,-25.337407],[-57.64708,-25.337512],[-57.646988,-25.337541],[-57.647035,-25.337606],[-57.647088,-25.33784],[-57.647038,-25.338098],[-57.646781,-25.338567],[-57.646723,-25.338788],[-57.646816,-25.340342],[-57.647005,-25.341232],[-57.647133,-25.341636],[-57.647123,-25.341847],[-57.647032,-25.342422],[-57.647005,-25.343225],[-57.646936,-25.343447],[-57.646788,-25.343657],[-57.646596,-25.343853],[-57.646383,-25.343988],[-57.645882,-25.344099],[-57.645639,-25.344234],[-57.64548,-25.344378],[-57.645367,-25.344572],[-57.645211,-25.344963],[-57.643456,-25.344405],[-57.64064,-25.343408],[-57.640026,-25.343292]]]}},{"type":"Feature","properties":{"clave":"00001029","nombre":"SANTA ANA","poblacion_2022":6356},"geometry":{"type":"Polygon","coordinates":[[[-57.665077,-25.322395],[-57.661233,-25.317075],[-57.655247,-25.308893],[-57.650259,-25.311724],[-57.650118,-25.312101],[-57.649726,-25.312632],[-57.649136,-25.312263],[-57.649011,-25.312357],[-57.646148,-25.314017],[-57.646559,-25.314626],[-57.646584,-25.314743],[-57.646571,-25.315235],[-57.646677,-25.315451],[-57.646984,-25.315978],[-57.647389,-25.316462],[-57.647673,-25.31696],[-57.648525,-25.318312],[-57.649079,-25.31906],[-57.649239,-25.319071],[-57.649349,-25.31903],[-57.649457,-25.318941],[-57.650003,-25.318707],[-57.650365,-25.318675],[-57.65058,-25.318711],[-57.650854,-25.31872],[-57.651418,-25.318882],[-57.651946,-25.318962],[-57.652281,-25.319105],[-57.65253,-25.319153],[-57.652661,-25.319215],[-57.653046,-25.31924],[-57.653508,-25.319374],[-57.654253,-25.319467],[-57.654486,-25.319535],[-57.654881,-25.319725],[-57.65501,-25.319755],[-57.65561,-25.31973],[-57.655762,-25.319886],[-57.656029,-25.320059],[-57.656179,-25.320298],[-57.656252,-25.320368],[-57.656603,-25.32053],[-57.657106,-25.320854],[-57.657842,-25.32113],[-57.657958,-25.321198],[-57.658123,-25.321399],[-57.658198,-25.321602],[-57.658289,-25.321685],[-57.658643,-25.321719],[-57.659025,-25.321816],[-57.659105,-25.32185],[-57.659165,-25.321914],[-57.659618,-25.322137],[-57.660117,-25.322231],[-57.660729,-25.322259],[-57.660878,-25.322239],[-57.660944,-25.322182],[-57.661018,-25.322031],[-57.661106,-25.32207],[-57.661044,-25.32252],[-57.661362,-25.322565],[-57.661571,-25.322566],[-57.662614,-25.322487],[-57.663125,-25.322575],[-57.66378,-25.322744],[-57.664282,-25.3229],[-57.66461,-25.322631],[-57.665077,-25.322395]]]}},{"type":"Feature","properties":{"clave":"00001031","nombre":"SANTA LIBRADA","poblacion_2022":5305},"geometry":{"type":"Polygon","coordinates":[[[-57.640955,-25.324081],[-57.640447,-25.323855],[-57.637897,-25.32289],[-57.635692,-25.323053],[-57.633602,-25.323364],[-57.633461,-25.324746],[-57.633521,-25.325148],[-57.633588,-25.32531],[-57.633854,-25.32572],[-57.634698,-25.326895],[-57.630587,-25.327404],[-57.629842,-25.327286],[-57.627286,-25.326744],[-57.625993,-25.331667],[-57.626293,-25.331814],[-57.626499,-25.3321],[-57.6266,-25.332189],[-57.626851,-25.332503],[-57.626905,-25.332608],[-57.627008,-25.333079],[-57.627086,-25.333302],[-57.627178,-25.33339],[-57.627292,-25.333415],[-57.62737,-25.333401],[-57.627474,-25.333286],[-57.62753,-25.33316],[-57.627589,-25.333114],[-57.627787,-25.333064],[-57.627941,-25.333151],[-57.628375,-25.333484],[-57.629079,-25.333776],[-57.629179,-25.333899],[-57.629337,-25.333976],[-57.629569,-25.334204],[-57.629821,-25.334354],[-57.629954,-25.334561],[-57.630068,-25.33469],[-57.630466,-25.33494],[-57.630564,-25.335028],[-57.630644,-25.335137],[-57.630672,-25.33528],[-57.630887,-25.335411],[-57.631105,-25.335502],[-57.6313,-25.335674],[-57.63166,-25.335867],[-57.631797,-25.335916],[-57.631984,-25.336095],[-57.632303,-25.336301],[-57.632487,-25.33653],[-57.632665,-25.336698],[-57.632722,-25.336786],[-57.632757,-25.336855],[-57.632832,-25.337457],[-57.633044,-25.337565],[-57.633066,-25.337684],[-57.633181,-25.337871],[-57.633481,-25.33795],[-57.633654,-25.337969],[-57.633925,-25.337956],[-57.63413,-25.33802],[-57.633929,-25.33808],[-57.633513,-25.338108],[-57.632986,-25.338299],[-57.632367,-25.338431],[-57.632546,-25.339739],[-57.633304,-25.339659],[-57.633477,-25.341121],[-57.633914,-25.341193],[-57.633967,-25.34262],[-57.63844,-25.343119],[-57.638602,-25.342226],[-57.638706,-25.339795],[-57.638399,-25.338086],[-57.63868,-25.338025],[-57.639036,-25.337746],[-57.63906,-25.337444],[-57.639482,-25.337173],[-57.639841,-25.336692],[-57.639682,-25.336596],[-57.63942,-25.336496],[-57.639352,-25.336424],[-57.639268,-25.336233],[-57.639185,-25.336174],[-57.639002,-25.336132],[-57.638938,-25.336071],[-57.638722,-25.335716],[-57.63842,-25.334411],[-57.638336,-25.334169],[-57.638286,-25.333832],[-57.638338,-25.333254],[-57.63835,-25.332795],[-57.638325,-25.332544],[-57.638351,-25.332528],[-57.638334,-25.332258],[-57.639571,-25.330781],[-57.639358,-25.330258],[-57.639345,-25.330145],[-57.639257,-25.330016],[-57.639249,-25.32993],[-57.639426,-25.329714],[-57.63942,-25.329673],[-57.639344,-25.329621],[-57.639152,-25.329544],[-57.639053,-25.329467],[-57.638893,-25.329465],[-57.638926,-25.329302],[-57.639109,-25.3291],[-57.639237,-25.328674],[-57.639352,-25.328439],[-57.639348,-25.328405],[-57.639284,-25.328392],[-57.639211,-25.327954],[-57.639229,-25.327681],[-57.639786,-25.326393],[-57.639951,-25.32572],[-57.64027,-25.325789],[-57.640955,-25.324081]]]}},{"type":"Feature","properties":{"clave":"00001017","nombre":"VISTA ALEGRE","poblacion_2022":12168},"geometry":{"type":"Polygon","coordinates":[[[-57.612706,-25.315879],[-57.611377,-25.31318],[-57.610245,-25.310613],[-57.608847,-25.307634],[-57.607601,-25.304898],[-57.601201,-25.306958],[-57.596331,-25.308633],[-57.59708,-25.3111],[-57.598215,-25.315091],[-57.598766,-25.316945],[-57.599076,-25.318145],[-57.599348,-25.318943],[-57.600892,-25.323971],[-57.60153,-25.324659],[-57.603136,-25.326519],[-57.604924,-25.325175],[-57.60489,-25.325131],[-57.605412,-25.324694],[-57.604451,-25.323703],[-57.605828,-25.322585],[-57.607863,-25.320798],[-57.609456,-25.322373],[-57.60942,-25.321724],[-57.60835,-25.319782],[-57.607876,-25.318275],[-57.611466,-25.317349],[-57.611153,-25.316742],[-57.612706,-25.315879]]]}},{"type":"Feature","properties":{"clave":"00001007","nombre":"JUKYTY","poblacion_2022":4553},"geometry":{"type":"Polygon","coordinates":[[[-57.654066,-25.329282],[-57.650156,-25.328677],[-57.649519,-25.328289],[-57.649144,-25.328093],[-57.648658,-25.327895],[-57.647616,-25.327568],[-57.647074,-25.327466],[-57.646263,-25.327146],[-57.644747,-25.326233],[-57.643826,-25.325389],[-57.643746,-25.325279],[-57.643783,-25.325237],[-57.643232,-25.325044],[-57.641927,-25.324527],[-57.641873,-25.324462],[-57.640955,-25.324081],[-57.64027,-25.325789],[-57.639951,-25.32572],[-57.639786,-25.326393],[-57.639229,-25.327681],[-57.639211,-25.327954],[-57.639284,-25.328392],[-57.639348,-25.328405],[-57.639352,-25.328439],[-57.639237,-25.328674],[-57.639109,-25.3291],[-57.638926,-25.329302],[-57.638893,-25.329465],[-57.639053,-25.329467],[-57.639152,-25.329544],[-57.639344,-25.329621],[-57.63942,-25.329673],[-57.639426,-25.329714],[-57.639249,-25.32993],[-57.639257,-25.330016],[-57.639345,-25.330145],[-57.639358,-25.330258],[-57.639571,-25.330781],[-57.638334,-25.332258],[-57.638351,-25.332528],[-57.638325,-25.332544],[-57.63835,-25.332795],[-57.638338,-25.333254],[-57.638286,-25.333832],[-57.638336,-25.334169],[-57.63842,-25.334411],[-57.638722,-25.335716],[-57.638938,-25.336071],[-57.639002,-25.336132],[-57.639185,-25.336174],[-57.639268,-25.336233],[-57.639352,-25.336424],[-57.63942,-25.336496],[-57.639682,-25.336596],[-57.639841,-25.336692],[-57.639482,-25.337173],[-57.63906,-25.337444],[-57.639036,-25.337746],[-57.63868,-25.338025],[-57.638399,-25.338086],[-57.638706,-25.339795],[-57.638602,-25.342226],[-57.63844,-25.343119],[-57.640026,-25.343292],[-57.64064,-25.343408],[-57.643456,-25.344405],[-57.645211,-25.344963],[-57.645367,-25.344572],[-57.64548,-25.344378],[-57.645639,-25.344234],[-57.645882,-25.344099],[-57.646383,-25.343988],[-57.646596,-25.343853],[-57.646788,-25.343657],[-57.646936,-25.343447],[-57.647005,-25.343225],[-57.647032,-25.342422],[-57.647123,-25.341847],[-57.647133,-25.341636],[-57.647005,-25.341232],[-57.646816,-25.340342],[-57.646723,-25.338788],[-57.646781,-25.338567],[-57.647038,-25.338098],[-57.647088,-25.33784],[-57.647035,-25.337606],[-57.646988,-25.337541],[-57.64708,-25.337512],[-57.647154,-25.337407],[-57.647137,-25.337208],[-57.647097,-25.337056],[-57.646915,-25.336821],[-57.646804,-25.336725],[-57.646708,-25.336684],[-57.646652,-25.336246],[-57.646476,-25.336044],[-57.646417,-25.33594],[-57.646432,-25.335636],[-57.646485,-25.335434],[-57.646481,-25.335082],[-57.646543,-25.335076],[-57.646663,-25.335201],[-57.646869,-25.335281],[-57.647051,-25.335293],[-57.647188,-25.33524],[-57.647862,-25.334788],[-57.647926,-25.334655],[-57.648258,-25.334235],[-57.648593,-25.33418],[-57.648803,-25.334262],[-57.649053,-25.334507],[-57.649137,-25.334541],[-57.64916,-25.334705],[-57.649257,-25.334736],[-57.649303,-25.334808],[-57.649511,-25.334963],[-57.649583,-25.335071],[-57.649687,-25.335167],[-57.649833,-25.335197],[-57.649878,-25.335241],[-57.649893,-25.335297],[-57.649999,-25.335295],[-57.650132,-25.335233],[-57.65032,-25.335272],[-57.650459,-25.33536],[-57.650889,-25.335379],[-57.650929,-25.335397],[-57.650978,-25.335505],[-57.651065,-25.335473],[-57.651075,-25.335505],[-57.650982,-25.3356],[-57.651017,-25.335638],[-57.651132,-25.335661],[-57.65119,-25.335771],[-57.651223,-25.335776],[-57.651273,-25.335734],[-57.651325,-25.335653],[-57.651479,-25.335634],[-57.651587,-25.3357],[-57.65163,-25.335761],[-57.651718,-25.335798],[-57.651754,-25.335789],[-57.651814,-25.335738],[-57.651875,-25.3356],[-57.651945,-25.335557],[-57.651929,-25.335687],[-57.65197,-25.335675],[-57.652039,-25.335577],[-57.652202,-25.335421],[-57.652346,-25.335491],[-57.652541,-25.335515],[-57.652574,-25.335471],[-57.652547,-25.33534],[-57.652609,-25.335231],[-57.65277,-25.335198],[-57.652905,-25.335139],[-57.653066,-25.334888],[-57.653316,-25.33463],[-57.653329,-25.334561],[-57.65331,-25.334462],[-57.653356,-25.334396],[-57.653417,-25.33417],[-57.653414,-25.334081],[-57.653477,-25.333989],[-57.653688,-25.333803],[-57.653747,-25.33371],[-57.653813,-25.333537],[-57.65383,-25.333389],[-57.654063,-25.333396],[-57.654334,-25.333247],[-57.654392,-25.333204],[-57.654493,-25.332989],[-57.654392,-25.332806],[-57.654388,-25.332733],[-57.654359,-25.332711],[-57.65396,-25.332713],[-57.653708,-25.332654],[-57.653579,-25.332542],[-57.652889,-25.332124],[-57.652493,-25.331965],[-57.65244,-25.3319],[-57.652394,-25.331659],[-57.652332,-25.331575],[-57.652159,-25.331547],[-57.652017,-25.331552],[-57.652025,-25.331426],[-57.651848,-25.331222],[-57.651838,-25.331104],[-57.652011,-25.330896],[-57.652205,-25.33071],[-57.654066,-25.329282]]]}},{"type":"Feature","properties":{"clave":"00001015","nombre":"SAN VICENTE","poblacion_2022":15449},"geometry":{"type":"Polygon","coordinates":[[[-57.619936,-25.304206],[-57.618945,-25.306522],[-57.618774,-25.306784],[-57.618246,-25.30727],[-57.617976,-25.30746],[-57.615755,-25.308779],[-57.616649,-25.31059],[-57.614625,-25.312522],[-57.615744,-25.313452],[-57.616309,-25.31411],[-57.618094,-25.317539],[-57.619698,-25.319227],[-57.619292,-25.319684],[-57.619791,-25.3205],[-57.620546,-25.321825],[-57.621588,-25.323518],[-57.620027,-25.325071],[-57.620177,-25.325209],[-57.62038,-25.325454],[-57.620424,-25.325543],[-57.620529,-25.32564],[-57.620879,-25.32587],[-57.621283,-25.325963],[-57.621425,-25.326053],[-57.621403,-25.326207],[-57.621122,-25.326729],[-57.621073,-25.326864],[-57.621078,-25.327315],[-57.621189,-25.327496],[-57.621313,-25.327641],[-57.621424,-25.327747],[-57.6215,-25.327784],[-57.622169,-25.32789],[-57.622482,-25.328012],[-57.623128,-25.328006],[-57.623235,-25.328073],[-57.623308,-25.328175],[-57.623334,-25.328313],[-57.623487,-25.328604],[-57.623728,-25.328762],[-57.623969,-25.329047],[-57.624159,-25.329207],[-57.624441,-25.329406],[-57.624608,-25.329478],[-57.624655,-25.329529],[-57.624802,-25.329835],[-57.624905,-25.330326],[-57.625293,-25.330631],[-57.625506,-25.331003],[-57.625669,-25.331426],[-57.62579,-25.331554],[-57.625993,-25.331667],[-57.629461,-25.318347],[-57.630667,-25.313582],[-57.630899,-25.312512],[-57.631018,-25.312083],[-57.631763,-25.308346],[-57.631911,-25.30639],[-57.628778,-25.306209],[-57.628145,-25.306194],[-57.627941,-25.306221],[-57.627095,-25.306415],[-57.626369,-25.306797],[-57.625774,-25.307147],[-57.623508,-25.308606],[-57.619936,-25.304206]]]}},{"type":"Feature","properties":{"clave":"00001050","nombre":"TABLADA NUEVA","poblacion_2022":7131},"geometry":{"type":"Polygon","coordinates":[[[-57.592243,-25.262448],[-57.5976,-25.266423],[-57.598651,-25.265273],[-57.599941,-25.263919],[-57.600147,-25.26381],[-57.600366,-25.264243],[-57.600447,-25.264228],[-57.60061,-25.264251],[-57.600959,-25.26368],[-57.611469,-25.249147],[-57.600798,-25.24492],[-57.600388,-25.245656],[-57.599921,-25.24639],[-57.599709,-25.246874],[-57.5996,-25.247319],[-57.599511,-25.247538],[-57.599313,-25.247834],[-57.598934,-25.248218],[-57.598756,-25.248554],[-57.598718,-25.248763],[-57.598681,-25.249448],[-57.598707,-25.249652],[-57.598657,-25.250168],[-57.598509,-25.251001],[-57.598174,-25.25176],[-57.597967,-25.252292],[-57.597891,-25.252551],[-57.59779,-25.253259],[-57.597663,-25.253846],[-57.597606,-25.254007],[-57.597468,-25.254245],[-57.597289,-25.254737],[-57.597252,-25.254995],[-57.597307,-25.255531],[-57.597252,-25.256046],[-57.597171,-25.256257],[-57.597116,-25.25635],[-57.597027,-25.256434],[-57.596657,-25.256699],[-57.596498,-25.256747],[-57.596096,-25.256742],[-57.595767,-25.256803],[-57.595558,-25.256897],[-57.59512,-25.257048],[-57.594919,-25.25716],[-57.594364,-25.25758],[-57.593787,-25.258161],[-57.593721,-25.258331],[-57.593662,-25.258606],[-57.593654,-25.25914],[-57.593526,-25.259348],[-57.593275,-25.259574],[-57.593241,-25.259678],[-57.593232,-25.259841],[-57.593262,-25.259954],[-57.59344,-25.260087],[-57.593817,-25.260282],[-57.593862,-25.260332],[-57.5939,-25.260459],[-57.593863,-25.26057],[-57.59365,-25.260722],[-57.593303,-25.260864],[-57.593219,-25.260952],[-57.593004,-25.261307],[-57.592982,-25.26139],[-57.592998,-25.261707],[-57.592924,-25.261927],[-57.592522,-25.262302],[-57.592243,-25.262448]]]}},{"type":"Feature","properties":{"clave":"00001026","nombre":"BANCO SAN MIGUEL","poblacion_2022":2801},"geometry":{"type":"Polygon","coordinates":[[[-57.639351,-25.275866],[-57.639497,-25.275991],[-57.641466,-25.27585],[-57.643247,-25.27475],[-57.644387,-25.274159],[-57.646256,-25.273219],[-57.647104,-25.272829],[-57.647864,-25.272546],[-57.648377,-25.27257],[-57.649462,-25.272845],[-57.650971,-25.269206],[-57.639574,-25.26195],[-57.635327,-25.259137],[-57.631831,-25.257116],[-57.627836,-25.254984],[-57.622845,-25.252738],[-57.616984,-25.250726],[-57.611469,-25.249147],[-57.600959,-25.26368],[-57.60061,-25.264251],[-57.600409,-25.264229],[-57.600366,-25.264243],[-57.600291,-25.264316],[-57.600622,-25.265037],[-57.600761,-25.265201],[-57.60093,-25.265349],[-57.601061,-25.265265],[-57.601325,-25.265402],[-57.601705,-25.265649],[-57.602013,-25.265952],[-57.602442,-25.266461],[-57.603009,-25.265905],[-57.603102,-25.265985],[-57.60328,-25.26624],[-57.603827,-25.266501],[-57.604145,-25.266716],[-57.604234,-25.26681],[-57.604317,-25.266861],[-57.604465,-25.26711],[-57.604857,-25.267595],[-57.605268,-25.267431],[-57.605946,-25.268187],[-57.606147,-25.268209],[-57.60636,-25.26842],[-57.60635,-25.268474],[-57.606624,-25.268317],[-57.607139,-25.268706],[-57.6112,-25.27225],[-57.611521,-25.271803],[-57.612251,-25.27114],[-57.613226,-25.270174],[-57.613406,-25.27008],[-57.613609,-25.270073],[-57.613922,-25.270174],[-57.617946,-25.271045],[-57.618316,-25.271021],[-57.618472,-25.271244],[-57.618708,-25.271793],[-57.619084,-25.272268],[-57.619323,-25.273133],[-57.619208,-25.273559],[-57.619238,-25.273792],[-57.619466,-25.273964],[-57.619701,-25.274043],[-57.620205,-25.273761],[-57.620577,-25.27346],[-57.620709,-25.273573],[-57.620739,-25.273713],[-57.620959,-25.273705],[-57.62117,-25.273501],[-57.621302,-25.273511],[-57.62139,-25.27359],[-57.621515,-25.273769],[-57.622096,-25.27418],[-57.622257,-25.274186],[-57.622717,-25.273964],[-57.623076,-25.273929],[-57.623362,-25.273955],[-57.623574,-25.273914],[-57.623893,-25.273233],[-57.624004,-25.273203],[-57.624143,-25.273334],[-57.624341,-25.273352],[-57.624423,-25.273288],[-57.624365,-25.273123],[-57.62442,-25.273088],[-57.624878,-25.273037],[-57.62513,-25.273093],[-57.625242,-25.272887],[-57.625062,-25.272769],[-57.625098,-25.272649],[-57.625215,-25.272575],[-57.625423,-25.272589],[-57.625801,-25.272706],[-57.625955,-25.272712],[-57.626087,-25.272771],[-57.626211,-25.272631],[-57.626481,-25.272497],[-57.626539,-25.27235],[-57.626414,-25.272344],[-57.626159,-25.272431],[-57.625983,-25.272419],[-57.625982,-25.272312],[-57.626084,-25.272259],[-57.626319,-25.272211],[-57.626531,-25.27225],[-57.626722,-25.272376],[-57.626972,-25.272454],[-57.627242,-25.272453],[-57.627799,-25.272371],[-57.627921,-25.272231],[-57.628039,-25.272157],[-57.628216,-25.272369],[-57.628284,-25.272735],[-57.628365,-25.272788],[-57.628621,-25.272814],[-57.628746,-25.272873],[-57.628717,-25.27298],[-57.628476,-25.273021],[-57.628285,-25.272942],[-57.628138,-25.272802],[-57.627755,-25.272816],[-57.627624,-25.272671],[-57.627485,-25.272612],[-57.627309,-25.27262],[-57.627031,-25.272687],[-57.626878,-25.272761],[-57.626791,-25.272955],[-57.626814,-25.273154],[-57.627012,-25.273293],[-57.627196,-25.273366],[-57.6273,-25.273678],[-57.627542,-25.27383],[-57.627683,-25.273952],[-57.6281,-25.273994],[-57.628334,-25.273934],[-57.628436,-25.273813],[-57.62864,-25.273746],[-57.628867,-25.273745],[-57.629014,-25.273824],[-57.62927,-25.274485],[-57.629485,-25.274864],[-57.629735,-25.275096],[-57.630146,-25.275287],[-57.630381,-25.275486],[-57.630602,-25.275625],[-57.630851,-25.275631],[-57.631719,-25.275738],[-57.63229,-25.275769],[-57.632956,-25.27568],[-57.633154,-25.275612],[-57.633271,-25.275679],[-57.63333,-25.275672],[-57.63354,-25.275231],[-57.634181,-25.274656],[-57.634466,-25.274581],[-57.634614,-25.274701],[-57.634643,-25.274794],[-57.634877,-25.274766],[-57.635082,-25.274652],[-57.635625,-25.27479],[-57.635845,-25.274882],[-57.636167,-25.274927],[-57.636497,-25.274932],[-57.636842,-25.275057],[-57.637647,-25.275127],[-57.638315,-25.275331],[-57.638718,-25.275489],[-57.638895,-25.275614],[-57.639351,-25.275866]]]}},{"type":"Feature","properties":{"clave":"00001003","nombre":"DR. GASPAR RODRIGUEZ DE FRANCIA","poblacion_2022":8903},"geometry":{"type":"Polygon","coordinates":[[[-57.642663,-25.280228],[-57.647896,-25.287722],[-57.653069,-25.288567],[-57.653322,-25.287405],[-57.653598,-25.286293],[-57.653766,-25.285425],[-57.653988,-25.284548],[-57.654788,-25.280978],[-57.655214,-25.279193],[-57.655393,-25.278307],[-57.656105,-25.275317],[-57.656889,-25.272738],[-57.650971,-25.269206],[-57.649462,-25.272845],[-57.648377,-25.27257],[-57.647864,-25.272546],[-57.647104,-25.272829],[-57.646256,-25.273219],[-57.644387,-25.274159],[-57.643247,-25.27475],[-57.641466,-25.27585],[-57.639497,-25.275991],[-57.639351,-25.275866],[-57.63889,-25.276171],[-57.639553,-25.276547],[-57.639958,-25.276594],[-57.640127,-25.276676],[-57.641742,-25.278967],[-57.642663,-25.280228]]]}},{"type":"Feature","properties":{"clave":"00001021","nombre":"LAS MERCEDES","poblacion_2022":6156},"geometry":{"type":"Polygon","coordinates":[[[-57.611521,-25.271803],[-57.609963,-25.273869],[-57.609841,-25.2741],[-57.609786,-25.275445],[-57.609742,-25.275414],[-57.60968,-25.278132],[-57.609621,-25.279704],[-57.609543,-25.283073],[-57.60953,-25.285723],[-57.609551,-25.287534],[-57.6112,-25.293884],[-57.6116,-25.293756],[-57.612151,-25.293483],[-57.613017,-25.29301],[-57.619112,-25.289503],[-57.61667,-25.286217],[-57.616611,-25.285978],[-57.616041,-25.281646],[-57.615762,-25.279918],[-57.615912,-25.279692],[-57.615946,-25.279514],[-57.615904,-25.279325],[-57.615977,-25.279241],[-57.615965,-25.279099],[-57.616076,-25.27881],[-57.61617,-25.278669],[-57.616388,-25.278426],[-57.616585,-25.278015],[-57.616873,-25.277605],[-57.617228,-25.277015],[-57.617396,-25.276802],[-57.617477,-25.276626],[-57.617569,-25.276525],[-57.617571,-25.276317],[-57.617599,-25.276269],[-57.617851,-25.276141],[-57.618018,-25.276012],[-57.618353,-25.275814],[-57.61879,-25.275457],[-57.618972,-25.275392],[-57.61945,-25.275146],[-57.619871,-25.274739],[-57.620197,-25.274593],[-57.621032,-25.273867],[-57.62117,-25.273501],[-57.620959,-25.273705],[-57.620739,-25.273713],[-57.620709,-25.273573],[-57.620577,-25.27346],[-57.620205,-25.273761],[-57.619701,-25.274043],[-57.619466,-25.273964],[-57.619238,-25.273792],[-57.619208,-25.273559],[-57.619323,-25.273133],[-57.619084,-25.272268],[-57.618708,-25.271793],[-57.618472,-25.271244],[-57.618316,-25.271021],[-57.617946,-25.271045],[-57.613922,-25.270174],[-57.613609,-25.270073],[-57.613406,-25.27008],[-57.613226,-25.270174],[-57.612251,-25.27114],[-57.611521,-25.271803]]]}},{"type":"Feature","properties":{"clave":"00001028","nombre":"REPUBLICANO","poblacion_2022":8181},"geometry":{"type":"Polygon","coordinates":[[[-57.638719,-25.318217],[-57.638679,-25.318146],[-57.638691,-25.318071],[-57.638612,-25.317751],[-57.638509,-25.317525],[-57.638413,-25.317421],[-57.638389,-25.317278],[-57.638137,-25.317279],[-57.637997,-25.317205],[-57.637834,-25.317027],[-57.637703,-25.316969],[-57.637508,-25.316938],[-57.637312,-25.316757],[-57.637027,-25.316439],[-57.636717,-25.316267],[-57.636381,-25.315867],[-57.636086,-25.315193],[-57.636034,-25.31496],[-57.635884,-25.314784],[-57.635764,-25.31473],[-57.635649,-25.314722],[-57.635528,-25.314751],[-57.635182,-25.314891],[-57.635003,-25.314932],[-57.634757,-25.315058],[-57.63456,-25.31494],[-57.634503,-25.314652],[-57.634246,-25.314127],[-57.634179,-25.314063],[-57.633858,-25.313991],[-57.633711,-25.313978],[-57.63362,-25.314004],[-57.633474,-25.313997],[-57.633354,-25.313925],[-57.633221,-25.313803],[-57.633145,-25.313684],[-57.633076,-25.313646],[-57.632943,-25.313647],[-57.632874,-25.313671],[-57.632707,-25.313908],[-57.632688,-25.314002],[-57.632701,-25.314088],[-57.632564,-25.314249],[-57.632447,-25.314339],[-57.632331,-25.314342],[-57.632009,-25.314223],[-57.631956,-25.314191],[-57.631898,-25.314096],[-57.631743,-25.314047],[-57.631528,-25.31389],[-57.631153,-25.313669],[-57.630667,-25.313582],[-57.629634,-25.317679],[-57.627286,-25.326744],[-57.629842,-25.327286],[-57.630587,-25.327404],[-57.634698,-25.326895],[-57.633854,-25.32572],[-57.633588,-25.32531],[-57.633521,-25.325148],[-57.633461,-25.324746],[-57.633602,-25.323364],[-57.635692,-25.323053],[-57.637897,-25.32289],[-57.640447,-25.323855],[-57.641873,-25.324462],[-57.642136,-25.323688],[-57.642366,-25.322921],[-57.64284,-25.321725],[-57.643122,-25.321097],[-57.642318,-25.320536],[-57.64217,-25.32036],[-57.641617,-25.320435],[-57.641178,-25.3207],[-57.64039,-25.320422],[-57.639978,-25.320306],[-57.637959,-25.319417],[-57.637146,-25.3191],[-57.638719,-25.318217]]]}},{"type":"Feature","properties":{"clave":"00001011","nombre":"ROBERTO L. PETIT","poblacion_2022":14452},"geometry":{"type":"Polygon","coordinates":[[[-57.638719,-25.318217],[-57.64505,-25.314632],[-57.645084,-25.314541],[-57.645449,-25.314197],[-57.645582,-25.314107],[-57.646107,-25.313965],[-57.646148,-25.314017],[-57.649011,-25.312357],[-57.649136,-25.312263],[-57.649726,-25.312632],[-57.650118,-25.312101],[-57.650259,-25.311724],[-57.655247,-25.308893],[-57.652483,-25.304957],[-57.652033,-25.305218],[-57.650714,-25.303274],[-57.648449,-25.304557],[-57.646854,-25.305503],[-57.643666,-25.307269],[-57.640322,-25.309185],[-57.636418,-25.311373],[-57.63566,-25.311805],[-57.635333,-25.312042],[-57.633341,-25.31294],[-57.633094,-25.313018],[-57.632918,-25.313027],[-57.630899,-25.312512],[-57.630667,-25.313582],[-57.631153,-25.313669],[-57.631528,-25.31389],[-57.631743,-25.314047],[-57.631898,-25.314096],[-57.631956,-25.314191],[-57.632009,-25.314223],[-57.632331,-25.314342],[-57.632447,-25.314339],[-57.632564,-25.314249],[-57.632701,-25.314088],[-57.632688,-25.314002],[-57.632707,-25.313908],[-57.632874,-25.313671],[-57.632943,-25.313647],[-57.633076,-25.313646],[-57.633145,-25.313684],[-57.633221,-25.313803],[-57.633354,-25.313925],[-57.633474,-25.313997],[-57.63362,-25.314004],[-57.633711,-25.313978],[-57.633858,-25.313991],[-57.634179,-25.314063],[-57.634246,-25.314127],[-57.634503,-25.314652],[-57.63456,-25.31494],[-57.634757,-25.315058],[-57.635003,-25.314932],[-57.635182,-25.314891],[-57.635528,-25.314751],[-57.635649,-25.314722],[-57.635764,-25.31473],[-57.635884,-25.314784],[-57.636034,-25.31496],[-57.636086,-25.315193],[-57.636381,-25.315867],[-57.636717,-25.316267],[-57.637027,-25.316439],[-57.637312,-25.316757],[-57.637508,-25.316938],[-57.637703,-25.316969],[-57.637834,-25.317027],[-57.637997,-25.317205],[-57.638137,-25.317279],[-57.638389,-25.317278],[-57.638413,-25.317421],[-57.638509,-25.317525],[-57.638612,-25.317751],[-57.638691,-25.318071],[-57.638679,-25.318146],[-57.638719,-25.318217]]]}},{"type":"Feature","properties":{"clave":"00001027","nombre":"SAN CAYETANO","poblacion_2022":11926},"geometry":{"type":"Polygon","coordinates":[[[-57.646559,-25.314626],[-57.646107,-25.313965],[-57.645582,-25.314107],[-57.645449,-25.314197],[-57.645084,-25.314541],[-57.64505,-25.314632],[-57.637146,-25.3191],[-57.637959,-25.319417],[-57.639978,-25.320306],[-57.64039,-25.320422],[-57.641178,-25.3207],[-57.641617,-25.320435],[-57.64217,-25.32036],[-57.642318,-25.320536],[-57.643122,-25.321097],[-57.64284,-25.321725],[-57.642366,-25.322921],[-57.642136,-25.323688],[-57.641873,-25.324462],[-57.641927,-25.324527],[-57.643232,-25.325044],[-57.643783,-25.325237],[-57.643746,-25.325279],[-57.643826,-25.325389],[-57.644747,-25.326233],[-57.646263,-25.327146],[-57.647074,-25.327466],[-57.647616,-25.327568],[-57.648658,-25.327895],[-57.649144,-25.328093],[-57.649519,-25.328289],[-57.650156,-25.328677],[-57.654066,-25.329282],[-57.654272,-25.329123],[-57.654264,-25.328975],[-57.654155,-25.328874],[-57.656057,-25.327954],[-57.656944,-25.327659],[-57.658095,-25.326886],[-57.659915,-25.325842],[-57.661312,-25.325091],[-57.662147,-25.324729],[-57.662817,-25.324185],[-57.663493,-25.323547],[-57.664282,-25.3229],[-57.66378,-25.322744],[-57.663125,-25.322575],[-57.662614,-25.322487],[-57.661571,-25.322566],[-57.661362,-25.322565],[-57.661044,-25.32252],[-57.661106,-25.32207],[-57.661018,-25.322031],[-57.660944,-25.322182],[-57.660878,-25.322239],[-57.660729,-25.322259],[-57.660117,-25.322231],[-57.659618,-25.322137],[-57.659165,-25.321914],[-57.659105,-25.32185],[-57.659025,-25.321816],[-57.658643,-25.321719],[-57.658289,-25.321685],[-57.658198,-25.321602],[-57.658123,-25.321399],[-57.657958,-25.321198],[-57.657842,-25.32113],[-57.657106,-25.320854],[-57.656603,-25.32053],[-57.656252,-25.320368],[-57.656179,-25.320298],[-57.656029,-25.320059],[-57.655762,-25.319886],[-57.65561,-25.31973],[-57.65501,-25.319755],[-57.654881,-25.319725],[-57.654486,-25.319535],[-57.654253,-25.319467],[-57.653508,-25.319374],[-57.653046,-25.31924],[-57.652661,-25.319215],[-57.65253,-25.319153],[-57.652281,-25.319105],[-57.651946,-25.318962],[-57.651418,-25.318882],[-57.650854,-25.31872],[-57.65058,-25.318711],[-57.650365,-25.318675],[-57.650003,-25.318707],[-57.649457,-25.318941],[-57.649349,-25.31903],[-57.649239,-25.319071],[-57.649079,-25.31906],[-57.648525,-25.318312],[-57.647673,-25.31696],[-57.647389,-25.316462],[-57.646984,-25.315978],[-57.646677,-25.315451],[-57.646571,-25.315235],[-57.646584,-25.314743],[-57.646559,-25.314626]]]}},{"type":"Feature","properties":{"clave":"00001067","nombre":"BOTANICO","poblacion_2022":13105},"geometry":{"type":"Polygon","coordinates":[[[-57.585759,-25.247437],[-57.586757,-25.247118],[-57.587448,-25.246936],[-57.587791,-25.246691],[-57.588112,-25.246426],[-57.589383,-25.245258],[-57.593056,-25.241126],[-57.579975,-25.229198],[-57.578394,-25.230952],[-57.574512,-25.234407],[-57.575426,-25.234784],[-57.57601,-25.235101],[-57.577367,-25.236511],[-57.577835,-25.237027],[-57.577885,-25.237196],[-57.577994,-25.238015],[-57.578107,-25.238378],[-57.578253,-25.238703],[-57.578502,-25.238982],[-57.579296,-25.239518],[-57.579447,-25.239671],[-57.579555,-25.239826],[-57.579614,-25.240008],[-57.579825,-25.242682],[-57.579884,-25.242924],[-57.580364,-25.244442],[-57.58037,-25.24456],[-57.580337,-25.244733],[-57.580249,-25.244913],[-57.578066,-25.246135],[-57.577915,-25.24628],[-57.577884,-25.246371],[-57.577877,-25.246498],[-57.580258,-25.251017],[-57.584584,-25.248602],[-57.584853,-25.248331],[-57.585414,-25.247655],[-57.585759,-25.247437]]]}},{"type":"Feature","properties":{"clave":"00001022","nombre":"BAÑADO CARA CARA","poblacion_2022":3046},"geometry":{"type":"Polygon","coordinates":[[[-57.600798,-25.24492],[-57.593056,-25.241126],[-57.589383,-25.245258],[-57.588112,-25.246426],[-57.587791,-25.246691],[-57.587448,-25.246936],[-57.586757,-25.247118],[-57.586133,-25.247313],[-57.586345,-25.247353],[-57.586413,-25.247405],[-57.586429,-25.247486],[-57.58641,-25.247591],[-57.586352,-25.24766],[-57.586689,-25.247671],[-57.587091,-25.2478],[-57.587577,-25.248102],[-57.588177,-25.248637],[-57.588277,-25.24875],[-57.588322,-25.248849],[-57.588487,-25.24902],[-57.589177,-25.249401],[-57.589067,-25.249663],[-57.588944,-25.249862],[-57.58878,-25.250009],[-57.588474,-25.250205],[-57.588386,-25.250177],[-57.587971,-25.250388],[-57.588085,-25.250794],[-57.588037,-25.250841],[-57.588419,-25.251368],[-57.588531,-25.251565],[-57.588617,-25.251862],[-57.588729,-25.251836],[-57.588837,-25.251668],[-57.588821,-25.251559],[-57.589231,-25.25118],[-57.589664,-25.251472],[-57.58985,-25.25157],[-57.59064,-25.252174],[-57.590554,-25.25235],[-57.590722,-25.252494],[-57.590809,-25.252614],[-57.59093,-25.252528],[-57.591025,-25.252513],[-57.591257,-25.252382],[-57.591606,-25.252669],[-57.591624,-25.252777],[-57.591841,-25.252905],[-57.59211,-25.253003],[-57.592115,-25.253166],[-57.592194,-25.253514],[-57.592268,-25.253716],[-57.592452,-25.25366],[-57.592644,-25.253384],[-57.592761,-25.253426],[-57.592871,-25.253515],[-57.593007,-25.253553],[-57.593208,-25.253677],[-57.593417,-25.253852],[-57.593461,-25.253829],[-57.59369,-25.253567],[-57.593895,-25.253155],[-57.594095,-25.252958],[-57.594672,-25.253611],[-57.595009,-25.254192],[-57.595108,-25.25443],[-57.595244,-25.254564],[-57.595387,-25.25466],[-57.595659,-25.254227],[-57.595755,-25.254246],[-57.595918,-25.254242],[-57.596638,-25.254422],[-57.596673,-25.254999],[-57.596733,-25.255145],[-57.596843,-25.255379],[-57.597269,-25.255903],[-57.597307,-25.255531],[-57.597252,-25.254995],[-57.597289,-25.254737],[-57.597468,-25.254245],[-57.597606,-25.254007],[-57.597663,-25.253846],[-57.59779,-25.253259],[-57.597891,-25.252551],[-57.597967,-25.252292],[-57.598174,-25.25176],[-57.598509,-25.251001],[-57.598657,-25.250168],[-57.598707,-25.249652],[-57.598681,-25.249448],[-57.598718,-25.248763],[-57.598756,-25.248554],[-57.598934,-25.248218],[-57.599313,-25.247834],[-57.599511,-25.247538],[-57.5996,-25.247319],[-57.599709,-25.246874],[-57.599921,-25.24639],[-57.600388,-25.245656],[-57.600798,-25.24492]]]}},{"type":"Feature","properties":{"clave":"00001038","nombre":"VILLA AURELIA","poblacion_2022":8399},"geometry":{"type":"Polygon","coordinates":[[[-57.553233,-25.307472],[-57.55349,-25.309026],[-57.553655,-25.309672],[-57.553858,-25.310122],[-57.554189,-25.310646],[-57.555595,-25.313194],[-57.55573,-25.313398],[-57.55575,-25.313514],[-57.557079,-25.315781],[-57.558705,-25.317945],[-57.560001,-25.319801],[-57.56036,-25.320215],[-57.570297,-25.317568],[-57.574089,-25.316393],[-57.573272,-25.31547],[-57.571158,-25.312936],[-57.564304,-25.304601],[-57.56353,-25.303601],[-57.562469,-25.302348],[-57.557992,-25.304783],[-57.554695,-25.306624],[-57.553233,-25.307472]]]}},{"type":"Feature","properties":{"clave":"00001048","nombre":"YTAY","poblacion_2022":2977},"geometry":{"type":"Polygon","coordinates":[[[-57.545187,-25.298725],[-57.545311,-25.298633],[-57.546565,-25.297226],[-57.548658,-25.294844],[-57.550292,-25.293167],[-57.549676,-25.291176],[-57.548931,-25.288416],[-57.548904,-25.288256],[-57.547742,-25.28416],[-57.547368,-25.282709],[-57.547133,-25.281902],[-57.547034,-25.281466],[-57.546557,-25.279779],[-57.546098,-25.278419],[-57.545999,-25.278303],[-57.545956,-25.278296],[-57.545231,-25.275683],[-57.545145,-25.275292],[-57.544324,-25.27504],[-57.54366,-25.274806],[-57.543137,-25.274576],[-57.542638,-25.274317],[-57.542445,-25.274718],[-57.542386,-25.274908],[-57.542394,-25.275785],[-57.542476,-25.276476],[-57.542198,-25.276699],[-57.541736,-25.276958],[-57.541595,-25.277157],[-57.541671,-25.27732],[-57.541656,-25.27737],[-57.541481,-25.277661],[-57.541304,-25.277749],[-57.541267,-25.277856],[-57.541324,-25.277989],[-57.5414,-25.278028],[-57.541464,-25.2781],[-57.541495,-25.278199],[-57.541488,-25.278456],[-57.541441,-25.278738],[-57.541511,-25.278966],[-57.541527,-25.279486],[-57.541424,-25.279706],[-57.541444,-25.279977],[-57.54141,-25.280226],[-57.541196,-25.280547],[-57.541073,-25.280626],[-57.540751,-25.280755],[-57.540591,-25.281201],[-57.540537,-25.281596],[-57.540552,-25.281738],[-57.540654,-25.28202],[-57.540755,-25.282541],[-57.540994,-25.282871],[-57.541036,-25.283042],[-57.541095,-25.283607],[-57.541084,-25.28386],[-57.541142,-25.2842],[-57.541158,-25.284504],[-57.541155,-25.284665],[-57.541019,-25.284926],[-57.540742,-25.28513],[-57.540623,-25.285273],[-57.540555,-25.285449],[-57.54055,-25.285638],[-57.540507,-25.285748],[-57.540591,-25.28588],[-57.540777,-25.286013],[-57.540896,-25.286129],[-57.540979,-25.286194],[-57.541172,-25.286276],[-57.541225,-25.286394],[-57.541225,-25.286442],[-57.541147,-25.28656],[-57.541086,-25.28701],[-57.541125,-25.287206],[-57.541248,-25.287302],[-57.541324,-25.287511],[-57.541317,-25.28761],[-57.541255,-25.287731],[-57.541251,-25.287919],[-57.541217,-25.288073],[-57.541391,-25.288142],[-57.541474,-25.288231],[-57.541543,-25.288494],[-57.541598,-25.2886],[-57.541716,-25.288721],[-57.541737,-25.288788],[-57.541749,-25.288922],[-57.541578,-25.289013],[-57.541549,-25.289328],[-57.541596,-25.289419],[-57.541791,-25.289561],[-57.541844,-25.289734],[-57.541805,-25.289827],[-57.54167,-25.289879],[-57.541616,-25.29002],[-57.541669,-25.290112],[-57.541793,-25.29019],[-57.541978,-25.291005],[-57.542104,-25.291407],[-57.542086,-25.291465],[-57.542026,-25.29153],[-57.541819,-25.291679],[-57.541899,-25.291967],[-57.542209,-25.292192],[-57.54242,-25.2925],[-57.542486,-25.292542],[-57.542883,-25.292644],[-57.542947,-25.292697],[-57.543029,-25.292896],[-57.543172,-25.293038],[-57.543207,-25.293134],[-57.54336,-25.293223],[-57.543422,-25.293286],[-57.543491,-25.293413],[-57.543659,-25.293504],[-57.5438,-25.29366],[-57.543837,-25.293742],[-57.543828,-25.29387],[-57.543785,-25.293956],[-57.543492,-25.294212],[-57.543419,-25.294301],[-57.54335,-25.294468],[-57.543343,-25.294538],[-57.543549,-25.294886],[-57.543545,-25.294944],[-57.543349,-25.295225],[-57.543305,-25.295493],[-57.543314,-25.295907],[-57.543242,-25.295953],[-57.543219,-25.296005],[-57.543216,-25.29616],[-57.543141,-25.296209],[-57.543203,-25.29633],[-57.544165,-25.297452],[-57.545187,-25.298725]]]}},{"type":"Feature","properties":{"clave":"00001047","nombre":"SANTA MARIA","poblacion_2022":4258},"geometry":{"type":"Polygon","coordinates":[[[-57.550379,-25.293682],[-57.550292,-25.293167],[-57.548658,-25.294844],[-57.546565,-25.297226],[-57.545311,-25.298633],[-57.54521,-25.298713],[-57.55209,-25.308929],[-57.552463,-25.309355],[-57.553568,-25.309336],[-57.55349,-25.309026],[-57.553214,-25.30736],[-57.553008,-25.306275],[-57.552742,-25.304229],[-57.552493,-25.302989],[-57.552104,-25.300706],[-57.551686,-25.299208],[-57.551425,-25.298111],[-57.551182,-25.297271],[-57.551007,-25.296291],[-57.550953,-25.295739],[-57.550623,-25.294645],[-57.550379,-25.293682]]]}},{"type":"Feature","properties":{"clave":"00001046","nombre":"LUIS ALBERTO DE HERRERA","poblacion_2022":4925},"geometry":{"type":"Polygon","coordinates":[[[-57.557992,-25.304783],[-57.562886,-25.302123],[-57.560739,-25.298781],[-57.55751,-25.293862],[-57.557003,-25.293029],[-57.550903,-25.293354],[-57.550332,-25.293404],[-57.550379,-25.293682],[-57.550623,-25.294645],[-57.550953,-25.295739],[-57.551007,-25.296291],[-57.551182,-25.297271],[-57.551425,-25.298111],[-57.551686,-25.299208],[-57.552104,-25.300706],[-57.552493,-25.302989],[-57.552742,-25.304229],[-57.552955,-25.305941],[-57.553233,-25.307472],[-57.554695,-25.306624],[-57.557992,-25.304783]]]}},{"type":"Feature","properties":{"clave":"00001063","nombre":"MBOCAYATY","poblacion_2022":5359},"geometry":{"type":"Polygon","coordinates":[[[-57.564381,-25.259827],[-57.568473,-25.257561],[-57.571069,-25.256065],[-57.568489,-25.256061],[-57.568449,-25.256111],[-57.567957,-25.256228],[-57.567001,-25.256264],[-57.566183,-25.256457],[-57.565703,-25.256487],[-57.558114,-25.256589],[-57.553538,-25.256715],[-57.551385,-25.256799],[-57.550336,-25.256904],[-57.548953,-25.257113],[-57.548885,-25.257831],[-57.548157,-25.261202],[-57.546197,-25.269901],[-57.549171,-25.268236],[-57.559855,-25.262414],[-57.564381,-25.259827]]]}},{"type":"Feature","properties":{"clave":"00001064","nombre":"ÑU GUASU","poblacion_2022":null},"geometry":{"type":"Polygon","coordinates":[[[-57.548953,-25.257113],[-57.53591,-25.259289],[-57.535937,-25.259454],[-57.536177,-25.259917],[-57.536224,-25.260065],[-57.536238,-25.260275],[-57.536209,-25.260523],[-57.536219,-25.260747],[-57.53649,-25.261111],[-57.537037,-25.262078],[-57.537477,-25.262633],[-57.537783,-25.263172],[-57.537967,-25.263441],[-57.538334,-25.264287],[-57.538633,-25.265185],[-57.538951,-25.265662],[-57.539149,-25.265863],[-57.539304,-25.266216],[-57.539875,-25.267086],[-57.540043,-25.267404],[-57.540146,-25.267544],[-57.540267,-25.267872],[-57.540543,-25.268348],[-57.540735,-25.268808],[-57.541015,-25.269207],[-57.541216,-25.269424],[-57.541427,-25.269586],[-57.541628,-25.269797],[-57.541663,-25.269902],[-57.541677,-25.270089],[-57.541803,-25.270692],[-57.54183,-25.270921],[-57.541946,-25.271139],[-57.542415,-25.271799],[-57.542497,-25.272067],[-57.542485,-25.272308],[-57.542574,-25.272522],[-57.542704,-25.273164],[-57.542726,-25.273596],[-57.542787,-25.273829],[-57.542779,-25.274039],[-57.542638,-25.274317],[-57.543137,-25.274576],[-57.54366,-25.274806],[-57.544324,-25.27504],[-57.545145,-25.275292],[-57.545193,-25.274897],[-57.545974,-25.27113],[-57.546197,-25.269901],[-57.548157,-25.261202],[-57.548885,-25.257831],[-57.548953,-25.257113]]]}},{"type":"Feature","properties":{"clave":"00001052","nombre":"SANTA ROSA","poblacion_2022":4174},"geometry":{"type":"Polygon","coordinates":[[[-57.580258,-25.251017],[-57.578282,-25.252072],[-57.579133,-25.252659],[-57.584904,-25.256981],[-57.586357,-25.255374],[-57.587173,-25.254586],[-57.588192,-25.253538],[-57.58985,-25.25157],[-57.589664,-25.251472],[-57.589231,-25.25118],[-57.588821,-25.251559],[-57.588837,-25.251668],[-57.588729,-25.251836],[-57.588617,-25.251862],[-57.588531,-25.251565],[-57.588419,-25.251368],[-57.588037,-25.250841],[-57.588085,-25.250794],[-57.587971,-25.250388],[-57.588386,-25.250177],[-57.588474,-25.250205],[-57.58878,-25.250009],[-57.588944,-25.249862],[-57.589067,-25.249663],[-57.589177,-25.249401],[-57.588487,-25.24902],[-57.588322,-25.248849],[-57.588277,-25.24875],[-57.588177,-25.248637],[-57.587577,-25.248102],[-57.587091,-25.2478],[-57.586689,-25.247671],[-57.586352,-25.24766],[-57.58641,-25.247591],[-57.586429,-25.247486],[-57.586413,-25.247405],[-57.586345,-25.247353],[-57.586133,-25.247313],[-57.585759,-25.247437],[-57.585414,-25.247655],[-57.584853,-25.248331],[-57.584584,-25.248602],[-57.580258,-25.251017]]]}},{"type":"Feature","properties":{"clave":"00001065","nombre":"LOMA PYTA","poblacion_2022":16072},"geometry":{"type":"Polygon","coordinates":[[[-57.545186,-25.234384],[-57.539848,-25.236209],[-57.540904,-25.238264],[-57.541244,-25.238764],[-57.541754,-25.239404],[-57.543205,-25.24078],[-57.540961,-25.242468],[-57.535824,-25.245318],[-57.534358,-25.246077],[-57.533137,-25.246763],[-57.533054,-25.246755],[-57.531986,-25.247365],[-57.53112,-25.248296],[-57.531333,-25.248373],[-57.531726,-25.248352],[-57.531935,-25.248375],[-57.532511,-25.248681],[-57.532726,-25.248828],[-57.53318,-25.249273],[-57.533379,-25.249673],[-57.533564,-25.249982],[-57.533681,-25.250428],[-57.533687,-25.250899],[-57.533629,-25.251153],[-57.53363,-25.251534],[-57.53358,-25.251717],[-57.53353,-25.25216],[-57.533511,-25.252509],[-57.533556,-25.253114],[-57.533725,-25.253726],[-57.533872,-25.254145],[-57.534186,-25.254641],[-57.534601,-25.255575],[-57.534774,-25.256106],[-57.535053,-25.256682],[-57.535183,-25.257043],[-57.535467,-25.257588],[-57.535598,-25.258314],[-57.535858,-25.258996],[-57.53591,-25.259289],[-57.548171,-25.257231],[-57.550336,-25.256904],[-57.551385,-25.256799],[-57.553538,-25.256715],[-57.558114,-25.256589],[-57.565703,-25.256487],[-57.566183,-25.256457],[-57.567001,-25.256264],[-57.567957,-25.256228],[-57.568449,-25.256111],[-57.568489,-25.256061],[-57.571069,-25.256065],[-57.575153,-25.253685],[-57.578282,-25.252072],[-57.580258,-25.251017],[-57.577877,-25.246498],[-57.577884,-25.246371],[-57.577915,-25.24628],[-57.578066,-25.246135],[-57.580249,-25.244913],[-57.580337,-25.244733],[-57.58037,-25.24456],[-57.580364,-25.244442],[-57.579884,-25.242924],[-57.579825,-25.242682],[-57.579614,-25.240008],[-57.579555,-25.239826],[-57.579447,-25.239671],[-57.579296,-25.239518],[-57.578502,-25.238982],[-57.578253,-25.238703],[-57.578107,-25.238378],[-57.577994,-25.238015],[-57.577885,-25.237196],[-57.577835,-25.237027],[-57.576199,-25.235277],[-57.57601,-25.235101],[-57.575426,-25.234784],[-57.574068,-25.235218],[-57.57247,-25.235764],[-57.572877,-25.236259],[-57.57174,-25.236761],[-57.56474,-25.240258],[-57.563782,-25.238665],[-57.563197,-25.238922],[-57.561041,-25.240099],[-57.5555,-25.243046],[-57.554672,-25.241524],[-57.552721,-25.242447],[-57.552167,-25.242662],[-57.551442,-25.242032],[-57.54792,-25.239252],[-57.547352,-25.239835],[-57.546781,-25.238934],[-57.546473,-25.238163],[-57.545918,-25.23655],[-57.545905,-25.236561],[-57.545186,-25.234384]]]}}]}
