{"type":"FeatureCollection","name":"distrito","features":[{"type":"Feature","properties":{"nombre":"Asunción"},"geometry":{"type":"Polygon","coordinates":[[[-57.564184,-25.227686],[-57.560924,-25.22855],[-57.560887,-25.228432],[-57.56075,-25.228371],[-57.560467,-25.228363],[-57.560246,-25.228406],[-57.559933,-25.228363],[-57.559615,-25.228402],[-57.559521,-25.228356],[-57.559448,-25.22826],[-57.559303,-25.228207],[-57.559209,-25.228125],[-57.557975,-25.228784],[-57.557831,-25.22888],[-57.550819,-25.232466],[-57.543455,-25.234963],[-57.539848,-25.236209],[-57.539899,-25.236317],[-57.538844,-25.23707],[-57.538363,-25.236488],[-57.53722,-25.237358],[-57.536544,-25.237833],[-57.535982,-25.237159],[-57.534769,-25.237938],[-57.534755,-25.23792],[-57.534132,-25.238308],[-57.534109,-25.238279],[-57.533108,-25.238899],[-57.532743,-25.238339],[-57.530107,-25.239916],[-57.530607,-25.24128],[-57.528761,-25.241957],[-57.528027,-25.241385],[-57.527853,-25.241187],[-57.526873,-25.241726],[-57.524805,-25.242793],[-57.52497,-25.243453],[-57.524969,-25.243539],[-57.525042,-25.243702],[-57.525274,-25.243892],[-57.526033,-25.244682],[-57.526663,-25.245184],[-57.527113,-25.245489],[-57.528461,-25.246505],[-57.528906,-25.246756],[-57.530525,-25.248154],[-57.530688,-25.248239],[-57.530952,-25.248254],[-57.531333,-25.248373],[-57.531726,-25.248352],[-57.531935,-25.248375],[-57.532511,-25.248681],[-57.532726,-25.248828],[-57.53318,-25.249273],[-57.533379,-25.249673],[-57.533564,-25.249982],[-57.533681,-25.250428],[-57.533687,-25.250899],[-57.533629,-25.251153],[-57.53363,-25.251534],[-57.53358,-25.251717],[-57.533511,-25.252509],[-57.533556,-25.253114],[-57.533725,-25.253726],[-57.533872,-25.254145],[-57.534186,-25.254641],[-57.534601,-25.255575],[-57.534774,-25.256106],[-57.535053,-25.256682],[-57.535183,-25.257043],[-57.535467,-25.257588],[-57.535598,-25.258314],[-57.535858,-25.258996],[-57.535937,-25.259454],[-57.536177,-25.259917],[-57.536224,-25.260065],[-57.536238,-25.260275],[-57.536209,-25.260523],[-57.536219,-25.260747],[-57.53649,-25.261111],[-57.537037,-25.262078],[-57.537477,-25.262633],[-57.537783,-25.263172],[-57.537967,-25.263441],[-57.538334,-25.264287],[-57.538633,-25.265185],[-57.538951,-25.265662],[-57.539149,-25.265863],[-57.539304,-25.266216],[-57.539875,-25.267086],[-57.540043,-25.267404],[-57.540146,-25.267544],[-57.540267,-25.267872],[-57.540543,-25.268348],[-57.540735,-25.268808],[-57.541015,-25.269207],[-57.541216,-25.269424],[-57.541427,-25.269586],[-57.541628,-25.269797],[-57.541663,-25.269902],[-57.541677,-25.270089],[-57.541803,-25.270692],[-57.54183,-25.270921],[-57.541946,-25.271139],[-57.542415,-25.271799],[-57.542497,-25.272067],[-57.542485,-25.272308],[-57.542574,-25.272522],[-57.542704,-25.273164],[-57.542726,-25.273596],[-57.542787,-25.273829],[-57.542779,-25.274039],[-57.542445,-25.274718],[-57.542386,-25.274908],[-57.542394,-25.275785],[-57.542476,-25.276476],[-57.542198,-25.276699],[-57.541736,-25.276958],[-57.541595,-25.277157],[-57.541671,-25.27732],[-57.541656,-25.27737],[-57.541481,-25.277661],[-57.541304,-25.277749],[-57.541267,-25.277856],[-57.541324,-25.277989],[-57.5414,-25.278028],[-57.541464,-25.2781],[-57.541495,-25.278199],[-57.541488,-25.278456],[-57.541441,-25.278738],[-57.541511,-25.278966],[-57.541527,-25.279486],[-57.541424,-25.279706],[-57.541444,-25.279977],[-57.54141,-25.280226],[-57.541196,-25.280547],[-57.541073,-25.280626],[-57.540751,-25.280755],[-57.540591,-25.281201],[-57.540537,-25.281596],[-57.540552,-25.281738],[-57.540654,-25.28202],[-57.540755,-25.282541],[-57.540994,-25.282871],[-57.541036,-25.283042],[-57.541095,-25.283607],[-57.541084,-25.28386],[-57.541142,-25.2842],[-57.541155,-25.284665],[-57.541019,-25.284926],[-57.540742,-25.28513],[-57.540623,-25.285273],[-57.540555,-25.285449],[-57.54055,-25.285638],[-57.540507,-25.285748],[-57.540591,-25.28588],[-57.540777,-25.286013],[-57.540896,-25.286129],[-57.540979,-25.286194],[-57.541172,-25.286276],[-57.541225,-25.286394],[-57.541225,-25.286442],[-57.541147,-25.28656],[-57.541086,-25.28701],[-57.541125,-25.287206],[-57.541248,-25.287302],[-57.541324,-25.287511],[-57.541317,-25.28761],[-57.541255,-25.287731],[-57.541251,-25.287919],[-57.541217,-25.288073],[-57.541391,-25.288142],[-57.541474,-25.288231],[-57.541543,-25.288494],[-57.541598,-25.2886],[-57.541716,-25.288721],[-57.541737,-25.288788],[-57.541749,-25.288922],[-57.541578,-25.289013],[-57.541549,-25.289328],[-57.541596,-25.289419],[-57.541791,-25.289561],[-57.541844,-25.289734],[-57.541805,-25.289827],[-57.54167,-25.289879],[-57.541616,-25.29002],[-57.541669,-25.290112],[-57.541793,-25.29019],[-57.541978,-25.291005],[-57.542104,-25.291407],[-57.542086,-25.291465],[-57.542026,-25.29153],[-57.541819,-25.291679],[-57.541899,-25.291967],[-57.542209,-25.292192],[-57.54242,-25.2925],[-57.542486,-25.292542],[-57.542883,-25.292644],[-57.542947,-25.292697],[-57.543029,-25.292896],[-57.543172,-25.293038],[-57.543207,-25.293134],[-57.54336,-25.293223],[-57.543422,-25.293286],[-57.543491,-25.293413],[-57.543659,-25.293504],[-57.5438,-25.29366],[-57.543837,-25.293742],[-57.543828,-25.29387],[-57.543785,-25.293956],[-57.543492,-25.294212],[-57.543419,-25.294301],[-57.54335,-25.294468],[-57.543343,-25.294538],[-57.543549,-25.294886],[-57.543545,-25.294944],[-57.543349,-25.295225],[-57.543305,-25.295493],[-57.543314,-25.295907],[-57.543242,-25.295953],[-57.543219,-25.296005],[-57.543216,-25.29616],[-57.543141,-25.296209],[-57.543203,-25.29633],[-57.544165,-25.297452],[-57.545187,-25.298725],[-57.54521,-25.298713],[-57.55209,-25.308929],[-57.552463,-25.309355],[-57.553568,-25.309336],[-57.553655,-25.309672],[-57.553858,-25.310122],[-57.554189,-25.310646],[-57.555595,-25.313194],[-57.55573,-25.313398],[-57.55575,-25.313514],[-57.557079,-25.315781],[-57.558705,-25.317945],[-57.560001,-25.319801],[-57.56036,-25.320215],[-57.563083,-25.322297],[-57.566992,-25.325375],[-57.577152,-25.333207],[-57.583465,-25.338121],[-57.584423,-25.338827],[-57.584664,-25.339055],[-57.584921,-25.339387],[-57.585256,-25.339889],[-57.586143,-25.341411],[-57.588354,-25.340335],[-57.588524,-25.340029],[-57.589208,-25.340275],[-57.589484,-25.340443],[-57.59049,-25.338846],[-57.58816,-25.338047],[-57.589788,-25.335134],[-57.591893,-25.335736],[-57.59245,-25.333822],[-57.593468,-25.332313],[-57.59438,-25.332828],[-57.595222,-25.331584],[-57.596194,-25.330329],[-57.595613,-25.329866],[-57.596359,-25.329152],[-57.595715,-25.328481],[-57.596358,-25.327953],[-57.597471,-25.329101],[-57.598957,-25.328006],[-57.602347,-25.325599],[-57.603136,-25.326519],[-57.604924,-25.325175],[-57.60489,-25.325131],[-57.605412,-25.324694],[-57.604451,-25.323703],[-57.605828,-25.322585],[-57.607863,-25.320798],[-57.609456,-25.322373],[-57.60942,-25.321724],[-57.60835,-25.319782],[-57.607876,-25.318275],[-57.611466,-25.317349],[-57.611153,-25.316742],[-57.612706,-25.315879],[-57.612226,-25.314904],[-57.614625,-25.312522],[-57.615539,-25.313266],[-57.615744,-25.313452],[-57.616309,-25.31411],[-57.618094,-25.317539],[-57.619698,-25.319227],[-57.619292,-25.319684],[-57.619791,-25.3205],[-57.620546,-25.321825],[-57.621588,-25.323518],[-57.620027,-25.325071],[-57.620177,-25.325209],[-57.62038,-25.325454],[-57.620424,-25.325543],[-57.620529,-25.32564],[-57.620879,-25.32587],[-57.621283,-25.325963],[-57.621425,-25.326053],[-57.621403,-25.326207],[-57.621122,-25.326729],[-57.621073,-25.326864],[-57.621078,-25.327315],[-57.621189,-25.327496],[-57.621424,-25.327747],[-57.6215,-25.327784],[-57.622169,-25.32789],[-57.622482,-25.328012],[-57.623175,-25.328021],[-57.623308,-25.328175],[-57.623334,-25.328313],[-57.623487,-25.328604],[-57.623728,-25.328762],[-57.623969,-25.329047],[-57.624159,-25.329207],[-57.624441,-25.329406],[-57.624608,-25.329478],[-57.624655,-25.329529],[-57.624802,-25.329835],[-57.624905,-25.330326],[-57.625293,-25.330631],[-57.625414,-25.330815],[-57.625605,-25.331232],[-57.625669,-25.331426],[-57.625729,-25.331497],[-57.625869,-25.331603],[-57.626262,-25.331787],[-57.626448,-25.332008],[-57.626499,-25.3321],[-57.6266,-25.332189],[-57.626851,-25.332503],[-57.626905,-25.332608],[-57.627008,-25.333079],[-57.627086,-25.333302],[-57.627178,-25.33339],[-57.627292,-25.333415],[-57.62737,-25.333401],[-57.627474,-25.333286],[-57.62753,-25.33316],[-57.627589,-25.333114],[-57.627787,-25.333064],[-57.627941,-25.333151],[-57.628375,-25.333484],[-57.629079,-25.333776],[-57.629179,-25.333899],[-57.629337,-25.333976],[-57.629569,-25.334204],[-57.629821,-25.334354],[-57.629954,-25.334561],[-57.630068,-25.33469],[-57.630466,-25.33494],[-57.630564,-25.335028],[-57.630644,-25.335137],[-57.630672,-25.33528],[-57.630887,-25.335411],[-57.631105,-25.335502],[-57.6313,-25.335674],[-57.63166,-25.335867],[-57.631797,-25.335916],[-57.631984,-25.336095],[-57.632303,-25.336301],[-57.632487,-25.33653],[-57.632665,-25.336698],[-57.632722,-25.336786],[-57.632757,-25.336855],[-57.632832,-25.337457],[-57.633044,-25.337565],[-57.633066,-25.337684],[-57.633181,-25.337871],[-57.633481,-25.33795],[-57.633654,-25.337969],[-57.633925,-25.337956],[-57.63413,-25.33802],[-57.633929,-25.33808],[-57.633513,-25.338108],[-57.632986,-25.338299],[-57.632367,-25.338431],[-57.632546,-25.339739],[-57.633304,-25.339659],[-57.633477,-25.341121],[-57.633914,-25.341193],[-57.633967,-25.34262],[-57.634518,-25.342672],[-57.636434,-25.349093],[-57.635305,-25.349388],[-57.636414,-25.353099],[-57.636359,-25.353696],[-57.636081,-25.353693],[-57.635969,-25.354301],[-57.636024,-25.354306],[-57.635968,-25.355026],[-57.636685,-25.35508],[-57.636547,-25.358479],[-57.63679,-25.360644],[-57.6369,-25.36226],[-57.637676,-25.362244],[-57.63816,-25.364645],[-57.638617,-25.365376],[-57.637456,-25.366017],[-57.636189,-25.367185],[-57.636032,-25.367267],[-57.635462,-25.367465],[-57.635298,-25.367545],[-57.641447,-25.380903],[-57.645094,-25.376818],[-57.646645,-25.374055],[-57.648327,-25.368403],[-57.650131,-25.366114],[-57.651621,-25.365087],[-57.653729,-25.363154],[-57.656582,-25.360875],[-57.659189,-25.359053],[-57.661791,-25.35644],[-57.663768,-25.353375],[-57.66661,-25.349059],[-57.667835,-25.345315],[-57.667903,-25.342768],[-57.667384,-25.339036],[-57.667242,-25.33575],[-57.66797,-25.332238],[-57.669444,-25.328497],[-57.671787,-25.324184],[-57.673097,-25.319992],[-57.673858,-25.315799],[-57.673833,-25.31127],[-57.673058,-25.306294],[-57.673028,-25.300857],[-57.673222,-25.290896],[-57.67283,-25.287615],[-57.671568,-25.284897],[-57.66868,-25.280049],[-57.665677,-25.277344],[-57.656889,-25.272738],[-57.650971,-25.269206],[-57.639574,-25.26195],[-57.635327,-25.259137],[-57.631831,-25.257116],[-57.627836,-25.254984],[-57.622845,-25.252738],[-57.616984,-25.250726],[-57.611469,-25.249147],[-57.600798,-25.24492],[-57.593056,-25.241126],[-57.579975,-25.229198],[-57.576662,-25.226493],[-57.575086,-25.224663],[-57.575012,-25.224638],[-57.572133,-25.225362],[-57.571797,-25.225599],[-57.571217,-25.225794],[-57.569202,-25.226215],[-57.569004,-25.226012],[-57.567701,-25.22636],[-57.567754,-25.22651],[-57.566431,-25.226882],[-57.564121,-25.227485],[-57.564184,-25.227686]]]}}]}
