{"type":"FeatureCollection","name":"etiquetas","features":[{"type":"Feature","properties":{"tipo":"barrio","clave":"00001066","nombre":"SAN BLAS"},"geometry":{"type":"Point","coordinates":[-57.534348,-25.242131]}},{"type":"Feature","properties":{"tipo":"barrio","clave":"00001056","nombre":"CAÑADA DEL YVYRAY"},"geometry":{"type":"Point","coordinates":[-57.579088,-25.268456]}},{"type":"Feature","properties":{"tipo":"barrio","clave":"00001055","nombre":"SANTO DOMINGO"},"geometry":{"type":"Point","coordinates":[-57.582006,-25.276807]}},{"type":"Feature","properties":{"tipo":"barrio","clave":"00001054","nombre":"BELLA VISTA"},"geometry":{"type":"Point","coordinates":[-57.589186,-25.273084]}},{"type":"Feature","properties":{"tipo":"barrio","clave":"00001053","nombre":"VIRGEN DE LA ASUNCION"},"geometry":{"type":"Point","coordinates":[-57.586398,-25.263349]}},{"type":"Feature","properties":{"tipo":"barrio","clave":"00001062","nombre":"SALVADOR DEL MUNDO"},"geometry":{"type":"Point","coordinates":[-57.548428,-25.273464]}},{"type":"Feature","properties":{"tipo":"barrio","clave":"00001059","nombre":"LAS LOMAS"},"geometry":{"type":"Point","coordinates":[-57.572441,-25.277009]}},{"type":"Feature","properties":{"tipo":"barrio","clave":"00001058","nombre":"MANORA"},"geometry":{"type":"Point","coordinates":[-57.572362,-25.284109]}},{"type":"Feature","properties":{"tipo":"barrio","clave":"00001057","nombre":"SANTISIMA TRINIDAD"},"geometry":{"type":"Point","coordinates":[-57.577909,-25.256775]}},{"type":"Feature","properties":{"tipo":"barrio","clave":"00001043","nombre":"MARISCAL JOSE FELIX ESTIGARRIBIA"},"geometry":{"type":"Point","coordinates":[-57.573952,-25.303772]}},{"type":"Feature","properties":{"tipo":"barrio","clave":"00001041","nombre":"RECOLETA"},"geometry":{"type":"Point","coordinates":[-57.586346,-25.298057]}},{"type":"Feature","properties":{"tipo":"barrio","clave":"00001040","nombre":"TEMBETARY"},"geometry":{"type":"Point","coordinates":[-57.59247,-25.306921]}},{"type":"Feature","properties":{"tipo":"barrio","clave":"00001039","nombre":"LOS LAURELES"},"geometry":{"type":"Point","coordinates":[-57.5825,-25.310496]}},{"type":"Feature","properties":{"tipo":"barrio","clave":"00001049","nombre":"SAN JORGE"},"geometry":{"type":"Point","coordinates":[-57.553348,-25.28323]}},{"type":"Feature","properties":{"tipo":"barrio","clave":"00001045","nombre":"YKUA SATI"},"geometry":{"type":"Point","coordinates":[-57.564951,-25.287771]}},{"type":"Feature","properties":{"tipo":"barrio","clave":"00001044","nombre":"SAN CRISTOBAL"},"geometry":{"type":"Point","coordinates":[-57.564514,-25.296526]}},{"type":"Feature","properties":{"tipo":"barrio","clave":"00001042","nombre":"VILLA MORRA"},"geometry":{"type":"Point","coordinates":[-57.579142,-25.289453]}},{"type":"Feature","properties":{"tipo":"barrio","clave":"00001032","nombre":"SAN JUAN"},"geometry":{"type":"Point","coordinates":[-57.606181,-25.270418]}},{"type":"Feature","properties":{"tipo":"barrio","clave":"00001025","nombre":"VIRGEN DEL HUERTO"},"geometry":{"type":"Point","coordinates":[-57.597094,-25.279205]}},{"type":"Feature","properties":{"tipo":"barrio","clave":"00001023","nombre":"JARA"},"geometry":{"type":"Point","coordinates":[-57.604727,-25.277508]}},{"type":"Feature","properties":{"tipo":"barrio","clave":"00001024","nombre":"MARISCAL FRANCISCO SOLANO LOPEZ"},"geometry":{"type":"Point","coordinates":[-57.600851,-25.286895]}},{"type":"Feature","properties":{"tipo":"barrio","clave":"00001037","nombre":"SAN PABLO"},"geometry":{"type":"Point","coordinates":[-57.572134,-25.322507]}},{"type":"Feature","properties":{"tipo":"barrio","clave":"00001036","nombre":"HIPODROMO"},"geometry":{"type":"Point","coordinates":[-57.584656,-25.319153]}},{"type":"Feature","properties":{"tipo":"barrio","clave":"00001035","nombre":"TERMINAL"},"geometry":{"type":"Point","coordinates":[-57.59174,-25.32886]}},{"type":"Feature","properties":{"tipo":"barrio","clave":"00001034","nombre":"NAZARETH"},"geometry":{"type":"Point","coordinates":[-57.593508,-25.313831]}},{"type":"Feature","properties":{"tipo":"barrio","clave":"00001013","nombre":"SAN ROQUE"},"geometry":{"type":"Point","coordinates":[-57.623119,-25.288497]}},{"type":"Feature","properties":{"tipo":"barrio","clave":"00001010","nombre":"OBRERO INTENDENTE B. GUGGIARI"},"geometry":{"type":"Point","coordinates":[-57.64189,-25.301477]}},{"type":"Feature","properties":{"tipo":"barrio","clave":"00001009","nombre":"GENERAL JOSE EDUVIGIS DIAZ"},"geometry":{"type":"Point","coordinates":[-57.638641,-25.292282]}},{"type":"Feature","properties":{"tipo":"barrio","clave":"00001006","nombre":"TACUMBU"},"geometry":{"type":"Point","coordinates":[-57.665477,-25.309687]}},{"type":"Feature","properties":{"tipo":"barrio","clave":"00001020","nombre":"CIUDAD NUEVA"},"geometry":{"type":"Point","coordinates":[-57.617511,-25.296127]}},{"type":"Feature","properties":{"tipo":"barrio","clave":"00001018","nombre":"MBURICAO"},"geometry":{"type":"Point","coordinates":[-57.600188,-25.301622]}},{"type":"Feature","properties":{"tipo":"barrio","clave":"00001019","nombre":"GENERAL BERNARDINO CABALLERO"},"geometry":{"type":"Point","coordinates":[-57.608223,-25.296775]}},{"type":"Feature","properties":{"tipo":"barrio","clave":"00001016","nombre":"PINOZA"},"geometry":{"type":"Point","coordinates":[-57.612604,-25.306916]}},{"type":"Feature","properties":{"tipo":"barrio","clave":"00001002","nombre":"SAN ANTONIO"},"geometry":{"type":"Point","coordinates":[-57.659591,-25.278474]}},{"type":"Feature","properties":{"tipo":"barrio","clave":"00001012","nombre":"RICARDO BRUGADA"},"geometry":{"type":"Point","coordinates":[-57.62293,-25.279434]}},{"type":"Feature","properties":{"tipo":"barrio","clave":"00001008","nombre":"LA CATEDRAL"},"geometry":{"type":"Point","coordinates":[-57.633681,-25.285033]}},{"type":"Feature","properties":{"tipo":"barrio","clave":"00001033","nombre":"PRESIDENTE CARLOS ANTONIO LOPEZ"},"geometry":{"type":"Point","coordinates":[-57.659015,-25.294451]}},{"type":"Feature","properties":{"tipo":"barrio","clave":"00001004","nombre":"ITA PYTA PUNTA"},"geometry":{"type":"Point","coordinates":[-57.666122,-25.282099]}},{"type":"Feature","properties":{"tipo":"barrio","clave":"00001005","nombre":"LA ENCARNACION"},"geometry":{"type":"Point","coordinates":[-57.638675,-25.280163]}},{"type":"Feature","properties":{"tipo":"barrio","clave":"00001068","nombre":"ZEBALLOS KUE"},"geometry":{"type":"Point","coordinates":[-57.565715,-25.233222]}},{"type":"Feature","properties":{"tipo":"barrio","clave":"00001060","nombre":"MBURUCUYA"},"geometry":{"type":"Point","coordinates":[-57.568266,-25.264919]}},{"type":"Feature","properties":{"tipo":"barrio","clave":"00001051","nombre":"VIRGEN DE FATIMA"},"geometry":{"type":"Point","coordinates":[-57.59029,-25.256594]}},{"type":"Feature","properties":{"tipo":"barrio","clave":"00001001","nombre":"SAJONIA"},"geometry":{"type":"Point","coordinates":[-57.669143,-25.298348]}},{"type":"Feature","properties":{"tipo":"barrio","clave":"00001061","nombre":"MADAME ELISA ALICIA LINCH"},"geometry":{"type":"Point","coordinates":[-57.559182,-25.27293]}},{"type":"Feature","properties":{"tipo":"barrio","clave":"00001014","nombre":"TTE. SILVIO PETTIROSSI"},"geometry":{"type":"Point","coordinates":[-57.62691,-25.301313]}},{"type":"Feature","properties":{"tipo":"barrio","clave":"00001030","nombre":"ITA ENRAMADA"},"geometry":{"type":"Point","coordinates":[-57.647656,-25.354703]}},{"type":"Feature","properties":{"tipo":"barrio","clave":"00001029","nombre":"SANTA ANA"},"geometry":{"type":"Point","coordinates":[-57.653842,-25.3149]}},{"type":"Feature","properties":{"tipo":"barrio","clave":"00001031","nombre":"SANTA LIBRADA"},"geometry":{"type":"Point","coordinates":[-57.633558,-25.331503]}},{"type":"Feature","properties":{"tipo":"barrio","clave":"00001017","nombre":"VISTA ALEGRE"},"geometry":{"type":"Point","coordinates":[-57.604407,-25.313244]}},{"type":"Feature","properties":{"tipo":"barrio","clave":"00001007","nombre":"JUKYTY"},"geometry":{"type":"Point","coordinates":[-57.644379,-25.331149]}},{"type":"Feature","properties":{"tipo":"barrio","clave":"00001015","nombre":"SAN VICENTE"},"geometry":{"type":"Point","coordinates":[-57.623796,-25.314524]}},{"type":"Feature","properties":{"tipo":"barrio","clave":"00001050","nombre":"TABLADA NUEVA"},"geometry":{"type":"Point","coordinates":[-57.603726,-25.251246]}},{"type":"Feature","properties":{"tipo":"barrio","clave":"00001026","nombre":"BANCO SAN MIGUEL"},"geometry":{"type":"Point","coordinates":[-57.615954,-25.260676]}},{"type":"Feature","properties":{"tipo":"barrio","clave":"00001003","nombre":"DR. GASPAR RODRIGUEZ DE FRANCIA"},"geometry":{"type":"Point","coordinates":[-57.648931,-25.27854]}},{"type":"Feature","properties":{"tipo":"barrio","clave":"00001021","nombre":"LAS MERCEDES"},"geometry":{"type":"Point","coordinates":[-57.613794,-25.275185]}},{"type":"Feature","properties":{"tipo":"barrio","clave":"00001028","nombre":"REPUBLICANO"},"geometry":{"type":"Point","coordinates":[-57.63323,-25.319721]}},{"type":"Feature","properties":{"tipo":"barrio","clave":"00001011","nombre":"ROBERTO L. PETIT"},"geometry":{"type":"Point","coordinates":[-57.648015,-25.308918]}},{"type":"Feature","properties":{"tipo":"barrio","clave":"00001027","nombre":"SAN CAYETANO"},"geometry":{"type":"Point","coordinates":[-57.65216,-25.324069]}},{"type":"Feature","properties":{"tipo":"barrio","clave":"00001067","nombre":"BOTANICO"},"geometry":{"type":"Point","coordinates":[-57.585418,-25.241472]}},{"type":"Feature","properties":{"tipo":"barrio","clave":"00001022","nombre":"BAÑADO CARA CARA"},"geometry":{"type":"Point","coordinates":[-57.593822,-25.247566]}},{"type":"Feature","properties":{"tipo":"barrio","clave":"00001038","nombre":"VILLA AURELIA"},"geometry":{"type":"Point","coordinates":[-57.563015,-25.313049]}},{"type":"Feature","properties":{"tipo":"barrio","clave":"00001048","nombre":"YTAY"},"geometry":{"type":"Point","coordinates":[-57.545559,-25.290091]}},{"type":"Feature","properties":{"tipo":"barrio","clave":"00001047","nombre":"SANTA MARIA"},"geometry":{"type":"Point","coordinates":[-57.548704,-25.298961]}},{"type":"Feature","properties":{"tipo":"barrio","clave":"00001046","nombre":"LUIS ALBERTO DE HERRERA"},"geometry":{"type":"Point","coordinates":[-57.556684,-25.300639]}},{"type":"Feature","properties":{"tipo":"barrio","clave":"00001063","nombre":"MBOCAYATY"},"geometry":{"type":"Point","coordinates":[-57.553049,-25.261071]}},{"type":"Feature","properties":{"tipo":"barrio","clave":"00001064","nombre":"ÑU GUASU"},"geometry":{"type":"Point","coordinates":[-57.542861,-25.262652]}},{"type":"Feature","properties":{"tipo":"barrio","clave":"00001052","nombre":"SANTA ROSA"},"geometry":{"type":"Point","coordinates":[-57.584498,-25.252459]}},{"type":"Feature","properties":{"tipo":"barrio","clave":"00001065","nombre":"LOMA PYTA"},"geometry":{"type":"Point","coordinates":[-57.5464,-25.249112]}},{"type":"Feature","properties":{"tipo":"zona_municipal","numero":14,"nombre":"LA RECOLETA"},"geometry":{"type":"Point","coordinates":[-57.574112,-25.305015]}},{"type":"Feature","properties":{"tipo":"zona_municipal","numero":10,"nombre":"LA ENCARNACION"},"geometry":{"type":"Point","coordinates":[-57.655754,-25.288988]}},{"type":"Feature","properties":{"tipo":"zona_municipal","numero":15,"nombre":"SANTISIMA TRINIDAD"},"geometry":{"type":"Point","coordinates":[-57.564372,-25.254501]}},{"type":"Feature","properties":{"tipo":"zona_municipal","numero":11,"nombre":"LA CATEDRAL"},"geometry":{"type":"Point","coordinates":[-57.641912,-25.307754]}},{"type":"Feature","properties":{"tipo":"zona_municipal","numero":12,"nombre":"SAN ROQUE"},"geometry":{"type":"Point","coordinates":[-57.614115,-25.293142]}},{"type":"Feature","properties":{"tipo":"zona_municipal","numero":13,"nombre":"SANTA MARIA DE LA ASUNCION"},"geometry":{"type":"Point","coordinates":[-57.651164,-25.341117]}}]}
