{"type":"FeatureCollection","name":"rio","features":[{"type":"Feature","properties":{"nombre":"Río Paraguay"},"geometry":{"type":"Polygon","coordinates":[[[-57.616444,-25.273211],[-57.614267,-25.270222],[-57.614399,-25.269681],[-57.614264,-25.269559],[-57.614127,-25.269215],[-57.614449,-25.268772],[-57.615206,-25.268916],[-57.616189,-25.267231],[-57.616672,-25.266237],[-57.616696,-25.265979],[-57.616945,-25.265431],[-57.617255,-25.264954],[-57.617599,-25.264757],[-57.617682,-25.264642],[-57.617646,-25.264556],[-57.618245,-25.264034],[-57.618501,-25.263414],[-57.618608,-25.263285],[-57.618677,-25.263312],[-57.618559,-25.263215],[-57.618794,-25.262921],[-57.618988,-25.262354],[-57.619092,-25.262337],[-57.618986,-25.262288],[-57.618963,-25.262039],[-57.619143,-25.2618],[-57.619263,-25.26136],[-57.619231,-25.261188],[-57.619318,-25.261103],[-57.619363,-25.26085],[-57.619555,-25.260499],[-57.619899,-25.260278],[-57.620002,-25.260037],[-57.620033,-25.260118],[-57.620094,-25.260083],[-57.619905,-25.259928],[-57.620099,-25.259551],[-57.620041,-25.259516],[-57.620013,-25.259023],[-57.62012,-25.258199],[-57.620499,-25.257876],[-57.620631,-25.25803],[-57.620719,-25.25802],[-57.620851,-25.257773],[-57.620936,-25.257893],[-57.620926,-25.258342],[-57.620565,-25.258382],[-57.620472,-25.258876],[-57.620644,-25.259687],[-57.620606,-25.259821],[-57.620672,-25.259791],[-57.62062,-25.259916],[-57.620712,-25.260102],[-57.621293,-25.260161],[-57.621366,-25.260226],[-57.621239,-25.260582],[-57.62127,-25.260768],[-57.621375,-25.260866],[-57.621265,-25.26112],[-57.621316,-25.261366],[-57.621274,-25.261442],[-57.621107,-25.261418],[-57.621041,-25.261485],[-57.621045,-25.261802],[-57.620966,-25.262],[-57.620693,-25.262329],[-57.620718,-25.26243],[-57.620531,-25.262531],[-57.620089,-25.263062],[-57.620114,-25.263143],[-57.61999,-25.26323],[-57.620011,-25.263343],[-57.619886,-25.263416],[-57.619817,-25.263848],[-57.619547,-25.264027],[-57.619006,-25.264132],[-57.618634,-25.264434],[-57.618645,-25.264589],[-57.618749,-25.26466],[-57.618347,-25.265338],[-57.618184,-25.265468],[-57.618222,-25.265567],[-57.618088,-25.265645],[-57.618334,-25.265926],[-57.618575,-25.266066],[-57.618573,-25.266345],[-57.618442,-25.266471],[-57.618394,-25.267255],[-57.618234,-25.267391],[-57.618404,-25.267646],[-57.618516,-25.267579],[-57.618516,-25.267481],[-57.619092,-25.266729],[-57.619222,-25.266496],[-57.619176,-25.266384],[-57.619269,-25.266023],[-57.619605,-25.265514],[-57.619858,-25.265302],[-57.619944,-25.264905],[-57.620134,-25.264701],[-57.6202,-25.264451],[-57.620362,-25.264383],[-57.62054,-25.264153],[-57.620739,-25.26408],[-57.620942,-25.263849],[-57.620887,-25.263491],[-57.620936,-25.263331],[-57.621031,-25.263277],[-57.621018,-25.26311],[-57.621307,-25.262777],[-57.621289,-25.262608],[-57.621209,-25.262546],[-57.621306,-25.262359],[-57.621249,-25.262207],[-57.621313,-25.262136],[-57.621294,-25.261765],[-57.621752,-25.261841],[-57.622066,-25.262123],[-57.622007,-25.262388],[-57.621906,-25.262459],[-57.622008,-25.262714],[-57.622143,-25.262783],[-57.622055,-25.26284],[-57.621999,-25.262761],[-57.62194,-25.262857],[-57.622081,-25.262989],[-57.622141,-25.263187],[-57.62211,-25.263645],[-57.622198,-25.263484],[-57.622334,-25.263592],[-57.622798,-25.263419],[-57.622948,-25.263482],[-57.623075,-25.263345],[-57.623288,-25.263329],[-57.62331,-25.26341],[-57.623566,-25.263508],[-57.623494,-25.263712],[-57.623549,-25.263744],[-57.623895,-25.263544],[-57.624026,-25.263363],[-57.624013,-25.263007],[-57.623897,-25.262968],[-57.623885,-25.262895],[-57.624157,-25.262321],[-57.624328,-25.26223],[-57.624356,-25.262037],[-57.624522,-25.26177],[-57.624428,-25.261716],[-57.624499,-25.261582],[-57.62448,-25.261266],[-57.624233,-25.260922],[-57.624325,-25.260421],[-57.624186,-25.260173],[-57.624404,-25.25997],[-57.624364,-25.259839],[-57.624548,-25.259576],[-57.624496,-25.259229],[-57.624331,-25.259079],[-57.624425,-25.258798],[-57.624376,-25.258727],[-57.624455,-25.258229],[-57.624721,-25.25778],[-57.624996,-25.258],[-57.624844,-25.258247],[-57.624885,-25.258409],[-57.624804,-25.258765],[-57.62489,-25.259129],[-57.624952,-25.259196],[-57.625126,-25.259169],[-57.62516,-25.259231],[-57.624927,-25.259583],[-57.624802,-25.260094],[-57.624872,-25.260295],[-57.624561,-25.260594],[-57.624557,-25.261131],[-57.624726,-25.261268],[-57.624946,-25.261085],[-57.624954,-25.261],[-57.625196,-25.260809],[-57.625198,-25.260611],[-57.625316,-25.260573],[-57.625339,-25.260371],[-57.625449,-25.26029],[-57.62529,-25.259886],[-57.625076,-25.259677],[-57.625309,-25.259437],[-57.625405,-25.259506],[-57.625403,-25.259661],[-57.625498,-25.259819],[-57.625574,-25.259817],[-57.625749,-25.260241],[-57.625778,-25.260465],[-57.625685,-25.26088],[-57.625756,-25.261088],[-57.625664,-25.261244],[-57.625331,-25.26132],[-57.625111,-25.261549],[-57.625068,-25.261742],[-57.625218,-25.261929],[-57.624928,-25.262107],[-57.624898,-25.262555],[-57.624644,-25.262993],[-57.62463,-25.263628],[-57.62449,-25.263803],[-57.624269,-25.264418],[-57.624113,-25.264546],[-57.62396,-25.264856],[-57.623943,-25.265116],[-57.624104,-25.265274],[-57.624218,-25.265254],[-57.624219,-25.265174],[-57.624378,-25.265175],[-57.624861,-25.265304],[-57.625439,-25.264957],[-57.625461,-25.26448],[-57.62577,-25.264324],[-57.625984,-25.263911],[-57.626239,-25.263662],[-57.626281,-25.263536],[-57.626226,-25.263491],[-57.626411,-25.263373],[-57.626433,-25.263301],[-57.626352,-25.263243],[-57.626409,-25.26316],[-57.626458,-25.263266],[-57.626559,-25.26313],[-57.626653,-25.262719],[-57.626899,-25.262334],[-57.626916,-25.262024],[-57.627446,-25.261377],[-57.62742,-25.261266],[-57.627626,-25.261176],[-57.627488,-25.261073],[-57.627478,-25.260958],[-57.62758,-25.260804],[-57.627625,-25.260361],[-57.627729,-25.260209],[-57.627833,-25.260258],[-57.627895,-25.260646],[-57.628079,-25.26074],[-57.628205,-25.260616],[-57.628169,-25.261077],[-57.628261,-25.261188],[-57.628433,-25.260493],[-57.628728,-25.260361],[-57.628995,-25.260458],[-57.628834,-25.260816],[-57.628788,-25.261641],[-57.628584,-25.261638],[-57.628405,-25.262213],[-57.628411,-25.262391],[-57.628512,-25.2625],[-57.628341,-25.262632],[-57.628197,-25.263059],[-57.628162,-25.263323],[-57.628234,-25.263567],[-57.628105,-25.264029],[-57.628274,-25.264212],[-57.628203,-25.264575],[-57.628399,-25.26471],[-57.628323,-25.264894],[-57.628215,-25.2649],[-57.628271,-25.264984],[-57.628231,-25.265144],[-57.628379,-25.265319],[-57.628229,-25.265767],[-57.62814,-25.265839],[-57.62814,-25.266067],[-57.628057,-25.266059],[-57.627878,-25.266383],[-57.627938,-25.266693],[-57.627702,-25.267239],[-57.627726,-25.2674],[-57.627605,-25.267492],[-57.627694,-25.267688],[-57.62752,-25.268128],[-57.627606,-25.268501],[-57.627977,-25.268327],[-57.627783,-25.267997],[-57.627866,-25.267816],[-57.627819,-25.267485],[-57.627947,-25.266966],[-57.628003,-25.266918],[-57.628104,-25.266959],[-57.628046,-25.266491],[-57.628156,-25.266262],[-57.628662,-25.26611],[-57.628745,-25.265953],[-57.628646,-25.265923],[-57.628825,-25.26571],[-57.629031,-25.26585],[-57.629373,-25.265883],[-57.629501,-25.26601],[-57.629471,-25.266176],[-57.629372,-25.266155],[-57.629272,-25.266554],[-57.629309,-25.2667],[-57.629677,-25.266903],[-57.629959,-25.266945],[-57.630509,-25.266862],[-57.630706,-25.26671],[-57.630615,-25.266619],[-57.630737,-25.266516],[-57.630661,-25.266274],[-57.630813,-25.265691],[-57.630769,-25.265511],[-57.631274,-25.265203],[-57.631206,-25.265281],[-57.631276,-25.265475],[-57.63164,-25.265726],[-57.631651,-25.265852],[-57.631539,-25.265683],[-57.631326,-25.265868],[-57.631366,-25.266064],[-57.631529,-25.266066],[-57.631518,-25.266181],[-57.631831,-25.266256],[-57.631875,-25.266353],[-57.631746,-25.266406],[-57.631887,-25.266576],[-57.632184,-25.266622],[-57.632182,-25.266728],[-57.631921,-25.266763],[-57.631912,-25.266839],[-57.632215,-25.267126],[-57.632627,-25.267183],[-57.632647,-25.267319],[-57.632887,-25.267613],[-57.632763,-25.267753],[-57.632793,-25.267826],[-57.633049,-25.26802],[-57.633439,-25.268082],[-57.634168,-25.2686],[-57.63443,-25.26866],[-57.634531,-25.268811],[-57.634742,-25.268882],[-57.634804,-25.269012],[-57.635214,-25.268855],[-57.635137,-25.268647],[-57.635233,-25.268345],[-57.635375,-25.268432],[-57.635526,-25.268352],[-57.635122,-25.267655],[-57.635136,-25.267527],[-57.635461,-25.267379],[-57.635629,-25.267121],[-57.635932,-25.267088],[-57.636286,-25.26736],[-57.6363,-25.26758],[-57.636421,-25.267512],[-57.636542,-25.267751],[-57.637095,-25.268202],[-57.637621,-25.269124],[-57.638177,-25.269907],[-57.638266,-25.270005],[-57.638511,-25.270062],[-57.638809,-25.270307],[-57.63956,-25.270249],[-57.639652,-25.269795],[-57.640376,-25.269668],[-57.640468,-25.269712],[-57.64057,-25.269944],[-57.640603,-25.270325],[-57.640893,-25.270541],[-57.641092,-25.270366],[-57.641165,-25.269982],[-57.64144,-25.270098],[-57.641785,-25.270064],[-57.642767,-25.270325],[-57.643001,-25.270429],[-57.643036,-25.270574],[-57.643178,-25.270473],[-57.644021,-25.270808],[-57.644576,-25.270925],[-57.644735,-25.270867],[-57.645593,-25.271246],[-57.646231,-25.271203],[-57.646335,-25.27114],[-57.646351,-25.27098],[-57.646338,-25.270784],[-57.646227,-25.270706],[-57.645283,-25.270604],[-57.645086,-25.270368],[-57.645103,-25.270245],[-57.644907,-25.2702],[-57.644522,-25.27035],[-57.644447,-25.270306],[-57.64442,-25.270256],[-57.644629,-25.27021],[-57.644582,-25.26992],[-57.644452,-25.269782],[-57.644569,-25.269657],[-57.644193,-25.269401],[-57.64398,-25.269367],[-57.64424,-25.26933],[-57.643919,-25.269198],[-57.643837,-25.269061],[-57.643563,-25.268959],[-57.642496,-25.268209],[-57.6423,-25.268189],[-57.641357,-25.267503],[-57.64115,-25.267433],[-57.639936,-25.26653],[-57.639218,-25.26578],[-57.638524,-25.265207],[-57.638348,-25.265221],[-57.638317,-25.265098],[-57.638413,-25.265047],[-57.63704,-25.264292],[-57.636884,-25.264175],[-57.636929,-25.264114],[-57.636738,-25.2641],[-57.636405,-25.263885],[-57.636144,-25.263863],[-57.635906,-25.263715],[-57.63479,-25.262854],[-57.634745,-25.262712],[-57.634619,-25.262675],[-57.634643,-25.262585],[-57.634269,-25.26258],[-57.634053,-25.262281],[-57.633296,-25.261667],[-57.631748,-25.260878],[-57.631664,-25.26073],[-57.630013,-25.259865],[-57.629629,-25.259529],[-57.629313,-25.259429],[-57.628112,-25.258744],[-57.627792,-25.258643],[-57.62666,-25.257778],[-57.625458,-25.25737],[-57.625189,-25.257193],[-57.625058,-25.256905],[-57.624838,-25.256847],[-57.624256,-25.256433],[-57.623332,-25.256344],[-57.622998,-25.256413],[-57.622893,-25.256335],[-57.622771,-25.256368],[-57.622242,-25.25626],[-57.621751,-25.255822],[-57.621376,-25.255865],[-57.620608,-25.255431],[-57.619141,-25.254891],[-57.617873,-25.254626],[-57.617,-25.254607],[-57.616307,-25.2542],[-57.614837,-25.253645],[-57.613871,-25.253167],[-57.613314,-25.252973],[-57.612332,-25.252818],[-57.611544,-25.25247],[-57.610644,-25.252183],[-57.610416,-25.252031],[-57.61051,-25.251987],[-57.610459,-25.251935],[-57.610314,-25.25195],[-57.609922,-25.251748],[-57.609084,-25.251525],[-57.60897,-25.251304],[-57.608813,-25.25131],[-57.608559,-25.251114],[-57.606271,-25.250417],[-57.605726,-25.249963],[-57.604777,-25.249581],[-57.604318,-25.249211],[-57.603033,-25.248485],[-57.60257,-25.2483],[-57.601791,-25.247781],[-57.600705,-25.247208],[-57.600392,-25.247293],[-57.599851,-25.247946],[-57.599523,-25.248088],[-57.599198,-25.248455],[-57.599232,-25.249222],[-57.598757,-25.249858],[-57.598802,-25.250146],[-57.598643,-25.250488],[-57.59867,-25.250674],[-57.598514,-25.25078],[-57.598539,-25.250856],[-57.598782,-25.250955],[-57.598783,-25.251034],[-57.598647,-25.251134],[-57.598469,-25.251148],[-57.598353,-25.250934],[-57.598377,-25.250639],[-57.598513,-25.250416],[-57.598286,-25.250084],[-57.598425,-25.249736],[-57.598351,-25.249621],[-57.59827,-25.249648],[-57.598128,-25.249968],[-57.598028,-25.250859],[-57.598048,-25.251015],[-57.59837,-25.251426],[-57.598469,-25.251809],[-57.598642,-25.251901],[-57.598526,-25.252381],[-57.598582,-25.252725],[-57.598464,-25.252707],[-57.598386,-25.252521],[-57.598265,-25.252594],[-57.598186,-25.252769],[-57.598158,-25.253686],[-57.59795,-25.253977],[-57.59768,-25.254625],[-57.597703,-25.255002],[-57.597525,-25.255365],[-57.597424,-25.255934],[-57.59672,-25.256753],[-57.595829,-25.256931],[-57.595828,-25.256713],[-57.596462,-25.256683],[-57.596718,-25.256544],[-57.596952,-25.256267],[-57.597082,-25.25528],[-57.596869,-25.254796],[-57.596767,-25.253826],[-57.597057,-25.253433],[-57.597291,-25.253421],[-57.597619,-25.253108],[-57.597888,-25.252661],[-57.597855,-25.252341],[-57.597962,-25.252099],[-57.597787,-25.251582],[-57.597803,-25.2514],[-57.597712,-25.251339],[-57.597739,-25.251211],[-57.597579,-25.251095],[-57.59756,-25.250907],[-57.59778,-25.250358],[-57.597706,-25.250268],[-57.597947,-25.249519],[-57.598098,-25.249325],[-57.597883,-25.249236],[-57.597896,-25.248966],[-57.598035,-25.248935],[-57.597948,-25.248812],[-57.597952,-25.248488],[-57.598197,-25.248545],[-57.598279,-25.248469],[-57.598208,-25.248264],[-57.597982,-25.248293],[-57.598032,-25.248202],[-57.597937,-25.247989],[-57.597964,-25.247248],[-57.597725,-25.247265],[-57.597663,-25.247445],[-57.597287,-25.247459],[-57.59707,-25.247627],[-57.596741,-25.247624],[-57.596896,-25.247411],[-57.596235,-25.247449],[-57.596128,-25.247802],[-57.596159,-25.248099],[-57.596027,-25.248301],[-57.595819,-25.248248],[-57.595729,-25.248112],[-57.595456,-25.248311],[-57.595562,-25.248162],[-57.595515,-25.248091],[-57.59557,-25.247985],[-57.595403,-25.247981],[-57.595199,-25.248139],[-57.59521,-25.248481],[-57.595359,-25.248569],[-57.595244,-25.248641],[-57.595155,-25.248502],[-57.595057,-25.248485],[-57.595122,-25.248375],[-57.595031,-25.247945],[-57.594901,-25.247971],[-57.594753,-25.247751],[-57.594474,-25.247831],[-57.594352,-25.247784],[-57.594333,-25.247641],[-57.594421,-25.247542],[-57.594309,-25.247471],[-57.594489,-25.247307],[-57.594279,-25.247292],[-57.594174,-25.247181],[-57.594138,-25.247054],[-57.594225,-25.246926],[-57.594067,-25.246752],[-57.594049,-25.246562],[-57.59383,-25.246455],[-57.593459,-25.246519],[-57.593672,-25.246434],[-57.593698,-25.246277],[-57.593322,-25.246076],[-57.592962,-25.24614],[-57.592974,-25.246273],[-57.593252,-25.2462],[-57.593328,-25.246244],[-57.593361,-25.246372],[-57.593215,-25.246485],[-57.592772,-25.246208],[-57.592626,-25.245998],[-57.592393,-25.246107],[-57.592454,-25.246265],[-57.592344,-25.246373],[-57.592443,-25.246361],[-57.592536,-25.246447],[-57.59251,-25.246693],[-57.592598,-25.246771],[-57.592846,-25.246762],[-57.592911,-25.246971],[-57.593001,-25.246947],[-57.59321,-25.247092],[-57.593566,-25.247052],[-57.593659,-25.246961],[-57.593929,-25.247031],[-57.593788,-25.247504],[-57.593926,-25.247816],[-57.594288,-25.24818],[-57.594466,-25.248482],[-57.594626,-25.248996],[-57.594637,-25.24965],[-57.594745,-25.249747],[-57.594695,-25.249807],[-57.594802,-25.250135],[-57.595269,-25.250638],[-57.595362,-25.251028],[-57.595164,-25.25121],[-57.595355,-25.251721],[-57.595196,-25.251891],[-57.595051,-25.251916],[-57.595119,-25.252077],[-57.595012,-25.252198],[-57.595018,-25.252536],[-57.594887,-25.252667],[-57.594846,-25.252918],[-57.594584,-25.253042],[-57.594056,-25.253018],[-57.594024,-25.252774],[-57.594462,-25.252413],[-57.594314,-25.252236],[-57.593999,-25.252179],[-57.594068,-25.2521],[-57.594317,-25.252049],[-57.594315,-25.251885],[-57.594069,-25.251665],[-57.593857,-25.251579],[-57.59354,-25.251599],[-57.593227,-25.251826],[-57.593263,-25.25219],[-57.59335,-25.25224],[-57.593185,-25.252248],[-57.593137,-25.252393],[-57.593001,-25.252397],[-57.593058,-25.25221],[-57.59301,-25.252154],[-57.592738,-25.252402],[-57.592391,-25.252336],[-57.592062,-25.252496],[-57.591834,-25.252843],[-57.59167,-25.252794],[-57.591524,-25.252562],[-57.590983,-25.252229],[-57.591083,-25.252125],[-57.591385,-25.252173],[-57.591477,-25.252105],[-57.591688,-25.252182],[-57.591841,-25.252081],[-57.59173,-25.251746],[-57.591806,-25.251688],[-57.591708,-25.251511],[-57.591484,-25.251494],[-57.591621,-25.251252],[-57.591403,-25.251092],[-57.591364,-25.250974],[-57.591569,-25.250876],[-57.591741,-25.250571],[-57.592287,-25.250387],[-57.592187,-25.250612],[-57.592324,-25.250666],[-57.59251,-25.250608],[-57.59243,-25.250459],[-57.592461,-25.250341],[-57.592701,-25.250314],[-57.592627,-25.250093],[-57.592773,-25.250043],[-57.592815,-25.249898],[-57.59266,-25.249699],[-57.592585,-25.249782],[-57.592549,-25.249547],[-57.592565,-25.249009],[-57.59264,-25.248799],[-57.592709,-25.248794],[-57.592398,-25.248524],[-57.592444,-25.248224],[-57.592187,-25.24803],[-57.59218,-25.247803],[-57.591784,-25.247522],[-57.591953,-25.247451],[-57.591959,-25.247373],[-57.59184,-25.247306],[-57.591937,-25.247219],[-57.591816,-25.247152],[-57.591807,-25.247027],[-57.591597,-25.246951],[-57.591463,-25.246775],[-57.591482,-25.246608],[-57.591027,-25.246611],[-57.591002,-25.246343],[-57.590914,-25.246323],[-57.590665,-25.245918],[-57.590527,-25.246049],[-57.590398,-25.245924],[-57.590307,-25.246145],[-57.590056,-25.24625],[-57.589907,-25.246138],[-57.589952,-25.246027],[-57.589853,-25.245857],[-57.589981,-25.245521],[-57.589928,-25.245222],[-57.590247,-25.244805],[-57.590341,-25.244461],[-57.590236,-25.244311],[-57.589784,-25.244013],[-57.58962,-25.244111],[-57.589393,-25.244039],[-57.589205,-25.244325],[-57.588686,-25.244108],[-57.588751,-25.243772],[-57.588922,-25.243716],[-57.588975,-25.243533],[-57.589077,-25.243494],[-57.588966,-25.243333],[-57.589002,-25.243108],[-57.588914,-25.242909],[-57.589156,-25.242542],[-57.589223,-25.24256],[-57.589368,-25.242202],[-57.589554,-25.242068],[-57.589564,-25.241974],[-57.589164,-25.241484],[-57.589228,-25.241118],[-57.589184,-25.240683],[-57.588402,-25.240125],[-57.587867,-25.2396],[-57.586607,-25.239033],[-57.585815,-25.238538],[-57.585643,-25.238118],[-57.585303,-25.237944],[-57.585044,-25.237681],[-57.584816,-25.237286],[-57.584056,-25.236703],[-57.583974,-25.236527],[-57.583861,-25.236498],[-57.583391,-25.235929],[-57.582921,-25.235344],[-57.582968,-25.235197],[-57.582855,-25.235183],[-57.58245,-25.234716],[-57.581687,-25.233649],[-57.581394,-25.233078],[-57.580876,-25.232494],[-57.580277,-25.232028],[-57.58005,-25.231721],[-57.580049,-25.231501],[-57.579805,-25.231209],[-57.579241,-25.231284],[-57.579032,-25.231241],[-57.57845,-25.230891],[-57.578289,-25.230965],[-57.578095,-25.230937],[-57.578031,-25.231069],[-57.57803,-25.230878],[-57.577755,-25.230645],[-57.577368,-25.230559],[-57.577125,-25.230413],[-57.577061,-25.230442],[-57.575626,-25.228534],[-57.574197,-25.226443],[-57.572104,-25.225378],[-57.574655,-25.223197],[-57.577071,-25.223874],[-57.580508,-25.227965],[-57.582381,-25.228602],[-57.587505,-25.234679],[-57.591453,-25.237419],[-57.594691,-25.240279],[-57.598052,-25.242251],[-57.599614,-25.242935],[-57.604501,-25.244625],[-57.609108,-25.246379],[-57.614836,-25.249015],[-57.620173,-25.251121],[-57.625126,-25.25224],[-57.628826,-25.253554],[-57.632739,-25.2555],[-57.63847,-25.258578],[-57.644345,-25.262669],[-57.651127,-25.266755],[-57.659797,-25.271782],[-57.663787,-25.274546],[-57.66833,-25.277331],[-57.670816,-25.280312],[-57.6727,-25.286101],[-57.673345,-25.29096],[-57.673246,-25.295656],[-57.673145,-25.296956],[-57.673619,-25.302428],[-57.674536,-25.309751],[-57.675263,-25.314526],[-57.675367,-25.320547],[-57.672324,-25.324866],[-57.671209,-25.328693],[-57.668265,-25.336353],[-57.6677,-25.340713],[-57.667557,-25.345339],[-57.664776,-25.352118],[-57.660051,-25.358234],[-57.648588,-25.368463],[-57.648063,-25.369246],[-57.647544,-25.371109],[-57.645939,-25.375921],[-57.642296,-25.382598],[-57.635761,-25.368673],[-57.63586,-25.368271],[-57.635806,-25.368053],[-57.636054,-25.368067],[-57.636369,-25.367889],[-57.636413,-25.367679],[-57.636547,-25.367641],[-57.63646,-25.367431],[-57.636988,-25.367481],[-57.637296,-25.367255],[-57.63744,-25.367029],[-57.637716,-25.366962],[-57.637642,-25.366804],[-57.637898,-25.366836],[-57.638003,-25.366691],[-57.638342,-25.366596],[-57.640313,-25.365455],[-57.640345,-25.365348],[-57.641255,-25.364797],[-57.642616,-25.364128],[-57.643933,-25.363195],[-57.644746,-25.362411],[-57.644886,-25.362498],[-57.645197,-25.362321],[-57.64617,-25.361119],[-57.646255,-25.360884],[-57.646448,-25.360922],[-57.646544,-25.360834],[-57.64649,-25.360766],[-57.646618,-25.360473],[-57.64624,-25.360084],[-57.646239,-25.359947],[-57.646644,-25.35938],[-57.646601,-25.359331],[-57.646801,-25.358608],[-57.646703,-25.358384],[-57.646197,-25.358133],[-57.645851,-25.357793],[-57.645701,-25.357774],[-57.645398,-25.357404],[-57.645232,-25.356566],[-57.645136,-25.356566],[-57.645081,-25.356411],[-57.644993,-25.356393],[-57.644895,-25.356072],[-57.644979,-25.355691],[-57.64462,-25.354892],[-57.644532,-25.354405],[-57.644551,-25.353985],[-57.644429,-25.353303],[-57.644511,-25.350533],[-57.644368,-25.349841],[-57.644495,-25.34946],[-57.644472,-25.349109],[-57.644297,-25.348651],[-57.644317,-25.348251],[-57.644023,-25.347569],[-57.64383,-25.345757],[-57.643857,-25.344772],[-57.643737,-25.344499],[-57.644179,-25.342594],[-57.64435,-25.342496],[-57.644508,-25.341861],[-57.644292,-25.341618],[-57.64443,-25.341393],[-57.644452,-25.341004],[-57.644309,-25.340458],[-57.644384,-25.340321],[-57.644673,-25.340144],[-57.645056,-25.339538],[-57.645603,-25.339233],[-57.645666,-25.339057],[-57.645224,-25.338688],[-57.645576,-25.338248],[-57.646147,-25.338635],[-57.646287,-25.338576],[-57.64687,-25.337188],[-57.646825,-25.336837],[-57.646631,-25.336623],[-57.646629,-25.33636],[-57.646974,-25.335681],[-57.647416,-25.335084],[-57.647469,-25.334879],[-57.647807,-25.33478],[-57.648133,-25.334471],[-57.648308,-25.334139],[-57.648254,-25.334032],[-57.648345,-25.333939],[-57.648813,-25.334132],[-57.649055,-25.334106],[-57.649464,-25.334363],[-57.649459,-25.334441],[-57.649621,-25.334577],[-57.650003,-25.334595],[-57.649819,-25.33441],[-57.649882,-25.334151],[-57.649746,-25.333879],[-57.649166,-25.333774],[-57.649062,-25.333498],[-57.649324,-25.333224],[-57.649317,-25.332999],[-57.649101,-25.332854],[-57.649112,-25.331844],[-57.648966,-25.331552],[-57.649056,-25.331381],[-57.649046,-25.330928],[-57.649318,-25.330605],[-57.649597,-25.330491],[-57.649628,-25.330374],[-57.650228,-25.330074],[-57.650663,-25.330086],[-57.650748,-25.329905],[-57.650936,-25.329792],[-57.650958,-25.329605],[-57.650798,-25.329618],[-57.651061,-25.329463],[-57.65115,-25.329247],[-57.651272,-25.329211],[-57.651284,-25.329027],[-57.651168,-25.328992],[-57.651371,-25.328957],[-57.651289,-25.329118],[-57.651363,-25.32919],[-57.651333,-25.32933],[-57.65147,-25.329382],[-57.652229,-25.329218],[-57.652372,-25.328993],[-57.652183,-25.328936],[-57.65219,-25.32884],[-57.652096,-25.328795],[-57.652403,-25.328685],[-57.652519,-25.328544],[-57.652633,-25.328521],[-57.652636,-25.328669],[-57.652794,-25.328679],[-57.652824,-25.328595],[-57.652944,-25.328691],[-57.652999,-25.32862],[-57.653071,-25.32865],[-57.65309,-25.328577],[-57.653249,-25.328581],[-57.653364,-25.328454],[-57.653453,-25.328512],[-57.653541,-25.328343],[-57.65368,-25.328284],[-57.653663,-25.328214],[-57.653823,-25.328153],[-57.653999,-25.327923],[-57.654096,-25.327968],[-57.654264,-25.327796],[-57.654437,-25.327926],[-57.654517,-25.327828],[-57.654442,-25.32779],[-57.654625,-25.327784],[-57.654796,-25.32762],[-57.654954,-25.327574],[-57.654938,-25.327644],[-57.654863,-25.327637],[-57.654872,-25.327748],[-57.654974,-25.327763],[-57.655135,-25.327704],[-57.655181,-25.32748],[-57.655267,-25.327562],[-57.655403,-25.327486],[-57.655503,-25.327521],[-57.655641,-25.327415],[-57.655663,-25.326845],[-57.655818,-25.326912],[-57.655986,-25.326781],[-57.656144,-25.326771],[-57.65619,-25.326597],[-57.656318,-25.326674],[-57.656465,-25.326648],[-57.656563,-25.326759],[-57.656645,-25.326486],[-57.656828,-25.326478],[-57.656926,-25.326251],[-57.657102,-25.326378],[-57.657272,-25.326158],[-57.657348,-25.326314],[-57.657559,-25.326278],[-57.657719,-25.326126],[-57.657963,-25.32615],[-57.657965,-25.326047],[-57.658104,-25.326064],[-57.658239,-25.325953],[-57.658039,-25.325853],[-57.657988,-25.32574],[-57.658124,-25.325694],[-57.658323,-25.325826],[-57.658437,-25.325722],[-57.658831,-25.325662],[-57.658818,-25.325605],[-57.659009,-25.325523],[-57.659187,-25.325591],[-57.659466,-25.325405],[-57.659758,-25.325346],[-57.6601,-25.32516],[-57.660404,-25.324823],[-57.660518,-25.324811],[-57.66072,-25.324522],[-57.661368,-25.324392],[-57.661633,-25.324067],[-57.661824,-25.324112],[-57.661925,-25.323939],[-57.663206,-25.323286],[-57.66332,-25.323285],[-57.663802,-25.322914],[-57.663813,-25.322763],[-57.663965,-25.322636],[-57.66408,-25.322647],[-57.66522,-25.321798],[-57.66513,-25.321637],[-57.664913,-25.321603],[-57.665739,-25.321461],[-57.666772,-25.320753],[-57.667176,-25.320243],[-57.667263,-25.319942],[-57.667503,-25.319606],[-57.667693,-25.319386],[-57.668136,-25.319118],[-57.668211,-25.318748],[-57.668353,-25.319279],[-57.668278,-25.319441],[-57.668406,-25.319568],[-57.668533,-25.319579],[-57.668863,-25.319404],[-57.66895,-25.319161],[-57.669317,-25.318813],[-57.669721,-25.318222],[-57.669707,-25.317979],[-57.670059,-25.317204],[-57.669957,-25.317135],[-57.669943,-25.316996],[-57.670094,-25.316637],[-57.670115,-25.315898],[-57.670505,-25.314847],[-57.670542,-25.314489],[-57.670668,-25.314326],[-57.670704,-25.313957],[-57.670512,-25.313819],[-57.670524,-25.313657],[-57.670777,-25.313402],[-57.670811,-25.312651],[-57.670479,-25.312375],[-57.670413,-25.311902],[-57.670081,-25.311637],[-57.670093,-25.311533],[-57.669851,-25.311419],[-57.669697,-25.311166],[-57.669798,-25.31105],[-57.669783,-25.31068],[-57.669461,-25.309977],[-57.669459,-25.30963],[-57.669151,-25.309112],[-57.669253,-25.309007],[-57.669238,-25.308753],[-57.668906,-25.30835],[-57.66904,-25.307795],[-57.669015,-25.307427],[-57.669087,-25.307337],[-57.668804,-25.306978],[-57.668659,-25.30649],[-57.668846,-25.306],[-57.668813,-25.305729],[-57.668722,-25.305707],[-57.668699,-25.305584],[-57.668886,-25.305107],[-57.66888,-25.304878],[-57.668723,-25.30465],[-57.668768,-25.303695],[-57.668597,-25.30353],[-57.668181,-25.303648],[-57.667628,-25.303639],[-57.667323,-25.303406],[-57.667421,-25.303187],[-57.667712,-25.303323],[-57.667973,-25.303277],[-57.668019,-25.303078],[-57.668114,-25.303042],[-57.668083,-25.30298],[-57.667696,-25.302919],[-57.667664,-25.302673],[-57.667874,-25.302449],[-57.668239,-25.302396],[-57.668664,-25.302105],[-57.6688,-25.301909],[-57.668754,-25.301249],[-57.668867,-25.300787],[-57.668831,-25.300479],[-57.669127,-25.300207],[-57.66916,-25.299941],[-57.668952,-25.299825],[-57.66923,-25.299215],[-57.669248,-25.298534],[-57.669371,-25.298283],[-57.66933,-25.297904],[-57.669205,-25.297882],[-57.669235,-25.297784],[-57.669407,-25.297681],[-57.66952,-25.297137],[-57.669916,-25.29721],[-57.670348,-25.296969],[-57.670459,-25.296277],[-57.670214,-25.296243],[-57.670277,-25.295985],[-57.67056,-25.296019],[-57.670635,-25.29554],[-57.670454,-25.295482],[-57.670336,-25.294992],[-57.670398,-25.294559],[-57.67068,-25.294487],[-57.670551,-25.294324],[-57.670074,-25.294198],[-57.670125,-25.294034],[-57.670304,-25.293963],[-57.670213,-25.293823],[-57.670399,-25.292513],[-57.670256,-25.292163],[-57.670422,-25.291917],[-57.670393,-25.291356],[-57.670117,-25.290364],[-57.669963,-25.290423],[-57.669872,-25.290166],[-57.670244,-25.290083],[-57.670186,-25.289665],[-57.670096,-25.289677],[-57.669823,-25.289474],[-57.669768,-25.288941],[-57.669435,-25.288283],[-57.669423,-25.288056],[-57.669236,-25.287984],[-57.669136,-25.287672],[-57.668813,-25.287519],[-57.668532,-25.287208],[-57.668269,-25.286696],[-57.668281,-25.286383],[-57.668148,-25.286427],[-57.667967,-25.286104],[-57.667746,-25.28593],[-57.666954,-25.284024],[-57.66679,-25.283801],[-57.666755,-25.283533],[-57.665838,-25.282182],[-57.665838,-25.282054],[-57.665999,-25.28196],[-57.665951,-25.281896],[-57.665566,-25.281823],[-57.665415,-25.281541],[-57.665066,-25.281495],[-57.66472,-25.281299],[-57.664141,-25.280734],[-57.66398,-25.280688],[-57.663872,-25.280516],[-57.662827,-25.279977],[-57.662801,-25.279704],[-57.662756,-25.279667],[-57.662647,-25.279738],[-57.662506,-25.279633],[-57.662219,-25.279335],[-57.662087,-25.279073],[-57.661734,-25.278915],[-57.661615,-25.278623],[-57.661335,-25.278392],[-57.660432,-25.277949],[-57.660366,-25.277767],[-57.660082,-25.277596],[-57.660026,-25.277362],[-57.659706,-25.277228],[-57.659493,-25.277257],[-57.659194,-25.277181],[-57.659106,-25.277253],[-57.658874,-25.277261],[-57.658812,-25.277448],[-57.658757,-25.27742],[-57.658837,-25.277209],[-57.658569,-25.277118],[-57.658492,-25.276961],[-57.658432,-25.276951],[-57.658389,-25.277069],[-57.657987,-25.27701],[-57.658031,-25.276516],[-57.657855,-25.276376],[-57.65671,-25.276031],[-57.656546,-25.276083],[-57.656335,-25.276368],[-57.656074,-25.276356],[-57.655958,-25.276085],[-57.65569,-25.276705],[-57.655585,-25.276783],[-57.655347,-25.276495],[-57.655122,-25.276436],[-57.655038,-25.276197],[-57.654742,-25.27677],[-57.654815,-25.276272],[-57.654751,-25.276199],[-57.654613,-25.276226],[-57.654752,-25.276],[-57.65465,-25.275983],[-57.654529,-25.276141],[-57.65461,-25.275786],[-57.654411,-25.276002],[-57.654294,-25.275667],[-57.654016,-25.275774],[-57.653902,-25.276016],[-57.653894,-25.276244],[-57.653803,-25.276228],[-57.653726,-25.276526],[-57.654026,-25.275154],[-57.65382,-25.275829],[-57.653635,-25.275803],[-57.653573,-25.275711],[-57.653713,-25.275082],[-57.653413,-25.275374],[-57.653291,-25.275397],[-57.653156,-25.275665],[-57.652982,-25.275697],[-57.65283,-25.275852],[-57.652846,-25.275906],[-57.652982,-25.275839],[-57.653012,-25.275953],[-57.652965,-25.276044],[-57.652852,-25.276003],[-57.652824,-25.276089],[-57.652646,-25.276057],[-57.652692,-25.275955],[-57.6525,-25.276127],[-57.652363,-25.276122],[-57.652415,-25.275732],[-57.652295,-25.275717],[-57.652222,-25.276064],[-57.652148,-25.276058],[-57.652023,-25.275838],[-57.652161,-25.275621],[-57.652139,-25.275447],[-57.651991,-25.275524],[-57.651869,-25.275912],[-57.651747,-25.275823],[-57.651448,-25.275871],[-57.651461,-25.275751],[-57.651402,-25.275741],[-57.651325,-25.275848],[-57.65092,-25.275777],[-57.650652,-25.27587],[-57.650634,-25.275638],[-57.65071,-25.275601],[-57.650838,-25.275701],[-57.65097,-25.275635],[-57.650955,-25.275147],[-57.651213,-25.274639],[-57.651313,-25.274544],[-57.651698,-25.274605],[-57.65184,-25.274316],[-57.651812,-25.274131],[-57.65161,-25.273971],[-57.651282,-25.274073],[-57.651326,-25.273946],[-57.651258,-25.273826],[-57.650732,-25.273697],[-57.650456,-25.273548],[-57.650304,-25.273607],[-57.650078,-25.273575],[-57.649854,-25.273675],[-57.649654,-25.273638],[-57.649487,-25.273439],[-57.649352,-25.273078],[-57.649159,-25.272972],[-57.649084,-25.272821],[-57.647293,-25.273085],[-57.647076,-25.273051],[-57.646618,-25.273199],[-57.646588,-25.27307],[-57.643688,-25.274485],[-57.641355,-25.275874],[-57.638832,-25.275996],[-57.636534,-25.275367],[-57.635782,-25.275271],[-57.635175,-25.275363],[-57.634818,-25.275499],[-57.63344,-25.276278],[-57.633214,-25.276279],[-57.632464,-25.276707],[-57.631871,-25.276896],[-57.631425,-25.276936],[-57.630815,-25.276862],[-57.628709,-25.276155],[-57.628526,-25.276172],[-57.62752,-25.275937],[-57.620368,-25.276607],[-57.620427,-25.27649],[-57.620227,-25.276335],[-57.620394,-25.276279],[-57.620368,-25.276201],[-57.620196,-25.276178],[-57.619974,-25.276288],[-57.619718,-25.276268],[-57.619697,-25.276171],[-57.619594,-25.276207],[-57.619543,-25.276084],[-57.619626,-25.275877],[-57.619238,-25.275534],[-57.618345,-25.275436],[-57.618371,-25.27519],[-57.618071,-25.274749],[-57.61807,-25.27443],[-57.617825,-25.274136],[-57.617365,-25.273942],[-57.616714,-25.273404],[-57.61674,-25.273281],[-57.616444,-25.273211]],[[-57.654837,-25.359977],[-57.656147,-25.359149],[-57.657716,-25.357682],[-57.66017,-25.355103],[-57.661647,-25.353297],[-57.66226,-25.352481],[-57.663682,-25.350169],[-57.665097,-25.347174],[-57.665521,-25.345875],[-57.665636,-25.344874],[-57.665065,-25.34348],[-57.664923,-25.342501],[-57.664861,-25.340373],[-57.664216,-25.338001],[-57.663987,-25.33771],[-57.663729,-25.337816],[-57.663083,-25.338491],[-57.661714,-25.339654],[-57.660734,-25.340581],[-57.659437,-25.341965],[-57.657913,-25.343282],[-57.654199,-25.346719],[-57.652533,-25.347705],[-57.649805,-25.349056],[-57.648967,-25.349723],[-57.648649,-25.350017],[-57.648256,-25.350547],[-57.647585,-25.351715],[-57.64736,-25.352441],[-57.647235,-25.353308],[-57.647227,-25.354129],[-57.647351,-25.354993],[-57.647676,-25.355779],[-57.648347,-25.356402],[-57.648433,-25.356323],[-57.648486,-25.355083],[-57.648581,-25.355232],[-57.648717,-25.355973],[-57.649023,-25.356497],[-57.649027,-25.356862],[-57.648835,-25.357216],[-57.648795,-25.357708],[-57.649349,-25.35894],[-57.649779,-25.361335],[-57.649779,-25.362681],[-57.649891,-25.363589],[-57.650015,-25.363916],[-57.650268,-25.364083],[-57.650477,-25.363977],[-57.650864,-25.36346],[-57.654424,-25.359813],[-57.655501,-25.35834],[-57.65555,-25.358112],[-57.655387,-25.3573],[-57.655524,-25.355417],[-57.655596,-25.355344],[-57.655786,-25.356189],[-57.655867,-25.357879],[-57.656246,-25.357677],[-57.657831,-25.355998],[-57.657833,-25.355378],[-57.657566,-25.354072],[-57.657633,-25.353694],[-57.657848,-25.35326],[-57.658047,-25.353084],[-57.658169,-25.353067],[-57.658707,-25.353104],[-57.658863,-25.353212],[-57.6588,-25.353308],[-57.658133,-25.35339],[-57.657915,-25.353733],[-57.657831,-25.354221],[-57.657869,-25.354754],[-57.658005,-25.355564],[-57.658124,-25.355707],[-57.659279,-25.354581],[-57.66062,-25.353126],[-57.661654,-25.351563],[-57.663021,-25.348579],[-57.663169,-25.348501],[-57.663223,-25.34865],[-57.663177,-25.348984],[-57.662763,-25.350233],[-57.661364,-25.352648],[-57.66062,-25.353719],[-57.658102,-25.356149],[-57.656012,-25.358307],[-57.655053,-25.359539],[-57.654837,-25.359977]],[[-57.594606,-25.246178],[-57.595465,-25.246842],[-57.595931,-25.246832],[-57.596048,-25.246481],[-57.596743,-25.246168],[-57.597397,-25.246476],[-57.597574,-25.246381],[-57.597662,-25.246191],[-57.597943,-25.246042],[-57.597942,-25.245772],[-57.597615,-25.245612],[-57.596695,-25.245562],[-57.59579,-25.245323],[-57.595473,-25.245124],[-57.594681,-25.244893],[-57.594455,-25.244689],[-57.593825,-25.244442],[-57.593583,-25.244428],[-57.593291,-25.244195],[-57.593082,-25.24421],[-57.592871,-25.243962],[-57.59258,-25.243773],[-57.592419,-25.243949],[-57.592289,-25.243569],[-57.591982,-25.243453],[-57.591353,-25.242917],[-57.591027,-25.242514],[-57.590841,-25.242666],[-57.590545,-25.242757],[-57.590384,-25.242616],[-57.590217,-25.242578],[-57.590135,-25.242702],[-57.590149,-25.242985],[-57.590083,-25.243002],[-57.589811,-25.242943],[-57.589883,-25.242796],[-57.589762,-25.242765],[-57.589794,-25.242956],[-57.589671,-25.243245],[-57.589795,-25.243435],[-57.589992,-25.243466],[-57.590312,-25.243334],[-57.590793,-25.243363],[-57.59083,-25.243445],[-57.591014,-25.24351],[-57.591127,-25.243866],[-57.59134,-25.244012],[-57.591746,-25.243952],[-57.591906,-25.244367],[-57.592069,-25.244472],[-57.592364,-25.244096],[-57.592455,-25.244149],[-57.592489,-25.244337],[-57.592216,-25.244546],[-57.59232,-25.244867],[-57.5922,-25.244989],[-57.592356,-25.24518],[-57.592227,-25.245333],[-57.592336,-25.245474],[-57.592236,-25.245711],[-57.592498,-25.245837],[-57.592779,-25.24587],[-57.592977,-25.246064],[-57.59305,-25.245867],[-57.593172,-25.245834],[-57.59331,-25.245643],[-57.593589,-25.24559],[-57.59373,-25.245673],[-57.593974,-25.245672],[-57.594344,-25.246116],[-57.594606,-25.246178]],[[-57.589371,-25.240855],[-57.589357,-25.24084],[-57.589346,-25.240829],[-57.589371,-25.240855]]]}}]}
