{"type":"FeatureCollection","name":"zonas_municipales","features":[{"type":"Feature","properties":{"numero":14,"nombre":"LA RECOLETA"},"geometry":{"type":"Polygon","coordinates":[[[-57.584929,-25.339324],[-57.584505,-25.338868],[-57.583017,-25.337738],[-57.577268,-25.333201],[-57.572658,-25.329646],[-57.567139,-25.325484],[-57.561904,-25.321378],[-57.560371,-25.320221],[-57.559669,-25.31917],[-57.557107,-25.315598],[-57.55445,-25.310903],[-57.553754,-25.30941],[-57.552346,-25.309343],[-57.550415,-25.306386],[-57.545832,-25.299576],[-57.544209,-25.297421],[-57.54323,-25.296232],[-57.543205,-25.29617],[-57.5433,-25.296039],[-57.543441,-25.29595],[-57.543461,-25.295909],[-57.543336,-25.295739],[-57.543304,-25.295504],[-57.543224,-25.295277],[-57.543249,-25.295216],[-57.543384,-25.295126],[-57.543575,-25.294925],[-57.543355,-25.294497],[-57.543435,-25.294347],[-57.54353,-25.294272],[-57.543574,-25.294111],[-57.543671,-25.294085],[-57.543767,-25.294153],[-57.543833,-25.294125],[-57.543818,-25.293891],[-57.543867,-25.293693],[-57.543676,-25.293545],[-57.543478,-25.29325],[-57.543325,-25.293175],[-57.54321,-25.293074],[-57.54301,-25.29276],[-57.542871,-25.292651],[-57.542482,-25.292513],[-57.542253,-25.292188],[-57.541975,-25.292003],[-57.541878,-25.291857],[-57.541841,-25.291745],[-57.54223,-25.291453],[-57.542128,-25.291378],[-57.542138,-25.291272],[-57.541987,-25.290639],[-57.541894,-25.290444],[-57.541831,-25.290127],[-57.541704,-25.29002],[-57.541716,-25.289901],[-57.54186,-25.289802],[-57.541893,-25.28966],[-57.541854,-25.289521],[-57.541705,-25.289423],[-57.541604,-25.289313],[-57.541581,-25.289096],[-57.54167,-25.288951],[-57.541846,-25.288889],[-57.541615,-25.288402],[-57.541628,-25.288086],[-57.541369,-25.288035],[-57.541303,-25.287983],[-57.541302,-25.287744],[-57.541373,-25.287619],[-57.54133,-25.287366],[-57.541291,-25.287264],[-57.54109,-25.287107],[-57.541063,-25.287056],[-57.541128,-25.286752],[-57.5413,-25.286387],[-57.540922,-25.28598],[-57.54075,-25.286039],[-57.540607,-25.286034],[-57.540642,-25.285937],[-57.540552,-25.285703],[-57.540581,-25.285645],[-57.540586,-25.285412],[-57.540861,-25.285359],[-57.540814,-25.285168],[-57.540855,-25.284977],[-57.540909,-25.284861],[-57.541122,-25.284712],[-57.541202,-25.284576],[-57.541157,-25.28441],[-57.541167,-25.283956],[-57.541072,-25.283113],[-57.540873,-25.282677],[-57.54078,-25.28225],[-57.540643,-25.281957],[-57.540544,-25.281627],[-57.540537,-25.281444],[-57.540665,-25.28115],[-57.540766,-25.280795],[-57.540879,-25.2807],[-57.541254,-25.280558],[-57.541407,-25.280274],[-57.541463,-25.279713],[-57.54161,-25.27937],[-57.541569,-25.279244],[-57.5416,-25.278951],[-57.541528,-25.278832],[-57.541463,-25.278626],[-57.541544,-25.278431],[-57.541542,-25.278232],[-57.541506,-25.278099],[-57.541355,-25.277939],[-57.54136,-25.277843],[-57.541465,-25.27772],[-57.541751,-25.277561],[-57.541788,-25.277512],[-57.541779,-25.277436],[-57.541556,-25.277294],[-57.541551,-25.277195],[-57.541872,-25.276878],[-57.542066,-25.276737],[-57.542677,-25.276593],[-57.542607,-25.276293],[-57.542559,-25.276224],[-57.542375,-25.276093],[-57.542315,-25.275893],[-57.542368,-25.275596],[-57.542549,-25.275536],[-57.542567,-25.275506],[-57.542598,-25.275003],[-57.542476,-25.274753],[-57.542571,-25.274525],[-57.545155,-25.275311],[-57.551777,-25.277145],[-57.553182,-25.277576],[-57.555661,-25.278429],[-57.556138,-25.278644],[-57.55723,-25.279426],[-57.559982,-25.280723],[-57.560181,-25.280851],[-57.562318,-25.282694],[-57.562722,-25.282939],[-57.562947,-25.283046],[-57.563897,-25.28336],[-57.565028,-25.283537],[-57.565632,-25.283588],[-57.566542,-25.283762],[-57.567578,-25.28417],[-57.568097,-25.284436],[-57.568607,-25.284737],[-57.569949,-25.285616],[-57.571857,-25.286463],[-57.57225,-25.286445],[-57.572853,-25.28632],[-57.577664,-25.285187],[-57.578625,-25.284993],[-57.579318,-25.284981],[-57.582058,-25.285223],[-57.582329,-25.285306],[-57.583442,-25.285835],[-57.58379,-25.285951],[-57.58416,-25.286023],[-57.591636,-25.286796],[-57.594948,-25.287174],[-57.595072,-25.287804],[-57.596975,-25.291313],[-57.596941,-25.291416],[-57.596081,-25.292263],[-57.595491,-25.293225],[-57.595174,-25.293672],[-57.594849,-25.293973],[-57.594476,-25.294073],[-57.594044,-25.294113],[-57.594223,-25.294779],[-57.594189,-25.294855],[-57.594414,-25.29499],[-57.594593,-25.295234],[-57.594696,-25.295591],[-57.592679,-25.296144],[-57.594103,-25.300952],[-57.596306,-25.308618],[-57.596699,-25.309876],[-57.597342,-25.312152],[-57.598222,-25.315091],[-57.599079,-25.318137],[-57.60091,-25.323944],[-57.598386,-25.325501],[-57.597365,-25.326193],[-57.595018,-25.327919],[-57.594201,-25.328711],[-57.593656,-25.329312],[-57.592006,-25.331501],[-57.590227,-25.333944],[-57.589932,-25.334252],[-57.588115,-25.335818],[-57.586626,-25.33721],[-57.585045,-25.339217],[-57.584929,-25.339324]]]}},{"type":"Feature","properties":{"numero":10,"nombre":"LA ENCARNACION"},"geometry":{"type":"Polygon","coordinates":[[[-57.634064,-25.27771],[-57.633771,-25.277573],[-57.633714,-25.27735],[-57.633814,-25.277285],[-57.633768,-25.277175],[-57.633783,-25.27695],[-57.63395,-25.276906],[-57.634125,-25.276947],[-57.634193,-25.277114],[-57.634369,-25.27722],[-57.634549,-25.277237],[-57.635045,-25.276867],[-57.635312,-25.276798],[-57.635328,-25.276531],[-57.635301,-25.276318],[-57.635496,-25.276036],[-57.636294,-25.275548],[-57.636841,-25.275531],[-57.637599,-25.27609],[-57.637856,-25.276054],[-57.637923,-25.275896],[-57.638061,-25.27571],[-57.639122,-25.275664],[-57.641478,-25.275464],[-57.644903,-25.273512],[-57.646209,-25.272945],[-57.647191,-25.272707],[-57.648743,-25.272607],[-57.649819,-25.272602],[-57.65061,-25.272784],[-57.650959,-25.272989],[-57.651203,-25.273183],[-57.651609,-25.273399],[-57.651934,-25.273644],[-57.652149,-25.273946],[-57.652147,-25.274406],[-57.651995,-25.274579],[-57.65131,-25.275002],[-57.651225,-25.275231],[-57.651384,-25.275458],[-57.651632,-25.275375],[-57.651804,-25.275192],[-57.652103,-25.27513],[-57.652528,-25.275301],[-57.653153,-25.275281],[-57.653503,-25.275124],[-57.653906,-25.274802],[-57.654128,-25.274775],[-57.654359,-25.274682],[-57.654693,-25.274748],[-57.654815,-25.275033],[-57.655104,-25.275377],[-57.655605,-25.275501],[-57.655863,-25.275441],[-57.656525,-25.275546],[-57.657551,-25.276091],[-57.658157,-25.2763],[-57.658545,-25.276349],[-57.65879,-25.276425],[-57.659229,-25.276802],[-57.659696,-25.277066],[-57.660255,-25.277305],[-57.661468,-25.278019],[-57.662404,-25.278987],[-57.662498,-25.279283],[-57.662639,-25.279409],[-57.662782,-25.279364],[-57.662915,-25.279375],[-57.663031,-25.279485],[-57.663164,-25.279768],[-57.663892,-25.280179],[-57.664253,-25.280506],[-57.664614,-25.280912],[-57.665023,-25.281074],[-57.665476,-25.281072],[-57.66579,-25.281237],[-57.665971,-25.281687],[-57.666243,-25.281808],[-57.666607,-25.281865],[-57.666745,-25.282079],[-57.6667,-25.282289],[-57.666702,-25.282632],[-57.666793,-25.282996],[-57.666974,-25.28348],[-57.667252,-25.283773],[-57.667386,-25.284671],[-57.667841,-25.285196],[-57.668031,-25.285877],[-57.668615,-25.286838],[-57.669287,-25.287238],[-57.669571,-25.287491],[-57.669523,-25.287777],[-57.669893,-25.288961],[-57.670028,-25.28909],[-57.670301,-25.289134],[-57.670481,-25.289371],[-57.670535,-25.289647],[-57.670476,-25.289831],[-57.670373,-25.289933],[-57.670303,-25.290072],[-57.670284,-25.290223],[-57.670501,-25.29055],[-57.670535,-25.290764],[-57.670423,-25.29114],[-57.670473,-25.291675],[-57.670423,-25.291967],[-57.670361,-25.292095],[-57.67052,-25.292263],[-57.670559,-25.292683],[-57.670925,-25.293582],[-57.671078,-25.294356],[-57.670384,-25.297811],[-57.669931,-25.2998],[-57.669686,-25.300592],[-57.669411,-25.301208],[-57.668668,-25.302466],[-57.668785,-25.303526],[-57.668917,-25.303955],[-57.669063,-25.305318],[-57.668981,-25.305554],[-57.668964,-25.305722],[-57.668994,-25.306101],[-57.668978,-25.306606],[-57.669138,-25.307102],[-57.669177,-25.307371],[-57.66915,-25.307649],[-57.669024,-25.308281],[-57.669127,-25.308483],[-57.669379,-25.308768],[-57.669389,-25.30902],[-57.669344,-25.309206],[-57.669559,-25.309609],[-57.669608,-25.310055],[-57.669842,-25.310475],[-57.669946,-25.310786],[-57.670367,-25.31118],[-57.67083,-25.311949],[-57.671046,-25.31259],[-57.671171,-25.313651],[-57.671024,-25.313958],[-57.670933,-25.314276],[-57.670825,-25.314474],[-57.670695,-25.315147],[-57.670441,-25.315722],[-57.670272,-25.316732],[-57.670232,-25.317286],[-57.67006,-25.317761],[-57.669587,-25.318832],[-57.669112,-25.319467],[-57.668722,-25.319825],[-57.668308,-25.319668],[-57.668153,-25.319293],[-57.667785,-25.319552],[-57.667354,-25.320345],[-57.666856,-25.320901],[-57.665662,-25.321819],[-57.665161,-25.322329],[-57.654656,-25.308134],[-57.65382,-25.306929],[-57.652506,-25.304941],[-57.65201,-25.305219],[-57.649079,-25.300917],[-57.640708,-25.288458],[-57.636811,-25.282746],[-57.634612,-25.280523],[-57.635315,-25.279949],[-57.634552,-25.279248],[-57.634572,-25.27913],[-57.634304,-25.278164],[-57.63415,-25.27782],[-57.634064,-25.27771]]]}},{"type":"Feature","properties":{"numero":15,"nombre":"SANTISIMA TRINIDAD"},"geometry":{"type":"Polygon","coordinates":[[[-57.594948,-25.287174],[-57.591636,-25.286796],[-57.58416,-25.286023],[-57.58379,-25.285951],[-57.583442,-25.285835],[-57.582329,-25.285306],[-57.582058,-25.285223],[-57.579318,-25.284981],[-57.578625,-25.284993],[-57.577664,-25.285187],[-57.572853,-25.28632],[-57.57225,-25.286445],[-57.571857,-25.286463],[-57.569949,-25.285616],[-57.568607,-25.284737],[-57.568097,-25.284436],[-57.567578,-25.28417],[-57.566542,-25.283762],[-57.565632,-25.283588],[-57.565028,-25.283537],[-57.563897,-25.28336],[-57.562947,-25.283046],[-57.562722,-25.282939],[-57.562318,-25.282694],[-57.560181,-25.280851],[-57.559982,-25.280723],[-57.55723,-25.279426],[-57.556138,-25.278644],[-57.555661,-25.278429],[-57.553182,-25.277576],[-57.551777,-25.277145],[-57.545155,-25.275311],[-57.542571,-25.274525],[-57.54265,-25.274155],[-57.542853,-25.273918],[-57.542828,-25.273756],[-57.542736,-25.273664],[-57.542681,-25.273409],[-57.542675,-25.273293],[-57.542736,-25.273177],[-57.542766,-25.27299],[-57.542763,-25.272757],[-57.542637,-25.272357],[-57.542309,-25.271765],[-57.542133,-25.271361],[-57.542017,-25.271216],[-57.541941,-25.271047],[-57.541865,-25.270415],[-57.541688,-25.269971],[-57.541515,-25.269676],[-57.541469,-25.269637],[-57.541374,-25.26963],[-57.541353,-25.269532],[-57.541241,-25.269381],[-57.541111,-25.269272],[-57.541071,-25.269158],[-57.540945,-25.268983],[-57.540949,-25.268933],[-57.540827,-25.268653],[-57.540777,-25.268626],[-57.540765,-25.26856],[-57.54041,-25.267968],[-57.540037,-25.267231],[-57.539952,-25.266993],[-57.539859,-25.266857],[-57.539746,-25.266802],[-57.539746,-25.266745],[-57.539648,-25.266634],[-57.539511,-25.266326],[-57.539441,-25.26622],[-57.53931,-25.26611],[-57.539244,-25.2659],[-57.539038,-25.265597],[-57.538902,-25.265468],[-57.538785,-25.265268],[-57.538687,-25.264984],[-57.538746,-25.264845],[-57.538668,-25.264746],[-57.538555,-25.264451],[-57.538448,-25.264321],[-57.538179,-25.263752],[-57.538103,-25.263677],[-57.537798,-25.263153],[-57.537703,-25.262824],[-57.537641,-25.262787],[-57.537562,-25.26255],[-57.5374,-25.262463],[-57.537305,-25.262344],[-57.536867,-25.261611],[-57.536618,-25.261265],[-57.536582,-25.261147],[-57.536521,-25.261087],[-57.536395,-25.260831],[-57.536356,-25.260714],[-57.536351,-25.260431],[-57.536299,-25.260233],[-57.536075,-25.259793],[-57.536027,-25.259439],[-57.535958,-25.259374],[-57.535923,-25.259255],[-57.535951,-25.259184],[-57.535932,-25.259056],[-57.535901,-25.258954],[-57.535829,-25.258865],[-57.53576,-25.258533],[-57.535643,-25.258234],[-57.535467,-25.257997],[-57.535373,-25.257808],[-57.535316,-25.257508],[-57.535069,-25.256845],[-57.534766,-25.256339],[-57.534705,-25.25607],[-57.534575,-25.255769],[-57.534536,-25.25545],[-57.534085,-25.254551],[-57.533952,-25.254105],[-57.533854,-25.253892],[-57.53384,-25.253757],[-57.533618,-25.25327],[-57.533623,-25.25315],[-57.533549,-25.253042],[-57.533608,-25.252939],[-57.5336,-25.252624],[-57.533642,-25.252459],[-57.533606,-25.251866],[-57.533776,-25.250847],[-57.533706,-25.250545],[-57.533619,-25.250429],[-57.533363,-25.250331],[-57.533186,-25.250351],[-57.533091,-25.250391],[-57.532887,-25.250303],[-57.532852,-25.250256],[-57.532851,-25.2501],[-57.532982,-25.249571],[-57.532916,-25.249102],[-57.532762,-25.248834],[-57.532575,-25.248716],[-57.532425,-25.248697],[-57.531955,-25.248712],[-57.531617,-25.248659],[-57.531369,-25.248568],[-57.531103,-25.248296],[-57.530924,-25.248055],[-57.530585,-25.247224],[-57.530254,-25.246919],[-57.530058,-25.246881],[-57.529922,-25.246903],[-57.52969,-25.247077],[-57.52951,-25.247136],[-57.529296,-25.247151],[-57.529162,-25.24709],[-57.529118,-25.247016],[-57.529105,-25.246654],[-57.52914,-25.245967],[-57.528885,-25.245661],[-57.528681,-25.245504],[-57.528168,-25.245011],[-57.527646,-25.244636],[-57.527399,-25.244552],[-57.527292,-25.244562],[-57.526838,-25.244454],[-57.526668,-25.244449],[-57.52654,-25.244475],[-57.526367,-25.244575],[-57.526058,-25.244638],[-57.525924,-25.24462],[-57.525624,-25.244394],[-57.525323,-25.244144],[-57.52528,-25.243711],[-57.525285,-25.243227],[-57.52508,-25.242653],[-57.527852,-25.241153],[-57.530872,-25.23941],[-57.531218,-25.239263],[-57.531751,-25.238887],[-57.532323,-25.238599],[-57.532804,-25.238281],[-57.536863,-25.237063],[-57.538173,-25.236642],[-57.539667,-25.236228],[-57.539809,-25.236212],[-57.54986,-25.232799],[-57.549994,-25.232815],[-57.550855,-25.232534],[-57.553304,-25.231305],[-57.554841,-25.230498],[-57.5562,-25.229844],[-57.55914,-25.228314],[-57.559741,-25.22828],[-57.560829,-25.22829],[-57.56767,-25.226548],[-57.567847,-25.226349],[-57.569021,-25.226058],[-57.569812,-25.226049],[-57.571215,-25.225794],[-57.571799,-25.225598],[-57.572131,-25.225363],[-57.57422,-25.226431],[-57.575013,-25.227571],[-57.575131,-25.227822],[-57.577061,-25.230467],[-57.577152,-25.230455],[-57.577401,-25.230585],[-57.578434,-25.230908],[-57.579019,-25.231238],[-57.579276,-25.231296],[-57.579547,-25.231253],[-57.579759,-25.231257],[-57.580029,-25.231534],[-57.580015,-25.231755],[-57.580166,-25.231979],[-57.580721,-25.232376],[-57.581251,-25.232956],[-57.581998,-25.234219],[-57.582258,-25.234504],[-57.582408,-25.234741],[-57.582813,-25.235217],[-57.582912,-25.235221],[-57.582929,-25.235256],[-57.582898,-25.235313],[-57.583003,-25.235514],[-57.583273,-25.235841],[-57.583385,-25.235936],[-57.583502,-25.236166],[-57.583954,-25.236561],[-57.58409,-25.23676],[-57.584491,-25.237045],[-57.584587,-25.237167],[-57.584831,-25.237349],[-57.585041,-25.237696],[-57.585174,-25.237854],[-57.585311,-25.237966],[-57.585686,-25.238162],[-57.585795,-25.238497],[-57.585924,-25.238638],[-57.586126,-25.238764],[-57.58639,-25.238862],[-57.586625,-25.239063],[-57.586854,-25.239144],[-57.587046,-25.239275],[-57.587685,-25.239534],[-57.587892,-25.23965],[-57.58836,-25.240101],[-57.588858,-25.240444],[-57.589159,-25.240693],[-57.590247,-25.24179],[-57.591088,-25.242575],[-57.591163,-25.242719],[-57.591401,-25.242989],[-57.591792,-25.243312],[-57.591896,-25.243357],[-57.591966,-25.243486],[-57.592141,-25.243541],[-57.592267,-25.243657],[-57.592313,-25.243723],[-57.59233,-25.243855],[-57.592381,-25.243957],[-57.592441,-25.243965],[-57.592519,-25.243841],[-57.592602,-25.243818],[-57.592816,-25.243958],[-57.593084,-25.244254],[-57.593272,-25.244226],[-57.593514,-25.244422],[-57.593741,-25.244466],[-57.59441,-25.244721],[-57.594711,-25.244926],[-57.595384,-25.245134],[-57.595706,-25.245283],[-57.596648,-25.245518],[-57.597656,-25.245597],[-57.597945,-25.245736],[-57.597982,-25.245823],[-57.599359,-25.246532],[-57.600547,-25.247125],[-57.600769,-25.247197],[-57.600972,-25.24734],[-57.601288,-25.247453],[-57.602053,-25.247899],[-57.602527,-25.248243],[-57.603116,-25.248493],[-57.603294,-25.248636],[-57.604362,-25.249203],[-57.60472,-25.249496],[-57.605186,-25.249734],[-57.605642,-25.249883],[-57.605798,-25.249967],[-57.605982,-25.25017],[-57.606283,-25.25039],[-57.606638,-25.250519],[-57.607057,-25.250623],[-57.607563,-25.250841],[-57.607829,-25.250851],[-57.608304,-25.251045],[-57.608444,-25.251049],[-57.608638,-25.251126],[-57.608737,-25.251233],[-57.608835,-25.251282],[-57.60899,-25.25129],[-57.609089,-25.251499],[-57.609597,-25.251662],[-57.609666,-25.251646],[-57.609801,-25.251719],[-57.599967,-25.263881],[-57.597569,-25.266404],[-57.598254,-25.266905],[-57.598037,-25.267156],[-57.59727,-25.266609],[-57.597075,-25.266712],[-57.597811,-25.269776],[-57.596632,-25.268954],[-57.595388,-25.268028],[-57.595101,-25.268017],[-57.593059,-25.26758],[-57.594948,-25.287174]]]}},{"type":"Feature","properties":{"numero":11,"nombre":"LA CATEDRAL"},"geometry":{"type":"Polygon","coordinates":[[[-57.625039,-25.276727],[-57.625364,-25.276247],[-57.62557,-25.276184],[-57.625734,-25.276251],[-57.625823,-25.276386],[-57.626341,-25.276304],[-57.62648,-25.276193],[-57.62669,-25.276137],[-57.626877,-25.276148],[-57.627013,-25.276246],[-57.62725,-25.276488],[-57.627272,-25.276608],[-57.627231,-25.276773],[-57.627486,-25.276984],[-57.627475,-25.27711],[-57.627778,-25.277445],[-57.627835,-25.277627],[-57.627802,-25.277739],[-57.627837,-25.277806],[-57.627929,-25.277841],[-57.628125,-25.277766],[-57.628308,-25.277753],[-57.628607,-25.277848],[-57.628802,-25.277873],[-57.628903,-25.277923],[-57.629201,-25.277971],[-57.62937,-25.277945],[-57.629525,-25.277589],[-57.629781,-25.277539],[-57.629985,-25.277612],[-57.630466,-25.277606],[-57.630934,-25.277809],[-57.631115,-25.277923],[-57.631604,-25.278081],[-57.631792,-25.278264],[-57.631973,-25.278334],[-57.632196,-25.278362],[-57.632254,-25.278277],[-57.632219,-25.277935],[-57.632254,-25.277839],[-57.632524,-25.277624],[-57.632755,-25.277569],[-57.633008,-25.277643],[-57.633061,-25.277725],[-57.633207,-25.277755],[-57.633306,-25.27765],[-57.633419,-25.277612],[-57.633672,-25.277626],[-57.633771,-25.277573],[-57.634064,-25.27771],[-57.63415,-25.27782],[-57.634304,-25.278164],[-57.634572,-25.27913],[-57.634552,-25.279248],[-57.635315,-25.279949],[-57.634612,-25.280523],[-57.636811,-25.282746],[-57.640708,-25.288458],[-57.649079,-25.300917],[-57.65201,-25.305219],[-57.652506,-25.304941],[-57.65382,-25.306929],[-57.654656,-25.308134],[-57.665161,-25.322329],[-57.664624,-25.322712],[-57.663908,-25.32313],[-57.66341,-25.323528],[-57.662846,-25.323867],[-57.662108,-25.324227],[-57.6615,-25.324585],[-57.660849,-25.324925],[-57.660134,-25.325422],[-57.657417,-25.32652],[-57.656589,-25.326937],[-57.648719,-25.323045],[-57.648376,-25.32285],[-57.64771,-25.322639],[-57.647217,-25.322556],[-57.647208,-25.322622],[-57.646703,-25.322562],[-57.646266,-25.322457],[-57.645999,-25.322447],[-57.644579,-25.3217],[-57.64435,-25.32149],[-57.643124,-25.321095],[-57.642374,-25.320561],[-57.642114,-25.320332],[-57.641737,-25.320373],[-57.641132,-25.320701],[-57.640252,-25.320409],[-57.636805,-25.318958],[-57.636279,-25.316662],[-57.635844,-25.315009],[-57.63393,-25.31536],[-57.633584,-25.313958],[-57.633468,-25.313993],[-57.633191,-25.313756],[-57.633037,-25.313684],[-57.632911,-25.313673],[-57.632836,-25.313693],[-57.632771,-25.313766],[-57.632697,-25.314062],[-57.632599,-25.314234],[-57.632531,-25.314288],[-57.632466,-25.314312],[-57.632139,-25.314272],[-57.631832,-25.314114],[-57.631445,-25.313823],[-57.63113,-25.313718],[-57.631025,-25.313655],[-57.630786,-25.313595],[-57.630679,-25.313488],[-57.63091,-25.312537],[-57.631678,-25.308807],[-57.631869,-25.307296],[-57.632088,-25.304045],[-57.63227,-25.302953],[-57.632478,-25.302026],[-57.632491,-25.301507],[-57.632199,-25.299748],[-57.632079,-25.299295],[-57.631885,-25.298115],[-57.631797,-25.296588],[-57.631616,-25.295304],[-57.631722,-25.295188],[-57.634816,-25.29341],[-57.633708,-25.291768],[-57.630092,-25.286578],[-57.629264,-25.285332],[-57.628415,-25.284168],[-57.628968,-25.283849],[-57.628908,-25.283827],[-57.62821,-25.283837],[-57.628007,-25.283571],[-57.627825,-25.283455],[-57.627708,-25.283233],[-57.627654,-25.282882],[-57.627549,-25.282765],[-57.627463,-25.282721],[-57.627003,-25.282657],[-57.626888,-25.282615],[-57.626812,-25.28251],[-57.626806,-25.282417],[-57.626654,-25.281961],[-57.626644,-25.281769],[-57.626574,-25.281677],[-57.626273,-25.281665],[-57.626183,-25.281619],[-57.626185,-25.281115],[-57.626041,-25.280686],[-57.626213,-25.280263],[-57.626332,-25.280152],[-57.626506,-25.279855],[-57.626709,-25.279636],[-57.626926,-25.279266],[-57.626933,-25.279015],[-57.626796,-25.278806],[-57.626407,-25.278427],[-57.625865,-25.277635],[-57.625039,-25.276727]]]}},{"type":"Feature","properties":{"numero":12,"nombre":"SAN ROQUE"},"geometry":{"type":"Polygon","coordinates":[[[-57.613048,-25.271813],[-57.613249,-25.271901],[-57.613676,-25.272161],[-57.613866,-25.272118],[-57.614033,-25.272217],[-57.614212,-25.272409],[-57.614506,-25.272481],[-57.61469,-25.272611],[-57.614821,-25.272812],[-57.615007,-25.272889],[-57.615498,-25.272751],[-57.615865,-25.272803],[-57.616262,-25.272961],[-57.616673,-25.273173],[-57.616865,-25.273385],[-57.617115,-25.273584],[-57.617513,-25.273796],[-57.617895,-25.274048],[-57.618117,-25.27438],[-57.618399,-25.275086],[-57.618649,-25.275325],[-57.618957,-25.275323],[-57.619516,-25.275561],[-57.619811,-25.275867],[-57.619959,-25.276079],[-57.620193,-25.275958],[-57.620443,-25.276091],[-57.620517,-25.276384],[-57.620564,-25.276877],[-57.620551,-25.277197],[-57.620699,-25.27753],[-57.621978,-25.278884],[-57.622184,-25.278856],[-57.622331,-25.278185],[-57.622476,-25.278108],[-57.622688,-25.278156],[-57.62284,-25.278331],[-57.62333,-25.2785],[-57.623518,-25.278504],[-57.62388,-25.27836],[-57.624265,-25.278122],[-57.624282,-25.277787],[-57.624353,-25.277517],[-57.624455,-25.27744],[-57.624527,-25.277258],[-57.624835,-25.277235],[-57.624791,-25.277015],[-57.625039,-25.276727],[-57.625865,-25.277635],[-57.626407,-25.278427],[-57.626796,-25.278806],[-57.626933,-25.279015],[-57.626926,-25.279266],[-57.626709,-25.279636],[-57.626506,-25.279855],[-57.626332,-25.280152],[-57.626213,-25.280263],[-57.626041,-25.280686],[-57.626185,-25.281115],[-57.626183,-25.281619],[-57.626273,-25.281665],[-57.626574,-25.281677],[-57.626644,-25.281769],[-57.626654,-25.281961],[-57.626806,-25.282417],[-57.626812,-25.28251],[-57.626888,-25.282615],[-57.627003,-25.282657],[-57.627463,-25.282721],[-57.627549,-25.282765],[-57.627654,-25.282882],[-57.627708,-25.283233],[-57.627825,-25.283455],[-57.628007,-25.283571],[-57.62821,-25.283837],[-57.628908,-25.283827],[-57.628968,-25.283849],[-57.628415,-25.284168],[-57.629264,-25.285332],[-57.630092,-25.286578],[-57.633708,-25.291768],[-57.634816,-25.29341],[-57.631722,-25.295188],[-57.631616,-25.295304],[-57.631797,-25.296588],[-57.631885,-25.298115],[-57.632079,-25.299295],[-57.632199,-25.299748],[-57.632493,-25.301632],[-57.632478,-25.302026],[-57.63227,-25.302953],[-57.632088,-25.304045],[-57.631869,-25.307296],[-57.631751,-25.308334],[-57.631354,-25.310431],[-57.63091,-25.312537],[-57.630679,-25.313488],[-57.626949,-25.328037],[-57.624497,-25.324467],[-57.622237,-25.321001],[-57.620501,-25.317996],[-57.619243,-25.315726],[-57.61572,-25.308794],[-57.614644,-25.309519],[-57.612044,-25.312455],[-57.611398,-25.313144],[-57.609204,-25.315451],[-57.607481,-25.317116],[-57.607001,-25.317838],[-57.606827,-25.318148],[-57.606132,-25.319034],[-57.60436,-25.321051],[-57.602324,-25.322926],[-57.601632,-25.323452],[-57.60091,-25.323944],[-57.599079,-25.318137],[-57.598222,-25.315091],[-57.597342,-25.312152],[-57.596699,-25.309876],[-57.596306,-25.308618],[-57.594103,-25.300952],[-57.592679,-25.296144],[-57.594696,-25.295591],[-57.594593,-25.295234],[-57.594414,-25.29499],[-57.594189,-25.294855],[-57.594223,-25.294779],[-57.594044,-25.294113],[-57.594476,-25.294073],[-57.594849,-25.293973],[-57.595174,-25.293672],[-57.595491,-25.293225],[-57.596081,-25.292263],[-57.596941,-25.291416],[-57.596975,-25.291313],[-57.595072,-25.287804],[-57.594948,-25.287174],[-57.593059,-25.26758],[-57.595101,-25.268017],[-57.595388,-25.268028],[-57.596632,-25.268954],[-57.597811,-25.269776],[-57.597075,-25.266712],[-57.59727,-25.266609],[-57.598037,-25.267156],[-57.598254,-25.266905],[-57.597569,-25.266404],[-57.599967,-25.263881],[-57.609801,-25.251719],[-57.609936,-25.251737],[-57.61032,-25.251933],[-57.610467,-25.251922],[-57.610526,-25.251991],[-57.610435,-25.252002],[-57.610441,-25.252032],[-57.61065,-25.252169],[-57.610909,-25.252218],[-57.611113,-25.252316],[-57.611299,-25.252359],[-57.611713,-25.252526],[-57.611892,-25.252636],[-57.612076,-25.252684],[-57.612329,-25.252803],[-57.612736,-25.252886],[-57.613038,-25.252897],[-57.613194,-25.252956],[-57.61341,-25.252988],[-57.613869,-25.253157],[-57.614203,-25.253363],[-57.614528,-25.253469],[-57.614862,-25.253644],[-57.615051,-25.253675],[-57.615205,-25.253758],[-57.615367,-25.253786],[-57.616308,-25.254191],[-57.616484,-25.25434],[-57.616615,-25.254353],[-57.616796,-25.25443],[-57.617005,-25.2546],[-57.617624,-25.254639],[-57.617864,-25.254615],[-57.618437,-25.254773],[-57.618965,-25.254828],[-57.619353,-25.25498],[-57.619552,-25.255023],[-57.61979,-25.255144],[-57.619884,-25.255155],[-57.620202,-25.255288],[-57.620616,-25.255411],[-57.620782,-25.255546],[-57.621218,-25.255734],[-57.621377,-25.255849],[-57.621539,-25.255804],[-57.621749,-25.255809],[-57.622153,-25.256202],[-57.622336,-25.256274],[-57.622626,-25.256305],[-57.622771,-25.256356],[-57.622895,-25.256324],[-57.62302,-25.256403],[-57.623211,-25.256338],[-57.623337,-25.256332],[-57.623813,-25.256389],[-57.624144,-25.256386],[-57.624264,-25.256426],[-57.624655,-25.256662],[-57.624839,-25.256835],[-57.625043,-25.256871],[-57.625199,-25.257182],[-57.62536,-25.257241],[-57.625507,-25.257373],[-57.626346,-25.257682],[-57.626672,-25.25777],[-57.627429,-25.258297],[-57.627794,-25.258624],[-57.628186,-25.258768],[-57.628346,-25.258889],[-57.629319,-25.259419],[-57.6296,-25.259502],[-57.630012,-25.259852],[-57.630513,-25.26007],[-57.631235,-25.260538],[-57.631676,-25.260726],[-57.631751,-25.260867],[-57.632069,-25.260986],[-57.632899,-25.261496],[-57.633298,-25.261654],[-57.63355,-25.261917],[-57.634065,-25.262274],[-57.634122,-25.262398],[-57.634193,-25.262443],[-57.63428,-25.262572],[-57.634357,-25.262591],[-57.634573,-25.262543],[-57.634649,-25.262577],[-57.634672,-25.262626],[-57.634634,-25.262669],[-57.634757,-25.262704],[-57.634746,-25.262782],[-57.634794,-25.262838],[-57.634873,-25.262869],[-57.635007,-25.262998],[-57.635257,-25.263149],[-57.635912,-25.263706],[-57.636021,-25.263745],[-57.636145,-25.263851],[-57.63622,-25.263838],[-57.636405,-25.263873],[-57.636543,-25.263949],[-57.63658,-25.264007],[-57.636763,-25.264099],[-57.63694,-25.264111],[-57.636896,-25.264173],[-57.637019,-25.264266],[-57.638089,-25.264833],[-57.638428,-25.265045],[-57.638325,-25.265124],[-57.638359,-25.265215],[-57.638442,-25.26518],[-57.638532,-25.265197],[-57.638677,-25.265353],[-57.639241,-25.265776],[-57.639959,-25.266537],[-57.640239,-25.266756],[-57.640407,-25.266831],[-57.640532,-25.266953],[-57.640658,-25.267007],[-57.640967,-25.26723],[-57.641119,-25.267399],[-57.641398,-25.267518],[-57.64154,-25.267647],[-57.64198,-25.267909],[-57.642305,-25.268179],[-57.642501,-25.2682],[-57.64268,-25.268344],[-57.643167,-25.268631],[-57.643564,-25.268953],[-57.643827,-25.269049],[-57.643921,-25.26919],[-57.64405,-25.269219],[-57.644228,-25.269316],[-57.644233,-25.269356],[-57.644024,-25.269321],[-57.643991,-25.269361],[-57.644216,-25.269409],[-57.644586,-25.269659],[-57.644468,-25.26979],[-57.644578,-25.269877],[-57.644627,-25.270018],[-57.644642,-25.270206],[-57.644686,-25.270241],[-57.644839,-25.270229],[-57.644927,-25.270192],[-57.645107,-25.270235],[-57.645137,-25.270256],[-57.645084,-25.270336],[-57.645112,-25.270379],[-57.645248,-25.270554],[-57.645378,-25.270638],[-57.645676,-25.270595],[-57.645856,-25.270612],[-57.645967,-25.270666],[-57.646226,-25.270695],[-57.646354,-25.270785],[-57.646362,-25.271096],[-57.646306,-25.271186],[-57.646032,-25.271271],[-57.645804,-25.27123],[-57.645572,-25.271255],[-57.645333,-25.271167],[-57.645271,-25.271099],[-57.645071,-25.27106],[-57.644981,-25.270987],[-57.64488,-25.270967],[-57.644737,-25.27088],[-57.644562,-25.270941],[-57.644102,-25.270841],[-57.643586,-25.27069],[-57.643176,-25.270489],[-57.643134,-25.270523],[-57.643129,-25.270581],[-57.643069,-25.270595],[-57.643001,-25.270553],[-57.642975,-25.270433],[-57.642757,-25.270338],[-57.642445,-25.270292],[-57.642253,-25.270207],[-57.641786,-25.270078],[-57.641408,-25.270107],[-57.641343,-25.270039],[-57.641154,-25.269995],[-57.641104,-25.270372],[-57.641032,-25.270483],[-57.640889,-25.270555],[-57.640767,-25.270513],[-57.640591,-25.270329],[-57.640531,-25.270102],[-57.640557,-25.269948],[-57.640502,-25.269883],[-57.640463,-25.269731],[-57.640365,-25.269679],[-57.640066,-25.269754],[-57.63967,-25.269798],[-57.639625,-25.269907],[-57.639617,-25.270176],[-57.639547,-25.270266],[-57.639155,-25.270295],[-57.63896,-25.270342],[-57.638777,-25.270315],[-57.638691,-25.270229],[-57.638604,-25.270189],[-57.63851,-25.270079],[-57.63825,-25.270016],[-57.637992,-25.269715],[-57.637648,-25.269202],[-57.637256,-25.268447],[-57.637074,-25.268213],[-57.636716,-25.267862],[-57.636524,-25.267758],[-57.636413,-25.267526],[-57.63637,-25.267517],[-57.636315,-25.267608],[-57.636284,-25.267587],[-57.636269,-25.26748],[-57.636297,-25.267416],[-57.636256,-25.26735],[-57.636069,-25.267162],[-57.635899,-25.267103],[-57.635642,-25.267137],[-57.635467,-25.267395],[-57.635185,-25.267498],[-57.635139,-25.267558],[-57.63514,-25.267659],[-57.635337,-25.268039],[-57.635541,-25.268292],[-57.635528,-25.268383],[-57.635494,-25.268418],[-57.635376,-25.268442],[-57.635232,-25.268358],[-57.635198,-25.268447],[-57.635217,-25.268533],[-57.635153,-25.268645],[-57.63523,-25.268794],[-57.63522,-25.268864],[-57.635056,-25.268888],[-57.634904,-25.269027],[-57.634799,-25.26902],[-57.634734,-25.26889],[-57.634522,-25.268819],[-57.634425,-25.26867],[-57.634248,-25.268642],[-57.634135,-25.26859],[-57.633983,-25.268472],[-57.633942,-25.268396],[-57.633536,-25.26819],[-57.633414,-25.268078],[-57.633267,-25.268062],[-57.633168,-25.268013],[-57.633044,-25.268029],[-57.632933,-25.267923],[-57.632796,-25.267852],[-57.63275,-25.267759],[-57.632869,-25.267674],[-57.63288,-25.267631],[-57.632843,-25.267544],[-57.632639,-25.267321],[-57.632622,-25.26719],[-57.632386,-25.267202],[-57.632326,-25.267148],[-57.632212,-25.267133],[-57.631979,-25.266955],[-57.631899,-25.266841],[-57.631916,-25.266754],[-57.632161,-25.266721],[-57.632177,-25.26663],[-57.631946,-25.266608],[-57.631845,-25.266555],[-57.631737,-25.266407],[-57.631772,-25.266357],[-57.631869,-25.26635],[-57.631827,-25.266262],[-57.631696,-25.266244],[-57.631593,-25.266165],[-57.631516,-25.266188],[-57.631467,-25.266146],[-57.631538,-25.266117],[-57.631527,-25.266073],[-57.631384,-25.266077],[-57.631343,-25.266041],[-57.631306,-25.265947],[-57.631317,-25.265894],[-57.631399,-25.265842],[-57.631432,-25.265767],[-57.631522,-25.265696],[-57.631562,-25.265704],[-57.631647,-25.265827],[-57.63163,-25.265719],[-57.631558,-25.26563],[-57.631468,-25.265617],[-57.631458,-25.265567],[-57.631287,-25.265486],[-57.631242,-25.265425],[-57.63119,-25.265311],[-57.631263,-25.265214],[-57.630981,-25.265406],[-57.63084,-25.26545],[-57.630761,-25.265535],[-57.630819,-25.265684],[-57.630756,-25.265786],[-57.630736,-25.265988],[-57.630689,-25.26604],[-57.63071,-25.266074],[-57.630664,-25.266276],[-57.630724,-25.266378],[-57.63074,-25.266497],[-57.63062,-25.266599],[-57.630658,-25.266675],[-57.630716,-25.266714],[-57.630476,-25.26688],[-57.630149,-25.266895],[-57.630057,-25.266956],[-57.62967,-25.266911],[-57.629539,-25.266811],[-57.629445,-25.26676],[-57.62939,-25.266764],[-57.629275,-25.266684],[-57.629258,-25.266637],[-57.629291,-25.266598],[-57.62926,-25.266549],[-57.629361,-25.26615],[-57.629379,-25.266128],[-57.629454,-25.266176],[-57.629434,-25.266073],[-57.629493,-25.266016],[-57.62943,-25.265984],[-57.629366,-25.265892],[-57.629248,-25.265863],[-57.629032,-25.265862],[-57.628872,-25.26579],[-57.628826,-25.265721],[-57.628658,-25.265922],[-57.628756,-25.265949],[-57.628668,-25.26612],[-57.628566,-25.266126],[-57.628264,-25.266282],[-57.628161,-25.266275],[-57.628062,-25.266461],[-57.628074,-25.266654],[-57.628118,-25.266784],[-57.628118,-25.266963],[-57.628067,-25.266996],[-57.628007,-25.266937],[-57.62796,-25.26697],[-57.627971,-25.267095],[-57.627829,-25.267484],[-57.627879,-25.267816],[-57.6278,-25.267995],[-57.627956,-25.268202],[-57.627989,-25.268325],[-57.627881,-25.268427],[-57.627704,-25.268515],[-57.627622,-25.268526],[-57.627563,-25.268461],[-57.627505,-25.268269],[-57.627512,-25.268091],[-57.627616,-25.267917],[-57.627681,-25.267688],[-57.6276,-25.267533],[-57.627602,-25.267476],[-57.627709,-25.267406],[-57.627701,-25.267204],[-57.627805,-25.266946],[-57.627825,-25.266807],[-57.627927,-25.266691],[-57.627928,-25.266614],[-57.62789,-25.266577],[-57.627858,-25.266409],[-57.627988,-25.266245],[-57.628048,-25.266067],[-57.628127,-25.266063],[-57.628128,-25.265835],[-57.628219,-25.265763],[-57.628239,-25.265594],[-57.628294,-25.265511],[-57.628291,-25.265448],[-57.62834,-25.265429],[-57.628325,-25.265379],[-57.628365,-25.265322],[-57.628304,-25.265284],[-57.628286,-25.265204],[-57.628218,-25.265142],[-57.628209,-25.265037],[-57.628255,-25.264968],[-57.628203,-25.264899],[-57.628245,-25.264862],[-57.628321,-25.264879],[-57.628365,-25.264821],[-57.628352,-25.264739],[-57.628387,-25.26471],[-57.628205,-25.264606],[-57.628181,-25.264547],[-57.628192,-25.264361],[-57.628212,-25.264256],[-57.628259,-25.264211],[-57.628139,-25.264111],[-57.628091,-25.264026],[-57.628219,-25.263543],[-57.628151,-25.263321],[-57.6282,-25.263253],[-57.628186,-25.263057],[-57.628254,-25.262973],[-57.628262,-25.26284],[-57.628343,-25.262604],[-57.628408,-25.262533],[-57.6285,-25.262499],[-57.628397,-25.26239],[-57.62842,-25.262251],[-57.628395,-25.26221],[-57.628473,-25.2621],[-57.628463,-25.261968],[-57.628554,-25.261795],[-57.628574,-25.26163],[-57.628635,-25.261609],[-57.628747,-25.261652],[-57.628772,-25.261635],[-57.628856,-25.26101],[-57.628823,-25.260813],[-57.628965,-25.260606],[-57.628986,-25.26046],[-57.628958,-25.260425],[-57.628728,-25.260369],[-57.628437,-25.260497],[-57.628396,-25.260563],[-57.628401,-25.260646],[-57.628305,-25.26094],[-57.628284,-25.261178],[-57.628247,-25.261194],[-57.628195,-25.261162],[-57.628155,-25.261013],[-57.628198,-25.26062],[-57.628164,-25.26062],[-57.628079,-25.260747],[-57.627972,-25.260665],[-57.627887,-25.260651],[-57.627797,-25.26042],[-57.627822,-25.260263],[-57.627737,-25.260214],[-57.627654,-25.260334],[-57.627638,-25.260435],[-57.62759,-25.260504],[-57.627594,-25.260804],[-57.627512,-25.260858],[-57.627485,-25.260959],[-57.627492,-25.261069],[-57.627624,-25.261128],[-57.627635,-25.261178],[-57.627601,-25.261221],[-57.627418,-25.261281],[-57.627452,-25.261381],[-57.627264,-25.261555],[-57.627199,-25.261638],[-57.627166,-25.261746],[-57.62705,-25.261818],[-57.626911,-25.262049],[-57.626875,-25.262281],[-57.626902,-25.262338],[-57.62685,-25.262369],[-57.626796,-25.262556],[-57.626658,-25.26272],[-57.626638,-25.262803],[-57.626663,-25.262857],[-57.626616,-25.263026],[-57.626498,-25.263248],[-57.626447,-25.263274],[-57.626422,-25.263207],[-57.626371,-25.263224],[-57.626446,-25.263313],[-57.626365,-25.263452],[-57.626244,-25.263489],[-57.62629,-25.263552],[-57.626237,-25.263685],[-57.626104,-25.263777],[-57.625988,-25.263925],[-57.62597,-25.263999],[-57.625885,-25.264076],[-57.62578,-25.26433],[-57.625468,-25.264497],[-57.625452,-25.264574],[-57.625488,-25.264738],[-57.625452,-25.264959],[-57.625313,-25.26507],[-57.624975,-25.265218],[-57.624894,-25.265309],[-57.624741,-25.265323],[-57.624414,-25.265186],[-57.624228,-25.265181],[-57.624223,-25.265263],[-57.624099,-25.26528],[-57.624044,-25.265195],[-57.623938,-25.265123],[-57.62395,-25.264853],[-57.624067,-25.26471],[-57.624108,-25.264541],[-57.624255,-25.264429],[-57.624398,-25.264111],[-57.624429,-25.26397],[-57.624497,-25.263888],[-57.624485,-25.263798],[-57.624575,-25.263725],[-57.624623,-25.263627],[-57.624581,-25.263491],[-57.62466,-25.263263],[-57.624637,-25.26299],[-57.624706,-25.262891],[-57.624758,-25.262696],[-57.624814,-25.262679],[-57.624891,-25.262553],[-57.624891,-25.262338],[-57.62494,-25.262212],[-57.624923,-25.262104],[-57.625047,-25.262063],[-57.625105,-25.261989],[-57.625211,-25.261928],[-57.6251,-25.261842],[-57.62506,-25.261743],[-57.625129,-25.261626],[-57.625109,-25.261533],[-57.625225,-25.261383],[-57.625324,-25.261314],[-57.625458,-25.261257],[-57.625571,-25.261268],[-57.625661,-25.261237],[-57.625747,-25.261088],[-57.625677,-25.260875],[-57.625771,-25.260467],[-57.625742,-25.260243],[-57.625647,-25.260114],[-57.625632,-25.259979],[-57.62557,-25.259822],[-57.625493,-25.259824],[-57.625388,-25.259638],[-57.625397,-25.259507],[-57.625309,-25.259443],[-57.625242,-25.259475],[-57.625082,-25.259675],[-57.625294,-25.259882],[-57.625455,-25.260291],[-57.625343,-25.260373],[-57.625309,-25.260588],[-57.625203,-25.260612],[-57.625175,-25.260724],[-57.625201,-25.260811],[-57.624958,-25.261006],[-57.62495,-25.261091],[-57.624726,-25.261277],[-57.624579,-25.261186],[-57.624547,-25.261132],[-57.624509,-25.260927],[-57.624553,-25.260796],[-57.624552,-25.260593],[-57.624869,-25.260274],[-57.624799,-25.260199],[-57.624792,-25.260091],[-57.624906,-25.259778],[-57.624918,-25.259582],[-57.625031,-25.259451],[-57.625099,-25.259337],[-57.6251,-25.259278],[-57.62515,-25.259229],[-57.625105,-25.25917],[-57.624949,-25.259204],[-57.624881,-25.25913],[-57.624865,-25.258883],[-57.624807,-25.258829],[-57.624793,-25.258758],[-57.624873,-25.258411],[-57.624833,-25.258243],[-57.624969,-25.258085],[-57.624987,-25.258],[-57.624931,-25.257915],[-57.624792,-25.257876],[-57.624719,-25.257788],[-57.624651,-25.257988],[-57.624531,-25.258112],[-57.624452,-25.258272],[-57.62442,-25.258628],[-57.624385,-25.258725],[-57.624431,-25.25882],[-57.624374,-25.258893],[-57.624344,-25.259057],[-57.62435,-25.259111],[-57.624508,-25.25923],[-57.624549,-25.259363],[-57.624529,-25.259501],[-57.624559,-25.259576],[-57.624442,-25.259695],[-57.624374,-25.25984],[-57.624398,-25.259995],[-57.624228,-25.260102],[-57.624196,-25.260159],[-57.624301,-25.260313],[-57.624333,-25.260421],[-57.624277,-25.260501],[-57.624312,-25.260654],[-57.624236,-25.260748],[-57.62424,-25.260919],[-57.624311,-25.26098],[-57.624338,-25.261088],[-57.624485,-25.26125],[-57.624519,-25.261377],[-57.624502,-25.261614],[-57.624434,-25.261713],[-57.624529,-25.261769],[-57.624355,-25.262061],[-57.624334,-25.262235],[-57.624195,-25.262294],[-57.624152,-25.262343],[-57.6241,-25.262541],[-57.623891,-25.262895],[-57.623901,-25.262964],[-57.624017,-25.263006],[-57.624064,-25.263227],[-57.624022,-25.263293],[-57.624031,-25.263367],[-57.623954,-25.263426],[-57.623897,-25.263549],[-57.623702,-25.26362],[-57.623688,-25.263681],[-57.623548,-25.263751],[-57.623488,-25.263714],[-57.623563,-25.263512],[-57.623505,-25.263458],[-57.623306,-25.263413],[-57.623289,-25.263337],[-57.623172,-25.26337],[-57.623078,-25.263355],[-57.623013,-25.263444],[-57.622932,-25.263493],[-57.622798,-25.263426],[-57.62249,-25.263574],[-57.622332,-25.2636],[-57.62226,-25.263563],[-57.622203,-25.26349],[-57.622173,-25.263628],[-57.622108,-25.263651],[-57.622071,-25.263586],[-57.62209,-25.263428],[-57.622147,-25.263314],[-57.622127,-25.263161],[-57.622075,-25.262995],[-57.621968,-25.262927],[-57.621934,-25.262856],[-57.622001,-25.262756],[-57.622044,-25.26278],[-57.622055,-25.262832],[-57.622134,-25.262785],[-57.622002,-25.262717],[-57.621978,-25.262534],[-57.621898,-25.262457],[-57.621937,-25.26241],[-57.621992,-25.262398],[-57.622059,-25.262126],[-57.621959,-25.262072],[-57.621951,-25.261986],[-57.621837,-25.261962],[-57.621741,-25.261847],[-57.621299,-25.26177],[-57.621256,-25.261873],[-57.621318,-25.262137],[-57.621255,-25.262207],[-57.621306,-25.262271],[-57.62131,-25.262363],[-57.621214,-25.262548],[-57.621239,-25.262613],[-57.621293,-25.262604],[-57.621312,-25.262779],[-57.621146,-25.263021],[-57.621021,-25.263113],[-57.621034,-25.263283],[-57.62094,-25.263332],[-57.620891,-25.263491],[-57.62097,-25.263702],[-57.620946,-25.263851],[-57.620741,-25.264085],[-57.620541,-25.264158],[-57.620364,-25.264386],[-57.620268,-25.26445],[-57.62021,-25.264454],[-57.62015,-25.264568],[-57.620143,-25.264699],[-57.620028,-25.264832],[-57.619889,-25.265126],[-57.619865,-25.265307],[-57.619761,-25.265424],[-57.61963,-25.265502],[-57.619478,-25.265803],[-57.619367,-25.265965],[-57.619296,-25.266017],[-57.619302,-25.266111],[-57.619253,-25.266165],[-57.619241,-25.266271],[-57.619171,-25.26639],[-57.619241,-25.266459],[-57.619219,-25.266531],[-57.619117,-25.266667],[-57.619103,-25.26673],[-57.618885,-25.26696],[-57.618743,-25.267259],[-57.618519,-25.267498],[-57.618527,-25.267582],[-57.618459,-25.267652],[-57.618396,-25.267658],[-57.618304,-25.267559],[-57.618221,-25.267387],[-57.618244,-25.267335],[-57.618368,-25.267296],[-57.618384,-25.267252],[-57.61839,-25.26673],[-57.618434,-25.266622],[-57.618431,-25.266471],[-57.618568,-25.266321],[-57.618562,-25.266071],[-57.618327,-25.265932],[-57.618078,-25.265638],[-57.618215,-25.265555],[-57.618174,-25.265459],[-57.618335,-25.265334],[-57.61845,-25.265052],[-57.618544,-25.264967],[-57.618597,-25.264815],[-57.618729,-25.264657],[-57.618635,-25.264611],[-57.61861,-25.264436],[-57.618953,-25.264131],[-57.619654,-25.263968],[-57.619806,-25.263822],[-57.619862,-25.263426],[-57.619979,-25.263337],[-57.61997,-25.26324],[-57.620087,-25.263125],[-57.620067,-25.263054],[-57.620195,-25.262887],[-57.620412,-25.262715],[-57.62055,-25.262487],[-57.620693,-25.262422],[-57.620676,-25.262319],[-57.620738,-25.262219],[-57.620904,-25.262066],[-57.620971,-25.261859],[-57.621016,-25.261817],[-57.620991,-25.261728],[-57.621024,-25.261475],[-57.621113,-25.261402],[-57.621275,-25.261414],[-57.621293,-25.261365],[-57.621305,-25.261279],[-57.621243,-25.261154],[-57.621319,-25.261022],[-57.621351,-25.260851],[-57.62125,-25.260771],[-57.621253,-25.260631],[-57.621225,-25.260574],[-57.621275,-25.260432],[-57.621326,-25.260398],[-57.621339,-25.260237],[-57.621259,-25.26018],[-57.621113,-25.260195],[-57.620829,-25.26013],[-57.620731,-25.260139],[-57.620696,-25.26011],[-57.620614,-25.25996],[-57.620606,-25.259915],[-57.620655,-25.259828],[-57.620591,-25.259825],[-57.620623,-25.259693],[-57.620541,-25.259423],[-57.620529,-25.25921],[-57.62045,-25.258873],[-57.620545,-25.258373],[-57.620611,-25.258324],[-57.620857,-25.258366],[-57.620899,-25.258348],[-57.620937,-25.258138],[-57.620917,-25.257879],[-57.620862,-25.257791],[-57.620801,-25.257845],[-57.620745,-25.258028],[-57.620638,-25.25805],[-57.620575,-25.258007],[-57.620512,-25.2579],[-57.620477,-25.257897],[-57.620349,-25.258059],[-57.620217,-25.2581],[-57.620147,-25.258174],[-57.620147,-25.258336],[-57.620108,-25.258419],[-57.620112,-25.258551],[-57.620044,-25.258785],[-57.620025,-25.259014],[-57.620041,-25.259212],[-57.620079,-25.259271],[-57.620053,-25.259509],[-57.620105,-25.259555],[-57.619915,-25.259926],[-57.619935,-25.259966],[-57.62004,-25.259986],[-57.620097,-25.26009],[-57.620027,-25.260117],[-57.619994,-25.260059],[-57.619941,-25.260245],[-57.619565,-25.260505],[-57.619553,-25.260586],[-57.619373,-25.260855],[-57.619321,-25.260998],[-57.61933,-25.261096],[-57.61924,-25.261193],[-57.619275,-25.261359],[-57.619215,-25.261576],[-57.619167,-25.261637],[-57.619141,-25.261816],[-57.6191,-25.261852],[-57.619066,-25.261957],[-57.618977,-25.262037],[-57.618995,-25.262268],[-57.619103,-25.262343],[-57.619002,-25.262365],[-57.618998,-25.262492],[-57.618912,-25.262594],[-57.618841,-25.262862],[-57.618672,-25.263079],[-57.618672,-25.263162],[-57.618577,-25.263219],[-57.618666,-25.263264],[-57.618675,-25.263328],[-57.61862,-25.263321],[-57.618528,-25.263428],[-57.618503,-25.263557],[-57.618372,-25.263694],[-57.618274,-25.263921],[-57.61827,-25.264029],[-57.618,-25.264242],[-57.617852,-25.264396],[-57.617798,-25.264512],[-57.617684,-25.264565],[-57.61772,-25.264594],[-57.617703,-25.264685],[-57.617582,-25.26481],[-57.617297,-25.264948],[-57.617223,-25.26504],[-57.617131,-25.265283],[-57.616974,-25.265428],[-57.616729,-25.265971],[-57.616745,-25.266023],[-57.616702,-25.266149],[-57.616721,-25.266225],[-57.616651,-25.266319],[-57.616419,-25.266853],[-57.615659,-25.268229],[-57.615564,-25.268506],[-57.615262,-25.268908],[-57.615183,-25.26891],[-57.61501,-25.268824],[-57.614533,-25.268793],[-57.614438,-25.268834],[-57.614309,-25.269024],[-57.614138,-25.269184],[-57.614218,-25.269494],[-57.614289,-25.269596],[-57.614363,-25.269596],[-57.614417,-25.269681],[-57.61437,-25.26995],[-57.614267,-25.270112],[-57.614281,-25.270197],[-57.614412,-25.270447],[-57.614651,-25.270744],[-57.614803,-25.270864],[-57.614841,-25.271064],[-57.614789,-25.271285],[-57.614623,-25.271393],[-57.61464,-25.271501],[-57.61459,-25.271552],[-57.614491,-25.271553],[-57.614336,-25.271421],[-57.614247,-25.271261],[-57.614079,-25.271163],[-57.613932,-25.271119],[-57.613786,-25.271218],[-57.613655,-25.271364],[-57.613443,-25.271433],[-57.613048,-25.271813]]]}},{"type":"Feature","properties":{"numero":13,"nombre":"SANTA MARIA DE LA ASUNCION"},"geometry":{"type":"Polygon","coordinates":[[[-57.656589,-25.326937],[-57.657417,-25.32652],[-57.660134,-25.325422],[-57.660849,-25.324925],[-57.6615,-25.324585],[-57.662108,-25.324227],[-57.662846,-25.323867],[-57.66341,-25.323528],[-57.663908,-25.32313],[-57.664624,-25.322712],[-57.665162,-25.322329],[-57.665662,-25.321819],[-57.666452,-25.321212],[-57.672324,-25.324866],[-57.671209,-25.328693],[-57.668265,-25.336353],[-57.6677,-25.340713],[-57.667557,-25.345339],[-57.664776,-25.352118],[-57.661716,-25.356119],[-57.660051,-25.358234],[-57.651261,-25.366017],[-57.648588,-25.368463],[-57.648281,-25.368884],[-57.648063,-25.369246],[-57.647652,-25.370609],[-57.647544,-25.371109],[-57.645939,-25.375921],[-57.642296,-25.382598],[-57.635654,-25.368498],[-57.635273,-25.367606],[-57.636056,-25.367261],[-57.6374,-25.36605],[-57.637918,-25.365728],[-57.638626,-25.365346],[-57.638174,-25.364585],[-57.638037,-25.363724],[-57.637732,-25.362235],[-57.637344,-25.362304],[-57.636821,-25.362267],[-57.636751,-25.361727],[-57.636589,-25.358486],[-57.636711,-25.355098],[-57.635729,-25.355106],[-57.636346,-25.353572],[-57.636407,-25.353002],[-57.635972,-25.351628],[-57.635322,-25.349392],[-57.636442,-25.349102],[-57.634529,-25.342663],[-57.634003,-25.342609],[-57.633911,-25.341175],[-57.633486,-25.341112],[-57.633312,-25.339639],[-57.632556,-25.339713],[-57.632454,-25.339124],[-57.632472,-25.339034],[-57.632398,-25.338365],[-57.632869,-25.338073],[-57.632917,-25.338149],[-57.633066,-25.338207],[-57.63337,-25.338176],[-57.633419,-25.338198],[-57.63375,-25.338199],[-57.634052,-25.3381],[-57.633942,-25.337951],[-57.633386,-25.337851],[-57.633088,-25.337679],[-57.632973,-25.337574],[-57.632847,-25.337228],[-57.632817,-25.336508],[-57.632722,-25.336374],[-57.63241,-25.336326],[-57.63213,-25.336223],[-57.631749,-25.335815],[-57.631459,-25.335678],[-57.631273,-25.335627],[-57.631026,-25.335465],[-57.630713,-25.335224],[-57.630459,-25.334947],[-57.630313,-25.334858],[-57.630057,-25.334769],[-57.629832,-25.334453],[-57.629664,-25.334286],[-57.629373,-25.33419],[-57.629141,-25.334032],[-57.628863,-25.333725],[-57.62822,-25.333404],[-57.627993,-25.333187],[-57.627946,-25.333022],[-57.627747,-25.333007],[-57.627601,-25.333036],[-57.627452,-25.333179],[-57.627343,-25.333336],[-57.627175,-25.333315],[-57.627135,-25.333256],[-57.627076,-25.33292],[-57.626985,-25.332686],[-57.626836,-25.332532],[-57.626746,-25.332271],[-57.626189,-25.33172],[-57.625879,-25.331567],[-57.625708,-25.331396],[-57.62569,-25.33129],[-57.625625,-25.331211],[-57.625591,-25.331056],[-57.625481,-25.330814],[-57.624962,-25.330331],[-57.624868,-25.3302],[-57.624864,-25.329896],[-57.624713,-25.329614],[-57.624673,-25.329472],[-57.624593,-25.329383],[-57.623945,-25.328935],[-57.623632,-25.328658],[-57.623418,-25.328425],[-57.623354,-25.328132],[-57.623235,-25.327983],[-57.623074,-25.32793],[-57.622313,-25.327944],[-57.622061,-25.327811],[-57.621822,-25.327815],[-57.621671,-25.327771],[-57.621448,-25.327669],[-57.621397,-25.327618],[-57.621145,-25.327166],[-57.621125,-25.326973],[-57.621218,-25.326522],[-57.621097,-25.326231],[-57.621029,-25.325904],[-57.620786,-25.325782],[-57.620032,-25.324956],[-57.621591,-25.323518],[-57.620531,-25.321833],[-57.619792,-25.320505],[-57.619258,-25.319733],[-57.619693,-25.319247],[-57.618374,-25.31785],[-57.618091,-25.3176],[-57.616341,-25.314181],[-57.615724,-25.313439],[-57.614613,-25.312552],[-57.613511,-25.313672],[-57.612232,-25.314913],[-57.612676,-25.315872],[-57.611142,-25.316742],[-57.611392,-25.317331],[-57.607877,-25.318295],[-57.608166,-25.318977],[-57.608291,-25.319638],[-57.609307,-25.321548],[-57.609426,-25.322222],[-57.609328,-25.322217],[-57.607914,-25.320821],[-57.604455,-25.323724],[-57.605495,-25.324787],[-57.605016,-25.325156],[-57.604993,-25.325132],[-57.604562,-25.325414],[-57.603222,-25.326498],[-57.602342,-25.325607],[-57.599993,-25.327354],[-57.598989,-25.327985],[-57.597458,-25.329121],[-57.596687,-25.328263],[-57.59637,-25.327977],[-57.595718,-25.328479],[-57.596361,-25.329133],[-57.595612,-25.329889],[-57.596185,-25.330348],[-57.595694,-25.33088],[-57.595185,-25.331563],[-57.594364,-25.332815],[-57.593433,-25.332326],[-57.592447,-25.333811],[-57.59187,-25.335723],[-57.59157,-25.335687],[-57.589839,-25.335169],[-57.588785,-25.336879],[-57.588163,-25.338032],[-57.590481,-25.338836],[-57.589503,-25.340378],[-57.588518,-25.339975],[-57.588404,-25.340224],[-57.587937,-25.340529],[-57.586206,-25.34139],[-57.584929,-25.339324],[-57.585045,-25.339217],[-57.586626,-25.33721],[-57.588115,-25.335818],[-57.589932,-25.334252],[-57.590227,-25.333944],[-57.592916,-25.330275],[-57.593656,-25.329312],[-57.594201,-25.328711],[-57.595018,-25.327919],[-57.595767,-25.327355],[-57.597365,-25.326193],[-57.598386,-25.325501],[-57.60091,-25.323944],[-57.601632,-25.323452],[-57.602324,-25.322926],[-57.603232,-25.322114],[-57.60436,-25.321051],[-57.606132,-25.319034],[-57.606827,-25.318148],[-57.607001,-25.317838],[-57.607481,-25.317116],[-57.609204,-25.315451],[-57.611398,-25.313144],[-57.612044,-25.312455],[-57.614644,-25.309519],[-57.61572,-25.308794],[-57.619243,-25.315726],[-57.620501,-25.317996],[-57.622237,-25.321001],[-57.624497,-25.324467],[-57.626949,-25.328037],[-57.630679,-25.313488],[-57.630786,-25.313595],[-57.631025,-25.313655],[-57.63113,-25.313718],[-57.631445,-25.313823],[-57.631832,-25.314114],[-57.632139,-25.314272],[-57.632466,-25.314312],[-57.632531,-25.314288],[-57.632599,-25.314234],[-57.632697,-25.314062],[-57.632771,-25.313766],[-57.632836,-25.313693],[-57.632911,-25.313673],[-57.633037,-25.313684],[-57.633191,-25.313756],[-57.633468,-25.313993],[-57.633584,-25.313958],[-57.63393,-25.31536],[-57.635844,-25.315009],[-57.636279,-25.316662],[-57.636805,-25.318958],[-57.640252,-25.320409],[-57.641132,-25.320701],[-57.641737,-25.320373],[-57.642114,-25.320332],[-57.642374,-25.320561],[-57.643124,-25.321095],[-57.64435,-25.32149],[-57.644579,-25.3217],[-57.645999,-25.322447],[-57.646266,-25.322457],[-57.646703,-25.322562],[-57.647208,-25.322622],[-57.647217,-25.322556],[-57.64771,-25.322639],[-57.648376,-25.32285],[-57.648719,-25.323045],[-57.656589,-25.326937]]]}}]}
