{"type":"FeatureCollection","name":"distrito","features":[{"type":"Feature","properties":{"clave":"14-12","nombre":"Maracaná"},"geometry":{"type":"Polygon","coordinates":[[[-55.961439,-24.368156],[-55.962305,-24.368916],[-55.962903,-24.368846],[-55.9631,-24.36836],[-55.964251,-24.367835],[-55.966051,-24.368764],[-55.96867,-24.372272],[-55.970005,-24.370861],[-55.97562,-24.373147],[-55.976977,-24.373097],[-55.978758,-24.374455],[-55.979564,-24.374549],[-55.980326,-24.376195],[-55.980557,-24.375561],[-55.981059,-24.375328],[-55.981402,-24.376853],[-55.982098,-24.376636],[-55.981701,-24.37582],[-55.982028,-24.375319],[-55.985186,-24.376036],[-55.986824,-24.379196],[-55.987994,-24.380209],[-55.988817,-24.380289],[-55.989659,-24.379999],[-55.99054,-24.378792],[-55.991122,-24.378648],[-55.991671,-24.378726],[-55.993132,-24.379726],[-55.993821,-24.380396],[-55.994217,-24.38136],[-55.994557,-24.381199],[-55.994659,-24.38049],[-55.995191,-24.380627],[-55.995588,-24.381428],[-55.99612,-24.381565],[-55.994855,-24.382325],[-55.994226,-24.382203],[-55.994412,-24.38318],[-55.996872,-24.384483],[-55.996606,-24.383327],[-55.996787,-24.382989],[-55.997563,-24.382831],[-55.997835,-24.383158],[-55.997743,-24.384607],[-55.998305,-24.384921],[-55.998303,-24.385231],[-55.997876,-24.386057],[-55.997328,-24.385994],[-55.997181,-24.386244],[-55.99732,-24.386984],[-55.998172,-24.387419],[-55.998566,-24.386682],[-55.998953,-24.386759],[-55.998423,-24.388382],[-55.999036,-24.388445],[-55.999846,-24.39021],[-56.000929,-24.390069],[-56.001156,-24.391889],[-56.000748,-24.392552],[-56.000721,-24.393897],[-56.001657,-24.393889],[-56.001538,-24.394657],[-56.002139,-24.394247],[-56.002364,-24.394426],[-56.001875,-24.395014],[-56.002175,-24.3958],[-56.002708,-24.395833],[-56.002667,-24.394812],[-56.002943,-24.394651],[-56.004516,-24.39583],[-56.005371,-24.395983],[-56.005927,-24.394981],[-56.006218,-24.394924],[-56.00689,-24.395816],[-56.006288,-24.396403],[-56.006532,-24.398224],[-56.006995,-24.398803],[-56.008463,-24.39905],[-56.008308,-24.398132],[-56.007521,-24.397668],[-56.008395,-24.397378],[-56.011221,-24.401419],[-56.01371,-24.401154],[-56.014577,-24.401795],[-56.014664,-24.401012],[-56.014198,-24.400713],[-56.013213,-24.400737],[-56.013158,-24.399509],[-56.013954,-24.398834],[-56.014104,-24.398303],[-56.016472,-24.396913],[-56.017844,-24.396878],[-56.019517,-24.397746],[-56.020195,-24.397706],[-56.020348,-24.396776],[-56.019866,-24.396477],[-56.019008,-24.396767],[-56.018848,-24.39653],[-56.019451,-24.395883],[-56.021518,-24.395822],[-56.024464,-24.394777],[-56.025687,-24.395332],[-56.026552,-24.396284],[-56.027549,-24.396807],[-56.028146,-24.396841],[-56.029158,-24.395398],[-56.030593,-24.395703],[-56.032215,-24.396763],[-56.03341,-24.398841],[-56.034776,-24.399722],[-56.03477,-24.400476],[-56.035172,-24.400775],[-56.035447,-24.400643],[-56.035504,-24.399505],[-56.037908,-24.399816],[-56.039559,-24.399309],[-56.040655,-24.399553],[-56.04123,-24.400399],[-56.039786,-24.401233],[-56.039515,-24.402991],[-56.039724,-24.40311],[-56.041378,-24.40216],[-56.04051,-24.401563],[-56.040417,-24.401074],[-56.041758,-24.400994],[-56.042087,-24.402371],[-56.04319,-24.401624],[-56.043486,-24.400901],[-56.044084,-24.400816],[-56.046855,-24.401691],[-56.047679,-24.401593],[-56.047915,-24.400323],[-56.051181,-24.401807],[-56.052925,-24.401818],[-56.055549,-24.4008],[-56.057106,-24.40167],[-56.057731,-24.403086],[-56.058916,-24.402433],[-56.061116,-24.403498],[-56.061468,-24.403229],[-56.061137,-24.402196],[-56.064488,-24.401386],[-56.065537,-24.401443],[-56.067956,-24.402459],[-56.070588,-24.402685],[-56.072722,-24.402438],[-56.074048,-24.401936],[-56.074173,-24.401326],[-56.073695,-24.400872],[-56.073796,-24.400493],[-56.076417,-24.399257],[-56.079766,-24.40178],[-56.079678,-24.403291],[-56.079103,-24.404229],[-56.079405,-24.404751],[-56.080475,-24.404968],[-56.080739,-24.404689],[-56.080385,-24.403796],[-56.080791,-24.402047],[-56.08112,-24.401929],[-56.081544,-24.402231],[-56.081012,-24.403229],[-56.081127,-24.403991],[-56.081398,-24.404333],[-56.082216,-24.404498],[-56.084369,-24.403069],[-56.087834,-24.400047],[-56.0887,-24.399772],[-56.091275,-24.400338],[-56.092871,-24.400358],[-56.093857,-24.401605],[-56.093926,-24.402566],[-56.094341,-24.402679],[-56.095056,-24.401982],[-56.095108,-24.400912],[-56.094807,-24.400229],[-56.093902,-24.399904],[-56.093981,-24.399454],[-56.096821,-24.399791],[-56.099926,-24.401211],[-56.100268,-24.400772],[-56.099007,-24.399854],[-56.099283,-24.399455],[-56.100519,-24.399322],[-56.103686,-24.399671],[-56.104988,-24.399519],[-56.107979,-24.398536],[-56.109804,-24.398546],[-56.110192,-24.397728],[-56.109543,-24.396813],[-56.112307,-24.39704],[-56.112465,-24.39637],[-56.111209,-24.396152],[-56.11119,-24.395742],[-56.113123,-24.394372],[-56.113521,-24.393793],[-56.115375,-24.392833],[-56.116013,-24.390635],[-56.118248,-24.389897],[-56.119973,-24.388586],[-56.121396,-24.386702],[-56.122594,-24.385698],[-56.122338,-24.383144],[-56.123073,-24.381206],[-56.123035,-24.378768],[-56.121131,-24.37644],[-56.118152,-24.375362],[-56.11808,-24.374775],[-56.118514,-24.373801],[-56.118332,-24.373618],[-56.117538,-24.373907],[-56.117209,-24.372928],[-56.117995,-24.371691],[-56.117007,-24.371378],[-56.11616,-24.37041],[-56.116408,-24.369825],[-56.11579,-24.368873],[-56.115929,-24.36858],[-56.117226,-24.368295],[-56.117198,-24.367974],[-56.116149,-24.36766],[-56.116167,-24.36734],[-56.118035,-24.365997],[-56.119201,-24.366911],[-56.119643,-24.366983],[-56.119889,-24.366663],[-56.119485,-24.365573],[-56.118008,-24.365424],[-56.117927,-24.363959],[-56.118511,-24.36318],[-56.11993,-24.362965],[-56.119239,-24.361496],[-56.119648,-24.359684],[-56.12032,-24.359367],[-56.120415,-24.358893],[-56.120098,-24.358389],[-56.120566,-24.356842],[-56.122021,-24.353571],[-56.125302,-24.350464],[-56.125433,-24.349125],[-56.125018,-24.347434],[-56.127754,-24.34604],[-56.127425,-24.345145],[-56.125093,-24.345341],[-56.124836,-24.342869],[-56.125143,-24.342606],[-56.128634,-24.342193],[-56.128622,-24.34176],[-56.128045,-24.341478],[-56.126704,-24.341456],[-56.12651,-24.340925],[-56.126786,-24.340633],[-56.128202,-24.340725],[-56.129119,-24.340256],[-56.129281,-24.341136],[-56.129508,-24.341277],[-56.130089,-24.340959],[-56.130171,-24.340136],[-56.129261,-24.339643],[-56.129301,-24.338233],[-56.128635,-24.337574],[-56.129201,-24.337214],[-56.12999,-24.337679],[-56.130493,-24.33764],[-56.130937,-24.337252],[-56.130579,-24.336231],[-56.130633,-24.335031],[-56.129881,-24.333548],[-56.128592,-24.332717],[-56.126867,-24.333321],[-56.126496,-24.331867],[-56.126777,-24.330878],[-56.126589,-24.329453],[-56.126849,-24.329218],[-56.128234,-24.329421],[-56.128439,-24.328306],[-56.129052,-24.327751],[-56.129914,-24.328691],[-56.130434,-24.328429],[-56.129225,-24.327068],[-56.127829,-24.326209],[-56.127217,-24.324419],[-56.126339,-24.323702],[-56.126951,-24.323203],[-56.128688,-24.323102],[-56.128724,-24.32232],[-56.128073,-24.321758],[-56.128234,-24.320545],[-56.127825,-24.320194],[-56.12692,-24.32104],[-56.126161,-24.320742],[-56.126155,-24.319347],[-56.125353,-24.318658],[-56.126257,-24.317854],[-56.126616,-24.316586],[-56.124871,-24.317846],[-56.124414,-24.317829],[-56.123007,-24.31644],[-56.123133,-24.315952],[-56.124095,-24.315581],[-56.124243,-24.314004],[-56.125644,-24.314013],[-56.124787,-24.312403],[-56.125138,-24.312195],[-56.126538,-24.312441],[-56.12588,-24.310581],[-56.12639,-24.309607],[-56.125979,-24.309521],[-56.125259,-24.310186],[-56.124847,-24.31024],[-56.124727,-24.30996],[-56.125283,-24.308902],[-56.126701,-24.308576],[-56.127333,-24.309668],[-56.128354,-24.30959],[-56.128391,-24.308711],[-56.12786,-24.308345],[-56.127803,-24.307773],[-56.129208,-24.307278],[-56.129522,-24.303651],[-56.127851,-24.303014],[-56.12758,-24.30251],[-56.128167,-24.301355],[-56.12768,-24.30131],[-56.126762,-24.301877],[-56.126493,-24.30122],[-56.128039,-24.299958],[-56.130849,-24.298816],[-56.132213,-24.297498],[-56.1322,-24.297191],[-56.131349,-24.296879],[-56.131427,-24.296656],[-56.136389,-24.294773],[-56.137359,-24.293159],[-56.139205,-24.292597],[-56.139636,-24.291902],[-56.13969,-24.290674],[-56.142611,-24.288793],[-56.143699,-24.287766],[-56.146374,-24.286232],[-56.147421,-24.284479],[-56.147895,-24.284161],[-56.148489,-24.28415],[-56.151751,-24.285843],[-56.153947,-24.285409],[-56.156246,-24.285366],[-56.15662,-24.284084],[-56.155973,-24.282852],[-56.155609,-24.282739],[-56.153716,-24.283384],[-56.153418,-24.282503],[-56.155779,-24.280046],[-56.156522,-24.278194],[-56.157795,-24.276778],[-56.157311,-24.276272],[-56.156543,-24.277301],[-56.155887,-24.277409],[-56.156033,-24.273865],[-56.157738,-24.273777],[-56.157924,-24.273373],[-56.157563,-24.272687],[-56.157629,-24.271934],[-56.158393,-24.27145],[-56.160406,-24.271014],[-56.160368,-24.269744],[-56.161503,-24.268578],[-56.161644,-24.267964],[-56.162448,-24.26829],[-56.162795,-24.26885],[-56.163114,-24.268908],[-56.163331,-24.268392],[-56.163585,-24.264416],[-56.161996,-24.260639],[-56.163419,-24.259503],[-56.164472,-24.259132],[-56.164857,-24.258534],[-56.163022,-24.257351],[-56.164037,-24.255878],[-56.163772,-24.254453],[-56.163229,-24.253626],[-56.164331,-24.252809],[-56.16429,-24.252055],[-56.165507,-24.252187],[-56.167551,-24.251584],[-56.167523,-24.251124],[-56.167099,-24.2508],[-56.166033,-24.250822],[-56.165299,-24.251363],[-56.164813,-24.25122],[-56.166655,-24.248858],[-56.167215,-24.247033],[-56.169027,-24.246945],[-56.169516,-24.246682],[-56.1681,-24.244414],[-56.169246,-24.243694],[-56.170096,-24.24395],[-56.170624,-24.244749],[-56.171772,-24.243736],[-56.168921,-24.242157],[-56.170238,-24.240922],[-56.169226,-24.239731],[-56.169355,-24.238531],[-56.170363,-24.238118],[-56.170268,-24.236289],[-56.170484,-24.235816],[-56.171814,-24.234874],[-56.170931,-24.232664],[-56.172399,-24.2315],[-56.172524,-24.23104],[-56.171812,-24.230492],[-56.17071,-24.23149],[-56.16886,-24.23042],[-56.168677,-24.230558],[-56.169466,-24.233158],[-56.170024,-24.233957],[-56.169534,-24.234415],[-56.169078,-24.234412],[-56.168367,-24.233697],[-56.168151,-24.231839],[-56.166602,-24.231245],[-56.166558,-24.231035],[-56.167872,-24.230233],[-56.167907,-24.229521],[-56.167026,-24.229307],[-56.166279,-24.229498],[-56.165794,-24.229133],[-56.166406,-24.228592],[-56.167046,-24.228526],[-56.167308,-24.228011],[-56.165911,-24.227515],[-56.165671,-24.226983],[-56.165554,-24.226284],[-56.166351,-24.225382],[-56.165591,-24.22535],[-56.164825,-24.226127],[-56.163315,-24.226565],[-56.162814,-24.226451],[-56.161954,-24.225246],[-56.161452,-24.225131],[-56.161395,-24.224629],[-56.163586,-24.224655],[-56.163788,-24.224084],[-56.161461,-24.223903],[-56.161343,-24.223289],[-56.162397,-24.222722],[-56.162555,-24.221816],[-56.161125,-24.221641],[-56.158022,-24.219139],[-56.157149,-24.217627],[-56.156633,-24.215098],[-56.156212,-24.214426],[-56.155406,-24.214282],[-56.155566,-24.213096],[-56.154357,-24.211862],[-56.154195,-24.210981],[-56.154719,-24.209965],[-56.15464,-24.208165],[-56.156022,-24.206316],[-56.155157,-24.205962],[-56.153645,-24.20675],[-56.153394,-24.205548],[-56.154504,-24.205749],[-56.154947,-24.205417],[-56.154342,-24.204813],[-56.154275,-24.203571],[-56.151597,-24.203514],[-56.150713,-24.201472],[-56.148863,-24.200456],[-56.148668,-24.199981],[-56.148977,-24.199382],[-56.150894,-24.199309],[-56.150989,-24.198821],[-56.150359,-24.197394],[-56.150627,-24.196056],[-56.151993,-24.19658],[-56.152559,-24.196067],[-56.151262,-24.194481],[-56.151045,-24.191867],[-56.150125,-24.190639],[-56.150437,-24.1902],[-56.151619,-24.19051],[-56.151896,-24.188926],[-56.153043,-24.18813],[-56.152847,-24.187112],[-56.153439,-24.186332],[-56.152933,-24.185399],[-56.151649,-24.184414],[-56.151472,-24.183728],[-56.151869,-24.183417],[-56.152603,-24.183744],[-56.153052,-24.183599],[-56.153571,-24.182575],[-56.153433,-24.180842],[-56.1545,-24.180789],[-56.154804,-24.179969],[-56.154445,-24.179399],[-56.151195,-24.178794],[-56.151199,-24.178275],[-56.151809,-24.177917],[-56.153375,-24.178317],[-56.154316,-24.177979],[-56.154976,-24.178081],[-56.155085,-24.17769],[-56.154793,-24.17671],[-56.153996,-24.176255],[-56.153186,-24.176241],[-56.152903,-24.175466],[-56.15344,-24.174892],[-56.154498,-24.174555],[-56.15479,-24.174009],[-56.154678,-24.173225],[-56.153368,-24.172866],[-56.153061,-24.172453],[-56.153855,-24.171753],[-56.153374,-24.168707],[-56.154358,-24.16837],[-56.155007,-24.168598],[-56.155035,-24.169195],[-56.154476,-24.169848],[-56.154663,-24.170642],[-56.157525,-24.170002],[-56.15895,-24.170763],[-56.159847,-24.168987],[-56.160027,-24.167452],[-56.161038,-24.166283],[-56.16103,-24.165843],[-56.160595,-24.164108],[-56.160217,-24.163943],[-56.159077,-24.164331],[-56.158674,-24.164027],[-56.158632,-24.162728],[-56.160601,-24.163273],[-56.161234,-24.16309],[-56.161694,-24.162304],[-56.159073,-24.16106],[-56.15928,-24.160227],[-56.160522,-24.159862],[-56.160551,-24.15919],[-56.157952,-24.15841],[-56.158034,-24.157575],[-56.159072,-24.157256],[-56.159784,-24.156634],[-56.157634,-24.156808],[-56.157257,-24.156573],[-56.156486,-24.154644],[-56.157174,-24.153789],[-56.15703,-24.152582],[-56.157311,-24.152143],[-56.158094,-24.152217],[-56.15968,-24.1532],[-56.160136,-24.15311],[-56.160214,-24.152762],[-56.15936,-24.151969],[-56.159266,-24.150838],[-56.159526,-24.150526],[-56.160577,-24.150273],[-56.160641,-24.149331],[-56.159166,-24.150008],[-56.158383,-24.149881],[-56.158136,-24.149493],[-56.158341,-24.147509],[-56.157987,-24.145997],[-56.158468,-24.145649],[-56.160687,-24.145731],[-56.160828,-24.144608],[-56.160125,-24.143902],[-56.158561,-24.143103],[-56.158392,-24.142575],[-56.158415,-24.14196],[-56.160439,-24.139776],[-56.160563,-24.138354],[-56.160144,-24.137983],[-56.15886,-24.138398],[-56.158237,-24.137077],[-56.156884,-24.136227],[-56.15648,-24.136418],[-56.155647,-24.138011],[-56.154975,-24.138306],[-56.154095,-24.138266],[-56.153715,-24.137948],[-56.154083,-24.137177],[-56.155293,-24.136604],[-56.156007,-24.13573],[-56.155992,-24.13508],[-56.154271,-24.131962],[-56.153376,-24.131185],[-56.153,-24.130217],[-56.151477,-24.128979],[-56.150001,-24.1266],[-56.150003,-24.126266],[-56.150387,-24.126075],[-56.15184,-24.126276],[-56.152359,-24.125893],[-56.152266,-24.125471],[-56.150643,-24.1249],[-56.149007,-24.123521],[-56.149085,-24.123223],[-56.150238,-24.122562],[-56.150357,-24.121825],[-56.150036,-24.121296],[-56.148044,-24.121531],[-56.147645,-24.121072],[-56.147144,-24.118734],[-56.146418,-24.118572],[-56.14576,-24.119674],[-56.145148,-24.119706],[-56.144198,-24.118594],[-56.142503,-24.117391],[-56.142372,-24.116951],[-56.142737,-24.116742],[-56.144264,-24.117295],[-56.14486,-24.116947],[-56.14537,-24.115036],[-56.14516,-24.114894],[-56.144029,-24.115309],[-56.142771,-24.114547],[-56.141739,-24.114436],[-56.140255,-24.116008],[-56.139239,-24.116196],[-56.1389,-24.115456],[-56.139593,-24.114775],[-56.139907,-24.113723],[-56.138843,-24.112523],[-56.137713,-24.112745],[-56.136653,-24.113898],[-56.135426,-24.114277],[-56.129663,-24.109064],[-56.127445,-24.108928],[-56.123804,-24.109698],[-56.120171,-24.112294],[-56.119644,-24.110921],[-56.118463,-24.110124],[-56.115013,-24.111105],[-56.113464,-24.11092],[-56.113069,-24.109987],[-56.114139,-24.107341],[-56.113589,-24.106759],[-56.111098,-24.107306],[-56.110507,-24.107004],[-56.111358,-24.105674],[-56.111341,-24.105253],[-56.110959,-24.10518],[-56.10948,-24.106015],[-56.106297,-24.107015],[-56.105763,-24.106889],[-56.105387,-24.105921],[-56.103734,-24.104278],[-56.103909,-24.103822],[-56.104466,-24.103562],[-56.106398,-24.103521],[-56.107225,-24.102911],[-56.107729,-24.10193],[-56.107569,-24.100261],[-56.106577,-24.099851],[-56.105524,-24.099863],[-56.103661,-24.100958],[-56.102324,-24.100617],[-56.102445,-24.099686],[-56.103471,-24.098059],[-56.103478,-24.097023],[-56.102562,-24.096719],[-56.100895,-24.097026],[-56.100348,-24.095916],[-56.101117,-24.092654],[-56.101709,-24.092851],[-56.101852,-24.094221],[-56.103212,-24.093966],[-56.105392,-24.094207],[-56.106274,-24.093914],[-56.106128,-24.092877],[-56.104432,-24.091866],[-56.104651,-24.09062],[-56.104425,-24.090144],[-56.103796,-24.08979],[-56.101788,-24.089743],[-56.100957,-24.090879],[-56.10023,-24.090875],[-56.099696,-24.090644],[-56.099565,-24.090256],[-56.10076,-24.089017],[-56.100763,-24.088578],[-56.099557,-24.088746],[-56.097936,-24.087999],[-56.095945,-24.088163],[-56.095356,-24.087597],[-56.097338,-24.085906],[-56.097204,-24.083288],[-56.096651,-24.082986],[-56.096566,-24.084145],[-56.096276,-24.084582],[-56.095625,-24.084701],[-56.095057,-24.083837],[-56.093478,-24.082722],[-56.092864,-24.082894],[-56.092475,-24.083822],[-56.091918,-24.084117],[-56.090829,-24.0839],[-56.090316,-24.083528],[-56.090242,-24.083054],[-56.09145,-24.082639],[-56.092069,-24.081712],[-56.091316,-24.080039],[-56.089239,-24.078868],[-56.088686,-24.078689],[-56.088168,-24.078879],[-56.087935,-24.079352],[-56.088176,-24.080389],[-56.087712,-24.081089],[-56.08608,-24.081905],[-56.08505,-24.081495],[-56.083674,-24.078747],[-56.084021,-24.078275],[-56.08598,-24.077145],[-56.086486,-24.075919],[-56.08644,-24.074391],[-56.085542,-24.074157],[-56.084887,-24.074838],[-56.082798,-24.075493],[-56.079793,-24.075685],[-56.081136,-24.072515],[-56.078975,-24.072414],[-56.07827,-24.072076],[-56.077874,-24.071266],[-56.077921,-24.070037],[-56.078134,-24.069634],[-56.079161,-24.070483],[-56.080271,-24.070349],[-56.079075,-24.069131],[-56.079116,-24.068744],[-56.080617,-24.067524],[-56.0807,-24.066594],[-56.079711,-24.06578],[-56.079435,-24.064233],[-56.079074,-24.06395],[-56.078306,-24.064314],[-56.07835,-24.066158],[-56.077928,-24.066402],[-56.076289,-24.065514],[-56.076102,-24.065021],[-56.076354,-24.064513],[-56.077395,-24.063413],[-56.07738,-24.062728],[-56.076755,-24.061969],[-56.076313,-24.062177],[-56.075977,-24.063685],[-56.075419,-24.064226],[-56.074498,-24.064607],[-56.072838,-24.064],[-56.072631,-24.063595],[-56.073447,-24.061808],[-56.073432,-24.061211],[-56.0729,-24.060769],[-56.069979,-24.059978],[-56.067703,-24.057401],[-56.068051,-24.056911],[-56.068946,-24.057356],[-56.070611,-24.057208],[-56.071478,-24.056423],[-56.071309,-24.055982],[-56.07051,-24.055345],[-56.069612,-24.055182],[-56.066482,-24.056954],[-56.066022,-24.057127],[-56.065202,-24.056859],[-56.064689,-24.056381],[-56.064711,-24.055942],[-56.066343,-24.055039],[-56.06706,-24.053779],[-56.066833,-24.053461],[-56.065992,-24.053369],[-56.064611,-24.05394],[-56.063205,-24.055213],[-56.062669,-24.055403],[-56.061505,-24.055009],[-56.060428,-24.055846],[-56.059612,-24.054892],[-56.057686,-24.054196],[-56.057501,-24.053264],[-56.057064,-24.052875],[-56.056396,-24.052748],[-56.055685,-24.053253],[-56.054327,-24.053192],[-56.054003,-24.050467],[-56.053325,-24.049093],[-56.052848,-24.048897],[-56.05252,-24.049282],[-56.052589,-24.050353],[-56.052279,-24.050896],[-56.051799,-24.051051],[-56.05138,-24.050943],[-56.05123,-24.050521],[-56.051622,-24.049153],[-56.051475,-24.048327],[-56.051076,-24.048043],[-56.05056,-24.04797],[-56.048563,-24.049029],[-56.048067,-24.048973],[-56.047839,-24.048726],[-56.04859,-24.04801],[-56.048612,-24.047642],[-56.047299,-24.046685],[-56.046981,-24.045753],[-56.045559,-24.044146],[-56.0451,-24.04416],[-56.045088,-24.045741],[-56.04476,-24.046072],[-56.043786,-24.046014],[-56.042687,-24.044637],[-56.04143,-24.043909],[-56.040829,-24.042377],[-56.039974,-24.04174],[-56.039172,-24.041577],[-56.038482,-24.041766],[-56.037705,-24.043376],[-56.039101,-24.043315],[-56.039863,-24.043794],[-56.040222,-24.04434],[-56.040104,-24.044744],[-56.039281,-24.044879],[-56.038577,-24.044436],[-56.036515,-24.044019],[-56.035834,-24.042978],[-56.035937,-24.04196],[-56.037094,-24.04065],[-56.036714,-24.037821],[-56.03641,-24.037485],[-56.035932,-24.037482],[-56.035025,-24.038688],[-56.034395,-24.038544],[-56.033831,-24.037188],[-56.033431,-24.036975],[-56.032934,-24.036989],[-56.031148,-24.037996],[-56.030235,-24.037393],[-56.029197,-24.035525],[-56.028645,-24.035188],[-56.027881,-24.035131],[-56.026153,-24.036015],[-56.022844,-24.036152],[-56.021207,-24.035211],[-56.020585,-24.034048],[-56.020184,-24.033905],[-56.019014,-24.034354],[-56.017927,-24.034031],[-56.016487,-24.03223],[-56.016572,-24.031089],[-56.016996,-24.030706],[-56.017473,-24.030902],[-56.018014,-24.032679],[-56.01895,-24.03272],[-56.019279,-24.032178],[-56.018671,-24.029206],[-56.018063,-24.02864],[-56.016892,-24.0293],[-56.016442,-24.028103],[-56.015547,-24.027623],[-56.015155,-24.026462],[-56.015675,-24.025903],[-56.017149,-24.025649],[-56.0174,-24.02537],[-56.017231,-24.024947],[-56.01599,-24.024658],[-56.014347,-24.022066],[-56.013928,-24.021817],[-56.013697,-24.022062],[-56.01384,-24.023397],[-56.013532,-24.023606],[-56.008205,-24.020147],[-56.006694,-24.020278],[-56.006605,-24.021875],[-56.006983,-24.02237],[-56.008743,-24.022328],[-56.009255,-24.022806],[-56.008952,-24.024929],[-56.008509,-24.025365],[-56.007227,-24.025497],[-56.004367,-24.02446],[-56.003239,-24.024435],[-56.002472,-24.024729],[-55.994925,-24.031423],[-55.994086,-24.031189],[-55.994687,-24.030052],[-55.994385,-24.029576],[-55.993734,-24.029712],[-55.992762,-24.029284],[-55.992225,-24.029474],[-55.990779,-24.030992],[-55.990127,-24.031233],[-55.989065,-24.030138],[-55.98734,-24.030671],[-55.985196,-24.028584],[-55.984851,-24.028635],[-55.983819,-24.031069],[-55.983415,-24.031365],[-55.982424,-24.031007],[-55.98195,-24.030459],[-55.981942,-24.02951],[-55.98232,-24.028682],[-55.980163,-24.028053],[-55.978036,-24.029758],[-55.977442,-24.029376],[-55.976888,-24.028434],[-55.975284,-24.028951],[-55.975009,-24.029337],[-55.975665,-24.030258],[-55.975037,-24.031308],[-55.974675,-24.031292],[-55.974564,-24.030056],[-55.974308,-24.02986],[-55.973306,-24.03045],[-55.969393,-24.030396],[-55.96915,-24.03063],[-55.969344,-24.030868],[-55.972028,-24.031621],[-55.972417,-24.03204],[-55.97232,-24.032817],[-55.972011,-24.032967],[-55.970993,-24.032572],[-55.968876,-24.032738],[-55.968827,-24.033168],[-55.969454,-24.034171],[-55.969268,-24.034684],[-55.967818,-24.034785],[-55.966705,-24.035929],[-55.966434,-24.035747],[-55.966426,-24.034845],[-55.966082,-24.03444],[-55.965644,-24.034409],[-55.96534,-24.034629],[-55.965344,-24.036073],[-55.965115,-24.036293],[-55.9639,-24.035161],[-55.96289,-24.034918],[-55.963493,-24.037004],[-55.963381,-24.037683],[-55.963062,-24.037986],[-55.960519,-24.038427],[-55.960486,-24.038815],[-55.960892,-24.039096],[-55.962181,-24.038605],[-55.96292,-24.038665],[-55.962794,-24.039372],[-55.961716,-24.039976],[-55.961448,-24.041292],[-55.963842,-24.042363],[-55.963749,-24.042723],[-55.962704,-24.04298],[-55.96179,-24.043904],[-55.960733,-24.043855],[-55.961508,-24.045192],[-55.960574,-24.046699],[-55.961746,-24.047553],[-55.961832,-24.048067],[-55.961223,-24.048646],[-55.959361,-24.047218],[-55.959052,-24.048035],[-55.960377,-24.048599],[-55.960571,-24.048947],[-55.960326,-24.049306],[-55.958647,-24.049447],[-55.957035,-24.050755],[-55.95673,-24.049212],[-55.956355,-24.048835],[-55.955192,-24.048813],[-55.954903,-24.049117],[-55.954979,-24.050852],[-55.954532,-24.051917],[-55.954141,-24.051637],[-55.952967,-24.049214],[-55.954384,-24.047836],[-55.95425,-24.047544],[-55.953813,-24.047485],[-55.952338,-24.048475],[-55.950419,-24.048545],[-55.950537,-24.048851],[-55.951429,-24.048885],[-55.951955,-24.049207],[-55.951276,-24.050854],[-55.949599,-24.051009],[-55.947749,-24.051732],[-55.948029,-24.052442],[-55.948646,-24.052807],[-55.948846,-24.054168],[-55.948258,-24.054095],[-55.947961,-24.053385],[-55.94754,-24.053202],[-55.946025,-24.053635],[-55.945109,-24.052838],[-55.944008,-24.052678],[-55.943822,-24.053121],[-55.944594,-24.054889],[-55.944558,-24.055541],[-55.943993,-24.056258],[-55.943099,-24.056613],[-55.942828,-24.056486],[-55.943573,-24.054077],[-55.942684,-24.053807],[-55.941439,-24.054492],[-55.942341,-24.056802],[-55.942217,-24.057245],[-55.941762,-24.057478],[-55.940675,-24.057276],[-55.940718,-24.055667],[-55.939654,-24.054563],[-55.939187,-24.054476],[-55.938034,-24.05494],[-55.937798,-24.056118],[-55.937401,-24.056546],[-55.936026,-24.05655],[-55.933998,-24.057022],[-55.93351,-24.057407],[-55.933339,-24.057961],[-55.934015,-24.058493],[-55.935729,-24.057783],[-55.936376,-24.058065],[-55.936644,-24.058594],[-55.936202,-24.059049],[-55.934322,-24.05973],[-55.93251,-24.05962],[-55.932022,-24.058312],[-55.931043,-24.057834],[-55.930784,-24.058137],[-55.931122,-24.059292],[-55.93042,-24.060105],[-55.928972,-24.059804],[-55.928614,-24.059177],[-55.928117,-24.059048],[-55.927753,-24.059212],[-55.927549,-24.060044],[-55.927153,-24.06036],[-55.925885,-24.060337],[-55.922912,-24.061552],[-55.921616,-24.061223],[-55.920341,-24.061756],[-55.919724,-24.061404],[-55.920048,-24.060574],[-55.919342,-24.060083],[-55.918768,-24.06019],[-55.918028,-24.061822],[-55.917573,-24.061972],[-55.917167,-24.061664],[-55.916974,-24.059525],[-55.914613,-24.059925],[-55.913515,-24.059306],[-55.913581,-24.058627],[-55.914492,-24.058217],[-55.91474,-24.057539],[-55.914519,-24.056871],[-55.913289,-24.055641],[-55.912595,-24.055428],[-55.912202,-24.055605],[-55.911854,-24.057241],[-55.910776,-24.057927],[-55.910171,-24.057964],[-55.909905,-24.057213],[-55.911133,-24.056736],[-55.911185,-24.055931],[-55.910022,-24.055923],[-55.908698,-24.055247],[-55.906912,-24.055471],[-55.906638,-24.055705],[-55.906918,-24.056595],[-55.908593,-24.056857],[-55.909194,-24.057333],[-55.908503,-24.058591],[-55.907442,-24.058944],[-55.906386,-24.056993],[-55.905496,-24.056821],[-55.904704,-24.057578],[-55.903826,-24.057641],[-55.901748,-24.056738],[-55.901239,-24.056179],[-55.901139,-24.055637],[-55.901443,-24.055307],[-55.90389,-24.055477],[-55.904428,-24.05525],[-55.904651,-24.054761],[-55.90401,-24.053757],[-55.904377,-24.053274],[-55.90426,-24.052815],[-55.903659,-24.052464],[-55.903069,-24.052501],[-55.901546,-24.05385],[-55.900909,-24.054081],[-55.89996,-24.053811],[-55.898221,-24.052133],[-55.895757,-24.050367],[-55.895376,-24.050836],[-55.896097,-24.05302],[-55.895987,-24.05356],[-55.89558,-24.053488],[-55.892909,-24.051248],[-55.891868,-24.051088],[-55.891369,-24.049336],[-55.889696,-24.048893],[-55.889421,-24.0491],[-55.889613,-24.049753],[-55.890936,-24.050471],[-55.890976,-24.050998],[-55.889162,-24.05111],[-55.887687,-24.050586],[-55.887835,-24.052558],[-55.886939,-24.053162],[-55.8845,-24.05381],[-55.884361,-24.054101],[-55.885244,-24.055078],[-55.885476,-24.056149],[-55.883624,-24.057107],[-55.882113,-24.057082],[-55.88202,-24.057331],[-55.882966,-24.05824],[-55.882871,-24.060307],[-55.882313,-24.060206],[-55.881104,-24.058476],[-55.881067,-24.057449],[-55.880782,-24.057252],[-55.880236,-24.057526],[-55.880896,-24.059807],[-55.880741,-24.06018],[-55.879837,-24.059924],[-55.878551,-24.058263],[-55.878249,-24.058302],[-55.878089,-24.059273],[-55.877132,-24.059862],[-55.876545,-24.059636],[-55.875814,-24.058534],[-55.875361,-24.058489],[-55.875026,-24.058765],[-55.875208,-24.060417],[-55.874933,-24.060721],[-55.874312,-24.060855],[-55.873188,-24.05982],[-55.872295,-24.05991],[-55.872216,-24.060381],[-55.87337,-24.061403],[-55.873526,-24.062639],[-55.873221,-24.062887],[-55.871951,-24.062947],[-55.871797,-24.063279],[-55.872452,-24.064408],[-55.872053,-24.065099],[-55.871571,-24.065012],[-55.870808,-24.064049],[-55.86948,-24.063928],[-55.869371,-24.064246],[-55.870155,-24.066139],[-55.86988,-24.066498],[-55.868345,-24.065765],[-55.867436,-24.066022],[-55.867415,-24.06666],[-55.868705,-24.067794],[-55.86868,-24.068876],[-55.868406,-24.069152],[-55.867353,-24.06852],[-55.865961,-24.06869],[-55.864573,-24.068388],[-55.864119,-24.068496],[-55.864095,-24.06955],[-55.862405,-24.069149],[-55.861914,-24.06834],[-55.859902,-24.068645],[-55.859693,-24.068365],[-55.860639,-24.067165],[-55.859871,-24.066896],[-55.858629,-24.067206],[-55.858435,-24.066927],[-55.85893,-24.065668],[-55.858814,-24.06507],[-55.858241,-24.064968],[-55.856708,-24.065623],[-55.855366,-24.065377],[-55.855464,-24.064573],[-55.856866,-24.064917],[-55.857623,-24.0647],[-55.857826,-24.064008],[-55.857561,-24.063229],[-55.856906,-24.063807],[-55.853904,-24.06316],[-55.8536,-24.063379],[-55.854182,-24.06591],[-55.854115,-24.066645],[-55.853796,-24.066878],[-55.852572,-24.06673],[-55.850954,-24.065122],[-55.850608,-24.065078],[-55.850589,-24.067118],[-55.850344,-24.067421],[-55.848078,-24.067418],[-55.8467,-24.067755],[-55.845775,-24.067287],[-55.845293,-24.067819],[-55.845077,-24.068503],[-55.845711,-24.069136],[-55.845726,-24.070572],[-55.847105,-24.075504],[-55.847214,-24.076882],[-55.846711,-24.078391],[-55.848592,-24.079394],[-55.849058,-24.081032],[-55.849164,-24.085264],[-55.847904,-24.087783],[-55.848579,-24.092421],[-55.846333,-24.095588],[-55.845675,-24.097335],[-55.843213,-24.099335],[-55.842396,-24.100647],[-55.840741,-24.101984],[-55.83981,-24.103206],[-55.839146,-24.105463],[-55.837665,-24.106689],[-55.837023,-24.108282],[-55.835908,-24.10989],[-55.834626,-24.116288],[-55.833596,-24.118515],[-55.83292,-24.119305],[-55.833001,-24.120823],[-55.832462,-24.124702],[-55.829941,-24.134978],[-55.830354,-24.137252],[-55.831113,-24.138707],[-55.834878,-24.143414],[-55.835279,-24.154385],[-55.83689,-24.159843],[-55.836826,-24.160732],[-55.835896,-24.162391],[-55.832797,-24.164657],[-55.831957,-24.16587],[-55.830325,-24.172585],[-55.830515,-24.173165],[-55.831567,-24.173818],[-55.83193,-24.174453],[-55.833022,-24.178765],[-55.831703,-24.182132],[-55.8314,-24.185024],[-55.831554,-24.186601],[-55.830975,-24.189848],[-55.831128,-24.193394],[-55.831371,-24.194096],[-55.831902,-24.194538],[-55.834315,-24.194962],[-55.835572,-24.195577],[-55.835332,-24.203947],[-55.804074,-24.195476],[-55.801623,-24.203105],[-55.793868,-24.239769],[-55.785445,-24.254903],[-55.781251,-24.263884],[-55.775785,-24.282713],[-55.79208,-24.286083],[-55.796853,-24.284734],[-55.805633,-24.286608],[-55.801719,-24.298041],[-55.833878,-24.299203],[-55.829494,-24.290727],[-55.857529,-24.29006],[-55.857678,-24.287342],[-55.862112,-24.288091],[-55.860115,-24.274854],[-55.861228,-24.273373],[-55.86324,-24.277127],[-55.867224,-24.2801],[-55.870296,-24.281645],[-55.873797,-24.282353],[-55.875094,-24.28397],[-55.876956,-24.284435],[-55.877521,-24.285184],[-55.878659,-24.285735],[-55.879704,-24.287264],[-55.882226,-24.288628],[-55.882934,-24.289925],[-55.88566,-24.293142],[-55.887428,-24.294017],[-55.889792,-24.296858],[-55.89102,-24.29766],[-55.891014,-24.298681],[-55.891551,-24.299561],[-55.893092,-24.300868],[-55.894499,-24.301546],[-55.894602,-24.304058],[-55.8949,-24.304462],[-55.895857,-24.304613],[-55.896508,-24.306226],[-55.896474,-24.307304],[-55.89892,-24.310302],[-55.899305,-24.313272],[-55.901128,-24.315714],[-55.901238,-24.318144],[-55.902277,-24.318883],[-55.902556,-24.319955],[-55.903281,-24.320507],[-55.905094,-24.323207],[-55.905696,-24.32513],[-55.909332,-24.327712],[-55.910403,-24.330113],[-55.912055,-24.331299],[-55.912207,-24.33242],[-55.913624,-24.333897],[-55.9139,-24.334838],[-55.915626,-24.337366],[-55.916643,-24.340489],[-55.916194,-24.342418],[-55.916821,-24.344333],[-55.917804,-24.344958],[-55.918343,-24.346394],[-55.918945,-24.34694],[-55.919608,-24.348818],[-55.920312,-24.348999],[-55.920718,-24.349996],[-55.921674,-24.350933],[-55.922441,-24.352649],[-55.923863,-24.353129],[-55.924812,-24.352436],[-55.927278,-24.354657],[-55.929502,-24.354953],[-55.930926,-24.356277],[-55.932135,-24.355518],[-55.933799,-24.358812],[-55.934862,-24.35849],[-55.935219,-24.358646],[-55.935714,-24.35957],[-55.935477,-24.360345],[-55.936108,-24.36068],[-55.936285,-24.361602],[-55.937817,-24.363157],[-55.937718,-24.363757],[-55.938586,-24.365415],[-55.938246,-24.369581],[-55.937662,-24.37076],[-55.93857,-24.372306],[-55.939448,-24.372691],[-55.93929,-24.374184],[-55.939596,-24.374304],[-55.940083,-24.373982],[-55.940953,-24.37418],[-55.941505,-24.373844],[-55.943989,-24.374083],[-55.944608,-24.373334],[-55.944095,-24.372931],[-55.944206,-24.371261],[-55.945465,-24.371284],[-55.946712,-24.370761],[-55.947081,-24.371044],[-55.947245,-24.370794],[-55.946643,-24.369385],[-55.945959,-24.370105],[-55.945653,-24.369955],[-55.945533,-24.368919],[-55.94594,-24.368537],[-55.946312,-24.368466],[-55.947387,-24.369168],[-55.947973,-24.368655],[-55.94962,-24.368592],[-55.949923,-24.369038],[-55.95023,-24.368996],[-55.951059,-24.368203],[-55.951754,-24.368149],[-55.951779,-24.367114],[-55.952649,-24.367297],[-55.952689,-24.366351],[-55.952965,-24.366191],[-55.95362,-24.366934],[-55.954107,-24.366686],[-55.955296,-24.367316],[-55.95659,-24.367014],[-55.957088,-24.367239],[-55.958882,-24.369026],[-55.96028,-24.36973],[-55.961439,-24.368156]]]}}]}
