{"type":"FeatureCollection","name":"distrito","features":[{"type":"Feature","properties":{"clave":"2-21","nombre":"San Estanislao"},"geometry":{"type":"Polygon","coordinates":[[[-56.484351,-24.732427],[-56.489891,-24.739974],[-56.492914,-24.742309],[-56.493854,-24.744629],[-56.498112,-24.748978],[-56.498352,-24.750528],[-56.499711,-24.752081],[-56.500505,-24.7538],[-56.501054,-24.757207],[-56.502607,-24.760219],[-56.504244,-24.761728],[-56.506689,-24.762874],[-56.507716,-24.764255],[-56.509828,-24.764573],[-56.512509,-24.767075],[-56.515615,-24.768864],[-56.516815,-24.77001],[-56.518113,-24.772566],[-56.51955,-24.774413],[-56.521274,-24.774662],[-56.522738,-24.77543],[-56.523457,-24.775464],[-56.530502,-24.772759],[-56.53318,-24.770785],[-56.535298,-24.770818],[-56.536223,-24.771205],[-56.537924,-24.770953],[-56.538868,-24.770441],[-56.545372,-24.754512],[-56.546321,-24.753327],[-56.54619,-24.752834],[-56.552849,-24.744365],[-56.554209,-24.739483],[-56.555732,-24.736349],[-56.556132,-24.73449],[-56.564505,-24.717779],[-56.568268,-24.705683],[-56.562544,-24.678307],[-56.539387,-24.646881],[-56.540933,-24.645712],[-56.542513,-24.643756],[-56.542661,-24.642319],[-56.540947,-24.641661],[-56.541815,-24.639049],[-56.540531,-24.638131],[-56.542108,-24.63709],[-56.544243,-24.639841],[-56.547673,-24.640243],[-56.549823,-24.638812],[-56.552111,-24.638688],[-56.553687,-24.637648],[-56.554694,-24.635952],[-56.554272,-24.63399],[-56.553135,-24.632157],[-56.551563,-24.632022],[-56.550136,-24.631233],[-56.550138,-24.63058],[-56.549428,-24.629271],[-56.550569,-24.629928],[-56.55157,-24.6298],[-56.552288,-24.629018],[-56.553431,-24.629152],[-56.553285,-24.630067],[-56.553709,-24.631505],[-56.554712,-24.630855],[-56.555281,-24.631641],[-56.55499,-24.633077],[-56.555128,-24.634385],[-56.55699,-24.633606],[-56.557279,-24.632823],[-56.558282,-24.632172],[-56.560283,-24.632309],[-56.561577,-24.630222],[-56.562722,-24.629833],[-56.563006,-24.630357],[-56.561859,-24.631399],[-56.561999,-24.632183],[-56.565001,-24.632192],[-56.56743,-24.632852],[-56.573363,-24.632804],[-56.576502,-24.634773],[-56.578501,-24.635432],[-56.580645,-24.6357],[-56.584501,-24.637148],[-56.58579,-24.636498],[-56.586353,-24.638983],[-56.587637,-24.639901],[-56.588785,-24.638728],[-56.590071,-24.638862],[-56.591361,-24.63782],[-56.592647,-24.638085],[-56.592072,-24.639129],[-56.589782,-24.639907],[-56.589779,-24.640691],[-56.591637,-24.640957],[-56.593783,-24.640702],[-56.595064,-24.642535],[-56.59978,-24.64307],[-56.600635,-24.643987],[-56.603064,-24.644778],[-56.604208,-24.644781],[-56.605353,-24.644261],[-56.607353,-24.644789],[-56.612492,-24.647677],[-56.614922,-24.648076],[-56.616921,-24.648865],[-56.62114,-24.64868],[-56.625422,-24.651173],[-56.627139,-24.651047],[-56.628856,-24.650529],[-56.62957,-24.650922],[-56.62928,-24.652359],[-56.629563,-24.653275],[-56.631422,-24.653279],[-56.633993,-24.65407],[-56.635854,-24.653682],[-56.637997,-24.65421],[-56.639429,-24.653429],[-56.640856,-24.654609],[-56.642431,-24.653698],[-56.642853,-24.656182],[-56.643994,-24.65723],[-56.646427,-24.656582],[-56.645996,-24.657366],[-56.646424,-24.657889],[-56.647282,-24.657761],[-56.648002,-24.655802],[-56.650143,-24.657245],[-56.650569,-24.658422],[-56.651853,-24.659732],[-56.651136,-24.660122],[-56.650422,-24.65999],[-56.647852,-24.658285],[-56.647423,-24.658284],[-56.649847,-24.661034],[-56.650989,-24.661821],[-56.651561,-24.661561],[-56.652136,-24.660516],[-56.652852,-24.660387],[-56.653275,-24.662349],[-56.654273,-24.663527],[-56.656061,-24.663597],[-56.657489,-24.664253],[-56.659063,-24.663995],[-56.658352,-24.662556],[-56.656207,-24.662421],[-56.655924,-24.661244],[-56.655069,-24.660196],[-56.654928,-24.659281],[-56.656073,-24.658892],[-56.657078,-24.657587],[-56.657793,-24.65772],[-56.65822,-24.658243],[-56.657788,-24.659288],[-56.656928,-24.660201],[-56.657355,-24.660724],[-56.657638,-24.662032],[-56.658352,-24.662295],[-56.65893,-24.660205],[-56.660641,-24.661908],[-56.661927,-24.662434],[-56.662786,-24.662174],[-56.663075,-24.661129],[-56.662791,-24.660083],[-56.661078,-24.659034],[-56.660508,-24.658249],[-56.661224,-24.657858],[-56.66294,-24.657862],[-56.665938,-24.65996],[-56.666219,-24.661921],[-56.667076,-24.662184],[-56.667511,-24.660094],[-56.668654,-24.660227],[-56.669075,-24.663364],[-56.671792,-24.663501],[-56.67507,-24.66769],[-56.675929,-24.6673],[-56.676505,-24.665864],[-56.677364,-24.665604],[-56.678225,-24.66456],[-56.679512,-24.664563],[-56.680511,-24.665088],[-56.683078,-24.668099],[-56.683074,-24.669668],[-56.684071,-24.671107],[-56.684211,-24.672414],[-56.68478,-24.673722],[-56.685778,-24.675031],[-56.689215,-24.673078],[-56.693794,-24.672042],[-56.694795,-24.672175],[-56.695797,-24.671916],[-56.69666,-24.669826],[-56.696666,-24.667605],[-56.698382,-24.667608],[-56.699949,-24.669964],[-56.701238,-24.669443],[-56.701241,-24.668006],[-56.702243,-24.667485],[-56.704533,-24.666967],[-56.705386,-24.66919],[-56.706243,-24.669453],[-56.707388,-24.669325],[-56.708248,-24.668412],[-56.708251,-24.666843],[-56.710539,-24.66724],[-56.710826,-24.666587],[-56.710401,-24.664757],[-56.711403,-24.664366],[-56.712833,-24.664631],[-56.713693,-24.663848],[-56.713835,-24.664371],[-56.713258,-24.66633],[-56.713686,-24.666985],[-56.715115,-24.667379],[-56.716118,-24.666466],[-56.716263,-24.665552],[-56.713839,-24.662411],[-56.712267,-24.662016],[-56.710122,-24.662142],[-56.708836,-24.661617],[-56.707409,-24.660177],[-56.70586,-24.657552],[-56.705864,-24.655918],[-56.704528,-24.653874],[-56.700293,-24.649577],[-56.702532,-24.647335],[-56.702785,-24.645831],[-56.704115,-24.643025],[-56.701586,-24.641035],[-56.700501,-24.640702],[-56.698801,-24.638943],[-56.695105,-24.633507],[-56.694155,-24.63165],[-56.688977,-24.625091],[-56.687338,-24.619944],[-56.68482,-24.615039],[-56.684007,-24.614319],[-56.683493,-24.613144],[-56.676381,-24.605561],[-56.673257,-24.601517],[-56.672348,-24.601456],[-56.668522,-24.602306],[-56.666063,-24.60252],[-56.664987,-24.601953],[-56.664658,-24.601198],[-56.663853,-24.600708],[-56.662848,-24.598877],[-56.660804,-24.598457],[-56.65829,-24.598668],[-56.654177,-24.596379],[-56.649238,-24.595256],[-56.648849,-24.594384],[-56.649021,-24.594181],[-56.648484,-24.593778],[-56.648219,-24.592165],[-56.647338,-24.592678],[-56.647046,-24.592077],[-56.645703,-24.591288],[-56.640022,-24.589016],[-56.636192,-24.589522],[-56.634847,-24.589225],[-56.631916,-24.587832],[-56.630522,-24.587584],[-56.629521,-24.586977],[-56.630378,-24.585804],[-56.630541,-24.584189],[-56.62955,-24.578455],[-56.626491,-24.573151],[-56.623668,-24.570674],[-56.622853,-24.569448],[-56.619406,-24.567109],[-56.617894,-24.566825],[-56.617182,-24.566358],[-56.616011,-24.566595],[-56.612966,-24.565043],[-56.609455,-24.565761],[-56.608254,-24.565319],[-56.606391,-24.563612],[-56.605222,-24.563356],[-56.604602,-24.562334],[-56.6029,-24.561643],[-56.602475,-24.56031],[-56.601495,-24.559901],[-56.601849,-24.558583],[-56.600469,-24.558024],[-56.599908,-24.555927],[-56.598102,-24.553281],[-56.579511,-24.533324],[-56.612632,-24.521262],[-56.640023,-24.511851],[-56.63338,-24.499778],[-56.608872,-24.430726],[-56.607204,-24.427651],[-56.605925,-24.424104],[-56.605549,-24.420796],[-56.607239,-24.41643],[-56.608026,-24.41218],[-56.608685,-24.401953],[-56.608378,-24.398448],[-56.608008,-24.397526],[-56.608089,-24.396158],[-56.606832,-24.394479],[-56.606503,-24.393417],[-56.606924,-24.389015],[-56.606723,-24.388211],[-56.607057,-24.386988],[-56.606737,-24.38337],[-56.607323,-24.382315],[-56.607032,-24.380973],[-56.607383,-24.380183],[-56.607261,-24.379434],[-56.607751,-24.376739],[-56.606643,-24.371886],[-56.606914,-24.369963],[-56.606684,-24.367853],[-56.604477,-24.363711],[-56.603916,-24.361714],[-56.603772,-24.357992],[-56.602001,-24.357062],[-56.601091,-24.355732],[-56.600439,-24.355807],[-56.600017,-24.355336],[-56.599341,-24.355154],[-56.597607,-24.355966],[-56.59715,-24.355532],[-56.596225,-24.355687],[-56.59536,-24.355093],[-56.594401,-24.355131],[-56.593429,-24.354745],[-56.590732,-24.354982],[-56.590723,-24.354214],[-56.590358,-24.354109],[-56.588367,-24.354406],[-56.587485,-24.353058],[-56.584657,-24.351998],[-56.584649,-24.351217],[-56.584352,-24.350909],[-56.581845,-24.349651],[-56.581755,-24.348436],[-56.580776,-24.347287],[-56.580302,-24.347236],[-56.5794,-24.346221],[-56.578253,-24.346087],[-56.578262,-24.345803],[-56.577258,-24.345538],[-56.576649,-24.345956],[-56.575501,-24.345922],[-56.57511,-24.345577],[-56.574889,-24.345888],[-56.573594,-24.344995],[-56.57319,-24.345206],[-56.572379,-24.344788],[-56.57172,-24.345234],[-56.571809,-24.345464],[-56.571016,-24.345652],[-56.570733,-24.345357],[-56.570155,-24.345405],[-56.569237,-24.346103],[-56.568655,-24.346106],[-56.568392,-24.346507],[-56.567095,-24.346047],[-56.565534,-24.346363],[-56.565446,-24.346692],[-56.564938,-24.346686],[-56.564372,-24.347272],[-56.56379,-24.34741],[-56.563201,-24.34856],[-56.562898,-24.348564],[-56.56316,-24.348867],[-56.562552,-24.348974],[-56.561882,-24.349902],[-56.562053,-24.350205],[-56.561601,-24.35033],[-56.561306,-24.350962],[-56.560531,-24.350883],[-56.559379,-24.351764],[-56.559054,-24.352513],[-56.558478,-24.352764],[-56.558154,-24.35359],[-56.558359,-24.353821],[-56.55767,-24.354026],[-56.557774,-24.354519],[-56.556587,-24.354949],[-56.555602,-24.35621],[-56.554931,-24.356516],[-56.554768,-24.357034],[-56.554054,-24.357344],[-56.55292,-24.360285],[-56.552036,-24.360558],[-56.551942,-24.361217],[-56.551285,-24.362132],[-56.549877,-24.362172],[-56.548933,-24.363168],[-56.548591,-24.36407],[-56.547999,-24.364493],[-56.548406,-24.365672],[-56.548021,-24.366163],[-56.548057,-24.366724],[-56.547712,-24.366691],[-56.547716,-24.367301],[-56.546414,-24.369713],[-56.544738,-24.370868],[-56.544581,-24.371942],[-56.545057,-24.372928],[-56.544583,-24.372927],[-56.54417,-24.373314],[-56.544313,-24.373509],[-56.543999,-24.373585],[-56.543704,-24.374297],[-56.543891,-24.374718],[-56.542877,-24.375071],[-56.542858,-24.375401],[-56.542423,-24.375567],[-56.542498,-24.37586],[-56.541985,-24.376152],[-56.541947,-24.37659],[-56.540503,-24.376907],[-56.539703,-24.378205],[-56.539601,-24.379049],[-56.539048,-24.379119],[-56.538965,-24.379544],[-56.537872,-24.38024],[-56.535109,-24.386888],[-56.534101,-24.388204],[-56.53423,-24.389776],[-56.533257,-24.391439],[-56.533279,-24.392852],[-56.532035,-24.394027],[-56.531523,-24.396505],[-56.531793,-24.39712],[-56.531511,-24.398898],[-56.532006,-24.400918],[-56.532805,-24.402438],[-56.532149,-24.404265],[-56.532662,-24.406326],[-56.532567,-24.407942],[-56.533523,-24.410975],[-56.534893,-24.412578],[-56.534743,-24.413765],[-56.53518,-24.41415],[-56.536196,-24.418462],[-56.535957,-24.419486],[-56.536162,-24.420895],[-56.53729,-24.422525],[-56.537677,-24.423664],[-56.538921,-24.424056],[-56.539218,-24.425949],[-56.539022,-24.427276],[-56.539701,-24.42796],[-56.538964,-24.429543],[-56.537792,-24.430564],[-56.537604,-24.434027],[-56.536426,-24.437835],[-56.536867,-24.439584],[-56.538031,-24.440712],[-56.538749,-24.442078],[-56.539159,-24.443944],[-56.53903,-24.446513],[-56.539369,-24.448095],[-56.539066,-24.448794],[-56.538567,-24.449077],[-56.538689,-24.450048],[-56.538004,-24.450579],[-56.537983,-24.45117],[-56.537595,-24.451562],[-56.537613,-24.453608],[-56.538318,-24.45445],[-56.539062,-24.454615],[-56.53954,-24.455312],[-56.539599,-24.456576],[-56.539964,-24.456929],[-56.540513,-24.459022],[-56.540428,-24.459938],[-56.539885,-24.460686],[-56.539755,-24.461856],[-56.540039,-24.462218],[-56.536805,-24.464922],[-56.536062,-24.465195],[-56.534427,-24.46691],[-56.53221,-24.467513],[-56.531211,-24.468273],[-56.529662,-24.468621],[-56.527725,-24.470787],[-56.526861,-24.470752],[-56.524735,-24.47153],[-56.526194,-24.531722],[-56.519679,-24.53185],[-56.519532,-24.567994],[-56.479833,-24.567934],[-56.479835,-24.585292],[-56.480443,-24.585502],[-56.479171,-24.589137],[-56.466217,-24.587169],[-56.46452,-24.586482],[-56.463035,-24.585279],[-56.459268,-24.583644],[-56.455858,-24.584133],[-56.449813,-24.58601],[-56.313717,-24.584067],[-56.309038,-24.583888],[-56.307722,-24.582168],[-56.306703,-24.581691],[-56.304331,-24.582037],[-56.302685,-24.581181],[-56.301335,-24.581174],[-56.298549,-24.580033],[-56.296292,-24.579607],[-56.294327,-24.578604],[-56.293439,-24.577787],[-56.290731,-24.576709],[-56.288856,-24.576677],[-56.284967,-24.575819],[-56.284786,-24.575592],[-56.285063,-24.574853],[-56.284368,-24.574019],[-56.28304,-24.573895],[-56.281249,-24.573083],[-56.271817,-24.567122],[-56.269037,-24.565926],[-56.267654,-24.564984],[-56.264239,-24.564177],[-56.262135,-24.562803],[-56.258921,-24.561279],[-56.257328,-24.559876],[-56.256553,-24.560172],[-56.256408,-24.559828],[-56.25576,-24.560191],[-56.255432,-24.560955],[-56.252993,-24.563473],[-56.25303,-24.564064],[-56.251964,-24.564882],[-56.252323,-24.564914],[-56.252178,-24.565286],[-56.251863,-24.56512],[-56.251578,-24.565492],[-56.250774,-24.565393],[-56.250727,-24.565934],[-56.249464,-24.565783],[-56.248815,-24.566197],[-56.24745,-24.566302],[-56.247008,-24.566878],[-56.246294,-24.567019],[-56.245928,-24.567532],[-56.246139,-24.567813],[-56.245387,-24.568247],[-56.24534,-24.568663],[-56.244633,-24.568654],[-56.244842,-24.569319],[-56.244595,-24.569648],[-56.243022,-24.569902],[-56.243289,-24.570251],[-56.243091,-24.570403],[-56.242193,-24.570074],[-56.242631,-24.570753],[-56.241033,-24.57103],[-56.240764,-24.570667],[-56.240576,-24.571027],[-56.23933,-24.571111],[-56.239121,-24.570555],[-56.238485,-24.570443],[-56.238019,-24.570874],[-56.23821,-24.571178],[-56.237563,-24.571482],[-56.237657,-24.572137],[-56.236415,-24.572835],[-56.237301,-24.573079],[-56.236514,-24.573197],[-56.236515,-24.573572],[-56.234739,-24.574822],[-56.234508,-24.574609],[-56.2347,-24.574326],[-56.234032,-24.574146],[-56.234004,-24.574579],[-56.23332,-24.57431],[-56.233604,-24.574993],[-56.23298,-24.574782],[-56.232753,-24.575192],[-56.232505,-24.574653],[-56.232013,-24.574628],[-56.232223,-24.574918],[-56.231577,-24.57543],[-56.23078,-24.575832],[-56.230721,-24.57538],[-56.229904,-24.57608],[-56.228912,-24.576188],[-56.228429,-24.577333],[-56.228086,-24.577146],[-56.227607,-24.577613],[-56.227152,-24.577579],[-56.226635,-24.57847],[-56.226093,-24.578093],[-56.225405,-24.578613],[-56.22564,-24.578872],[-56.224844,-24.579188],[-56.224016,-24.57805],[-56.223134,-24.578132],[-56.222864,-24.578564],[-56.221879,-24.578816],[-56.221699,-24.578427],[-56.2209,-24.578332],[-56.220964,-24.578558],[-56.219984,-24.578874],[-56.219711,-24.578331],[-56.21943,-24.578749],[-56.21873,-24.578574],[-56.218294,-24.578834],[-56.218169,-24.578332],[-56.217786,-24.578262],[-56.21763,-24.578654],[-56.215749,-24.578703],[-56.214625,-24.579442],[-56.214158,-24.578988],[-56.214089,-24.579394],[-56.21356,-24.579139],[-56.213629,-24.579423],[-56.213168,-24.57966],[-56.213567,-24.579798],[-56.213266,-24.580243],[-56.212745,-24.580042],[-56.212267,-24.580378],[-56.211733,-24.580222],[-56.211233,-24.580779],[-56.21108,-24.580507],[-56.2105,-24.580956],[-56.210001,-24.580597],[-56.209265,-24.580995],[-56.20967,-24.581101],[-56.208636,-24.582116],[-56.208235,-24.582077],[-56.207737,-24.582842],[-56.206803,-24.583054],[-56.206507,-24.582466],[-56.20562,-24.582736],[-56.205787,-24.582904],[-56.204768,-24.583238],[-56.204899,-24.583509],[-56.204196,-24.584102],[-56.204263,-24.584531],[-56.203755,-24.584745],[-56.204244,-24.585019],[-56.203774,-24.585468],[-56.203883,-24.585712],[-56.204133,-24.5856],[-56.204391,-24.586839],[-56.203815,-24.586908],[-56.205185,-24.588957],[-56.204458,-24.589115],[-56.203907,-24.589812],[-56.203851,-24.58913],[-56.203267,-24.590631],[-56.203648,-24.591062],[-56.204262,-24.591024],[-56.204229,-24.591421],[-56.204506,-24.591473],[-56.204245,-24.591918],[-56.204955,-24.591963],[-56.2047,-24.592882],[-56.205496,-24.593776],[-56.205207,-24.594131],[-56.205693,-24.594897],[-56.205033,-24.595228],[-56.20563,-24.595344],[-56.205368,-24.596593],[-56.205738,-24.597024],[-56.205351,-24.597478],[-56.205801,-24.597652],[-56.205233,-24.598227],[-56.206187,-24.59853],[-56.205335,-24.598923],[-56.20593,-24.599125],[-56.205964,-24.599391],[-56.20553,-24.599543],[-56.204174,-24.602118],[-56.203979,-24.603057],[-56.204058,-24.603283],[-56.204297,-24.603067],[-56.204618,-24.604988],[-56.203964,-24.605721],[-56.20427,-24.605925],[-56.201215,-24.607612],[-56.201374,-24.607969],[-56.200923,-24.608364],[-56.199397,-24.608573],[-56.198299,-24.60933],[-56.198493,-24.610528],[-56.198053,-24.611257],[-56.197616,-24.610957],[-56.197229,-24.611085],[-56.197388,-24.612075],[-56.196792,-24.612081],[-56.196606,-24.6125],[-56.194353,-24.612519],[-56.194139,-24.613345],[-56.193721,-24.613473],[-56.193922,-24.613872],[-56.193333,-24.61414],[-56.192816,-24.614963],[-56.19299,-24.61533],[-56.191473,-24.616473],[-56.190069,-24.616244],[-56.189257,-24.616448],[-56.188896,-24.617087],[-56.189306,-24.617663],[-56.18915,-24.617987],[-56.188141,-24.618027],[-56.188176,-24.618379],[-56.187543,-24.618507],[-56.187279,-24.618907],[-56.186318,-24.61803],[-56.186291,-24.618522],[-56.185832,-24.618673],[-56.185545,-24.619421],[-56.184289,-24.620078],[-56.184068,-24.61986],[-56.182621,-24.619961],[-56.182317,-24.62033],[-56.182596,-24.620837],[-56.182265,-24.620785],[-56.182093,-24.621137],[-56.181835,-24.620431],[-56.180937,-24.620774],[-56.180637,-24.621106],[-56.180978,-24.621298],[-56.180097,-24.621564],[-56.180454,-24.622058],[-56.177566,-24.62379],[-56.176899,-24.624716],[-56.175257,-24.624748],[-56.174615,-24.625209],[-56.174637,-24.625941],[-56.173335,-24.62583],[-56.172614,-24.626106],[-56.172393,-24.626732],[-56.1727,-24.627077],[-56.172344,-24.627265],[-56.172542,-24.627745],[-56.172196,-24.627811],[-56.172505,-24.628652],[-56.172136,-24.628822],[-56.172298,-24.629152],[-56.172064,-24.629368],[-56.172493,-24.630481],[-56.172056,-24.630623],[-56.172647,-24.63101],[-56.172272,-24.631256],[-56.17168,-24.631077],[-56.171659,-24.63189],[-56.170135,-24.63226],[-56.170153,-24.633132],[-56.16966,-24.633477],[-56.16903,-24.63327],[-56.168653,-24.634171],[-56.166999,-24.634176],[-56.166203,-24.635517],[-56.166312,-24.636276],[-56.166918,-24.636465],[-56.166502,-24.637153],[-56.164762,-24.638688],[-56.163286,-24.639127],[-56.163209,-24.639767],[-56.161443,-24.640932],[-56.161111,-24.642311],[-56.160074,-24.642924],[-56.159933,-24.643343],[-56.160194,-24.643706],[-56.159802,-24.644029],[-56.159538,-24.643707],[-56.159339,-24.644297],[-56.158225,-24.645158],[-56.158561,-24.645295],[-56.158123,-24.646056],[-56.158285,-24.646793],[-56.157286,-24.647474],[-56.156037,-24.649341],[-56.155576,-24.649135],[-56.155239,-24.649539],[-56.155323,-24.649152],[-56.154671,-24.648859],[-56.153614,-24.649783],[-56.153246,-24.650648],[-56.153313,-24.651488],[-56.152002,-24.652443],[-56.15122,-24.652574],[-56.150149,-24.653547],[-56.150356,-24.653788],[-56.149587,-24.654208],[-56.149804,-24.654363],[-56.149365,-24.654568],[-56.14945,-24.654925],[-56.148826,-24.655518],[-56.148888,-24.655812],[-56.148396,-24.655872],[-56.148409,-24.656233],[-56.147666,-24.656952],[-56.148009,-24.657518],[-56.147643,-24.658035],[-56.148116,-24.658255],[-56.14764,-24.658947],[-56.147753,-24.659323],[-56.145787,-24.659867],[-56.144983,-24.660765],[-56.145322,-24.661007],[-56.14505,-24.661448],[-56.14465,-24.661364],[-56.144901,-24.662494],[-56.144535,-24.664158],[-56.144898,-24.664675],[-56.144409,-24.664772],[-56.144714,-24.66504],[-56.144366,-24.665011],[-56.144319,-24.665814],[-56.143815,-24.665812],[-56.143695,-24.666448],[-56.143043,-24.666728],[-56.143228,-24.667538],[-56.142906,-24.667707],[-56.142981,-24.668132],[-56.142079,-24.668845],[-56.142518,-24.668897],[-56.14191,-24.670009],[-56.142394,-24.670499],[-56.142087,-24.670985],[-56.142351,-24.671447],[-56.142193,-24.673271],[-56.141047,-24.675572],[-56.141484,-24.676211],[-56.141363,-24.67682],[-56.14191,-24.676945],[-56.141863,-24.677373],[-56.142649,-24.677721],[-56.142306,-24.678116],[-56.142492,-24.678452],[-56.142174,-24.680139],[-56.141628,-24.680334],[-56.141564,-24.681178],[-56.142037,-24.682197],[-56.14197,-24.68449],[-56.142376,-24.685152],[-56.142102,-24.685457],[-56.142496,-24.685721],[-56.142352,-24.686123],[-56.142646,-24.686571],[-56.142369,-24.68685],[-56.142292,-24.687937],[-56.142668,-24.688057],[-56.142279,-24.688371],[-56.142527,-24.688693],[-56.141999,-24.688925],[-56.142141,-24.690217],[-56.141433,-24.691938],[-56.141467,-24.692719],[-56.141132,-24.693394],[-56.14053,-24.693639],[-56.140454,-24.694628],[-56.138487,-24.697317],[-56.138487,-24.697994],[-56.137611,-24.699334],[-56.137646,-24.700129],[-56.137018,-24.700627],[-56.136957,-24.701611],[-56.135391,-24.704298],[-56.135581,-24.705355],[-56.13673,-24.706324],[-56.136965,-24.706935],[-56.136124,-24.71103],[-56.135709,-24.710878],[-56.135493,-24.71132],[-56.135831,-24.711457],[-56.135871,-24.712347],[-56.136135,-24.712308],[-56.136656,-24.713128],[-56.136069,-24.713635],[-56.135774,-24.713498],[-56.135897,-24.713869],[-56.135113,-24.714438],[-56.134928,-24.715737],[-56.134433,-24.715359],[-56.134005,-24.715989],[-56.134436,-24.716222],[-56.133509,-24.716456],[-56.133292,-24.717507],[-56.132912,-24.716958],[-56.132243,-24.717681],[-56.131619,-24.717452],[-56.131364,-24.71806],[-56.13097,-24.7179],[-56.130114,-24.718129],[-56.12987,-24.718923],[-56.130307,-24.719106],[-56.129618,-24.719608],[-56.130092,-24.719782],[-56.129295,-24.720446],[-56.129609,-24.721025],[-56.128958,-24.72118],[-56.129132,-24.721614],[-56.128022,-24.722538],[-56.12755,-24.722454],[-56.127753,-24.722708],[-56.127285,-24.722967],[-56.127251,-24.723486],[-56.126587,-24.723789],[-56.126401,-24.724912],[-56.125456,-24.725471],[-56.125537,-24.725833],[-56.125074,-24.726151],[-56.124494,-24.72594],[-56.124579,-24.726961],[-56.124024,-24.726949],[-56.123594,-24.727542],[-56.123919,-24.727887],[-56.123396,-24.728394],[-56.1238,-24.728288],[-56.123792,-24.728749],[-56.124332,-24.728883],[-56.123625,-24.730139],[-56.124032,-24.730263],[-56.124021,-24.730588],[-56.12347,-24.730662],[-56.123262,-24.731017],[-56.123806,-24.731494],[-56.124075,-24.731388],[-56.124314,-24.731845],[-56.12496,-24.731555],[-56.1248,-24.732701],[-56.125046,-24.732635],[-56.125151,-24.734406],[-56.125505,-24.734489],[-56.125619,-24.735347],[-56.125397,-24.735464],[-56.125646,-24.735659],[-56.125319,-24.736592],[-56.125499,-24.737004],[-56.125898,-24.73706],[-56.125925,-24.738171],[-56.125282,-24.738538],[-56.125495,-24.738228],[-56.125185,-24.738217],[-56.124637,-24.738787],[-56.123637,-24.739048],[-56.122836,-24.739675],[-56.122655,-24.740961],[-56.122374,-24.741149],[-56.122787,-24.741463],[-56.122336,-24.741623],[-56.122837,-24.74219],[-56.123387,-24.741922],[-56.122798,-24.742623],[-56.123369,-24.743661],[-56.123077,-24.744661],[-56.122282,-24.744706],[-56.122309,-24.745203],[-56.12184,-24.745729],[-56.122209,-24.745785],[-56.12175,-24.746487],[-56.121998,-24.747364],[-56.121561,-24.746996],[-56.121217,-24.747482],[-56.120843,-24.747118],[-56.120648,-24.748079],[-56.119986,-24.747705],[-56.119771,-24.748105],[-56.118549,-24.747786],[-56.118774,-24.748149],[-56.118268,-24.748282],[-56.117829,-24.749498],[-56.117555,-24.749546],[-56.117395,-24.749225],[-56.11712,-24.74939],[-56.11702,-24.749019],[-56.116658,-24.749184],[-56.116945,-24.750125],[-56.11615,-24.75045],[-56.115128,-24.751469],[-56.114384,-24.752995],[-56.114766,-24.753196],[-56.114395,-24.753587],[-56.114598,-24.753755],[-56.112664,-24.755857],[-56.113035,-24.756735],[-56.112471,-24.757332],[-56.112931,-24.757917],[-56.112476,-24.757946],[-56.112898,-24.7584],[-56.112475,-24.759161],[-56.113128,-24.759363],[-56.112778,-24.759668],[-56.112901,-24.76013],[-56.112402,-24.760073],[-56.113046,-24.760627],[-56.113659,-24.760644],[-56.113419,-24.761654],[-56.113074,-24.761684],[-56.113386,-24.762047],[-56.113101,-24.762903],[-56.11246,-24.763116],[-56.112634,-24.763727],[-56.113152,-24.763892],[-56.11284,-24.764044],[-56.113197,-24.764299],[-56.112999,-24.765016],[-56.113292,-24.765207],[-56.112657,-24.766843],[-56.112413,-24.766999],[-56.112347,-24.766728],[-56.11205,-24.767101],[-56.111889,-24.766802],[-56.111809,-24.767176],[-56.111062,-24.767596],[-56.111185,-24.768089],[-56.109853,-24.769093],[-56.110527,-24.769395],[-56.109732,-24.769489],[-56.109815,-24.770014],[-56.108681,-24.770684],[-56.108471,-24.771175],[-56.107877,-24.771311],[-56.107566,-24.77107],[-56.106568,-24.771764],[-56.107062,-24.772291],[-56.106581,-24.772265],[-56.106892,-24.772728],[-56.10634,-24.772801],[-56.106715,-24.773273],[-56.106117,-24.77355],[-56.105926,-24.773354],[-56.105659,-24.773709],[-56.105382,-24.773383],[-56.105263,-24.77377],[-56.10448,-24.774014],[-56.104623,-24.774629],[-56.104208,-24.774979],[-56.103603,-24.774745],[-56.102977,-24.774935],[-56.103436,-24.775421],[-56.102426,-24.776192],[-56.104027,-24.778549],[-56.105006,-24.779372],[-56.106194,-24.784166],[-56.106358,-24.786636],[-56.107056,-24.787444],[-56.108038,-24.787699],[-56.10837,-24.788071],[-56.108467,-24.790519],[-56.109071,-24.791877],[-56.112069,-24.794504],[-56.113228,-24.797663],[-56.114846,-24.800124],[-56.116629,-24.800758],[-56.118191,-24.803535],[-56.11897,-24.804204],[-56.118823,-24.804866],[-56.119929,-24.806964],[-56.122534,-24.809349],[-56.123692,-24.811266],[-56.124768,-24.812338],[-56.12674,-24.816355],[-56.128099,-24.817916],[-56.129351,-24.820249],[-56.130181,-24.820782],[-56.13087,-24.821987],[-56.130708,-24.823142],[-56.131164,-24.823799],[-56.131489,-24.825661],[-56.130814,-24.829152],[-56.130764,-24.832331],[-56.129841,-24.834457],[-56.129772,-24.836547],[-56.130914,-24.838974],[-56.131052,-24.841489],[-56.130435,-24.844353],[-56.130579,-24.84583],[-56.129529,-24.849536],[-56.129771,-24.850878],[-56.128857,-24.855713],[-56.12891,-24.857001],[-56.128458,-24.857811],[-56.127059,-24.858922],[-56.126998,-24.86196],[-56.140136,-24.8655],[-56.147772,-24.872574],[-56.167462,-24.891984],[-56.169872,-24.893004],[-56.174262,-24.892929],[-56.176524,-24.894305],[-56.177127,-24.892692],[-56.179083,-24.890504],[-56.180538,-24.888308],[-56.183496,-24.885886],[-56.184497,-24.885485],[-56.18645,-24.883085],[-56.186595,-24.879916],[-56.187157,-24.878804],[-56.187495,-24.876859],[-56.189143,-24.872967],[-56.191977,-24.869876],[-56.193741,-24.86863],[-56.19499,-24.865463],[-56.197389,-24.864965],[-56.198797,-24.864029],[-56.198922,-24.863032],[-56.198418,-24.860505],[-56.199354,-24.858456],[-56.200056,-24.855683],[-56.203502,-24.853556],[-56.205024,-24.850878],[-56.205842,-24.847848],[-56.210582,-24.843624],[-56.212351,-24.842942],[-56.214801,-24.839975],[-56.218286,-24.829522],[-56.218769,-24.826915],[-56.220729,-24.821823],[-56.221004,-24.816627],[-56.222514,-24.813321],[-56.222571,-24.810106],[-56.224431,-24.80677],[-56.224305,-24.805631],[-56.22291,-24.802237],[-56.222681,-24.800624],[-56.227826,-24.793548],[-56.231375,-24.790645],[-56.232639,-24.790426],[-56.232595,-24.789405],[-56.233171,-24.787995],[-56.235817,-24.786066],[-56.241093,-24.778557],[-56.24162,-24.77828],[-56.242805,-24.778263],[-56.244484,-24.777332],[-56.245187,-24.774613],[-56.247058,-24.772455],[-56.24755,-24.771157],[-56.248479,-24.770065],[-56.251175,-24.768078],[-56.251827,-24.768451],[-56.252766,-24.768248],[-56.257864,-24.763013],[-56.261016,-24.761642],[-56.261199,-24.761219],[-56.263051,-24.760262],[-56.263365,-24.759536],[-56.264363,-24.759555],[-56.265288,-24.757749],[-56.266105,-24.757418],[-56.266516,-24.756815],[-56.267859,-24.753079],[-56.270101,-24.751721],[-56.27124,-24.750214],[-56.272483,-24.749344],[-56.273526,-24.74827],[-56.273468,-24.747936],[-56.273965,-24.747604],[-56.275171,-24.74565],[-56.276346,-24.74524],[-56.277587,-24.745472],[-56.279008,-24.745344],[-56.279798,-24.746165],[-56.280503,-24.746439],[-56.282334,-24.745287],[-56.28406,-24.745503],[-56.285218,-24.744249],[-56.286416,-24.743528],[-56.28719,-24.742529],[-56.288943,-24.741892],[-56.289818,-24.741864],[-56.290637,-24.741313],[-56.291802,-24.739498],[-56.294347,-24.737925],[-56.294418,-24.737244],[-56.296166,-24.737604],[-56.298157,-24.73672],[-56.299884,-24.736877],[-56.300086,-24.736376],[-56.301504,-24.735688],[-56.302422,-24.735737],[-56.303073,-24.733731],[-56.305414,-24.730495],[-56.305433,-24.729723],[-56.306609,-24.72948],[-56.307941,-24.7281],[-56.308637,-24.729128],[-56.311315,-24.731105],[-56.312118,-24.733316],[-56.313129,-24.734518],[-56.313888,-24.734783],[-56.315895,-24.736314],[-56.316314,-24.737526],[-56.317287,-24.738429],[-56.379243,-24.743823],[-56.387384,-24.744132],[-56.387732,-24.744518],[-56.391225,-24.744617],[-56.39221,-24.744075],[-56.393921,-24.743811],[-56.394908,-24.742528],[-56.401707,-24.740944],[-56.403429,-24.741343],[-56.404631,-24.74208],[-56.407046,-24.74259],[-56.407736,-24.743216],[-56.408247,-24.74446],[-56.410964,-24.743802],[-56.412858,-24.743823],[-56.418195,-24.745574],[-56.429037,-24.71053],[-56.433446,-24.709566],[-56.434788,-24.708709],[-56.43696,-24.708207],[-56.439204,-24.707113],[-56.440934,-24.707215],[-56.44412,-24.708175],[-56.444944,-24.708742],[-56.448833,-24.710057],[-56.450583,-24.711278],[-56.453623,-24.711312],[-56.456061,-24.711917],[-56.458579,-24.713068],[-56.458952,-24.713995],[-56.458638,-24.715213],[-56.457925,-24.715992],[-56.457872,-24.716823],[-56.458793,-24.717309],[-56.462351,-24.716618],[-56.463365,-24.717077],[-56.464214,-24.718661],[-56.465181,-24.718682],[-56.467529,-24.718068],[-56.473488,-24.719096],[-56.474471,-24.71951],[-56.47807,-24.723943],[-56.478959,-24.727676],[-56.479532,-24.728039],[-56.480848,-24.728098],[-56.482287,-24.728853],[-56.484351,-24.732427]]]}}]}
