{"type":"FeatureCollection","name":"departamentos","features":[{"type":"Feature","properties":{"departamento":0,"nombre":"Capital"},"geometry":{"type":"Polygon","coordinates":[[[-57.5751,-25.2247],[-57.5248,-25.2428],[-57.5424,-25.2718],[-57.5431,-25.2962],[-57.5861,-25.3414],[-57.6155,-25.3133],[-57.6341,-25.338],[-57.6414,-25.3809],[-57.6678,-25.3453],[-57.6716,-25.2849],[-57.5751,-25.2247]]]}},{"type":"Feature","properties":{"departamento":1,"nombre":"Concepción"},"geometry":{"type":"Polygon","coordinates":[[[-57.1354,-23.465],[-57.1496,-23.4831],[-57.1681,-23.4748],[-57.1684,-23.4814],[-57.1752,-23.4754],[-57.1815,-23.4835],[-57.191,-23.4773],[-57.2063,-23.4848],[-57.2086,-23.4775],[-57.2147,-23.483],[-57.2228,-23.4743],[-57.2324,-23.4729],[-57.2365,-23.4796],[-57.2408,-23.4726],[-57.2632,-23.479],[-57.2677,-23.499],[-57.2722,-23.489],[-57.2875,-23.4969],[-57.2958,-23.4913],[-57.2972,-23.4993],[-57.3009,-23.4942],[-57.3347,-23.4968],[-57.362,-23.5095],[-57.3765,-23.4978],[-57.3938,-23.5019],[-57.397,-23.4928],[-57.4045,-23.4984],[-57.4095,-23.4842],[-57.4501,-23.4775],[-57.4497,-23.4508],[-57.4619,-23.4255],[-57.4754,-23.4185],[-57.4946,-23.3727],[-57.5224,-23.3472],[-57.5183,-23.3361],[-57.4891,-23.3179],[-57.4916,-23.2828],[-57.5391,-23.2381],[-57.549,-23.212],[-57.6231,-23.1784],[-57.6427,-23.1372],[-57.6285,-23.1141],[-57.6302,-23.0965],[-57.6476,-23.0897],[-57.6924,-23.0978],[-57.7109,-23.0939],[-57.7315,-23.0598],[-57.7898,-23.0278],[-57.766,-22.9712],[-57.8214,-22.915],[-57.8197,-22.9052],[-57.7984,-22.8927],[-57.7895,-22.8775],[-57.8102,-22.819],[-57.8753,-22.803],[-57.8834,-22.792],[-57.8766,-22.7781],[-57.8851,-22.7618],[-57.9258,-22.7433],[-57.9406,-22.7041],[-57.9353,-22.6853],[-57.9094,-22.6591],[-57.8443,-22.6517],[-57.7861,-22.6638],[-57.7723,-22.6541],[-57.7799,-22.6226],[-57.8277,-22.5707],[-57.8317,-22.5092],[-57.8454,-22.4844],[-57.8396,-22.4471],[-57.8654,-22.4173],[-57.8629,-22.4015],[-57.8296,-22.397],[-57.8175,-22.3783],[-57.8777,-22.3293],[-57.8913,-22.2672],[-57.941,-22.2796],[-57.9538,-22.2738],[-57.9601,-22.2367],[-57.9713,-22.2257],[-57.9726,-22.1943],[-57.9562,-22.1336],[-57.9629,-22.1207],[-57.9902,-22.1046],[-57.993,-22.0869],[-57.9698,-22.0902],[-57.9611,-22.0791],[-57.9538,-22.0875],[-57.9416,-22.0831],[-57.936,-22.1017],[-57.922,-22.1078],[-57.93,-22.1205],[-57.8891,-22.1228],[-57.8861,-22.1301],[-57.8713,-22.1291],[-57.8633,-22.1374],[-57.8627,-22.13],[-57.8281,-22.1202],[-57.804,-22.151],[-57.7793,-22.125],[-57.7629,-22.1357],[-57.7394,-22.1345],[-57.7382,-22.1028],[-57.7301,-22.0999],[-57.7172,-22.1135],[-57.7153,-22.1041],[-57.7045,-22.0994],[-57.7073,-22.0908],[-57.6899,-22.0883],[-57.6766,-22.102],[-57.6527,-22.1071],[-57.6115,-22.0945],[-57.6123,-22.1245],[-57.5976,-22.1318],[-57.6012,-22.1397],[-57.5843,-22.1405],[-57.588,-22.1656],[-57.5802,-22.1753],[-57.5403,-22.1812],[-57.5216,-22.1683],[-57.5061,-22.1849],[-57.4928,-22.1814],[-57.4887,-22.1913],[-57.4717,-22.1869],[-57.4647,-22.1928],[-57.4602,-22.1874],[-57.4538,-22.1955],[-57.4547,-22.1886],[-57.4462,-22.1874],[-57.4342,-22.2004],[-57.4241,-22.1974],[-57.425,-22.2051],[-57.4196,-22.1973],[-57.407,-22.1977],[-57.3972,-22.2087],[-57.386,-22.2044],[-57.3776,-22.2127],[-57.3816,-22.226],[-57.3738,-22.2246],[-57.3743,-22.2322],[-57.3644,-22.2275],[-57.3603,-22.234],[-57.3575,-22.2264],[-57.3424,-22.2291],[-57.3401,-22.2354],[-57.3352,-22.2291],[-57.3203,-22.2459],[-57.3102,-22.2279],[-57.2919,-22.2185],[-57.2919,-22.2247],[-57.2871,-22.2207],[-57.2774,-22.2288],[-57.2786,-22.2353],[-57.2708,-22.2296],[-57.27,-22.2379],[-57.2551,-22.2375],[-57.2401,-22.2493],[-57.2208,-22.239],[-57.2185,-22.2252],[-57.2112,-22.2255],[-57.2177,-22.2161],[-57.2106,-22.2117],[-57.2105,-22.2184],[-57.2047,-22.2086],[-57.1931,-22.2148],[-57.1865,-22.2342],[-57.1701,-22.2251],[-57.1642,-22.2305],[-57.1603,-22.2236],[-57.1514,-22.2311],[-57.1374,-22.2226],[-57.1201,-22.2303],[-57.1101,-22.2254],[-57.1039,-22.2274],[-57.1122,-22.2412],[-57.0942,-22.2492],[-57.0897,-22.2414],[-57.0826,-22.2511],[-57.0595,-22.2422],[-57.0597,-22.2295],[-57.0489,-22.2322],[-57.044,-22.2426],[-57.019,-22.2312],[-57.0095,-22.2359],[-56.9964,-22.2224],[-56.9869,-22.2425],[-56.9588,-22.2379],[-56.9475,-22.2559],[-56.9265,-22.2498],[-56.9056,-22.2664],[-56.8997,-22.2519],[-56.8833,-22.2475],[-56.8759,-22.263],[-56.8802,-22.2775],[-56.8438,-22.3012],[-56.8261,-22.2959],[-56.6094,-22.3653],[-56.6449,-22.3845],[-56.6487,-22.4221],[-56.6989,-22.4404],[-56.7168,-22.4587],[-56.7226,-22.5094],[-56.7387,-22.5437],[-56.7153,-22.6221],[-56.7268,-22.6515],[-56.6942,-22.6822],[-56.6949,-22.6958],[-56.7019,-22.697],[-56.696,-22.7093],[-56.6736,-22.7102],[-56.6761,-22.7228],[-56.6656,-22.7228],[-56.6698,-22.7665],[-56.6623,-22.772],[-56.6614,-22.7937],[-56.6491,-22.802],[-56.6535,-22.8159],[-56.6644,-22.816],[-56.6663,-22.8283],[-56.6809,-22.837],[-56.6773,-22.8436],[-56.7132,-22.8434],[-56.7048,-22.8685],[-56.7123,-22.8777],[-56.7087,-22.9059],[-56.7087,-22.9009],[-56.671,-22.8969],[-56.6646,-22.8811],[-56.6397,-22.8864],[-56.6218,-22.8991],[-56.6149,-22.8956],[-56.6153,-22.9089],[-56.5968,-22.9135],[-56.5828,-22.9085],[-56.5879,-22.8984],[-56.5595,-22.8995],[-56.5582,-22.8879],[-56.5386,-22.8794],[-56.5437,-22.861],[-56.5219,-22.8414],[-56.526,-22.8098],[-56.5089,-22.8027],[-56.5048,-22.783],[-56.4829,-22.772],[-56.454,-22.7751],[-56.4524,-22.7669],[-56.4427,-22.7779],[-56.428,-22.7605],[-56.4089,-22.7558],[-56.415,-22.752],[-56.4118,-22.7437],[-56.4044,-22.7408],[-56.4064,-22.7477],[-56.3981,-22.7492],[-56.3923,-22.7219],[-56.3824,-22.7236],[-56.3852,-22.7135],[-56.3639,-22.7201],[-56.359,-22.7067],[-56.3431,-22.7083],[-56.3422,-22.6945],[-56.328,-22.6876],[-56.3129,-22.687],[-56.3056,-22.6946],[-56.2944,-22.6876],[-56.1304,-23.0429],[-56.1258,-23.0694],[-56.1387,-23.0775],[-56.1361,-23.0882],[-56.152,-23.0981],[-56.1393,-23.1118],[-56.1417,-23.1212],[-56.1654,-23.1258],[-56.1796,-23.1185],[-56.1893,-23.1299],[-56.1824,-23.1605],[-56.2076,-23.1618],[-56.2031,-23.1738],[-56.2136,-23.1745],[-56.2187,-23.1913],[-56.1981,-23.2193],[-56.2011,-23.2266],[-56.2136,-23.2222],[-56.2115,-23.2307],[-56.2185,-23.235],[-56.2388,-23.2266],[-56.2395,-23.2408],[-56.2596,-23.2446],[-56.2649,-23.2553],[-56.2756,-23.2581],[-56.2682,-23.2615],[-56.2713,-23.273],[-56.2857,-23.2715],[-56.2819,-23.2827],[-56.2995,-23.2965],[-56.2876,-23.3178],[-56.3117,-23.3268],[-56.314,-23.3453],[-56.3497,-23.3527],[-56.3619,-23.364],[-56.353,-23.3796],[-56.3656,-23.3898],[-56.3849,-23.3905],[-56.418,-23.4216],[-56.4228,-23.4159],[-56.4483,-23.4162],[-56.4631,-23.4038],[-56.4914,-23.424],[-56.511,-23.4258],[-56.5165,-23.4505],[-56.5258,-23.4569],[-56.543,-23.4488],[-56.5512,-23.4519],[-56.5562,-23.4434],[-56.6076,-23.4586],[-56.6432,-23.4415],[-56.6744,-23.4418],[-56.6886,-23.4514],[-56.7271,-23.4327],[-56.752,-23.4512],[-56.8043,-23.4253],[-56.8166,-23.4398],[-56.852,-23.4343],[-56.8583,-23.4422],[-56.877,-23.4351],[-56.8833,-23.4431],[-56.9052,-23.4393],[-56.9143,-23.4461],[-56.9488,-23.4354],[-56.954,-23.4445],[-56.9624,-23.4453],[-56.9646,-23.437],[-56.9974,-23.4523],[-57.0134,-23.4431],[-57.0311,-23.4487],[-57.0265,-23.4441],[-57.0329,-23.4421],[-57.0619,-23.4595],[-57.0967,-23.4597],[-57.1014,-23.4674],[-57.1103,-23.4616],[-57.1307,-23.4707],[-57.1354,-23.465]]]}},{"type":"Feature","properties":{"departamento":2,"nombre":"San Pedro"},"geometry":{"type":"Polygon","coordinates":[[[-56.6892,-24.8787],[-56.7108,-24.8764],[-56.733,-24.8956],[-56.7491,-24.8734],[-56.7674,-24.867],[-56.8603,-24.8757],[-56.9493,-24.8433],[-56.9566,-24.8673],[-56.9731,-24.8692],[-56.9867,-24.8813],[-56.9879,-24.8946],[-56.9789,-24.9053],[-56.9892,-24.9084],[-56.9915,-24.9306],[-57.0037,-24.9392],[-57.0008,-24.9503],[-57.0153,-24.9615],[-57.0119,-24.9788],[-57.0356,-24.9774],[-57.038,-24.9829],[-57.0399,-24.9756],[-57.0526,-24.983],[-57.0448,-24.9884],[-57.0525,-24.9917],[-57.0474,-25.0022],[-57.0533,-25.0018],[-57.0394,-25.0035],[-57.0446,-25.0152],[-57.0547,-25.0046],[-57.0682,-25.004],[-57.0743,-25.0171],[-57.096,-25.0052],[-57.1043,-25.0192],[-57.1251,-25.0071],[-57.1389,-24.98],[-57.1528,-24.9842],[-57.162,-24.9728],[-57.1926,-24.9694],[-57.1844,-24.9623],[-57.192,-24.9505],[-57.1997,-24.9545],[-57.1997,-24.9717],[-57.2118,-24.9737],[-57.2222,-24.9633],[-57.219,-24.9549],[-57.2282,-24.9634],[-57.2375,-24.9561],[-57.2519,-24.9587],[-57.2473,-24.9537],[-57.2636,-24.9524],[-57.2628,-24.9426],[-57.2757,-24.9429],[-57.2637,-24.935],[-57.2691,-24.924],[-57.239,-24.936],[-57.2236,-24.9328],[-57.2168,-24.9111],[-57.2243,-24.9011],[-57.2544,-24.8916],[-57.2606,-24.8807],[-57.254,-24.8633],[-57.2917,-24.8515],[-57.2985,-24.8313],[-57.2654,-24.8101],[-57.2321,-24.7568],[-57.2303,-24.6991],[-57.1887,-24.6978],[-57.1696,-24.6896],[-57.176,-24.6651],[-57.1574,-24.6183],[-57.1948,-24.5691],[-57.188,-24.5528],[-57.1615,-24.5283],[-57.1941,-24.4934],[-57.1944,-24.4847],[-57.1623,-24.4703],[-57.1493,-24.449],[-57.1814,-24.3933],[-57.164,-24.3559],[-57.1756,-24.3197],[-57.2044,-24.2848],[-57.2063,-24.2308],[-57.2188,-24.212],[-57.2406,-24.201],[-57.2798,-24.1436],[-57.2106,-24.0978],[-57.2091,-24.0784],[-57.2641,-24.0417],[-57.2585,-24.0309],[-57.2147,-24.0115],[-57.2123,-23.9921],[-57.2205,-23.9846],[-57.2408,-23.984],[-57.2298,-23.958],[-57.2382,-23.9418],[-57.2631,-23.944],[-57.2863,-23.9338],[-57.2992,-23.924],[-57.3042,-23.9078],[-57.293,-23.8938],[-57.2652,-23.886],[-57.2535,-23.8752],[-57.2761,-23.8431],[-57.2515,-23.8119],[-57.2527,-23.7871],[-57.278,-23.7716],[-57.2557,-23.7614],[-57.2567,-23.736],[-57.3432,-23.6802],[-57.4191,-23.6537],[-57.4683,-23.5603],[-57.4701,-23.523],[-57.447,-23.4776],[-57.4095,-23.4842],[-57.4045,-23.4984],[-57.397,-23.4928],[-57.3938,-23.5019],[-57.3765,-23.4978],[-57.362,-23.5095],[-57.3347,-23.4968],[-57.3009,-23.4942],[-57.2972,-23.4993],[-57.2958,-23.4913],[-57.2875,-23.4969],[-57.2722,-23.489],[-57.2677,-23.499],[-57.2632,-23.479],[-57.2408,-23.4726],[-57.2365,-23.4796],[-57.2324,-23.4729],[-57.2228,-23.4743],[-57.2147,-23.483],[-57.2086,-23.4775],[-57.2063,-23.4848],[-57.191,-23.4773],[-57.1815,-23.4835],[-57.1752,-23.4754],[-57.1684,-23.4814],[-57.1681,-23.4748],[-57.1496,-23.4831],[-57.1354,-23.465],[-57.1307,-23.4707],[-57.1085,-23.4613],[-57.1014,-23.4674],[-57.0967,-23.4597],[-57.077,-23.4581],[-57.0783,-23.4637],[-57.0486,-23.4553],[-57.032,-23.442],[-57.0265,-23.4441],[-57.0311,-23.4487],[-57.0134,-23.4431],[-57.0058,-23.4517],[-56.9882,-23.4521],[-56.9676,-23.4376],[-56.954,-23.4445],[-56.9488,-23.4354],[-56.9143,-23.4461],[-56.9052,-23.4393],[-56.8833,-23.4431],[-56.877,-23.4351],[-56.8583,-23.4422],[-56.852,-23.4343],[-56.8166,-23.4398],[-56.8043,-23.4253],[-56.752,-23.4512],[-56.7271,-23.4327],[-56.6886,-23.4514],[-56.6744,-23.4418],[-56.6432,-23.4415],[-56.6076,-23.4586],[-56.5562,-23.4434],[-56.5512,-23.4519],[-56.543,-23.4488],[-56.5258,-23.4569],[-56.5158,-23.449],[-56.5151,-23.428],[-56.4914,-23.424],[-56.4631,-23.4038],[-56.4483,-23.4162],[-56.4173,-23.4213],[-56.3849,-23.3905],[-56.3656,-23.3898],[-56.353,-23.3796],[-56.3619,-23.364],[-56.3497,-23.3527],[-56.3111,-23.3467],[-56.3014,-23.3381],[-56.2939,-23.3438],[-56.2924,-23.3292],[-56.2603,-23.3274],[-56.2411,-23.3136],[-56.2315,-23.3293],[-56.2268,-23.3191],[-56.218,-23.3209],[-56.2216,-23.3058],[-56.2077,-23.3047],[-56.2075,-23.3106],[-56.1953,-23.3007],[-56.1795,-23.3084],[-56.1741,-23.3016],[-56.1737,-23.3098],[-56.1639,-23.3096],[-56.1548,-23.4112],[-56.1668,-23.4692],[-56.1353,-23.512],[-56.1438,-23.5336],[-56.1357,-23.5653],[-56.1111,-23.5921],[-56.114,-23.6059],[-56.0609,-23.6042],[-56.0485,-23.5907],[-56.049,-23.5755],[-56.0216,-23.5991],[-55.9784,-23.6688],[-55.9866,-23.6852],[-55.9763,-23.7005],[-55.98,-23.7241],[-55.9735,-23.7406],[-55.9878,-23.7838],[-56.0143,-23.7943],[-56.0278,-23.821],[-55.9771,-24.0286],[-55.9949,-24.0314],[-56.0085,-24.0254],[-56.0067,-24.0203],[-56.0139,-24.0218],[-56.0179,-24.034],[-56.0713,-24.056],[-56.0851,-24.0815],[-56.1044,-24.0901],[-56.1058,-24.1069],[-56.1454,-24.115],[-56.1537,-24.1379],[-56.1606,-24.1384],[-56.1617,-24.1623],[-56.1589,-24.1708],[-56.1534,-24.1687],[-56.1487,-24.2],[-56.1615,-24.2251],[-56.1725,-24.231],[-56.1717,-24.244],[-56.1562,-24.2854],[-56.1479,-24.2842],[-56.1265,-24.3012],[-56.123,-24.3164],[-56.1309,-24.3373],[-56.1158,-24.3689],[-56.1226,-24.3857],[-56.0943,-24.4027],[-56.0587,-24.4024],[-56.0444,-24.4319],[-56.0258,-24.4409],[-56.0114,-24.486],[-55.9943,-24.5024],[-55.9909,-24.5288],[-55.9405,-24.5706],[-55.9428,-24.6219],[-55.9352,-24.6235],[-55.9139,-24.6604],[-55.8801,-24.6725],[-55.867,-24.6849],[-55.8444,-24.7315],[-55.8396,-24.7619],[-55.8253,-24.7644],[-55.821,-24.7749],[-55.7825,-24.7821],[-55.7596,-24.7829],[-55.749,-24.7765],[-55.702,-24.784],[-55.7121,-24.8199],[-55.7229,-24.8296],[-55.7705,-24.8196],[-55.7812,-24.8378],[-55.827,-24.8457],[-55.8461,-24.8615],[-55.8841,-24.8475],[-55.8954,-24.852],[-55.982,-24.835],[-55.9905,-24.8384],[-55.9887,-24.8632],[-55.9996,-24.8743],[-56.0235,-24.8808],[-56.0274,-24.9103],[-56.0507,-24.9062],[-56.0889,-24.9327],[-56.1258,-24.9133],[-56.1284,-24.9352],[-56.1446,-24.9385],[-56.1619,-24.9283],[-56.1771,-24.8927],[-56.2148,-24.84],[-56.2228,-24.8005],[-56.2549,-24.7662],[-56.2782,-24.808],[-56.1972,-24.9404],[-56.2495,-24.9256],[-56.2667,-24.9293],[-56.278,-24.9411],[-56.2938,-24.9407],[-56.3287,-24.9172],[-56.3434,-24.9215],[-56.3881,-24.912],[-56.4028,-24.9312],[-56.4199,-24.9335],[-56.5195,-25.0039],[-56.5454,-25.0032],[-56.6141,-24.98],[-56.6847,-24.8688],[-56.6892,-24.8787]]]}},{"type":"Feature","properties":{"departamento":3,"nombre":"Cordillera"},"geometry":{"type":"Polygon","coordinates":[[[-57.0199,-25.591],[-57.0905,-25.5814],[-57.1122,-25.5388],[-57.1287,-25.5302],[-57.1258,-25.5185],[-57.1413,-25.4738],[-57.1304,-25.4704],[-57.1318,-25.4557],[-57.1402,-25.4538],[-57.1445,-25.4413],[-57.18,-25.4305],[-57.1835,-25.4097],[-57.1952,-25.4038],[-57.1949,-25.3698],[-57.2056,-25.3527],[-57.2335,-25.3668],[-57.2963,-25.3535],[-57.3433,-25.294],[-57.3274,-25.2482],[-57.3335,-25.2373],[-57.3959,-25.1925],[-57.4045,-25.1808],[-57.3965,-25.1681],[-57.4066,-25.1703],[-57.4085,-25.1538],[-57.4341,-25.1445],[-57.4264,-25.1331],[-57.4384,-25.127],[-57.4448,-25.1311],[-57.4475,-25.1233],[-57.4508,-25.1271],[-57.4751,-25.1137],[-57.4783,-25.1037],[-57.4456,-25.0996],[-57.4019,-25.0623],[-57.3799,-25.0645],[-57.3321,-25.0059],[-57.3125,-24.9684],[-57.3043,-24.9329],[-57.2873,-24.9195],[-57.2663,-24.9267],[-57.2637,-24.935],[-57.2758,-24.9427],[-57.2628,-24.9426],[-57.2636,-24.9524],[-57.2282,-24.9634],[-57.219,-24.9549],[-57.2222,-24.9633],[-57.2127,-24.9736],[-57.1997,-24.9717],[-57.1997,-24.9545],[-57.192,-24.9505],[-57.1844,-24.9623],[-57.1926,-24.9694],[-57.162,-24.9728],[-57.1528,-24.9842],[-57.1389,-24.98],[-57.1251,-25.0071],[-57.1048,-25.019],[-57.096,-25.0052],[-57.0743,-25.0171],[-57.0682,-25.004],[-57.0547,-25.0046],[-57.0446,-25.0152],[-57.0394,-25.0035],[-57.0482,-25.0035],[-57.0533,-25.0018],[-57.0474,-25.0022],[-57.0525,-24.9917],[-57.0478,-24.9915],[-57.0448,-24.9884],[-57.0526,-24.983],[-57.0399,-24.9756],[-57.038,-24.9829],[-57.0356,-24.9774],[-57.0119,-24.9788],[-57.0153,-24.9615],[-57.0008,-24.9503],[-57.0037,-24.9392],[-56.9915,-24.9306],[-56.9892,-24.9084],[-56.9789,-24.9053],[-56.9879,-24.8946],[-56.9867,-24.8813],[-56.9731,-24.8692],[-56.9566,-24.8673],[-56.9493,-24.8433],[-56.8603,-24.8757],[-56.7674,-24.867],[-56.7491,-24.8734],[-56.733,-24.8956],[-56.7108,-24.8764],[-56.6892,-24.8787],[-56.6847,-24.8688],[-56.6168,-24.978],[-56.5645,-24.9973],[-56.5617,-25.1661],[-56.619,-25.1668],[-56.6641,-25.2677],[-56.6197,-25.3218],[-56.6019,-25.3074],[-56.5769,-25.3121],[-56.5614,-25.3061],[-56.667,-25.4103],[-56.774,-25.4649],[-56.78,-25.4539],[-56.7865,-25.4667],[-56.8044,-25.4765],[-56.8102,-25.5526],[-56.8017,-25.5537],[-56.7991,-25.5638],[-56.8115,-25.618],[-56.8055,-25.6238],[-56.8259,-25.6448],[-56.8576,-25.6467],[-56.8635,-25.6631],[-56.8891,-25.669],[-56.9453,-25.6516],[-56.9476,-25.6415],[-56.9209,-25.6063],[-56.9098,-25.6027],[-56.921,-25.5755],[-56.9057,-25.5694],[-56.9086,-25.5637],[-56.9342,-25.5691],[-56.9566,-25.5623],[-56.9995,-25.5748],[-57.0199,-25.591]]]}},{"type":"Feature","properties":{"departamento":4,"nombre":"Guairá"},"geometry":{"type":"Polygon","coordinates":[[[-56.5347,-26.1196],[-56.5467,-26.1289],[-56.5387,-26.1494],[-56.554,-26.1758],[-56.551,-26.1864],[-56.5648,-26.1918],[-56.5758,-26.1843],[-56.5854,-26.1885],[-56.6033,-26.1729],[-56.6226,-26.1785],[-56.6264,-26.1973],[-56.6381,-26.1828],[-56.7041,-26.147],[-56.7119,-26.1313],[-56.7058,-26.109],[-56.7162,-26.1058],[-56.722,-26.0913],[-56.7013,-26.0445],[-56.7068,-26.0337],[-56.7017,-26.0296],[-56.7477,-25.952],[-56.7175,-25.9606],[-56.7074,-25.9538],[-56.6979,-25.9649],[-56.6768,-25.9627],[-56.6645,-25.9708],[-56.6435,-25.9708],[-56.6413,-25.9654],[-56.6076,-25.9791],[-56.6088,-25.9151],[-56.6268,-25.901],[-56.6258,-25.8884],[-56.6475,-25.877],[-56.6658,-25.8504],[-56.6895,-25.7622],[-56.6698,-25.7002],[-56.6632,-25.7083],[-56.6486,-25.6857],[-56.5975,-25.6723],[-56.5445,-25.6321],[-56.5325,-25.6313],[-56.534,-25.6254],[-56.5073,-25.6271],[-56.4981,-25.6215],[-56.4782,-25.6366],[-56.4729,-25.6288],[-56.4296,-25.6159],[-56.4203,-25.5861],[-56.4072,-25.5734],[-56.3972,-25.5758],[-56.3877,-25.5657],[-56.3698,-25.5783],[-56.356,-25.5696],[-56.3306,-25.5746],[-56.317,-25.5648],[-56.2922,-25.569],[-56.2862,-25.5863],[-56.2492,-25.5716],[-56.2234,-25.5813],[-56.207,-25.5754],[-56.1547,-25.5995],[-56.06,-25.6224],[-55.9332,-25.6272],[-55.8601,-25.6567],[-55.8645,-25.6752],[-55.8471,-25.6856],[-55.7927,-25.6947],[-55.7684,-25.6811],[-55.7466,-25.6912],[-55.7149,-25.6739],[-55.6939,-25.6785],[-55.6665,-25.6458],[-55.6564,-25.6501],[-55.6389,-25.6449],[-55.6334,-25.6505],[-55.679,-25.7422],[-55.6854,-25.7373],[-55.6896,-25.743],[-55.6917,-25.743],[-55.7024,-25.7215],[-55.7278,-25.7094],[-55.7622,-25.718],[-55.7606,-25.7482],[-55.7522,-25.754],[-55.7604,-25.7598],[-55.7566,-25.775],[-55.7788,-25.7766],[-55.7988,-25.7955],[-55.801,-25.7871],[-55.8136,-25.7841],[-55.8218,-25.7989],[-55.8477,-25.8016],[-55.8752,-25.8279],[-55.8876,-25.8552],[-55.9124,-25.876],[-55.9358,-25.8543],[-55.9742,-25.8531],[-56.031,-25.8947],[-56.0485,-25.8909],[-56.0994,-26.0192],[-56.1091,-26.0156],[-56.1212,-26.0306],[-56.1352,-26.0287],[-56.1721,-26.0607],[-56.1804,-26.0634],[-56.281,-25.9762],[-56.3233,-26.0022],[-56.3399,-26.0045],[-56.3523,-26.0263],[-56.3761,-26.0151],[-56.4109,-26.0239],[-56.4027,-26.1381],[-56.4187,-26.1367],[-56.4445,-26.1172],[-56.5347,-26.1196]]]}},{"type":"Feature","properties":{"departamento":5,"nombre":"Caaguazú"},"geometry":{"type":"Polygon","coordinates":[[[-56.7201,-25.6595],[-56.7442,-25.6587],[-56.7493,-25.6485],[-56.7643,-25.6472],[-56.7781,-25.6328],[-56.8108,-25.6205],[-56.7991,-25.5638],[-56.8017,-25.5537],[-56.8102,-25.5526],[-56.8024,-25.4949],[-56.8099,-25.4897],[-56.78,-25.4539],[-56.774,-25.4649],[-56.667,-25.4103],[-56.5614,-25.3061],[-56.5769,-25.3121],[-56.6019,-25.3074],[-56.6197,-25.3218],[-56.6641,-25.2675],[-56.619,-25.1668],[-56.5617,-25.1661],[-56.5645,-24.9973],[-56.5195,-25.0039],[-56.4199,-24.9335],[-56.4028,-24.9312],[-56.3881,-24.912],[-56.3434,-24.9215],[-56.3287,-24.9172],[-56.2938,-24.9407],[-56.278,-24.9411],[-56.2667,-24.9293],[-56.2495,-24.9256],[-56.1972,-24.9404],[-56.2782,-24.808],[-56.2549,-24.7662],[-56.2228,-24.8005],[-56.2148,-24.84],[-56.1771,-24.8927],[-56.1599,-24.9309],[-56.1446,-24.9385],[-56.1284,-24.9352],[-56.1258,-24.9133],[-56.0889,-24.9327],[-56.0507,-24.9062],[-56.0274,-24.9103],[-56.0235,-24.8808],[-55.9996,-24.8743],[-55.9887,-24.8632],[-55.9905,-24.8384],[-55.982,-24.835],[-55.8954,-24.852],[-55.8841,-24.8475],[-55.8461,-24.8615],[-55.827,-24.8457],[-55.7812,-24.8378],[-55.7705,-24.8196],[-55.7168,-24.8261],[-55.702,-24.784],[-55.708,-24.7692],[-55.7361,-24.7432],[-55.7292,-24.7231],[-55.7127,-24.7079],[-55.7002,-24.6716],[-55.6873,-24.6796],[-55.6623,-24.6749],[-55.6685,-24.6532],[-55.6385,-24.6448],[-55.6148,-24.6472],[-55.6012,-24.6365],[-55.6096,-24.6247],[-55.5947,-24.6192],[-55.5978,-24.6024],[-55.5779,-24.6012],[-55.5642,-24.5815],[-55.5516,-24.5509],[-55.5525,-24.5187],[-55.5439,-24.5135],[-55.5135,-24.5153],[-55.4937,-24.5338],[-55.4911,-24.568],[-55.484,-24.5716],[-55.4785,-24.5556],[-55.4605,-24.5414],[-55.4378,-24.5513],[-55.4019,-24.535],[-55.4,-24.549],[-55.3698,-24.54],[-55.3452,-24.509],[-55.3427,-24.4936],[-55.3127,-24.5149],[-55.2968,-24.4876],[-55.2891,-24.4891],[-55.2886,-24.5038],[-55.281,-24.5008],[-55.2525,-24.4675],[-55.2281,-24.4764],[-55.1803,-24.4655],[-55.1639,-24.4695],[-55.143,-24.4881],[-55.1388,-24.4968],[-55.1603,-24.5175],[-55.1576,-24.5285],[-55.1869,-24.5176],[-55.2512,-24.5151],[-55.2755,-24.5277],[-55.3019,-24.5667],[-55.3067,-24.5899],[-55.2926,-24.6131],[-55.301,-24.6383],[-55.2922,-24.6449],[-55.3162,-24.6782],[-55.3178,-24.6928],[-55.301,-24.716],[-55.3234,-24.7511],[-55.3207,-24.7664],[-55.3378,-24.812],[-55.3339,-24.826],[-55.3501,-24.8468],[-55.3432,-24.8465],[-55.3408,-24.8682],[-55.3251,-24.8836],[-55.3269,-24.9008],[-55.3449,-24.9204],[-55.3289,-24.9262],[-55.3328,-24.9684],[-55.3212,-24.9698],[-55.307,-24.9844],[-55.3114,-25.0107],[-55.2974,-25.0155],[-55.2987,-25.0219],[-55.2729,-25.0236],[-55.2785,-25.0267],[-55.2702,-25.031],[-55.2812,-25.0386],[-55.2676,-25.0435],[-55.2556,-25.0304],[-55.25,-25.0381],[-55.2312,-25.029],[-55.2333,-25.0436],[-55.2213,-25.0516],[-55.2153,-25.044],[-55.2049,-25.0493],[-55.2019,-25.0391],[-55.1933,-25.043],[-55.1785,-25.055],[-55.168,-25.0755],[-55.1717,-25.0815],[-55.1594,-25.0867],[-55.1565,-25.1006],[-55.1451,-25.0984],[-55.1352,-25.115],[-55.1128,-25.1298],[-55.1026,-25.1334],[-55.0925,-25.1278],[-55.0891,-25.1448],[-55.0806,-25.1428],[-55.0691,-25.1578],[-55.0575,-25.1578],[-55.0538,-25.1741],[-55.0305,-25.175],[-55.0225,-25.1931],[-55.0098,-25.1941],[-55.0083,-25.1995],[-55.0246,-25.2086],[-55.0187,-25.2149],[-55.0285,-25.2255],[-55.0173,-25.228],[-55.0245,-25.2289],[-55.0219,-25.2349],[-55.0124,-25.234],[-55.017,-25.2442],[-55.0021,-25.241],[-55.0033,-25.252],[-54.9937,-25.2493],[-54.9953,-25.2412],[-54.9841,-25.2469],[-54.9915,-25.2576],[-54.9802,-25.2637],[-54.9703,-25.2585],[-54.9747,-25.248],[-54.9651,-25.2497],[-54.9652,-25.2723],[-54.9726,-25.2688],[-54.9771,-25.2788],[-54.9548,-25.3044],[-54.9634,-25.3061],[-54.9635,-25.3183],[-54.9488,-25.3166],[-54.9409,-25.3239],[-54.9392,-25.3444],[-54.9505,-25.3466],[-54.9234,-25.3658],[-54.9332,-25.3681],[-54.933,-25.3775],[-54.9438,-25.367],[-54.9545,-25.3705],[-54.9502,-25.3654],[-54.9604,-25.3612],[-54.971,-25.3798],[-55.0084,-25.3863],[-55.0248,-25.3734],[-55.0457,-25.3171],[-55.0666,-25.3146],[-55.1102,-25.3272],[-55.145,-25.3253],[-55.1914,-25.2976],[-55.218,-25.2667],[-55.2483,-25.2523],[-55.2807,-25.2492],[-55.2899,-25.2517],[-55.3072,-25.2773],[-55.3285,-25.3353],[-55.3554,-25.3576],[-55.3784,-25.3619],[-55.4261,-25.5575],[-55.4329,-25.5431],[-55.4434,-25.546],[-55.4577,-25.5277],[-55.4782,-25.5238],[-55.4876,-25.5325],[-55.4927,-25.5581],[-55.5046,-25.5663],[-55.5139,-25.5625],[-55.5384,-25.5869],[-55.536,-25.6202],[-55.5496,-25.6198],[-55.5575,-25.6364],[-55.5811,-25.6373],[-55.594,-25.6581],[-55.6084,-25.659],[-55.6139,-25.6483],[-55.6278,-25.6523],[-55.6389,-25.6449],[-55.6564,-25.6501],[-55.6662,-25.6457],[-55.6797,-25.6542],[-55.6939,-25.6785],[-55.7149,-25.6739],[-55.7466,-25.6912],[-55.7684,-25.6811],[-55.7927,-25.6947],[-55.8471,-25.6856],[-55.8645,-25.6752],[-55.8601,-25.6567],[-55.9332,-25.6272],[-56.06,-25.6224],[-56.1547,-25.5995],[-56.207,-25.5754],[-56.2234,-25.5813],[-56.2492,-25.5716],[-56.2862,-25.5863],[-56.2922,-25.569],[-56.317,-25.5648],[-56.3306,-25.5746],[-56.356,-25.5696],[-56.3698,-25.5783],[-56.3877,-25.5657],[-56.3972,-25.5758],[-56.4072,-25.5734],[-56.4203,-25.5861],[-56.4296,-25.6159],[-56.4729,-25.6288],[-56.4782,-25.6366],[-56.4981,-25.6215],[-56.5073,-25.6271],[-56.534,-25.6254],[-56.5325,-25.6313],[-56.5445,-25.6321],[-56.6049,-25.6763],[-56.6486,-25.6857],[-56.6634,-25.7084],[-56.6663,-25.7002],[-56.6969,-25.7004],[-56.7048,-25.6872],[-56.6992,-25.6785],[-56.7201,-25.6595]]]}},{"type":"Feature","properties":{"departamento":6,"nombre":"Caazapá"},"geometry":{"type":"Polygon","coordinates":[[[-56.2844,-26.719],[-56.3073,-26.7289],[-56.3195,-26.7251],[-56.3314,-26.7325],[-56.3321,-26.7249],[-56.3378,-26.7321],[-56.3564,-26.7248],[-56.3708,-26.7394],[-56.3958,-26.7449],[-56.408,-26.7661],[-56.4164,-26.7629],[-56.4216,-26.7722],[-56.4367,-26.776],[-56.4439,-26.7701],[-56.4538,-26.7776],[-56.4685,-26.7724],[-56.4705,-26.7808],[-56.4763,-26.7789],[-56.4726,-26.7832],[-56.4909,-26.7866],[-56.4919,-26.7943],[-56.5068,-26.7887],[-56.5088,-26.7802],[-56.5271,-26.7794],[-56.534,-26.7678],[-56.5404,-26.7703],[-56.5396,-26.7575],[-56.5642,-26.7613],[-56.6027,-26.7404],[-56.6126,-26.748],[-56.6363,-26.7391],[-56.6409,-26.7436],[-56.6457,-26.7247],[-56.6593,-26.7262],[-56.6621,-26.719],[-56.6555,-26.7203],[-56.6556,-26.7063],[-56.6492,-26.7068],[-56.6521,-26.6861],[-56.6466,-26.6878],[-56.6449,-26.678],[-56.6351,-26.6816],[-56.6372,-26.6657],[-56.6582,-26.6622],[-56.66,-26.6717],[-56.6738,-26.6526],[-56.6976,-26.6584],[-56.7015,-26.6473],[-56.7088,-26.6525],[-56.7324,-26.6391],[-56.7268,-26.6293],[-56.7394,-26.6289],[-56.7394,-26.6222],[-56.7528,-26.6285],[-56.7526,-26.6355],[-56.7656,-26.6304],[-56.7696,-26.6384],[-56.7634,-26.6228],[-56.7716,-26.6169],[-56.8055,-26.6228],[-56.801,-26.615],[-56.8219,-26.5849],[-56.8174,-26.5672],[-56.8071,-26.5682],[-56.821,-26.5436],[-56.8316,-26.5494],[-56.8386,-26.5362],[-56.8478,-26.5431],[-56.8491,-26.5284],[-56.8365,-26.5194],[-56.8417,-26.5103],[-56.835,-26.512],[-56.8309,-26.5037],[-56.8247,-26.5128],[-56.8214,-26.4958],[-56.792,-26.4767],[-56.7966,-26.4715],[-56.7871,-26.4615],[-56.7928,-26.4589],[-56.7851,-26.4565],[-56.7958,-26.4397],[-56.7899,-26.4308],[-56.7797,-26.4308],[-56.7798,-26.4391],[-56.7763,-26.4286],[-56.7605,-26.4209],[-56.7649,-26.4119],[-56.7559,-26.3967],[-56.7662,-26.3967],[-56.7592,-26.3898],[-56.7632,-26.3783],[-56.7552,-26.3658],[-56.738,-26.3706],[-56.7339,-26.3585],[-56.7441,-26.3532],[-56.7325,-26.3498],[-56.7364,-26.3343],[-56.7188,-26.3196],[-56.725,-26.3122],[-56.6991,-26.3008],[-56.6918,-26.2847],[-56.6993,-26.2812],[-56.694,-26.2782],[-56.6996,-26.2613],[-56.6832,-26.2526],[-56.687,-26.2396],[-56.6751,-26.2385],[-56.6684,-26.2238],[-56.6594,-26.2266],[-56.6553,-26.2196],[-56.651,-26.225],[-56.6512,-26.2164],[-56.6391,-26.2275],[-56.6223,-26.1782],[-56.6033,-26.1729],[-56.5854,-26.1885],[-56.5512,-26.1867],[-56.554,-26.1758],[-56.5387,-26.1494],[-56.5467,-26.1289],[-56.5347,-26.1196],[-56.4397,-26.1179],[-56.4212,-26.1355],[-56.4027,-26.1381],[-56.4063,-26.0206],[-56.3761,-26.0151],[-56.3523,-26.0263],[-56.3399,-26.0045],[-56.3233,-26.0022],[-56.281,-25.9762],[-56.1804,-26.0634],[-56.1604,-26.054],[-56.1352,-26.0287],[-56.1212,-26.0306],[-56.1091,-26.0156],[-56.0994,-26.0192],[-56.0485,-25.8909],[-56.031,-25.8947],[-55.9742,-25.8531],[-55.9358,-25.8543],[-55.9124,-25.876],[-55.8876,-25.8552],[-55.8752,-25.8279],[-55.8477,-25.8016],[-55.8218,-25.7989],[-55.8136,-25.7841],[-55.801,-25.7871],[-55.7988,-25.7955],[-55.7788,-25.7766],[-55.7566,-25.775],[-55.7604,-25.7598],[-55.7522,-25.754],[-55.7606,-25.7482],[-55.7622,-25.718],[-55.7278,-25.7094],[-55.7024,-25.7215],[-55.6917,-25.743],[-55.6854,-25.7373],[-55.679,-25.7422],[-55.6359,-25.6508],[-55.6139,-25.6483],[-55.6084,-25.659],[-55.5965,-25.6587],[-55.5854,-25.6524],[-55.5811,-25.6373],[-55.5554,-25.6352],[-55.5496,-25.6198],[-55.5354,-25.6191],[-55.5398,-25.5932],[-55.534,-25.58],[-55.5123,-25.5616],[-55.5048,-25.5664],[-55.4927,-25.5581],[-55.4876,-25.5325],[-55.4782,-25.5238],[-55.4577,-25.5277],[-55.4435,-25.5459],[-55.4286,-25.547],[-55.4131,-25.5841],[-55.418,-25.5868],[-55.3993,-25.6041],[-55.4,-25.6229],[-55.417,-25.631],[-55.4273,-25.6598],[-55.4529,-25.6541],[-55.4603,-25.6755],[-55.4771,-25.6804],[-55.4658,-25.7173],[-55.4783,-25.7272],[-55.4841,-25.7575],[-55.5022,-25.7817],[-55.5144,-25.7856],[-55.5219,-25.8041],[-55.53,-25.8459],[-55.5131,-25.8612],[-55.5126,-25.8716],[-55.5268,-25.8889],[-55.5158,-25.9018],[-55.5341,-25.97],[-55.5506,-25.9969],[-55.5319,-25.9931],[-55.5266,-25.9985],[-55.5067,-25.9854],[-55.465,-25.9981],[-55.4586,-25.9895],[-55.4554,-26.0042],[-55.4372,-25.9996],[-55.4312,-26.0098],[-55.4266,-25.9974],[-55.4164,-26.0027],[-55.4097,-25.9985],[-55.4062,-26.0182],[-55.3925,-26.0353],[-55.3761,-26.0176],[-55.3845,-26.0144],[-55.3751,-26.0092],[-55.3838,-26.0087],[-55.3816,-25.9998],[-55.3647,-26.0058],[-55.363,-25.9959],[-55.3472,-25.9898],[-55.3396,-25.9962],[-55.3444,-26.0022],[-55.3254,-26.0121],[-55.3301,-26.0201],[-55.3221,-26.0198],[-55.3052,-26.0424],[-55.2943,-26.0387],[-55.283,-26.0526],[-55.274,-26.0405],[-55.265,-26.0441],[-55.2574,-26.0369],[-55.2491,-26.0577],[-55.2558,-26.0652],[-55.2484,-26.0708],[-55.2559,-26.0733],[-55.2507,-26.0785],[-55.2682,-26.0776],[-55.2814,-26.0961],[-55.2897,-26.0951],[-55.289,-26.0835],[-55.3009,-26.0909],[-55.2975,-26.1036],[-55.3145,-26.0922],[-55.3179,-26.1061],[-55.3224,-26.1001],[-55.3419,-26.105],[-55.3484,-26.1854],[-55.357,-26.2051],[-55.3637,-26.1997],[-55.3681,-26.2116],[-55.3676,-26.2227],[-55.3567,-26.2315],[-55.3695,-26.2921],[-55.39,-26.302],[-55.3916,-26.31],[-55.4483,-26.3244],[-55.5072,-26.3079],[-55.5131,-26.3139],[-55.4982,-26.3501],[-55.5066,-26.3568],[-55.5311,-26.3526],[-55.5459,-26.3662],[-55.563,-26.3672],[-55.5675,-26.39],[-55.5959,-26.4174],[-55.6501,-26.3736],[-55.6631,-26.379],[-55.6677,-26.3655],[-55.6834,-26.3582],[-55.7176,-26.362],[-55.7199,-26.3724],[-55.7308,-26.3692],[-55.7366,-26.3797],[-55.7534,-26.3863],[-55.7619,-26.3798],[-55.766,-26.3938],[-55.8053,-26.3874],[-55.8059,-26.3971],[-55.8151,-26.3965],[-55.8253,-26.4092],[-55.8189,-26.4144],[-55.8215,-26.427],[-55.8321,-26.4252],[-55.8374,-26.4454],[-55.8462,-26.4484],[-55.8513,-26.4391],[-55.8625,-26.4402],[-55.8805,-26.4529],[-55.8762,-26.4577],[-55.9012,-26.4794],[-55.8971,-26.4879],[-55.9085,-26.4975],[-55.9111,-26.5134],[-55.9295,-26.514],[-55.9364,-26.5213],[-55.9551,-26.5113],[-56.0137,-26.5136],[-56.0205,-26.5326],[-56.0307,-26.5339],[-56.0251,-26.5432],[-56.0303,-26.5471],[-56.0484,-26.5393],[-56.0561,-26.5235],[-56.1005,-26.5547],[-56.1225,-26.5964],[-56.1169,-26.6267],[-56.1549,-26.6374],[-56.1586,-26.6554],[-56.1813,-26.667],[-56.1783,-26.6755],[-56.1857,-26.6837],[-56.1742,-26.6977],[-56.1759,-26.7079],[-56.1953,-26.7109],[-56.2157,-26.6975],[-56.2238,-26.7053],[-56.2415,-26.694],[-56.2498,-26.7026],[-56.2648,-26.6991],[-56.2702,-26.7134],[-56.2755,-26.7091],[-56.2844,-26.719]]]}},{"type":"Feature","properties":{"departamento":7,"nombre":"Itapúa"},"geometry":{"type":"Polygon","coordinates":[[[-56.7191,-27.4662],[-56.7316,-27.495],[-56.7604,-27.4949],[-56.8294,-27.4607],[-56.8848,-27.4126],[-56.8486,-27.4102],[-56.8172,-27.3972],[-56.7916,-27.3999],[-56.7725,-27.3883],[-56.695,-27.3691],[-56.6843,-27.3466],[-56.6649,-27.3384],[-56.678,-27.3223],[-56.6715,-27.3177],[-56.6747,-27.3041],[-56.6664,-27.2998],[-56.6815,-27.2784],[-56.6964,-27.2719],[-56.6972,-27.2419],[-56.7096,-27.2358],[-56.7015,-27.2242],[-56.6908,-27.2239],[-56.6957,-27.2102],[-56.6884,-27.2009],[-56.6683,-27.1958],[-56.6548,-27.1721],[-56.6385,-27.1644],[-56.6348,-27.1463],[-56.6408,-27.0355],[-56.6261,-27.0061],[-56.6441,-26.9783],[-56.6568,-26.7222],[-56.6525,-26.7281],[-56.6457,-26.7247],[-56.6488,-26.732],[-56.6401,-26.7441],[-56.6363,-26.7391],[-56.6126,-26.748],[-56.6027,-26.7404],[-56.5642,-26.7613],[-56.5396,-26.7575],[-56.5404,-26.7703],[-56.5344,-26.7676],[-56.5276,-26.7792],[-56.5141,-26.7776],[-56.5065,-26.789],[-56.491,-26.7944],[-56.4909,-26.7866],[-56.473,-26.7835],[-56.4685,-26.7724],[-56.4538,-26.7776],[-56.4439,-26.7701],[-56.4367,-26.776],[-56.4216,-26.7722],[-56.4164,-26.7629],[-56.408,-26.7661],[-56.3958,-26.7449],[-56.3708,-26.7394],[-56.3564,-26.7248],[-56.3452,-26.7319],[-56.3326,-26.7248],[-56.3315,-26.7325],[-56.3195,-26.7251],[-56.3075,-26.729],[-56.2957,-26.7173],[-56.2844,-26.719],[-56.2755,-26.7091],[-56.2692,-26.7129],[-56.2603,-26.6978],[-56.25,-26.7027],[-56.2404,-26.694],[-56.2233,-26.7054],[-56.2153,-26.6976],[-56.1955,-26.7108],[-56.1846,-26.7063],[-56.1818,-26.7112],[-56.1741,-26.6981],[-56.1856,-26.6838],[-56.1783,-26.6755],[-56.1813,-26.667],[-56.1586,-26.6554],[-56.1549,-26.6374],[-56.1169,-26.6267],[-56.1225,-26.5964],[-56.1005,-26.5547],[-56.0561,-26.5235],[-56.0484,-26.5393],[-56.0303,-26.5471],[-56.0251,-26.5432],[-56.0307,-26.5339],[-56.0205,-26.5326],[-56.0137,-26.5136],[-55.9551,-26.5113],[-55.9364,-26.5213],[-55.9295,-26.514],[-55.9111,-26.5134],[-55.9085,-26.4975],[-55.8971,-26.4879],[-55.9012,-26.4794],[-55.8762,-26.4577],[-55.8805,-26.4529],[-55.8625,-26.4402],[-55.8513,-26.4391],[-55.8462,-26.4484],[-55.8374,-26.4454],[-55.8321,-26.4252],[-55.8215,-26.427],[-55.8189,-26.4144],[-55.8253,-26.4092],[-55.8151,-26.3965],[-55.8059,-26.3971],[-55.8053,-26.3874],[-55.766,-26.3938],[-55.7619,-26.3798],[-55.7534,-26.3863],[-55.7366,-26.3797],[-55.7308,-26.3692],[-55.7199,-26.3724],[-55.7176,-26.362],[-55.6834,-26.3582],[-55.6677,-26.3655],[-55.6631,-26.379],[-55.6501,-26.3736],[-55.5959,-26.4174],[-55.5675,-26.39],[-55.563,-26.3672],[-55.5459,-26.3662],[-55.5311,-26.3526],[-55.5066,-26.3568],[-55.4982,-26.3501],[-55.5131,-26.3139],[-55.5072,-26.3079],[-55.4824,-26.3102],[-55.4551,-26.325],[-55.3916,-26.31],[-55.39,-26.302],[-55.3695,-26.2921],[-55.3598,-26.269],[-55.3567,-26.2315],[-55.3676,-26.2227],[-55.3682,-26.2117],[-55.3637,-26.1997],[-55.3588,-26.2058],[-55.3546,-26.2019],[-55.3484,-26.1854],[-55.3516,-26.1657],[-55.3417,-26.1435],[-55.3474,-26.1183],[-55.3401,-26.1165],[-55.3406,-26.1041],[-55.3224,-26.1001],[-55.3163,-26.1051],[-55.3167,-26.0926],[-55.2996,-26.1032],[-55.3119,-26.1084],[-55.3131,-26.1186],[-55.3225,-26.1176],[-55.3143,-26.1258],[-55.3226,-26.134],[-55.2959,-26.15],[-55.3039,-26.1627],[-55.2936,-26.1705],[-55.2903,-26.1954],[-55.2628,-26.2167],[-55.261,-26.2355],[-55.2304,-26.2448],[-55.212,-26.24],[-55.1841,-26.2135],[-55.1679,-26.2169],[-55.1396,-26.2063],[-55.1235,-26.2195],[-55.1025,-26.2147],[-55.1019,-26.2249],[-55.0789,-26.2297],[-55.0681,-26.2432],[-55.0594,-26.2307],[-55.0509,-26.2398],[-55.0354,-26.2379],[-55.0369,-26.2223],[-55.0112,-26.2361],[-54.991,-26.2234],[-54.982,-26.2309],[-54.9838,-26.2429],[-54.9661,-26.2378],[-54.9738,-26.2314],[-54.9693,-26.2269],[-54.9501,-26.2389],[-54.9586,-26.2185],[-54.9481,-26.2176],[-54.9511,-26.2096],[-54.9395,-26.2084],[-54.9343,-26.219],[-54.9298,-26.2121],[-54.9271,-26.2126],[-54.9211,-26.2246],[-54.9266,-26.2243],[-54.9273,-26.2257],[-54.9157,-26.2292],[-54.9083,-26.2204],[-54.9175,-26.2126],[-54.9028,-26.2079],[-54.9196,-26.2021],[-54.9105,-26.1948],[-54.9172,-26.1908],[-54.9118,-26.1819],[-54.8983,-26.1997],[-54.8933,-26.1925],[-54.8707,-26.1906],[-54.8745,-26.1742],[-54.8568,-26.181],[-54.8554,-26.1889],[-54.8369,-26.1806],[-54.84,-26.1882],[-54.8294,-26.1954],[-54.836,-26.2033],[-54.82,-26.2034],[-54.8272,-26.2065],[-54.8242,-26.212],[-54.8082,-26.2076],[-54.8152,-26.19],[-54.8125,-26.1955],[-54.8033,-26.1933],[-54.7822,-26.208],[-54.7785,-26.2364],[-54.7618,-26.2349],[-54.7627,-26.2494],[-54.7529,-26.2406],[-54.7437,-26.2504],[-54.7405,-26.2348],[-54.7241,-26.2568],[-54.7135,-26.2361],[-54.6991,-26.256],[-54.7056,-26.2296],[-54.6932,-26.2281],[-54.6757,-26.2429],[-54.6783,-26.2742],[-54.6521,-26.2983],[-54.6489,-26.315],[-54.6965,-26.3776],[-54.7046,-26.4461],[-54.7522,-26.493],[-54.7832,-26.5117],[-54.7996,-26.5336],[-54.8073,-26.5624],[-54.7854,-26.587],[-54.7838,-26.6143],[-54.7883,-26.6334],[-54.8127,-26.6693],[-54.8331,-26.6737],[-54.8555,-26.6571],[-54.8765,-26.6564],[-54.941,-26.6814],[-54.9481,-26.7017],[-54.9449,-26.7559],[-54.9597,-26.7854],[-55.0275,-26.7901],[-55.0539,-26.7983],[-55.0906,-26.8355],[-55.1396,-26.8641],[-55.1495,-26.8898],[-55.131,-26.9352],[-55.1398,-26.9523],[-55.2067,-26.9689],[-55.2389,-26.9417],[-55.2621,-26.9372],[-55.3041,-26.9628],[-55.3759,-26.9652],[-55.4245,-26.9971],[-55.4442,-27.0228],[-55.4565,-27.0583],[-55.4525,-27.1024],[-55.4677,-27.1098],[-55.5391,-27.1011],[-55.5552,-27.106],[-55.5644,-27.1216],[-55.5623,-27.1595],[-55.5745,-27.1674],[-55.6064,-27.1628],[-55.62,-27.1823],[-55.6168,-27.2103],[-55.5769,-27.2444],[-55.5775,-27.2654],[-55.6012,-27.2861],[-55.5908,-27.3263],[-55.6288,-27.3571],[-55.6884,-27.3827],[-55.7315,-27.4432],[-55.7856,-27.4412],[-55.8266,-27.425],[-55.8636,-27.3919],[-55.8644,-27.3746],[-55.8886,-27.3412],[-55.9595,-27.3483],[-56.0039,-27.3343],[-56.0465,-27.3066],[-56.0796,-27.3059],[-56.1105,-27.3114],[-56.1756,-27.3402],[-56.2091,-27.3851],[-56.2696,-27.3991],[-56.2925,-27.4111],[-56.2958,-27.4789],[-56.3536,-27.5351],[-56.3622,-27.5703],[-56.377,-27.5878],[-56.4078,-27.5918],[-56.4291,-27.5858],[-56.4817,-27.5558],[-56.5488,-27.4584],[-56.5893,-27.4382],[-56.6941,-27.4519],[-56.7191,-27.4662]]]}},{"type":"Feature","properties":{"departamento":8,"nombre":"Misiones"},"geometry":{"type":"Polygon","coordinates":[[[-56.9317,-27.4113],[-57.0486,-27.4823],[-57.137,-27.4857],[-57.1897,-27.469],[-57.2334,-27.467],[-57.3153,-27.4179],[-57.342,-27.4163],[-57.1821,-27.109],[-57.4287,-27.0601],[-57.6401,-26.7904],[-57.7431,-26.4006],[-57.7285,-26.4001],[-57.7155,-26.3885],[-57.7154,-26.4009],[-57.7033,-26.4066],[-57.7083,-26.4242],[-57.6969,-26.4273],[-57.6884,-26.4182],[-57.6808,-26.4342],[-57.6634,-26.4323],[-57.6682,-26.4395],[-57.6612,-26.4478],[-57.6761,-26.4596],[-57.6749,-26.4683],[-57.6556,-26.4671],[-57.6642,-26.4804],[-57.6579,-26.4891],[-57.6485,-26.4779],[-57.6402,-26.4789],[-57.6402,-26.5003],[-57.6332,-26.4914],[-57.6201,-26.4913],[-57.597,-26.5325],[-57.5759,-26.5336],[-57.562,-26.5217],[-57.5469,-26.5248],[-57.5451,-26.5425],[-57.5366,-26.5368],[-57.5096,-26.5382],[-57.5205,-26.5511],[-57.499,-26.5537],[-57.5068,-26.5667],[-57.4953,-26.567],[-57.4898,-26.5583],[-57.4712,-26.5601],[-57.471,-26.576],[-57.4482,-26.5711],[-57.4524,-26.5782],[-57.4283,-26.5916],[-57.4356,-26.6137],[-57.4161,-26.6058],[-57.4098,-26.6196],[-57.3803,-26.605],[-57.3739,-26.6183],[-57.3753,-26.6076],[-57.3647,-26.6129],[-57.3613,-26.5944],[-57.3527,-26.6121],[-57.3474,-26.6135],[-57.3461,-26.6047],[-57.3315,-26.6095],[-57.3212,-26.6014],[-57.3209,-26.5846],[-57.2947,-26.5941],[-57.2947,-26.5825],[-57.2828,-26.5975],[-57.2815,-26.587],[-57.2651,-26.5879],[-57.2656,-26.5824],[-57.2756,-26.5829],[-57.2462,-26.5577],[-57.2542,-26.5455],[-57.2427,-26.5399],[-57.2363,-26.5461],[-57.232,-26.5389],[-57.2436,-26.5296],[-57.233,-26.5119],[-57.2438,-26.5105],[-57.2504,-26.4889],[-57.2411,-26.4993],[-57.2312,-26.4894],[-57.2287,-26.4993],[-57.2181,-26.4978],[-57.2273,-26.4784],[-57.2088,-26.4886],[-57.2083,-26.4689],[-57.1865,-26.4675],[-57.1844,-26.4328],[-57.1706,-26.4123],[-57.126,-26.4026],[-57.1216,-26.382],[-57.1052,-26.3853],[-57.0942,-26.3769],[-57.0737,-26.378],[-57.0634,-26.399],[-57.0445,-26.4015],[-57.0423,-26.4132],[-57.0171,-26.418],[-56.9987,-26.412],[-56.9932,-26.432],[-56.9804,-26.4354],[-56.9716,-26.4485],[-56.9553,-26.4493],[-56.9599,-26.4824],[-56.9477,-26.485],[-56.9461,-26.4755],[-56.9372,-26.4769],[-56.9124,-26.4608],[-56.9016,-26.4769],[-56.8785,-26.4887],[-56.8993,-26.4963],[-56.8727,-26.5034],[-56.8836,-26.5065],[-56.8796,-26.5231],[-56.8474,-26.5435],[-56.8373,-26.5367],[-56.8316,-26.5494],[-56.821,-26.5436],[-56.8075,-26.5676],[-56.8174,-26.5672],[-56.8219,-26.5849],[-56.801,-26.615],[-56.8055,-26.6228],[-56.7716,-26.6169],[-56.7634,-26.6228],[-56.7704,-26.6274],[-56.7696,-26.6384],[-56.7656,-26.6304],[-56.7526,-26.6355],[-56.7528,-26.6285],[-56.7394,-26.6222],[-56.7394,-26.6289],[-56.7268,-26.6293],[-56.7324,-26.6391],[-56.7088,-26.6525],[-56.7015,-26.6473],[-56.6976,-26.6584],[-56.6739,-26.6526],[-56.6623,-26.6711],[-56.6551,-26.67],[-56.6578,-26.6621],[-56.6364,-26.6663],[-56.6351,-26.6816],[-56.6449,-26.678],[-56.6466,-26.6878],[-56.6521,-26.6861],[-56.6492,-26.7068],[-56.6556,-26.7063],[-56.655,-26.7196],[-56.6621,-26.7228],[-56.6441,-26.9783],[-56.6261,-27.0061],[-56.6408,-27.0355],[-56.6348,-27.1463],[-56.6385,-27.1644],[-56.6548,-27.1721],[-56.6683,-27.1958],[-56.6884,-27.2009],[-56.6957,-27.2102],[-56.6908,-27.2239],[-56.7015,-27.2242],[-56.7096,-27.2358],[-56.6972,-27.2419],[-56.6964,-27.2719],[-56.6815,-27.2784],[-56.6664,-27.2998],[-56.6747,-27.3041],[-56.6715,-27.3177],[-56.678,-27.3223],[-56.6649,-27.3386],[-56.6843,-27.3466],[-56.695,-27.3691],[-56.7725,-27.3883],[-56.7916,-27.3999],[-56.8315,-27.3994],[-56.8486,-27.4102],[-56.9317,-27.4113]]]}},{"type":"Feature","properties":{"departamento":9,"nombre":"Paraguarí"},"geometry":{"type":"Polygon","coordinates":[[[-57.0875,-26.3766],[-57.1052,-26.3853],[-57.123,-26.3828],[-57.126,-26.4026],[-57.1706,-26.4123],[-57.1844,-26.4328],[-57.1865,-26.4675],[-57.2083,-26.4689],[-57.2088,-26.4886],[-57.2273,-26.4784],[-57.2181,-26.4978],[-57.2287,-26.4993],[-57.2312,-26.4894],[-57.2411,-26.4993],[-57.2504,-26.4889],[-57.2438,-26.5105],[-57.233,-26.5119],[-57.2436,-26.5296],[-57.232,-26.5389],[-57.2363,-26.5461],[-57.2427,-26.5399],[-57.2542,-26.5455],[-57.2462,-26.5577],[-57.2756,-26.5829],[-57.2656,-26.5824],[-57.2651,-26.5879],[-57.2815,-26.587],[-57.2828,-26.5975],[-57.2947,-26.5825],[-57.2947,-26.5941],[-57.3209,-26.5846],[-57.3212,-26.6014],[-57.3315,-26.6095],[-57.3461,-26.6047],[-57.3474,-26.6135],[-57.3527,-26.6121],[-57.3613,-26.5944],[-57.3647,-26.6129],[-57.3753,-26.6076],[-57.3739,-26.6183],[-57.3803,-26.605],[-57.4098,-26.6196],[-57.4161,-26.6058],[-57.4356,-26.6137],[-57.4283,-26.5916],[-57.4524,-26.5782],[-57.4482,-26.5711],[-57.471,-26.576],[-57.4712,-26.5601],[-57.4898,-26.5583],[-57.4953,-26.567],[-57.5068,-26.5667],[-57.499,-26.5537],[-57.5205,-26.5511],[-57.5096,-26.5382],[-57.5366,-26.5368],[-57.5451,-26.5425],[-57.5469,-26.5248],[-57.562,-26.5217],[-57.5759,-26.5336],[-57.597,-26.5325],[-57.6201,-26.4913],[-57.6332,-26.4914],[-57.6402,-26.5003],[-57.6402,-26.4789],[-57.6485,-26.4779],[-57.6579,-26.4891],[-57.6642,-26.4804],[-57.6556,-26.4671],[-57.6749,-26.4683],[-57.6761,-26.4596],[-57.6612,-26.4478],[-57.6682,-26.4395],[-57.6634,-26.4323],[-57.6808,-26.4342],[-57.6884,-26.4182],[-57.6969,-26.4273],[-57.7083,-26.4242],[-57.7033,-26.4066],[-57.7154,-26.4009],[-57.7155,-26.3885],[-57.7306,-26.4008],[-57.7479,-26.3953],[-57.7433,-26.388],[-57.7494,-26.382],[-57.7325,-26.3754],[-57.7389,-26.3715],[-57.7301,-26.3669],[-57.7374,-26.3629],[-57.7337,-26.3571],[-57.7189,-26.3569],[-57.7146,-26.3763],[-57.6968,-26.3756],[-57.7022,-26.3664],[-57.6794,-26.3537],[-57.6841,-26.3429],[-57.6938,-26.3416],[-57.6744,-26.3236],[-57.6836,-26.319],[-57.6802,-26.3066],[-57.6644,-26.3052],[-57.6626,-26.2943],[-57.6563,-26.2962],[-57.6496,-26.2838],[-57.6562,-26.2738],[-57.6443,-26.2648],[-57.6293,-26.2687],[-57.6198,-26.2383],[-57.6107,-26.2367],[-57.6111,-26.2203],[-57.5948,-26.2145],[-57.5811,-26.1855],[-57.5312,-26.1793],[-57.4971,-26.1488],[-57.4976,-26.1619],[-57.4848,-26.17],[-57.4777,-26.1655],[-57.4828,-26.1586],[-57.4724,-26.1383],[-57.4757,-26.1241],[-57.4901,-26.1166],[-57.4681,-26.1134],[-57.4899,-26.0583],[-57.4841,-26.046],[-57.4996,-26.0251],[-57.4761,-25.9723],[-57.4151,-25.8836],[-57.423,-25.8541],[-57.4429,-25.8446],[-57.4526,-25.8296],[-57.4633,-25.7793],[-57.4574,-25.7721],[-57.4682,-25.7561],[-57.458,-25.7322],[-57.4268,-25.7008],[-57.4335,-25.7049],[-57.4362,-25.7016],[-57.4166,-25.6945],[-57.4228,-25.6537],[-57.4133,-25.635],[-57.397,-25.6282],[-57.3917,-25.6399],[-57.3812,-25.637],[-57.343,-25.6096],[-57.3435,-25.5872],[-57.3307,-25.5789],[-57.3183,-25.51],[-57.3121,-25.4612],[-57.3188,-25.4472],[-57.291,-25.4514],[-57.2475,-25.4335],[-57.223,-25.4186],[-57.2179,-25.4027],[-57.195,-25.4018],[-57.1835,-25.4097],[-57.18,-25.4305],[-57.1445,-25.4413],[-57.1402,-25.4538],[-57.1318,-25.4557],[-57.1304,-25.4704],[-57.1413,-25.4738],[-57.1258,-25.5185],[-57.1302,-25.5268],[-57.1122,-25.5388],[-57.0892,-25.5825],[-57.0638,-25.5785],[-57.037,-25.5916],[-57.0199,-25.591],[-56.9995,-25.5748],[-56.9566,-25.5623],[-56.9342,-25.5691],[-56.9086,-25.5637],[-56.9057,-25.5694],[-56.921,-25.5755],[-56.9098,-25.6027],[-56.9209,-25.6063],[-56.9476,-25.6415],[-56.9386,-25.6553],[-56.8775,-25.6667],[-56.8626,-25.6623],[-56.8576,-25.6467],[-56.8259,-25.6448],[-56.8055,-25.6238],[-56.7781,-25.6328],[-56.7608,-25.6487],[-56.7493,-25.6485],[-56.7395,-25.6607],[-56.7364,-25.6558],[-56.7276,-25.6632],[-56.7184,-25.6588],[-56.7156,-25.6699],[-56.6992,-25.6785],[-56.7048,-25.6872],[-56.6969,-25.7004],[-56.6698,-25.7002],[-56.6895,-25.7622],[-56.6665,-25.849],[-56.6088,-25.9151],[-56.6083,-25.9794],[-56.6413,-25.9654],[-56.6435,-25.9708],[-56.6645,-25.9708],[-56.6768,-25.9627],[-56.6979,-25.9649],[-56.7074,-25.9538],[-56.7175,-25.9606],[-56.7477,-25.952],[-56.7017,-26.0296],[-56.7068,-26.0337],[-56.7013,-26.0445],[-56.722,-26.0913],[-56.7162,-26.1058],[-56.7058,-26.109],[-56.7111,-26.1341],[-56.6965,-26.153],[-56.6381,-26.1828],[-56.6289,-26.1993],[-56.6391,-26.2275],[-56.6512,-26.2164],[-56.651,-26.225],[-56.6553,-26.2196],[-56.6594,-26.2266],[-56.6684,-26.2238],[-56.6751,-26.2385],[-56.687,-26.2396],[-56.6832,-26.2526],[-56.6996,-26.2613],[-56.694,-26.2782],[-56.6993,-26.2812],[-56.6918,-26.2847],[-56.6991,-26.3008],[-56.725,-26.3122],[-56.7188,-26.3196],[-56.7364,-26.3343],[-56.7325,-26.3498],[-56.7441,-26.3532],[-56.7339,-26.3585],[-56.738,-26.3706],[-56.7552,-26.3658],[-56.7632,-26.3783],[-56.7592,-26.3898],[-56.7662,-26.3967],[-56.7559,-26.3967],[-56.7649,-26.4119],[-56.7605,-26.4209],[-56.7763,-26.4286],[-56.7798,-26.4391],[-56.7797,-26.4308],[-56.7899,-26.4308],[-56.7958,-26.4397],[-56.7851,-26.4565],[-56.7928,-26.4589],[-56.7871,-26.4615],[-56.7966,-26.4715],[-56.7918,-26.4762],[-56.8214,-26.4958],[-56.8247,-26.5128],[-56.8309,-26.5037],[-56.8343,-26.5116],[-56.8421,-26.5106],[-56.8365,-26.5194],[-56.8491,-26.5284],[-56.8478,-26.5414],[-56.8796,-26.5231],[-56.8841,-26.5082],[-56.8736,-26.5023],[-56.8991,-26.4983],[-56.8783,-26.4894],[-56.9016,-26.4769],[-56.909,-26.462],[-56.9461,-26.4755],[-56.9477,-26.485],[-56.9599,-26.4824],[-56.9553,-26.4493],[-56.9716,-26.4485],[-56.9804,-26.4354],[-56.9932,-26.432],[-56.9987,-26.412],[-57.0171,-26.418],[-57.0423,-26.4132],[-57.0445,-26.4015],[-57.0634,-26.399],[-57.0713,-26.379],[-57.0875,-26.3766]]]}},{"type":"Feature","properties":{"departamento":10,"nombre":"Alto Paraná"},"geometry":{"type":"Polygon","coordinates":[[[-55.2612,-26.2351],[-55.2628,-26.2167],[-55.2903,-26.1954],[-55.2936,-26.1705],[-55.3039,-26.1627],[-55.2959,-26.15],[-55.3205,-26.1389],[-55.3143,-26.1258],[-55.3229,-26.1187],[-55.3131,-26.1186],[-55.3119,-26.1084],[-55.2967,-26.1029],[-55.2994,-26.0879],[-55.2884,-26.0836],[-55.2897,-26.0951],[-55.2815,-26.0962],[-55.2682,-26.0776],[-55.2507,-26.0785],[-55.2561,-26.0378],[-55.2652,-26.0441],[-55.274,-26.0405],[-55.283,-26.0526],[-55.2943,-26.0387],[-55.3052,-26.0424],[-55.3221,-26.0198],[-55.3301,-26.0201],[-55.3254,-26.0121],[-55.3444,-26.0022],[-55.3396,-25.9962],[-55.3472,-25.9898],[-55.363,-25.9959],[-55.3647,-26.0058],[-55.3816,-25.9998],[-55.3838,-26.0087],[-55.3751,-26.0092],[-55.3845,-26.0144],[-55.3761,-26.0176],[-55.3925,-26.0353],[-55.4062,-26.0182],[-55.4097,-25.9985],[-55.4164,-26.0027],[-55.4266,-25.9974],[-55.4312,-26.0098],[-55.4372,-25.9996],[-55.4554,-26.0042],[-55.4586,-25.9895],[-55.465,-25.9981],[-55.5067,-25.9854],[-55.5266,-25.9985],[-55.5319,-25.9931],[-55.5506,-25.9969],[-55.5341,-25.97],[-55.5158,-25.9018],[-55.5268,-25.8889],[-55.5126,-25.8716],[-55.5131,-25.8612],[-55.53,-25.8459],[-55.5219,-25.8041],[-55.5144,-25.7856],[-55.5022,-25.7817],[-55.4841,-25.7575],[-55.4783,-25.7272],[-55.4658,-25.7173],[-55.4771,-25.6804],[-55.4603,-25.6755],[-55.4529,-25.6541],[-55.4273,-25.6598],[-55.417,-25.631],[-55.4,-25.6229],[-55.3993,-25.6041],[-55.418,-25.5868],[-55.4131,-25.5841],[-55.4261,-25.5571],[-55.3784,-25.3619],[-55.3554,-25.3576],[-55.3285,-25.3353],[-55.3072,-25.2773],[-55.2899,-25.2517],[-55.2552,-25.2506],[-55.2251,-25.2628],[-55.1727,-25.3123],[-55.145,-25.3253],[-55.1102,-25.3272],[-55.0507,-25.3146],[-55.0403,-25.3236],[-55.0248,-25.3734],[-55.0084,-25.3863],[-54.971,-25.3798],[-54.9607,-25.3612],[-54.9502,-25.3654],[-54.9545,-25.3705],[-54.9438,-25.367],[-54.9334,-25.3775],[-54.9332,-25.3681],[-54.9232,-25.3665],[-54.9505,-25.3466],[-54.9392,-25.3444],[-54.9416,-25.3229],[-54.9644,-25.3167],[-54.9634,-25.3061],[-54.9548,-25.3044],[-54.9772,-25.2785],[-54.9726,-25.2688],[-54.9652,-25.2723],[-54.9651,-25.2497],[-54.9747,-25.248],[-54.9703,-25.2585],[-54.9802,-25.2637],[-54.9915,-25.2576],[-54.9841,-25.2469],[-54.9953,-25.2412],[-54.9937,-25.2493],[-55.0033,-25.252],[-55.0021,-25.241],[-55.017,-25.2442],[-55.0126,-25.2337],[-55.0219,-25.2349],[-55.0245,-25.2289],[-55.0173,-25.228],[-55.0284,-25.2257],[-55.0187,-25.2149],[-55.0246,-25.2086],[-55.0083,-25.1995],[-55.0098,-25.1941],[-55.0225,-25.1931],[-55.0305,-25.175],[-55.0538,-25.1741],[-55.0575,-25.1578],[-55.0691,-25.1578],[-55.0806,-25.1428],[-55.0891,-25.1448],[-55.0925,-25.1278],[-55.1026,-25.1334],[-55.1128,-25.1298],[-55.1352,-25.115],[-55.1451,-25.0984],[-55.1565,-25.1006],[-55.1594,-25.0867],[-55.1717,-25.0815],[-55.168,-25.0755],[-55.1785,-25.055],[-55.1933,-25.043],[-55.2019,-25.0391],[-55.2049,-25.0493],[-55.2153,-25.044],[-55.2213,-25.0516],[-55.2333,-25.0436],[-55.2312,-25.029],[-55.25,-25.0381],[-55.2556,-25.0304],[-55.2676,-25.0435],[-55.2812,-25.0386],[-55.2702,-25.031],[-55.2785,-25.0267],[-55.273,-25.0233],[-55.2987,-25.0219],[-55.2974,-25.0155],[-55.3032,-25.0161],[-55.3111,-25.011],[-55.3074,-24.9835],[-55.3212,-24.9698],[-55.3328,-24.9682],[-55.3289,-24.9262],[-55.3453,-24.9182],[-55.3269,-24.9008],[-55.3251,-24.8836],[-55.3408,-24.8682],[-55.3432,-24.8465],[-55.3501,-24.8468],[-55.3339,-24.826],[-55.3378,-24.812],[-55.3207,-24.7664],[-55.3234,-24.7511],[-55.301,-24.716],[-55.3178,-24.6928],[-55.3162,-24.6781],[-55.2922,-24.6449],[-55.301,-24.6383],[-55.2926,-24.6131],[-55.3067,-24.5899],[-55.302,-24.5669],[-55.2755,-24.5277],[-55.2512,-24.5151],[-55.1869,-24.5176],[-55.1576,-24.5285],[-55.1603,-24.5175],[-55.1388,-24.4968],[-55.143,-24.4881],[-55.1546,-24.4791],[-55.1545,-24.4762],[-55.134,-24.4799],[-55.1225,-24.4938],[-55.1127,-24.5083],[-55.1131,-24.5362],[-55.103,-24.5437],[-55.0549,-24.5512],[-55.0313,-24.5444],[-54.9935,-24.5495],[-54.9745,-24.5592],[-54.9709,-24.5685],[-54.9437,-24.5644],[-54.9142,-24.5739],[-54.9118,-24.5905],[-54.9026,-24.5985],[-54.904,-24.6125],[-54.8887,-24.6166],[-54.8989,-24.6292],[-54.864,-24.6363],[-54.8597,-24.6492],[-54.8334,-24.6564],[-54.8405,-24.6734],[-54.835,-24.6688],[-54.8307,-24.6747],[-54.8231,-24.6625],[-54.8069,-24.6764],[-54.7977,-24.6754],[-54.772,-24.6485],[-54.7683,-24.656],[-54.7504,-24.6609],[-54.7457,-24.654],[-54.7284,-24.6521],[-54.7204,-24.6767],[-54.6998,-24.6904],[-54.6874,-24.6883],[-54.6831,-24.672],[-54.6657,-24.6747],[-54.6553,-24.6671],[-54.6425,-24.6858],[-54.6544,-24.6896],[-54.6557,-24.7142],[-54.6438,-24.7028],[-54.6313,-24.7007],[-54.6349,-24.7098],[-54.6193,-24.7078],[-54.6085,-24.6958],[-54.56,-24.6894],[-54.5364,-24.6919],[-54.5253,-24.7037],[-54.5044,-24.6988],[-54.4991,-24.7196],[-54.4789,-24.7064],[-54.4722,-24.7234],[-54.4516,-24.7218],[-54.4436,-24.7181],[-54.4429,-24.6985],[-54.4251,-24.6989],[-54.4227,-24.6834],[-54.415,-24.6795],[-54.4016,-24.6906],[-54.3884,-24.6878],[-54.3458,-24.7077],[-54.3724,-24.7398],[-54.3989,-24.8051],[-54.4032,-24.8415],[-54.4285,-24.9096],[-54.4567,-25.0634],[-54.455,-25.0898],[-54.4175,-25.1366],[-54.417,-25.161],[-54.4695,-25.2143],[-54.4873,-25.2916],[-54.5116,-25.3284],[-54.5845,-25.3973],[-54.6042,-25.4414],[-54.6192,-25.4529],[-54.6155,-25.4722],[-54.5969,-25.4915],[-54.5969,-25.6231],[-54.5813,-25.6613],[-54.5975,-25.6689],[-54.6447,-25.661],[-54.6576,-25.6851],[-54.636,-25.7337],[-54.6289,-25.7712],[-54.5931,-25.8162],[-54.5874,-25.8348],[-54.6225,-25.9155],[-54.6208,-25.9378],[-54.6071,-25.9593],[-54.6107,-25.9774],[-54.6241,-25.9854],[-54.6692,-25.9823],[-54.6793,-26.0064],[-54.6432,-26.0923],[-54.6507,-26.1188],[-54.6737,-26.1417],[-54.6726,-26.1563],[-54.6584,-26.1772],[-54.6237,-26.1997],[-54.6193,-26.2198],[-54.6724,-26.254],[-54.6925,-26.2283],[-54.7051,-26.2292],[-54.6985,-26.2554],[-54.714,-26.236],[-54.719,-26.2549],[-54.7259,-26.2571],[-54.74,-26.235],[-54.745,-26.2507],[-54.7529,-26.2406],[-54.7629,-26.2493],[-54.7626,-26.2342],[-54.7782,-26.2367],[-54.7858,-26.2188],[-54.7822,-26.208],[-54.8033,-26.1933],[-54.8125,-26.1955],[-54.8152,-26.19],[-54.8082,-26.2076],[-54.8242,-26.212],[-54.8272,-26.2065],[-54.82,-26.2034],[-54.836,-26.2033],[-54.8294,-26.1954],[-54.84,-26.1882],[-54.8369,-26.1806],[-54.8554,-26.1889],[-54.8568,-26.181],[-54.8745,-26.1742],[-54.8707,-26.1906],[-54.8933,-26.1925],[-54.8983,-26.1997],[-54.9118,-26.1819],[-54.9172,-26.1908],[-54.9105,-26.1948],[-54.9196,-26.2021],[-54.9028,-26.2079],[-54.9175,-26.2126],[-54.9083,-26.2204],[-54.9157,-26.2292],[-54.9273,-26.2257],[-54.9211,-26.2246],[-54.9271,-26.2126],[-54.9343,-26.219],[-54.9395,-26.2084],[-54.9511,-26.2096],[-54.9481,-26.2176],[-54.9586,-26.2185],[-54.9501,-26.2389],[-54.9693,-26.2269],[-54.9738,-26.2314],[-54.9661,-26.2378],[-54.9838,-26.2429],[-54.982,-26.2309],[-54.991,-26.2234],[-55.0112,-26.2361],[-55.0369,-26.2223],[-55.0354,-26.2379],[-55.0509,-26.2398],[-55.0594,-26.2307],[-55.0681,-26.2432],[-55.0789,-26.2297],[-55.1019,-26.2249],[-55.1025,-26.2147],[-55.1235,-26.2195],[-55.1396,-26.2063],[-55.1679,-26.2169],[-55.1841,-26.2135],[-55.212,-26.24],[-55.2304,-26.2448],[-55.2612,-26.2351]]]}},{"type":"Feature","properties":{"departamento":11,"nombre":"Central"},"geometry":{"type":"Polygon","coordinates":[[[-57.7794,-25.7603],[-57.7277,-25.7151],[-57.7332,-25.7072],[-57.7597,-25.7085],[-57.7668,-25.6994],[-57.743,-25.6526],[-57.7212,-25.6458],[-57.6891,-25.6615],[-57.6744,-25.6593],[-57.6745,-25.5985],[-57.6572,-25.5971],[-57.635,-25.6151],[-57.619,-25.6165],[-57.6086,-25.6053],[-57.6047,-25.5685],[-57.5811,-25.5695],[-57.5714,-25.5529],[-57.5798,-25.5114],[-57.5609,-25.4717],[-57.5583,-25.4461],[-57.6053,-25.3955],[-57.6414,-25.3809],[-57.6364,-25.3491],[-57.6146,-25.3125],[-57.5861,-25.3414],[-57.5432,-25.2963],[-57.5424,-25.2718],[-57.5248,-25.2428],[-57.5751,-25.2247],[-57.539,-25.1742],[-57.5396,-25.1427],[-57.5305,-25.1158],[-57.509,-25.0975],[-57.4839,-25.1],[-57.4744,-25.1142],[-57.4508,-25.1271],[-57.4475,-25.1233],[-57.4425,-25.1324],[-57.4385,-25.127],[-57.4264,-25.1331],[-57.4341,-25.1445],[-57.4085,-25.1538],[-57.4066,-25.1703],[-57.3965,-25.1681],[-57.4045,-25.1808],[-57.3959,-25.1925],[-57.3335,-25.2373],[-57.3274,-25.2482],[-57.3433,-25.294],[-57.2963,-25.3535],[-57.2335,-25.3668],[-57.2056,-25.3527],[-57.1949,-25.3698],[-57.193,-25.3987],[-57.2073,-25.4058],[-57.2179,-25.4027],[-57.223,-25.4186],[-57.2386,-25.4294],[-57.291,-25.4514],[-57.3188,-25.4472],[-57.3121,-25.4612],[-57.3183,-25.51],[-57.3307,-25.5789],[-57.3435,-25.5872],[-57.343,-25.6096],[-57.3911,-25.64],[-57.3964,-25.6283],[-57.4063,-25.6284],[-57.4215,-25.6471],[-57.4166,-25.6945],[-57.4362,-25.7016],[-57.4268,-25.7008],[-57.458,-25.7322],[-57.4682,-25.7561],[-57.4574,-25.7721],[-57.4633,-25.7793],[-57.4526,-25.8296],[-57.4429,-25.8446],[-57.423,-25.8541],[-57.4161,-25.8893],[-57.4761,-25.9723],[-57.4996,-26.0251],[-57.4984,-25.9767],[-57.5216,-25.9892],[-57.5344,-25.9855],[-57.5182,-25.978],[-57.5332,-25.9655],[-57.5168,-25.9542],[-57.5336,-25.9425],[-57.5427,-25.9477],[-57.5866,-25.8949],[-57.6043,-25.9056],[-57.6075,-25.8936],[-57.6148,-25.8954],[-57.6007,-25.8665],[-57.617,-25.8714],[-57.6171,-25.8796],[-57.6306,-25.8743],[-57.6251,-25.8639],[-57.6358,-25.8671],[-57.6424,-25.854],[-57.6667,-25.8698],[-57.6686,-25.8612],[-57.6884,-25.8602],[-57.6927,-25.8463],[-57.705,-25.8443],[-57.7147,-25.8515],[-57.7276,-25.8446],[-57.731,-25.8316],[-57.7353,-25.8374],[-57.7468,-25.8331],[-57.7396,-25.832],[-57.7454,-25.8145],[-57.7387,-25.8102],[-57.7535,-25.7913],[-57.751,-25.7843],[-57.7401,-25.7831],[-57.7451,-25.7687],[-57.7567,-25.768],[-57.7561,-25.7769],[-57.7658,-25.7802],[-57.7587,-25.7923],[-57.7654,-25.7996],[-57.7789,-25.8035],[-57.7935,-25.797],[-57.7872,-25.8298],[-57.8083,-25.84],[-57.7962,-25.8147],[-57.8199,-25.781],[-57.8261,-25.7568],[-57.8135,-25.7515],[-57.7794,-25.7603]]]}},{"type":"Feature","properties":{"departamento":12,"nombre":"Ñeembucú"},"geometry":{"type":"Polygon","coordinates":[[[-58.5293,-27.2936],[-58.6102,-27.3062],[-58.6067,-27.2799],[-58.592,-27.253],[-58.5963,-27.2261],[-58.6073,-27.2139],[-58.6539,-27.1926],[-58.6643,-27.1655],[-58.6409,-27.1221],[-58.6177,-27.1127],[-58.5556,-27.1066],[-58.5553,-27.0365],[-58.5255,-27.04],[-58.5202,-27.0594],[-58.509,-27.0625],[-58.5029,-27.0347],[-58.5181,-27.003],[-58.5018,-26.9966],[-58.4789,-27.0011],[-58.4687,-26.9906],[-58.4984,-26.9249],[-58.4636,-26.9303],[-58.3859,-26.893],[-58.3792,-26.8707],[-58.3694,-26.8634],[-58.3393,-26.8715],[-58.3198,-26.8644],[-58.3219,-26.8477],[-58.3545,-26.8285],[-58.3577,-26.8162],[-58.3468,-26.8049],[-58.3093,-26.8084],[-58.2839,-26.7959],[-58.2929,-26.7582],[-58.2621,-26.7625],[-58.2486,-26.7525],[-58.2593,-26.646],[-58.248,-26.6412],[-58.2135,-26.6545],[-58.1911,-26.6451],[-58.2092,-26.618],[-58.1926,-26.5937],[-58.1982,-26.567],[-58.2251,-26.5331],[-58.2078,-26.4957],[-58.231,-26.4701],[-58.2227,-26.4636],[-58.1881,-26.4631],[-58.1804,-26.4542],[-58.2181,-26.4146],[-58.2217,-26.3979],[-58.2132,-26.3805],[-58.1714,-26.36],[-58.1594,-26.3451],[-58.1541,-26.3174],[-58.1662,-26.2922],[-58.1638,-26.265],[-58.1133,-26.242],[-58.1047,-26.2295],[-58.112,-26.2145],[-58.1592,-26.1816],[-58.1157,-26.1843],[-58.1151,-26.1482],[-58.0895,-26.1151],[-58.0171,-26.1039],[-57.9479,-26.0659],[-57.9202,-26.0324],[-57.8549,-26.0052],[-57.8563,-25.9859],[-57.8947,-25.9586],[-57.882,-25.934],[-57.8495,-25.923],[-57.8407,-25.9116],[-57.843,-25.8985],[-57.8651,-25.8803],[-57.8631,-25.8635],[-57.8547,-25.8544],[-57.7897,-25.8338],[-57.7935,-25.797],[-57.7789,-25.8035],[-57.7654,-25.7996],[-57.7587,-25.7923],[-57.7658,-25.7802],[-57.7561,-25.7769],[-57.7567,-25.768],[-57.7452,-25.7687],[-57.7401,-25.7831],[-57.751,-25.7843],[-57.7535,-25.7913],[-57.7387,-25.8102],[-57.7454,-25.8145],[-57.7396,-25.832],[-57.745,-25.8315],[-57.7468,-25.8331],[-57.7353,-25.8374],[-57.731,-25.8316],[-57.7276,-25.8446],[-57.7147,-25.8515],[-57.705,-25.8443],[-57.6927,-25.8463],[-57.6884,-25.8602],[-57.6686,-25.8612],[-57.6667,-25.8698],[-57.6424,-25.854],[-57.6358,-25.8671],[-57.6251,-25.8639],[-57.6306,-25.8743],[-57.6171,-25.8796],[-57.617,-25.8714],[-57.6007,-25.8665],[-57.6025,-25.8762],[-57.6088,-25.8738],[-57.6037,-25.883],[-57.6156,-25.8924],[-57.605,-25.8966],[-57.6057,-25.9054],[-57.5866,-25.8949],[-57.5427,-25.9477],[-57.5336,-25.9425],[-57.5168,-25.9542],[-57.5332,-25.9655],[-57.5182,-25.978],[-57.5337,-25.9869],[-57.5216,-25.9892],[-57.5036,-25.9749],[-57.4977,-25.9775],[-57.4996,-26.0251],[-57.4841,-26.046],[-57.4899,-26.0583],[-57.4681,-26.1134],[-57.4746,-26.1121],[-57.4901,-26.1165],[-57.4757,-26.124],[-57.4724,-26.1381],[-57.4816,-26.1697],[-57.4979,-26.1615],[-57.4971,-26.1488],[-57.5312,-26.1793],[-57.5811,-26.1855],[-57.5948,-26.2145],[-57.6111,-26.2203],[-57.6107,-26.2367],[-57.6198,-26.2383],[-57.6293,-26.2687],[-57.6443,-26.2648],[-57.6562,-26.2738],[-57.6496,-26.2838],[-57.6563,-26.2962],[-57.6626,-26.2943],[-57.6644,-26.3052],[-57.6802,-26.3066],[-57.6836,-26.319],[-57.6744,-26.3236],[-57.6938,-26.3416],[-57.6841,-26.3429],[-57.6794,-26.3537],[-57.7022,-26.3664],[-57.6968,-26.3756],[-57.7146,-26.3763],[-57.7236,-26.3543],[-57.7359,-26.3591],[-57.7301,-26.3669],[-57.7388,-26.3719],[-57.7328,-26.376],[-57.7494,-26.382],[-57.6401,-26.7904],[-57.4287,-27.0601],[-57.1821,-27.109],[-57.342,-27.4163],[-57.4556,-27.4407],[-57.4999,-27.4427],[-57.6171,-27.3877],[-57.6881,-27.3391],[-57.8218,-27.331],[-57.8484,-27.2915],[-57.8768,-27.2757],[-57.8873,-27.2758],[-57.909,-27.2988],[-58.0229,-27.2585],[-58.0737,-27.2613],[-58.0929,-27.2734],[-58.1722,-27.2771],[-58.2626,-27.2558],[-58.2925,-27.2793],[-58.3176,-27.2746],[-58.4157,-27.2902],[-58.4773,-27.2738],[-58.5293,-27.2936]]]}},{"type":"Feature","properties":{"departamento":13,"nombre":"Amambay"},"geometry":{"type":"Polygon","coordinates":[[[-56.1143,-23.6053],[-56.1111,-23.5921],[-56.1357,-23.5653],[-56.1436,-23.5362],[-56.1353,-23.512],[-56.1668,-23.4692],[-56.1683,-23.4555],[-56.1543,-23.4235],[-56.1639,-23.3096],[-56.1737,-23.3098],[-56.1741,-23.3016],[-56.1802,-23.3084],[-56.1953,-23.3007],[-56.2079,-23.3106],[-56.2142,-23.3031],[-56.223,-23.3083],[-56.218,-23.3209],[-56.2268,-23.3191],[-56.2315,-23.3293],[-56.2411,-23.3136],[-56.2603,-23.3274],[-56.2924,-23.3292],[-56.2936,-23.3436],[-56.3009,-23.338],[-56.3094,-23.3459],[-56.3142,-23.3454],[-56.3117,-23.3268],[-56.2876,-23.3178],[-56.2995,-23.2965],[-56.2819,-23.2827],[-56.2857,-23.2715],[-56.2713,-23.273],[-56.2682,-23.2615],[-56.2756,-23.2581],[-56.2649,-23.2553],[-56.2596,-23.2446],[-56.2395,-23.2408],[-56.2388,-23.2266],[-56.2185,-23.235],[-56.2115,-23.2307],[-56.2136,-23.2222],[-56.2011,-23.2266],[-56.1981,-23.2193],[-56.2187,-23.1913],[-56.2136,-23.1745],[-56.2031,-23.1738],[-56.2076,-23.1618],[-56.1824,-23.1605],[-56.1893,-23.1299],[-56.1796,-23.1185],[-56.1654,-23.1258],[-56.1417,-23.1212],[-56.1393,-23.1118],[-56.152,-23.0981],[-56.1361,-23.0882],[-56.1387,-23.0775],[-56.1258,-23.0694],[-56.1304,-23.0429],[-56.2944,-22.6876],[-56.3056,-22.6946],[-56.3129,-22.687],[-56.328,-22.6876],[-56.3422,-22.6945],[-56.3431,-22.7083],[-56.359,-22.7067],[-56.3639,-22.7201],[-56.3852,-22.7135],[-56.3824,-22.7236],[-56.3923,-22.7219],[-56.3981,-22.7492],[-56.4064,-22.7477],[-56.4044,-22.7408],[-56.4118,-22.7437],[-56.415,-22.752],[-56.4089,-22.7558],[-56.428,-22.7605],[-56.4427,-22.7779],[-56.4524,-22.7669],[-56.454,-22.7751],[-56.4829,-22.772],[-56.5048,-22.783],[-56.5089,-22.8027],[-56.526,-22.8098],[-56.5219,-22.8414],[-56.5437,-22.861],[-56.5386,-22.8794],[-56.5582,-22.8879],[-56.5595,-22.8995],[-56.5879,-22.8984],[-56.5828,-22.9085],[-56.5968,-22.9135],[-56.6153,-22.9089],[-56.6149,-22.8956],[-56.6218,-22.8991],[-56.6397,-22.8864],[-56.6646,-22.8811],[-56.6674,-22.8937],[-56.6803,-22.9003],[-56.6886,-22.8965],[-56.6944,-22.9025],[-56.7087,-22.9009],[-56.7087,-22.9059],[-56.713,-22.8971],[-56.7048,-22.8685],[-56.7132,-22.8434],[-56.6773,-22.8436],[-56.6809,-22.837],[-56.6663,-22.8283],[-56.6644,-22.816],[-56.6535,-22.8159],[-56.6491,-22.802],[-56.6614,-22.7937],[-56.6623,-22.772],[-56.6698,-22.7665],[-56.6656,-22.7228],[-56.6761,-22.7228],[-56.6736,-22.7102],[-56.696,-22.7093],[-56.7019,-22.697],[-56.6949,-22.6958],[-56.6942,-22.6822],[-56.7268,-22.6515],[-56.7153,-22.6221],[-56.7276,-22.5923],[-56.7286,-22.5611],[-56.7377,-22.5499],[-56.735,-22.5247],[-56.7226,-22.5094],[-56.7175,-22.4598],[-56.7105,-22.4506],[-56.6835,-22.433],[-56.6487,-22.4221],[-56.6449,-22.3845],[-56.6094,-22.3653],[-56.8261,-22.2959],[-56.8199,-22.2867],[-56.8016,-22.2816],[-56.8058,-22.2574],[-56.7933,-22.2424],[-56.7859,-22.2412],[-56.7884,-22.2536],[-56.7767,-22.2605],[-56.7627,-22.2515],[-56.7673,-22.2445],[-56.7519,-22.2467],[-56.7471,-22.2358],[-56.7205,-22.2649],[-56.7143,-22.2494],[-56.703,-22.2452],[-56.7057,-22.2366],[-56.6953,-22.2309],[-56.7035,-22.217],[-56.6829,-22.2215],[-56.6795,-22.2464],[-56.6368,-22.2633],[-56.643,-22.2448],[-56.6347,-22.2407],[-56.6275,-22.2468],[-56.6061,-22.2321],[-56.6098,-22.221],[-56.5992,-22.2186],[-56.5999,-22.2113],[-56.5935,-22.2184],[-56.5804,-22.2042],[-56.5705,-22.2075],[-56.5567,-22.1965],[-56.5517,-22.1859],[-56.5571,-22.1691],[-56.5333,-22.159],[-56.5403,-22.1473],[-56.5196,-22.1408],[-56.527,-22.1306],[-56.5189,-22.1083],[-56.5066,-22.0955],[-56.4764,-22.0941],[-56.471,-22.0799],[-56.454,-22.085],[-56.448,-22.0765],[-56.4475,-22.0851],[-56.4385,-22.0811],[-56.431,-22.0869],[-56.3935,-22.0746],[-56.3891,-22.0918],[-56.3955,-22.0943],[-56.3808,-22.1048],[-56.3844,-22.1105],[-56.372,-22.1259],[-56.3678,-22.1369],[-56.3739,-22.1498],[-56.3647,-22.1696],[-56.3498,-22.1733],[-56.3462,-22.1881],[-56.3169,-22.2182],[-56.2995,-22.2174],[-56.2771,-22.2368],[-56.2382,-22.2365],[-56.2346,-22.2557],[-56.21,-22.278],[-56.1935,-22.2712],[-56.1889,-22.2819],[-56.1747,-22.2793],[-56.1657,-22.2884],[-56.161,-22.2823],[-56.1307,-22.2844],[-56.1246,-22.2707],[-56.1177,-22.2704],[-56.0926,-22.2857],[-56.0693,-22.2867],[-56.0609,-22.2755],[-56.0124,-22.2863],[-56.0101,-22.2946],[-55.9831,-22.2786],[-55.9695,-22.2921],[-55.9495,-22.2931],[-55.9456,-22.2834],[-55.9164,-22.2778],[-55.9001,-22.2859],[-55.8533,-22.2803],[-55.8431,-22.2871],[-55.8289,-22.316],[-55.8324,-22.3257],[-55.821,-22.3451],[-55.8009,-22.3553],[-55.8037,-22.3723],[-55.7911,-22.3885],[-55.7467,-22.3841],[-55.7339,-22.4415],[-55.7358,-22.4601],[-55.7481,-22.4645],[-55.7529,-22.4748],[-55.7473,-22.5055],[-55.7236,-22.5518],[-55.6984,-22.5633],[-55.6829,-22.5889],[-55.6313,-22.6206],[-55.6229,-22.6505],[-55.6144,-22.6551],[-55.6131,-22.7389],[-55.6266,-22.7576],[-55.6181,-22.7675],[-55.6353,-22.7703],[-55.6523,-22.7923],[-55.6492,-22.8016],[-55.6659,-22.8525],[-55.6612,-22.8822],[-55.6495,-22.891],[-55.6476,-22.9499],[-55.6346,-22.9552],[-55.6368,-22.9648],[-55.622,-22.9846],[-55.6339,-22.9918],[-55.6285,-22.9983],[-55.6394,-23.0259],[-55.6112,-23.0477],[-55.611,-23.077],[-55.617,-23.0817],[-55.5998,-23.1042],[-55.5968,-23.1526],[-55.5735,-23.1433],[-55.5419,-23.1561],[-55.5431,-23.1808],[-55.5233,-23.1978],[-55.5342,-23.2169],[-55.5462,-23.2201],[-55.5373,-23.2513],[-55.5227,-23.2597],[-55.5532,-23.2795],[-55.5493,-23.3036],[-55.556,-23.3163],[-55.5346,-23.3333],[-55.5195,-23.3651],[-55.5045,-23.375],[-55.5156,-23.4095],[-55.5448,-23.4493],[-55.5433,-23.4742],[-55.5622,-23.4762],[-55.5497,-23.4962],[-55.5443,-23.539],[-55.5773,-23.5911],[-55.5867,-23.6376],[-55.5997,-23.6526],[-55.6303,-23.6569],[-55.6612,-23.677],[-55.7008,-23.6616],[-55.7166,-23.6632],[-55.7292,-23.6792],[-55.7612,-23.6985],[-55.7699,-23.7361],[-55.8053,-23.7591],[-55.8405,-23.7641],[-55.8579,-23.785],[-55.8597,-23.7996],[-55.8862,-23.8071],[-55.896,-23.8206],[-55.9172,-23.8168],[-55.9311,-23.8309],[-55.9513,-23.8124],[-55.9873,-23.8272],[-56.0174,-23.8297],[-56.0278,-23.821],[-56.0207,-23.8003],[-55.9881,-23.7841],[-55.9736,-23.7421],[-55.98,-23.7241],[-55.9763,-23.7005],[-55.9866,-23.6852],[-55.9784,-23.6688],[-56.0011,-23.6232],[-56.049,-23.5755],[-56.0485,-23.5907],[-56.0609,-23.6042],[-56.1143,-23.6053]]]}},{"type":"Feature","properties":{"departamento":14,"nombre":"Canindeyú"},"geometry":{"type":"Polygon","coordinates":[[[-55.9425,-24.5692],[-55.9906,-24.5292],[-55.9943,-24.5024],[-56.0114,-24.486],[-56.0226,-24.4455],[-56.0444,-24.4319],[-56.0577,-24.4031],[-56.1095,-24.3987],[-56.1226,-24.3857],[-56.1158,-24.3689],[-56.1309,-24.3373],[-56.123,-24.3164],[-56.1265,-24.3012],[-56.1479,-24.2842],[-56.1562,-24.2854],[-56.1718,-24.2437],[-56.1725,-24.231],[-56.1615,-24.2251],[-56.1487,-24.2],[-56.1534,-24.1687],[-56.161,-24.1663],[-56.1606,-24.1384],[-56.1537,-24.1379],[-56.1452,-24.1149],[-56.1058,-24.1069],[-56.1044,-24.0901],[-56.0851,-24.0815],[-56.0705,-24.0553],[-56.0179,-24.034],[-56.0082,-24.0201],[-55.9949,-24.0314],[-55.9771,-24.0286],[-56.0272,-23.8223],[-56.0174,-23.8297],[-55.9873,-23.8272],[-55.9512,-23.8124],[-55.9311,-23.8309],[-55.9172,-23.8168],[-55.8962,-23.8207],[-55.8862,-23.8071],[-55.8597,-23.7996],[-55.8579,-23.785],[-55.8405,-23.7641],[-55.8053,-23.7591],[-55.7699,-23.7361],[-55.7612,-23.6985],[-55.7292,-23.6792],[-55.7166,-23.6632],[-55.7008,-23.6616],[-55.6613,-23.677],[-55.6303,-23.6569],[-55.5997,-23.6526],[-55.5867,-23.6376],[-55.5773,-23.5911],[-55.5452,-23.5415],[-55.5434,-23.5237],[-55.5266,-23.5673],[-55.5383,-23.5919],[-55.54,-23.6251],[-55.5322,-23.6303],[-55.5112,-23.6232],[-55.5104,-23.6326],[-55.4841,-23.6402],[-55.4748,-23.6504],[-55.4761,-23.6752],[-55.4622,-23.6839],[-55.4636,-23.712],[-55.4426,-23.7229],[-55.4473,-23.7602],[-55.4339,-23.771],[-55.4302,-23.7901],[-55.4538,-23.8191],[-55.4418,-23.8291],[-55.4358,-23.8727],[-55.4465,-23.917],[-55.4278,-23.9263],[-55.4327,-23.9407],[-55.4196,-23.9438],[-55.4198,-23.9574],[-55.4053,-23.9649],[-55.4029,-23.9742],[-55.3876,-23.9675],[-55.3412,-23.9946],[-55.3177,-23.9629],[-55.3042,-23.965],[-55.229,-24.014],[-55.2069,-24.0036],[-55.1984,-23.9867],[-55.1813,-23.9879],[-55.1787,-23.9938],[-55.156,-23.9832],[-55.1492,-23.9894],[-55.1382,-23.987],[-55.1185,-23.9772],[-55.1072,-23.9619],[-55.0905,-23.9826],[-55.0775,-23.9853],[-55.0729,-23.98],[-55.0624,-23.9933],[-55.0514,-23.9806],[-55.0461,-23.9842],[-54.9987,-23.9576],[-54.9412,-23.9686],[-54.9254,-23.9604],[-54.927,-23.9249],[-54.9134,-23.9222],[-54.9088,-23.9114],[-54.8937,-23.9108],[-54.891,-23.9003],[-54.8813,-23.8986],[-54.8736,-23.9093],[-54.85,-23.9083],[-54.8499,-23.8971],[-54.8364,-23.884],[-54.8144,-23.8905],[-54.7961,-23.87],[-54.7641,-23.8663],[-54.7592,-23.8568],[-54.7454,-23.8688],[-54.7052,-23.8647],[-54.6981,-23.8578],[-54.6987,-23.842],[-54.6695,-23.8126],[-54.6527,-23.8216],[-54.6465,-23.8338],[-54.6166,-23.8351],[-54.6098,-23.8514],[-54.6008,-23.8523],[-54.5842,-23.8371],[-54.5815,-23.8459],[-54.5644,-23.8543],[-54.5686,-23.8745],[-54.5389,-23.8692],[-54.5232,-23.8736],[-54.5149,-23.8852],[-54.493,-23.8852],[-54.4872,-23.9037],[-54.4691,-23.8978],[-54.4399,-23.9044],[-54.4262,-23.9157],[-54.4342,-23.9291],[-54.4164,-23.9462],[-54.4148,-23.9581],[-54.3941,-23.9652],[-54.3836,-23.9868],[-54.3516,-24.0078],[-54.346,-24.0015],[-54.316,-24.0041],[-54.2877,-24.0324],[-54.2925,-24.0523],[-54.2802,-24.0673],[-54.3352,-24.1144],[-54.3461,-24.1525],[-54.3279,-24.1975],[-54.328,-24.2373],[-54.2788,-24.2937],[-54.2596,-24.3657],[-54.2839,-24.4117],[-54.321,-24.452],[-54.335,-24.4992],[-54.3372,-24.529],[-54.3174,-24.5799],[-54.3165,-24.6125],[-54.33,-24.688],[-54.3458,-24.7077],[-54.3884,-24.6878],[-54.4016,-24.6906],[-54.415,-24.6795],[-54.4227,-24.6834],[-54.4251,-24.6989],[-54.4429,-24.6985],[-54.4436,-24.7181],[-54.4516,-24.7218],[-54.4722,-24.7234],[-54.4789,-24.7064],[-54.4991,-24.7196],[-54.5044,-24.6988],[-54.5253,-24.7037],[-54.5364,-24.6919],[-54.56,-24.6894],[-54.6085,-24.6958],[-54.6193,-24.7078],[-54.6349,-24.7098],[-54.6313,-24.7007],[-54.6438,-24.7028],[-54.6557,-24.7142],[-54.6544,-24.6896],[-54.6425,-24.6858],[-54.6553,-24.6671],[-54.6657,-24.6747],[-54.6831,-24.672],[-54.6874,-24.6883],[-54.6998,-24.6904],[-54.7204,-24.6767],[-54.7284,-24.6521],[-54.7457,-24.654],[-54.7504,-24.6609],[-54.7683,-24.656],[-54.772,-24.6485],[-54.7977,-24.6754],[-54.8069,-24.6764],[-54.8231,-24.6625],[-54.8307,-24.6747],[-54.835,-24.6688],[-54.8405,-24.6734],[-54.8334,-24.6564],[-54.8597,-24.6492],[-54.864,-24.6363],[-54.8989,-24.6292],[-54.8887,-24.6166],[-54.904,-24.6125],[-54.9026,-24.5985],[-54.9118,-24.5905],[-54.9142,-24.5739],[-54.9437,-24.5644],[-54.9709,-24.5685],[-54.9745,-24.5592],[-54.9935,-24.5495],[-55.0945,-24.5468],[-55.113,-24.5364],[-55.1132,-24.5068],[-55.134,-24.4799],[-55.1546,-24.4791],[-55.1803,-24.4655],[-55.2281,-24.4764],[-55.2525,-24.4675],[-55.281,-24.5008],[-55.2886,-24.5038],[-55.2891,-24.4891],[-55.2968,-24.4876],[-55.3127,-24.5149],[-55.3427,-24.4936],[-55.3452,-24.509],[-55.3698,-24.54],[-55.4,-24.549],[-55.4019,-24.535],[-55.4378,-24.5513],[-55.4605,-24.5414],[-55.4785,-24.5556],[-55.484,-24.5716],[-55.4911,-24.568],[-55.4937,-24.5338],[-55.5135,-24.5153],[-55.5476,-24.5156],[-55.5642,-24.5815],[-55.5779,-24.6012],[-55.5978,-24.6024],[-55.5947,-24.6192],[-55.6096,-24.6247],[-55.6047,-24.6402],[-55.6148,-24.6472],[-55.6385,-24.6448],[-55.6685,-24.6532],[-55.6623,-24.6749],[-55.6873,-24.6796],[-55.7002,-24.6716],[-55.7127,-24.7079],[-55.7361,-24.7365],[-55.702,-24.784],[-55.749,-24.7765],[-55.7596,-24.7829],[-55.7825,-24.7821],[-55.821,-24.7749],[-55.8253,-24.7644],[-55.8396,-24.7619],[-55.8444,-24.7315],[-55.867,-24.6849],[-55.8801,-24.6725],[-55.9139,-24.6604],[-55.9352,-24.6235],[-55.9428,-24.6219],[-55.9425,-24.5692]]]}},{"type":"Feature","properties":{"departamento":15,"nombre":"Presidente Hayes"},"geometry":{"type":"Polygon","coordinates":[[[-57.6739,-25.3158],[-57.6653,-25.3543],[-57.6926,-25.3227],[-57.7029,-25.3221],[-57.6979,-25.3084],[-57.7072,-25.3002],[-57.6944,-25.286],[-57.7052,-25.2917],[-57.7032,-25.2824],[-57.7136,-25.2836],[-57.7116,-25.2731],[-57.7225,-25.2775],[-57.7179,-25.2667],[-57.7301,-25.2574],[-57.7228,-25.2528],[-57.7292,-25.2464],[-57.7409,-25.2534],[-57.7356,-25.2347],[-57.7484,-25.2351],[-57.7442,-25.2284],[-57.7592,-25.22],[-57.7485,-25.2067],[-57.7587,-25.1872],[-57.7532,-25.1768],[-57.7684,-25.173],[-57.78,-25.1525],[-57.7917,-25.1554],[-57.7901,-25.1498],[-57.8051,-25.1482],[-57.807,-25.1423],[-57.8129,-25.1478],[-57.8263,-25.1306],[-57.8368,-25.1315],[-57.8369,-25.1238],[-57.8486,-25.1181],[-57.8481,-25.0973],[-57.855,-25.0987],[-57.8509,-25.0936],[-57.8614,-25.0814],[-57.8704,-25.084],[-57.8841,-25.0756],[-57.8958,-25.0836],[-57.9079,-25.0795],[-57.9064,-25.0734],[-57.9312,-25.078],[-57.9417,-25.0717],[-57.9529,-25.0806],[-57.9567,-25.0729],[-57.9704,-25.0768],[-57.9754,-25.0862],[-57.9909,-25.0818],[-57.9912,-25.0748],[-57.9997,-25.0742],[-57.9961,-25.0597],[-58.0059,-25.0349],[-58.0161,-25.042],[-58.0315,-25.0357],[-58.0688,-25.0454],[-58.0856,-25.0123],[-58.1062,-25.0118],[-58.1129,-25.0196],[-58.1186,-25.0129],[-58.1373,-25.0116],[-58.1378,-24.9887],[-58.1531,-24.9819],[-58.1499,-24.975],[-58.1598,-24.9707],[-58.1626,-24.9754],[-58.1693,-24.9662],[-58.1736,-24.9713],[-58.1938,-24.968],[-58.2019,-24.9499],[-58.2172,-24.9504],[-58.2144,-24.9453],[-58.2245,-24.9421],[-58.2197,-24.9314],[-58.225,-24.9269],[-58.2555,-24.9318],[-58.2664,-24.947],[-58.2891,-24.9572],[-58.2943,-24.9713],[-58.3143,-24.983],[-58.3108,-24.987],[-58.3336,-25.0001],[-58.3412,-24.9966],[-58.3495,-24.9706],[-58.39,-24.9543],[-58.4087,-24.9228],[-58.4287,-24.9236],[-58.4301,-24.8932],[-58.4407,-24.8794],[-58.4518,-24.8787],[-58.4739,-24.8609],[-58.498,-24.8579],[-58.5112,-24.8436],[-58.5265,-24.8508],[-58.5504,-24.8279],[-58.5737,-24.8212],[-58.6108,-24.8312],[-58.6484,-24.8245],[-58.6733,-24.8315],[-58.6886,-24.8102],[-58.7084,-24.8105],[-58.7268,-24.7743],[-58.7433,-24.7809],[-58.8077,-24.7725],[-58.8463,-24.7376],[-58.8696,-24.7282],[-58.879,-24.7331],[-58.9033,-24.7047],[-58.9668,-24.6723],[-58.9727,-24.6623],[-59.0237,-24.6602],[-59.0643,-24.6276],[-59.0943,-24.6165],[-59.1107,-24.6239],[-59.1281,-24.618],[-59.1352,-24.6062],[-59.1533,-24.5998],[-59.1572,-24.5875],[-59.1797,-24.5763],[-59.1858,-24.5635],[-59.2411,-24.5463],[-59.2574,-24.5197],[-59.2936,-24.5155],[-59.3198,-24.492],[-59.3507,-24.483],[-59.3731,-24.423],[-59.4209,-24.4092],[-59.4275,-24.3943],[-59.4406,-24.3904],[-59.4572,-24.3722],[-59.4752,-24.3331],[-59.9984,-24.0316],[-60.0675,-24.009],[-60.096,-24.0264],[-60.153,-24.0393],[-60.2614,-24.0493],[-60.3059,-24.0446],[-60.3304,-24.0308],[-60.3688,-24.0336],[-60.3845,-24.0081],[-60.4416,-23.9756],[-60.4773,-23.9652],[-60.5002,-23.9732],[-60.5525,-23.9646],[-60.5582,-23.9541],[-60.586,-23.9564],[-60.5943,-23.9219],[-60.5892,-23.9156],[-60.6217,-23.9177],[-60.6279,-23.9245],[-60.6366,-23.9106],[-60.6775,-23.8957],[-60.6926,-23.9032],[-60.7214,-23.8837],[-60.7325,-23.8853],[-60.7415,-23.8736],[-60.7551,-23.8784],[-60.7733,-23.8502],[-60.7854,-23.7891],[-60.6929,-23.7334],[-60.6716,-23.6978],[-60.6752,-23.5922],[-60.6017,-23.611],[-60.5791,-23.5826],[-60.581,-23.5749],[-60.5713,-23.5723],[-60.2027,-23.5329],[-60.0927,-23.4928],[-60.0768,-23.4585],[-60.0569,-23.3762],[-59.979,-23.173],[-59.9923,-23.1575],[-59.9584,-23.0673],[-59.9707,-22.9688],[-59.9751,-22.8187],[-59.9664,-22.8023],[-59.9449,-22.7969],[-59.9488,-22.7824],[-59.9379,-22.7792],[-59.9398,-22.7695],[-59.8438,-22.6344],[-59.7518,-22.5254],[-59.7472,-22.467],[-59.7122,-22.467],[-59.7118,-22.428],[-59.6262,-22.428],[-59.6392,-22.3686],[-59.6144,-22.3359],[-59.3366,-22.1704],[-59.3677,-22.0762],[-59.2016,-22.1479],[-59.0184,-22.1501],[-58.9853,-22.1596],[-58.9626,-22.1504],[-58.8566,-22.1512],[-58.8432,-22.1568],[-58.4736,-22.1562],[-58.3967,-22.179],[-58.2669,-22.1795],[-58.2419,-22.1898],[-58.2374,-22.1984],[-58.2455,-22.2405],[-58.2027,-22.2825],[-58.1856,-22.3494],[-57.8557,-22.3977],[-57.8645,-22.4031],[-57.8654,-22.4173],[-57.8396,-22.4471],[-57.8454,-22.4844],[-57.8317,-22.5092],[-57.8277,-22.5707],[-57.7799,-22.6226],[-57.7723,-22.6541],[-57.7861,-22.6638],[-57.8443,-22.6517],[-57.9094,-22.6591],[-57.9374,-22.689],[-57.9381,-22.7163],[-57.9258,-22.7433],[-57.8851,-22.7618],[-57.8766,-22.7781],[-57.8834,-22.792],[-57.8753,-22.803],[-57.8102,-22.819],[-57.7895,-22.8775],[-57.7984,-22.8927],[-57.8197,-22.9052],[-57.8214,-22.915],[-57.766,-22.9712],[-57.7897,-23.0162],[-57.7884,-23.0301],[-57.7341,-23.0577],[-57.7109,-23.0939],[-57.6924,-23.0978],[-57.6476,-23.0897],[-57.6319,-23.0945],[-57.6277,-23.1114],[-57.6427,-23.1372],[-57.6231,-23.1784],[-57.549,-23.212],[-57.5391,-23.2381],[-57.4932,-23.2797],[-57.4891,-23.3179],[-57.5183,-23.3361],[-57.5224,-23.3472],[-57.4946,-23.3727],[-57.4754,-23.4185],[-57.4619,-23.4255],[-57.4508,-23.4468],[-57.447,-23.4776],[-57.4735,-23.5362],[-57.4587,-23.5813],[-57.4191,-23.6537],[-57.3432,-23.6802],[-57.2567,-23.736],[-57.2557,-23.7614],[-57.278,-23.7716],[-57.2527,-23.7871],[-57.2515,-23.8119],[-57.2761,-23.8431],[-57.2535,-23.8752],[-57.2652,-23.886],[-57.293,-23.8938],[-57.3042,-23.9078],[-57.2992,-23.924],[-57.2863,-23.9338],[-57.2631,-23.944],[-57.2382,-23.9418],[-57.2298,-23.9518],[-57.2408,-23.984],[-57.2154,-23.9876],[-57.2113,-24.0045],[-57.2237,-24.018],[-57.2585,-24.0309],[-57.2641,-24.0417],[-57.2583,-24.0506],[-57.2217,-24.0658],[-57.2075,-24.0856],[-57.2106,-24.0978],[-57.2798,-24.1436],[-57.2406,-24.201],[-57.2188,-24.212],[-57.2063,-24.2308],[-57.2044,-24.2848],[-57.1756,-24.3197],[-57.164,-24.3559],[-57.1814,-24.3933],[-57.1493,-24.449],[-57.1623,-24.4703],[-57.1944,-24.4847],[-57.1941,-24.4934],[-57.1615,-24.5283],[-57.188,-24.5528],[-57.1948,-24.5691],[-57.1574,-24.6183],[-57.176,-24.6651],[-57.1696,-24.6896],[-57.1887,-24.6978],[-57.2303,-24.6991],[-57.2321,-24.7568],[-57.2612,-24.8054],[-57.3001,-24.8373],[-57.2917,-24.8515],[-57.254,-24.8633],[-57.2598,-24.8856],[-57.2197,-24.9047],[-57.2193,-24.9267],[-57.239,-24.936],[-57.2818,-24.9191],[-57.2958,-24.9241],[-57.3294,-25.0013],[-57.3799,-25.0645],[-57.4019,-25.0623],[-57.457,-25.1046],[-57.4962,-25.0967],[-57.5153,-25.1004],[-57.5354,-25.1249],[-57.539,-25.1742],[-57.5749,-25.2245],[-57.5931,-25.2411],[-57.6687,-25.28],[-57.6739,-25.3158]]]}},{"type":"Feature","properties":{"departamento":17,"nombre":"Boquerón"},"geometry":{"type":"Polygon","coordinates":[[[-60.6007,-23.6097],[-60.6752,-23.5922],[-60.6716,-23.6978],[-60.6797,-23.715],[-60.6929,-23.7334],[-60.7854,-23.7891],[-60.7817,-23.8298],[-60.7735,-23.8351],[-60.7599,-23.8736],[-60.7745,-23.8712],[-60.7751,-23.8794],[-60.7891,-23.8682],[-60.8045,-23.8854],[-60.7931,-23.8626],[-60.8112,-23.8733],[-60.8484,-23.8706],[-60.8573,-23.8653],[-60.856,-23.858],[-60.8836,-23.8411],[-60.8945,-23.8422],[-60.9131,-23.8192],[-60.9346,-23.8089],[-60.944,-23.8117],[-60.9422,-23.818],[-60.9594,-23.8197],[-60.992,-23.8086],[-61.0205,-23.7715],[-61.0139,-23.7606],[-61.0394,-23.7421],[-61.0398,-23.7302],[-61.0592,-23.7041],[-61.0656,-23.7072],[-61.0825,-23.6896],[-61.0878,-23.6783],[-61.0812,-23.6714],[-61.1006,-23.6573],[-61.0907,-23.6415],[-61.1016,-23.6269],[-61.0877,-23.6139],[-61.1227,-23.5957],[-61.1216,-23.5857],[-61.1331,-23.5907],[-61.1365,-23.5768],[-61.1508,-23.5807],[-61.1508,-23.5719],[-61.1643,-23.5664],[-61.1612,-23.559],[-61.1851,-23.5496],[-61.1833,-23.539],[-61.1917,-23.551],[-61.1992,-23.5464],[-61.2111,-23.5537],[-61.2175,-23.5485],[-61.2235,-23.5536],[-61.2345,-23.5423],[-61.242,-23.5458],[-61.2567,-23.5221],[-61.2626,-23.5284],[-61.264,-23.5184],[-61.2679,-23.5275],[-61.2783,-23.517],[-61.2736,-23.505],[-61.2831,-23.4874],[-61.2888,-23.4854],[-61.2944,-23.4947],[-61.3172,-23.471],[-61.3454,-23.4683],[-61.3531,-23.4472],[-61.3771,-23.4565],[-61.3869,-23.4473],[-61.3914,-23.4574],[-61.4038,-23.4457],[-61.4196,-23.4471],[-61.4456,-23.4211],[-61.4556,-23.4256],[-61.4612,-23.4195],[-61.4726,-23.427],[-61.4813,-23.4191],[-61.4935,-23.4215],[-61.5251,-23.3703],[-61.51,-23.3479],[-61.5512,-23.3455],[-61.5725,-23.3172],[-61.5644,-23.3108],[-61.5822,-23.2992],[-61.5835,-23.3059],[-61.5901,-23.3045],[-61.5918,-23.2918],[-61.6005,-23.2935],[-61.605,-23.2866],[-61.6307,-23.2775],[-61.6711,-23.2851],[-61.7105,-23.2424],[-61.7348,-23.2404],[-61.7444,-23.1872],[-61.7532,-23.1733],[-61.7694,-23.1694],[-61.7663,-23.1589],[-61.7789,-23.1655],[-61.7858,-23.1495],[-61.8014,-23.1432],[-61.813,-23.1502],[-61.8166,-23.1254],[-61.8563,-23.0888],[-61.9264,-23.068],[-61.9527,-23.0345],[-61.9866,-23.0161],[-61.9933,-22.999],[-62.0079,-22.9938],[-61.9976,-22.9804],[-62.0088,-22.9631],[-61.9997,-22.9287],[-62.0297,-22.9267],[-62.0218,-22.9057],[-62.0374,-22.914],[-62.0367,-22.8772],[-62.0602,-22.8596],[-62.059,-22.8394],[-62.0713,-22.8531],[-62.0829,-22.8133],[-62.1067,-22.8213],[-62.1127,-22.7954],[-62.125,-22.7982],[-62.1354,-22.7913],[-62.1412,-22.773],[-62.132,-22.7595],[-62.1571,-22.7603],[-62.1669,-22.7459],[-62.1481,-22.7471],[-62.177,-22.7201],[-62.1739,-22.7107],[-62.1813,-22.7089],[-62.1913,-22.7187],[-62.2072,-22.7041],[-62.197,-22.6929],[-62.2031,-22.68],[-62.1982,-22.6668],[-62.218,-22.6563],[-62.2028,-22.6506],[-62.2206,-22.6465],[-62.2286,-22.6519],[-62.2216,-22.6434],[-62.2282,-22.6385],[-62.236,-22.6468],[-62.2345,-22.6124],[-62.2539,-22.6136],[-62.2503,-22.6028],[-62.2619,-22.6023],[-62.2554,-22.5931],[-62.2408,-22.5925],[-62.2493,-22.5761],[-62.2371,-22.5712],[-62.2236,-22.5492],[-62.2364,-22.5379],[-62.2473,-22.538],[-62.2659,-22.5141],[-62.2761,-22.5249],[-62.2964,-22.5191],[-62.2822,-22.5015],[-62.2913,-22.4946],[-62.2869,-22.4776],[-62.2959,-22.4763],[-62.3075,-22.488],[-62.3296,-22.4745],[-62.3387,-22.481],[-62.3513,-22.4513],[-62.3554,-22.4618],[-62.3689,-22.4597],[-62.378,-22.4799],[-62.3815,-22.4602],[-62.4,-22.4535],[-62.394,-22.4409],[-62.4055,-22.4497],[-62.4185,-22.4238],[-62.4276,-22.4297],[-62.4296,-22.4189],[-62.4612,-22.4129],[-62.4744,-22.3759],[-62.5116,-22.3801],[-62.5299,-22.3682],[-62.5401,-22.3739],[-62.5471,-22.3564],[-62.54,-22.3505],[-62.5463,-22.3382],[-62.555,-22.3419],[-62.5624,-22.3244],[-62.5954,-22.3143],[-62.6214,-22.2913],[-62.6402,-22.2998],[-62.6294,-22.2662],[-62.6446,-22.2515],[-62.6401,-22.2364],[-62.2609,-21.0586],[-62.2663,-20.5632],[-61.9225,-20.0892],[-61.7687,-20.1096],[-61.7186,-20.0966],[-61.6983,-20.1042],[-61.6201,-20.1701],[-61.5144,-20.1826],[-60.5358,-20.4567],[-59.9273,-20.6329],[-59.8795,-20.6304],[-59.8869,-20.792],[-59.8631,-20.8208],[-59.8383,-20.8807],[-59.8396,-20.9031],[-59.8178,-20.9367],[-59.8098,-20.9875],[-59.7683,-21.0375],[-59.7558,-21.0968],[-59.7509,-21.1829],[-59.767,-21.2013],[-59.715,-21.3459],[-59.8724,-21.4472],[-59.945,-21.9103],[-59.9531,-22.0545],[-59.4129,-22.0568],[-59.3677,-22.0762],[-59.3366,-22.1704],[-59.6144,-22.3359],[-59.6392,-22.3686],[-59.6262,-22.428],[-59.7118,-22.428],[-59.7122,-22.467],[-59.7472,-22.467],[-59.7518,-22.5254],[-59.8438,-22.6344],[-59.9398,-22.7695],[-59.9379,-22.7792],[-59.9488,-22.7824],[-59.9449,-22.7969],[-59.9664,-22.8023],[-59.9762,-22.8301],[-59.9707,-22.9688],[-59.9584,-23.0673],[-59.9923,-23.1575],[-59.979,-23.173],[-60.0569,-23.3762],[-60.0768,-23.4585],[-60.0927,-23.4928],[-60.2027,-23.5329],[-60.5713,-23.5723],[-60.581,-23.5749],[-60.5791,-23.5826],[-60.6007,-23.6097]]]}},{"type":"Feature","properties":{"departamento":16,"nombre":"Alto Paraguay"},"geometry":{"type":"Polygon","coordinates":[[[-58.2422,-22.1896],[-58.2669,-22.1795],[-58.3967,-22.179],[-58.4597,-22.1568],[-58.8432,-22.1568],[-58.8566,-22.1512],[-58.962,-22.1504],[-58.9853,-22.1596],[-59.0184,-22.1501],[-59.2016,-22.1479],[-59.4164,-22.0565],[-59.9531,-22.0545],[-59.945,-21.9103],[-59.8724,-21.4472],[-59.715,-21.3459],[-59.767,-21.2013],[-59.7509,-21.1829],[-59.7558,-21.0968],[-59.7683,-21.0375],[-59.8098,-20.9875],[-59.8178,-20.9367],[-59.8396,-20.9031],[-59.8383,-20.8807],[-59.8631,-20.8208],[-59.8869,-20.792],[-59.8795,-20.6304],[-59.9273,-20.6329],[-60.5358,-20.4567],[-61.5144,-20.1826],[-61.6201,-20.1701],[-61.6983,-20.1042],[-61.7186,-20.0966],[-61.7687,-20.1096],[-61.9225,-20.0892],[-61.7352,-19.6344],[-60.6043,-19.4566],[-59.9778,-19.2947],[-59.0689,-19.2876],[-58.236,-19.775],[-58.1639,-19.8272],[-58.2021,-19.8634],[-58.2055,-19.8954],[-58.1966,-19.9262],[-58.2143,-19.9534],[-58.1938,-19.9602],[-58.1865,-19.9704],[-58.1763,-20.0292],[-58.1579,-20.0433],[-58.1682,-20.0501],[-58.1639,-20.077],[-58.1546,-20.0769],[-58.1388,-20.1201],[-58.1456,-20.1381],[-58.1382,-20.1521],[-58.1652,-20.1612],[-58.1681,-20.1729],[-58.159,-20.1818],[-58.1305,-20.1835],[-58.1219,-20.1923],[-58.1266,-20.2043],[-58.1546,-20.2156],[-58.1651,-20.2299],[-58.1613,-20.2603],[-58.1444,-20.272],[-58.1175,-20.249],[-58.0934,-20.2575],[-58.0904,-20.282],[-58.1029,-20.321],[-58.0869,-20.3666],[-58.0711,-20.3891],[-58.0217,-20.4024],[-57.999,-20.4358],[-57.998,-20.4546],[-58.0141,-20.481],[-58.0194,-20.5154],[-57.9952,-20.5635],[-58.0122,-20.6144],[-57.9957,-20.6323],[-57.9701,-20.6447],[-57.9888,-20.6881],[-57.9867,-20.7021],[-57.9556,-20.7041],[-57.9347,-20.6677],[-57.9217,-20.6646],[-57.87,-20.726],[-57.8671,-20.7492],[-57.9358,-20.7472],[-57.9617,-20.7929],[-57.9438,-20.801],[-57.8971,-20.7893],[-57.8719,-20.8096],[-57.8547,-20.8351],[-57.858,-20.8511],[-57.8962,-20.869],[-57.927,-20.893],[-57.9274,-20.9016],[-57.8882,-20.9073],[-57.8648,-20.948],[-57.8424,-20.9465],[-57.8296,-20.934],[-57.8189,-20.9418],[-57.825,-20.9641],[-57.8175,-20.9809],[-57.8686,-21.0467],[-57.8676,-21.063],[-57.8463,-21.0963],[-57.8642,-21.1378],[-57.8483,-21.1896],[-57.8536,-21.2272],[-57.9216,-21.2806],[-57.8979,-21.3055],[-57.8553,-21.3162],[-57.8543,-21.3352],[-57.909,-21.4044],[-57.9099,-21.4214],[-57.927,-21.4503],[-57.9265,-21.4695],[-57.9623,-21.5114],[-57.9686,-21.5304],[-57.9596,-21.562],[-57.915,-21.5887],[-57.9162,-21.5979],[-57.9416,-21.6196],[-57.9333,-21.6535],[-57.8837,-21.6862],[-57.8965,-21.7046],[-57.9451,-21.7382],[-57.9435,-21.7556],[-57.9092,-21.7756],[-57.9333,-21.8271],[-57.9656,-21.8481],[-57.9193,-21.8744],[-57.9136,-21.884],[-57.92,-21.8908],[-57.9358,-21.8892],[-57.9492,-21.902],[-57.9366,-21.9248],[-57.9644,-21.9815],[-57.9661,-22.0051],[-58.0096,-22.0406],[-58.0063,-22.0506],[-57.984,-22.0653],[-57.9919,-22.1022],[-57.9566,-22.1315],[-57.9726,-22.1943],[-57.9713,-22.2257],[-57.9601,-22.2367],[-57.9538,-22.2738],[-57.941,-22.2796],[-57.8913,-22.2672],[-57.8777,-22.3293],[-57.8214,-22.3733],[-57.8181,-22.3845],[-57.8296,-22.397],[-57.8455,-22.3991],[-58.1856,-22.3494],[-58.2027,-22.2825],[-58.2455,-22.2405],[-58.2374,-22.1984],[-58.2422,-22.1896]]]}}]}
