{"type":"FeatureCollection","name":"distrito","features":[{"type":"Feature","properties":{"clave":"2-19","nombre":"Nueva Germania"},"geometry":{"type":"Polygon","coordinates":[[[-56.694437,-23.918762],[-56.694828,-23.920673],[-56.696458,-23.922623],[-56.699672,-23.924151],[-56.699961,-23.924793],[-56.699797,-23.926134],[-56.700024,-23.926807],[-56.700666,-23.927115],[-56.702599,-23.92702],[-56.70337,-23.927319],[-56.703357,-23.928137],[-56.700675,-23.929753],[-56.700665,-23.93127],[-56.699842,-23.932212],[-56.700542,-23.932313],[-56.701349,-23.933539],[-56.702522,-23.933582],[-56.703277,-23.934166],[-56.705266,-23.934495],[-56.705946,-23.935422],[-56.705925,-23.936108],[-56.706438,-23.936317],[-56.706989,-23.936092],[-56.707142,-23.935627],[-56.706637,-23.934863],[-56.70722,-23.933902],[-56.707344,-23.932471],[-56.708752,-23.931782],[-56.708623,-23.931272],[-56.708167,-23.930977],[-56.70814,-23.930178],[-56.709162,-23.930045],[-56.711314,-23.928549],[-56.71337,-23.928368],[-56.71458,-23.9266],[-56.716416,-23.926897],[-56.716683,-23.926279],[-56.716378,-23.925592],[-56.717665,-23.925264],[-56.718634,-23.9243],[-56.718814,-23.923722],[-56.720572,-23.923761],[-56.720523,-23.922506],[-56.721358,-23.922259],[-56.721944,-23.92156],[-56.722348,-23.921931],[-56.722867,-23.921769],[-56.723739,-23.922105],[-56.723838,-23.921401],[-56.723096,-23.921015],[-56.723158,-23.920591],[-56.725117,-23.920522],[-56.725229,-23.920148],[-56.724604,-23.91965],[-56.724582,-23.918972],[-56.725825,-23.91911],[-56.726571,-23.918443],[-56.726477,-23.918095],[-56.725735,-23.918008],[-56.725567,-23.91724],[-56.72647,-23.917309],[-56.727447,-23.916701],[-56.728432,-23.916879],[-56.728695,-23.916216],[-56.727864,-23.915948],[-56.727832,-23.915677],[-56.72848,-23.914142],[-56.729517,-23.914004],[-56.729017,-23.913023],[-56.729578,-23.912026],[-56.729389,-23.910947],[-56.729657,-23.90989],[-56.73037,-23.908586],[-56.731307,-23.908254],[-56.731243,-23.907116],[-56.731929,-23.906281],[-56.732121,-23.905482],[-56.733723,-23.904324],[-56.733634,-23.904026],[-56.732709,-23.903695],[-56.732851,-23.902977],[-56.733253,-23.902463],[-56.73484,-23.902091],[-56.735066,-23.900673],[-56.735477,-23.900082],[-56.735981,-23.899984],[-56.737235,-23.90041],[-56.737463,-23.899982],[-56.737106,-23.899417],[-56.737208,-23.898929],[-56.737623,-23.898618],[-56.738332,-23.898664],[-56.737974,-23.897995],[-56.738662,-23.897021],[-56.738328,-23.895851],[-56.738723,-23.895192],[-56.738356,-23.894948],[-56.737453,-23.895375],[-56.737034,-23.894295],[-56.738999,-23.892212],[-56.74104,-23.889018],[-56.741958,-23.886522],[-56.743414,-23.88559],[-56.743251,-23.884212],[-56.744138,-23.883509],[-56.745092,-23.880331],[-56.746238,-23.879529],[-56.746278,-23.878658],[-56.745034,-23.878208],[-56.744565,-23.877575],[-56.745346,-23.876773],[-56.745397,-23.875526],[-56.744497,-23.875597],[-56.744161,-23.875163],[-56.744929,-23.874207],[-56.744844,-23.87338],[-56.745465,-23.872099],[-56.745223,-23.870314],[-56.744546,-23.869044],[-56.745459,-23.867641],[-56.743875,-23.866916],[-56.743438,-23.863971],[-56.744559,-23.863056],[-56.744722,-23.861981],[-56.746465,-23.861185],[-56.746607,-23.860449],[-56.746395,-23.86011],[-56.744767,-23.859448],[-56.745502,-23.858609],[-56.744829,-23.857831],[-56.743699,-23.857874],[-56.743195,-23.857363],[-56.743091,-23.856378],[-56.744237,-23.855197],[-56.743671,-23.853891],[-56.744261,-23.852627],[-56.742933,-23.85053],[-56.743561,-23.849777],[-56.743721,-23.848743],[-56.745021,-23.849318],[-56.746047,-23.848137],[-56.746311,-23.847437],[-56.745924,-23.846416],[-56.746346,-23.845455],[-56.74527,-23.84515],[-56.744911,-23.844721],[-56.744774,-23.844084],[-56.745435,-23.843312],[-56.745541,-23.842558],[-56.744194,-23.841337],[-56.74338,-23.839877],[-56.742511,-23.839826],[-56.742311,-23.840543],[-56.741486,-23.839968],[-56.741731,-23.838767],[-56.742696,-23.838331],[-56.742893,-23.837966],[-56.742842,-23.837568],[-56.742318,-23.83777],[-56.741256,-23.837078],[-56.742208,-23.835575],[-56.741748,-23.834983],[-56.739758,-23.834636],[-56.73943,-23.833764],[-56.739818,-23.833169],[-56.740787,-23.832719],[-56.740774,-23.832204],[-56.739908,-23.830951],[-56.740968,-23.830438],[-56.741295,-23.829757],[-56.740925,-23.829526],[-56.740404,-23.830022],[-56.739671,-23.828937],[-56.739829,-23.828567],[-56.740962,-23.828018],[-56.741085,-23.827408],[-56.739627,-23.826493],[-56.73953,-23.825879],[-56.7385,-23.82511],[-56.738233,-23.823005],[-56.739034,-23.821516],[-56.737716,-23.821577],[-56.737668,-23.820452],[-56.736753,-23.819452],[-56.736435,-23.818097],[-56.735391,-23.81758],[-56.735284,-23.816844],[-56.734603,-23.815921],[-56.734966,-23.813298],[-56.734179,-23.812502],[-56.733128,-23.809926],[-56.732232,-23.809644],[-56.731479,-23.808758],[-56.730238,-23.808859],[-56.729711,-23.808637],[-56.729212,-23.807702],[-56.729396,-23.80721],[-56.728237,-23.806056],[-56.728504,-23.804291],[-56.727078,-23.80394],[-56.725557,-23.80097],[-56.724418,-23.800323],[-56.723968,-23.7995],[-56.722439,-23.800206],[-56.721754,-23.800119],[-56.720589,-23.79869],[-56.720906,-23.797471],[-56.720755,-23.796766],[-56.720058,-23.796426],[-56.719376,-23.797075],[-56.718756,-23.797006],[-56.718285,-23.794951],[-56.716569,-23.795101],[-56.714672,-23.794122],[-56.713749,-23.793971],[-56.713544,-23.794581],[-56.713122,-23.794815],[-56.71106,-23.794608],[-56.710637,-23.793785],[-56.709936,-23.793458],[-56.708639,-23.794689],[-56.707126,-23.794049],[-56.704964,-23.795156],[-56.703775,-23.794287],[-56.702831,-23.794231],[-56.702149,-23.794442],[-56.700713,-23.795586],[-56.699755,-23.794482],[-56.698788,-23.794286],[-56.698548,-23.794778],[-56.698821,-23.795153],[-56.698463,-23.795532],[-56.698079,-23.795599],[-56.697603,-23.795183],[-56.696081,-23.796078],[-56.695749,-23.795892],[-56.695915,-23.795188],[-56.695628,-23.794849],[-56.694849,-23.795136],[-56.693702,-23.796119],[-56.692702,-23.795299],[-56.69231,-23.795949],[-56.692575,-23.796437],[-56.692151,-23.796721],[-56.692491,-23.797426],[-56.692132,-23.797787],[-56.691509,-23.797487],[-56.691177,-23.796782],[-56.690438,-23.79651],[-56.689607,-23.797204],[-56.688747,-23.79722],[-56.687711,-23.796563],[-56.68707,-23.795469],[-56.686533,-23.795251],[-56.685669,-23.79538],[-56.685542,-23.796138],[-56.683908,-23.796722],[-56.682899,-23.796156],[-56.681784,-23.79628],[-56.681063,-23.795172],[-56.67962,-23.794961],[-56.678729,-23.795533],[-56.677013,-23.795854],[-56.676724,-23.795375],[-56.67544,-23.795494],[-56.67524,-23.794306],[-56.674588,-23.793749],[-56.674504,-23.793198],[-56.673635,-23.793549],[-56.673203,-23.792861],[-56.673346,-23.792356],[-56.673908,-23.792407],[-56.67411,-23.792014],[-56.674698,-23.791979],[-56.674541,-23.790624],[-56.673133,-23.791262],[-56.673081,-23.791727],[-56.672039,-23.792032],[-56.671973,-23.791608],[-56.672561,-23.791238],[-56.672093,-23.790528],[-56.67128,-23.790527],[-56.671449,-23.790934],[-56.671169,-23.7911],[-56.669687,-23.791187],[-56.669287,-23.790586],[-56.670221,-23.790538],[-56.670702,-23.789965],[-56.66969,-23.790135],[-56.669622,-23.789647],[-56.670076,-23.78926],[-56.668967,-23.788652],[-56.668558,-23.788764],[-56.668369,-23.789306],[-56.667792,-23.789232],[-56.668017,-23.788655],[-56.667469,-23.787886],[-56.666364,-23.788511],[-56.665787,-23.78846],[-56.665539,-23.788884],[-56.664831,-23.788584],[-56.665131,-23.787546],[-56.665339,-23.787971],[-56.666589,-23.787739],[-56.666623,-23.787482],[-56.665829,-23.787336],[-56.666927,-23.786539],[-56.666632,-23.786064],[-56.665843,-23.785976],[-56.664608,-23.786637],[-56.664216,-23.786397],[-56.664131,-23.785345],[-56.663418,-23.785957],[-56.663032,-23.785613],[-56.662667,-23.785703],[-56.66173,-23.784563],[-56.661076,-23.784927],[-56.660171,-23.784361],[-56.659872,-23.78492],[-56.659562,-23.784919],[-56.657052,-23.781626],[-56.655935,-23.781063],[-56.654628,-23.78172],[-56.653717,-23.781655],[-56.654178,-23.781154],[-56.653119,-23.780822],[-56.653937,-23.77942],[-56.652942,-23.779562],[-56.652449,-23.778617],[-56.651893,-23.779546],[-56.651399,-23.779378],[-56.651301,-23.778682],[-56.650594,-23.779227],[-56.650108,-23.779226],[-56.650673,-23.778333],[-56.650258,-23.777794],[-56.64918,-23.778772],[-56.648269,-23.778404],[-56.648235,-23.778856],[-56.647263,-23.779739],[-56.646996,-23.778763],[-56.645948,-23.778539],[-56.645755,-23.778687],[-56.646228,-23.779551],[-56.646098,-23.779844],[-56.645001,-23.779675],[-56.644372,-23.779886],[-56.644371,-23.779384],[-56.643477,-23.778953],[-56.642736,-23.780058],[-56.641873,-23.778561],[-56.641118,-23.779151],[-56.640816,-23.779073],[-56.64089,-23.778478],[-56.6396,-23.778587],[-56.6395,-23.777034],[-56.639126,-23.776766],[-56.638886,-23.777068],[-56.638454,-23.777022],[-56.638856,-23.776567],[-56.638424,-23.776196],[-56.637888,-23.776361],[-56.637591,-23.777079],[-56.636413,-23.777519],[-56.636342,-23.777975],[-56.635817,-23.77819],[-56.635529,-23.777336],[-56.63632,-23.776651],[-56.636303,-23.775766],[-56.635569,-23.776166],[-56.635337,-23.777168],[-56.633202,-23.775912],[-56.632105,-23.775968],[-56.632566,-23.774578],[-56.632182,-23.774392],[-56.632005,-23.775051],[-56.631138,-23.774783],[-56.631045,-23.774444],[-56.63148,-23.77416],[-56.630979,-23.773753],[-56.630916,-23.773296],[-56.630569,-23.773458],[-56.630347,-23.773133],[-56.629563,-23.773614],[-56.629932,-23.77385],[-56.629529,-23.773898],[-56.629416,-23.774214],[-56.629163,-23.774101],[-56.629021,-23.773251],[-56.629566,-23.772815],[-56.628795,-23.772736],[-56.628611,-23.772284],[-56.627509,-23.77197],[-56.627754,-23.771257],[-56.627571,-23.77094],[-56.626367,-23.770526],[-56.626618,-23.771069],[-56.625912,-23.771225],[-56.625633,-23.770511],[-56.625356,-23.770533],[-56.62531,-23.77093],[-56.624162,-23.770629],[-56.624565,-23.769537],[-56.62428,-23.769419],[-56.623839,-23.769716],[-56.623342,-23.769268],[-56.622892,-23.769669],[-56.622115,-23.769229],[-56.622054,-23.768655],[-56.621681,-23.76837],[-56.621735,-23.767444],[-56.620438,-23.768138],[-56.620157,-23.767377],[-56.620687,-23.767222],[-56.620208,-23.766861],[-56.620241,-23.766456],[-56.619899,-23.766402],[-56.619857,-23.767125],[-56.619225,-23.766788],[-56.618855,-23.76737],[-56.61819,-23.767426],[-56.618286,-23.767013],[-56.618672,-23.767184],[-56.618912,-23.766498],[-56.618483,-23.765551],[-56.617979,-23.765905],[-56.618167,-23.76629],[-56.617838,-23.76662],[-56.617839,-23.766194],[-56.617243,-23.766073],[-56.616724,-23.765319],[-56.616431,-23.76562],[-56.615188,-23.765423],[-56.615499,-23.765097],[-56.615028,-23.764985],[-56.614967,-23.764501],[-56.613437,-23.763972],[-56.612982,-23.763178],[-56.612465,-23.763222],[-56.6125,-23.762264],[-56.611216,-23.762161],[-56.611158,-23.761946],[-56.611621,-23.761815],[-56.611354,-23.761112],[-56.610837,-23.761284],[-56.609951,-23.76046],[-56.610633,-23.760358],[-56.611238,-23.760769],[-56.611393,-23.760001],[-56.610622,-23.759623],[-56.612054,-23.759527],[-56.61123,-23.75886],[-56.611068,-23.759165],[-56.610632,-23.759197],[-56.610548,-23.7589],[-56.610871,-23.758913],[-56.611286,-23.758178],[-56.610232,-23.757849],[-56.609973,-23.75739],[-56.610077,-23.757175],[-56.611123,-23.757203],[-56.61156,-23.756543],[-56.612082,-23.756383],[-56.611737,-23.755923],[-56.610947,-23.756149],[-56.610633,-23.755892],[-56.610715,-23.755553],[-56.611371,-23.755216],[-56.61109,-23.75481],[-56.611809,-23.754366],[-56.610598,-23.754268],[-56.610684,-23.753838],[-56.611142,-23.753988],[-56.611529,-23.75353],[-56.611543,-23.753225],[-56.611086,-23.753186],[-56.610563,-23.752255],[-56.610649,-23.752037],[-56.611152,-23.752083],[-56.611247,-23.751732],[-56.61061,-23.751611],[-56.610781,-23.751347],[-56.610063,-23.749808],[-56.60951,-23.750249],[-56.609584,-23.74927],[-56.608802,-23.749677],[-56.607888,-23.749137],[-56.607925,-23.74879],[-56.608396,-23.748949],[-56.608904,-23.74871],[-56.60878,-23.748156],[-56.607958,-23.748228],[-56.607183,-23.747685],[-56.607769,-23.747063],[-56.607842,-23.74648],[-56.608595,-23.746772],[-56.608834,-23.746599],[-56.609022,-23.745289],[-56.607826,-23.744423],[-56.607122,-23.744272],[-56.6068,-23.74361],[-56.605335,-23.742677],[-56.604482,-23.742766],[-56.60435,-23.741918],[-56.602228,-23.740285],[-56.601442,-23.740398],[-56.600479,-23.739627],[-56.600693,-23.740041],[-56.599058,-23.740644],[-56.599206,-23.739128],[-56.598922,-23.737929],[-56.598473,-23.738131],[-56.597806,-23.737579],[-56.597203,-23.738086],[-56.59724,-23.736326],[-56.596766,-23.735601],[-56.596156,-23.735563],[-56.595655,-23.734929],[-56.59358,-23.733925],[-56.593184,-23.734533],[-56.593337,-23.734754],[-56.592867,-23.734813],[-56.592834,-23.735078],[-56.592484,-23.73464],[-56.592115,-23.734667],[-56.59198,-23.735071],[-56.591891,-23.734615],[-56.590628,-23.734812],[-56.590023,-23.734543],[-56.589493,-23.735288],[-56.588751,-23.735118],[-56.588694,-23.735746],[-56.587556,-23.735283],[-56.58706,-23.735697],[-56.587388,-23.735786],[-56.587422,-23.736228],[-56.586728,-23.736229],[-56.586622,-23.735431],[-56.58617,-23.735546],[-56.586258,-23.736172],[-56.586038,-23.736285],[-56.586012,-23.735732],[-56.585005,-23.73572],[-56.584888,-23.735924],[-56.585324,-23.736329],[-56.584493,-23.736283],[-56.584825,-23.736647],[-56.58392,-23.737118],[-56.583873,-23.737597],[-56.583602,-23.737164],[-56.583209,-23.73749],[-56.582564,-23.737321],[-56.582888,-23.737857],[-56.582112,-23.738085],[-56.582596,-23.738398],[-56.580922,-23.738925],[-56.580829,-23.739615],[-56.580498,-23.738968],[-56.579513,-23.739005],[-56.579828,-23.738388],[-56.57963,-23.738218],[-56.579121,-23.738407],[-56.579168,-23.738934],[-56.578858,-23.738755],[-56.578105,-23.738964],[-56.577454,-23.739518],[-56.577437,-23.738674],[-56.577129,-23.73848],[-56.576902,-23.739184],[-56.575948,-23.739128],[-56.575851,-23.738581],[-56.574996,-23.738265],[-56.57517,-23.737678],[-56.574751,-23.737519],[-56.5744,-23.736797],[-56.573858,-23.736754],[-56.574084,-23.737138],[-56.573661,-23.737469],[-56.573532,-23.736802],[-56.573094,-23.73704],[-56.572623,-23.736876],[-56.572944,-23.736563],[-56.572424,-23.73592],[-56.572206,-23.736115],[-56.572526,-23.736236],[-56.572351,-23.736671],[-56.571788,-23.736553],[-56.571926,-23.736191],[-56.570968,-23.736485],[-56.571275,-23.735898],[-56.570651,-23.736041],[-56.57049,-23.735805],[-56.570852,-23.735639],[-56.570777,-23.735372],[-56.569087,-23.73486],[-56.568786,-23.734297],[-56.568216,-23.734202],[-56.568007,-23.734627],[-56.567396,-23.734],[-56.567278,-23.734428],[-56.566685,-23.73454],[-56.567026,-23.733644],[-56.566634,-23.733701],[-56.566724,-23.734029],[-56.565681,-23.734114],[-56.564043,-23.733229],[-56.564342,-23.732946],[-56.563868,-23.73264],[-56.563097,-23.73291],[-56.562682,-23.732469],[-56.56274,-23.731879],[-56.561793,-23.731986],[-56.561955,-23.731807],[-56.561538,-23.731055],[-56.561245,-23.731201],[-56.561353,-23.731422],[-56.560649,-23.731281],[-56.560322,-23.730891],[-56.560445,-23.730325],[-56.559798,-23.73046],[-56.559212,-23.730038],[-56.558612,-23.730324],[-56.558208,-23.729582],[-56.557383,-23.729663],[-56.557732,-23.729448],[-56.55782,-23.7287],[-56.55738,-23.728292],[-56.557503,-23.727702],[-56.556922,-23.727753],[-56.557042,-23.727259],[-56.556595,-23.727501],[-56.556439,-23.727083],[-56.556176,-23.727317],[-56.55566,-23.72685],[-56.554901,-23.727297],[-56.555083,-23.726672],[-56.554503,-23.726419],[-56.554832,-23.726046],[-56.554397,-23.725743],[-56.553739,-23.72615],[-56.553972,-23.72582],[-56.553635,-23.72476],[-56.553439,-23.725152],[-56.552944,-23.725243],[-56.553227,-23.724631],[-56.552664,-23.724404],[-56.553034,-23.723954],[-56.55261,-23.724131],[-56.551999,-23.723251],[-56.552625,-23.723467],[-56.55263,-23.7225],[-56.553269,-23.722434],[-56.552923,-23.721915],[-56.553371,-23.721366],[-56.553213,-23.721063],[-56.554175,-23.721208],[-56.554203,-23.720438],[-56.554669,-23.719745],[-56.554263,-23.719009],[-56.554808,-23.719136],[-56.555159,-23.718363],[-56.555137,-23.718133],[-56.554458,-23.718013],[-56.554967,-23.717758],[-56.554869,-23.716866],[-56.554242,-23.717054],[-56.554506,-23.716665],[-56.554333,-23.71619],[-56.554703,-23.715815],[-56.554298,-23.715439],[-56.553896,-23.71548],[-56.554329,-23.714563],[-56.553744,-23.714259],[-56.554263,-23.713824],[-56.554116,-23.713338],[-56.55378,-23.713269],[-56.554043,-23.711815],[-56.553569,-23.710661],[-56.55412,-23.710481],[-56.553544,-23.710077],[-56.553808,-23.709613],[-56.553877,-23.707085],[-56.554318,-23.70667],[-56.554156,-23.705954],[-56.554769,-23.704656],[-56.554498,-23.703228],[-56.554967,-23.701924],[-56.55557,-23.701258],[-56.556275,-23.701177],[-56.555512,-23.700605],[-56.555972,-23.700409],[-56.556051,-23.698736],[-56.554762,-23.695438],[-56.554962,-23.694672],[-56.553887,-23.694562],[-56.553118,-23.693488],[-56.552836,-23.691891],[-56.551973,-23.691098],[-56.551584,-23.691088],[-56.551468,-23.690362],[-56.551055,-23.690094],[-56.550957,-23.688415],[-56.550275,-23.687881],[-56.549251,-23.687676],[-56.54923,-23.687232],[-56.549594,-23.687142],[-56.549398,-23.685954],[-56.548478,-23.685724],[-56.548237,-23.684589],[-56.547282,-23.683542],[-56.54728,-23.682575],[-56.546588,-23.682006],[-56.546045,-23.682744],[-56.545005,-23.68289],[-56.545326,-23.682047],[-56.544226,-23.681916],[-56.543398,-23.681321],[-56.543837,-23.681259],[-56.543645,-23.68074],[-56.543297,-23.680653],[-56.543709,-23.68035],[-56.543673,-23.679913],[-56.543335,-23.679865],[-56.543271,-23.679419],[-56.542858,-23.679866],[-56.542476,-23.679454],[-56.542757,-23.678983],[-56.541963,-23.678904],[-56.542318,-23.67848],[-56.542183,-23.6781],[-56.541673,-23.678057],[-56.541944,-23.677709],[-56.541825,-23.676393],[-56.54168,-23.676102],[-56.541283,-23.676255],[-56.541287,-23.675897],[-56.540931,-23.67597],[-56.540986,-23.67545],[-56.540522,-23.675304],[-56.540861,-23.674413],[-56.540485,-23.674156],[-56.540857,-23.673931],[-56.54003,-23.673029],[-56.539454,-23.673263],[-56.539411,-23.672686],[-56.539088,-23.67258],[-56.539378,-23.672],[-56.538874,-23.671697],[-56.53912,-23.67127],[-56.538244,-23.671518],[-56.537999,-23.67079],[-56.537653,-23.6709],[-56.537312,-23.670388],[-56.537068,-23.670713],[-56.536884,-23.669945],[-56.536313,-23.670074],[-56.536609,-23.669842],[-56.535729,-23.66894],[-56.536,-23.668734],[-56.535177,-23.668743],[-56.53459,-23.667823],[-56.534324,-23.66806],[-56.534235,-23.66766],[-56.533765,-23.667705],[-56.533547,-23.667288],[-56.532689,-23.667469],[-56.533032,-23.666842],[-56.532547,-23.666857],[-56.532521,-23.667234],[-56.531885,-23.666581],[-56.531533,-23.666782],[-56.531101,-23.666251],[-56.530596,-23.666396],[-56.531014,-23.665881],[-56.530697,-23.665703],[-56.530824,-23.665367],[-56.530261,-23.665412],[-56.530489,-23.665257],[-56.530383,-23.66461],[-56.529974,-23.664681],[-56.530215,-23.664208],[-56.529869,-23.664148],[-56.52989,-23.663388],[-56.529429,-23.663052],[-56.529747,-23.66306],[-56.529652,-23.662251],[-56.529174,-23.661848],[-56.529067,-23.661276],[-56.528633,-23.661216],[-56.528484,-23.660042],[-56.528166,-23.660085],[-56.527726,-23.659575],[-56.527991,-23.659518],[-56.528049,-23.658723],[-56.527336,-23.65863],[-56.527532,-23.658043],[-56.527114,-23.657112],[-56.526735,-23.657162],[-56.526632,-23.656534],[-56.52619,-23.656714],[-56.526106,-23.656156],[-56.525081,-23.655592],[-56.525442,-23.655445],[-56.525077,-23.655144],[-56.525147,-23.6547],[-56.524286,-23.654193],[-56.524303,-23.653654],[-56.523957,-23.653753],[-56.523534,-23.65063],[-56.522975,-23.650473],[-56.522791,-23.649765],[-56.522357,-23.649676],[-56.522372,-23.649039],[-56.521918,-23.649],[-56.522123,-23.648255],[-56.521317,-23.646519],[-56.520138,-23.645774],[-56.519661,-23.644622],[-56.51912,-23.644111],[-56.518669,-23.644093],[-56.518779,-23.643489],[-56.518329,-23.642358],[-56.517776,-23.64192],[-56.517142,-23.639],[-56.516255,-23.637894],[-56.51574,-23.635122],[-56.515441,-23.635146],[-56.515418,-23.634814],[-56.515122,-23.635024],[-56.515161,-23.634466],[-56.513756,-23.634229],[-56.513758,-23.63352],[-56.513233,-23.633503],[-56.513101,-23.632864],[-56.511489,-23.631381],[-56.510979,-23.631116],[-56.510164,-23.631287],[-56.509846,-23.630907],[-56.509563,-23.631108],[-56.508038,-23.630906],[-56.507649,-23.63057],[-56.507079,-23.630912],[-56.507046,-23.631354],[-56.505423,-23.630861],[-56.504472,-23.630795],[-56.503751,-23.631077],[-56.502175,-23.630544],[-56.500903,-23.630955],[-56.499764,-23.630825],[-56.498152,-23.629004],[-56.497331,-23.629322],[-56.49637,-23.62875],[-56.495555,-23.628748],[-56.494866,-23.628081],[-56.49471,-23.628266],[-56.493501,-23.62809],[-56.492831,-23.627686],[-56.492191,-23.626415],[-56.491501,-23.626291],[-56.491195,-23.625811],[-56.490007,-23.6256],[-56.488755,-23.624972],[-56.487061,-23.624971],[-56.486382,-23.624287],[-56.483801,-23.623592],[-56.483099,-23.622668],[-56.479714,-23.621203],[-56.477437,-23.619461],[-56.472325,-23.61826],[-56.470706,-23.616764],[-56.468506,-23.616414],[-56.465451,-23.614633],[-56.461369,-23.614551],[-56.460071,-23.613729],[-56.458937,-23.612298],[-56.457012,-23.610665],[-56.455353,-23.607729],[-56.453833,-23.606477],[-56.451919,-23.605382],[-56.449939,-23.605067],[-56.449162,-23.604554],[-56.448349,-23.603409],[-56.446276,-23.602774],[-56.446264,-23.6023],[-56.444431,-23.602157],[-56.444031,-23.601506],[-56.44284,-23.601009],[-56.442277,-23.600199],[-56.441799,-23.6004],[-56.441577,-23.600115],[-56.438814,-23.599382],[-56.438577,-23.598758],[-56.436602,-23.598019],[-56.435058,-23.596451],[-56.434237,-23.596317],[-56.433533,-23.596563],[-56.432703,-23.596298],[-56.431801,-23.596557],[-56.431284,-23.596316],[-56.430898,-23.596531],[-56.429339,-23.595961],[-56.429143,-23.595531],[-56.427603,-23.594441],[-56.426413,-23.594649],[-56.425674,-23.594443],[-56.424797,-23.593803],[-56.423323,-23.593635],[-56.423298,-23.592867],[-56.421067,-23.592425],[-56.419991,-23.592634],[-56.419579,-23.593097],[-56.419268,-23.592893],[-56.418784,-23.593162],[-56.417999,-23.593064],[-56.417277,-23.594159],[-56.416399,-23.594752],[-56.414382,-23.594338],[-56.413978,-23.594558],[-56.412745,-23.593772],[-56.410933,-23.594031],[-56.41019,-23.593559],[-56.409079,-23.593514],[-56.408985,-23.593243],[-56.408672,-23.59339],[-56.408636,-23.593074],[-56.408052,-23.592805],[-56.40768,-23.592899],[-56.406739,-23.592259],[-56.406242,-23.59143],[-56.405498,-23.591341],[-56.405325,-23.590993],[-56.404559,-23.591013],[-56.403157,-23.590222],[-56.402988,-23.590487],[-56.402292,-23.590236],[-56.401828,-23.589683],[-56.4015,-23.589736],[-56.401316,-23.589243],[-56.40085,-23.589513],[-56.400578,-23.589349],[-56.400696,-23.589115],[-56.399997,-23.588841],[-56.397404,-23.589255],[-56.395569,-23.588106],[-56.395013,-23.587417],[-56.39429,-23.587604],[-56.394165,-23.587003],[-56.392357,-23.586431],[-56.3914,-23.5858],[-56.389646,-23.58391],[-56.388627,-23.583779],[-56.386858,-23.58417],[-56.385758,-23.584003],[-56.383382,-23.581762],[-56.381928,-23.580813],[-56.377349,-23.580225],[-56.373359,-23.575842],[-56.373198,-23.574301],[-56.372551,-23.573535],[-56.36978,-23.572571],[-56.364809,-23.57027],[-56.364714,-23.568455],[-56.363763,-23.56659],[-56.362614,-23.56565],[-56.360527,-23.565145],[-56.358484,-23.563533],[-56.356324,-23.563416],[-56.355934,-23.563943],[-56.354826,-23.564214],[-56.354034,-23.563944],[-56.351494,-23.563924],[-56.34846,-23.562932],[-56.34648,-23.563542],[-56.343669,-23.563029],[-56.34297,-23.563175],[-56.339621,-23.565171],[-56.337009,-23.565037],[-56.334627,-23.565375],[-56.333719,-23.565814],[-56.332622,-23.565019],[-56.331063,-23.564556],[-56.329756,-23.563606],[-56.32692,-23.56349],[-56.321518,-23.561159],[-56.320143,-23.56025],[-56.318502,-23.558305],[-56.318392,-23.555545],[-56.313835,-23.551578],[-56.31236,-23.549905],[-56.312155,-23.548165],[-56.310416,-23.546044],[-56.309791,-23.543928],[-56.308016,-23.543337],[-56.306349,-23.541916],[-56.304701,-23.542925],[-56.303496,-23.542698],[-56.30185,-23.54144],[-56.29984,-23.540546],[-56.29873,-23.538829],[-56.297054,-23.537453],[-56.294011,-23.536776],[-56.290471,-23.535486],[-56.289547,-23.534466],[-56.288326,-23.532211],[-56.286591,-23.530943],[-56.282133,-23.530399],[-56.279139,-23.531794],[-56.275263,-23.531731],[-56.272874,-23.531995],[-56.271639,-23.531718],[-56.269761,-23.53063],[-56.268097,-23.530076],[-56.265397,-23.528361],[-56.226352,-23.494395],[-56.147186,-23.492972],[-56.141863,-23.499431],[-56.141397,-23.501424],[-56.141667,-23.502925],[-56.14004,-23.504957],[-56.139512,-23.505149],[-56.139295,-23.504899],[-56.138878,-23.50519],[-56.138856,-23.505953],[-56.136754,-23.50876],[-56.135816,-23.511577],[-56.135331,-23.512008],[-56.135212,-23.513132],[-56.136703,-23.514816],[-56.136323,-23.518878],[-56.137196,-23.519068],[-56.138263,-23.518699],[-56.139841,-23.520835],[-56.141048,-23.523118],[-56.142336,-23.526001],[-56.142162,-23.527717],[-56.142541,-23.528071],[-56.142461,-23.530026],[-56.142992,-23.530205],[-56.142828,-23.531351],[-56.143783,-23.533633],[-56.143615,-23.536188],[-56.142639,-23.537795],[-56.142073,-23.539742],[-56.141002,-23.546777],[-56.139355,-23.549717],[-56.139347,-23.553768],[-56.13787,-23.556555],[-56.137616,-23.559652],[-56.136493,-23.56124],[-56.136376,-23.56366],[-56.135744,-23.565286],[-56.133635,-23.565329],[-56.132773,-23.564764],[-56.132127,-23.565104],[-56.131763,-23.565851],[-56.131725,-23.567174],[-56.130029,-23.568348],[-56.12835,-23.57201],[-56.127799,-23.572427],[-56.126135,-23.572657],[-56.125253,-23.573406],[-56.124678,-23.574609],[-56.124846,-23.575287],[-56.124134,-23.575613],[-56.123686,-23.57715],[-56.12196,-23.5791],[-56.121409,-23.580673],[-56.121898,-23.582049],[-56.120925,-23.583502],[-56.120317,-23.583806],[-56.118633,-23.583828],[-56.11769,-23.58431],[-56.116525,-23.586851],[-56.116673,-23.58789],[-56.115935,-23.588595],[-56.115796,-23.589127],[-56.115291,-23.589314],[-56.113605,-23.591093],[-56.111879,-23.591512],[-56.11107,-23.59213],[-56.110924,-23.592839],[-56.111181,-23.593314],[-56.11195,-23.59401],[-56.112058,-23.594615],[-56.112891,-23.594977],[-56.11351,-23.596299],[-56.11328,-23.597025],[-56.113625,-23.5977],[-56.113701,-23.599615],[-56.113279,-23.600787],[-56.113693,-23.601701],[-56.113167,-23.60234],[-56.113189,-23.604128],[-56.113399,-23.604626],[-56.114239,-23.605218],[-56.114045,-23.605876],[-56.338146,-23.650822],[-56.338166,-23.652083],[-56.472088,-23.651115],[-56.593214,-23.785021],[-56.584028,-23.817901],[-56.577885,-23.834806],[-56.579042,-23.838937],[-56.580832,-23.843625],[-56.587502,-23.8608],[-56.588181,-23.861701],[-56.565006,-23.886128],[-56.564832,-23.886411],[-56.565211,-23.886805],[-56.564924,-23.888294],[-56.565255,-23.889396],[-56.566187,-23.8899],[-56.567226,-23.889822],[-56.567848,-23.888253],[-56.56789,-23.886213],[-56.56835,-23.885567],[-56.569285,-23.885132],[-56.570623,-23.885201],[-56.571149,-23.885769],[-56.571217,-23.886449],[-56.569941,-23.888842],[-56.570028,-23.889312],[-56.571929,-23.889625],[-56.573071,-23.890502],[-56.573687,-23.890569],[-56.574093,-23.890311],[-56.574361,-23.889194],[-56.574767,-23.888872],[-56.575594,-23.889003],[-56.576525,-23.889638],[-56.577617,-23.889527],[-56.578215,-23.889853],[-56.578583,-23.890582],[-56.580116,-23.890295],[-56.580732,-23.890475],[-56.58078,-23.89177],[-56.582395,-23.893394],[-56.582497,-23.894512],[-56.583889,-23.894499],[-56.584436,-23.894177],[-56.584613,-23.893692],[-56.582212,-23.890139],[-56.582601,-23.889784],[-56.587128,-23.889181],[-56.587814,-23.889474],[-56.588042,-23.890009],[-56.58788,-23.890834],[-56.587314,-23.891788],[-56.587517,-23.894266],[-56.586613,-23.896255],[-56.586839,-23.897001],[-56.588122,-23.898041],[-56.588138,-23.898348],[-56.587415,-23.89867],[-56.585936,-23.89865],[-56.585706,-23.898957],[-56.585755,-23.900075],[-56.586616,-23.900903],[-56.588713,-23.900406],[-56.589335,-23.898724],[-56.59078,-23.898355],[-56.590711,-23.897934],[-56.589533,-23.89717],[-56.589447,-23.896716],[-56.590789,-23.89557],[-56.591494,-23.895507],[-56.592074,-23.8958],[-56.592579,-23.897615],[-56.593001,-23.897924],[-56.593934,-23.897846],[-56.594306,-23.897231],[-56.594238,-23.896551],[-56.593062,-23.895091],[-56.5931,-23.894394],[-56.595497,-23.893607],[-56.596554,-23.893659],[-56.597398,-23.894114],[-56.597642,-23.894779],[-56.597287,-23.895895],[-56.596069,-23.896702],[-56.595908,-23.897624],[-56.597896,-23.898245],[-56.598981,-23.900288],[-56.599896,-23.900727],[-56.600407,-23.900599],[-56.600744,-23.899985],[-56.600344,-23.898316],[-56.601384,-23.897816],[-56.603303,-23.898194],[-56.603902,-23.898017],[-56.604752,-23.896562],[-56.605563,-23.89624],[-56.606373,-23.896437],[-56.606333,-23.897829],[-56.605961,-23.898476],[-56.604146,-23.898763],[-56.603705,-23.899086],[-56.603633,-23.899636],[-56.604616,-23.900804],[-56.604258,-23.902568],[-56.604433,-23.902877],[-56.606075,-23.901747],[-56.606554,-23.900566],[-56.607118,-23.900325],[-56.609179,-23.900152],[-56.610321,-23.901321],[-56.611642,-23.901324],[-56.612278,-23.900565],[-56.612546,-23.899092],[-56.613024,-23.898543],[-56.614663,-23.89819],[-56.615647,-23.898808],[-56.615733,-23.899408],[-56.614826,-23.902628],[-56.615193,-23.903471],[-56.617095,-23.903572],[-56.617057,-23.90456],[-56.616491,-23.905271],[-56.616382,-23.906502],[-56.616837,-23.90728],[-56.617401,-23.907379],[-56.620099,-23.906057],[-56.623194,-23.906302],[-56.6243,-23.905767],[-56.625176,-23.904559],[-56.625409,-23.902125],[-56.626114,-23.901648],[-56.627637,-23.901774],[-56.62902,-23.9025],[-56.630507,-23.903885],[-56.63177,-23.905744],[-56.632511,-23.905629],[-56.633196,-23.904136],[-56.63374,-23.903766],[-56.635804,-23.904548],[-56.636668,-23.904464],[-56.636956,-23.904086],[-56.636848,-23.90344],[-56.634881,-23.902441],[-56.634641,-23.901727],[-56.635419,-23.901318],[-56.637324,-23.901079],[-56.638392,-23.901262],[-56.63937,-23.90275],[-56.639697,-23.90453],[-56.640668,-23.905133],[-56.641154,-23.905148],[-56.641605,-23.904607],[-56.641231,-23.902876],[-56.64139,-23.90247],[-56.642816,-23.902745],[-56.643507,-23.90322],[-56.644114,-23.904965],[-56.643383,-23.907366],[-56.64402,-23.908804],[-56.645055,-23.909158],[-56.646435,-23.908886],[-56.648379,-23.909428],[-56.649471,-23.90887],[-56.649838,-23.907963],[-56.648652,-23.906037],[-56.648681,-23.904863],[-56.649128,-23.904227],[-56.650807,-23.904226],[-56.651498,-23.905199],[-56.652367,-23.905774],[-56.654732,-23.905716],[-56.657019,-23.906173],[-56.658536,-23.905323],[-56.659404,-23.903265],[-56.660443,-23.903101],[-56.661428,-23.903925],[-56.662126,-23.906415],[-56.662817,-23.906461],[-56.664022,-23.905511],[-56.664539,-23.905585],[-56.664648,-23.906371],[-56.66411,-23.907796],[-56.664939,-23.908665],[-56.666353,-23.908637],[-56.666883,-23.907315],[-56.667376,-23.906923],[-56.669548,-23.907063],[-56.670088,-23.90766],[-56.670733,-23.910191],[-56.67186,-23.911467],[-56.672823,-23.911351],[-56.673532,-23.910775],[-56.674452,-23.90804],[-56.675352,-23.907708],[-56.676032,-23.907899],[-56.677006,-23.911076],[-56.67778,-23.912581],[-56.6765,-23.914968],[-56.676359,-23.917514],[-56.676724,-23.918482],[-56.677678,-23.919197],[-56.679243,-23.919607],[-56.680224,-23.919099],[-56.6805,-23.91778],[-56.679355,-23.917001],[-56.679162,-23.916071],[-56.68101,-23.913889],[-56.68192,-23.913579],[-56.682566,-23.913802],[-56.683,-23.914489],[-56.68283,-23.916318],[-56.684796,-23.917396],[-56.684934,-23.918512],[-56.685589,-23.919683],[-56.686273,-23.922123],[-56.687424,-23.923277],[-56.688428,-23.923302],[-56.688952,-23.922504],[-56.687167,-23.919736],[-56.687308,-23.918973],[-56.68834,-23.918853],[-56.690138,-23.919575],[-56.693555,-23.918503],[-56.694437,-23.918762]]]}}]}
