{"type":"FeatureCollection","name":"distrito","features":[{"type":"Feature","properties":{"clave":"7-13","nombre":"Carmen del Paraná"},"geometry":{"type":"Polygon","coordinates":[[[-56.169115,-27.207338],[-56.167575,-27.204652],[-56.168428,-27.205032],[-56.168562,-27.204198],[-56.169345,-27.204613],[-56.169973,-27.204143],[-56.169371,-27.203665],[-56.169006,-27.202584],[-56.170071,-27.20246],[-56.169136,-27.201863],[-56.17,-27.201543],[-56.169264,-27.200749],[-56.170172,-27.200745],[-56.169947,-27.200143],[-56.170313,-27.199681],[-56.169814,-27.199249],[-56.169008,-27.199416],[-56.168642,-27.199125],[-56.170144,-27.196998],[-56.169381,-27.196682],[-56.169304,-27.196073],[-56.170605,-27.195448],[-56.170623,-27.194487],[-56.171867,-27.1943],[-56.172243,-27.19386],[-56.171832,-27.193578],[-56.170753,-27.193617],[-56.171043,-27.19295],[-56.170381,-27.192346],[-56.168242,-27.192573],[-56.168313,-27.19181],[-56.168004,-27.191619],[-56.166504,-27.192251],[-56.167282,-27.190518],[-56.166177,-27.190389],[-56.166958,-27.189681],[-56.165785,-27.189322],[-56.166677,-27.188668],[-56.164778,-27.187903],[-56.164928,-27.187443],[-56.165934,-27.187418],[-56.166007,-27.184732],[-56.166359,-27.183674],[-56.165507,-27.182883],[-56.164903,-27.182938],[-56.165325,-27.181058],[-56.163586,-27.180439],[-56.164297,-27.179504],[-56.165466,-27.179877],[-56.165027,-27.179292],[-56.166434,-27.178677],[-56.16609,-27.177483],[-56.166654,-27.17602],[-56.165492,-27.175999],[-56.166295,-27.175408],[-56.166486,-27.173365],[-56.166755,-27.173289],[-56.167273,-27.174281],[-56.168135,-27.17439],[-56.16763,-27.173611],[-56.168791,-27.173301],[-56.169513,-27.171884],[-56.170343,-27.171135],[-56.170284,-27.169632],[-56.171575,-27.169183],[-56.171066,-27.168002],[-56.170369,-27.167325],[-56.170908,-27.166584],[-56.17003,-27.16601],[-56.170441,-27.165353],[-56.170073,-27.164855],[-56.170321,-27.164346],[-56.169936,-27.163901],[-56.170326,-27.163615],[-56.16955,-27.162545],[-56.170535,-27.161725],[-56.169247,-27.161058],[-56.169275,-27.160557],[-56.169894,-27.159956],[-56.169588,-27.159439],[-56.169749,-27.158799],[-56.169602,-27.158582],[-56.16902,-27.159043],[-56.168509,-27.158873],[-56.167839,-27.157565],[-56.168088,-27.157417],[-56.168771,-27.157891],[-56.169675,-27.157928],[-56.17003,-27.157406],[-56.169909,-27.156823],[-56.168737,-27.156794],[-56.170087,-27.155836],[-56.169559,-27.154542],[-56.170738,-27.154151],[-56.170959,-27.153751],[-56.170539,-27.153243],[-56.169722,-27.153089],[-56.169695,-27.152471],[-56.168975,-27.15183],[-56.169178,-27.151538],[-56.169738,-27.1515],[-56.170474,-27.150688],[-56.170493,-27.150024],[-56.170058,-27.14971],[-56.170176,-27.150135],[-56.169844,-27.1504],[-56.168861,-27.149929],[-56.16909,-27.148906],[-56.167854,-27.148659],[-56.16569,-27.149892],[-56.166259,-27.148266],[-56.164422,-27.147984],[-56.162648,-27.147238],[-56.162088,-27.146806],[-56.162253,-27.146093],[-56.161038,-27.145319],[-56.159252,-27.146716],[-56.159807,-27.147627],[-56.159559,-27.148393],[-56.158339,-27.148544],[-56.158596,-27.146591],[-56.156505,-27.14665],[-56.156649,-27.14569],[-56.155338,-27.144964],[-56.15509,-27.144353],[-56.15561,-27.144076],[-56.156679,-27.144611],[-56.157157,-27.143788],[-56.15702,-27.143155],[-56.155452,-27.143435],[-56.154753,-27.142731],[-56.154033,-27.142641],[-56.153533,-27.143297],[-56.152692,-27.143057],[-56.151644,-27.143493],[-56.151808,-27.142704],[-56.150596,-27.142164],[-56.150778,-27.141542],[-56.151439,-27.141054],[-56.15112,-27.140316],[-56.148792,-27.139612],[-56.148815,-27.138673],[-56.147006,-27.138274],[-56.148035,-27.137729],[-56.148345,-27.137176],[-56.147174,-27.136496],[-56.147557,-27.135614],[-56.148293,-27.135235],[-56.147959,-27.133098],[-56.147521,-27.132251],[-56.14858,-27.131968],[-56.149525,-27.13118],[-56.149569,-27.130286],[-56.150568,-27.130405],[-56.150237,-27.129771],[-56.15106,-27.129171],[-56.150851,-27.128064],[-56.150426,-27.128734],[-56.149763,-27.128161],[-56.14891,-27.128066],[-56.148826,-27.12774],[-56.149355,-27.127125],[-56.14817,-27.127028],[-56.147907,-27.126159],[-56.148149,-27.125389],[-56.147022,-27.125062],[-56.147285,-27.124517],[-56.148617,-27.12411],[-56.148715,-27.123673],[-56.147808,-27.123861],[-56.146924,-27.123648],[-56.147219,-27.122869],[-56.146129,-27.122483],[-56.146996,-27.122073],[-56.146943,-27.121166],[-56.146253,-27.121432],[-56.143915,-27.120822],[-56.143889,-27.120158],[-56.142964,-27.119814],[-56.142849,-27.11887],[-56.141645,-27.119088],[-56.141996,-27.118359],[-56.141861,-27.117907],[-56.14049,-27.118513],[-56.140148,-27.11814],[-56.140324,-27.116941],[-56.138315,-27.116919],[-56.138759,-27.116295],[-56.139751,-27.115922],[-56.139651,-27.115668],[-56.138801,-27.115713],[-56.138451,-27.115381],[-56.138857,-27.113569],[-56.138244,-27.113443],[-56.138113,-27.114246],[-56.137695,-27.114614],[-56.137504,-27.113561],[-56.136577,-27.113176],[-56.136983,-27.112379],[-56.135913,-27.112192],[-56.135225,-27.112409],[-56.134374,-27.112079],[-56.133429,-27.111161],[-56.133492,-27.109938],[-56.132023,-27.10983],[-56.133212,-27.108614],[-56.130751,-27.107055],[-56.130387,-27.10601],[-56.129175,-27.106034],[-56.129627,-27.105346],[-56.128626,-27.10451],[-56.128697,-27.103287],[-56.129107,-27.102612],[-56.127906,-27.099675],[-56.128092,-27.099193],[-56.12906,-27.098549],[-56.128143,-27.097289],[-56.12765,-27.097214],[-56.127635,-27.096446],[-56.126713,-27.095908],[-56.126668,-27.095325],[-56.127224,-27.095107],[-56.128429,-27.095395],[-56.12933,-27.094651],[-56.129224,-27.094316],[-56.127662,-27.094374],[-56.127643,-27.092284],[-56.129327,-27.091879],[-56.129014,-27.091449],[-56.127821,-27.091044],[-56.128983,-27.090325],[-56.129886,-27.090682],[-56.131734,-27.089926],[-56.131777,-27.088857],[-56.130607,-27.087915],[-56.132109,-27.087292],[-56.131802,-27.08697],[-56.130411,-27.086889],[-56.130562,-27.086434],[-56.131584,-27.085755],[-56.131521,-27.084996],[-56.13104,-27.084939],[-56.130387,-27.085688],[-56.130023,-27.085722],[-56.129016,-27.083811],[-56.129517,-27.08344],[-56.130685,-27.083293],[-56.129914,-27.082147],[-56.13089,-27.081349],[-56.130596,-27.079984],[-56.131463,-27.079376],[-56.131666,-27.078515],[-56.130641,-27.078513],[-56.130149,-27.079106],[-56.129024,-27.078787],[-56.128877,-27.078303],[-56.127474,-27.077148],[-56.127621,-27.076828],[-56.128522,-27.076753],[-56.129679,-27.075568],[-56.128301,-27.074463],[-56.129525,-27.073956],[-56.129402,-27.073716],[-56.128666,-27.073711],[-56.128999,-27.073397],[-56.128646,-27.071797],[-56.129525,-27.072024],[-56.129752,-27.071827],[-56.129569,-27.071027],[-56.129798,-27.070238],[-56.12883,-27.069365],[-55.993186,-27.189335],[-56.001781,-27.197088],[-56.002235,-27.197976],[-56.004481,-27.199572],[-56.020418,-27.21402],[-56.022178,-27.213062],[-56.022674,-27.215322],[-56.023527,-27.217129],[-56.024357,-27.218109],[-56.023188,-27.219898],[-56.023185,-27.220372],[-56.023599,-27.220695],[-56.022196,-27.223082],[-56.022185,-27.224066],[-56.021047,-27.223747],[-56.020839,-27.224373],[-56.019438,-27.225988],[-56.020025,-27.226588],[-56.019826,-27.227205],[-56.020276,-27.22793],[-56.021157,-27.228189],[-56.020939,-27.228625],[-56.021726,-27.22919],[-56.021364,-27.229603],[-56.021969,-27.229707],[-56.021779,-27.230211],[-56.02241,-27.230757],[-56.022991,-27.2304],[-56.023291,-27.230826],[-56.023098,-27.23138],[-56.02334,-27.232334],[-56.022616,-27.233999],[-56.022782,-27.234307],[-56.02357,-27.234435],[-56.024334,-27.238372],[-56.024275,-27.239883],[-56.023559,-27.240966],[-56.024187,-27.242654],[-56.025571,-27.244307],[-56.026012,-27.244472],[-56.025492,-27.245001],[-56.026143,-27.245507],[-56.025293,-27.24574],[-56.026261,-27.246749],[-56.026574,-27.247478],[-56.026306,-27.248009],[-56.027391,-27.248856],[-56.027359,-27.249487],[-56.028023,-27.249646],[-56.027859,-27.250204],[-56.0284,-27.250149],[-56.028673,-27.250688],[-56.029179,-27.250191],[-56.029616,-27.250776],[-56.02941,-27.251167],[-56.030009,-27.251492],[-56.029992,-27.251894],[-56.030356,-27.252153],[-56.03022,-27.252441],[-56.031591,-27.25241],[-56.032259,-27.252992],[-56.032239,-27.254811],[-56.031385,-27.254882],[-56.030529,-27.256167],[-56.029792,-27.25646],[-56.029732,-27.257304],[-56.029106,-27.257602],[-56.029175,-27.258067],[-56.02875,-27.25861],[-56.02717,-27.259511],[-56.027661,-27.260016],[-56.027725,-27.260653],[-56.029609,-27.262534],[-56.0302,-27.265635],[-56.031097,-27.266165],[-56.030622,-27.266757],[-56.0313,-27.267538],[-56.030265,-27.267748],[-56.030632,-27.268748],[-56.03026,-27.269337],[-56.031084,-27.270292],[-56.031719,-27.272231],[-56.032214,-27.272557],[-56.031532,-27.273979],[-56.031817,-27.274779],[-56.032841,-27.275569],[-56.032383,-27.278804],[-56.033221,-27.2793],[-56.033007,-27.280128],[-56.031855,-27.28038],[-56.031488,-27.281053],[-56.030261,-27.281981],[-56.030746,-27.283442],[-56.030585,-27.284239],[-56.032896,-27.286986],[-56.035428,-27.28616],[-56.038206,-27.286716],[-56.042315,-27.288263],[-56.043529,-27.290819],[-56.046397,-27.291692],[-56.046522,-27.306623],[-56.062288,-27.305544],[-56.079646,-27.305914],[-56.098127,-27.308322],[-56.124613,-27.306457],[-56.156555,-27.298008],[-56.168231,-27.297061],[-56.166605,-27.286119],[-56.168952,-27.266893],[-56.168426,-27.265835],[-56.170914,-27.26369],[-56.172828,-27.26325],[-56.173057,-27.262649],[-56.17247,-27.262243],[-56.171971,-27.261336],[-56.173389,-27.259562],[-56.174337,-27.256781],[-56.173486,-27.254089],[-56.173493,-27.25311],[-56.173951,-27.251982],[-56.174406,-27.251182],[-56.176978,-27.249138],[-56.177722,-27.247259],[-56.177312,-27.245775],[-56.178803,-27.245482],[-56.179424,-27.245084],[-56.181495,-27.242234],[-56.181897,-27.241056],[-56.181851,-27.239675],[-56.179762,-27.237277],[-56.179377,-27.236095],[-56.178343,-27.235461],[-56.176156,-27.235397],[-56.176129,-27.234676],[-56.176623,-27.234128],[-56.179231,-27.234073],[-56.180313,-27.235167],[-56.182469,-27.236295],[-56.183211,-27.236412],[-56.185303,-27.23562],[-56.185808,-27.235679],[-56.186606,-27.236814],[-56.189513,-27.236774],[-56.192064,-27.235786],[-56.192276,-27.234897],[-56.193258,-27.234606],[-56.193365,-27.232841],[-56.194844,-27.230553],[-56.19474,-27.230139],[-56.194299,-27.229951],[-56.193702,-27.230421],[-56.193,-27.229998],[-56.191707,-27.230058],[-56.191329,-27.228891],[-56.189827,-27.228973],[-56.189292,-27.22962],[-56.190171,-27.230198],[-56.190178,-27.230523],[-56.189173,-27.230842],[-56.188925,-27.231482],[-56.190023,-27.231971],[-56.190005,-27.232621],[-56.188247,-27.233843],[-56.187565,-27.233654],[-56.187768,-27.232734],[-56.187536,-27.232561],[-56.186945,-27.23314],[-56.185436,-27.233163],[-56.185575,-27.23176],[-56.185123,-27.230864],[-56.183466,-27.229829],[-56.182882,-27.228093],[-56.181177,-27.227234],[-56.181228,-27.225275],[-56.182466,-27.224818],[-56.182562,-27.222345],[-56.183157,-27.2221],[-56.182736,-27.221624],[-56.183138,-27.220533],[-56.183379,-27.220544],[-56.183477,-27.221389],[-56.184364,-27.220189],[-56.184624,-27.221007],[-56.185048,-27.221312],[-56.186223,-27.220827],[-56.186977,-27.221287],[-56.187489,-27.221164],[-56.187207,-27.220097],[-56.188176,-27.219935],[-56.187808,-27.219351],[-56.188737,-27.219135],[-56.187982,-27.217154],[-56.187524,-27.216889],[-56.186744,-27.217535],[-56.185813,-27.217457],[-56.184452,-27.21609],[-56.183646,-27.216275],[-56.182847,-27.216018],[-56.182723,-27.21715],[-56.181851,-27.217339],[-56.181804,-27.216256],[-56.181296,-27.216244],[-56.180652,-27.216565],[-56.180481,-27.217516],[-56.179997,-27.217685],[-56.179664,-27.217548],[-56.17963,-27.216911],[-56.178809,-27.215881],[-56.178785,-27.216504],[-56.176891,-27.216832],[-56.176041,-27.215287],[-56.175947,-27.216],[-56.175054,-27.215868],[-56.175442,-27.215207],[-56.175361,-27.214724],[-56.174965,-27.214419],[-56.173991,-27.214634],[-56.174442,-27.214014],[-56.173405,-27.213525],[-56.173447,-27.21306],[-56.174168,-27.212378],[-56.173764,-27.211478],[-56.174002,-27.210279],[-56.172564,-27.210153],[-56.173363,-27.209566],[-56.172113,-27.207658],[-56.171601,-27.208021],[-56.171596,-27.209086],[-56.171179,-27.209355],[-56.170688,-27.209257],[-56.170761,-27.208625],[-56.170212,-27.208288],[-56.170233,-27.207819],[-56.169115,-27.207338]]]}}]}
