{"type":"FeatureCollection","name":"distrito","features":[{"type":"Feature","properties":{"clave":"15-4","nombre":"General José María Bruguez"},"geometry":{"type":"Polygon","coordinates":[[[-58.808127,-24.772038],[-58.809377,-24.769081],[-58.812542,-24.766325],[-58.816294,-24.76455],[-58.817302,-24.764327],[-58.818247,-24.763249],[-58.820878,-24.762424],[-58.822056,-24.762554],[-58.822475,-24.762296],[-58.822978,-24.761549],[-58.822904,-24.760259],[-58.825428,-24.758351],[-58.82649,-24.755766],[-58.82773,-24.754465],[-58.827974,-24.753142],[-58.829894,-24.751979],[-58.831565,-24.75035],[-58.832597,-24.748758],[-58.83693,-24.744917],[-58.838931,-24.744242],[-58.839571,-24.742969],[-58.84072,-24.742664],[-58.843409,-24.740668],[-58.845039,-24.739875],[-58.845722,-24.738176],[-58.846281,-24.737554],[-58.848993,-24.736542],[-58.851367,-24.736649],[-58.852052,-24.736366],[-58.853055,-24.735455],[-58.853957,-24.735092],[-58.854366,-24.733222],[-58.855436,-24.732417],[-58.86143,-24.731308],[-58.864504,-24.729128],[-58.865983,-24.728829],[-58.866889,-24.729394],[-58.86752,-24.729378],[-58.869572,-24.728187],[-58.870804,-24.728384],[-58.871515,-24.729469],[-58.872778,-24.730541],[-58.873246,-24.73195],[-58.873682,-24.732335],[-58.876434,-24.733198],[-58.878223,-24.733407],[-58.878981,-24.733128],[-58.87954,-24.732487],[-58.879766,-24.731594],[-58.881284,-24.730901],[-58.882159,-24.72806],[-58.883444,-24.727029],[-58.884003,-24.725726],[-58.884456,-24.721871],[-58.886702,-24.718882],[-58.888882,-24.716619],[-58.890127,-24.716137],[-58.890749,-24.715415],[-58.892886,-24.714908],[-58.897484,-24.710527],[-58.899182,-24.709813],[-58.902615,-24.709052],[-58.902609,-24.707386],[-58.903344,-24.704724],[-58.905091,-24.70355],[-58.906806,-24.703985],[-58.909083,-24.703353],[-58.910174,-24.70236],[-58.912163,-24.701422],[-58.91402,-24.698126],[-58.915934,-24.697721],[-58.916645,-24.696547],[-58.919913,-24.696689],[-58.921394,-24.697178],[-58.926276,-24.696469],[-58.927381,-24.69514],[-58.927493,-24.692274],[-58.928697,-24.691599],[-58.929353,-24.690802],[-58.931307,-24.689928],[-58.934865,-24.687242],[-58.940247,-24.685709],[-58.94137,-24.682006],[-58.943048,-24.68038],[-58.946664,-24.679704],[-58.948132,-24.678855],[-58.950136,-24.678181],[-58.950964,-24.677456],[-58.951221,-24.676508],[-58.951575,-24.67625],[-58.952564,-24.676394],[-58.953505,-24.677259],[-58.954231,-24.677287],[-58.956248,-24.676101],[-58.958311,-24.675668],[-58.961886,-24.673495],[-58.963726,-24.673182],[-58.965265,-24.672176],[-58.966764,-24.672288],[-58.96758,-24.671388],[-58.968627,-24.669131],[-58.968864,-24.666014],[-58.969702,-24.664645],[-58.971358,-24.662997],[-58.972997,-24.662223],[-58.975387,-24.661804],[-58.977035,-24.6619],[-58.979742,-24.660217],[-58.983976,-24.660361],[-58.985514,-24.65972],[-58.987899,-24.661667],[-58.991835,-24.662591],[-58.993362,-24.663137],[-58.99417,-24.663909],[-58.995156,-24.664033],[-58.99904,-24.663654],[-59.001345,-24.662667],[-59.004115,-24.660574],[-59.005496,-24.660129],[-59.007165,-24.66014],[-59.011662,-24.659342],[-59.012839,-24.659707],[-59.013479,-24.660483],[-59.014265,-24.660625],[-59.016091,-24.660492],[-59.017269,-24.660751],[-59.020048,-24.660457],[-59.021104,-24.659834],[-59.022778,-24.659827],[-59.023708,-24.660163],[-59.025301,-24.658891],[-59.026351,-24.658619],[-59.026864,-24.65732],[-59.028699,-24.656538],[-59.029937,-24.654372],[-59.030996,-24.653625],[-59.031353,-24.650778],[-59.032865,-24.649524],[-59.033464,-24.648208],[-59.036599,-24.646955],[-59.03701,-24.646427],[-59.036998,-24.645761],[-59.039262,-24.645776],[-59.040724,-24.64526],[-59.044959,-24.644787],[-59.047039,-24.645069],[-59.050503,-24.642469],[-59.051662,-24.642399],[-59.052377,-24.640536],[-59.053752,-24.638533],[-59.053783,-24.636584],[-59.054422,-24.635658],[-59.055686,-24.635138],[-59.05612,-24.632774],[-59.056947,-24.63145],[-59.057537,-24.630986],[-59.059499,-24.630587],[-59.062674,-24.629211],[-59.064298,-24.627632],[-59.064998,-24.627859],[-59.065398,-24.629631],[-59.066584,-24.629576],[-59.070368,-24.627272],[-59.075152,-24.625567],[-59.075804,-24.62477],[-59.078667,-24.62287],[-59.079658,-24.621455],[-59.08234,-24.621135],[-59.083652,-24.620355],[-59.085786,-24.620049],[-59.086983,-24.619467],[-59.08831,-24.619559],[-59.089312,-24.618245],[-59.090513,-24.617569],[-59.093159,-24.618043],[-59.093779,-24.616854],[-59.094334,-24.616529],[-59.095018,-24.616635],[-59.095275,-24.617156],[-59.095854,-24.617387],[-59.098953,-24.616718],[-59.100344,-24.616888],[-59.102029,-24.617532],[-59.104073,-24.618955],[-59.105084,-24.620101],[-59.105248,-24.621022],[-59.105696,-24.621564],[-59.106867,-24.621943],[-59.107925,-24.622974],[-59.109412,-24.62271],[-59.110747,-24.623857],[-59.113016,-24.62263],[-59.115546,-24.622892],[-59.11671,-24.622543],[-59.119679,-24.620909],[-59.119988,-24.619894],[-59.121786,-24.61918],[-59.122036,-24.618107],[-59.123244,-24.617506],[-59.124941,-24.618588],[-59.128058,-24.617988],[-59.130636,-24.616229],[-59.130052,-24.612306],[-59.131157,-24.610976],[-59.131898,-24.609044],[-59.132473,-24.608335],[-59.134681,-24.607156],[-59.135248,-24.606191],[-59.138213,-24.605623],[-59.139162,-24.606157],[-59.139819,-24.606193],[-59.141581,-24.605219],[-59.144157,-24.604889],[-59.145032,-24.604123],[-59.146612,-24.603533],[-59.149099,-24.60117],[-59.151706,-24.601054],[-59.153337,-24.599768],[-59.154063,-24.598689],[-59.153648,-24.595005],[-59.154097,-24.594303],[-59.155814,-24.5933],[-59.155979,-24.589598],[-59.157208,-24.58751],[-59.159399,-24.586984],[-59.160569,-24.585723],[-59.16196,-24.585601],[-59.16271,-24.586086],[-59.16393,-24.585909],[-59.165632,-24.58463],[-59.167141,-24.582961],[-59.168412,-24.582352],[-59.169678,-24.582785],[-59.170187,-24.582643],[-59.1706,-24.582243],[-59.170695,-24.581539],[-59.171254,-24.581057],[-59.173209,-24.581345],[-59.174033,-24.580098],[-59.175527,-24.578739],[-59.177097,-24.578338],[-59.177637,-24.57799],[-59.17799,-24.577096],[-59.178967,-24.576405],[-59.179737,-24.576259],[-59.180292,-24.575231],[-59.180537,-24.572928],[-59.179756,-24.571563],[-59.179814,-24.57119],[-59.181182,-24.570138],[-59.182306,-24.568532],[-59.184197,-24.567211],[-59.184285,-24.565185],[-59.185801,-24.56352],[-59.186972,-24.563029],[-59.190097,-24.562421],[-59.19209,-24.56242],[-59.196147,-24.561598],[-59.19782,-24.560689],[-59.199452,-24.560597],[-59.202894,-24.559372],[-59.203771,-24.557825],[-59.205073,-24.557163],[-59.205023,-24.555831],[-59.205738,-24.5551],[-59.20866,-24.555124],[-59.210942,-24.556187],[-59.214055,-24.554113],[-59.217298,-24.554363],[-59.218163,-24.554146],[-59.21948,-24.553249],[-59.220091,-24.552185],[-59.220736,-24.551778],[-59.221314,-24.551764],[-59.222235,-24.552309],[-59.223165,-24.55225],[-59.223925,-24.551336],[-59.224052,-24.550247],[-59.224371,-24.549987],[-59.224734,-24.550059],[-59.224955,-24.551327],[-59.225453,-24.551545],[-59.227122,-24.550919],[-59.227587,-24.549133],[-59.232399,-24.549717],[-59.232993,-24.549023],[-59.234231,-24.548681],[-59.235748,-24.549373],[-59.236575,-24.548064],[-59.238306,-24.547111],[-59.238761,-24.546554],[-59.241087,-24.54629],[-59.243011,-24.541846],[-59.243239,-24.538959],[-59.246455,-24.535221],[-59.247981,-24.534063],[-59.248638,-24.532849],[-59.251341,-24.532536],[-59.251061,-24.529128],[-59.250585,-24.527565],[-59.252606,-24.525274],[-59.252738,-24.524372],[-59.252036,-24.523548],[-59.253925,-24.523215],[-59.255459,-24.5215],[-59.256526,-24.520901],[-59.257367,-24.51971],[-59.259164,-24.51959],[-59.262613,-24.5202],[-59.264755,-24.519072],[-59.265475,-24.519049],[-59.266029,-24.519258],[-59.266285,-24.52],[-59.266795,-24.520348],[-59.267022,-24.520219],[-59.267,-24.519122],[-59.268629,-24.519044],[-59.272489,-24.517195],[-59.27585,-24.516886],[-59.277404,-24.516466],[-59.280773,-24.518653],[-59.281441,-24.518472],[-59.282432,-24.51757],[-59.285646,-24.518223],[-59.287385,-24.517822],[-59.288897,-24.517121],[-59.289683,-24.516038],[-59.290495,-24.516327],[-59.29133,-24.516253],[-59.293633,-24.515522],[-59.296568,-24.513451],[-59.296774,-24.512779],[-59.296102,-24.51179],[-59.295854,-24.510663],[-59.296684,-24.510213],[-59.297626,-24.510262],[-59.298044,-24.50988],[-59.298461,-24.50777],[-59.299606,-24.507078],[-59.300519,-24.50607],[-59.30066,-24.504336],[-59.301091,-24.503434],[-59.301822,-24.503427],[-59.302711,-24.504251],[-59.303886,-24.504403],[-59.304495,-24.503746],[-59.304514,-24.502223],[-59.306069,-24.501151],[-59.308643,-24.502139],[-59.309687,-24.502837],[-59.310896,-24.5029],[-59.313197,-24.501332],[-59.314748,-24.500821],[-59.315204,-24.499926],[-59.315627,-24.49785],[-59.303985,-24.487573],[-59.300283,-24.49069],[-59.297815,-24.487875],[-59.285344,-24.493146],[-59.283596,-24.480508],[-59.260261,-24.427177],[-59.213934,-24.366023],[-59.245261,-24.315618],[-59.26328,-24.302254],[-59.303505,-24.284944],[-59.298615,-24.273913],[-59.296992,-24.273087],[-59.298803,-24.271605],[-59.298881,-24.270646],[-59.298179,-24.269315],[-59.298255,-24.268185],[-59.298677,-24.26781],[-59.30082,-24.267715],[-59.301278,-24.266669],[-59.300496,-24.263016],[-59.299812,-24.262632],[-59.29937,-24.261234],[-59.299717,-24.260071],[-59.300732,-24.259585],[-59.302345,-24.259542],[-59.303699,-24.259153],[-59.30413,-24.258288],[-59.302334,-24.257045],[-59.302854,-24.254918],[-59.305888,-24.252619],[-59.306763,-24.251568],[-59.308263,-24.250833],[-59.309035,-24.25078],[-59.310729,-24.251164],[-59.312478,-24.253773],[-59.315557,-24.256649],[-59.316362,-24.256943],[-59.317507,-24.256752],[-59.318659,-24.254983],[-59.318782,-24.250784],[-59.319484,-24.249701],[-59.320435,-24.249115],[-59.320788,-24.248006],[-59.320636,-24.247272],[-59.319319,-24.245888],[-59.316443,-24.24492],[-59.316697,-24.24331],[-59.318101,-24.241834],[-59.320082,-24.240692],[-59.324887,-24.240294],[-59.32671,-24.239491],[-59.328148,-24.237486],[-59.328768,-24.23608],[-59.328988,-24.23159],[-59.329814,-24.230604],[-59.331266,-24.230294],[-59.332554,-24.230402],[-59.333832,-24.230963],[-59.335207,-24.232509],[-59.3367,-24.232654],[-59.337858,-24.231969],[-59.337893,-24.230531],[-59.339002,-24.22921],[-59.340405,-24.228565],[-59.340813,-24.227716],[-59.341637,-24.225292],[-59.34179,-24.223141],[-59.342857,-24.221629],[-59.342938,-24.176382],[-59.314614,-24.17597],[-59.27853,-24.177457],[-59.261327,-24.178422],[-59.256482,-24.180615],[-59.18771,-24.177745],[-59.190475,-24.149819],[-59.191071,-24.140882],[-59.191963,-24.134685],[-59.191663,-24.131715],[-59.18422,-24.119458],[-59.180943,-24.117442],[-59.166417,-24.113988],[-59.159622,-24.110419],[-59.159614,-24.095081],[-59.152958,-24.062435],[-59.141745,-24.062823],[-59.080279,-24.062755],[-59.080638,-24.022944],[-59.08203,-23.956236],[-59.082747,-23.952816],[-59.082956,-23.949581],[-59.084564,-23.948228],[-59.085716,-23.946309],[-59.083679,-23.942259],[-59.083824,-23.935649],[-59.089975,-23.923055],[-59.100736,-23.905783],[-59.102316,-23.899872],[-59.105794,-23.883424],[-59.10678,-23.877339],[-59.109242,-23.866999],[-59.122465,-23.803544],[-59.121546,-23.781618],[-59.137961,-23.744677],[-59.143186,-23.729509],[-59.141507,-23.729849],[-59.138225,-23.729577],[-59.13633,-23.731146],[-59.135489,-23.730833],[-59.134288,-23.731489],[-59.132363,-23.731998],[-59.129671,-23.730567],[-59.129856,-23.72968],[-59.130453,-23.728998],[-59.129492,-23.728638],[-59.12854,-23.727481],[-59.126726,-23.727451],[-59.1259,-23.727074],[-59.125407,-23.725082],[-59.12492,-23.725025],[-59.12439,-23.725691],[-59.124394,-23.72724],[-59.124113,-23.727503],[-59.123526,-23.72737],[-59.121448,-23.724875],[-59.120271,-23.724365],[-59.120227,-23.72223],[-59.115032,-23.720729],[-59.114148,-23.719632],[-59.11249,-23.719678],[-59.11245,-23.719327],[-59.114183,-23.718297],[-59.114386,-23.717066],[-59.1136,-23.715737],[-59.111901,-23.715476],[-59.111118,-23.714378],[-59.110715,-23.714443],[-59.109973,-23.715296],[-59.109504,-23.715332],[-59.108576,-23.715002],[-59.107412,-23.713922],[-59.104848,-23.714347],[-59.1042,-23.713411],[-59.102919,-23.712856],[-59.102916,-23.711058],[-59.102507,-23.710586],[-59.101359,-23.710136],[-59.101244,-23.708815],[-59.100136,-23.708688],[-59.099454,-23.709308],[-59.099169,-23.709173],[-59.099171,-23.707944],[-59.098564,-23.707367],[-59.098861,-23.706328],[-59.098607,-23.704562],[-59.096357,-23.703305],[-59.0935,-23.702549],[-59.092331,-23.701562],[-59.091744,-23.70169],[-59.090289,-23.702795],[-59.090522,-23.703838],[-59.089752,-23.704949],[-59.088924,-23.70499],[-59.0878,-23.703171],[-59.087295,-23.702976],[-59.086584,-23.703971],[-59.084824,-23.705401],[-59.083131,-23.705739],[-59.082074,-23.707225],[-59.081484,-23.707076],[-59.081024,-23.706496],[-59.07982,-23.706938],[-59.078121,-23.706615],[-59.076578,-23.707624],[-59.075901,-23.707584],[-59.07544,-23.706742],[-59.075226,-23.705373],[-59.074134,-23.705506],[-59.072835,-23.705056],[-59.071206,-23.705445],[-59.070802,-23.70531],[-59.070628,-23.704712],[-59.070006,-23.704657],[-59.069381,-23.705815],[-59.069357,-23.706737],[-59.068923,-23.707063],[-59.068092,-23.706317],[-59.067641,-23.70643],[-59.067874,-23.707811],[-59.06677,-23.708468],[-59.066786,-23.70962],[-59.065076,-23.709912],[-59.063973,-23.710662],[-59.063094,-23.71027],[-59.062056,-23.710566],[-59.061494,-23.711432],[-59.060535,-23.711595],[-59.061061,-23.712943],[-59.060093,-23.713535],[-59.059311,-23.713482],[-59.058594,-23.712505],[-59.057958,-23.712634],[-59.057616,-23.713667],[-59.056553,-23.713154],[-59.055208,-23.713195],[-59.055247,-23.713671],[-59.056011,-23.714402],[-59.055694,-23.714681],[-59.053705,-23.713855],[-59.052707,-23.714726],[-59.050796,-23.715206],[-59.050084,-23.716259],[-59.04968,-23.716202],[-59.04844,-23.714967],[-59.04676,-23.715178],[-59.046499,-23.716058],[-59.044515,-23.71589],[-59.043106,-23.716148],[-59.042096,-23.718022],[-59.041692,-23.717826],[-59.041075,-23.716738],[-59.038735,-23.718021],[-59.037484,-23.71734],[-59.036987,-23.718067],[-59.036042,-23.71763],[-59.034934,-23.719225],[-59.033845,-23.719758],[-59.032611,-23.719585],[-59.032215,-23.720389],[-59.032377,-23.721007],[-59.0311,-23.721419],[-59.032168,-23.721948],[-59.031942,-23.722489],[-59.031436,-23.722494],[-59.030263,-23.721796],[-59.029942,-23.720229],[-59.028469,-23.720889],[-59.027947,-23.722047],[-59.026845,-23.721286],[-59.025937,-23.721449],[-59.024668,-23.720827],[-59.023775,-23.720743],[-59.023388,-23.722411],[-59.022905,-23.722909],[-59.021403,-23.722475],[-59.020991,-23.723141],[-59.020536,-23.723099],[-59.019493,-23.721814],[-59.019126,-23.722017],[-59.019466,-23.723709],[-59.018,-23.723275],[-59.017496,-23.723434],[-59.017553,-23.724111],[-59.017978,-23.724539],[-59.017887,-23.725123],[-59.016926,-23.725287],[-59.016479,-23.724011],[-59.014871,-23.72458],[-59.014801,-23.725965],[-59.014247,-23.727787],[-59.013979,-23.727913],[-59.0129,-23.727475],[-59.010795,-23.728478],[-59.010765,-23.72911],[-59.011329,-23.729704],[-59.011383,-23.730258],[-59.01098,-23.730386],[-59.010013,-23.730003],[-59.010482,-23.731477],[-59.009979,-23.731805],[-59.00825,-23.730775],[-59.008661,-23.729461],[-59.00822,-23.729033],[-59.00729,-23.729231],[-59.004379,-23.731855],[-59.003587,-23.731646],[-59.004188,-23.729592],[-59.001767,-23.729676],[-59.001463,-23.729493],[-59.001404,-23.728785],[-59.001003,-23.728913],[-59.000582,-23.730823],[-58.999454,-23.730541],[-58.997955,-23.730769],[-58.997349,-23.730068],[-58.996691,-23.730027],[-58.995913,-23.731451],[-58.996104,-23.731911],[-58.996663,-23.732121],[-58.996283,-23.732571],[-58.995488,-23.732101],[-58.99473,-23.732292],[-58.994673,-23.731599],[-58.993457,-23.731395],[-58.993634,-23.730438],[-58.991922,-23.730946],[-58.992101,-23.73193],[-58.991885,-23.732163],[-58.990847,-23.730986],[-58.989595,-23.730411],[-58.988987,-23.731757],[-58.988398,-23.7317],[-58.987083,-23.730107],[-58.984702,-23.729189],[-58.982529,-23.729981],[-58.980413,-23.729634],[-58.980111,-23.729852],[-58.980292,-23.731852],[-58.977137,-23.732002],[-58.976418,-23.732285],[-58.974078,-23.731936],[-58.973745,-23.733644],[-58.971696,-23.734405],[-58.971669,-23.734928],[-58.973086,-23.735316],[-58.973272,-23.735593],[-58.972389,-23.735901],[-58.971645,-23.737015],[-58.970124,-23.73795],[-58.970925,-23.740653],[-58.970864,-23.741331],[-58.969949,-23.742246],[-58.969889,-23.743017],[-58.968751,-23.743456],[-58.968105,-23.744276],[-58.967281,-23.744424],[-58.966533,-23.743832],[-58.966127,-23.74393],[-58.966055,-23.745039],[-58.96398,-23.744193],[-58.963155,-23.745294],[-58.961335,-23.744894],[-58.959403,-23.74537],[-58.957233,-23.745219],[-58.956153,-23.744936],[-58.955139,-23.744083],[-58.953535,-23.743804],[-58.952435,-23.742481],[-58.951963,-23.742346],[-58.951493,-23.742659],[-58.950869,-23.743833],[-58.950819,-23.745189],[-58.950298,-23.745255],[-58.949954,-23.744641],[-58.949377,-23.744385],[-58.949059,-23.744634],[-58.949317,-23.74531],[-58.951668,-23.747047],[-58.951726,-23.747753],[-58.951288,-23.74791],[-58.950013,-23.747353],[-58.949441,-23.74745],[-58.948578,-23.749041],[-58.946791,-23.748442],[-58.945834,-23.746879],[-58.944759,-23.747089],[-58.944011,-23.748035],[-58.943429,-23.747115],[-58.942334,-23.747032],[-58.941805,-23.746343],[-58.940153,-23.745848],[-58.939865,-23.747221],[-58.940056,-23.747851],[-58.941302,-23.747902],[-58.941623,-23.748302],[-58.940992,-23.749092],[-58.939863,-23.748885],[-58.939186,-23.748258],[-58.937338,-23.747357],[-58.93655,-23.747949],[-58.93502,-23.747807],[-58.935338,-23.749129],[-58.934955,-23.749502],[-58.933287,-23.74947],[-58.93188,-23.748681],[-58.931174,-23.748748],[-58.93056,-23.749569],[-58.929347,-23.749379],[-58.92922,-23.750243],[-58.92838,-23.750374],[-58.928087,-23.751486],[-58.927587,-23.751952],[-58.926439,-23.751684],[-58.925861,-23.751212],[-58.925715,-23.749732],[-58.925187,-23.749367],[-58.924393,-23.74942],[-58.924274,-23.750623],[-58.923737,-23.750951],[-58.921547,-23.749883],[-58.920997,-23.750073],[-58.920678,-23.750661],[-58.920222,-23.75065],[-58.920469,-23.749367],[-58.919792,-23.749311],[-58.918839,-23.750784],[-58.917458,-23.750472],[-58.916935,-23.752095],[-58.915012,-23.753526],[-58.914591,-23.753483],[-58.914115,-23.752963],[-58.914364,-23.750944],[-58.913481,-23.75015],[-58.912365,-23.749773],[-58.911293,-23.749799],[-58.909838,-23.750642],[-58.908405,-23.750761],[-58.90859,-23.751161],[-58.909554,-23.751677],[-58.909327,-23.752449],[-58.908824,-23.752762],[-58.908152,-23.75269],[-58.906674,-23.751901],[-58.906401,-23.753183],[-58.905993,-23.753339],[-58.904826,-23.751978],[-58.903784,-23.752172],[-58.902989,-23.753068],[-58.900644,-23.752149],[-58.90069,-23.751548],[-58.901377,-23.750988],[-58.900652,-23.749345],[-58.902415,-23.749054],[-58.902023,-23.748161],[-58.900442,-23.748312],[-58.89931,-23.74809],[-58.898835,-23.749451],[-58.896336,-23.748809],[-58.894591,-23.749117],[-58.893229,-23.748277],[-58.89218,-23.750116],[-58.891955,-23.751166],[-58.891223,-23.752127],[-58.89045,-23.75221],[-58.889131,-23.751588],[-58.888122,-23.751781],[-58.885657,-23.754405],[-58.884218,-23.755279],[-58.884326,-23.756002],[-58.88623,-23.756481],[-58.886219,-23.757113],[-58.885628,-23.75871],[-58.884114,-23.759062],[-58.88443,-23.760261],[-58.883767,-23.759835],[-58.883321,-23.759053],[-58.882968,-23.759211],[-58.883197,-23.761997],[-58.880208,-23.760849],[-58.879821,-23.761007],[-58.879625,-23.761548],[-58.880406,-23.762143],[-58.880326,-23.76256],[-58.87884,-23.76231],[-58.87757,-23.761641],[-58.876397,-23.762067],[-58.875173,-23.760967],[-58.874093,-23.760759],[-58.87309,-23.761538],[-58.872056,-23.761345],[-58.871398,-23.762183],[-58.870893,-23.76211],[-58.87104,-23.760536],[-58.870799,-23.760044],[-58.870119,-23.759897],[-58.869227,-23.760275],[-58.869237,-23.759628],[-58.869855,-23.758697],[-58.869816,-23.758313],[-58.869443,-23.758256],[-58.867581,-23.759011],[-58.866603,-23.76003],[-58.866781,-23.76114],[-58.866448,-23.761621],[-58.865911,-23.761903],[-58.864562,-23.761697],[-58.864092,-23.761917],[-58.864099,-23.762687],[-58.865966,-23.76238],[-58.866141,-23.763027],[-58.865639,-23.763354],[-58.863938,-23.76346],[-58.863092,-23.763004],[-58.862248,-23.763011],[-58.862457,-23.761853],[-58.861797,-23.76158],[-58.860481,-23.763148],[-58.858834,-23.763871],[-58.857409,-23.762317],[-58.856789,-23.762754],[-58.856884,-23.76354],[-58.856649,-23.763788],[-58.856036,-23.763592],[-58.855435,-23.762626],[-58.854755,-23.763633],[-58.854034,-23.763855],[-58.853441,-23.763227],[-58.852596,-23.763002],[-58.852676,-23.762461],[-58.853425,-23.76153],[-58.853152,-23.761271],[-58.852598,-23.761429],[-58.851881,-23.762205],[-58.850685,-23.762323],[-58.850324,-23.763436],[-58.849001,-23.762398],[-58.849248,-23.763583],[-58.848946,-23.76374],[-58.848153,-23.763275],[-58.847567,-23.761892],[-58.847025,-23.76165],[-58.847756,-23.760255],[-58.847439,-23.75946],[-58.845972,-23.759505],[-58.843994,-23.76026],[-58.84377,-23.761383],[-58.842422,-23.761222],[-58.841557,-23.760598],[-58.839276,-23.759798],[-58.838521,-23.760113],[-58.838359,-23.76067],[-58.840003,-23.762043],[-58.840076,-23.762767],[-58.838664,-23.763179],[-58.839007,-23.763778],[-58.838755,-23.763903],[-58.837417,-23.762741],[-58.836085,-23.76249],[-58.835752,-23.763093],[-58.835793,-23.763864],[-58.836623,-23.765263],[-58.83494,-23.76495],[-58.834721,-23.765558],[-58.834066,-23.765795],[-58.834465,-23.767135],[-58.833159,-23.767977],[-58.832665,-23.76755],[-58.832298,-23.767767],[-58.83283,-23.770495],[-58.830746,-23.771298],[-58.828636,-23.771175],[-58.828472,-23.771594],[-58.828814,-23.772117],[-58.828024,-23.772492],[-58.826802,-23.771745],[-58.825723,-23.771613],[-58.824837,-23.770648],[-58.824049,-23.771009],[-58.824547,-23.772101],[-58.824065,-23.772689],[-58.823326,-23.772647],[-58.82246,-23.772084],[-58.821118,-23.771954],[-58.820583,-23.771489],[-58.819047,-23.768605],[-58.81907,-23.767464],[-58.819455,-23.766905],[-58.819284,-23.766597],[-58.818222,-23.766636],[-58.817744,-23.766023],[-58.817391,-23.766134],[-58.816933,-23.767727],[-58.816477,-23.767653],[-58.815727,-23.766856],[-58.815272,-23.766843],[-58.81531,-23.767322],[-58.816382,-23.768517],[-58.816151,-23.769026],[-58.81512,-23.768619],[-58.814505,-23.767807],[-58.814015,-23.767749],[-58.813447,-23.768154],[-58.813372,-23.769203],[-58.812916,-23.769207],[-58.812596,-23.767497],[-58.810625,-23.767342],[-58.809938,-23.767764],[-58.809658,-23.766994],[-58.809269,-23.766966],[-58.808752,-23.767479],[-58.808914,-23.76873],[-58.809464,-23.769867],[-58.810412,-23.770106],[-58.810539,-23.771046],[-58.809808,-23.771915],[-58.809641,-23.772597],[-58.808803,-23.772973],[-58.80829,-23.774011],[-58.807393,-23.773925],[-58.806662,-23.773282],[-58.8062,-23.774458],[-58.806389,-23.774889],[-58.807933,-23.775712],[-58.807939,-23.77633],[-58.806272,-23.776804],[-58.805477,-23.776516],[-58.804456,-23.775552],[-58.802943,-23.776057],[-58.802244,-23.775307],[-58.801771,-23.775326],[-58.801507,-23.775899],[-58.80122,-23.77587],[-58.800869,-23.774731],[-58.80166,-23.774447],[-58.801488,-23.774093],[-58.800678,-23.774176],[-58.799821,-23.775694],[-58.798901,-23.776364],[-58.799109,-23.776823],[-58.799953,-23.776877],[-58.800902,-23.777442],[-58.800906,-23.77792],[-58.80032,-23.778295],[-58.800852,-23.779402],[-58.799794,-23.779965],[-58.797728,-23.78069],[-58.797075,-23.779445],[-58.796719,-23.779278],[-58.796,-23.779932],[-58.794749,-23.779787],[-58.794361,-23.777629],[-58.793886,-23.777434],[-58.791857,-23.780177],[-58.792143,-23.781518],[-58.791405,-23.781956],[-58.787539,-23.78183],[-58.787194,-23.782973],[-58.784763,-23.782823],[-58.78421,-23.783228],[-58.78364,-23.783183],[-58.783058,-23.782217],[-58.782602,-23.782004],[-58.780631,-23.781879],[-58.779652,-23.782195],[-58.779485,-23.782783],[-58.779983,-23.78338],[-58.779961,-23.78417],[-58.781199,-23.784704],[-58.781197,-23.78528],[-58.780358,-23.785379],[-58.779275,-23.784891],[-58.778459,-23.785035],[-58.7779,-23.785532],[-58.777521,-23.787581],[-58.776795,-23.787622],[-58.776531,-23.786758],[-58.775992,-23.786528],[-58.775059,-23.787774],[-58.773127,-23.787543],[-58.773493,-23.788136],[-58.773345,-23.788546],[-58.772872,-23.788514],[-58.772062,-23.787071],[-58.771716,-23.786922],[-58.771556,-23.788092],[-58.772371,-23.789252],[-58.771536,-23.789759],[-58.770905,-23.789602],[-58.770776,-23.788089],[-58.770145,-23.787684],[-58.770103,-23.787099],[-58.769164,-23.786579],[-58.769177,-23.785376],[-58.768485,-23.785218],[-58.767518,-23.785505],[-58.766423,-23.785912],[-58.763437,-23.788769],[-58.762486,-23.789171],[-58.761407,-23.790601],[-58.761411,-23.791068],[-58.763065,-23.790438],[-58.763034,-23.791197],[-58.761065,-23.792379],[-58.760206,-23.793508],[-58.759141,-23.792954],[-58.759362,-23.791014],[-58.757432,-23.790584],[-58.756699,-23.791232],[-58.755922,-23.791436],[-58.755143,-23.792799],[-58.754453,-23.792756],[-58.753695,-23.7922],[-58.753274,-23.79232],[-58.753001,-23.793316],[-58.751761,-23.7919],[-58.752187,-23.790938],[-58.750027,-23.790275],[-58.748467,-23.792041],[-58.74677,-23.792028],[-58.747017,-23.792529],[-58.7483,-23.793221],[-58.748732,-23.794187],[-58.748365,-23.794669],[-58.748573,-23.795334],[-58.750369,-23.7949],[-58.750179,-23.795766],[-58.749758,-23.796049],[-58.745968,-23.797219],[-58.743151,-23.797617],[-58.742567,-23.797983],[-58.741994,-23.796713],[-58.740811,-23.797035],[-58.74076,-23.795868],[-58.738879,-23.796324],[-58.73845,-23.796782],[-58.737677,-23.799108],[-58.739078,-23.799517],[-58.740534,-23.798538],[-58.741078,-23.799177],[-58.741355,-23.800344],[-58.740746,-23.800804],[-58.738661,-23.800327],[-58.737277,-23.801414],[-58.735328,-23.800927],[-58.734286,-23.801497],[-58.733879,-23.802079],[-58.733277,-23.801977],[-58.73297,-23.801735],[-58.733336,-23.800861],[-58.733226,-23.799914],[-58.732893,-23.799823],[-58.731709,-23.800531],[-58.731067,-23.800185],[-58.73052,-23.800388],[-58.730599,-23.79936],[-58.729473,-23.798922],[-58.729414,-23.798104],[-58.728447,-23.79859],[-58.728787,-23.796262],[-58.728679,-23.795782],[-58.728051,-23.795715],[-58.727367,-23.796376],[-58.726146,-23.796439],[-58.726534,-23.798364],[-58.72628,-23.799011],[-58.724727,-23.798815],[-58.724286,-23.799319],[-58.723901,-23.799064],[-58.723869,-23.798162],[-58.722917,-23.798881],[-58.723105,-23.800063],[-58.722845,-23.801118],[-58.723661,-23.801159],[-58.723589,-23.801592],[-58.721333,-23.80073],[-58.721433,-23.803597],[-58.722386,-23.804362],[-58.722191,-23.804998],[-58.720634,-23.804901],[-58.719516,-23.804325],[-58.719602,-23.805365],[-58.719129,-23.80538],[-58.718658,-23.804075],[-58.718045,-23.803895],[-58.716968,-23.805022],[-58.715598,-23.805513],[-58.716225,-23.806979],[-58.715145,-23.807407],[-58.714754,-23.807924],[-58.716073,-23.808512],[-58.716011,-23.808852],[-58.714613,-23.80914],[-58.71373,-23.808525],[-58.712981,-23.808648],[-58.713166,-23.807678],[-58.712062,-23.808446],[-58.717981,-24.114743],[-58.531788,-24.272547],[-58.487746,-24.651636],[-58.485052,-24.662336],[-58.479784,-24.689553],[-58.479878,-24.692036],[-58.476435,-24.748915],[-58.475293,-24.775615],[-58.475311,-24.780882],[-58.475596,-24.782094],[-58.477474,-24.827326],[-58.501353,-24.850694],[-58.502007,-24.850966],[-58.502829,-24.850428],[-58.503268,-24.84899],[-58.505762,-24.848701],[-58.507712,-24.847991],[-58.508502,-24.844868],[-58.509409,-24.845537],[-58.510237,-24.845681],[-58.51051,-24.845266],[-58.510253,-24.843985],[-58.511435,-24.843574],[-58.512189,-24.844677],[-58.513403,-24.845339],[-58.514577,-24.844172],[-58.514732,-24.843107],[-58.516531,-24.843735],[-58.516907,-24.84489],[-58.51788,-24.845638],[-58.518346,-24.846669],[-58.519508,-24.846751],[-58.520143,-24.847166],[-58.521349,-24.849468],[-58.522695,-24.849502],[-58.523102,-24.850071],[-58.52507,-24.850877],[-58.526452,-24.850839],[-58.52763,-24.849077],[-58.528468,-24.848479],[-58.528679,-24.847509],[-58.530266,-24.846604],[-58.529226,-24.845639],[-58.529195,-24.845294],[-58.531521,-24.843683],[-58.532699,-24.844563],[-58.533433,-24.843853],[-58.534981,-24.843387],[-58.536058,-24.84193],[-58.537726,-24.841669],[-58.537424,-24.8402],[-58.538683,-24.840499],[-58.539122,-24.839913],[-58.540017,-24.839508],[-58.540505,-24.83877],[-58.541908,-24.838458],[-58.543657,-24.835472],[-58.545197,-24.834421],[-58.545359,-24.833051],[-58.547115,-24.832249],[-58.548016,-24.830785],[-58.54981,-24.829907],[-58.549958,-24.828486],[-58.550379,-24.827918],[-58.551486,-24.827747],[-58.551347,-24.828958],[-58.552408,-24.829663],[-58.552898,-24.829582],[-58.553454,-24.828713],[-58.55565,-24.830137],[-58.557564,-24.830413],[-58.557911,-24.830077],[-58.558053,-24.828718],[-58.558793,-24.827674],[-58.560176,-24.828107],[-58.561618,-24.827562],[-58.563403,-24.827941],[-58.563601,-24.827434],[-58.56278,-24.826979],[-58.562668,-24.826434],[-58.564811,-24.824492],[-58.568479,-24.822538],[-58.570394,-24.82216],[-58.571558,-24.821534],[-58.573678,-24.821179],[-58.574449,-24.821466],[-58.575357,-24.822699],[-58.575879,-24.82293],[-58.578211,-24.822615],[-58.580398,-24.821424],[-58.581857,-24.821741],[-58.58368,-24.821659],[-58.584548,-24.822821],[-58.586546,-24.823139],[-58.586683,-24.823386],[-58.586204,-24.824307],[-58.586644,-24.825],[-58.587242,-24.8254],[-58.588754,-24.825628],[-58.589187,-24.826603],[-58.590176,-24.827362],[-58.59119,-24.827118],[-58.592915,-24.82601],[-58.59434,-24.826593],[-58.595537,-24.826582],[-58.595733,-24.825],[-58.59706,-24.824888],[-58.59924,-24.826167],[-58.601387,-24.826775],[-58.604857,-24.82962],[-58.609014,-24.829631],[-58.610848,-24.831152],[-58.615655,-24.82956],[-58.619762,-24.829575],[-58.621464,-24.829908],[-58.624267,-24.829773],[-58.624747,-24.828594],[-58.62513,-24.828335],[-58.626457,-24.828082],[-58.627578,-24.828441],[-58.628737,-24.827684],[-58.629214,-24.82778],[-58.629538,-24.829049],[-58.629932,-24.829197],[-58.632043,-24.828213],[-58.634341,-24.828773],[-58.635982,-24.828446],[-58.637925,-24.828541],[-58.642991,-24.826406],[-58.645172,-24.825109],[-58.646977,-24.825011],[-58.64843,-24.824466],[-58.649794,-24.825384],[-58.65112,-24.825783],[-58.653046,-24.827302],[-58.654862,-24.827991],[-58.65688,-24.829494],[-58.657305,-24.830844],[-58.658686,-24.831374],[-58.660172,-24.83139],[-58.661783,-24.830608],[-58.663121,-24.8311],[-58.664564,-24.830459],[-58.666321,-24.830612],[-58.66863,-24.831419],[-58.673314,-24.831549],[-58.678142,-24.826891],[-58.678685,-24.825811],[-58.679535,-24.825023],[-58.680991,-24.818499],[-58.684602,-24.813246],[-58.685987,-24.812119],[-58.687865,-24.811853],[-58.688639,-24.81022],[-58.689892,-24.810106],[-58.693059,-24.810706],[-58.69523,-24.81291],[-58.697317,-24.813796],[-58.700216,-24.814533],[-58.70483,-24.813818],[-58.708383,-24.810497],[-58.710125,-24.807576],[-58.710103,-24.805265],[-58.709707,-24.803421],[-58.710056,-24.801314],[-58.709092,-24.799802],[-58.709899,-24.798855],[-58.711152,-24.798056],[-58.711654,-24.796819],[-58.713186,-24.795491],[-58.713388,-24.794344],[-58.712813,-24.791465],[-58.71298,-24.790819],[-58.714143,-24.789916],[-58.716956,-24.788902],[-58.718023,-24.786985],[-58.718568,-24.784746],[-58.719847,-24.78213],[-58.723809,-24.778929],[-58.72455,-24.777407],[-58.725969,-24.776156],[-58.726272,-24.774805],[-58.726761,-24.774325],[-58.731441,-24.774476],[-58.731982,-24.774836],[-58.73272,-24.77646],[-58.734211,-24.777416],[-58.734922,-24.778493],[-58.737537,-24.778949],[-58.739605,-24.780702],[-58.743298,-24.780889],[-58.746252,-24.780691],[-58.753374,-24.777308],[-58.757363,-24.776886],[-58.758999,-24.776377],[-58.760176,-24.775583],[-58.76176,-24.775867],[-58.762858,-24.775024],[-58.76373,-24.774762],[-58.766643,-24.774788],[-58.768808,-24.774472],[-58.770687,-24.775443],[-58.773185,-24.775542],[-58.774002,-24.775862],[-58.776603,-24.774781],[-58.779968,-24.774806],[-58.78069,-24.774898],[-58.7822,-24.775942],[-58.784028,-24.775093],[-58.786202,-24.775434],[-58.787679,-24.77489],[-58.789633,-24.774746],[-58.790588,-24.773785],[-58.792469,-24.773123],[-58.795816,-24.772896],[-58.797586,-24.772474],[-58.800012,-24.773293],[-58.801823,-24.772699],[-58.803215,-24.773572],[-58.803929,-24.773696],[-58.805777,-24.772498],[-58.807406,-24.772544],[-58.808127,-24.772038]]]}}]}
