{"type":"FeatureCollection","name":"distrito","features":[{"type":"Feature","properties":{"clave":"7-19","nombre":"Fram"},"geometry":{"type":"Polygon","coordinates":[[[-56.036965,-27.150909],[-56.06256,-27.1278],[-56.12883,-27.069365],[-56.128202,-27.068802],[-56.128227,-27.068012],[-56.129399,-27.068304],[-56.129628,-27.068115],[-56.128752,-27.067731],[-56.128506,-27.067007],[-56.129231,-27.065752],[-56.12885,-27.065736],[-56.128244,-27.066355],[-56.127756,-27.066145],[-56.127684,-27.065688],[-56.12832,-27.065173],[-56.128295,-27.064848],[-56.127523,-27.064112],[-56.127016,-27.064086],[-56.126473,-27.062305],[-56.125797,-27.062567],[-56.125516,-27.061301],[-56.124711,-27.061373],[-56.124858,-27.061956],[-56.124542,-27.0625],[-56.124212,-27.062191],[-56.123734,-27.062274],[-56.123707,-27.060531],[-56.124848,-27.060827],[-56.125165,-27.060554],[-56.124308,-27.0597],[-56.123278,-27.059346],[-56.12406,-27.058398],[-56.123272,-27.058082],[-56.123664,-27.05757],[-56.123033,-27.056803],[-56.122612,-27.056688],[-56.122355,-27.057219],[-56.121452,-27.057051],[-56.121553,-27.055832],[-56.120808,-27.055191],[-56.120518,-27.055226],[-56.12042,-27.055884],[-56.117866,-27.05571],[-56.118652,-27.054171],[-56.118579,-27.053918],[-56.117859,-27.054135],[-56.117658,-27.053944],[-56.118168,-27.053329],[-56.117947,-27.052573],[-56.1182,-27.051735],[-56.117387,-27.052001],[-56.116822,-27.051185],[-56.115699,-27.051905],[-56.115913,-27.051071],[-56.115669,-27.049955],[-56.116323,-27.048781],[-56.11453,-27.04802],[-56.116346,-27.047603],[-56.116115,-27.047109],[-56.115002,-27.047278],[-56.115104,-27.046227],[-56.115964,-27.045957],[-56.116771,-27.046346],[-56.116725,-27.045714],[-56.117385,-27.045298],[-56.116933,-27.044785],[-56.117902,-27.044534],[-56.118285,-27.043931],[-56.11811,-27.043158],[-56.116839,-27.043209],[-56.1166,-27.042982],[-56.11689,-27.042582],[-56.118171,-27.042409],[-56.118299,-27.041972],[-56.116752,-27.041904],[-56.117339,-27.041212],[-56.117238,-27.040882],[-56.115931,-27.041285],[-56.115941,-27.040156],[-56.115583,-27.039604],[-56.116067,-27.039331],[-56.115927,-27.038694],[-56.116274,-27.038281],[-56.116071,-27.037544],[-56.116334,-27.037293],[-56.117421,-27.037345],[-56.117558,-27.036722],[-56.118888,-27.035309],[-56.119539,-27.034112],[-56.119488,-27.033791],[-56.118938,-27.033752],[-56.118893,-27.033065],[-56.118167,-27.032122],[-56.118294,-27.031644],[-56.119183,-27.031758],[-56.119482,-27.031381],[-56.119347,-27.030256],[-56.118475,-27.028107],[-56.119217,-27.027321],[-56.118024,-27.025648],[-56.119546,-27.025071],[-56.118469,-27.024559],[-56.11922,-27.024184],[-56.118917,-27.023523],[-56.120043,-27.023526],[-56.120314,-27.023257],[-56.119391,-27.022456],[-56.119492,-27.021441],[-56.118786,-27.020493],[-56.119553,-27.020295],[-56.118929,-27.019741],[-56.118761,-27.018069],[-56.11704,-27.018271],[-56.116488,-27.01796],[-56.116602,-27.017537],[-56.116985,-27.017774],[-56.1174,-27.017487],[-56.117285,-27.016868],[-56.11837,-27.016686],[-56.117575,-27.015927],[-56.118534,-27.014876],[-56.117642,-27.014763],[-56.117433,-27.013822],[-56.118763,-27.012959],[-56.118816,-27.012341],[-56.11736,-27.012143],[-56.116111,-27.013254],[-56.115792,-27.012056],[-56.11492,-27.012421],[-56.11482,-27.011143],[-56.114024,-27.01126],[-56.114269,-27.010042],[-56.113255,-27.010086],[-56.113254,-27.009422],[-56.1126,-27.009111],[-56.111908,-27.009188],[-56.110613,-27.010245],[-56.111015,-27.009106],[-56.110827,-27.008666],[-56.109828,-27.008737],[-56.108395,-27.008001],[-56.108294,-27.006773],[-56.107142,-27.007041],[-56.106845,-27.006858],[-56.106868,-27.006547],[-56.107859,-27.005754],[-56.106734,-27.005761],[-56.107271,-27.00469],[-56.106208,-27.003839],[-56.105396,-27.004628],[-56.104347,-27.004775],[-56.103708,-27.004586],[-56.103927,-27.003915],[-56.102711,-27.004087],[-56.101593,-27.002916],[-56.101616,-27.004491],[-56.100379,-27.004583],[-56.100408,-27.003843],[-56.099742,-27.004475],[-56.098187,-27.003824],[-56.097796,-27.005063],[-56.099036,-27.00568],[-56.099234,-27.006291],[-56.09888,-27.006582],[-56.097548,-27.006208],[-56.097047,-27.00634],[-56.097205,-27.007587],[-56.096848,-27.008144],[-56.096697,-27.007642],[-56.094698,-27.007873],[-56.094727,-27.006822],[-56.093732,-27.006951],[-56.09248,-27.006283],[-56.092356,-27.005863],[-56.093055,-27.005371],[-56.09276,-27.004967],[-56.092034,-27.004922],[-56.091405,-27.005234],[-56.090795,-27.004494],[-56.08942,-27.004544],[-56.090025,-27.003185],[-56.089885,-27.002276],[-56.089172,-27.002619],[-56.08818,-27.001534],[-56.087892,-27.001708],[-56.087982,-27.002697],[-56.087691,-27.003273],[-56.087267,-27.003234],[-56.08736,-27.002025],[-56.086658,-27.00282],[-56.08582,-27.003031],[-56.085695,-27.002809],[-56.086327,-27.002091],[-56.084165,-27.000677],[-56.084003,-26.999056],[-56.08359,-26.998814],[-56.083225,-26.999155],[-56.081566,-26.998977],[-56.081347,-26.998736],[-56.081809,-26.997913],[-56.079803,-26.996744],[-56.079852,-26.996257],[-56.081286,-26.995508],[-56.081472,-26.99509],[-56.080114,-26.994146],[-56.080392,-26.993679],[-56.079747,-26.992695],[-56.078952,-26.992591],[-56.078314,-26.992009],[-56.078333,-26.990682],[-56.077169,-26.989961],[-56.077848,-26.989229],[-56.077882,-26.988765],[-56.076175,-26.989602],[-56.075934,-26.98947],[-56.076385,-26.987649],[-56.075116,-26.988002],[-56.074395,-26.987225],[-56.074028,-26.987963],[-56.072935,-26.988024],[-56.072758,-26.986294],[-56.071691,-26.985727],[-56.071521,-26.984439],[-56.070672,-26.983581],[-56.070814,-26.982792],[-56.070401,-26.982726],[-56.069135,-26.983661],[-56.068758,-26.983649],[-56.068621,-26.983098],[-56.069747,-26.982225],[-56.068576,-26.981851],[-56.066494,-26.982298],[-56.065806,-26.981598],[-56.064957,-26.981263],[-56.064942,-26.980983],[-56.066111,-26.980327],[-56.065684,-26.979783],[-56.064922,-26.980094],[-56.064563,-26.979775],[-56.065398,-26.979009],[-56.065259,-26.978349],[-56.064581,-26.977866],[-56.065205,-26.976918],[-56.065028,-26.976677],[-56.063952,-26.976734],[-56.063903,-26.977514],[-56.063611,-26.977639],[-56.063012,-26.976632],[-56.062656,-26.976571],[-56.062105,-26.97757],[-56.062516,-26.978575],[-56.061081,-26.978502],[-56.060774,-26.978685],[-56.060873,-26.979232],[-56.06058,-26.979307],[-56.059311,-26.978215],[-56.059269,-26.979176],[-56.058814,-26.979259],[-56.058371,-26.978741],[-56.057457,-26.978898],[-56.057066,-26.97792],[-56.055493,-26.978243],[-56.055596,-26.977558],[-56.054712,-26.977069],[-56.054796,-26.976271],[-56.053913,-26.976432],[-56.053532,-26.975197],[-56.052511,-26.975271],[-56.052443,-26.975867],[-56.051534,-26.977021],[-56.051146,-26.976702],[-56.051019,-26.975794],[-56.049806,-26.97691],[-56.049163,-26.975267],[-56.04882,-26.97498],[-56.048365,-26.975126],[-56.048034,-26.974605],[-56.046755,-26.975219],[-56.046259,-26.97629],[-56.045481,-26.975558],[-56.045036,-26.976191],[-56.044715,-26.975819],[-56.044705,-26.974668],[-56.044178,-26.974678],[-56.0441,-26.975368],[-56.043592,-26.975292],[-56.044109,-26.974122],[-56.042783,-26.974488],[-56.042605,-26.974076],[-56.042935,-26.973694],[-56.042656,-26.97334],[-56.041996,-26.974239],[-56.042026,-26.9753],[-56.041213,-26.974843],[-56.040441,-26.976097],[-56.039725,-26.976246],[-56.039108,-26.975984],[-56.037815,-26.976747],[-56.038514,-26.977614],[-56.038304,-26.977983],[-56.037246,-26.977723],[-56.036192,-26.978],[-56.035565,-26.978587],[-56.035205,-26.978314],[-56.035279,-26.977466],[-56.033872,-26.977799],[-56.032707,-26.977168],[-56.031125,-26.977595],[-56.030918,-26.979088],[-56.030349,-26.979616],[-56.029141,-26.978669],[-56.027978,-26.979415],[-56.026718,-26.978792],[-56.025724,-26.979706],[-56.025376,-26.978869],[-56.024562,-26.97848],[-56.022807,-26.978567],[-56.022406,-26.978875],[-56.022787,-26.979298],[-56.022521,-26.979504],[-56.021114,-26.978808],[-56.021051,-26.979336],[-56.020131,-26.97941],[-56.020592,-26.979987],[-56.019629,-26.980145],[-56.019727,-26.980816],[-56.018925,-26.980697],[-56.018671,-26.980944],[-56.019419,-26.981771],[-56.018531,-26.983141],[-56.018744,-26.983689],[-56.018249,-26.983974],[-56.018585,-26.984527],[-56.017931,-26.984699],[-56.018651,-26.985733],[-56.017765,-26.985695],[-56.016789,-26.986415],[-56.017217,-26.987168],[-56.016485,-26.987239],[-56.016323,-26.987829],[-56.015476,-26.988207],[-56.014691,-26.987813],[-56.014296,-26.988005],[-56.013806,-26.987776],[-56.013073,-26.988249],[-56.012076,-26.98798],[-56.011725,-26.988547],[-56.010648,-26.98867],[-56.010721,-26.989533],[-56.009768,-26.990149],[-56.008761,-26.989045],[-56.007286,-26.988326],[-56.006139,-26.988367],[-56.004827,-26.98992],[-56.004491,-26.99249],[-56.002711,-26.995385],[-56.002023,-26.99556],[-56.000783,-26.995358],[-55.999706,-26.996099],[-55.99902,-26.996117],[-55.998542,-26.996922],[-55.998128,-26.996747],[-55.997723,-26.997295],[-55.997344,-26.998903],[-55.987018,-26.989745],[-55.959506,-27.01459],[-55.936243,-27.035018],[-55.914315,-27.055],[-55.907492,-27.060792],[-55.892555,-27.074812],[-55.8889,-27.077783],[-55.888232,-27.079056],[-55.885537,-27.081464],[-55.887871,-27.08313],[-55.888012,-27.083903],[-55.887312,-27.084877],[-55.887369,-27.085835],[-55.886618,-27.086307],[-55.886184,-27.087058],[-55.885501,-27.087346],[-55.88508,-27.088245],[-55.885749,-27.089713],[-55.888015,-27.091342],[-55.889916,-27.092097],[-55.891175,-27.091945],[-55.892105,-27.092467],[-55.892613,-27.092331],[-55.892791,-27.092657],[-55.89445,-27.091984],[-55.897707,-27.092168],[-55.899245,-27.092875],[-55.899556,-27.092615],[-55.900201,-27.09281],[-55.901504,-27.092391],[-55.903326,-27.09246],[-55.908571,-27.095209],[-55.90954,-27.0962],[-55.911268,-27.099437],[-55.913778,-27.101045],[-55.91731,-27.103884],[-55.918059,-27.106377],[-55.918716,-27.107515],[-55.923001,-27.112599],[-55.922387,-27.113578],[-55.922306,-27.114417],[-55.922762,-27.115481],[-55.922517,-27.11678],[-55.921878,-27.117379],[-55.921734,-27.118362],[-55.921077,-27.119143],[-55.922306,-27.121188],[-55.921368,-27.122079],[-55.921696,-27.122916],[-55.921214,-27.123608],[-55.922436,-27.124503],[-55.920962,-27.125452],[-55.920866,-27.1258],[-55.921715,-27.126968],[-55.924672,-27.127785],[-55.925544,-27.128764],[-55.925907,-27.130945],[-55.927427,-27.132196],[-55.9274,-27.13266],[-55.926239,-27.134262],[-55.92662,-27.134686],[-55.926425,-27.135817],[-55.927001,-27.138868],[-55.929594,-27.143072],[-55.931121,-27.143976],[-55.932225,-27.145562],[-55.934319,-27.146419],[-55.935408,-27.146156],[-55.93685,-27.14635],[-55.940095,-27.148986],[-55.942295,-27.148456],[-55.943334,-27.148501],[-55.946012,-27.149776],[-55.947333,-27.149547],[-55.948289,-27.148859],[-55.961014,-27.172631],[-55.96225,-27.172372],[-55.96323,-27.170679],[-55.964147,-27.170386],[-55.967194,-27.171129],[-55.968017,-27.171841],[-55.96853,-27.171591],[-55.971798,-27.174452],[-55.973679,-27.172673],[-55.973999,-27.172694],[-55.991143,-27.191157],[-55.99155,-27.190539],[-56.036965,-27.150909]]]}}]}
