{"type":"FeatureCollection","name":"distrito","features":[{"type":"Feature","properties":{"clave":"7-57","nombre":"Yatytay"},"geometry":{"type":"Polygon","coordinates":[[[-55.066213,-26.705602],[-55.066732,-26.707468],[-55.067464,-26.707943],[-55.069644,-26.708316],[-55.071239,-26.707449],[-55.071353,-26.706764],[-55.072212,-26.705927],[-55.073002,-26.704431],[-55.074421,-26.703028],[-55.075077,-26.704865],[-55.077051,-26.705542],[-55.07724,-26.705134],[-55.079557,-26.704718],[-55.079449,-26.703891],[-55.080162,-26.703368],[-55.083175,-26.703215],[-55.085278,-26.702268],[-55.088318,-26.702034],[-55.090242,-26.702457],[-55.093607,-26.702687],[-55.094255,-26.702159],[-55.095439,-26.701999],[-55.095893,-26.701499],[-55.096929,-26.701599],[-55.097112,-26.701299],[-55.105007,-26.68458],[-55.109849,-26.671963],[-55.108183,-26.671747],[-55.115471,-26.665715],[-55.115429,-26.664722],[-55.111366,-26.654536],[-55.113042,-26.636623],[-55.11067,-26.62929],[-55.110561,-26.628119],[-55.111214,-26.627374],[-55.116959,-26.623827],[-55.118764,-26.615411],[-55.121452,-26.614508],[-55.13017,-26.614122],[-55.138916,-26.614611],[-55.144794,-26.611285],[-55.147647,-26.607861],[-55.157684,-26.599204],[-55.173241,-26.604243],[-55.188274,-26.604484],[-55.204195,-26.610946],[-55.204551,-26.608721],[-55.206453,-26.607319],[-55.208943,-26.604186],[-55.211734,-26.602452],[-55.212391,-26.601224],[-55.2139,-26.595777],[-55.21556,-26.594575],[-55.202596,-26.579527],[-55.199173,-26.577002],[-55.19894,-26.57819],[-55.19726,-26.580299],[-55.194348,-26.581206],[-55.193173,-26.582292],[-55.192043,-26.584042],[-55.191125,-26.583891],[-55.190758,-26.582419],[-55.190105,-26.581793],[-55.188743,-26.576129],[-55.188184,-26.575969],[-55.185892,-26.57756],[-55.184378,-26.57704],[-55.184275,-26.577557],[-55.183316,-26.578064],[-55.181146,-26.578235],[-55.181126,-26.578903],[-55.180107,-26.580027],[-55.181415,-26.580847],[-55.180712,-26.581506],[-55.179321,-26.581335],[-55.178602,-26.581745],[-55.177771,-26.581112],[-55.176821,-26.581023],[-55.17634,-26.579121],[-55.174638,-26.579623],[-55.173308,-26.581154],[-55.172133,-26.583964],[-55.170738,-26.583581],[-55.169689,-26.581893],[-55.170309,-26.578881],[-55.16832,-26.578337],[-55.167113,-26.576268],[-55.166023,-26.576123],[-55.164598,-26.576538],[-55.16543,-26.578449],[-55.165065,-26.57862],[-55.164358,-26.578119],[-55.163447,-26.578003],[-55.160412,-26.57601],[-55.15918,-26.574378],[-55.158748,-26.574215],[-55.158916,-26.57525],[-55.158693,-26.575342],[-55.158509,-26.574965],[-55.158002,-26.575112],[-55.156765,-26.576698],[-55.155917,-26.576552],[-55.153675,-26.577268],[-55.15304,-26.576853],[-55.152171,-26.577262],[-55.151987,-26.576812],[-55.151073,-26.576801],[-55.149855,-26.577457],[-55.148835,-26.576686],[-55.148958,-26.577477],[-55.146063,-26.577042],[-55.145174,-26.577577],[-55.144726,-26.576483],[-55.143777,-26.577017],[-55.143378,-26.578727],[-55.144419,-26.579115],[-55.145401,-26.580301],[-55.145663,-26.581293],[-55.145394,-26.581795],[-55.147962,-26.584053],[-55.150087,-26.58506],[-55.149093,-26.585774],[-55.148254,-26.585551],[-55.146718,-26.586723],[-55.146108,-26.586701],[-55.145115,-26.585745],[-55.142669,-26.585704],[-55.141944,-26.584995],[-55.140604,-26.584806],[-55.138898,-26.583263],[-55.138183,-26.581394],[-55.138086,-26.580273],[-55.137281,-26.579938],[-55.137204,-26.578804],[-55.136284,-26.578332],[-55.135475,-26.577247],[-55.134121,-26.576295],[-55.1333,-26.577544],[-55.132006,-26.577734],[-55.131416,-26.578196],[-55.131858,-26.579944],[-55.13285,-26.581577],[-55.132731,-26.581995],[-55.128768,-26.582837],[-55.124518,-26.584288],[-55.12192,-26.583302],[-55.122199,-26.580981],[-55.121314,-26.579733],[-55.120982,-26.579656],[-55.119836,-26.58011],[-55.120239,-26.580973],[-55.119499,-26.58206],[-55.117186,-26.581763],[-55.115901,-26.582527],[-55.115206,-26.582486],[-55.115132,-26.582715],[-55.116156,-26.582964],[-55.116181,-26.583226],[-55.113993,-26.58437],[-55.113701,-26.584258],[-55.113504,-26.5824],[-55.111641,-26.579257],[-55.114733,-26.579091],[-55.115019,-26.578882],[-55.114905,-26.578578],[-55.113747,-26.577805],[-55.112484,-26.576348],[-55.111065,-26.576325],[-55.110285,-26.575029],[-55.109565,-26.575949],[-55.109224,-26.577127],[-55.106728,-26.576746],[-55.10596,-26.576081],[-55.1062,-26.575529],[-55.105997,-26.575057],[-55.105018,-26.574959],[-55.103745,-26.573759],[-55.103238,-26.571433],[-55.102197,-26.57132],[-55.101087,-26.570167],[-55.099842,-26.570476],[-55.099269,-26.571344],[-55.098456,-26.571743],[-55.098991,-26.572658],[-55.098361,-26.572839],[-55.097988,-26.574093],[-55.098617,-26.575297],[-55.098634,-26.576462],[-55.098096,-26.577506],[-55.0975,-26.577918],[-55.097451,-26.576744],[-55.09688,-26.576362],[-55.096141,-26.576862],[-55.096214,-26.577612],[-55.09462,-26.57866],[-55.09356,-26.578299],[-55.093464,-26.577124],[-55.092488,-26.576429],[-55.091753,-26.574542],[-55.089567,-26.573768],[-55.089594,-26.572166],[-55.088147,-26.570676],[-55.088084,-26.569799],[-55.087585,-26.56912],[-55.085804,-26.569658],[-55.082049,-26.569663],[-55.07534,-26.570937],[-55.074718,-26.572897],[-55.076871,-26.572942],[-55.078146,-26.57375],[-55.079246,-26.575066],[-55.079802,-26.577066],[-55.077055,-26.580374],[-55.076172,-26.580335],[-55.074121,-26.579362],[-55.072776,-26.57962],[-55.070747,-26.584203],[-55.070852,-26.584723],[-55.071543,-26.585246],[-55.073964,-26.586156],[-55.075687,-26.588022],[-55.079052,-26.590642],[-55.080146,-26.592784],[-55.079993,-26.593501],[-55.075742,-26.594488],[-55.0745,-26.595127],[-55.073143,-26.594966],[-55.070952,-26.595573],[-55.065986,-26.597423],[-55.060653,-26.598331],[-55.057352,-26.6019],[-55.056287,-26.602712],[-55.055642,-26.60285],[-55.05535,-26.602703],[-55.055414,-26.602301],[-55.05578,-26.601989],[-55.055974,-26.600683],[-55.056993,-26.598922],[-55.05709,-26.596543],[-55.056297,-26.594575],[-55.053948,-26.592495],[-55.052644,-26.590848],[-55.047382,-26.591213],[-55.046044,-26.590829],[-55.045855,-26.590004],[-55.046299,-26.588274],[-55.049206,-26.584181],[-55.050844,-26.583479],[-55.054005,-26.585645],[-55.054838,-26.585825],[-55.056207,-26.584853],[-55.056574,-26.583044],[-55.056141,-26.582729],[-55.052863,-26.582888],[-55.051272,-26.58222],[-55.049447,-26.580128],[-55.049939,-26.578736],[-55.049667,-26.578191],[-55.048744,-26.578214],[-55.047232,-26.578854],[-55.045829,-26.57908],[-55.045325,-26.57882],[-55.04504,-26.577221],[-55.044094,-26.576765],[-55.043167,-26.577027],[-55.042155,-26.580928],[-55.043105,-26.581616],[-55.044543,-26.582078],[-55.044145,-26.582958],[-55.043475,-26.583294],[-55.043178,-26.58239],[-55.042691,-26.582032],[-55.037788,-26.58304],[-55.038088,-26.583803],[-55.039134,-26.58478],[-55.039682,-26.586102],[-55.041352,-26.588114],[-55.041466,-26.589248],[-55.041128,-26.590269],[-55.039389,-26.591827],[-55.037461,-26.594851],[-55.035298,-26.595165],[-55.035189,-26.594665],[-55.036829,-26.592016],[-55.038089,-26.591507],[-55.038398,-26.590794],[-55.037531,-26.588912],[-55.036654,-26.588563],[-55.03463,-26.588507],[-55.034096,-26.589069],[-55.033241,-26.591095],[-55.032841,-26.59388],[-55.029156,-26.596817],[-55.028782,-26.597648],[-55.030163,-26.598693],[-55.030842,-26.599694],[-55.030161,-26.601554],[-55.030279,-26.601998],[-55.032116,-26.603388],[-55.03364,-26.603873],[-55.035591,-26.60366],[-55.041374,-26.599256],[-55.044268,-26.599654],[-55.047028,-26.601512],[-55.047924,-26.602621],[-55.048246,-26.604826],[-55.048164,-26.607348],[-55.047412,-26.6088],[-55.047613,-26.61167],[-55.047226,-26.612389],[-55.045837,-26.613593],[-55.041391,-26.613841],[-55.039712,-26.614633],[-55.039327,-26.615647],[-55.041297,-26.616595],[-55.042335,-26.618079],[-55.042,-26.619873],[-55.040971,-26.621026],[-55.034798,-26.623035],[-55.030356,-26.623466],[-55.028496,-26.624804],[-55.028236,-26.625356],[-55.028418,-26.62571],[-55.030959,-26.626658],[-55.032259,-26.6279],[-55.032359,-26.628449],[-55.031855,-26.629138],[-55.03013,-26.629845],[-55.025284,-26.629202],[-55.024583,-26.629515],[-55.024689,-26.630156],[-55.02532,-26.630763],[-55.02858,-26.632635],[-55.029546,-26.632895],[-55.032402,-26.632358],[-55.033458,-26.631859],[-55.035034,-26.629351],[-55.038803,-26.629382],[-55.039572,-26.630629],[-55.038184,-26.633141],[-55.03112,-26.636396],[-55.027699,-26.6398],[-55.025997,-26.640936],[-55.02493,-26.640668],[-55.022391,-26.637343],[-55.020966,-26.636065],[-55.019974,-26.637345],[-55.018548,-26.638372],[-55.017769,-26.640034],[-55.01794,-26.640549],[-55.021225,-26.64373],[-55.02271,-26.644686],[-55.023721,-26.644559],[-55.026676,-26.643314],[-55.027315,-26.643449],[-55.027401,-26.644385],[-55.028003,-26.644815],[-55.033323,-26.640686],[-55.034143,-26.640767],[-55.036916,-26.642345],[-55.036663,-26.643417],[-55.03501,-26.64447],[-55.033926,-26.646078],[-55.033254,-26.650174],[-55.032774,-26.650364],[-55.031214,-26.650061],[-55.031236,-26.647447],[-55.03104,-26.646987],[-55.030458,-26.646726],[-55.029248,-26.647469],[-55.028293,-26.648896],[-55.027889,-26.650114],[-55.029411,-26.655772],[-55.028594,-26.660062],[-55.028911,-26.661676],[-55.029669,-26.662137],[-55.03256,-26.661924],[-55.033752,-26.6622],[-55.035685,-26.663527],[-55.035828,-26.664317],[-55.035585,-26.664798],[-55.0335,-26.666326],[-55.032436,-26.666564],[-55.030079,-26.666205],[-55.028448,-26.665129],[-55.021879,-26.665867],[-55.01929,-26.665432],[-55.016217,-26.663179],[-55.013194,-26.662433],[-55.011483,-26.662622],[-55.010767,-26.664605],[-55.010462,-26.667347],[-55.008209,-26.670755],[-55.007957,-26.671705],[-55.008489,-26.672208],[-55.01374,-26.672604],[-55.014355,-26.67563],[-55.013986,-26.677106],[-55.012168,-26.67784],[-55.010616,-26.679495],[-55.008622,-26.679599],[-55.006026,-26.678278],[-55.00544,-26.677211],[-55.001529,-26.676528],[-54.99839,-26.677056],[-54.994701,-26.678662],[-54.991367,-26.677791],[-54.990986,-26.678123],[-54.99056,-26.682756],[-54.990011,-26.683169],[-54.988271,-26.683585],[-54.986362,-26.683033],[-54.985033,-26.682077],[-54.984198,-26.680913],[-54.982886,-26.677811],[-54.981253,-26.678088],[-54.980979,-26.680033],[-54.978955,-26.683003],[-54.978614,-26.684563],[-54.97918,-26.68683],[-54.980421,-26.688619],[-54.982612,-26.690356],[-54.982946,-26.690979],[-54.982789,-26.691605],[-54.98226,-26.691981],[-54.979947,-26.692097],[-54.978989,-26.692784],[-54.980743,-26.696391],[-54.980636,-26.698255],[-54.976356,-26.699077],[-54.97169,-26.697544],[-54.970263,-26.697441],[-54.968205,-26.699494],[-54.96742,-26.699849],[-54.96343,-26.699925],[-54.962977,-26.700368],[-54.96168,-26.703415],[-54.961056,-26.704106],[-54.960627,-26.704183],[-54.95784,-26.7005],[-54.957227,-26.700203],[-54.956312,-26.700145],[-54.950967,-26.701734],[-54.948091,-26.701741],[-54.948272,-26.707854],[-54.944935,-26.727548],[-54.943561,-26.737585],[-54.943981,-26.7474],[-54.944884,-26.755945],[-54.946377,-26.762232],[-54.949035,-26.770225],[-54.953653,-26.778988],[-54.959737,-26.785423],[-54.968116,-26.789418],[-54.974844,-26.79071],[-54.988654,-26.788846],[-54.998269,-26.78791],[-55.010065,-26.788324],[-55.01003,-26.786264],[-55.007929,-26.784947],[-55.007526,-26.784392],[-55.009662,-26.783587],[-55.011405,-26.782289],[-55.011234,-26.780775],[-55.011826,-26.780097],[-55.011169,-26.778716],[-55.010977,-26.776886],[-55.011379,-26.773272],[-55.009696,-26.771687],[-55.008719,-26.770256],[-55.006583,-26.76964],[-55.005852,-26.773659],[-55.005089,-26.775174],[-55.003457,-26.776613],[-55.002328,-26.776827],[-55.00162,-26.776565],[-55.001539,-26.775593],[-55.002728,-26.773349],[-55.002913,-26.772183],[-55.002416,-26.771684],[-54.999716,-26.771023],[-54.999281,-26.770688],[-54.999277,-26.770169],[-55.00018,-26.767686],[-55.001615,-26.766668],[-55.002231,-26.765806],[-55.002306,-26.764972],[-54.999821,-26.764043],[-54.999441,-26.763605],[-55.001339,-26.761826],[-55.002149,-26.76214],[-55.004729,-26.761716],[-55.005193,-26.760987],[-55.005433,-26.759194],[-55.00632,-26.758056],[-55.007621,-26.757172],[-55.008683,-26.757074],[-55.009488,-26.757997],[-55.010269,-26.757985],[-55.010835,-26.757569],[-55.011314,-26.755545],[-55.010878,-26.754451],[-55.010762,-26.751322],[-55.013632,-26.749797],[-55.014541,-26.750369],[-55.015007,-26.750204],[-55.015646,-26.749383],[-55.015692,-26.748377],[-55.015319,-26.747983],[-55.014382,-26.747961],[-55.014563,-26.747224],[-55.013916,-26.746687],[-55.014038,-26.746052],[-55.015106,-26.744501],[-55.016426,-26.74336],[-55.016702,-26.743305],[-55.016791,-26.743681],[-55.017779,-26.743185],[-55.01854,-26.743277],[-55.018966,-26.743034],[-55.01868,-26.742281],[-55.018965,-26.741468],[-55.020756,-26.741728],[-55.023205,-26.741591],[-55.024121,-26.74187],[-55.02759,-26.741372],[-55.029838,-26.741579],[-55.030623,-26.742028],[-55.032809,-26.741512],[-55.033464,-26.741697],[-55.034092,-26.742685],[-55.037342,-26.742581],[-55.039544,-26.73971],[-55.039653,-26.737694],[-55.03905,-26.736643],[-55.039556,-26.736118],[-55.039127,-26.735543],[-55.038906,-26.734223],[-55.038391,-26.733836],[-55.039007,-26.732875],[-55.038921,-26.732052],[-55.039912,-26.731587],[-55.039736,-26.73066],[-55.040665,-26.730867],[-55.040757,-26.730245],[-55.041565,-26.729864],[-55.041577,-26.729589],[-55.042435,-26.730011],[-55.043357,-26.729866],[-55.044374,-26.728652],[-55.044948,-26.728755],[-55.044986,-26.72686],[-55.04551,-26.72689],[-55.047083,-26.72591],[-55.047648,-26.726685],[-55.048212,-26.726801],[-55.049279,-26.725917],[-55.049749,-26.726091],[-55.049952,-26.725435],[-55.05107,-26.725617],[-55.051799,-26.726142],[-55.051514,-26.726991],[-55.052367,-26.727955],[-55.053429,-26.727464],[-55.053948,-26.728225],[-55.054421,-26.72671],[-55.056196,-26.725778],[-55.055839,-26.725322],[-55.056833,-26.725854],[-55.056681,-26.72495],[-55.056139,-26.724468],[-55.056375,-26.724038],[-55.056192,-26.723553],[-55.05568,-26.723767],[-55.054946,-26.723279],[-55.05451,-26.721562],[-55.053592,-26.721062],[-55.054781,-26.720244],[-55.055071,-26.718889],[-55.054827,-26.718263],[-55.053835,-26.718105],[-55.054036,-26.717268],[-55.054615,-26.716631],[-55.054483,-26.716214],[-55.055013,-26.715725],[-55.054504,-26.715095],[-55.05519,-26.715231],[-55.055637,-26.713969],[-55.057138,-26.713439],[-55.058111,-26.712432],[-55.058599,-26.71294],[-55.060209,-26.711635],[-55.06043,-26.71055],[-55.061745,-26.709679],[-55.06171,-26.708867],[-55.062527,-26.708936],[-55.063133,-26.708286],[-55.063572,-26.708287],[-55.064116,-26.707419],[-55.065005,-26.707048],[-55.065485,-26.707221],[-55.065313,-26.706276],[-55.065638,-26.705698],[-55.066213,-26.705602]]]}}]}
