{"type":"FeatureCollection","name":"distrito","features":[{"type":"Feature","properties":{"clave":"7-43","nombre":"Pirapó"},"geometry":{"type":"Polygon","coordinates":[[[-55.509422,-26.983646],[-55.751131,-26.766954],[-55.548919,-26.659161],[-55.389218,-26.802685],[-55.406991,-26.818288],[-55.390051,-26.83376],[-55.37215,-26.817987],[-55.34912,-26.838874],[-55.367165,-26.854776],[-55.271731,-26.940938],[-55.283857,-26.95002],[-55.29179,-26.95661],[-55.297407,-26.960207],[-55.304141,-26.962829],[-55.313261,-26.963926],[-55.32873,-26.961852],[-55.339574,-26.963533],[-55.346969,-26.964184],[-55.354842,-26.964417],[-55.361935,-26.964077],[-55.367448,-26.964141],[-55.375939,-26.965227],[-55.390475,-26.973298],[-55.402221,-26.981712],[-55.41205,-26.9876],[-55.415666,-26.982659],[-55.416798,-26.982365],[-55.420562,-26.982669],[-55.424182,-26.981716],[-55.42908,-26.978774],[-55.431241,-26.976948],[-55.432477,-26.974976],[-55.432587,-26.972855],[-55.431834,-26.971944],[-55.426669,-26.968836],[-55.426223,-26.966836],[-55.426789,-26.964541],[-55.429867,-26.962661],[-55.432329,-26.9624],[-55.435247,-26.959697],[-55.437771,-26.955654],[-55.441906,-26.954562],[-55.444008,-26.952618],[-55.445153,-26.95282],[-55.448448,-26.956422],[-55.448254,-26.958812],[-55.447202,-26.962032],[-55.450178,-26.963247],[-55.453156,-26.962043],[-55.453112,-26.961555],[-55.452198,-26.960597],[-55.452527,-26.959436],[-55.457799,-26.955405],[-55.458871,-26.952916],[-55.46083,-26.950338],[-55.463956,-26.948558],[-55.468141,-26.948937],[-55.469745,-26.947989],[-55.470837,-26.946204],[-55.472854,-26.946804],[-55.475925,-26.949879],[-55.48631,-26.973412],[-55.490715,-26.977507],[-55.493981,-26.976693],[-55.497321,-26.977036],[-55.509422,-26.983646]]]}}]}
