{"type":"FeatureCollection","name":"distrito","features":[{"type":"Feature","properties":{"clave":"7-45","nombre":"San Cosme y Damián"},"geometry":{"type":"Polygon","coordinates":[[[-56.661841,-27.448599],[-56.675857,-27.452208],[-56.694095,-27.451879],[-56.719086,-27.466246],[-56.721561,-27.483211],[-56.727411,-27.492441],[-56.7316,-27.495036],[-56.750519,-27.49775],[-56.760401,-27.494892],[-56.773917,-27.488804],[-56.785824,-27.479836],[-56.801759,-27.471413],[-56.816475,-27.467479],[-56.823738,-27.461558],[-56.829381,-27.460666],[-56.835029,-27.456],[-56.84209,-27.449179],[-56.855809,-27.434096],[-56.864076,-27.426736],[-56.873148,-27.419555],[-56.884837,-27.412556],[-56.868728,-27.410745],[-56.84859,-27.410185],[-56.831488,-27.399382],[-56.817195,-27.397207],[-56.80531,-27.400067],[-56.791617,-27.399867],[-56.780356,-27.392122],[-56.772511,-27.388335],[-56.738099,-27.380546],[-56.7278,-27.376604],[-56.720582,-27.374765],[-56.706513,-27.371857],[-56.695045,-27.369136],[-56.691427,-27.367151],[-56.689421,-27.364631],[-56.689066,-27.362904],[-56.688503,-27.362317],[-56.687481,-27.360069],[-56.688212,-27.358221],[-56.688115,-27.357792],[-56.687841,-27.357511],[-56.685464,-27.356938],[-56.683621,-27.355034],[-56.683674,-27.35366],[-56.685426,-27.349964],[-56.684484,-27.348627],[-56.682935,-27.348461],[-56.68265,-27.348191],[-56.683141,-27.347573],[-56.684422,-27.347193],[-56.684276,-27.34657],[-56.681132,-27.344811],[-56.679843,-27.34365],[-56.678955,-27.344747],[-56.67783,-27.3444],[-56.675141,-27.344709],[-56.674428,-27.344285],[-56.673312,-27.342658],[-56.672483,-27.342376],[-56.671803,-27.341717],[-56.671258,-27.340346],[-56.669998,-27.33892],[-56.669655,-27.337722],[-56.665722,-27.339038],[-56.665121,-27.338877],[-56.664877,-27.338428],[-56.665243,-27.33783],[-56.666706,-27.337087],[-56.669249,-27.333921],[-56.66985,-27.333549],[-56.671692,-27.33337],[-56.672429,-27.331235],[-56.672241,-27.330092],[-56.674149,-27.330189],[-56.673753,-27.328927],[-56.674561,-27.327966],[-56.673271,-27.327828],[-56.673481,-27.326784],[-56.672898,-27.324997],[-56.673222,-27.324197],[-56.674241,-27.323707],[-56.674176,-27.322944],[-56.674468,-27.322512],[-56.674711,-27.322296],[-56.675038,-27.322605],[-56.675637,-27.322612],[-56.676398,-27.323349],[-56.677961,-27.322267],[-56.677783,-27.321213],[-56.676471,-27.321152],[-56.674927,-27.320105],[-56.673741,-27.319853],[-56.673764,-27.31948],[-56.674607,-27.31932],[-56.674557,-27.318901],[-56.673356,-27.318638],[-56.673063,-27.319069],[-56.67257,-27.319099],[-56.67149,-27.317688],[-56.671899,-27.315653],[-56.672731,-27.315343],[-56.673785,-27.315553],[-56.674683,-27.314533],[-56.674371,-27.314077],[-56.674806,-27.313118],[-56.672494,-27.310806],[-56.673452,-27.309782],[-56.673099,-27.308396],[-56.674132,-27.308267],[-56.674963,-27.307479],[-56.674532,-27.307113],[-56.673253,-27.307268],[-56.673888,-27.306466],[-56.673872,-27.305179],[-56.674698,-27.304599],[-56.674719,-27.304089],[-56.674247,-27.303654],[-56.673623,-27.303612],[-56.67325,-27.302492],[-56.672814,-27.30329],[-56.671355,-27.302153],[-56.670232,-27.302358],[-56.669571,-27.301689],[-56.669222,-27.301719],[-56.669165,-27.302329],[-56.668415,-27.303221],[-56.667782,-27.303364],[-56.668235,-27.301234],[-56.667235,-27.300983],[-56.667135,-27.300311],[-56.66644,-27.299817],[-56.66703,-27.299335],[-56.667226,-27.298112],[-56.66782,-27.297577],[-56.668287,-27.297524],[-56.668651,-27.298229],[-56.668944,-27.298257],[-56.669372,-27.296551],[-56.670079,-27.296544],[-56.670454,-27.296202],[-56.670898,-27.296699],[-56.671775,-27.296733],[-56.673232,-27.296168],[-56.673749,-27.294765],[-56.673203,-27.294831],[-56.672628,-27.294437],[-56.672143,-27.294901],[-56.670272,-27.29315],[-56.670091,-27.291903],[-56.670426,-27.291846],[-56.670666,-27.292455],[-56.67113,-27.292411],[-56.671107,-27.291567],[-56.671887,-27.290161],[-56.67188,-27.289556],[-56.673038,-27.289301],[-56.673137,-27.287807],[-56.674344,-27.288018],[-56.674843,-27.288443],[-56.675432,-27.288228],[-56.676888,-27.286159],[-56.676871,-27.285934],[-56.676301,-27.286162],[-56.676273,-27.285783],[-56.676632,-27.285292],[-56.677425,-27.285046],[-56.678022,-27.284131],[-56.677512,-27.283592],[-56.67768,-27.283417],[-56.678308,-27.283459],[-56.67963,-27.282532],[-56.680609,-27.282642],[-56.681079,-27.28309],[-56.68205,-27.282343],[-56.682016,-27.282095],[-56.681449,-27.28199],[-56.68155,-27.281421],[-56.681072,-27.28086],[-56.681704,-27.280808],[-56.681849,-27.280433],[-56.681265,-27.279132],[-56.6815,-27.278352],[-56.68263,-27.27849],[-56.683631,-27.279345],[-56.68453,-27.278733],[-56.684003,-27.278416],[-56.684558,-27.277492],[-56.687859,-27.276836],[-56.688026,-27.276073],[-56.688754,-27.275858],[-56.689263,-27.273792],[-56.690466,-27.272458],[-56.691389,-27.27265],[-56.691545,-27.273788],[-56.691849,-27.273978],[-56.692329,-27.273722],[-56.692351,-27.273027],[-56.693169,-27.272035],[-56.693837,-27.271721],[-56.694009,-27.27108],[-56.695052,-27.271963],[-56.694857,-27.27254],[-56.69509,-27.272771],[-56.695688,-27.272619],[-56.696432,-27.271902],[-56.696529,-27.271352],[-56.695672,-27.270357],[-56.695506,-27.269711],[-56.696198,-27.268783],[-56.696518,-27.269768],[-56.696999,-27.269791],[-56.698066,-27.269058],[-56.698179,-27.268078],[-56.696812,-27.267191],[-56.695137,-27.267313],[-56.694274,-27.26705],[-56.692815,-27.265331],[-56.693125,-27.26479],[-56.692907,-27.263819],[-56.692456,-27.264008],[-56.692339,-27.263723],[-56.693224,-27.262231],[-56.693082,-27.261612],[-56.694382,-27.261322],[-56.693666,-27.26086],[-56.69403,-27.25966],[-56.694537,-27.259661],[-56.694675,-27.259395],[-56.694365,-27.258333],[-56.695164,-27.258366],[-56.695352,-27.257541],[-56.696823,-27.257052],[-56.69646,-27.256388],[-56.697093,-27.256529],[-56.697406,-27.256322],[-56.696794,-27.255558],[-56.697166,-27.254967],[-56.696709,-27.254574],[-56.696936,-27.253414],[-56.696433,-27.253169],[-56.69755,-27.251858],[-56.6965,-27.251874],[-56.696466,-27.251576],[-56.697035,-27.251365],[-56.697054,-27.251067],[-56.696428,-27.250429],[-56.695669,-27.250283],[-56.695631,-27.249412],[-56.694987,-27.248841],[-56.695172,-27.248047],[-56.695757,-27.247764],[-56.695872,-27.246848],[-56.696864,-27.246719],[-56.697898,-27.247701],[-56.698794,-27.247753],[-56.699387,-27.246233],[-56.698944,-27.245672],[-56.698134,-27.245652],[-56.698217,-27.245097],[-56.69753,-27.244838],[-56.697917,-27.243715],[-56.697021,-27.243813],[-56.697196,-27.241926],[-56.697446,-27.241746],[-56.698006,-27.241986],[-56.698609,-27.241424],[-56.700899,-27.242435],[-56.700339,-27.241594],[-56.701331,-27.241095],[-56.701947,-27.239589],[-56.705293,-27.239754],[-56.705781,-27.239489],[-56.706025,-27.23897],[-56.705638,-27.238477],[-56.704191,-27.238479],[-56.703784,-27.237972],[-56.704222,-27.237698],[-56.705352,-27.237962],[-56.706241,-27.237273],[-56.708571,-27.236732],[-56.709023,-27.23616],[-56.709545,-27.23603],[-56.709619,-27.235642],[-56.708448,-27.233441],[-56.708418,-27.232714],[-56.707176,-27.232219],[-56.708012,-27.231065],[-56.707781,-27.230501],[-56.708049,-27.229901],[-56.706778,-27.229645],[-56.70682,-27.227754],[-56.704134,-27.226223],[-56.703563,-27.226276],[-56.703285,-27.22688],[-56.702841,-27.226933],[-56.702618,-27.226563],[-56.702954,-27.225412],[-56.70227,-27.22565],[-56.701475,-27.224213],[-56.701039,-27.224307],[-56.700772,-27.225105],[-56.700071,-27.225352],[-56.699144,-27.224181],[-56.69814,-27.224012],[-56.697407,-27.224561],[-56.697962,-27.22518],[-56.697427,-27.226583],[-56.696857,-27.226708],[-56.696307,-27.226116],[-56.695462,-27.227003],[-56.693943,-27.227122],[-56.693186,-27.226795],[-56.693362,-27.22568],[-56.692274,-27.225028],[-56.691577,-27.223979],[-56.691099,-27.22405],[-56.690687,-27.223743],[-56.690761,-27.223151],[-56.690137,-27.221931],[-56.690515,-27.221011],[-56.689925,-27.220414],[-56.690671,-27.219314],[-56.690621,-27.218353],[-56.690155,-27.217616],[-56.691658,-27.216084],[-56.692454,-27.215883],[-56.692095,-27.215413],[-56.692269,-27.214429],[-56.692447,-27.21386],[-56.693072,-27.213609],[-56.692757,-27.21304],[-56.69336,-27.212535],[-56.693294,-27.21189],[-56.693972,-27.211832],[-56.694138,-27.211472],[-56.695402,-27.211759],[-56.695725,-27.211489],[-56.695335,-27.210978],[-56.695683,-27.210017],[-56.695084,-27.209966],[-56.69493,-27.209681],[-56.695328,-27.208283],[-56.69435,-27.208222],[-56.694208,-27.209065],[-56.69326,-27.208202],[-56.693152,-27.20872],[-56.692858,-27.20881],[-56.692417,-27.207726],[-56.691535,-27.207615],[-56.691677,-27.207133],[-56.690853,-27.206996],[-56.690863,-27.206413],[-56.690236,-27.206055],[-56.689733,-27.206135],[-56.689194,-27.206838],[-56.688444,-27.206855],[-56.688654,-27.206237],[-56.688211,-27.206028],[-56.687494,-27.204645],[-56.687528,-27.202948],[-56.688292,-27.203049],[-56.688683,-27.202648],[-56.688273,-27.200828],[-56.68772,-27.200646],[-56.687475,-27.201065],[-56.686632,-27.200576],[-56.686353,-27.201063],[-56.684536,-27.200617],[-56.68418,-27.199862],[-56.682423,-27.200309],[-56.681109,-27.199751],[-56.679887,-27.200285],[-56.679679,-27.200637],[-56.679345,-27.198682],[-56.677875,-27.197654],[-56.675194,-27.197124],[-56.673058,-27.197123],[-56.672744,-27.195484],[-56.671393,-27.195449],[-56.669645,-27.196623],[-56.668264,-27.195826],[-56.666917,-27.194558],[-56.666397,-27.194435],[-56.664393,-27.191587],[-56.662995,-27.190748],[-56.663243,-27.189923],[-56.662887,-27.187552],[-56.661943,-27.184047],[-56.659841,-27.181545],[-56.658997,-27.179954],[-56.656764,-27.178202],[-56.654642,-27.17408],[-56.654828,-27.172053],[-56.653698,-27.17141],[-56.653494,-27.170786],[-56.652724,-27.170391],[-56.652132,-27.170507],[-56.651696,-27.169996],[-56.650021,-27.170823],[-56.649611,-27.170244],[-56.648943,-27.170039],[-56.645009,-27.169289],[-56.642212,-27.167422],[-56.641446,-27.165488],[-56.640006,-27.165412],[-56.638466,-27.164397],[-56.637825,-27.163474],[-56.63915,-27.159568],[-56.637729,-27.157186],[-56.636186,-27.157055],[-56.629554,-27.154275],[-56.625722,-27.153556],[-56.622863,-27.153942],[-56.621464,-27.153721],[-56.619767,-27.151757],[-56.617635,-27.152131],[-56.613921,-27.152283],[-56.607411,-27.151394],[-56.603883,-27.150567],[-56.601393,-27.149093],[-56.59677,-27.149991],[-56.596029,-27.14956],[-56.593477,-27.150104],[-56.591741,-27.149954],[-56.590619,-27.148493],[-56.588929,-27.14763],[-56.587601,-27.147617],[-56.585582,-27.146889],[-56.585394,-27.145715],[-56.58482,-27.147018],[-56.583608,-27.147831],[-56.582909,-27.147852],[-56.581777,-27.148715],[-56.580755,-27.148951],[-56.578822,-27.148562],[-56.577937,-27.147981],[-56.576001,-27.148459],[-56.575249,-27.14824],[-56.571651,-27.145653],[-56.567952,-27.147346],[-56.556845,-27.147763],[-56.549741,-27.150241],[-56.544475,-27.146012],[-56.540316,-27.15212],[-56.538154,-27.154126],[-56.535418,-27.158058],[-56.538227,-27.158618],[-56.545962,-27.168732],[-56.549817,-27.173285],[-56.529839,-27.186331],[-56.55115,-27.215443],[-56.524386,-27.230671],[-56.509994,-27.231351],[-56.503287,-27.229458],[-56.501921,-27.227695],[-56.501984,-27.226893],[-56.502943,-27.225171],[-56.504045,-27.224378],[-56.505747,-27.221795],[-56.504844,-27.220724],[-56.502559,-27.220608],[-56.501114,-27.22089],[-56.500631,-27.221497],[-56.500149,-27.223988],[-56.497484,-27.225695],[-56.495959,-27.228012],[-56.494947,-27.228443],[-56.494086,-27.228436],[-56.492518,-27.226779],[-56.491619,-27.22676],[-56.488526,-27.22912],[-56.488395,-27.230441],[-56.490575,-27.231601],[-56.490875,-27.232128],[-56.490572,-27.232888],[-56.489752,-27.233191],[-56.488118,-27.232935],[-56.486781,-27.231127],[-56.486006,-27.230638],[-56.483874,-27.230833],[-56.480486,-27.231887],[-56.478582,-27.230769],[-56.476704,-27.228143],[-56.473648,-27.226211],[-56.470697,-27.22351],[-56.470364,-27.222832],[-56.468738,-27.218548],[-56.468947,-27.216206],[-56.467613,-27.214471],[-56.46705,-27.212886],[-56.467467,-27.208765],[-56.466865,-27.207869],[-56.46673,-27.203449],[-56.466964,-27.201015],[-56.467674,-27.198949],[-56.467585,-27.198019],[-56.468743,-27.196792],[-56.468667,-27.195426],[-56.469735,-27.194233],[-56.469749,-27.19351],[-56.471163,-27.19109],[-56.441311,-27.173439],[-56.439716,-27.173114],[-56.438426,-27.174085],[-56.436007,-27.173317],[-56.434334,-27.174037],[-56.432811,-27.175377],[-56.417295,-27.178584],[-56.414318,-27.177328],[-56.412957,-27.177039],[-56.411328,-27.176026],[-56.408786,-27.175723],[-56.406887,-27.174836],[-56.405012,-27.174673],[-56.403264,-27.175577],[-56.401697,-27.175873],[-56.40112,-27.175677],[-56.399556,-27.17417],[-56.396385,-27.173821],[-56.39179,-27.172745],[-56.389876,-27.17296],[-56.387639,-27.174093],[-56.384556,-27.174845],[-56.381245,-27.173921],[-56.380423,-27.173977],[-56.37703,-27.175578],[-56.373588,-27.17571],[-56.371544,-27.176831],[-56.370594,-27.177036],[-56.369169,-27.176804],[-56.367232,-27.175882],[-56.363616,-27.17328],[-56.362015,-27.171636],[-56.360104,-27.170461],[-56.358,-27.169906],[-56.355149,-27.169912],[-56.353272,-27.171045],[-56.351727,-27.172994],[-56.350119,-27.174357],[-56.349062,-27.176054],[-56.348419,-27.176339],[-56.347226,-27.176061],[-56.34607,-27.176254],[-56.344463,-27.177078],[-56.339785,-27.17843],[-56.33329,-27.177732],[-56.332072,-27.177224],[-56.328757,-27.177906],[-56.327964,-27.177009],[-56.324976,-27.175429],[-56.324643,-27.174832],[-56.294974,-27.164478],[-56.293987,-27.164051],[-56.293629,-27.163499],[-56.292487,-27.163129],[-56.292101,-27.163301],[-56.291868,-27.164081],[-56.291252,-27.163976],[-56.289645,-27.164753],[-56.288593,-27.164601],[-56.287744,-27.165265],[-56.286025,-27.164951],[-56.284198,-27.166266],[-56.282807,-27.167996],[-56.281594,-27.168607],[-56.281373,-27.169185],[-56.279839,-27.168999],[-56.27979,-27.170071],[-56.281624,-27.169406],[-56.281706,-27.170115],[-56.280629,-27.171688],[-56.281857,-27.172531],[-56.282468,-27.172433],[-56.282424,-27.173482],[-56.28347,-27.173335],[-56.283626,-27.173721],[-56.282724,-27.174377],[-56.281912,-27.173797],[-56.280809,-27.174211],[-56.279605,-27.173989],[-56.279296,-27.174401],[-56.279445,-27.175477],[-56.279083,-27.175399],[-56.278651,-27.174519],[-56.278189,-27.174454],[-56.27787,-27.174785],[-56.278091,-27.175569],[-56.278874,-27.175861],[-56.279157,-27.176398],[-56.278854,-27.176679],[-56.278015,-27.17645],[-56.278284,-27.177756],[-56.278508,-27.178054],[-56.279696,-27.177925],[-56.279564,-27.178792],[-56.280573,-27.17999],[-56.281556,-27.180305],[-56.28042,-27.181059],[-56.280491,-27.181766],[-56.279983,-27.181691],[-56.279409,-27.181027],[-56.279096,-27.18121],[-56.280106,-27.182888],[-56.280675,-27.182855],[-56.280802,-27.181925],[-56.281659,-27.182402],[-56.281412,-27.184011],[-56.280403,-27.183726],[-56.280633,-27.184623],[-56.281592,-27.185793],[-56.280779,-27.185406],[-56.280467,-27.185548],[-56.280991,-27.186048],[-56.282139,-27.186401],[-56.281955,-27.187255],[-56.282412,-27.187925],[-56.281712,-27.189495],[-56.28237,-27.189982],[-56.282258,-27.19073],[-56.283342,-27.191103],[-56.282839,-27.192013],[-56.282867,-27.194913],[-56.283355,-27.195864],[-56.284381,-27.196739],[-56.286943,-27.197378],[-56.287639,-27.198339],[-56.288333,-27.198569],[-56.287522,-27.20015],[-56.287724,-27.202972],[-56.288844,-27.202941],[-56.289366,-27.201913],[-56.290875,-27.20225],[-56.291407,-27.2034],[-56.290836,-27.20461],[-56.292129,-27.205191],[-56.292318,-27.206283],[-56.293319,-27.205726],[-56.293789,-27.206291],[-56.293532,-27.206896],[-56.292828,-27.207119],[-56.293532,-27.208226],[-56.292684,-27.209106],[-56.292862,-27.209421],[-56.293931,-27.209748],[-56.293953,-27.21004],[-56.292555,-27.210201],[-56.292283,-27.210609],[-56.292477,-27.210946],[-56.293497,-27.211068],[-56.294467,-27.210298],[-56.294618,-27.210855],[-56.294279,-27.211503],[-56.295283,-27.211669],[-56.293923,-27.213518],[-56.292422,-27.21446],[-56.292583,-27.214863],[-56.293584,-27.21546],[-56.294058,-27.215543],[-56.294575,-27.215136],[-56.294841,-27.215788],[-56.294436,-27.216451],[-56.293188,-27.216028],[-56.292457,-27.216594],[-56.292504,-27.216901],[-56.295276,-27.216674],[-56.295356,-27.217091],[-56.295076,-27.217302],[-56.293727,-27.217463],[-56.293388,-27.218274],[-56.296269,-27.217665],[-56.296646,-27.21781],[-56.296629,-27.218238],[-56.294848,-27.219528],[-56.294262,-27.220344],[-56.294502,-27.221462],[-56.294893,-27.221659],[-56.296408,-27.22103],[-56.296887,-27.221136],[-56.297044,-27.221475],[-56.296604,-27.222135],[-56.295905,-27.222417],[-56.295713,-27.222975],[-56.296068,-27.224198],[-56.297602,-27.225206],[-56.297951,-27.225259],[-56.298667,-27.224627],[-56.3003,-27.226077],[-56.30046,-27.226536],[-56.299177,-27.227845],[-56.299174,-27.22832],[-56.30006,-27.229135],[-56.301149,-27.228739],[-56.301202,-27.229543],[-56.300929,-27.230002],[-56.299745,-27.229733],[-56.299564,-27.23001],[-56.300758,-27.230501],[-56.300674,-27.230937],[-56.300157,-27.231008],[-56.299255,-27.230428],[-56.299098,-27.23097],[-56.29977,-27.232188],[-56.30133,-27.231702],[-56.301663,-27.2321],[-56.300658,-27.233422],[-56.300948,-27.234322],[-56.300264,-27.235513],[-56.302236,-27.239337],[-56.302216,-27.240071],[-56.301616,-27.240701],[-56.300874,-27.24087],[-56.298317,-27.240454],[-56.296363,-27.241423],[-56.292917,-27.244097],[-56.290627,-27.247208],[-56.288999,-27.24743],[-56.28781,-27.247064],[-56.286562,-27.245892],[-56.285416,-27.246231],[-56.28554,-27.247038],[-56.287042,-27.248744],[-56.28972,-27.247995],[-56.29062,-27.248316],[-56.291528,-27.249745],[-56.292124,-27.249777],[-56.292689,-27.249492],[-56.294152,-27.247384],[-56.293887,-27.245987],[-56.294116,-27.245398],[-56.295671,-27.243938],[-56.29617,-27.243883],[-56.296474,-27.244201],[-56.296289,-27.245495],[-56.296706,-27.245756],[-56.299088,-27.245926],[-56.300475,-27.245516],[-56.301858,-27.245868],[-56.303115,-27.245558],[-56.304441,-27.244687],[-56.305734,-27.244414],[-56.31043,-27.244099],[-56.311195,-27.244358],[-56.312021,-27.245329],[-56.312119,-27.246007],[-56.311967,-27.246642],[-56.310839,-27.246678],[-56.309435,-27.2452],[-56.308383,-27.244898],[-56.308056,-27.245541],[-56.309471,-27.246844],[-56.309439,-27.247406],[-56.308994,-27.247742],[-56.30664,-27.247326],[-56.306102,-27.24615],[-56.305511,-27.246147],[-56.30525,-27.246443],[-56.305337,-27.248756],[-56.304244,-27.249263],[-56.304194,-27.249825],[-56.304852,-27.25105],[-56.304977,-27.253223],[-56.304161,-27.253682],[-56.303944,-27.254325],[-56.306018,-27.255153],[-56.306823,-27.253521],[-56.307322,-27.253507],[-56.308253,-27.254016],[-56.30832,-27.255015],[-56.307909,-27.255732],[-56.307233,-27.255976],[-56.304423,-27.256111],[-56.30305,-27.25551],[-56.30263,-27.256094],[-56.303149,-27.257344],[-56.304566,-27.258284],[-56.304794,-27.25888],[-56.304698,-27.259334],[-56.303604,-27.259898],[-56.30369,-27.261063],[-56.304436,-27.26148],[-56.306293,-27.261366],[-56.30634,-27.261719],[-56.305878,-27.262083],[-56.300727,-27.263365],[-56.298271,-27.264571],[-56.298316,-27.265203],[-56.299977,-27.267604],[-56.301745,-27.268744],[-56.301823,-27.269449],[-56.30121,-27.27018],[-56.299928,-27.270306],[-56.29832,-27.267317],[-56.297126,-27.266415],[-56.295846,-27.266189],[-56.291702,-27.266726],[-56.289425,-27.267536],[-56.284182,-27.268325],[-56.283434,-27.267759],[-56.282769,-27.265796],[-56.281997,-27.265131],[-56.280727,-27.265256],[-56.280006,-27.266134],[-56.28114,-27.268111],[-56.280989,-27.268584],[-56.279465,-27.269743],[-56.279177,-27.270435],[-56.279234,-27.271218],[-56.280695,-27.273989],[-56.280355,-27.275188],[-56.277057,-27.27625],[-56.27196,-27.278418],[-56.271977,-27.279201],[-56.272565,-27.279674],[-56.276877,-27.280362],[-56.277444,-27.280795],[-56.277221,-27.281381],[-56.275883,-27.281629],[-56.274672,-27.282582],[-56.273852,-27.283529],[-56.272737,-27.286997],[-56.272073,-27.287972],[-56.271235,-27.28877],[-56.269674,-27.289487],[-56.267649,-27.290964],[-56.266434,-27.292387],[-56.266384,-27.293365],[-56.267101,-27.294367],[-56.267722,-27.296544],[-56.268717,-27.298507],[-56.27227,-27.301403],[-56.27262,-27.304949],[-56.271217,-27.30825],[-56.271361,-27.309778],[-56.272077,-27.310227],[-56.30967,-27.389404],[-56.292493,-27.411052],[-56.290565,-27.448739],[-56.295779,-27.478909],[-56.334238,-27.510631],[-56.353603,-27.535073],[-56.360184,-27.54718],[-56.362173,-27.570264],[-56.367522,-27.581141],[-56.376957,-27.587815],[-56.392358,-27.591236],[-56.407793,-27.591834],[-56.429092,-27.585845],[-56.445951,-27.574359],[-56.481682,-27.555813],[-56.519352,-27.49895],[-56.533076,-27.477187],[-56.548836,-27.458439],[-56.576439,-27.442945],[-56.589339,-27.438195],[-56.637025,-27.44164],[-56.661841,-27.448599]]]}}]}
