{"type":"FeatureCollection","name":"distrito","features":[{"type":"Feature","properties":{"clave":"8-9","nombre":"Santa María"},"geometry":{"type":"Polygon","coordinates":[[[-56.923437,-26.848557],[-56.96545,-26.834672],[-56.988802,-26.818894],[-56.99052,-26.810363],[-56.993082,-26.805767],[-56.993583,-26.805578],[-56.993795,-26.804203],[-56.995115,-26.803397],[-56.995379,-26.802686],[-56.996013,-26.802449],[-56.996066,-26.801691],[-56.997069,-26.800553],[-56.997122,-26.799984],[-56.997861,-26.799653],[-56.999456,-26.796565],[-56.997159,-26.792933],[-56.996333,-26.790436],[-56.996753,-26.789226],[-56.997017,-26.786051],[-56.996753,-26.784819],[-56.997396,-26.783894],[-56.997545,-26.782193],[-56.996638,-26.781168],[-56.996779,-26.779843],[-56.995301,-26.777615],[-56.995553,-26.775467],[-56.994993,-26.774085],[-56.993962,-26.772744],[-56.993877,-26.772103],[-56.993286,-26.771607],[-56.992166,-26.769552],[-56.990768,-26.76627],[-56.989741,-26.762627],[-56.988509,-26.760898],[-56.988608,-26.760176],[-56.986766,-26.756799],[-56.986619,-26.755629],[-56.986054,-26.754857],[-56.98562,-26.751855],[-56.984687,-26.749399],[-56.983757,-26.749133],[-56.982757,-26.747679],[-56.98333,-26.746388],[-56.982076,-26.744329],[-56.981956,-26.742889],[-56.981399,-26.742302],[-56.981579,-26.740573],[-56.981172,-26.739278],[-56.978061,-26.737616],[-56.977435,-26.737688],[-56.976006,-26.736979],[-56.974213,-26.73659],[-56.973841,-26.733665],[-56.973211,-26.732717],[-56.973214,-26.731832],[-56.976855,-26.733539],[-56.978914,-26.733539],[-56.982899,-26.73112],[-56.984325,-26.729653],[-56.986383,-26.728466],[-56.987755,-26.728137],[-56.989339,-26.726999],[-56.991424,-26.722069],[-57.00103,-26.710043],[-57.001517,-26.708225],[-57.000638,-26.707567],[-56.999882,-26.707402],[-56.999465,-26.706657],[-56.997217,-26.704784],[-56.996051,-26.701867],[-56.994386,-26.701195],[-56.993803,-26.700522],[-56.993553,-26.699028],[-56.992387,-26.697682],[-56.992138,-26.695285],[-56.990389,-26.694838],[-56.989723,-26.694165],[-56.988641,-26.691172],[-56.98581,-26.688332],[-56.98556,-26.687208],[-56.985893,-26.686684],[-56.985478,-26.684219],[-56.986144,-26.683244],[-56.987229,-26.679265],[-56.980718,-26.67844],[-56.96,-26.672332],[-56.955788,-26.671595],[-56.95609,-26.668498],[-56.952936,-26.66866],[-56.95152,-26.670858],[-56.951048,-26.670966],[-56.950695,-26.669508],[-56.950047,-26.66842],[-56.94766,-26.666807],[-56.945448,-26.667492],[-56.943208,-26.667519],[-56.940096,-26.665892],[-56.939264,-26.664718],[-56.935948,-26.663814],[-56.934468,-26.664436],[-56.932261,-26.664065],[-56.929772,-26.664095],[-56.928549,-26.664736],[-56.927551,-26.664803],[-56.922419,-26.664109],[-56.917673,-26.662608],[-56.915492,-26.662607],[-56.911386,-26.663755],[-56.90959,-26.663641],[-56.908308,-26.662489],[-56.907025,-26.662719],[-56.906254,-26.663409],[-56.9051,-26.6626],[-56.904587,-26.6626],[-56.903176,-26.662829],[-56.901507,-26.663749],[-56.900609,-26.663866],[-56.897785,-26.665245],[-56.892908,-26.66697],[-56.887134,-26.667083],[-56.886364,-26.666622],[-56.88444,-26.66616],[-56.883029,-26.666389],[-56.880975,-26.667309],[-56.876997,-26.668113],[-56.874898,-26.669488],[-56.873242,-26.669135],[-56.872802,-26.669315],[-56.87233,-26.668899],[-56.87168,-26.669549],[-56.870937,-26.669151],[-56.870612,-26.66846],[-56.868102,-26.6682],[-56.865635,-26.666893],[-56.864871,-26.666775],[-56.864204,-26.666201],[-56.86305,-26.666286],[-56.861885,-26.664831],[-56.860833,-26.664586],[-56.860413,-26.664193],[-56.85976,-26.664391],[-56.858923,-26.66402],[-56.858341,-26.664114],[-56.8578,-26.663737],[-56.857214,-26.663999],[-56.855523,-26.663425],[-56.855396,-26.662992],[-56.854713,-26.662734],[-56.853225,-26.66345],[-56.850368,-26.663239],[-56.849849,-26.663708],[-56.849118,-26.663506],[-56.848471,-26.663772],[-56.847437,-26.663373],[-56.847022,-26.663804],[-56.846417,-26.663488],[-56.845977,-26.663825],[-56.845201,-26.661997],[-56.844386,-26.662799],[-56.843889,-26.662803],[-56.843276,-26.662284],[-56.842663,-26.662807],[-56.842172,-26.662377],[-56.841661,-26.662796],[-56.841367,-26.662277],[-56.841006,-26.662732],[-56.840598,-26.661536],[-56.840871,-26.66071],[-56.840417,-26.660587],[-56.840567,-26.659807],[-56.83929,-26.660139],[-56.839262,-26.659751],[-56.838704,-26.659737],[-56.837655,-26.658787],[-56.837112,-26.659437],[-56.836996,-26.658895],[-56.836549,-26.659236],[-56.836276,-26.658754],[-56.835903,-26.659214],[-56.835305,-26.658953],[-56.835094,-26.659409],[-56.834855,-26.658739],[-56.834382,-26.659325],[-56.833827,-26.658878],[-56.833537,-26.659284],[-56.83328,-26.658796],[-56.832665,-26.659409],[-56.831867,-26.659449],[-56.831966,-26.65898],[-56.831465,-26.658983],[-56.831003,-26.659592],[-56.830703,-26.659493],[-56.830644,-26.658861],[-56.829897,-26.65917],[-56.828606,-26.659106],[-56.827897,-26.658221],[-56.826631,-26.657542],[-56.826064,-26.656322],[-56.825184,-26.655996],[-56.824768,-26.654352],[-56.823603,-26.653584],[-56.821755,-26.653044],[-56.820918,-26.653458],[-56.820719,-26.654031],[-56.820058,-26.654468],[-56.818892,-26.654368],[-56.816606,-26.652464],[-56.815968,-26.652405],[-56.814821,-26.652835],[-56.813504,-26.651869],[-56.812299,-26.651678],[-56.812316,-26.650996],[-56.811433,-26.651202],[-56.811472,-26.650304],[-56.81044,-26.650497],[-56.808116,-26.648873],[-56.807642,-26.64907],[-56.807545,-26.648538],[-56.806634,-26.648311],[-56.806358,-26.647349],[-56.805797,-26.647195],[-56.805945,-26.646586],[-56.805135,-26.646174],[-56.805576,-26.645335],[-56.804546,-26.644539],[-56.804713,-26.643767],[-56.804342,-26.642105],[-56.804563,-26.641532],[-56.804279,-26.640624],[-56.803664,-26.640208],[-56.802768,-26.640238],[-56.802169,-26.639317],[-56.80228,-26.638387],[-56.803206,-26.637675],[-56.804816,-26.635068],[-56.804915,-26.634034],[-56.80559,-26.633209],[-56.805381,-26.63259],[-56.80634,-26.632718],[-56.806492,-26.633309],[-56.807418,-26.634137],[-56.808781,-26.63268],[-56.808695,-26.631967],[-56.808057,-26.631591],[-56.809425,-26.629417],[-56.809025,-26.628663],[-56.809422,-26.628289],[-56.80934,-26.627688],[-56.810088,-26.627897],[-56.811277,-26.627519],[-56.811865,-26.626883],[-56.812201,-26.627028],[-56.812821,-26.626609],[-56.813139,-26.62563],[-56.81371,-26.625694],[-56.813663,-26.624899],[-56.811167,-26.623632],[-56.811485,-26.622589],[-56.812154,-26.622179],[-56.813139,-26.622339],[-56.814721,-26.623384],[-56.814684,-26.624521],[-56.815668,-26.624997],[-56.8169,-26.624745],[-56.817781,-26.62402],[-56.818274,-26.623989],[-56.818414,-26.624558],[-56.818043,-26.625307],[-56.818859,-26.625475],[-56.819612,-26.62516],[-56.820173,-26.623991],[-56.819155,-26.622726],[-56.820318,-26.6214],[-56.822006,-26.622161],[-56.823274,-26.621467],[-56.823555,-26.621562],[-56.823693,-26.623616],[-56.824291,-26.623617],[-56.825066,-26.62286],[-56.82584,-26.622703],[-56.825912,-26.622134],[-56.82549,-26.621975],[-56.825455,-26.621596],[-56.825913,-26.621028],[-56.826687,-26.620839],[-56.826442,-26.620396],[-56.824085,-26.620141],[-56.823734,-26.619472],[-56.822009,-26.62017],[-56.821341,-26.620169],[-56.820708,-26.6195],[-56.823491,-26.61707],[-56.824546,-26.617514],[-56.825039,-26.617325],[-56.824936,-26.616124],[-56.825182,-26.615808],[-56.82585,-26.616378],[-56.825602,-26.617136],[-56.825812,-26.617831],[-56.826551,-26.617895],[-56.827291,-26.617486],[-56.827644,-26.616064],[-56.826275,-26.614324],[-56.826629,-26.612708],[-56.826419,-26.612202],[-56.825505,-26.611538],[-56.825048,-26.611632],[-56.824168,-26.611978],[-56.824554,-26.612737],[-56.824377,-26.613058],[-56.823146,-26.613151],[-56.822612,-26.613463],[-56.822162,-26.612482],[-56.821669,-26.612481],[-56.821738,-26.61356],[-56.821413,-26.613779],[-56.819206,-26.612988],[-56.819066,-26.612604],[-56.819559,-26.612162],[-56.819418,-26.611973],[-56.818996,-26.611972],[-56.818249,-26.612663],[-56.817869,-26.612508],[-56.817694,-26.612002],[-56.818858,-26.610739],[-56.818896,-26.608938],[-56.81946,-26.608212],[-56.81939,-26.60758],[-56.818512,-26.606662],[-56.819077,-26.605584],[-56.818796,-26.605268],[-56.817226,-26.605027],[-56.815808,-26.603956],[-56.814409,-26.60365],[-56.810729,-26.607754],[-56.810039,-26.608146],[-56.807107,-26.608458],[-56.804844,-26.60803],[-56.803897,-26.608643],[-56.804,-26.60927],[-56.80641,-26.61042],[-56.806626,-26.611563],[-56.806271,-26.612759],[-56.801891,-26.614252],[-56.801001,-26.615022],[-56.800926,-26.615555],[-56.801519,-26.61654],[-56.804367,-26.618761],[-56.805977,-26.62051],[-56.805915,-26.622149],[-56.805526,-26.622798],[-56.804736,-26.623077],[-56.800028,-26.622809],[-56.799544,-26.622388],[-56.79934,-26.620902],[-56.79784,-26.62048],[-56.794903,-26.620612],[-56.793474,-26.621138],[-56.791625,-26.62355],[-56.790561,-26.624158],[-56.789278,-26.624414],[-56.788604,-26.624092],[-56.788207,-26.623293],[-56.789925,-26.620139],[-56.789636,-26.619119],[-56.789103,-26.618802],[-56.78812,-26.618697],[-56.785618,-26.620011],[-56.784581,-26.620168],[-56.780748,-26.618609],[-56.777467,-26.619114],[-56.772051,-26.616821],[-56.771146,-26.617298],[-56.771209,-26.618648],[-56.770728,-26.619469],[-56.769716,-26.619824],[-56.766495,-26.620062],[-56.764504,-26.621088],[-56.76343,-26.622459],[-56.763583,-26.62366],[-56.764187,-26.624388],[-56.767843,-26.624972],[-56.769825,-26.626207],[-56.77113,-26.629902],[-56.771249,-26.631659],[-56.770441,-26.634687],[-56.770788,-26.636963],[-56.770438,-26.638145],[-56.76985,-26.638424],[-56.76899,-26.638246],[-56.768879,-26.636332],[-56.76831,-26.635713],[-56.766059,-26.635777],[-56.785131,-26.715388],[-56.786085,-26.717024],[-56.78709,-26.717283],[-56.788714,-26.718833],[-56.789762,-26.721241],[-56.790335,-26.721883],[-56.790286,-26.722402],[-56.789567,-26.723345],[-56.79267,-26.72743],[-56.798537,-26.738269],[-56.801163,-26.741753],[-56.802119,-26.742314],[-56.802501,-26.743218],[-56.803982,-26.744764],[-56.804315,-26.745496],[-56.804841,-26.745668],[-56.805223,-26.746571],[-56.807278,-26.748294],[-56.807994,-26.749541],[-56.808517,-26.751474],[-56.808852,-26.751732],[-56.808754,-26.752806],[-56.810996,-26.757667],[-56.812425,-26.76179],[-56.815001,-26.767166],[-56.817007,-26.769877],[-56.816815,-26.770179],[-56.817198,-26.770523],[-56.816958,-26.770951],[-56.81734,-26.771552],[-56.817093,-26.775935],[-56.817907,-26.77628],[-56.818812,-26.778732],[-56.820104,-26.779506],[-56.820388,-26.781095],[-56.821154,-26.781268],[-56.820866,-26.781525],[-56.821296,-26.782256],[-56.821008,-26.782685],[-56.821151,-26.783547],[-56.821819,-26.784537],[-56.822296,-26.786212],[-56.823348,-26.786814],[-56.824064,-26.788147],[-56.824015,-26.788837],[-56.824398,-26.788964],[-56.825305,-26.790514],[-56.826358,-26.790989],[-56.836748,-26.824042],[-56.83775,-26.826275],[-56.83914,-26.826108],[-56.841532,-26.828215],[-56.842634,-26.828347],[-56.843303,-26.828862],[-56.843158,-26.829936],[-56.842487,-26.830626],[-56.842246,-26.831439],[-56.842579,-26.83329],[-56.844779,-26.835613],[-56.845112,-26.836468],[-56.846783,-26.83579],[-56.847939,-26.836303],[-56.849376,-26.836304],[-56.850431,-26.836048],[-56.851007,-26.834717],[-56.856324,-26.834208],[-56.872702,-26.837514],[-56.889099,-26.841275],[-56.888966,-26.840697],[-56.889344,-26.840488],[-56.890499,-26.840572],[-56.893948,-26.839586],[-56.911412,-26.837706],[-56.912631,-26.838479],[-56.912868,-26.841314],[-56.915742,-26.842042],[-56.916754,-26.843],[-56.917166,-26.84389],[-56.918652,-26.844631],[-56.919559,-26.845666],[-56.920302,-26.845964],[-56.921951,-26.847965],[-56.923437,-26.848557]]]}}]}
