{"type":"FeatureCollection","name":"distrito","features":[{"type":"Feature","properties":{"clave":"11-33","nombre":"Ypacaraí"},"geometry":{"type":"Polygon","coordinates":[[[-57.302271,-25.425947],[-57.301311,-25.419736],[-57.300071,-25.417704],[-57.310217,-25.415113],[-57.309109,-25.414544],[-57.307588,-25.414278],[-57.314198,-25.406508],[-57.315855,-25.405341],[-57.314949,-25.403963],[-57.311299,-25.388758],[-57.319147,-25.384994],[-57.321479,-25.380442],[-57.32541,-25.377837],[-57.331395,-25.371985],[-57.331072,-25.369972],[-57.330198,-25.369861],[-57.329866,-25.369293],[-57.329073,-25.368861],[-57.324987,-25.367909],[-57.324782,-25.367029],[-57.325385,-25.365257],[-57.325007,-25.364301],[-57.325164,-25.362729],[-57.322665,-25.358378],[-57.323013,-25.357388],[-57.318145,-25.350754],[-57.307335,-25.338426],[-57.296262,-25.353491],[-57.290326,-25.357431],[-57.284397,-25.358368],[-57.283462,-25.358253],[-57.283103,-25.358779],[-57.282345,-25.358876],[-57.279808,-25.358629],[-57.278642,-25.359671],[-57.271682,-25.361501],[-57.270232,-25.36307],[-57.269219,-25.36368],[-57.266158,-25.362443],[-57.265631,-25.361656],[-57.265187,-25.361486],[-57.262948,-25.361766],[-57.26154,-25.362588],[-57.259596,-25.362139],[-57.259006,-25.361331],[-57.256616,-25.360381],[-57.251802,-25.360013],[-57.251139,-25.359806],[-57.250833,-25.359189],[-57.249129,-25.36001],[-57.248707,-25.36128],[-57.247175,-25.362235],[-57.245197,-25.36255],[-57.242527,-25.364248],[-57.241069,-25.364327],[-57.239529,-25.365424],[-57.237728,-25.365428],[-57.236057,-25.366244],[-57.233449,-25.366809],[-57.231264,-25.365562],[-57.230362,-25.365894],[-57.228588,-25.365495],[-57.226911,-25.364473],[-57.226004,-25.363416],[-57.225053,-25.363688],[-57.223689,-25.363475],[-57.221984,-25.362664],[-57.219791,-25.362671],[-57.218059,-25.362293],[-57.216056,-25.361173],[-57.213341,-25.36105],[-57.213493,-25.360374],[-57.214872,-25.35948],[-57.215519,-25.35844],[-57.215392,-25.357003],[-57.205561,-25.352698],[-57.198078,-25.363302],[-57.198079,-25.363839],[-57.196052,-25.366745],[-57.194932,-25.369791],[-57.197829,-25.374397],[-57.197578,-25.376644],[-57.19573,-25.382235],[-57.196706,-25.384874],[-57.196695,-25.390322],[-57.195091,-25.393386],[-57.193009,-25.398746],[-57.193388,-25.399976],[-57.194594,-25.400863],[-57.195022,-25.401783],[-57.205497,-25.404509],[-57.207294,-25.405824],[-57.208452,-25.405175],[-57.209407,-25.405135],[-57.210007,-25.405474],[-57.213573,-25.405547],[-57.215734,-25.404672],[-57.21791,-25.40268],[-57.22301,-25.418625],[-57.238584,-25.429392],[-57.24861,-25.433872],[-57.277119,-25.441645],[-57.276924,-25.442309],[-57.279949,-25.444129],[-57.286394,-25.448818],[-57.290973,-25.451393],[-57.292279,-25.449401],[-57.299755,-25.448728],[-57.301197,-25.439206],[-57.302271,-25.425947]]]}}]}
