{"type":"FeatureCollection","name":"distrito","features":[{"type":"Feature","properties":{"clave":"1-3","nombre":"Horqueta"},"geometry":{"type":"Polygon","coordinates":[[[-57.110535,-23.464755],[-57.11065,-23.465231],[-57.111281,-23.465416],[-57.112485,-23.465124],[-57.113545,-23.464409],[-57.114778,-23.464461],[-57.115495,-23.465016],[-57.115696,-23.465757],[-57.115124,-23.467185],[-57.115354,-23.467846],[-57.116042,-23.468084],[-57.116873,-23.467633],[-57.117588,-23.465782],[-57.120225,-23.465171],[-57.122204,-23.465276],[-57.123723,-23.46583],[-57.125474,-23.467362],[-57.128026,-23.467942],[-57.128714,-23.468444],[-57.12992,-23.470374],[-57.130695,-23.47069],[-57.131555,-23.470478],[-57.132213,-23.469684],[-57.132843,-23.46852],[-57.132899,-23.467647],[-57.132411,-23.467092],[-57.130404,-23.466565],[-57.129973,-23.466142],[-57.130059,-23.465481],[-57.130747,-23.465136],[-57.13198,-23.4654],[-57.132754,-23.466166],[-57.133557,-23.466377],[-57.135448,-23.464974],[-57.135936,-23.465211],[-57.136137,-23.465872],[-57.134877,-23.467328],[-57.134906,-23.468016],[-57.137317,-23.470023],[-57.138206,-23.470446],[-57.139324,-23.470392],[-57.139783,-23.470709],[-57.139525,-23.471132],[-57.138981,-23.471238],[-57.136458,-23.471294],[-57.136258,-23.471849],[-57.136689,-23.472827],[-57.137348,-23.472906],[-57.138781,-23.472455],[-57.140273,-23.472956],[-57.141763,-23.472796],[-57.142194,-23.473113],[-57.141624,-23.476446],[-57.14174,-23.477451],[-57.142457,-23.478058],[-57.143604,-23.478084],[-57.144435,-23.477316],[-57.145121,-23.475411],[-57.14578,-23.475173],[-57.147236,-23.476482],[-57.152519,-23.476533],[-57.154973,-23.475948],[-57.155951,-23.474904],[-57.157367,-23.471556],[-57.157247,-23.468912],[-57.15658,-23.466805],[-57.155224,-23.465237],[-57.154528,-23.462783],[-57.15699,-23.458254],[-57.156985,-23.456781],[-57.156293,-23.455526],[-57.155772,-23.452815],[-57.153361,-23.451484],[-57.150932,-23.445996],[-57.147587,-23.441549],[-57.147467,-23.439794],[-57.148454,-23.437589],[-57.148638,-23.435868],[-57.148055,-23.435072],[-57.148757,-23.4341],[-57.148546,-23.432113],[-57.147964,-23.431112],[-57.146429,-23.430493],[-57.144681,-23.428477],[-57.145064,-23.426695],[-57.145439,-23.426554],[-57.146095,-23.427191],[-57.146536,-23.425606],[-57.146187,-23.424833],[-57.146327,-23.42372],[-57.147301,-23.422085],[-57.147372,-23.420745],[-57.14783,-23.419734],[-57.147668,-23.418968],[-57.146658,-23.418649],[-57.14607,-23.42043],[-57.145844,-23.420709],[-57.145276,-23.420536],[-57.145428,-23.419811],[-57.144473,-23.41852],[-57.145031,-23.417611],[-57.145036,-23.416806],[-57.146269,-23.415664],[-57.14567,-23.415132],[-57.144894,-23.415107],[-57.14452,-23.414465],[-57.144684,-23.413958],[-57.145741,-23.414078],[-57.145767,-23.413229],[-57.145232,-23.413203],[-57.144225,-23.411961],[-57.143224,-23.411514],[-57.143366,-23.410386],[-57.14305,-23.409322],[-57.143987,-23.409115],[-57.144864,-23.408183],[-57.145354,-23.408073],[-57.145037,-23.407388],[-57.143832,-23.407446],[-57.143782,-23.406505],[-57.14256,-23.40558],[-57.142527,-23.40453],[-57.143697,-23.403953],[-57.144872,-23.404263],[-57.145436,-23.403962],[-57.144229,-23.403107],[-57.144268,-23.402263],[-57.143394,-23.402196],[-57.142781,-23.401506],[-57.142328,-23.399303],[-57.14287,-23.398702],[-57.141793,-23.398796],[-57.139823,-23.3977],[-57.139302,-23.39735],[-57.138699,-23.396038],[-57.138474,-23.393588],[-57.140822,-23.354675],[-57.137584,-23.353875],[-57.139908,-23.34145],[-57.144293,-23.329804],[-57.162583,-23.335165],[-57.177264,-23.33986],[-57.18186,-23.326864],[-57.184207,-23.321785],[-57.187629,-23.308403],[-57.20778,-23.310097],[-57.20691,-23.307478],[-57.21347,-23.305841],[-57.214028,-23.294973],[-57.178065,-23.239618],[-57.14352,-23.255227],[-56.900801,-23.115696],[-56.900692,-23.113593],[-56.9003,-23.113186],[-56.899448,-23.113104],[-56.898777,-23.11214],[-56.898487,-23.108871],[-56.899474,-23.107919],[-56.899655,-23.105855],[-56.900386,-23.103543],[-56.90098,-23.102825],[-56.902393,-23.10237],[-56.902475,-23.097912],[-56.904169,-23.096897],[-56.904225,-23.095849],[-56.906347,-23.09302],[-56.90309,-23.092226],[-56.900791,-23.092274],[-56.899303,-23.091688],[-56.899137,-23.090173],[-56.899622,-23.088297],[-56.899214,-23.086076],[-56.900128,-23.083701],[-56.899887,-23.082375],[-56.899329,-23.082013],[-56.89838,-23.082426],[-56.898488,-23.086213],[-56.897725,-23.087297],[-56.895863,-23.08764],[-56.894785,-23.087157],[-56.894004,-23.086331],[-56.893781,-23.085539],[-56.895606,-23.083749],[-56.895588,-23.083181],[-56.895235,-23.082269],[-56.894026,-23.081269],[-56.893358,-23.079823],[-56.895052,-23.077861],[-56.89522,-23.077224],[-56.895146,-23.076519],[-56.893213,-23.074675],[-56.892897,-23.073935],[-56.892917,-23.072075],[-56.894613,-23.069098],[-56.894669,-23.068031],[-56.894186,-23.067118],[-56.89162,-23.065481],[-56.888867,-23.064636],[-56.887788,-23.064876],[-56.88708,-23.065564],[-56.887153,-23.067716],[-56.886314,-23.069988],[-56.885197,-23.070985],[-56.881101,-23.073634],[-56.875405,-23.076263],[-56.873543,-23.077673],[-56.869988,-23.0786],[-56.871522,-23.080944],[-56.867785,-23.088197],[-56.859037,-23.091775],[-56.856975,-23.0993],[-56.853049,-23.110674],[-56.845029,-23.116421],[-56.843188,-23.118876],[-56.839507,-23.133447],[-56.834766,-23.140466],[-56.830881,-23.144648],[-56.829569,-23.149091],[-56.828298,-23.151276],[-56.827876,-23.153426],[-56.827899,-23.162287],[-56.829043,-23.170269],[-56.802999,-23.218146],[-56.77454,-23.204947],[-56.771863,-23.228649],[-56.769093,-23.242032],[-56.754562,-23.228389],[-56.737353,-23.261486],[-56.740433,-23.279465],[-56.7401,-23.283147],[-56.740339,-23.285162],[-56.741707,-23.287513],[-56.741866,-23.288783],[-56.74251,-23.289904],[-56.743513,-23.293035],[-56.743388,-23.295537],[-56.744105,-23.300236],[-56.744101,-23.302697],[-56.745429,-23.304754],[-56.745434,-23.305793],[-56.746806,-23.307015],[-56.746298,-23.31354],[-56.746575,-23.314467],[-56.747499,-23.315764],[-56.747411,-23.317128],[-56.746289,-23.321015],[-56.746507,-23.322158],[-56.747382,-23.323447],[-56.747573,-23.324594],[-56.746976,-23.326278],[-56.747367,-23.329169],[-56.747193,-23.330835],[-56.746617,-23.331837],[-56.746208,-23.336565],[-56.746967,-23.342239],[-56.746197,-23.34437],[-56.74603,-23.345837],[-56.74533,-23.346893],[-56.745588,-23.351216],[-56.743974,-23.359659],[-56.743858,-23.364108],[-56.743155,-23.366139],[-56.741375,-23.368661],[-56.739501,-23.372302],[-56.738063,-23.373583],[-56.73766,-23.375759],[-56.735473,-23.377372],[-56.735104,-23.378211],[-56.734469,-23.378707],[-56.734272,-23.379899],[-56.733326,-23.379916],[-56.732822,-23.380317],[-56.731895,-23.380455],[-56.731646,-23.381028],[-56.730866,-23.381086],[-56.730262,-23.382137],[-56.728471,-23.38296],[-56.72761,-23.383804],[-56.726762,-23.383811],[-56.726462,-23.384398],[-56.72464,-23.38448],[-56.723489,-23.386741],[-56.722621,-23.386753],[-56.722111,-23.386115],[-56.721083,-23.386705],[-56.720941,-23.38731],[-56.720389,-23.387119],[-56.719355,-23.388753],[-56.717905,-23.389703],[-56.718015,-23.390512],[-56.71727,-23.391608],[-56.715966,-23.392003],[-56.715409,-23.392503],[-56.714816,-23.392263],[-56.714331,-23.392601],[-56.713718,-23.392568],[-56.712764,-23.393212],[-56.711364,-23.393363],[-56.711337,-23.395933],[-56.709734,-23.396941],[-56.709922,-23.398279],[-56.709502,-23.399655],[-56.707964,-23.401179],[-56.706745,-23.401394],[-56.706354,-23.403895],[-56.706949,-23.404519],[-56.709001,-23.405359],[-56.708959,-23.407377],[-56.710194,-23.409033],[-56.71013,-23.409575],[-56.710462,-23.410095],[-56.711593,-23.411199],[-56.711164,-23.414798],[-56.711359,-23.415489],[-56.711869,-23.416375],[-56.712587,-23.416498],[-56.713139,-23.417168],[-56.7133,-23.417516],[-56.712959,-23.418111],[-56.713172,-23.418812],[-56.714779,-23.420784],[-56.714567,-23.42128],[-56.713677,-23.420592],[-56.713154,-23.421129],[-56.713492,-23.421739],[-56.712858,-23.422637],[-56.713166,-23.425049],[-56.713518,-23.425533],[-56.714241,-23.425706],[-56.714335,-23.426302],[-56.715529,-23.426616],[-56.717475,-23.429668],[-56.719244,-23.429997],[-56.719881,-23.430607],[-56.720813,-23.429123],[-56.722046,-23.42894],[-56.721873,-23.430051],[-56.724365,-23.430399],[-56.725946,-23.432831],[-56.727876,-23.432783],[-56.730196,-23.434601],[-56.731597,-23.434521],[-56.734183,-23.437439],[-56.735491,-23.438486],[-56.736589,-23.440852],[-56.739088,-23.442615],[-56.739352,-23.444787],[-56.740275,-23.444954],[-56.742004,-23.444352],[-56.743377,-23.443255],[-56.744003,-23.443036],[-56.74439,-23.443284],[-56.743998,-23.445785],[-56.744563,-23.446418],[-56.745784,-23.44664],[-56.746974,-23.447494],[-56.747269,-23.448786],[-56.748519,-23.449448],[-56.750304,-23.451018],[-56.752002,-23.451158],[-56.753672,-23.450501],[-56.755311,-23.450503],[-56.756355,-23.449845],[-56.75746,-23.448417],[-56.759545,-23.448366],[-56.761691,-23.447764],[-56.766196,-23.44461],[-56.766616,-23.443126],[-56.7676,-23.44222],[-56.768673,-23.441947],[-56.771355,-23.441979],[-56.771862,-23.441512],[-56.772522,-23.439094],[-56.773505,-23.438793],[-56.774786,-23.439152],[-56.77562,-23.439071],[-56.776097,-23.438549],[-56.77631,-23.436323],[-56.776877,-23.435472],[-56.780873,-23.433388],[-56.783852,-23.433145],[-56.78555,-23.433422],[-56.786504,-23.432791],[-56.788297,-23.42922],[-56.789998,-23.427601],[-56.79113,-23.427162],[-56.791398,-23.42763],[-56.79077,-23.428729],[-56.791275,-23.429966],[-56.792347,-23.430023],[-56.793391,-23.429447],[-56.796405,-23.426125],[-56.797418,-23.425769],[-56.8043,-23.425255],[-56.804568,-23.425503],[-56.803852,-23.426409],[-56.80379,-23.428031],[-56.804176,-23.428911],[-56.806261,-23.429024],[-56.807183,-23.42952],[-56.809176,-23.432134],[-56.809768,-23.434718],[-56.811822,-23.435683],[-56.812416,-23.436865],[-56.811819,-23.437937],[-56.811787,-23.439036],[-56.816613,-23.439839],[-56.819265,-23.439458],[-56.82138,-23.439487],[-56.824093,-23.437841],[-56.824838,-23.437979],[-56.827546,-23.440319],[-56.828856,-23.44054],[-56.82984,-23.440157],[-56.831988,-23.43796],[-56.833001,-23.438016],[-56.834072,-23.439199],[-56.836662,-23.440219],[-56.841637,-23.440389],[-56.842502,-23.44006],[-56.84453,-23.43778],[-56.845156,-23.437534],[-56.846525,-23.439019],[-56.84724,-23.438855],[-56.850492,-23.434872],[-56.852042,-23.434297],[-56.853561,-23.434436],[-56.854484,-23.435096],[-56.854572,-23.435701],[-56.852992,-23.437404],[-56.85302,-23.438503],[-56.855879,-23.439798],[-56.855937,-23.440843],[-56.858289,-23.442192],[-56.859452,-23.441808],[-56.860585,-23.440709],[-56.863327,-23.4392],[-56.867142,-23.437664],[-56.868424,-23.437473],[-56.871073,-23.439426],[-56.872324,-23.439345],[-56.873368,-23.438824],[-56.87635,-23.435087],[-56.877036,-23.435088],[-56.87781,-23.435611],[-56.878018,-23.436243],[-56.876914,-23.437782],[-56.878015,-23.439047],[-56.880427,-23.439929],[-56.881529,-23.440809],[-56.882421,-23.442487],[-56.883314,-23.443147],[-56.884536,-23.442653],[-56.887336,-23.443617],[-56.888707,-23.443426],[-56.891419,-23.441669],[-56.892611,-23.441202],[-56.89431,-23.441093],[-56.898182,-23.44203],[-56.899702,-23.441647],[-56.90149,-23.440438],[-56.905155,-23.439286],[-56.906258,-23.439452],[-56.907866,-23.440525],[-56.909295,-23.441982],[-56.90977,-23.443494],[-56.909948,-23.445556],[-56.910454,-23.445996],[-56.914297,-23.446081],[-56.915936,-23.445532],[-56.916413,-23.444598],[-56.916444,-23.442976],[-56.916772,-23.442564],[-56.917934,-23.442399],[-56.918858,-23.44273],[-56.919631,-23.444654],[-56.920286,-23.445287],[-56.921478,-23.445343],[-56.922164,-23.444656],[-56.922462,-23.443364],[-56.922879,-23.443144],[-56.923535,-23.443447],[-56.925053,-23.445124],[-56.925739,-23.44474],[-56.925858,-23.443668],[-56.926455,-23.443283],[-56.928148,-23.443751],[-56.929299,-23.444632],[-56.929895,-23.444705],[-56.930292,-23.444229],[-56.930134,-23.443349],[-56.929102,-23.442432],[-56.927275,-23.441882],[-56.926997,-23.441332],[-56.927395,-23.440526],[-56.92962,-23.438694],[-56.930136,-23.438548],[-56.930812,-23.438805],[-56.931725,-23.439831],[-56.931645,-23.440564],[-56.930731,-23.441847],[-56.930849,-23.44236],[-56.932915,-23.442544],[-56.933908,-23.441885],[-56.934425,-23.440932],[-56.934148,-23.440016],[-56.931844,-23.438805],[-56.931447,-23.438365],[-56.931567,-23.437889],[-56.934705,-23.437927],[-56.9382,-23.439064],[-56.93963,-23.438992],[-56.940346,-23.436756],[-56.940783,-23.436426],[-56.948807,-23.435403],[-56.949324,-23.43555],[-56.949403,-23.436026],[-56.948807,-23.437419],[-56.949243,-23.438665],[-56.952737,-23.443724],[-56.953968,-23.444458],[-56.955795,-23.444421],[-56.958338,-23.443652],[-56.95949,-23.443579],[-56.960443,-23.44391],[-56.961793,-23.445339],[-56.962429,-23.445339],[-56.963025,-23.444533],[-56.96382,-23.442334],[-56.965251,-23.441198],[-56.965608,-23.440282],[-56.96537,-23.439403],[-56.96406,-23.438156],[-56.96402,-23.437386],[-56.964576,-23.43702],[-56.967555,-23.437644],[-56.969303,-23.438487],[-56.977357,-23.444204],[-56.978832,-23.445606],[-56.979582,-23.448158],[-56.980327,-23.449216],[-56.981416,-23.449639],[-56.982591,-23.449454],[-56.984225,-23.448555],[-56.985028,-23.448661],[-56.986547,-23.451095],[-56.987292,-23.451862],[-56.988209,-23.452073],[-56.989241,-23.451544],[-56.990015,-23.450354],[-56.990044,-23.448635],[-56.990589,-23.44771],[-56.991506,-23.447525],[-56.992509,-23.447948],[-56.995863,-23.45165],[-56.996551,-23.452179],[-56.997439,-23.452259],[-56.998213,-23.451122],[-56.998328,-23.449958],[-56.997296,-23.447842],[-56.997927,-23.447419],[-56.999389,-23.447922],[-57.000736,-23.450011],[-57.001395,-23.450381],[-57.005781,-23.45173],[-57.006612,-23.451359],[-57.0071,-23.450487],[-57.007186,-23.449217],[-57.008504,-23.447525],[-57.008361,-23.446097],[-57.008676,-23.445858],[-57.011227,-23.448265],[-57.012345,-23.448609],[-57.012976,-23.447947],[-57.013004,-23.447181],[-57.011342,-23.445541],[-57.011399,-23.44451],[-57.013377,-23.443134],[-57.014838,-23.443504],[-57.015699,-23.444615],[-57.016157,-23.446202],[-57.017189,-23.446651],[-57.019024,-23.44681],[-57.019683,-23.447206],[-57.020314,-23.449005],[-57.020945,-23.449137],[-57.021461,-23.448793],[-57.021833,-23.447391],[-57.022406,-23.446677],[-57.023381,-23.446465],[-57.024126,-23.446703],[-57.025101,-23.447761],[-57.025703,-23.447919],[-57.027308,-23.446703],[-57.0292,-23.447681],[-57.030289,-23.448686],[-57.031092,-23.448738],[-57.03155,-23.448315],[-57.031436,-23.44768],[-57.030174,-23.446729],[-57.028168,-23.446015],[-57.027594,-23.445169],[-57.026591,-23.444613],[-57.026505,-23.444058],[-57.026734,-23.443318],[-57.027622,-23.443159],[-57.028454,-23.443555],[-57.029171,-23.444639],[-57.029772,-23.444851],[-57.03046,-23.444586],[-57.03069,-23.444031],[-57.030116,-23.44292],[-57.030403,-23.442338],[-57.031979,-23.442021],[-57.032925,-23.442126],[-57.035046,-23.443977],[-57.038228,-23.445246],[-57.039003,-23.447123],[-57.039748,-23.447255],[-57.040665,-23.446832],[-57.041525,-23.446832],[-57.042013,-23.448101],[-57.042758,-23.448524],[-57.043074,-23.450613],[-57.043791,-23.450798],[-57.045511,-23.450216],[-57.046113,-23.45048],[-57.045884,-23.452728],[-57.046716,-23.453098],[-57.047461,-23.452939],[-57.047977,-23.452331],[-57.048033,-23.450532],[-57.048865,-23.450003],[-57.04961,-23.450188],[-57.050269,-23.450796],[-57.050471,-23.452409],[-57.049754,-23.453626],[-57.048293,-23.454155],[-57.04815,-23.454658],[-57.048608,-23.455293],[-57.04944,-23.455451],[-57.05265,-23.453969],[-57.054943,-23.454788],[-57.055574,-23.4541],[-57.055774,-23.452884],[-57.056405,-23.452936],[-57.056806,-23.453518],[-57.056749,-23.454682],[-57.05718,-23.455766],[-57.058155,-23.456929],[-57.059101,-23.45751],[-57.059847,-23.45751],[-57.060592,-23.45706],[-57.061594,-23.4555],[-57.06234,-23.455684],[-57.062971,-23.456107],[-57.0632,-23.456768],[-57.063115,-23.45735],[-57.06257,-23.457959],[-57.061395,-23.45825],[-57.061051,-23.45862],[-57.061137,-23.459202],[-57.061854,-23.459519],[-57.064176,-23.458857],[-57.065695,-23.459068],[-57.066211,-23.458698],[-57.06644,-23.457428],[-57.066927,-23.457587],[-57.067329,-23.458803],[-57.06733,-23.459993],[-57.06776,-23.460628],[-57.068333,-23.460495],[-57.068648,-23.459093],[-57.068992,-23.459067],[-57.069623,-23.460045],[-57.070283,-23.459992],[-57.070655,-23.459357],[-57.070253,-23.458088],[-57.070682,-23.457373],[-57.071485,-23.457162],[-57.072259,-23.457373],[-57.074124,-23.459593],[-57.076848,-23.46139],[-57.077193,-23.463162],[-57.078254,-23.463664],[-57.079229,-23.463267],[-57.0794,-23.462262],[-57.078568,-23.460702],[-57.076561,-23.459751],[-57.076417,-23.45864],[-57.07699,-23.458085],[-57.078079,-23.458243],[-57.079054,-23.459274],[-57.07937,-23.460543],[-57.080288,-23.460992],[-57.08132,-23.460674],[-57.086566,-23.460777],[-57.089948,-23.459929],[-57.090837,-23.460272],[-57.091698,-23.461329],[-57.092558,-23.461726],[-57.095567,-23.459635],[-57.096742,-23.459687],[-57.09743,-23.460057],[-57.097832,-23.460982],[-57.097804,-23.461537],[-57.096544,-23.46294],[-57.096602,-23.463786],[-57.097462,-23.464314],[-57.098437,-23.464049],[-57.09941,-23.462515],[-57.100241,-23.462197],[-57.101388,-23.462725],[-57.101504,-23.463942],[-57.102107,-23.465052],[-57.101878,-23.465766],[-57.100847,-23.466983],[-57.101421,-23.46738],[-57.104029,-23.467087],[-57.105061,-23.466637],[-57.105519,-23.465922],[-57.105604,-23.46505],[-57.10503,-23.463886],[-57.105087,-23.46341],[-57.105574,-23.463093],[-57.106434,-23.463092],[-57.107295,-23.463753],[-57.107956,-23.465365],[-57.108586,-23.465339],[-57.108815,-23.464862],[-57.10758,-23.46243],[-57.107752,-23.46161],[-57.108468,-23.461292],[-57.110332,-23.461582],[-57.110992,-23.462348],[-57.111136,-23.462957],[-57.110535,-23.464755]]]}}]}
