{"type":"FeatureCollection","name":"distrito","features":[{"type":"Feature","properties":{"clave":"17-0","nombre":"Filadelfia"},"geometry":{"type":"Polygon","coordinates":[[[-60.055603,-22.467036],[-60.084246,-22.466898],[-60.086222,-22.466712],[-60.090103,-22.465653],[-60.092925,-22.464336],[-60.235643,-22.357273],[-60.414827,-22.221657],[-60.411613,-22.214723],[-60.411432,-22.114677],[-60.409997,-22.049622],[-60.409478,-22.007795],[-60.503483,-22.009059],[-60.49315,-21.83566],[-60.580216,-21.828347],[-60.569343,-21.618064],[-60.566876,-21.553906],[-60.563007,-21.484283],[-60.560316,-21.420842],[-60.556401,-21.348593],[-60.55477,-21.296825],[-60.553831,-21.278944],[-60.548584,-21.14489],[-60.546517,-21.084775],[-60.545685,-21.049703],[-60.544415,-20.963788],[-60.541836,-20.891984],[-60.54178,-20.819171],[-60.539508,-20.749033],[-60.537717,-20.677446],[-60.537855,-20.643725],[-60.537047,-20.538758],[-60.536322,-20.465099],[-60.535834,-20.456691],[-60.066034,-20.594096],[-59.967795,-20.62163],[-59.94923,-20.626572],[-59.9273,-20.632887],[-59.879513,-20.630417],[-59.879076,-20.640325],[-59.881153,-20.650153],[-59.883453,-20.664084],[-59.885348,-20.687339],[-59.886381,-20.711153],[-59.886141,-20.729235],[-59.887103,-20.756887],[-59.886896,-20.791957],[-59.880375,-20.801378],[-59.871264,-20.81249],[-59.863118,-20.820841],[-59.858639,-20.830508],[-59.8541,-20.843032],[-59.841408,-20.874898],[-59.83831,-20.8807],[-59.838542,-20.893023],[-59.839607,-20.903143],[-59.823769,-20.929157],[-59.817786,-20.936654],[-59.816309,-20.951195],[-59.814891,-20.976694],[-59.809842,-20.987461],[-59.803268,-20.994692],[-59.789366,-21.015743],[-59.785691,-21.022105],[-59.776379,-21.031294],[-59.768323,-21.037456],[-59.762325,-21.06029],[-59.759982,-21.07567],[-59.755849,-21.096831],[-59.751441,-21.15854],[-59.75087,-21.182933],[-59.766985,-21.201298],[-59.715013,-21.345861],[-59.769895,-21.383322],[-59.845566,-21.432452],[-59.872402,-21.447163],[-59.874267,-21.467676],[-59.881068,-21.508373],[-59.887532,-21.554004],[-59.90263,-21.635644],[-59.904562,-21.644374],[-59.921806,-21.751169],[-59.926285,-21.776837],[-59.933183,-21.838482],[-59.944966,-21.910295],[-59.94923,-21.94365],[-59.951841,-21.98222],[-59.951239,-22.024007],[-59.952322,-22.037797],[-59.953068,-22.054504],[-59.92442,-22.054628],[-59.908239,-22.054306],[-59.860806,-22.054194],[-59.784466,-22.055252],[-59.740028,-22.055499],[-59.739419,-22.108179],[-59.739657,-22.133419],[-59.739354,-22.163104],[-59.739699,-22.171211],[-59.739402,-22.175244],[-59.738584,-22.178351],[-59.738854,-22.193303],[-59.738752,-22.23235],[-59.739024,-22.232725],[-59.739257,-22.260018],[-59.739024,-22.349135],[-59.781199,-22.349328],[-59.838247,-22.349024],[-59.838311,-22.348146],[-59.838741,-22.347806],[-59.880212,-22.348001],[-59.969289,-22.349068],[-59.972812,-22.350678],[-59.991241,-22.35116],[-59.991474,-22.467149],[-59.969061,-22.466849],[-59.953439,-22.466968],[-59.953364,-22.49115],[-59.955555,-22.492894],[-59.95416,-22.497633],[-59.954786,-22.501938],[-59.953398,-22.501963],[-59.953142,-22.518525],[-60.055603,-22.467036]]]}}]}
