{"type":"FeatureCollection","name":"distrito","features":[{"type":"Feature","properties":{"clave":"4-0","nombre":"Villarrica"},"geometry":{"type":"Polygon","coordinates":[[[-56.454944,-25.897856],[-56.454695,-25.885918],[-56.467172,-25.883544],[-56.489932,-25.879995],[-56.49403,-25.888536],[-56.494253,-25.893322],[-56.489881,-25.895832],[-56.491124,-25.899143],[-56.491358,-25.901279],[-56.489788,-25.911974],[-56.488732,-25.914647],[-56.495848,-25.914474],[-56.497264,-25.914876],[-56.498788,-25.914371],[-56.499955,-25.914565],[-56.50172,-25.914264],[-56.502305,-25.915386],[-56.503352,-25.915556],[-56.503476,-25.915209],[-56.504026,-25.915008],[-56.504103,-25.915906],[-56.504898,-25.915553],[-56.505151,-25.915838],[-56.505035,-25.916822],[-56.505563,-25.916778],[-56.506278,-25.916203],[-56.506406,-25.917102],[-56.506823,-25.917225],[-56.507556,-25.91697],[-56.507355,-25.916306],[-56.507947,-25.915793],[-56.507981,-25.915021],[-56.509425,-25.914787],[-56.509203,-25.914438],[-56.508593,-25.9145],[-56.508696,-25.914112],[-56.509918,-25.913592],[-56.510331,-25.9147],[-56.511815,-25.914822],[-56.512148,-25.915437],[-56.5128,-25.915065],[-56.512467,-25.914522],[-56.513069,-25.913923],[-56.513453,-25.914728],[-56.514236,-25.914627],[-56.514533,-25.914149],[-56.514957,-25.914796],[-56.516981,-25.914663],[-56.517116,-25.913856],[-56.517655,-25.914015],[-56.517713,-25.914476],[-56.519941,-25.914434],[-56.520348,-25.914255],[-56.520434,-25.913225],[-56.521827,-25.910652],[-56.523539,-25.909592],[-56.523909,-25.9086],[-56.523344,-25.907569],[-56.524253,-25.906411],[-56.5258,-25.906227],[-56.526584,-25.905841],[-56.526715,-25.906221],[-56.527389,-25.905207],[-56.528407,-25.905147],[-56.529345,-25.904509],[-56.531501,-25.904295],[-56.532963,-25.904702],[-56.536322,-25.90376],[-56.536812,-25.903116],[-56.53603,-25.900318],[-56.536435,-25.895141],[-56.536143,-25.894969],[-56.536125,-25.894323],[-56.535679,-25.893897],[-56.535354,-25.894],[-56.535157,-25.894835],[-56.534557,-25.89486],[-56.534325,-25.894556],[-56.533721,-25.892983],[-56.533856,-25.892081],[-56.533135,-25.89206],[-56.533342,-25.89105],[-56.532453,-25.889778],[-56.531731,-25.889645],[-56.531807,-25.88848],[-56.530894,-25.887859],[-56.530684,-25.88714],[-56.529993,-25.887129],[-56.530239,-25.886462],[-56.528512,-25.886077],[-56.525941,-25.886095],[-56.523952,-25.885145],[-56.522617,-25.883403],[-56.523307,-25.881418],[-56.523181,-25.879752],[-56.521507,-25.878974],[-56.521551,-25.878284],[-56.520412,-25.878208],[-56.519347,-25.877708],[-56.517751,-25.875201],[-56.517727,-25.874117],[-56.517399,-25.87362],[-56.514276,-25.872155],[-56.512453,-25.872529],[-56.512102,-25.871936],[-56.511761,-25.8724],[-56.510389,-25.872323],[-56.509972,-25.871942],[-56.509882,-25.870755],[-56.509552,-25.870677],[-56.508796,-25.87123],[-56.508719,-25.870209],[-56.50706,-25.868939],[-56.507784,-25.86807],[-56.507766,-25.867343],[-56.50734,-25.866353],[-56.506418,-25.865829],[-56.506732,-25.863986],[-56.509091,-25.860426],[-56.50697,-25.857912],[-56.508686,-25.85541],[-56.510302,-25.851173],[-56.513834,-25.84752],[-56.51363,-25.845205],[-56.509594,-25.842009],[-56.508006,-25.8394],[-56.507482,-25.837277],[-56.505474,-25.833124],[-56.503781,-25.830321],[-56.501867,-25.82935],[-56.498684,-25.826254],[-56.497628,-25.823839],[-56.497968,-25.819115],[-56.495395,-25.817183],[-56.49942,-25.800697],[-56.50084,-25.796304],[-56.496668,-25.7924],[-56.495939,-25.786953],[-56.494779,-25.781892],[-56.49603,-25.778153],[-56.49962,-25.773382],[-56.499157,-25.770337],[-56.498904,-25.769418],[-56.494813,-25.766909],[-56.492922,-25.764573],[-56.490924,-25.763758],[-56.488247,-25.760439],[-56.483766,-25.759285],[-56.482317,-25.757727],[-56.477711,-25.754049],[-56.477011,-25.752976],[-56.476116,-25.750251],[-56.475679,-25.746994],[-56.474736,-25.74476],[-56.474522,-25.740307],[-56.474866,-25.737365],[-56.474731,-25.735594],[-56.474982,-25.733595],[-56.475819,-25.731594],[-56.476485,-25.725225],[-56.477067,-25.72353],[-56.478512,-25.722013],[-56.477685,-25.722363],[-56.476632,-25.722038],[-56.476243,-25.72243],[-56.46963,-25.72395],[-56.468435,-25.724438],[-56.466738,-25.725908],[-56.465154,-25.726462],[-56.464029,-25.726485],[-56.459987,-25.728831],[-56.458437,-25.729304],[-56.45805,-25.730174],[-56.456667,-25.731081],[-56.455496,-25.732621],[-56.454204,-25.735424],[-56.453541,-25.734582],[-56.452889,-25.734634],[-56.452985,-25.734268],[-56.452039,-25.734292],[-56.45129,-25.73512],[-56.449988,-25.735201],[-56.448946,-25.735702],[-56.448374,-25.735348],[-56.44837,-25.736174],[-56.447595,-25.736104],[-56.447413,-25.736943],[-56.44553,-25.738371],[-56.444158,-25.736637],[-56.443583,-25.73696],[-56.444214,-25.737888],[-56.44415,-25.738307],[-56.44065,-25.73894],[-56.440312,-25.738225],[-56.439971,-25.738178],[-56.440107,-25.739077],[-56.439685,-25.73974],[-56.437093,-25.740122],[-56.433927,-25.742273],[-56.433214,-25.742256],[-56.432524,-25.743712],[-56.431047,-25.744564],[-56.430695,-25.74557],[-56.429415,-25.746088],[-56.425841,-25.750946],[-56.421805,-25.754032],[-56.420539,-25.754031],[-56.404907,-25.76095],[-56.398212,-25.758768],[-56.387157,-25.763031],[-56.383179,-25.7653],[-56.373143,-25.767738],[-56.35362,-25.776812],[-56.335607,-25.79698],[-56.332473,-25.792925],[-56.329535,-25.791412],[-56.323425,-25.785898],[-56.318788,-25.784035],[-56.318543,-25.78332],[-56.318755,-25.782495],[-56.318058,-25.781137],[-56.315948,-25.779962],[-56.313834,-25.779691],[-56.279545,-25.80959],[-56.275094,-25.837387],[-56.276798,-25.844823],[-56.289907,-25.874771],[-56.339091,-25.878276],[-56.340706,-25.880767],[-56.341122,-25.883175],[-56.341718,-25.883878],[-56.347321,-25.886499],[-56.349919,-25.88977],[-56.351458,-25.890671],[-56.351699,-25.89358],[-56.352592,-25.895019],[-56.353574,-25.8958],[-56.356706,-25.895503],[-56.367784,-25.892915],[-56.368468,-25.893383],[-56.370356,-25.89312],[-56.37117,-25.893318],[-56.372061,-25.895064],[-56.373001,-25.895692],[-56.374556,-25.893721],[-56.375065,-25.893849],[-56.376745,-25.895495],[-56.37818,-25.896048],[-56.378731,-25.898425],[-56.379083,-25.898806],[-56.381028,-25.897776],[-56.383564,-25.899182],[-56.386233,-25.898985],[-56.386899,-25.899349],[-56.387139,-25.901292],[-56.3877,-25.901574],[-56.38839,-25.901315],[-56.388852,-25.90064],[-56.389069,-25.898997],[-56.38959,-25.899017],[-56.390483,-25.899703],[-56.391481,-25.901342],[-56.392801,-25.90146],[-56.394199,-25.901195],[-56.394764,-25.902538],[-56.396528,-25.903372],[-56.397946,-25.904443],[-56.399967,-25.90526],[-56.400537,-25.905957],[-56.403859,-25.907574],[-56.407773,-25.908023],[-56.409646,-25.906974],[-56.410465,-25.906996],[-56.412166,-25.908181],[-56.413203,-25.908506],[-56.415362,-25.911941],[-56.416295,-25.912311],[-56.417451,-25.912076],[-56.418179,-25.912431],[-56.418744,-25.913354],[-56.419447,-25.913574],[-56.419497,-25.914256],[-56.420901,-25.914198],[-56.421862,-25.913728],[-56.422506,-25.9143],[-56.423332,-25.916145],[-56.426012,-25.917329],[-56.426643,-25.918145],[-56.428186,-25.918255],[-56.429083,-25.919062],[-56.431025,-25.919137],[-56.43342,-25.91753],[-56.454944,-25.897856]]]}}]}
