{"type":"FeatureCollection","name":"distrito","features":[{"type":"Feature","properties":{"clave":"1-10","nombre":"Paso Barreto"},"geometry":{"type":"Polygon","coordinates":[[[-57.053008,-23.06807],[-57.053389,-23.067743],[-57.053661,-23.066408],[-57.055592,-23.062729],[-57.056109,-23.059984],[-57.05766,-23.059479],[-57.061497,-23.057135],[-57.066178,-23.055798],[-57.069473,-23.056552],[-57.071242,-23.057459],[-57.07462,-23.061135],[-57.075682,-23.061915],[-57.079956,-23.062744],[-57.08189,-23.064204],[-57.083279,-23.064758],[-57.084286,-23.064782],[-57.087334,-23.063672],[-57.092778,-23.063065],[-57.09599,-23.063012],[-57.097324,-23.063414],[-57.099149,-23.065051],[-57.100675,-23.065856],[-57.10228,-23.065401],[-57.104783,-23.063359],[-57.10598,-23.06157],[-57.106359,-23.059706],[-57.105105,-23.056659],[-57.105077,-23.055601],[-57.105974,-23.054316],[-57.107851,-23.053407],[-57.109512,-23.053482],[-57.113107,-23.055495],[-57.114086,-23.055015],[-57.115499,-23.051866],[-57.116261,-23.051185],[-57.117159,-23.051335],[-57.119775,-23.054684],[-57.12152,-23.058083],[-57.124298,-23.059919],[-57.127542,-23.064224],[-57.132038,-23.068578],[-57.133265,-23.071096],[-57.133377,-23.07422],[-57.134251,-23.076612],[-57.134253,-23.078728],[-57.13341,-23.080215],[-57.131615,-23.081501],[-57.128839,-23.08241],[-57.12824,-23.083367],[-57.128596,-23.084677],[-57.129931,-23.085784],[-57.131537,-23.085959],[-57.138234,-23.084744],[-57.140139,-23.083861],[-57.141854,-23.08391],[-57.14308,-23.084337],[-57.145015,-23.086628],[-57.146105,-23.087231],[-57.147276,-23.087381],[-57.148609,-23.0867],[-57.150949,-23.084808],[-57.152065,-23.084958],[-57.152501,-23.085537],[-57.152557,-23.08652],[-57.151769,-23.087629],[-57.149184,-23.089042],[-57.149049,-23.090024],[-57.149567,-23.090931],[-57.153299,-23.092539],[-57.153463,-23.093547],[-57.153219,-23.094353],[-57.151696,-23.09584],[-57.151534,-23.096798],[-57.152134,-23.097528],[-57.153278,-23.097904],[-57.154585,-23.097853],[-57.16019,-23.094573],[-57.161797,-23.094697],[-57.164875,-23.09623],[-57.166318,-23.095876],[-57.167624,-23.094842],[-57.168357,-23.093456],[-57.171813,-23.092117],[-57.172413,-23.092242],[-57.173204,-23.093526],[-57.172851,-23.094484],[-57.171927,-23.095392],[-57.171927,-23.095971],[-57.174025,-23.096699],[-57.17596,-23.098511],[-57.177104,-23.09861],[-57.177893,-23.098206],[-57.178355,-23.097122],[-57.178163,-23.096065],[-57.176908,-23.09453],[-57.177016,-23.093522],[-57.177968,-23.092916],[-57.180881,-23.092837],[-57.181697,-23.092308],[-57.182132,-23.091451],[-57.181639,-23.089159],[-57.182074,-23.088529],[-57.183108,-23.088578],[-57.183626,-23.08898],[-57.183791,-23.090265],[-57.183739,-23.091953],[-57.182081,-23.093869],[-57.182028,-23.094826],[-57.182791,-23.095782],[-57.184044,-23.096083],[-57.185215,-23.095729],[-57.185812,-23.094771],[-57.186161,-23.090841],[-57.18714,-23.090085],[-57.189263,-23.089704],[-57.190787,-23.089098],[-57.191546,-23.086402],[-57.192553,-23.086048],[-57.193261,-23.086374],[-57.193643,-23.08713],[-57.193508,-23.088137],[-57.193945,-23.088792],[-57.194735,-23.088816],[-57.195197,-23.088412],[-57.195194,-23.086498],[-57.194593,-23.085088],[-57.194674,-23.084509],[-57.195463,-23.083878],[-57.196171,-23.083877],[-57.197724,-23.084681],[-57.198486,-23.084756],[-57.198976,-23.084352],[-57.199272,-23.082639],[-57.199817,-23.082689],[-57.200417,-23.083393],[-57.202161,-23.084348],[-57.202707,-23.085078],[-57.202817,-23.086337],[-57.201921,-23.08785],[-57.201922,-23.088505],[-57.202358,-23.088957],[-57.204918,-23.088753],[-57.207421,-23.087565],[-57.208074,-23.087842],[-57.208293,-23.088522],[-57.207671,-23.09084],[-57.207862,-23.09162],[-57.208844,-23.092375],[-57.21105,-23.09275],[-57.212058,-23.093227],[-57.212741,-23.09441],[-57.214322,-23.095944],[-57.214623,-23.096624],[-57.213046,-23.098037],[-57.213101,-23.098666],[-57.213701,-23.098943],[-57.215144,-23.098664],[-57.219609,-23.098557],[-57.220644,-23.099084],[-57.22141,-23.100897],[-57.22201,-23.101425],[-57.223017,-23.101524],[-57.223915,-23.101095],[-57.225138,-23.099582],[-57.226227,-23.099353],[-57.226908,-23.099705],[-57.227209,-23.100259],[-57.22721,-23.100989],[-57.225987,-23.102578],[-57.226233,-23.103207],[-57.226724,-23.103458],[-57.229118,-23.101893],[-57.229087,-23.10008],[-57.229468,-23.099852],[-57.230367,-23.100027],[-57.231267,-23.100706],[-57.231622,-23.101663],[-57.231324,-23.102646],[-57.230537,-23.103705],[-57.228224,-23.104741],[-57.228008,-23.106026],[-57.228418,-23.106831],[-57.229154,-23.10746],[-57.230244,-23.107509],[-57.231168,-23.106676],[-57.231301,-23.104812],[-57.231681,-23.104282],[-57.233262,-23.104985],[-57.233236,-23.106069],[-57.232721,-23.107052],[-57.229974,-23.10897],[-57.230221,-23.110179],[-57.232509,-23.110856],[-57.233575,-23.11302],[-57.235154,-23.112665],[-57.236325,-23.112789],[-57.239461,-23.1148],[-57.242429,-23.115022],[-57.244988,-23.114565],[-57.246049,-23.113807],[-57.247107,-23.11174],[-57.248113,-23.110605],[-57.252305,-23.109994],[-57.254291,-23.109059],[-57.256617,-23.10917],[-57.258111,-23.108928],[-57.262007,-23.107048],[-57.262573,-23.105316],[-57.26091,-23.101004],[-57.258095,-23.089143],[-57.255534,-23.082725],[-57.258397,-23.077051],[-57.26048,-23.074815],[-57.262051,-23.074035],[-57.263299,-23.074409],[-57.269695,-23.079627],[-57.270283,-23.081648],[-57.268588,-23.086403],[-57.268579,-23.087535],[-57.269474,-23.088983],[-57.274843,-23.091186],[-57.277406,-23.091361],[-57.280017,-23.092447],[-57.283379,-23.091891],[-57.28698,-23.090857],[-57.288397,-23.090178],[-57.288647,-23.089288],[-57.288438,-23.087606],[-57.286065,-23.085504],[-57.285983,-23.084488],[-57.28661,-23.083651],[-57.288405,-23.082854],[-57.290144,-23.083126],[-57.294806,-23.08588],[-57.297505,-23.085927],[-57.29904,-23.086623],[-57.299691,-23.091162],[-57.300826,-23.092324],[-57.30324,-23.092267],[-57.305286,-23.091713],[-57.306626,-23.092239],[-57.307555,-23.093264],[-57.308589,-23.095474],[-57.309734,-23.095535],[-57.310532,-23.09457],[-57.309714,-23.091969],[-57.309654,-23.090836],[-57.308977,-23.089663],[-57.30687,-23.089138],[-57.30609,-23.087806],[-57.306511,-23.086937],[-57.308797,-23.08633],[-57.310774,-23.085384],[-57.311687,-23.084567],[-57.312397,-23.084746],[-57.312835,-23.086216],[-57.315597,-23.08856],[-57.3167,-23.090378],[-57.316303,-23.09185],[-57.315356,-23.092921],[-57.315164,-23.093937],[-57.315955,-23.094898],[-57.317157,-23.095118],[-57.318711,-23.094258],[-57.319989,-23.092932],[-57.321097,-23.092274],[-57.328849,-23.092778],[-57.330087,-23.091873],[-57.330938,-23.090648],[-57.331296,-23.087223],[-57.332939,-23.085413],[-57.334911,-23.085108],[-57.337454,-23.085834],[-57.338948,-23.085162],[-57.339115,-23.084313],[-57.338897,-23.083934],[-57.336432,-23.0826],[-57.336334,-23.081863],[-57.336623,-23.081483],[-57.338601,-23.081345],[-57.339808,-23.081588],[-57.341015,-23.081898],[-57.342707,-23.082832],[-57.343816,-23.082539],[-57.343955,-23.080463],[-57.343252,-23.078968],[-57.343515,-23.078298],[-57.345471,-23.078673],[-57.346607,-23.079608],[-57.347068,-23.080433],[-57.347435,-23.082397],[-57.348498,-23.082931],[-57.349655,-23.082683],[-57.350161,-23.082213],[-57.350881,-23.080581],[-57.351964,-23.079641],[-57.352299,-23.078547],[-57.350872,-23.077277],[-57.347949,-23.07581],[-57.347826,-23.075029],[-57.348862,-23.074313],[-57.349489,-23.074244],[-57.351617,-23.076003],[-57.353307,-23.076401],[-57.354636,-23.077291],[-57.356166,-23.081128],[-57.356964,-23.081796],[-57.358099,-23.081994],[-57.360992,-23.081117],[-57.362272,-23.081426],[-57.362635,-23.08185],[-57.362662,-23.082966],[-57.361602,-23.08366],[-57.359794,-23.084133],[-57.359313,-23.084648],[-57.359751,-23.086075],[-57.36038,-23.086677],[-57.361779,-23.086562],[-57.362717,-23.085622],[-57.362761,-23.083903],[-57.364495,-23.082627],[-57.364896,-23.07921],[-57.366919,-23.077754],[-57.367929,-23.076413],[-57.36976,-23.075649],[-57.371694,-23.077006],[-57.372757,-23.077227],[-57.373599,-23.076399],[-57.373519,-23.073765],[-57.374337,-23.07287],[-57.375495,-23.072867],[-57.376609,-23.07416],[-57.377212,-23.074069],[-57.3775,-23.073599],[-57.377062,-23.072417],[-57.373765,-23.070415],[-57.372662,-23.069212],[-57.372388,-23.068082],[-57.372927,-23.066838],[-57.374459,-23.066206],[-57.377337,-23.067067],[-57.380136,-23.065622],[-57.381253,-23.06576],[-57.384072,-23.067044],[-57.385484,-23.066015],[-57.385735,-23.064081],[-57.384139,-23.063684],[-57.383544,-23.062576],[-57.382732,-23.062217],[-57.382331,-23.063588],[-57.381616,-23.064166],[-57.380869,-23.064427],[-57.379809,-23.064329],[-57.378716,-23.063337],[-57.376884,-23.060112],[-57.374249,-23.059398],[-57.374009,-23.057077],[-57.372649,-23.055192],[-57.372536,-23.053866],[-57.374009,-23.051239],[-57.376081,-23.051479],[-57.377263,-23.050827],[-57.377259,-23.049371],[-57.376227,-23.047701],[-57.375645,-23.045843],[-57.375177,-23.045729],[-57.374028,-23.046813],[-57.370961,-23.047497],[-57.370903,-23.049285],[-57.370017,-23.050066],[-57.368694,-23.050473],[-57.368319,-23.050026],[-57.368278,-23.04625],[-57.36737,-23.044522],[-57.365652,-23.042839],[-57.364873,-23.042985],[-57.364654,-23.042488],[-57.36425,-23.042384],[-57.363674,-23.04322],[-57.363413,-23.042353],[-57.362577,-23.041895],[-57.362689,-23.041014],[-57.363309,-23.040335],[-57.366199,-23.040807],[-57.366824,-23.040598],[-57.366114,-23.040111],[-57.36613,-23.039678],[-57.367288,-23.039625],[-57.367506,-23.039191],[-57.367251,-23.038582],[-57.366292,-23.037952],[-57.366158,-23.03755],[-57.366993,-23.037201],[-57.367837,-23.036359],[-57.367783,-23.035451],[-57.368187,-23.034989],[-57.367276,-23.035136],[-57.367394,-23.034341],[-57.366755,-23.034252],[-57.367154,-23.033858],[-57.36667,-23.033055],[-57.367115,-23.032345],[-57.367002,-23.03207],[-57.36477,-23.031989],[-57.363599,-23.032805],[-57.363248,-23.032218],[-57.362255,-23.03171],[-57.362036,-23.032158],[-57.360874,-23.032436],[-57.360526,-23.03203],[-57.359734,-23.031937],[-57.360351,-23.031493],[-57.359881,-23.03051],[-57.359513,-23.030479],[-57.359368,-23.030895],[-57.358664,-23.030318],[-57.358128,-23.030315],[-57.357358,-23.028722],[-57.356982,-23.028908],[-57.356783,-23.029609],[-57.356468,-23.029465],[-57.356216,-23.028431],[-57.356379,-23.025798],[-57.355838,-23.025677],[-57.355418,-23.026062],[-57.354558,-23.025395],[-57.354945,-23.02376],[-57.355596,-23.022846],[-57.354664,-23.022292],[-57.354621,-23.021222],[-57.353715,-23.020126],[-57.355349,-23.016893],[-57.353587,-23.014847],[-57.353494,-23.013916],[-57.353008,-23.01418],[-57.352655,-23.014939],[-57.35194,-23.0149],[-57.351582,-23.014237],[-57.350341,-23.014452],[-57.350072,-23.013761],[-57.349,-23.013777],[-57.348641,-23.013521],[-57.348369,-23.012071],[-57.347473,-23.012299],[-57.347133,-23.011975],[-57.347767,-23.01126],[-57.347827,-23.009281],[-57.348292,-23.008765],[-57.347803,-23.008292],[-57.3463,-23.008264],[-57.346434,-23.006471],[-57.345507,-23.005813],[-57.345522,-23.005226],[-57.346217,-23.004317],[-57.3473,-23.004138],[-57.347851,-23.003726],[-57.347282,-23.002828],[-57.346101,-23.002388],[-57.345915,-23.001806],[-57.346665,-23.000928],[-57.348183,-23.000712],[-57.348457,-23.00008],[-57.348176,-22.999439],[-57.345249,-22.999807],[-57.340982,-22.998172],[-57.34016,-22.998874],[-57.338742,-22.998877],[-57.338544,-22.999396],[-57.339276,-23.000176],[-57.338834,-23.000259],[-57.338105,-22.999876],[-57.337624,-23.001318],[-57.337099,-23.000958],[-57.336065,-22.998869],[-57.33485,-22.999445],[-57.333309,-22.999579],[-57.333065,-22.997809],[-57.332511,-22.998257],[-57.332235,-22.999279],[-57.331531,-22.999262],[-57.33107,-22.998735],[-57.33131,-22.997768],[-57.330929,-22.996838],[-57.33027,-22.998673],[-57.329509,-22.998743],[-57.329924,-22.996912],[-57.330612,-22.99641],[-57.330351,-22.995543],[-57.328191,-22.994486],[-57.328627,-22.993912],[-57.329943,-22.993687],[-57.329736,-22.993376],[-57.328818,-22.993125],[-57.328662,-22.991052],[-57.327161,-22.991336],[-57.327748,-22.99226],[-57.327381,-22.992686],[-57.326524,-22.992186],[-57.325885,-22.990543],[-57.32523,-22.9918],[-57.324774,-22.991995],[-57.324093,-22.991482],[-57.325051,-22.991028],[-57.324915,-22.990419],[-57.323549,-22.990123],[-57.321752,-22.990344],[-57.320772,-22.989271],[-57.320679,-22.988426],[-57.321172,-22.98778],[-57.321894,-22.987435],[-57.321049,-22.986068],[-57.321671,-22.98534],[-57.321242,-22.984487],[-57.320067,-22.985153],[-57.319627,-22.984463],[-57.3184,-22.984587],[-57.317833,-22.984318],[-57.317884,-22.984981],[-57.317321,-22.985457],[-57.315633,-22.984625],[-57.315096,-22.984788],[-57.314675,-22.98436],[-57.313773,-22.984222],[-57.313491,-22.983536],[-57.312754,-22.983546],[-57.311966,-22.980896],[-57.311522,-22.981105],[-57.311438,-22.980496],[-57.309915,-22.979288],[-57.309867,-22.978584],[-57.310713,-22.976409],[-57.311249,-22.975871],[-57.312756,-22.975317],[-57.313164,-22.974783],[-57.312278,-22.972983],[-57.311228,-22.973093],[-57.310969,-22.972881],[-57.311076,-22.972317],[-57.310684,-22.971911],[-57.310909,-22.971328],[-57.311617,-22.971006],[-57.311636,-22.969262],[-57.3111,-22.968744],[-57.3106,-22.969242],[-57.310059,-22.969053],[-57.310018,-22.968696],[-57.310537,-22.968185],[-57.309671,-22.966583],[-57.308025,-22.965827],[-57.307854,-22.966094],[-57.308545,-22.966468],[-57.307586,-22.966917],[-57.306582,-22.966566],[-57.306072,-22.967249],[-57.305605,-22.966207],[-57.305264,-22.966348],[-57.305419,-22.966926],[-57.303318,-22.967779],[-57.302579,-22.966886],[-57.302698,-22.965892],[-57.302283,-22.965441],[-57.301221,-22.96547],[-57.299764,-22.964935],[-57.299309,-22.963604],[-57.298745,-22.96318],[-57.297908,-22.963697],[-57.297279,-22.96307],[-57.296495,-22.963027],[-57.29571,-22.963299],[-57.294313,-22.96448],[-57.295136,-22.966177],[-57.294693,-22.966517],[-57.293939,-22.968117],[-57.292612,-22.967961],[-57.292423,-22.968124],[-57.292809,-22.968535],[-57.291429,-22.969355],[-57.29079,-22.969356],[-57.290389,-22.968855],[-57.289083,-22.969436],[-57.288452,-22.968741],[-57.288916,-22.968302],[-57.288174,-22.967595],[-57.28787,-22.968453],[-57.286235,-22.969762],[-57.285535,-22.969162],[-57.286018,-22.967653],[-57.285343,-22.967464],[-57.285325,-22.967108],[-57.284698,-22.9671],[-57.284652,-22.965844],[-57.284012,-22.965904],[-57.283249,-22.966456],[-57.282026,-22.966463],[-57.281701,-22.96594],[-57.280659,-22.966714],[-57.278996,-22.965637],[-57.278263,-22.966257],[-57.278247,-22.967134],[-57.277004,-22.967547],[-57.274887,-22.964298],[-57.273372,-22.963773],[-57.271837,-22.965442],[-57.270278,-22.964966],[-57.269668,-22.964362],[-57.269118,-22.964756],[-57.268691,-22.964549],[-57.268377,-22.96505],[-57.266799,-22.9656],[-57.266672,-22.966372],[-57.26628,-22.966716],[-57.265866,-22.966026],[-57.26527,-22.965936],[-57.264892,-22.966596],[-57.26406,-22.966128],[-57.263602,-22.966608],[-57.26264,-22.966654],[-57.261396,-22.967537],[-57.260882,-22.967109],[-57.259919,-22.967065],[-57.258126,-22.968161],[-57.258985,-22.968892],[-57.25818,-22.969783],[-57.257968,-22.970637],[-57.257541,-22.970787],[-57.256836,-22.970232],[-57.256401,-22.970793],[-57.256022,-22.970775],[-57.255923,-22.970333],[-57.255106,-22.969594],[-57.255359,-22.968166],[-57.254914,-22.967918],[-57.253961,-22.968091],[-57.25364,-22.967816],[-57.253909,-22.965386],[-57.253199,-22.96545],[-57.252799,-22.965076],[-57.253305,-22.963652],[-57.251868,-22.963239],[-57.250754,-22.964022],[-57.249685,-22.963229],[-57.248528,-22.963552],[-57.248762,-22.964161],[-57.247938,-22.964646],[-57.247617,-22.963774],[-57.24677,-22.96434],[-57.246359,-22.964016],[-57.246407,-22.963587],[-57.245141,-22.963322],[-57.24494,-22.961963],[-57.244291,-22.961946],[-57.243889,-22.961544],[-57.243639,-22.961644],[-57.243674,-22.962177],[-57.242951,-22.962151],[-57.242787,-22.961645],[-57.24489,-22.958711],[-57.2451,-22.957139],[-57.244278,-22.956724],[-57.243036,-22.956573],[-57.242578,-22.955887],[-57.241541,-22.955767],[-57.241292,-22.955198],[-57.24147,-22.954764],[-57.240181,-22.953226],[-57.240149,-22.952508],[-57.239816,-22.952621],[-57.239611,-22.953385],[-57.239012,-22.952496],[-57.239472,-22.95156],[-57.238193,-22.951431],[-57.238776,-22.950915],[-57.238559,-22.950495],[-57.236637,-22.951894],[-57.235932,-22.951425],[-57.236313,-22.950923],[-57.236137,-22.950662],[-57.2344,-22.951387],[-57.234557,-22.950447],[-57.233796,-22.95015],[-57.234199,-22.948217],[-57.234113,-22.947106],[-57.233036,-22.94582],[-57.232409,-22.946327],[-57.231449,-22.946193],[-57.230437,-22.945164],[-57.229498,-22.945093],[-57.229277,-22.944353],[-57.228853,-22.944895],[-57.22852,-22.944846],[-57.228512,-22.944101],[-57.228218,-22.943876],[-57.227916,-22.943966],[-57.227734,-22.944576],[-57.226899,-22.944433],[-57.226435,-22.944068],[-57.226105,-22.943079],[-57.225367,-22.943067],[-57.224395,-22.943511],[-57.223608,-22.94315],[-57.22182,-22.943501],[-57.221791,-22.942878],[-57.222646,-22.942714],[-57.221594,-22.942178],[-57.221531,-22.941076],[-57.221888,-22.940858],[-57.222425,-22.941436],[-57.222846,-22.941426],[-57.22239,-22.940284],[-57.222909,-22.940238],[-57.222668,-22.939227],[-57.222316,-22.93948],[-57.221581,-22.938899],[-57.218619,-22.938641],[-57.218338,-22.937702],[-57.21932,-22.937623],[-57.219094,-22.936698],[-57.218335,-22.936726],[-57.218322,-22.93594],[-57.217346,-22.935345],[-57.215221,-22.935737],[-57.215082,-22.935253],[-57.215711,-22.934842],[-57.214892,-22.934301],[-57.215226,-22.934196],[-57.21537,-22.933713],[-57.214975,-22.93365],[-57.214427,-22.934301],[-57.214107,-22.934211],[-57.213981,-22.9332],[-57.213439,-22.93325],[-57.213089,-22.93284],[-57.213844,-22.932437],[-57.213691,-22.931994],[-57.212831,-22.932203],[-57.210274,-22.931696],[-57.209195,-22.931792],[-57.208904,-22.932231],[-57.209306,-22.933459],[-57.208848,-22.933749],[-57.206275,-22.931354],[-57.204224,-22.931085],[-57.203624,-22.933349],[-57.202174,-22.934209],[-57.201642,-22.932764],[-57.201691,-22.931811],[-57.201425,-22.931816],[-57.20115,-22.932611],[-57.200119,-22.931764],[-57.199914,-22.930111],[-57.198725,-22.93037],[-57.198009,-22.931202],[-57.197046,-22.93076],[-57.196005,-22.929226],[-57.195069,-22.929389],[-57.194457,-22.929151],[-57.194513,-22.928618],[-57.193605,-22.926627],[-57.193784,-22.925805],[-57.19499,-22.924254],[-57.196379,-22.923692],[-57.196458,-22.923137],[-57.197826,-22.922408],[-57.198951,-22.920482],[-57.200619,-22.919044],[-57.200436,-22.917291],[-57.200052,-22.916452],[-57.200253,-22.916117],[-57.20146,-22.915669],[-57.201679,-22.913898],[-57.201072,-22.911848],[-57.202238,-22.911043],[-57.20322,-22.908038],[-57.203053,-22.903824],[-57.202366,-22.901964],[-57.202524,-22.900003],[-57.202119,-22.898698],[-57.203866,-22.895656],[-57.203963,-22.893231],[-57.203175,-22.891538],[-57.203211,-22.888123],[-57.202182,-22.886837],[-57.201616,-22.884674],[-57.201975,-22.882569],[-57.20149,-22.881337],[-57.20175,-22.880478],[-57.202313,-22.880161],[-57.202332,-22.878969],[-57.202029,-22.878594],[-57.200982,-22.878338],[-57.200678,-22.876825],[-57.19961,-22.875689],[-57.200102,-22.87506],[-57.200278,-22.872101],[-57.201211,-22.869697],[-57.20049,-22.867462],[-57.200965,-22.864856],[-57.200804,-22.864192],[-57.201401,-22.86345],[-57.201478,-22.861233],[-57.200738,-22.859535],[-57.201432,-22.857023],[-57.202608,-22.856687],[-57.202846,-22.856149],[-57.202665,-22.855115],[-57.202963,-22.854469],[-57.204877,-22.854006],[-57.205371,-22.851399],[-57.204909,-22.848961],[-57.20401,-22.847851],[-57.202275,-22.847117],[-57.202073,-22.845861],[-57.201714,-22.845473],[-57.201933,-22.84499],[-57.203648,-22.845746],[-57.203987,-22.845412],[-57.204085,-22.844305],[-57.203439,-22.842675],[-57.205595,-22.840811],[-57.206687,-22.837964],[-57.208082,-22.837425],[-57.208078,-22.834747],[-57.210722,-22.829698],[-57.210539,-22.827444],[-57.211333,-22.825799],[-57.21115,-22.823026],[-57.211568,-22.822768],[-57.211726,-22.821878],[-57.210688,-22.820863],[-57.209193,-22.820644],[-57.208692,-22.819316],[-57.208851,-22.818779],[-57.209648,-22.818389],[-57.209886,-22.817689],[-57.210603,-22.817557],[-57.211223,-22.818441],[-57.21192,-22.818219],[-57.212079,-22.817704],[-57.212335,-22.815761],[-57.211935,-22.815134],[-57.211727,-22.809701],[-57.213039,-22.807242],[-57.213236,-22.805652],[-57.213213,-22.80384],[-57.212832,-22.802698],[-57.213304,-22.798262],[-57.212382,-22.794772],[-57.21242,-22.793552],[-57.213374,-22.791907],[-57.214345,-22.788577],[-57.216217,-22.787504],[-57.216535,-22.787042],[-57.216401,-22.786026],[-56.696381,-22.688202],[-56.694564,-22.68871],[-56.694404,-22.690395],[-56.695662,-22.690822],[-56.695911,-22.691464],[-56.695287,-22.693364],[-56.694738,-22.693887],[-56.695651,-22.693988],[-56.695849,-22.694304],[-56.695786,-22.69467],[-56.694872,-22.695283],[-56.694957,-22.695848],[-56.695464,-22.695903],[-56.696394,-22.695304],[-56.699937,-22.695229],[-56.701158,-22.695909],[-56.70192,-22.697035],[-56.700765,-22.698587],[-56.698995,-22.699532],[-56.698714,-22.700078],[-56.699076,-22.700711],[-56.69782,-22.700596],[-56.697281,-22.701859],[-56.69553,-22.703473],[-56.695603,-22.706242],[-56.696304,-22.708461],[-56.696012,-22.709265],[-56.694708,-22.709456],[-56.691513,-22.712517],[-56.690004,-22.71311],[-56.683761,-22.712823],[-56.682215,-22.712232],[-56.678948,-22.709846],[-56.673581,-22.710182],[-56.672543,-22.711165],[-56.67236,-22.712877],[-56.673859,-22.716218],[-56.676171,-22.718833],[-56.676571,-22.721508],[-56.676121,-22.722839],[-56.67342,-22.725548],[-56.671411,-22.724185],[-56.670054,-22.724376],[-56.667118,-22.722613],[-56.666086,-22.722588],[-56.665531,-22.722885],[-56.665652,-22.723152],[-56.66711,-22.723557],[-56.66782,-22.724742],[-56.669086,-22.724925],[-56.669346,-22.725603],[-56.668335,-22.727281],[-56.668562,-22.72903],[-56.667046,-22.733363],[-56.66775,-22.736183],[-56.666954,-22.742396],[-56.666431,-22.743655],[-56.66377,-22.746717],[-56.664352,-22.747314],[-56.666155,-22.74795],[-56.6678,-22.749169],[-56.668277,-22.749906],[-56.669371,-22.755261],[-56.668806,-22.755662],[-56.665644,-22.756527],[-56.665267,-22.756874],[-56.665224,-22.757506],[-56.666151,-22.758163],[-56.666964,-22.758165],[-56.667362,-22.757759],[-56.667541,-22.756802],[-56.668126,-22.756532],[-56.66849,-22.75688],[-56.668612,-22.758421],[-56.667952,-22.75963],[-56.667959,-22.760836],[-56.666997,-22.761891],[-56.66836,-22.763439],[-56.667878,-22.764205],[-56.668973,-22.764524],[-56.66975,-22.766463],[-56.669134,-22.766887],[-56.666788,-22.766493],[-56.666558,-22.766687],[-56.667337,-22.76784],[-56.667138,-22.768508],[-56.665246,-22.769778],[-56.664616,-22.771421],[-56.662268,-22.772017],[-56.662523,-22.774474],[-56.661536,-22.776776],[-56.662273,-22.778693],[-56.662384,-22.779836],[-56.661829,-22.78492],[-56.662925,-22.789092],[-56.662639,-22.79088],[-56.661421,-22.793714],[-56.66093,-22.794178],[-56.657267,-22.79496],[-56.655417,-22.795914],[-56.649583,-22.800865],[-56.649068,-22.802364],[-56.650031,-22.805469],[-56.651791,-22.80643],[-56.650941,-22.808402],[-56.652158,-22.809742],[-56.652725,-22.81248],[-56.652345,-22.814318],[-56.653458,-22.815906],[-56.654228,-22.816296],[-56.656587,-22.816233],[-56.660029,-22.816895],[-56.66338,-22.816031],[-56.664424,-22.816006],[-56.668589,-22.81975],[-56.668859,-22.820301],[-56.667499,-22.821721],[-56.667444,-22.822724],[-56.666146,-22.824447],[-56.666507,-22.82606],[-56.666324,-22.828286],[-56.668087,-22.828511],[-56.673051,-22.830021],[-56.677532,-22.833011],[-56.680581,-22.836554],[-56.681059,-22.837359],[-56.6809,-22.838316],[-56.677154,-22.84241],[-56.677028,-22.843187],[-56.677267,-22.843571],[-56.678299,-22.843785],[-56.681266,-22.842527],[-56.687584,-22.841098],[-56.688835,-22.841534],[-56.689625,-22.842859],[-56.692765,-22.843642],[-56.696206,-22.845004],[-56.702948,-22.845238],[-56.704418,-22.845715],[-56.706446,-22.844617],[-56.707805,-22.843485],[-56.708765,-22.843392],[-56.710601,-22.843771],[-56.712649,-22.842934],[-56.713273,-22.843663],[-56.713705,-22.846793],[-56.71443,-22.849302],[-56.714303,-22.850367],[-56.712617,-22.852704],[-56.711661,-22.855593],[-56.709129,-22.85856],[-56.708464,-22.862254],[-56.705951,-22.865962],[-56.704838,-22.868738],[-56.705254,-22.869588],[-56.706548,-22.870105],[-56.707328,-22.871209],[-56.708427,-22.874869],[-56.709282,-22.87539],[-56.710837,-22.875316],[-56.711525,-22.875886],[-56.712222,-22.877148],[-56.712355,-22.878106],[-56.711609,-22.880453],[-56.711055,-22.885804],[-56.710111,-22.887609],[-56.712981,-22.893333],[-56.71328,-22.895005],[-56.713041,-22.897017],[-56.715108,-22.896955],[-56.71811,-22.895833],[-56.719152,-22.896237],[-56.721886,-22.898659],[-56.722361,-22.900432],[-56.719654,-22.906187],[-56.719651,-22.907355],[-56.721558,-22.91054],[-56.721377,-22.913682],[-56.71967,-22.919438],[-56.712472,-22.930341],[-56.710033,-22.932431],[-56.708723,-22.934966],[-56.708895,-22.935691],[-56.710501,-22.937023],[-56.711759,-22.938596],[-56.716146,-22.941142],[-56.716579,-22.942029],[-56.716315,-22.943639],[-56.715704,-22.944564],[-56.71318,-22.945527],[-56.710438,-22.946206],[-56.706742,-22.94624],[-56.705219,-22.9466],[-56.704477,-22.947645],[-56.704078,-22.951028],[-56.703032,-22.951993],[-56.701901,-22.952434],[-56.699857,-22.951987],[-56.697381,-22.950774],[-56.695254,-22.948997],[-56.693736,-22.947262],[-56.692482,-22.944118],[-56.691702,-22.942909],[-56.690703,-22.942262],[-56.689529,-22.942179],[-56.688261,-22.944916],[-56.688902,-22.949871],[-56.688639,-22.950878],[-56.687768,-22.95148],[-56.686593,-22.951719],[-56.683846,-22.954936],[-56.683626,-22.955983],[-56.683841,-22.956829],[-56.688833,-22.961229],[-56.69009,-22.963084],[-56.690217,-22.964615],[-56.689735,-22.966024],[-56.687205,-22.969241],[-56.685283,-22.972822],[-56.679403,-22.976234],[-56.67914,-22.977039],[-56.679268,-22.977845],[-56.679789,-22.978249],[-56.682182,-22.978213],[-56.683875,-22.979707],[-56.686869,-22.983096],[-56.689554,-22.988257],[-56.691725,-22.990073],[-56.693113,-22.991768],[-56.693818,-22.993669],[-56.693665,-22.997215],[-56.694233,-22.999542],[-56.695417,-23.001952],[-56.696298,-23.002525],[-56.697488,-23.002282],[-56.69965,-23.001429],[-56.700843,-23.000371],[-56.700801,-22.999187],[-56.699707,-22.995472],[-56.699842,-22.994656],[-56.702136,-22.993722],[-56.704913,-22.993563],[-56.70716,-22.994098],[-56.708876,-22.995162],[-56.710018,-22.997082],[-56.712704,-22.998638],[-56.713448,-23.001006],[-56.715076,-23.00256],[-56.716929,-23.001788],[-56.717678,-23.001748],[-56.71825,-23.002443],[-56.718335,-23.003994],[-56.717891,-23.005217],[-56.715508,-23.006519],[-56.713082,-23.00733],[-56.71286,-23.007942],[-56.713035,-23.00884],[-56.714355,-23.009781],[-56.72304,-23.009674],[-56.725377,-23.009107],[-56.729969,-23.00581],[-56.733108,-23.001122],[-56.735445,-23.00031],[-56.73602,-22.999617],[-56.735626,-22.997984],[-56.735804,-22.997291],[-56.737039,-22.996558],[-56.73823,-22.996315],[-56.739199,-22.996562],[-56.739859,-22.997134],[-56.740034,-22.998195],[-56.738927,-23.000805],[-56.73897,-23.001295],[-56.741698,-23.003707],[-56.742269,-23.005136],[-56.742265,-23.006809],[-56.739745,-23.011049],[-56.73961,-23.012273],[-56.740005,-23.013131],[-56.742604,-23.014278],[-56.745111,-23.01722],[-56.747314,-23.017754],[-56.750887,-23.01678],[-56.757149,-23.015974],[-56.760546,-23.014102],[-56.761957,-23.0139],[-56.763191,-23.014187],[-56.765612,-23.016313],[-56.767459,-23.019254],[-56.768648,-23.019827],[-56.772571,-23.020118],[-56.774156,-23.021508],[-56.774636,-23.024283],[-56.775561,-23.025182],[-56.776486,-23.025388],[-56.777016,-23.024858],[-56.778034,-23.022533],[-56.778784,-23.022167],[-56.779577,-23.022617],[-56.781072,-23.024823],[-56.783978,-23.027683],[-56.785517,-23.030012],[-56.785423,-23.033398],[-56.785686,-23.034949],[-56.786699,-23.035114],[-56.78767,-23.034789],[-56.790982,-23.031365],[-56.791995,-23.031775],[-56.793359,-23.033776],[-56.793578,-23.035041],[-56.792294,-23.038345],[-56.793039,-23.041243],[-56.792595,-23.043079],[-56.792154,-23.043568],[-56.790478,-23.043852],[-56.78933,-23.044381],[-56.787696,-23.046296],[-56.786678,-23.048458],[-56.786763,-23.05058],[-56.787466,-23.05205],[-56.789758,-23.05291],[-56.793373,-23.053772],[-56.793945,-23.054425],[-56.79368,-23.055037],[-56.789796,-23.056787],[-56.789926,-23.058133],[-56.790542,-23.058991],[-56.791689,-23.059278],[-56.793233,-23.058342],[-56.794339,-23.056548],[-56.79575,-23.056305],[-56.797601,-23.057001],[-56.799057,-23.05688],[-56.800778,-23.055985],[-56.802675,-23.05562],[-56.804394,-23.055785],[-56.813294,-23.061591],[-56.817654,-23.066248],[-56.8184,-23.068452],[-56.818486,-23.070248],[-56.81822,-23.071104],[-56.81588,-23.072979],[-56.814687,-23.075018],[-56.814419,-23.077058],[-56.815344,-23.077997],[-56.816578,-23.078611],[-56.817461,-23.078367],[-56.821169,-23.075556],[-56.82214,-23.075557],[-56.823594,-23.076538],[-56.824693,-23.079518],[-56.825574,-23.080009],[-56.826412,-23.080009],[-56.828929,-23.077768],[-56.83215,-23.07618],[-56.835599,-23.07397],[-56.837121,-23.073298],[-56.839338,-23.073147],[-56.842875,-23.07465],[-56.844066,-23.074866],[-56.845884,-23.076092],[-56.846345,-23.077469],[-56.847204,-23.078174],[-56.849255,-23.078513],[-56.851608,-23.0742],[-56.852733,-23.073711],[-56.853627,-23.073712],[-56.854354,-23.074264],[-56.853656,-23.077354],[-56.854809,-23.081517],[-56.858149,-23.082898],[-56.859051,-23.082451],[-56.864529,-23.076115],[-56.865395,-23.076066],[-56.86623,-23.076622],[-56.866786,-23.077595],[-56.867718,-23.078392],[-56.869988,-23.0786],[-56.873543,-23.077673],[-56.875405,-23.076263],[-56.881101,-23.073634],[-56.886314,-23.069988],[-56.887153,-23.067716],[-56.88708,-23.065564],[-56.887788,-23.064876],[-56.888867,-23.064636],[-56.89162,-23.065481],[-56.894186,-23.067118],[-56.894669,-23.068031],[-56.894613,-23.069098],[-56.892917,-23.072075],[-56.892897,-23.073935],[-56.893752,-23.075295],[-56.895146,-23.076519],[-56.895052,-23.077861],[-56.893358,-23.079823],[-56.894026,-23.081269],[-56.895235,-23.082269],[-56.895606,-23.083749],[-56.893781,-23.085539],[-56.894004,-23.086331],[-56.894785,-23.087157],[-56.895863,-23.08764],[-56.897725,-23.087297],[-56.898488,-23.086213],[-56.89838,-23.082426],[-56.898882,-23.082013],[-56.899887,-23.082375],[-56.900128,-23.083701],[-56.899214,-23.086076],[-56.899622,-23.088297],[-56.899137,-23.090173],[-56.899303,-23.091688],[-56.900791,-23.092274],[-56.90309,-23.092226],[-56.906347,-23.09302],[-56.914837,-23.089921],[-56.91797,-23.087504],[-56.920504,-23.083097],[-56.921349,-23.082619],[-56.922547,-23.082544],[-56.923799,-23.082872],[-56.924915,-23.083553],[-56.925323,-23.084183],[-56.925158,-23.086601],[-56.925539,-23.087961],[-56.926328,-23.088969],[-56.929023,-23.090205],[-56.931936,-23.090105],[-56.934467,-23.091366],[-56.936074,-23.091719],[-56.937245,-23.091543],[-56.937898,-23.090989],[-56.939534,-23.08769],[-56.940568,-23.087111],[-56.943373,-23.086835],[-56.945306,-23.08613],[-56.946014,-23.086257],[-56.94645,-23.086811],[-56.947129,-23.089179],[-56.946721,-23.089733],[-56.946748,-23.090464],[-56.947319,-23.091824],[-56.949442,-23.093235],[-56.951539,-23.093034],[-56.95418,-23.093967],[-56.957638,-23.092683],[-56.958428,-23.090946],[-56.958783,-23.088603],[-56.959872,-23.088326],[-56.960634,-23.088352],[-56.964228,-23.091476],[-56.965752,-23.091854],[-56.966787,-23.091754],[-56.967658,-23.090671],[-56.967277,-23.089638],[-56.966515,-23.08863],[-56.965018,-23.087925],[-56.964909,-23.08727],[-56.965073,-23.086413],[-56.965835,-23.085632],[-56.967115,-23.085532],[-56.967768,-23.085834],[-56.968177,-23.086464],[-56.968203,-23.089159],[-56.968829,-23.090041],[-56.969946,-23.090268],[-56.971552,-23.089941],[-56.972423,-23.090092],[-56.973131,-23.090571],[-56.974356,-23.092687],[-56.975146,-23.092914],[-56.976425,-23.09236],[-56.977297,-23.091151],[-56.977406,-23.088783],[-56.977842,-23.08838],[-56.98002,-23.088859],[-56.982552,-23.090824],[-56.983696,-23.090623],[-56.985983,-23.088583],[-56.986936,-23.088809],[-56.987753,-23.08959],[-56.988515,-23.08959],[-56.989495,-23.088407],[-56.989359,-23.087701],[-56.987072,-23.086442],[-56.987018,-23.085787],[-56.987426,-23.085384],[-56.989196,-23.085888],[-56.990612,-23.086795],[-56.991238,-23.087651],[-56.991646,-23.089036],[-56.992626,-23.089843],[-56.993389,-23.089868],[-56.994233,-23.089515],[-56.996003,-23.087525],[-56.996847,-23.087248],[-56.998099,-23.087425],[-56.999351,-23.088105],[-57.000304,-23.087903],[-57.000958,-23.087399],[-57.001856,-23.085989],[-57.002728,-23.085812],[-57.004879,-23.086215],[-57.005423,-23.085913],[-57.005886,-23.085208],[-57.005886,-23.084427],[-57.005287,-23.083822],[-57.003163,-23.083369],[-57.002537,-23.081984],[-57.000577,-23.080624],[-57.000468,-23.08017],[-57.000876,-23.079238],[-57.001992,-23.079137],[-57.007165,-23.083445],[-57.008391,-23.08289],[-57.008418,-23.081757],[-57.007819,-23.080548],[-57.00673,-23.079389],[-57.004252,-23.077651],[-57.004279,-23.076593],[-57.011358,-23.077197],[-57.013808,-23.076996],[-57.015986,-23.077575],[-57.017565,-23.077449],[-57.018273,-23.07692],[-57.018572,-23.076063],[-57.01849,-23.074955],[-57.017565,-23.073519],[-57.017755,-23.072688],[-57.018381,-23.07226],[-57.021757,-23.071831],[-57.02369,-23.072536],[-57.025133,-23.071856],[-57.027664,-23.071301],[-57.029651,-23.070268],[-57.030604,-23.070293],[-57.033245,-23.071124],[-57.035341,-23.070594],[-57.036076,-23.07067],[-57.036676,-23.072282],[-57.036159,-23.074473],[-57.037358,-23.076916],[-57.038501,-23.077369],[-57.039644,-23.077016],[-57.040597,-23.074598],[-57.041196,-23.074396],[-57.041985,-23.074799],[-57.042857,-23.076033],[-57.04332,-23.076335],[-57.043919,-23.076209],[-57.045115,-23.07301],[-57.047211,-23.070868],[-57.047973,-23.069684],[-57.05045,-23.068676],[-57.053008,-23.06807]]]}}]}
