{"type":"FeatureCollection","name":"distrito","features":[{"type":"Feature","properties":{"clave":"3-33","nombre":"Santa Elena"},"geometry":{"type":"Polygon","coordinates":[[[-56.791842,-25.444907],[-56.792308,-25.444254],[-56.792859,-25.444209],[-56.792924,-25.443782],[-56.793526,-25.443536],[-56.79342,-25.444078],[-56.79402,-25.44414],[-56.794503,-25.445309],[-56.795247,-25.445116],[-56.795252,-25.446211],[-56.795513,-25.446508],[-56.796348,-25.446079],[-56.797195,-25.446075],[-56.797224,-25.444735],[-56.798315,-25.443979],[-56.798858,-25.444123],[-56.799498,-25.443011],[-56.800056,-25.443019],[-56.800851,-25.44187],[-56.800014,-25.441259],[-56.79894,-25.441445],[-56.798755,-25.441211],[-56.799173,-25.440973],[-56.80041,-25.440998],[-56.800148,-25.440488],[-56.801256,-25.440225],[-56.801498,-25.439243],[-56.801975,-25.440017],[-56.802661,-25.440079],[-56.803166,-25.439592],[-56.803473,-25.43973],[-56.805398,-25.439228],[-56.805028,-25.438653],[-56.805557,-25.437018],[-56.805299,-25.436397],[-56.806023,-25.436006],[-56.80651,-25.436392],[-56.80652,-25.437116],[-56.806963,-25.436872],[-56.807339,-25.437141],[-56.80705,-25.437921],[-56.808532,-25.439137],[-56.809134,-25.43896],[-56.810235,-25.440501],[-56.810845,-25.440853],[-56.811328,-25.439818],[-56.812213,-25.438961],[-56.813678,-25.4389],[-56.814687,-25.437366],[-56.815521,-25.437006],[-56.816436,-25.437138],[-56.817502,-25.4382],[-56.818691,-25.438369],[-56.818588,-25.439466],[-56.817835,-25.439736],[-56.817925,-25.44063],[-56.818301,-25.440657],[-56.818668,-25.440161],[-56.820273,-25.441084],[-56.821168,-25.441225],[-56.822978,-25.44116],[-56.824504,-25.440498],[-56.825074,-25.440697],[-56.826327,-25.440514],[-56.828633,-25.439866],[-56.828929,-25.439212],[-56.829752,-25.439443],[-56.830616,-25.439056],[-56.833505,-25.439068],[-56.833921,-25.43845],[-56.833428,-25.438133],[-56.833602,-25.437587],[-56.834936,-25.435719],[-56.834342,-25.434617],[-56.834658,-25.434125],[-56.83399,-25.418589],[-56.837878,-25.404689],[-56.831585,-25.403433],[-56.831343,-25.396321],[-56.832928,-25.386988],[-56.833997,-25.374896],[-56.844109,-25.375036],[-56.849273,-25.372363],[-56.853017,-25.368822],[-56.854712,-25.368449],[-56.85686,-25.368469],[-56.858059,-25.367698],[-56.860244,-25.367383],[-56.860025,-25.365817],[-56.859567,-25.365464],[-56.859196,-25.364136],[-56.857952,-25.363264],[-56.84822,-25.35938],[-56.841524,-25.357371],[-56.835826,-25.354698],[-56.834772,-25.355333],[-56.833822,-25.35535],[-56.832945,-25.354907],[-56.832025,-25.354833],[-56.830352,-25.355057],[-56.830093,-25.35531],[-56.82811,-25.355271],[-56.82714,-25.354697],[-56.82557,-25.354844],[-56.823979,-25.354084],[-56.82228,-25.354899],[-56.820827,-25.354951],[-56.81958,-25.353965],[-56.818988,-25.352831],[-56.818456,-25.352609],[-56.816778,-25.352774],[-56.815408,-25.352177],[-56.813487,-25.34998],[-56.811546,-25.348677],[-56.810237,-25.34802],[-56.808948,-25.347834],[-56.805534,-25.345951],[-56.803838,-25.34426],[-56.803183,-25.344295],[-56.802284,-25.343549],[-56.747107,-25.327157],[-56.746924,-25.328121],[-56.745723,-25.329316],[-56.746189,-25.332323],[-56.74593,-25.334411],[-56.747584,-25.335429],[-56.749045,-25.33876],[-56.748253,-25.339925],[-56.748098,-25.341956],[-56.747287,-25.343413],[-56.748419,-25.345336],[-56.748466,-25.34604],[-56.747441,-25.347516],[-56.747195,-25.348508],[-56.746579,-25.348839],[-56.745462,-25.350201],[-56.744629,-25.351758],[-56.742461,-25.352756],[-56.740732,-25.354215],[-56.739332,-25.354558],[-56.73445,-25.360994],[-56.733963,-25.363128],[-56.735544,-25.367401],[-56.735156,-25.369421],[-56.735322,-25.370899],[-56.735812,-25.371671],[-56.735648,-25.37327],[-56.735154,-25.37426],[-56.733865,-25.375589],[-56.732209,-25.37669],[-56.731002,-25.377118],[-56.728549,-25.379053],[-56.727902,-25.380895],[-56.728166,-25.382543],[-56.726917,-25.385561],[-56.724953,-25.388496],[-56.724764,-25.389258],[-56.725367,-25.391378],[-56.726552,-25.392947],[-56.725833,-25.394505],[-56.724975,-25.398789],[-56.722782,-25.400214],[-56.722117,-25.401763],[-56.722481,-25.402819],[-56.724271,-25.405599],[-56.722275,-25.406853],[-56.72197,-25.40738],[-56.723532,-25.408512],[-56.723463,-25.411012],[-56.724023,-25.412385],[-56.723861,-25.413099],[-56.722982,-25.414258],[-56.722477,-25.416449],[-56.722435,-25.418973],[-56.721849,-25.42001],[-56.722268,-25.423802],[-56.721645,-25.426256],[-56.722348,-25.428492],[-56.721787,-25.432124],[-56.722019,-25.435117],[-56.773968,-25.464897],[-56.778186,-25.454175],[-56.779976,-25.453943],[-56.780202,-25.455685],[-56.781106,-25.455468],[-56.781009,-25.456586],[-56.781329,-25.457245],[-56.781853,-25.457136],[-56.781829,-25.456751],[-56.784151,-25.456981],[-56.783981,-25.456274],[-56.784522,-25.455915],[-56.784568,-25.456368],[-56.785516,-25.455789],[-56.785361,-25.455522],[-56.784777,-25.455491],[-56.784916,-25.45446],[-56.784608,-25.453809],[-56.785266,-25.453096],[-56.78525,-25.453837],[-56.785911,-25.45374],[-56.786271,-25.452876],[-56.78678,-25.452642],[-56.786258,-25.451415],[-56.786841,-25.451684],[-56.787196,-25.451399],[-56.787716,-25.451494],[-56.787267,-25.450709],[-56.78842,-25.450134],[-56.789081,-25.450262],[-56.789737,-25.448577],[-56.79079,-25.448338],[-56.78992,-25.447636],[-56.790558,-25.447596],[-56.7906,-25.447318],[-56.789821,-25.446972],[-56.789601,-25.446036],[-56.789122,-25.445932],[-56.789388,-25.444344],[-56.789997,-25.444459],[-56.790086,-25.443983],[-56.790492,-25.44388],[-56.791319,-25.444764],[-56.791842,-25.444907]]]}}]}
