{"type":"FeatureCollection","name":"distrito","features":[{"type":"Feature","properties":{"clave":"2-24","nombre":"Santa Rosa del Aguaray"},"geometry":{"type":"Polygon","coordinates":[[[-56.587502,-23.8608],[-56.579042,-23.838937],[-56.577885,-23.834806],[-56.584028,-23.817901],[-56.593214,-23.785021],[-56.472088,-23.651115],[-56.338166,-23.652083],[-56.338146,-23.650822],[-56.11341,-23.605796],[-56.112769,-23.605449],[-56.111995,-23.60334],[-56.108866,-23.60287],[-56.107571,-23.603107],[-56.105227,-23.602032],[-56.09405,-23.602035],[-56.089615,-23.603653],[-56.08563,-23.606082],[-56.081953,-23.607175],[-56.079336,-23.606564],[-56.077787,-23.606898],[-56.077034,-23.60744],[-56.075986,-23.607402],[-56.074623,-23.607863],[-56.071697,-23.607263],[-56.069867,-23.607776],[-56.068192,-23.606863],[-56.066432,-23.606663],[-56.063712,-23.604537],[-56.06091,-23.604191],[-56.060015,-23.602795],[-56.058379,-23.602536],[-56.057671,-23.600811],[-56.056114,-23.600274],[-56.055457,-23.598694],[-56.053434,-23.597805],[-56.052934,-23.596366],[-56.052935,-23.59488],[-56.052427,-23.593983],[-56.051461,-23.593318],[-56.05042,-23.593311],[-56.049826,-23.592676],[-56.048542,-23.590667],[-56.047257,-23.586979],[-56.048116,-23.584175],[-56.048288,-23.580726],[-56.04902,-23.57859],[-56.048992,-23.575541],[-56.021576,-23.599062],[-56.020805,-23.600385],[-56.020314,-23.602084],[-56.018507,-23.604462],[-56.016595,-23.606184],[-56.014337,-23.612153],[-56.012164,-23.616014],[-56.011032,-23.616819],[-56.010947,-23.61751],[-56.009329,-23.618114],[-56.0068,-23.620265],[-56.003504,-23.621504],[-56.001057,-23.623204],[-56.000285,-23.625827],[-55.998566,-23.628485],[-55.997148,-23.632184],[-55.993742,-23.637061],[-55.992053,-23.638834],[-55.991061,-23.643348],[-55.992004,-23.644835],[-55.991924,-23.648434],[-55.990064,-23.654771],[-55.987668,-23.657086],[-55.987477,-23.659067],[-55.987699,-23.660211],[-55.987043,-23.661719],[-55.985317,-23.664124],[-55.983288,-23.665506],[-55.982927,-23.666719],[-55.980693,-23.667901],[-55.980627,-23.668402],[-55.979554,-23.668113],[-55.978411,-23.668777],[-55.978624,-23.669015],[-55.980368,-23.66877],[-55.980961,-23.669164],[-55.980489,-23.670854],[-55.979326,-23.6706],[-55.980032,-23.671405],[-55.979981,-23.671959],[-55.978802,-23.671269],[-55.978622,-23.671847],[-55.980448,-23.672584],[-55.981716,-23.672498],[-55.982382,-23.673636],[-55.981912,-23.674595],[-55.982815,-23.675164],[-55.983016,-23.674296],[-55.983725,-23.674624],[-55.984182,-23.674167],[-55.984847,-23.674299],[-55.984723,-23.67475],[-55.983964,-23.674924],[-55.983609,-23.675314],[-55.983847,-23.675665],[-55.984799,-23.675722],[-55.98461,-23.67624],[-55.983474,-23.676071],[-55.983028,-23.676332],[-55.983505,-23.676821],[-55.984755,-23.676599],[-55.98451,-23.677288],[-55.983332,-23.677663],[-55.98366,-23.678236],[-55.984214,-23.67847],[-55.984348,-23.679059],[-55.985423,-23.678768],[-55.984342,-23.679766],[-55.985114,-23.680504],[-55.984724,-23.680671],[-55.984282,-23.680413],[-55.983502,-23.679556],[-55.983274,-23.680381],[-55.985033,-23.681432],[-55.984244,-23.682858],[-55.984335,-23.683097],[-55.985157,-23.683247],[-55.984663,-23.683806],[-55.984778,-23.684506],[-55.98552,-23.684136],[-55.984893,-23.685163],[-55.985682,-23.685994],[-55.986243,-23.685163],[-55.986594,-23.685233],[-55.984849,-23.687292],[-55.984041,-23.687585],[-55.983386,-23.687427],[-55.983693,-23.688392],[-55.98277,-23.689332],[-55.983072,-23.689649],[-55.983694,-23.689423],[-55.983719,-23.689756],[-55.982792,-23.690039],[-55.982045,-23.689668],[-55.98191,-23.690425],[-55.981331,-23.689978],[-55.98108,-23.69007],[-55.981016,-23.691144],[-55.980537,-23.692061],[-55.982101,-23.693264],[-55.981791,-23.693781],[-55.982378,-23.695702],[-55.981832,-23.69569],[-55.980986,-23.69502],[-55.980661,-23.69518],[-55.980502,-23.69546],[-55.9809,-23.696553],[-55.980394,-23.697402],[-55.980517,-23.698237],[-55.979631,-23.697916],[-55.97921,-23.698578],[-55.977906,-23.698442],[-55.977674,-23.698619],[-55.977675,-23.69971],[-55.976336,-23.700527],[-55.97674,-23.700862],[-55.978123,-23.700334],[-55.978423,-23.700975],[-55.977542,-23.701319],[-55.977391,-23.70171],[-55.978787,-23.701864],[-55.978653,-23.702323],[-55.977845,-23.70282],[-55.979077,-23.703817],[-55.978473,-23.704137],[-55.977614,-23.703909],[-55.977427,-23.704215],[-55.978679,-23.704981],[-55.978337,-23.70728],[-55.976979,-23.707066],[-55.977465,-23.707623],[-55.978509,-23.707851],[-55.979113,-23.708631],[-55.979,-23.708852],[-55.978159,-23.708837],[-55.979303,-23.710421],[-55.978986,-23.710709],[-55.978156,-23.710388],[-55.977916,-23.711494],[-55.977425,-23.711593],[-55.977179,-23.712265],[-55.976825,-23.711351],[-55.97647,-23.711791],[-55.97675,-23.712611],[-55.977554,-23.712804],[-55.977764,-23.713154],[-55.976426,-23.713844],[-55.976423,-23.714202],[-55.978148,-23.713796],[-55.977026,-23.71522],[-55.977455,-23.716024],[-55.977493,-23.717046],[-55.977173,-23.717802],[-55.977737,-23.717815],[-55.977708,-23.718027],[-55.977158,-23.718509],[-55.976549,-23.718258],[-55.976389,-23.718658],[-55.976705,-23.719648],[-55.977801,-23.720226],[-55.977235,-23.720512],[-55.977102,-23.720912],[-55.97744,-23.72151],[-55.978366,-23.72144],[-55.977905,-23.722323],[-55.978059,-23.722767],[-55.979344,-23.722929],[-55.980115,-23.722593],[-55.98002,-23.724109],[-55.979097,-23.724989],[-55.979099,-23.725934],[-55.97845,-23.726118],[-55.978391,-23.725333],[-55.978169,-23.725298],[-55.977733,-23.726624],[-55.977003,-23.726449],[-55.977469,-23.727304],[-55.975775,-23.728545],[-55.976813,-23.729447],[-55.976774,-23.729804],[-55.975531,-23.730145],[-55.975232,-23.730535],[-55.975625,-23.73116],[-55.975564,-23.731798],[-55.97615,-23.73141],[-55.976408,-23.731625],[-55.975888,-23.732993],[-55.976237,-23.733336],[-55.975504,-23.733553],[-55.974435,-23.732949],[-55.975247,-23.734446],[-55.97456,-23.735924],[-55.974875,-23.737025],[-55.975543,-23.735726],[-55.975958,-23.735916],[-55.975759,-23.737695],[-55.975321,-23.738101],[-55.975378,-23.739098],[-55.976191,-23.740416],[-55.975489,-23.740224],[-55.974995,-23.739437],[-55.974735,-23.739537],[-55.974594,-23.739937],[-55.975146,-23.741465],[-55.974942,-23.741583],[-55.974081,-23.740334],[-55.973518,-23.740228],[-55.973478,-23.740602],[-55.975048,-23.742189],[-55.974547,-23.742331],[-55.973745,-23.741916],[-55.973649,-23.742376],[-55.974431,-23.742986],[-55.975258,-23.742599],[-55.975534,-23.74272],[-55.975267,-23.743792],[-55.9762,-23.743943],[-55.975462,-23.744867],[-55.976412,-23.745231],[-55.974957,-23.746678],[-55.975836,-23.746735],[-55.976284,-23.74627],[-55.977349,-23.746234],[-55.977277,-23.747111],[-55.977617,-23.747429],[-55.977398,-23.748168],[-55.978546,-23.748176],[-55.978647,-23.749489],[-55.979801,-23.749786],[-55.979481,-23.750525],[-55.979605,-23.751259],[-55.980508,-23.751827],[-55.980576,-23.752483],[-55.981278,-23.75271],[-55.981301,-23.753374],[-55.980324,-23.754041],[-55.980656,-23.754222],[-55.981231,-23.753962],[-55.981655,-23.754254],[-55.981102,-23.755094],[-55.981193,-23.756492],[-55.980571,-23.756701],[-55.98112,-23.757548],[-55.980213,-23.757593],[-55.980402,-23.758276],[-55.979377,-23.759138],[-55.979616,-23.75937],[-55.98073,-23.758951],[-55.981848,-23.759163],[-55.981893,-23.759376],[-55.980427,-23.759784],[-55.980468,-23.760432],[-55.979424,-23.761387],[-55.979553,-23.761721],[-55.980675,-23.761864],[-55.981346,-23.762868],[-55.980309,-23.764452],[-55.98106,-23.764695],[-55.981019,-23.765229],[-55.981961,-23.76469],[-55.982474,-23.765375],[-55.982778,-23.764411],[-55.984344,-23.764581],[-55.984794,-23.76539],[-55.984325,-23.766977],[-55.985171,-23.76779],[-55.985341,-23.769676],[-55.986327,-23.769899],[-55.986692,-23.770515],[-55.984846,-23.774637],[-55.983811,-23.776028],[-55.985279,-23.777741],[-55.985181,-23.779195],[-55.985897,-23.77912],[-55.98641,-23.778294],[-55.986667,-23.778557],[-55.986032,-23.780825],[-55.986973,-23.782149],[-55.987628,-23.782005],[-55.98791,-23.782212],[-55.988056,-23.784064],[-55.989104,-23.784242],[-55.989193,-23.783913],[-55.988593,-23.78325],[-55.988584,-23.782875],[-55.989044,-23.782469],[-55.990079,-23.78276],[-55.990351,-23.782603],[-55.990866,-23.783038],[-55.991574,-23.782542],[-55.991931,-23.782636],[-55.992791,-23.783186],[-55.992703,-23.783436],[-55.99033,-23.783738],[-55.990522,-23.784501],[-55.991334,-23.784881],[-55.991548,-23.784235],[-55.992634,-23.784276],[-55.992873,-23.785413],[-55.993813,-23.78517],[-55.9946,-23.78555],[-55.99469,-23.785028],[-55.993422,-23.784576],[-55.993315,-23.784121],[-55.995854,-23.784524],[-55.996297,-23.784743],[-55.996514,-23.785471],[-55.997415,-23.785466],[-55.99709,-23.785975],[-55.996249,-23.78614],[-55.996309,-23.786424],[-55.997581,-23.786364],[-55.997694,-23.787694],[-55.998152,-23.787549],[-55.998268,-23.786857],[-55.999167,-23.787227],[-56.000009,-23.786857],[-56.000615,-23.788304],[-56.003225,-23.789229],[-56.00356,-23.789073],[-56.0038,-23.788279],[-56.004271,-23.789668],[-56.00591,-23.790065],[-56.006247,-23.789578],[-56.006402,-23.790306],[-56.007027,-23.79089],[-56.008328,-23.790251],[-56.010079,-23.790557],[-56.010262,-23.790842],[-56.00977,-23.792214],[-56.010831,-23.792368],[-56.01089,-23.79263],[-56.010184,-23.792932],[-56.010285,-23.794319],[-56.010952,-23.794232],[-56.011934,-23.793329],[-56.012596,-23.79397],[-56.012095,-23.794921],[-56.012216,-23.795217],[-56.012636,-23.795242],[-56.013878,-23.794194],[-56.014285,-23.794253],[-56.014944,-23.795291],[-56.014592,-23.796084],[-56.015558,-23.79575],[-56.016794,-23.797189],[-56.016874,-23.798064],[-56.017232,-23.797998],[-56.017521,-23.79733],[-56.018515,-23.798211],[-56.018682,-23.798984],[-56.018096,-23.799719],[-56.018065,-23.800616],[-56.018361,-23.800663],[-56.018627,-23.799665],[-56.018949,-23.799565],[-56.019905,-23.80056],[-56.020155,-23.800118],[-56.020672,-23.800269],[-56.020231,-23.801505],[-56.020772,-23.801735],[-56.021356,-23.802864],[-56.020737,-23.8032],[-56.020448,-23.803812],[-56.020767,-23.804075],[-56.021291,-23.803295],[-56.021646,-23.803774],[-56.021381,-23.804465],[-56.020576,-23.804892],[-56.020981,-23.805247],[-56.020891,-23.805712],[-56.021742,-23.805751],[-56.021454,-23.806329],[-56.021754,-23.807421],[-56.022569,-23.807506],[-56.022847,-23.808257],[-56.023765,-23.809263],[-56.023701,-23.809581],[-56.023057,-23.809883],[-56.023264,-23.810328],[-56.023039,-23.81061],[-56.022478,-23.809732],[-56.02229,-23.810094],[-56.022533,-23.810584],[-56.023996,-23.81148],[-56.023371,-23.81243],[-56.023481,-23.812692],[-56.024241,-23.81331],[-56.024538,-23.813255],[-56.024704,-23.812563],[-56.025517,-23.812852],[-56.025066,-23.813645],[-56.025875,-23.814502],[-56.025084,-23.814633],[-56.024908,-23.815007],[-56.025498,-23.815295],[-56.025469,-23.815874],[-56.026245,-23.816117],[-56.025881,-23.81699],[-56.026569,-23.81746],[-56.025864,-23.817546],[-56.025442,-23.817873],[-56.025501,-23.818259],[-56.026552,-23.818062],[-56.027104,-23.818542],[-56.027016,-23.818826],[-56.026263,-23.818798],[-56.025975,-23.819239],[-56.027555,-23.819386],[-56.027553,-23.819636],[-56.026573,-23.820152],[-56.026328,-23.821593],[-56.02763,-23.820886],[-56.027675,-23.821522],[-56.02708,-23.821757],[-56.027213,-23.822201],[-56.028329,-23.821515],[-56.029742,-23.822455],[-56.029641,-23.822716],[-56.02885,-23.822802],[-56.029041,-23.8237],[-56.029547,-23.823794],[-56.030145,-23.823128],[-56.030859,-23.823428],[-56.030134,-23.824593],[-56.030306,-23.824719],[-56.030774,-23.824768],[-56.03178,-23.824002],[-56.03291,-23.824917],[-56.033859,-23.825139],[-56.033619,-23.825774],[-56.033062,-23.82602],[-56.032286,-23.825686],[-56.031875,-23.826161],[-56.032979,-23.827156],[-56.034128,-23.827083],[-56.033381,-23.82801],[-56.033538,-23.828443],[-56.034306,-23.828107],[-56.035178,-23.827022],[-56.035846,-23.82689],[-56.036066,-23.827289],[-56.035578,-23.828104],[-56.036389,-23.828677],[-56.035987,-23.829628],[-56.037419,-23.829694],[-56.038211,-23.829404],[-56.03842,-23.829553],[-56.038216,-23.830335],[-56.039153,-23.830546],[-56.039275,-23.830853],[-56.038144,-23.831834],[-56.038029,-23.832367],[-56.039915,-23.83105],[-56.040426,-23.832076],[-56.041371,-23.832922],[-56.041907,-23.832312],[-56.042326,-23.832406],[-56.041823,-23.833675],[-56.043221,-23.833263],[-56.043152,-23.834251],[-56.043423,-23.834309],[-56.045069,-23.833843],[-56.045618,-23.834743],[-56.045241,-23.835695],[-56.046396,-23.836498],[-56.046928,-23.836262],[-56.047118,-23.835684],[-56.047464,-23.835664],[-56.048249,-23.836316],[-56.048773,-23.835649],[-56.049667,-23.83662],[-56.050873,-23.837286],[-56.051211,-23.838368],[-56.052359,-23.838431],[-56.052597,-23.839671],[-56.053091,-23.839663],[-56.053528,-23.838938],[-56.05401,-23.838953],[-56.053848,-23.84086],[-56.054032,-23.841077],[-56.055157,-23.840891],[-56.055212,-23.8418],[-56.055578,-23.842359],[-56.057803,-23.843872],[-56.058768,-23.843662],[-56.059543,-23.844019],[-56.059846,-23.843101],[-56.060207,-23.842785],[-56.060737,-23.842913],[-56.060784,-23.843243],[-56.060211,-23.843898],[-56.060292,-23.84466],[-56.061628,-23.844395],[-56.061933,-23.844817],[-56.060877,-23.845697],[-56.061243,-23.846347],[-56.06087,-23.846753],[-56.061028,-23.847107],[-56.061397,-23.847256],[-56.062354,-23.846444],[-56.063021,-23.846426],[-56.063307,-23.846132],[-56.063424,-23.845269],[-56.062913,-23.844221],[-56.065243,-23.844883],[-56.066268,-23.844821],[-56.066804,-23.844131],[-56.067353,-23.845157],[-56.068345,-23.844561],[-56.068797,-23.845291],[-56.069596,-23.844103],[-56.069675,-23.84341],[-56.070215,-23.843788],[-56.070249,-23.844243],[-56.069375,-23.845635],[-56.069621,-23.845739],[-56.071482,-23.844534],[-56.072704,-23.844576],[-56.07219,-23.845697],[-56.073284,-23.846442],[-56.073143,-23.847134],[-56.073619,-23.848012],[-56.074027,-23.847946],[-56.074157,-23.847038],[-56.074453,-23.84704],[-56.075654,-23.848297],[-56.075871,-23.847333],[-56.076168,-23.847244],[-56.076476,-23.847416],[-56.076617,-23.848428],[-56.077383,-23.848341],[-56.078009,-23.84897],[-56.078219,-23.84888],[-56.078115,-23.847959],[-56.079591,-23.848764],[-56.080125,-23.848324],[-56.080458,-23.848439],[-56.080007,-23.849345],[-56.080363,-23.849643],[-56.081456,-23.848763],[-56.081813,-23.848902],[-56.082139,-23.849949],[-56.081615,-23.850775],[-56.083068,-23.849534],[-56.084776,-23.850873],[-56.083928,-23.851947],[-56.083973,-23.852607],[-56.084269,-23.852676],[-56.085586,-23.85156],[-56.086397,-23.852235],[-56.086705,-23.8541],[-56.087503,-23.854763],[-56.087164,-23.855454],[-56.088588,-23.855076],[-56.088863,-23.856316],[-56.090379,-23.856723],[-56.090458,-23.856121],[-56.090054,-23.855528],[-56.091275,-23.855865],[-56.091432,-23.856263],[-56.090574,-23.857144],[-56.090781,-23.857554],[-56.091413,-23.857342],[-56.091806,-23.85589],[-56.092374,-23.855882],[-56.093109,-23.856693],[-56.09359,-23.856764],[-56.092659,-23.857543],[-56.092741,-23.8581],[-56.093074,-23.85817],[-56.093805,-23.857811],[-56.094716,-23.856601],[-56.095148,-23.856535],[-56.095542,-23.85673],[-56.095137,-23.858216],[-56.095469,-23.858377],[-56.096336,-23.857973],[-56.096853,-23.858306],[-56.096256,-23.858847],[-56.096289,-23.859393],[-56.096932,-23.859363],[-56.097479,-23.858798],[-56.097807,-23.85964],[-56.098301,-23.859723],[-56.098699,-23.859225],[-56.100848,-23.859249],[-56.101099,-23.858717],[-56.101923,-23.859187],[-56.101794,-23.860027],[-56.102137,-23.860404],[-56.102874,-23.859306],[-56.102247,-23.858769],[-56.10225,-23.858337],[-56.103238,-23.858457],[-56.103937,-23.859074],[-56.104584,-23.858476],[-56.105127,-23.858479],[-56.10513,-23.859854],[-56.10685,-23.857682],[-56.108298,-23.857248],[-56.108692,-23.85733],[-56.108549,-23.858442],[-56.109494,-23.857505],[-56.110381,-23.857873],[-56.110029,-23.858769],[-56.111331,-23.85797],[-56.111583,-23.859084],[-56.112282,-23.857952],[-56.112985,-23.858172],[-56.113045,-23.858434],[-56.112172,-23.85961],[-56.111905,-23.860824],[-56.112322,-23.861156],[-56.113178,-23.858844],[-56.113585,-23.85888],[-56.114085,-23.859814],[-56.113915,-23.861336],[-56.114404,-23.862088],[-56.115919,-23.860893],[-56.116012,-23.859814],[-56.116434,-23.859544],[-56.116915,-23.859706],[-56.117122,-23.860116],[-56.116864,-23.861693],[-56.116356,-23.862009],[-56.11569,-23.861812],[-56.115403,-23.862219],[-56.11587,-23.862517],[-56.117107,-23.862376],[-56.116819,-23.862875],[-56.115579,-23.863651],[-56.115933,-23.864244],[-56.117107,-23.864183],[-56.118093,-23.864472],[-56.118267,-23.864291],[-56.117939,-23.863483],[-56.118288,-23.863065],[-56.118756,-23.863226],[-56.11911,-23.863853],[-56.119593,-23.863731],[-56.119263,-23.863082],[-56.118685,-23.862783],[-56.11859,-23.862226],[-56.117789,-23.861937],[-56.118038,-23.861598],[-56.119075,-23.861661],[-56.119205,-23.860741],[-56.119563,-23.860743],[-56.119962,-23.862086],[-56.121083,-23.862456],[-56.121573,-23.863106],[-56.122228,-23.863008],[-56.122431,-23.862214],[-56.121806,-23.861529],[-56.121675,-23.86088],[-56.122868,-23.859706],[-56.123493,-23.860459],[-56.123878,-23.860166],[-56.123971,-23.859178],[-56.12436,-23.860089],[-56.124094,-23.861167],[-56.124437,-23.861544],[-56.1256,-23.861312],[-56.126498,-23.861839],[-56.126875,-23.86083],[-56.127395,-23.860617],[-56.127616,-23.86088],[-56.127373,-23.86214],[-56.127924,-23.862881],[-56.128603,-23.86293],[-56.129585,-23.861959],[-56.129992,-23.862029],[-56.130014,-23.862416],[-56.129119,-23.863229],[-56.129177,-23.863876],[-56.130832,-23.86384],[-56.131963,-23.864665],[-56.132085,-23.864961],[-56.131242,-23.865422],[-56.132939,-23.866465],[-56.133254,-23.867466],[-56.134836,-23.867328],[-56.134747,-23.865828],[-56.135578,-23.865367],[-56.136143,-23.865835],[-56.135836,-23.867481],[-56.137592,-23.867059],[-56.138922,-23.865908],[-56.140195,-23.865767],[-56.140012,-23.865346],[-56.13836,-23.864871],[-56.138932,-23.864329],[-56.140141,-23.86454],[-56.14065,-23.864191],[-56.139138,-23.863092],[-56.139177,-23.862729],[-56.140821,-23.862579],[-56.141231,-23.862252],[-56.141868,-23.862993],[-56.143617,-23.862015],[-56.144293,-23.862405],[-56.143843,-23.863209],[-56.143746,-23.864867],[-56.144447,-23.865382],[-56.144965,-23.865499],[-56.145374,-23.865239],[-56.145416,-23.864569],[-56.145799,-23.864549],[-56.146839,-23.866043],[-56.147556,-23.86591],[-56.14874,-23.866246],[-56.149027,-23.865805],[-56.148725,-23.86477],[-56.149443,-23.864478],[-56.150675,-23.864951],[-56.150209,-23.866289],[-56.15079,-23.86636],[-56.151498,-23.865694],[-56.151542,-23.864626],[-56.151936,-23.864742],[-56.15353,-23.866682],[-56.1539,-23.866718],[-56.155818,-23.866251],[-56.155985,-23.865184],[-56.156733,-23.866018],[-56.15724,-23.866009],[-56.158928,-23.864655],[-56.159349,-23.864601],[-56.159811,-23.863876],[-56.160587,-23.864187],[-56.161282,-23.863702],[-56.161784,-23.864273],[-56.162503,-23.863982],[-56.162842,-23.86504],[-56.163946,-23.864251],[-56.16523,-23.864337],[-56.165554,-23.86393],[-56.165068,-23.862667],[-56.165613,-23.862386],[-56.167424,-23.863191],[-56.168021,-23.862467],[-56.169214,-23.863416],[-56.169376,-23.863133],[-56.168841,-23.861755],[-56.169612,-23.860908],[-56.171179,-23.861189],[-56.172132,-23.86091],[-56.172832,-23.861629],[-56.174461,-23.861877],[-56.174771,-23.86156],[-56.173972,-23.860977],[-56.173938,-23.860499],[-56.174422,-23.860184],[-56.175989,-23.86051],[-56.176499,-23.859934],[-56.176487,-23.861728],[-56.177142,-23.861732],[-56.177775,-23.861304],[-56.178167,-23.861726],[-56.178012,-23.862895],[-56.178941,-23.862457],[-56.179322,-23.862652],[-56.178713,-23.863319],[-56.179123,-23.864912],[-56.181716,-23.865073],[-56.182154,-23.866087],[-56.182426,-23.866134],[-56.183162,-23.865013],[-56.183608,-23.864743],[-56.184262,-23.864803],[-56.184568,-23.86535],[-56.183859,-23.866005],[-56.18445,-23.866372],[-56.184932,-23.866295],[-56.185207,-23.865785],[-56.18638,-23.865905],[-56.187581,-23.865468],[-56.188369,-23.865915],[-56.188973,-23.868009],[-56.190569,-23.867665],[-56.189859,-23.868547],[-56.190151,-23.869253],[-56.189897,-23.870433],[-56.191249,-23.871485],[-56.191732,-23.871386],[-56.191945,-23.870807],[-56.192538,-23.870901],[-56.192964,-23.871926],[-56.1933,-23.871394],[-56.194324,-23.871649],[-56.193996,-23.872704],[-56.193551,-23.872883],[-56.192663,-23.872549],[-56.192341,-23.872695],[-56.19288,-23.873471],[-56.19414,-23.873443],[-56.194316,-23.873001],[-56.194898,-23.872754],[-56.195151,-23.873857],[-56.195434,-23.873972],[-56.195806,-23.873793],[-56.196172,-23.872556],[-56.196456,-23.872456],[-56.196935,-23.872958],[-56.196937,-23.874582],[-56.197629,-23.874541],[-56.199983,-23.873485],[-56.200981,-23.873899],[-56.200384,-23.876531],[-56.202594,-23.876759],[-56.203123,-23.877159],[-56.20307,-23.877727],[-56.202388,-23.87811],[-56.202448,-23.87836],[-56.204314,-23.878369],[-56.204978,-23.87893],[-56.205586,-23.87849],[-56.205255,-23.877977],[-56.205529,-23.877626],[-56.206665,-23.877655],[-56.207009,-23.878065],[-56.206968,-23.878599],[-56.206335,-23.879152],[-56.206379,-23.880118],[-56.207461,-23.880851],[-56.206056,-23.882423],[-56.205461,-23.882669],[-56.205409,-23.883044],[-56.206112,-23.883286],[-56.20734,-23.882452],[-56.207859,-23.882421],[-56.208335,-23.883377],[-56.209507,-23.883781],[-56.209541,-23.884247],[-56.208427,-23.884627],[-56.208176,-23.88516],[-56.208286,-23.885479],[-56.209051,-23.885562],[-56.20942,-23.885905],[-56.209851,-23.886032],[-56.210427,-23.884876],[-56.210785,-23.884844],[-56.211552,-23.886677],[-56.210844,-23.887412],[-56.211149,-23.887947],[-56.210929,-23.889616],[-56.211692,-23.89004],[-56.213238,-23.889844],[-56.213384,-23.890185],[-56.212924,-23.890762],[-56.212056,-23.891235],[-56.213576,-23.893174],[-56.214008,-23.893267],[-56.214987,-23.892738],[-56.215089,-23.894306],[-56.216691,-23.894962],[-56.217329,-23.895783],[-56.217798,-23.895819],[-56.218913,-23.895257],[-56.219605,-23.895374],[-56.220032,-23.896274],[-56.219783,-23.896545],[-56.220009,-23.898],[-56.220537,-23.89848],[-56.222302,-23.898853],[-56.222912,-23.898151],[-56.223257,-23.898278],[-56.223389,-23.898858],[-56.224118,-23.898828],[-56.226141,-23.89952],[-56.227333,-23.900616],[-56.227741,-23.90055],[-56.228301,-23.899871],[-56.229533,-23.900514],[-56.229182,-23.901352],[-56.2295,-23.901888],[-56.230192,-23.901823],[-56.230491,-23.901507],[-56.23046,-23.900473],[-56.230746,-23.900111],[-56.231401,-23.900148],[-56.231732,-23.900513],[-56.231498,-23.9025],[-56.231842,-23.902797],[-56.233127,-23.902747],[-56.233849,-23.904011],[-56.235074,-23.903642],[-56.235201,-23.903109],[-56.234045,-23.902229],[-56.234134,-23.901707],[-56.234999,-23.901688],[-56.235586,-23.902816],[-56.235587,-23.904781],[-56.236143,-23.904659],[-56.236493,-23.904127],[-56.236501,-23.902695],[-56.237058,-23.902528],[-56.238077,-23.903657],[-56.239756,-23.903825],[-56.240261,-23.904145],[-56.241144,-23.905342],[-56.242011,-23.904983],[-56.243864,-23.905095],[-56.24382,-23.906174],[-56.24421,-23.907062],[-56.244752,-23.907428],[-56.245123,-23.90735],[-56.245298,-23.907067],[-56.244945,-23.906122],[-56.245891,-23.904866],[-56.245972,-23.903719],[-56.24835,-23.902799],[-56.249189,-23.902962],[-56.249635,-23.902749],[-56.249617,-23.901533],[-56.250002,-23.901205],[-56.251292,-23.902529],[-56.25186,-23.902703],[-56.252468,-23.902115],[-56.252451,-23.900774],[-56.252886,-23.900345],[-56.255182,-23.90081],[-56.255777,-23.900461],[-56.256032,-23.899019],[-56.256391,-23.898908],[-56.258178,-23.899814],[-56.260163,-23.898403],[-56.260562,-23.897712],[-56.262153,-23.898299],[-56.263082,-23.897872],[-56.263426,-23.898135],[-56.262816,-23.899041],[-56.263169,-23.899906],[-56.262359,-23.901106],[-56.263396,-23.903372],[-56.264149,-23.903512],[-56.264862,-23.902106],[-56.265246,-23.901892],[-56.268664,-23.902613],[-56.268549,-23.903294],[-56.267496,-23.903778],[-56.268445,-23.904339],[-56.270187,-23.904404],[-56.270321,-23.904734],[-56.269959,-23.905312],[-56.268968,-23.905682],[-56.26782,-23.905608],[-56.267941,-23.90604],[-56.269112,-23.906568],[-56.270316,-23.907767],[-56.271377,-23.907988],[-56.271815,-23.909308],[-56.272853,-23.909256],[-56.272776,-23.909733],[-56.271885,-23.910035],[-56.272056,-23.910445],[-56.273844,-23.911067],[-56.275899,-23.910372],[-56.276428,-23.910795],[-56.276535,-23.9115],[-56.277088,-23.912116],[-56.278507,-23.910328],[-56.279362,-23.909911],[-56.280371,-23.910564],[-56.280996,-23.911521],[-56.282661,-23.91204],[-56.283181,-23.911894],[-56.283269,-23.911577],[-56.282436,-23.91038],[-56.283205,-23.909759],[-56.28381,-23.909989],[-56.284843,-23.911253],[-56.28484,-23.911738],[-56.284464,-23.912282],[-56.283539,-23.9126],[-56.283251,-23.913003],[-56.283131,-23.91486],[-56.282222,-23.915866],[-56.282319,-23.9162],[-56.283127,-23.916113],[-56.284305,-23.914558],[-56.285294,-23.914563],[-56.286324,-23.916052],[-56.285442,-23.917623],[-56.286275,-23.91899],[-56.286735,-23.919189],[-56.288517,-23.918697],[-56.290338,-23.917131],[-56.290814,-23.917436],[-56.290018,-23.918507],[-56.290014,-23.919265],[-56.291022,-23.918694],[-56.291969,-23.917153],[-56.292743,-23.917293],[-56.293363,-23.918417],[-56.293842,-23.918252],[-56.294874,-23.916364],[-56.295731,-23.916307],[-56.29768,-23.915347],[-56.298766,-23.91567],[-56.299327,-23.915506],[-56.30006,-23.913994],[-56.300505,-23.91389],[-56.301163,-23.914211],[-56.301669,-23.915016],[-56.302788,-23.915309],[-56.304035,-23.91633],[-56.305142,-23.915759],[-56.306754,-23.916221],[-56.307447,-23.916057],[-56.308375,-23.915001],[-56.309147,-23.91555],[-56.309674,-23.915568],[-56.309793,-23.914871],[-56.309499,-23.914279],[-56.309765,-23.914008],[-56.31011,-23.914191],[-56.310644,-23.915951],[-56.311561,-23.916939],[-56.312208,-23.916245],[-56.312014,-23.915533],[-56.312346,-23.915049],[-56.314501,-23.91562],[-56.315123,-23.91644],[-56.315618,-23.916246],[-56.31576,-23.914474],[-56.316355,-23.914098],[-56.318047,-23.91506],[-56.319135,-23.914928],[-56.318916,-23.915866],[-56.319456,-23.916475],[-56.320724,-23.916571],[-56.321731,-23.916257],[-56.324542,-23.917527],[-56.324804,-23.917877],[-56.324484,-23.919193],[-56.324978,-23.919331],[-56.326074,-23.917594],[-56.326932,-23.917447],[-56.32726,-23.917751],[-56.327531,-23.919479],[-56.33013,-23.920308],[-56.33226,-23.919454],[-56.331966,-23.918892],[-56.330814,-23.918584],[-56.331164,-23.917829],[-56.332731,-23.917593],[-56.333404,-23.918096],[-56.333135,-23.919004],[-56.333365,-23.919292],[-56.334419,-23.919251],[-56.335792,-23.918318],[-56.336253,-23.918396],[-56.336499,-23.918609],[-56.336312,-23.919653],[-56.336936,-23.920065],[-56.337549,-23.919432],[-56.337655,-23.91816],[-56.340153,-23.916035],[-56.340746,-23.916219],[-56.340776,-23.916628],[-56.340078,-23.917822],[-56.340142,-23.918292],[-56.340435,-23.918929],[-56.341225,-23.91922],[-56.341704,-23.918995],[-56.341994,-23.916997],[-56.342817,-23.917061],[-56.343639,-23.917579],[-56.345471,-23.916875],[-56.346063,-23.917181],[-56.346602,-23.918107],[-56.34703,-23.918215],[-56.347426,-23.91805],[-56.347544,-23.917596],[-56.347186,-23.916625],[-56.34737,-23.916111],[-56.347683,-23.916067],[-56.348615,-23.91754],[-56.349687,-23.917226],[-56.352696,-23.915225],[-56.353618,-23.915486],[-56.353264,-23.916969],[-56.354347,-23.917867],[-56.355354,-23.917629],[-56.356149,-23.916799],[-56.356887,-23.917363],[-56.357513,-23.917441],[-56.357532,-23.91682],[-56.356599,-23.91562],[-56.356585,-23.915135],[-56.356917,-23.914697],[-56.357329,-23.914684],[-56.358544,-23.915552],[-56.359484,-23.912103],[-56.360719,-23.912153],[-56.362311,-23.910069],[-56.362789,-23.90995],[-56.363577,-23.910575],[-56.363534,-23.912665],[-56.364219,-23.914076],[-56.365385,-23.914975],[-56.366061,-23.914887],[-56.367531,-23.914014],[-56.368419,-23.914427],[-56.368762,-23.915034],[-56.369717,-23.915129],[-56.369984,-23.914388],[-56.368852,-23.913414],[-56.369118,-23.912869],[-56.370056,-23.913131],[-56.371376,-23.912742],[-56.371982,-23.913608],[-56.372344,-23.913595],[-56.37266,-23.913081],[-56.372353,-23.911792],[-56.37275,-23.911491],[-56.373587,-23.912145],[-56.373614,-23.913357],[-56.37465,-23.913771],[-56.37503,-23.913636],[-56.375427,-23.913213],[-56.375135,-23.912349],[-56.375286,-23.911865],[-56.378119,-23.911922],[-56.37873,-23.911666],[-56.379906,-23.910444],[-56.38078,-23.910115],[-56.380914,-23.909827],[-56.380473,-23.909023],[-56.380938,-23.908222],[-56.381907,-23.908801],[-56.381286,-23.911147],[-56.382702,-23.911349],[-56.383082,-23.911093],[-56.382889,-23.910229],[-56.383622,-23.908596],[-56.385092,-23.907814],[-56.384783,-23.906844],[-56.385049,-23.906375],[-56.386069,-23.906728],[-56.386308,-23.908349],[-56.386687,-23.908457],[-56.38715,-23.908126],[-56.387706,-23.905386],[-56.38825,-23.905328],[-56.388773,-23.906254],[-56.389037,-23.906255],[-56.389335,-23.905877],[-56.389658,-23.903743],[-56.390105,-23.90323],[-56.391927,-23.902995],[-56.391699,-23.902509],[-56.390893,-23.902082],[-56.3906,-23.901308],[-56.390914,-23.901218],[-56.392984,-23.902453],[-56.393448,-23.901895],[-56.392234,-23.900799],[-56.392286,-23.900179],[-56.393044,-23.900121],[-56.394621,-23.901142],[-56.395132,-23.901084],[-56.395465,-23.900312],[-56.395208,-23.898978],[-56.395506,-23.89854],[-56.397587,-23.897382],[-56.397478,-23.896109],[-56.397791,-23.896111],[-56.399347,-23.898161],[-56.399263,-23.898464],[-56.397912,-23.89855],[-56.397531,-23.898897],[-56.397907,-23.899519],[-56.398664,-23.899764],[-56.399389,-23.899752],[-56.400347,-23.899241],[-56.400303,-23.897983],[-56.400732,-23.897788],[-56.402015,-23.898232],[-56.402447,-23.897477],[-56.40304,-23.897434],[-56.403119,-23.898313],[-56.40287,-23.89863],[-56.40155,-23.899064],[-56.401118,-23.899835],[-56.401708,-23.900458],[-56.402861,-23.900538],[-56.403286,-23.901267],[-56.403583,-23.901298],[-56.404111,-23.900952],[-56.404446,-23.899848],[-56.406348,-23.898234],[-56.408093,-23.898513],[-56.409248,-23.898154],[-56.409504,-23.899897],[-56.410306,-23.90087],[-56.411905,-23.90077],[-56.415155,-23.899677],[-56.415621,-23.898754],[-56.415713,-23.896513],[-56.415896,-23.896089],[-56.416342,-23.896015],[-56.41757,-23.89752],[-56.417154,-23.898472],[-56.417562,-23.899322],[-56.419409,-23.899011],[-56.420036,-23.89868],[-56.42017,-23.898241],[-56.419271,-23.896799],[-56.419454,-23.896345],[-56.420808,-23.895593],[-56.4206,-23.894199],[-56.422548,-23.893343],[-56.423543,-23.891756],[-56.424943,-23.891943],[-56.425171,-23.892383],[-56.424226,-23.89394],[-56.424304,-23.894894],[-56.427288,-23.89436],[-56.427896,-23.89459],[-56.427942,-23.895377],[-56.426768,-23.896388],[-56.426468,-23.89719],[-56.42696,-23.897812],[-56.428757,-23.897471],[-56.429571,-23.895944],[-56.430938,-23.895919],[-56.431368,-23.895663],[-56.431689,-23.893771],[-56.432202,-23.893212],[-56.433143,-23.892867],[-56.43413,-23.893037],[-56.434602,-23.894539],[-56.43536,-23.894375],[-56.435429,-23.893633],[-56.434746,-23.89157],[-56.435474,-23.890907],[-56.436115,-23.891257],[-56.436587,-23.892698],[-56.438299,-23.89281],[-56.439826,-23.894043],[-56.440668,-23.893607],[-56.440706,-23.892531],[-56.441534,-23.891459],[-56.443343,-23.892147],[-56.444551,-23.890909],[-56.445917,-23.891217],[-56.446448,-23.890431],[-56.44578,-23.888581],[-56.445964,-23.888021],[-56.446542,-23.887675],[-56.447201,-23.887632],[-56.448186,-23.888438],[-56.447998,-23.890013],[-56.447301,-23.891252],[-56.447214,-23.892358],[-56.447886,-23.893072],[-56.449728,-23.889868],[-56.449853,-23.887611],[-56.449438,-23.884414],[-56.449638,-23.88399],[-56.451236,-23.883905],[-56.452436,-23.884561],[-56.453918,-23.884717],[-56.454004,-23.883885],[-56.452496,-23.881925],[-56.452861,-23.88129],[-56.453571,-23.88099],[-56.454622,-23.88169],[-56.454903,-23.88157],[-56.456431,-23.87844],[-56.457902,-23.877249],[-56.456475,-23.875971],[-56.45607,-23.874395],[-56.45609,-23.873425],[-56.457448,-23.871718],[-56.4575,-23.871158],[-56.456037,-23.870426],[-56.45591,-23.869304],[-56.456388,-23.869094],[-56.45736,-23.869082],[-56.46004,-23.870122],[-56.460952,-23.87273],[-56.46016,-23.873061],[-56.458581,-23.872404],[-56.458067,-23.873311],[-56.458888,-23.874056],[-56.459777,-23.874089],[-56.461048,-23.873503],[-56.461509,-23.873565],[-56.461704,-23.874005],[-56.461338,-23.874943],[-56.461764,-23.875475],[-56.463701,-23.87321],[-56.464394,-23.872773],[-56.465811,-23.872762],[-56.466603,-23.872326],[-56.465907,-23.869446],[-56.466913,-23.869116],[-56.467817,-23.869482],[-56.468856,-23.869335],[-56.468809,-23.868698],[-56.467611,-23.867709],[-56.467761,-23.86724],[-56.468289,-23.867],[-56.469425,-23.867064],[-56.469995,-23.868566],[-56.471768,-23.870056],[-56.473694,-23.870442],[-56.474224,-23.87154],[-56.474652,-23.871206],[-56.47476,-23.870174],[-56.475358,-23.868904],[-56.476057,-23.868409],[-56.476441,-23.868554],[-56.47647,-23.868898],[-56.475891,-23.870799],[-56.476033,-23.871651],[-56.47754,-23.871952],[-56.478021,-23.873675],[-56.47879,-23.873812],[-56.479365,-23.873221],[-56.47889,-23.872406],[-56.479184,-23.8717],[-56.480226,-23.871015],[-56.480974,-23.871304],[-56.480235,-23.873884],[-56.480452,-23.874324],[-56.480909,-23.87445],[-56.481774,-23.874099],[-56.482771,-23.874322],[-56.482957,-23.874648],[-56.482664,-23.87502],[-56.481498,-23.875523],[-56.481142,-23.875981],[-56.481514,-23.87668],[-56.482875,-23.876933],[-56.483688,-23.876644],[-56.484436,-23.874545],[-56.485343,-23.874205],[-56.485213,-23.872881],[-56.486579,-23.87221],[-56.486782,-23.870454],[-56.489811,-23.869044],[-56.490489,-23.869063],[-56.491099,-23.869802],[-56.48913,-23.872108],[-56.490309,-23.874217],[-56.491006,-23.874262],[-56.493206,-23.872901],[-56.494053,-23.873051],[-56.494475,-23.87352],[-56.494394,-23.874984],[-56.495797,-23.874969],[-56.496161,-23.874531],[-56.496316,-23.872986],[-56.497075,-23.87255],[-56.498105,-23.874598],[-56.499355,-23.874875],[-56.500115,-23.874332],[-56.499626,-23.873058],[-56.499677,-23.872543],[-56.500123,-23.872226],[-56.500995,-23.872653],[-56.501102,-23.874638],[-56.502204,-23.875141],[-56.502814,-23.875007],[-56.503129,-23.874538],[-56.502951,-23.873674],[-56.501937,-23.871778],[-56.501907,-23.870945],[-56.502851,-23.8696],[-56.504119,-23.869664],[-56.504872,-23.870833],[-56.505989,-23.871715],[-56.506559,-23.873398],[-56.506872,-23.873505],[-56.507451,-23.872689],[-56.508368,-23.86986],[-56.509555,-23.869666],[-56.510591,-23.870094],[-56.511976,-23.869795],[-56.513076,-23.870556],[-56.513588,-23.87024],[-56.514599,-23.868516],[-56.514455,-23.867425],[-56.514077,-23.867091],[-56.511822,-23.866871],[-56.511346,-23.86637],[-56.512934,-23.864542],[-56.51379,-23.864545],[-56.514827,-23.864881],[-56.515956,-23.866975],[-56.516761,-23.867326],[-56.518459,-23.866968],[-56.51966,-23.867411],[-56.520915,-23.866552],[-56.521672,-23.866781],[-56.521683,-23.868069],[-56.52211,-23.868449],[-56.523444,-23.868453],[-56.524253,-23.868001],[-56.525125,-23.868246],[-56.52479,-23.86976],[-56.524229,-23.870228],[-56.52286,-23.870572],[-56.522513,-23.870934],[-56.522594,-23.871313],[-56.523697,-23.871574],[-56.525974,-23.870475],[-56.526748,-23.870523],[-56.526959,-23.871266],[-56.526131,-23.87243],[-56.526212,-23.87296],[-56.526622,-23.873264],[-56.5271,-23.87316],[-56.528472,-23.871861],[-56.529263,-23.871773],[-56.529707,-23.872123],[-56.529027,-23.873226],[-56.52695,-23.87369],[-56.527078,-23.874841],[-56.527867,-23.875237],[-56.530634,-23.875216],[-56.531527,-23.874325],[-56.533105,-23.875193],[-56.534283,-23.87297],[-56.534861,-23.872547],[-56.535833,-23.87255],[-56.538332,-23.873739],[-56.538375,-23.875648],[-56.540428,-23.877245],[-56.54107,-23.877262],[-56.542275,-23.87669],[-56.542967,-23.876722],[-56.543328,-23.877102],[-56.543375,-23.877662],[-56.542413,-23.879568],[-56.54274,-23.880145],[-56.543481,-23.880389],[-56.544289,-23.880225],[-56.544603,-23.879893],[-56.544607,-23.878635],[-56.544954,-23.878318],[-56.546271,-23.878625],[-56.546958,-23.880112],[-56.547729,-23.880871],[-56.549867,-23.881817],[-56.550163,-23.882196],[-56.549908,-23.884468],[-56.548683,-23.886145],[-56.548515,-23.886917],[-56.549319,-23.88798],[-56.550506,-23.887726],[-56.55158,-23.886881],[-56.551994,-23.88614],[-56.552081,-23.884868],[-56.552444,-23.884611],[-56.553086,-23.884689],[-56.555269,-23.887104],[-56.555911,-23.88709],[-56.556408,-23.88644],[-56.558269,-23.886612],[-56.559888,-23.885117],[-56.560729,-23.884756],[-56.562045,-23.885427],[-56.562896,-23.887247],[-56.563389,-23.887369],[-56.564338,-23.886478],[-56.564832,-23.886411],[-56.588181,-23.861701],[-56.587502,-23.8608]]]}}]}
