{"type":"FeatureCollection","name":"distrito","features":[{"type":"Feature","properties":{"clave":"9-19","nombre":"Quyquyhó"},"geometry":{"type":"Polygon","coordinates":[[[-57.088246,-26.375679],[-57.085637,-26.374511],[-57.082871,-26.373596],[-57.082129,-26.373579],[-57.081158,-26.374026],[-57.078647,-26.370958],[-57.078081,-26.368732],[-57.077198,-26.367058],[-57.076919,-26.365491],[-57.075936,-26.364155],[-57.075596,-26.362864],[-57.076423,-26.360334],[-57.081321,-26.362563],[-57.087863,-26.358541],[-57.088374,-26.357178],[-57.090316,-26.355662],[-57.09024,-26.354409],[-57.090528,-26.353844],[-57.091313,-26.353505],[-57.091727,-26.353622],[-57.091964,-26.353013],[-57.092582,-26.352732],[-57.092648,-26.352448],[-57.09213,-26.352033],[-57.092259,-26.351383],[-57.093229,-26.351007],[-57.093623,-26.350091],[-57.094263,-26.350388],[-57.094649,-26.350266],[-57.095141,-26.34874],[-57.095844,-26.348225],[-57.096196,-26.346107],[-57.09731,-26.346282],[-57.099126,-26.344638],[-57.098759,-26.343193],[-57.099495,-26.342723],[-57.099785,-26.34187],[-57.101125,-26.341201],[-57.101664,-26.340103],[-57.102564,-26.340206],[-57.10384,-26.339424],[-57.104325,-26.338458],[-57.105093,-26.338557],[-57.105874,-26.3381],[-57.107053,-26.336465],[-57.108761,-26.336468],[-57.109064,-26.336242],[-57.109045,-26.335416],[-57.110414,-26.334828],[-57.111107,-26.332665],[-57.112268,-26.331316],[-57.110104,-26.330412],[-57.10848,-26.327421],[-57.10531,-26.323735],[-57.105464,-26.322413],[-57.106467,-26.321368],[-57.108162,-26.318027],[-57.109488,-26.314066],[-57.110243,-26.31332],[-57.111829,-26.310267],[-57.113696,-26.308893],[-57.114087,-26.308888],[-57.116516,-26.310349],[-57.120645,-26.311199],[-57.121462,-26.311117],[-57.127562,-26.310088],[-57.12808,-26.308474],[-57.127291,-26.307473],[-57.125758,-26.306337],[-57.125563,-26.303858],[-57.124809,-26.302355],[-57.125156,-26.301484],[-57.12254,-26.298976],[-57.12239,-26.297816],[-57.120548,-26.294463],[-57.118885,-26.292794],[-57.118787,-26.292062],[-57.118097,-26.291151],[-57.116487,-26.290394],[-57.115793,-26.290376],[-57.11407,-26.287344],[-57.112563,-26.286884],[-57.112063,-26.279882],[-57.11036,-26.27755],[-57.108943,-26.274697],[-57.108171,-26.274323],[-57.107241,-26.272482],[-57.106483,-26.271724],[-57.103839,-26.270755],[-57.099878,-26.26446],[-57.09927,-26.261562],[-57.101369,-26.256265],[-57.101498,-26.254639],[-57.100782,-26.254423],[-57.100386,-26.253787],[-57.100436,-26.251344],[-57.099363,-26.250379],[-57.097587,-26.249468],[-57.097124,-26.248286],[-57.097558,-26.247996],[-57.097392,-26.246958],[-57.098043,-26.245856],[-57.097771,-26.245603],[-57.098004,-26.244777],[-57.098654,-26.245074],[-57.099533,-26.244839],[-57.100053,-26.243976],[-57.100742,-26.24445],[-57.100816,-26.243813],[-57.101002,-26.244012],[-57.101228,-26.243669],[-57.101473,-26.244066],[-57.102211,-26.243266],[-57.102912,-26.243825],[-57.103102,-26.243202],[-57.103565,-26.243717],[-57.103822,-26.242619],[-57.104112,-26.243098],[-57.104432,-26.242547],[-57.105119,-26.243097],[-57.105991,-26.243205],[-57.106922,-26.242631],[-57.107124,-26.24361],[-57.107993,-26.242363],[-57.108981,-26.243609],[-57.108959,-26.244015],[-57.109159,-26.243798],[-57.109442,-26.243979],[-57.109395,-26.243604],[-57.109981,-26.243653],[-57.109855,-26.244227],[-57.110149,-26.244425],[-57.110419,-26.244348],[-57.110576,-26.243138],[-57.111089,-26.243557],[-57.111381,-26.241923],[-57.112295,-26.241999],[-57.11252,-26.241552],[-57.11221,-26.241299],[-57.11215,-26.240559],[-57.11182,-26.240645],[-57.111807,-26.240072],[-57.112257,-26.239873],[-57.112298,-26.239525],[-57.112892,-26.239583],[-57.112679,-26.239452],[-57.113196,-26.238788],[-57.112955,-26.238527],[-57.113255,-26.238373],[-57.113194,-26.23789],[-57.113624,-26.237384],[-57.113428,-26.237005],[-57.113749,-26.236765],[-57.1134,-26.236251],[-57.112867,-26.236346],[-57.11319,-26.235989],[-57.112789,-26.23575],[-57.113041,-26.235497],[-57.112539,-26.234852],[-57.113435,-26.234711],[-57.113918,-26.233839],[-57.114437,-26.234137],[-57.114248,-26.233428],[-57.114832,-26.233884],[-57.114946,-26.233134],[-57.115647,-26.233563],[-57.115504,-26.233152],[-57.115823,-26.232533],[-57.11624,-26.23293],[-57.116461,-26.232551],[-57.11737,-26.232591],[-57.117371,-26.232148],[-57.117709,-26.231981],[-57.117267,-26.231318],[-57.117651,-26.23115],[-57.117515,-26.230681],[-57.118024,-26.230509],[-57.117745,-26.229981],[-57.11807,-26.229777],[-57.117788,-26.229534],[-57.118314,-26.228937],[-57.117622,-26.228283],[-57.118906,-26.227488],[-57.118644,-26.227398],[-57.118146,-26.227881],[-57.117855,-26.227439],[-57.11731,-26.227354],[-57.117624,-26.22636],[-57.117411,-26.226121],[-57.116904,-26.226419],[-57.117161,-26.225146],[-57.116778,-26.225047],[-57.116543,-26.224451],[-57.117088,-26.224451],[-57.118085,-26.221587],[-57.119276,-26.220986],[-57.119608,-26.220295],[-57.120424,-26.220719],[-57.120651,-26.220118],[-57.12177,-26.219751],[-57.121889,-26.219349],[-57.121511,-26.218664],[-57.122945,-26.217272],[-57.122952,-26.217023],[-57.122487,-26.217119],[-57.122393,-26.216785],[-57.122034,-26.217119],[-57.12155,-26.216645],[-57.121538,-26.216131],[-57.121209,-26.215964],[-57.121458,-26.215607],[-57.120356,-26.213721],[-57.119081,-26.213528],[-57.118315,-26.213718],[-57.117247,-26.212929],[-57.117072,-26.212514],[-57.117495,-26.211931],[-57.117098,-26.211001],[-57.117573,-26.209109],[-57.116258,-26.208392],[-57.11704,-26.207507],[-57.116589,-26.20687],[-57.117068,-26.206337],[-57.11659,-26.206306],[-57.116351,-26.205977],[-57.116369,-26.205611],[-57.116886,-26.205362],[-57.115671,-26.204293],[-57.115935,-26.203065],[-57.115583,-26.202266],[-57.113549,-26.201455],[-57.113971,-26.20089],[-57.114489,-26.20094],[-57.114381,-26.199969],[-57.114767,-26.199296],[-57.116037,-26.199002],[-57.115874,-26.198415],[-57.116238,-26.198198],[-57.115988,-26.197977],[-57.116491,-26.197588],[-57.116021,-26.19748],[-57.115887,-26.195756],[-57.115432,-26.19549],[-57.115692,-26.195065],[-57.115425,-26.194501],[-57.11602,-26.193895],[-57.115477,-26.193715],[-57.115646,-26.193133],[-57.115413,-26.192582],[-57.116145,-26.192609],[-57.116044,-26.191904],[-57.116653,-26.192242],[-57.116998,-26.191737],[-57.116836,-26.191168],[-57.118678,-26.191464],[-57.119922,-26.192515],[-57.120365,-26.192262],[-57.120611,-26.192962],[-57.120617,-26.192226],[-57.121076,-26.192437],[-57.121082,-26.192],[-57.12151,-26.191968],[-57.122191,-26.191046],[-57.122528,-26.191398],[-57.123463,-26.191514],[-57.123354,-26.192553],[-57.123773,-26.192702],[-57.12571,-26.190944],[-57.126316,-26.191196],[-57.127442,-26.189692],[-57.127394,-26.188992],[-57.127766,-26.188468],[-57.128442,-26.188982],[-57.128909,-26.188471],[-57.129534,-26.188403],[-57.130368,-26.188858],[-57.131725,-26.188126],[-57.132082,-26.188532],[-57.132951,-26.188589],[-57.134199,-26.187414],[-57.134437,-26.18657],[-57.135166,-26.186641],[-57.135665,-26.185991],[-57.136184,-26.186135],[-57.136314,-26.186654],[-57.136712,-26.186839],[-57.137709,-26.186296],[-57.138236,-26.186697],[-57.138926,-26.186065],[-57.139899,-26.186082],[-57.140179,-26.184194],[-57.140587,-26.184866],[-57.141297,-26.184324],[-57.142069,-26.185068],[-57.142672,-26.184485],[-57.143215,-26.184638],[-57.143743,-26.183771],[-57.143802,-26.182814],[-57.144854,-26.182185],[-57.144526,-26.181923],[-57.144372,-26.178289],[-57.145502,-26.176333],[-57.146583,-26.17579],[-57.147147,-26.174602],[-57.147262,-26.172981],[-57.146668,-26.168205],[-57.14512,-26.167159],[-57.141797,-26.162205],[-57.140336,-26.155439],[-57.137813,-26.152475],[-57.13661,-26.149546],[-57.135449,-26.145191],[-57.130629,-26.139416],[-57.125037,-26.133416],[-57.123399,-26.132054],[-57.121475,-26.129762],[-57.119791,-26.126999],[-57.116949,-26.125599],[-57.107062,-26.122395],[-57.106361,-26.122587],[-57.105614,-26.122393],[-57.10549,-26.123116],[-57.104784,-26.123572],[-57.104836,-26.124312],[-57.103733,-26.124485],[-57.104131,-26.124909],[-57.105665,-26.125106],[-57.106327,-26.126027],[-57.106138,-26.127215],[-57.105051,-26.1282],[-57.101722,-26.129629],[-57.101139,-26.13092],[-57.100086,-26.131345],[-57.099462,-26.132023],[-57.093311,-26.134465],[-57.092415,-26.135486],[-57.090002,-26.136422],[-57.089207,-26.136382],[-57.089036,-26.136992],[-57.089321,-26.137664],[-57.088914,-26.138653],[-57.084016,-26.139221],[-57.083779,-26.13969],[-57.083979,-26.140756],[-57.082453,-26.141307],[-57.081993,-26.142007],[-57.078685,-26.143468],[-57.077251,-26.143527],[-57.076219,-26.144169],[-57.075117,-26.144273],[-57.073241,-26.143073],[-57.072058,-26.143516],[-57.069198,-26.143635],[-57.065818,-26.142806],[-57.064667,-26.142824],[-57.063663,-26.143358],[-57.061589,-26.143056],[-57.060394,-26.143215],[-57.059295,-26.142678],[-57.05809,-26.142592],[-57.052729,-26.143795],[-57.049433,-26.143729],[-57.047788,-26.143138],[-57.045965,-26.143635],[-57.045356,-26.144087],[-57.042967,-26.144471],[-57.042125,-26.144196],[-57.040965,-26.14221],[-57.036116,-26.138216],[-57.029565,-26.134727],[-57.026352,-26.135518],[-57.024895,-26.135347],[-57.015329,-26.135831],[-57.01401,-26.1358],[-57.013,-26.13519],[-57.009488,-26.134888],[-57.008109,-26.136039],[-57.007283,-26.136247],[-57.00562,-26.136067],[-57.0046,-26.135331],[-57.003403,-26.135349],[-57.002964,-26.134979],[-57.003244,-26.133791],[-57.002508,-26.131845],[-57.001484,-26.131168],[-57.000884,-26.131145],[-57.00081,-26.130608],[-57.000037,-26.130355],[-56.999757,-26.129597],[-56.998803,-26.12966],[-56.998669,-26.128924],[-56.997018,-26.129136],[-56.996591,-26.12868],[-56.996772,-26.127827],[-56.996435,-26.126983],[-56.99567,-26.126373],[-56.995547,-26.125831],[-56.995007,-26.12603],[-56.99467,-26.125755],[-56.993112,-26.125746],[-56.992778,-26.126495],[-56.992164,-26.126147],[-56.99112,-26.126116],[-56.990349,-26.125091],[-56.989281,-26.124842],[-56.988734,-26.124206],[-56.987495,-26.123641],[-56.986309,-26.121677],[-56.98532,-26.121505],[-56.984735,-26.121912],[-56.984159,-26.121803],[-56.983573,-26.12235],[-56.983135,-26.122115],[-56.982729,-26.122282],[-56.981722,-26.120354],[-56.98101,-26.119618],[-56.978674,-26.11969],[-56.977588,-26.119134],[-56.97689,-26.118105],[-56.975771,-26.117278],[-56.973032,-26.116298],[-56.972671,-26.115314],[-56.972101,-26.115147],[-56.971942,-26.115436],[-56.971408,-26.115426],[-56.970178,-26.114505],[-56.968112,-26.114812],[-56.966047,-26.114387],[-56.964977,-26.113705],[-56.964698,-26.112856],[-56.963175,-26.114458],[-56.96114,-26.114051],[-56.960429,-26.114891],[-56.959737,-26.114295],[-56.958865,-26.11508],[-56.958889,-26.115897],[-56.957686,-26.116556],[-56.956993,-26.11619],[-56.956537,-26.116827],[-56.95661,-26.117418],[-56.955671,-26.117888],[-56.955687,-26.118578],[-56.954854,-26.118339],[-56.954676,-26.119138],[-56.953837,-26.118803],[-56.954055,-26.119905],[-56.953324,-26.119639],[-56.95258,-26.118618],[-56.95142,-26.118356],[-56.951231,-26.117588],[-56.950288,-26.117696],[-56.949831,-26.118283],[-56.95007,-26.119312],[-56.949338,-26.119181],[-56.948732,-26.119601],[-56.949175,-26.120892],[-56.948777,-26.122341],[-56.948289,-26.122472],[-56.947986,-26.123059],[-56.946819,-26.12314],[-56.946937,-26.124314],[-56.945413,-26.12458],[-56.94567,-26.125085],[-56.944006,-26.125816],[-56.943607,-26.126954],[-56.944182,-26.127563],[-56.943727,-26.128863],[-56.944447,-26.129509],[-56.944139,-26.130742],[-56.942911,-26.131771],[-56.941671,-26.132],[-56.941984,-26.132579],[-56.940648,-26.133485],[-56.940621,-26.134],[-56.941412,-26.135021],[-56.940168,-26.134944],[-56.93946,-26.135295],[-56.939446,-26.135792],[-56.940451,-26.136158],[-56.940942,-26.136818],[-56.940851,-26.137883],[-56.939959,-26.137377],[-56.9392,-26.138013],[-56.938648,-26.137941],[-56.938321,-26.137674],[-56.938653,-26.137002],[-56.93822,-26.136731],[-56.93719,-26.138365],[-56.935905,-26.138811],[-56.935958,-26.139664],[-56.936327,-26.139836],[-56.936965,-26.139592],[-56.93772,-26.140415],[-56.937493,-26.140907],[-56.936866,-26.140789],[-56.936368,-26.141145],[-56.936452,-26.141931],[-56.936045,-26.142378],[-56.935107,-26.142431],[-56.934189,-26.14146],[-56.933847,-26.142639],[-56.932382,-26.14215],[-56.93226,-26.14383],[-56.930332,-26.144303],[-56.929614,-26.143354],[-56.928687,-26.143702],[-56.928736,-26.144203],[-56.92985,-26.14465],[-56.929015,-26.145661],[-56.92953,-26.146488],[-56.92971,-26.148366],[-56.927794,-26.152207],[-56.926699,-26.152947],[-56.925064,-26.155253],[-56.923714,-26.15653],[-56.922913,-26.158602],[-56.922085,-26.158728],[-56.922234,-26.159563],[-56.924499,-26.16119],[-56.92458,-26.161962],[-56.924123,-26.162635],[-56.922703,-26.162218],[-56.921864,-26.162349],[-56.920904,-26.163766],[-56.921045,-26.164412],[-56.922052,-26.164602],[-56.922858,-26.165343],[-56.921498,-26.166669],[-56.921845,-26.167306],[-56.921008,-26.168118],[-56.920306,-26.169468],[-56.920179,-26.170213],[-56.920496,-26.170804],[-56.919479,-26.172429],[-56.919266,-26.175765],[-56.91805,-26.176808],[-56.916607,-26.177069],[-56.916733,-26.178202],[-56.914628,-26.179063],[-56.914645,-26.179465],[-56.915254,-26.17993],[-56.91507,-26.180454],[-56.913719,-26.181058],[-56.912975,-26.181852],[-56.913918,-26.182124],[-56.912687,-26.183121],[-56.911872,-26.182867],[-56.911401,-26.183224],[-56.911206,-26.183856],[-56.911525,-26.185359],[-56.908664,-26.185981],[-56.908416,-26.186793],[-56.906918,-26.18691],[-56.907059,-26.188323],[-56.906242,-26.188232],[-56.906072,-26.188471],[-56.90613,-26.189848],[-56.906657,-26.190237],[-56.906711,-26.191153],[-56.906407,-26.191198],[-56.905207,-26.190105],[-56.904597,-26.190046],[-56.904852,-26.190719],[-56.904543,-26.191184],[-56.905132,-26.191658],[-56.904409,-26.19201],[-56.904369,-26.19256],[-56.903524,-26.192564],[-56.903694,-26.193382],[-56.902993,-26.194591],[-56.903134,-26.194794],[-56.903679,-26.194632],[-56.903827,-26.194985],[-56.902471,-26.195638],[-56.902788,-26.19637],[-56.903508,-26.196321],[-56.903437,-26.197061],[-56.904053,-26.197784],[-56.903298,-26.198479],[-56.902981,-26.197959],[-56.902664,-26.197964],[-56.901426,-26.199457],[-56.901148,-26.19915],[-56.901139,-26.197944],[-56.899723,-26.198625],[-56.900108,-26.199217],[-56.899474,-26.199411],[-56.899846,-26.199763],[-56.899489,-26.20011],[-56.899692,-26.200652],[-56.900357,-26.200246],[-56.900632,-26.200612],[-56.901277,-26.200532],[-56.90173,-26.200934],[-56.901134,-26.201493],[-56.902589,-26.201616],[-56.902044,-26.202586],[-56.903078,-26.203183],[-56.90251,-26.204018],[-56.901634,-26.20422],[-56.901266,-26.204798],[-56.902098,-26.204961],[-56.902175,-26.20525],[-56.901129,-26.20659],[-56.900765,-26.20659],[-56.900259,-26.206025],[-56.900123,-26.206513],[-56.899872,-26.206513],[-56.89951,-26.205966],[-56.899399,-26.206783],[-56.898651,-26.207225],[-56.89815,-26.207017],[-56.898668,-26.208047],[-56.897802,-26.208877],[-56.89822,-26.209509],[-56.896956,-26.210303],[-56.896759,-26.21093],[-56.895846,-26.211002],[-56.895937,-26.211454],[-56.8966,-26.211617],[-56.89571,-26.211828],[-56.895884,-26.212533],[-56.895494,-26.21293],[-56.894523,-26.21338],[-56.893497,-26.21328],[-56.89231,-26.214024],[-56.892396,-26.214765],[-56.891907,-26.214886],[-56.891652,-26.2155],[-56.889238,-26.214622],[-56.888646,-26.214888],[-56.88863,-26.216049],[-56.889499,-26.216054],[-56.889726,-26.215417],[-56.890158,-26.21572],[-56.890173,-26.216583],[-56.889146,-26.21688],[-56.889047,-26.217291],[-56.890033,-26.21758],[-56.890493,-26.218149],[-56.890142,-26.218587],[-56.89088,-26.218881],[-56.889861,-26.219138],[-56.88973,-26.219725],[-56.888392,-26.220396],[-56.889465,-26.220379],[-56.88972,-26.22084],[-56.890133,-26.22038],[-56.890571,-26.220962],[-56.891385,-26.22118],[-56.890268,-26.222298],[-56.889937,-26.223585],[-56.887935,-26.224983],[-56.888876,-26.225133],[-56.888642,-26.227774],[-56.887417,-26.227917],[-56.887054,-26.227],[-56.88666,-26.226869],[-56.886212,-26.227307],[-56.886392,-26.228557],[-56.884805,-26.228023],[-56.884848,-26.229247],[-56.885427,-26.229956],[-56.88412,-26.230131],[-56.884012,-26.230361],[-56.885097,-26.231288],[-56.884868,-26.231956],[-56.883119,-26.232117],[-56.882633,-26.234094],[-56.882142,-26.233931],[-56.882039,-26.233218],[-56.880354,-26.233731],[-56.879867,-26.233171],[-56.879533,-26.233288],[-56.879845,-26.234575],[-56.879576,-26.235306],[-56.880588,-26.235113],[-56.880792,-26.23547],[-56.879768,-26.236047],[-56.879057,-26.237197],[-56.879193,-26.238412],[-56.879811,-26.238661],[-56.879225,-26.239419],[-56.879717,-26.239478],[-56.88033,-26.23886],[-56.88072,-26.238964],[-56.881525,-26.240928],[-56.880491,-26.241749],[-56.879462,-26.241956],[-56.878765,-26.242506],[-56.877134,-26.243074],[-56.875169,-26.243108],[-56.875171,-26.244323],[-56.874652,-26.245437],[-56.874109,-26.245229],[-56.874529,-26.243984],[-56.874142,-26.243636],[-56.873455,-26.24368],[-56.872943,-26.244497],[-56.871601,-26.244925],[-56.871332,-26.245764],[-56.872118,-26.246442],[-56.872105,-26.246781],[-56.870232,-26.248607],[-56.869614,-26.248548],[-56.869089,-26.24774],[-56.868604,-26.24801],[-56.868558,-26.249247],[-56.867142,-26.24846],[-56.866308,-26.248757],[-56.865048,-26.248576],[-56.865146,-26.249077],[-56.865891,-26.249669],[-56.864472,-26.249753],[-56.864182,-26.251275],[-56.862691,-26.251287],[-56.862214,-26.251882],[-56.861212,-26.25236],[-56.862196,-26.255331],[-56.858671,-26.256114],[-56.857894,-26.257205],[-56.856851,-26.257936],[-56.856972,-26.25892],[-56.858271,-26.25954],[-56.858108,-26.260258],[-56.857313,-26.261137],[-56.857514,-26.262501],[-56.858404,-26.263138],[-56.859556,-26.263207],[-56.860684,-26.264183],[-56.860483,-26.265298],[-56.860794,-26.265624],[-56.861575,-26.265611],[-56.862406,-26.266009],[-56.863249,-26.265012],[-56.864058,-26.264986],[-56.864034,-26.265676],[-56.863456,-26.266511],[-56.863817,-26.268904],[-56.865002,-26.269172],[-56.866444,-26.268329],[-56.866876,-26.268402],[-56.867043,-26.269092],[-56.866167,-26.269882],[-56.867375,-26.270109],[-56.869179,-26.271252],[-56.869045,-26.271699],[-56.868268,-26.27201],[-56.868255,-26.272394],[-56.868621,-26.272525],[-56.869885,-26.272102],[-56.870179,-26.272657],[-56.869829,-26.273461],[-56.871216,-26.273638],[-56.871242,-26.274555],[-56.872609,-26.276077],[-56.873238,-26.276642],[-56.87462,-26.276887],[-56.875145,-26.278021],[-56.875936,-26.278419],[-56.875828,-26.278753],[-56.874355,-26.279068],[-56.874526,-26.27965],[-56.874983,-26.279723],[-56.875992,-26.279155],[-56.877004,-26.279418],[-56.877942,-26.279274],[-56.877886,-26.279987],[-56.877135,-26.280497],[-56.877064,-26.280876],[-56.878754,-26.282376],[-56.878646,-26.283667],[-56.880818,-26.283051],[-56.881352,-26.282121],[-56.882437,-26.282736],[-56.883518,-26.282926],[-56.883361,-26.28419],[-56.882694,-26.284556],[-56.882579,-26.284944],[-56.88302,-26.285332],[-56.883561,-26.285351],[-56.884375,-26.284607],[-56.884851,-26.28476],[-56.883978,-26.286353],[-56.885284,-26.287154],[-56.884687,-26.288083],[-56.88473,-26.288724],[-56.885504,-26.289249],[-56.8859,-26.290274],[-56.886647,-26.289809],[-56.888481,-26.29042],[-56.887924,-26.291269],[-56.888157,-26.291607],[-56.887818,-26.29233],[-56.886696,-26.293543],[-56.886494,-26.294672],[-56.887197,-26.295399],[-56.886472,-26.296473],[-56.887093,-26.297056],[-56.887376,-26.297837],[-56.887896,-26.297955],[-56.889245,-26.297279],[-56.889392,-26.298241],[-56.889898,-26.298521],[-56.890851,-26.297853],[-56.891199,-26.300057],[-56.891678,-26.299845],[-56.892157,-26.298897],[-56.89269,-26.298916],[-56.892914,-26.299304],[-56.892247,-26.299845],[-56.892126,-26.300383],[-56.893593,-26.300456],[-56.893751,-26.301043],[-56.894669,-26.301635],[-56.895231,-26.301405],[-56.89741,-26.301468],[-56.89809,-26.300061],[-56.900309,-26.300749],[-56.899444,-26.302087],[-56.900673,-26.302607],[-56.900985,-26.303847],[-56.900248,-26.305179],[-56.900445,-26.306569],[-56.899357,-26.306983],[-56.899235,-26.307456],[-56.900969,-26.30744],[-56.901167,-26.307833],[-56.899778,-26.308645],[-56.898498,-26.30854],[-56.898031,-26.308828],[-56.897864,-26.309422],[-56.898638,-26.309924],[-56.901025,-26.309297],[-56.901453,-26.310353],[-56.902419,-26.310723],[-56.902412,-26.311121],[-56.90133,-26.311726],[-56.902878,-26.312777],[-56.903389,-26.314063],[-56.902602,-26.314161],[-56.902614,-26.314564],[-56.904131,-26.315073],[-56.904284,-26.31539],[-56.904116,-26.317213],[-56.902529,-26.317725],[-56.902272,-26.318671],[-56.903135,-26.319069],[-56.904275,-26.319053],[-56.904871,-26.31749],[-56.905473,-26.317266],[-56.90642,-26.317612],[-56.906976,-26.318559],[-56.90855,-26.318363],[-56.908723,-26.318917],[-56.908043,-26.320157],[-56.909144,-26.320786],[-56.90888,-26.321951],[-56.910288,-26.322471],[-56.911031,-26.322028],[-56.910526,-26.320822],[-56.91214,-26.320027],[-56.912818,-26.320206],[-56.9129,-26.321106],[-56.913271,-26.321354],[-56.914539,-26.320178],[-56.915819,-26.321171],[-56.917048,-26.320284],[-56.917919,-26.320174],[-56.92076,-26.321093],[-56.922379,-26.321307],[-56.9265,-26.32283],[-56.927872,-26.323772],[-56.928072,-26.324507],[-56.926105,-26.326878],[-56.92606,-26.327448],[-56.927093,-26.327749],[-56.927248,-26.32826],[-56.925692,-26.32943],[-56.925647,-26.33031],[-56.926213,-26.331731],[-56.925979,-26.333232],[-56.926367,-26.334203],[-56.925122,-26.335634],[-56.925399,-26.336154],[-56.927287,-26.336445],[-56.927975,-26.337046],[-56.927697,-26.338547],[-56.927963,-26.339638],[-56.92744,-26.341079],[-56.927816,-26.3427],[-56.926983,-26.34342],[-56.92786,-26.344431],[-56.927459,-26.345262],[-56.927558,-26.348074],[-56.928546,-26.348234],[-56.928891,-26.347774],[-56.928869,-26.346794],[-56.929458,-26.346554],[-56.930057,-26.347144],[-56.929534,-26.348905],[-56.929689,-26.350146],[-56.931221,-26.350587],[-56.931087,-26.352118],[-56.932764,-26.352089],[-56.933541,-26.35302],[-56.933864,-26.35304],[-56.934941,-26.35235],[-56.935296,-26.353091],[-56.934962,-26.354492],[-56.936839,-26.355283],[-56.937627,-26.355994],[-56.93795,-26.355954],[-56.938494,-26.355044],[-56.938916,-26.355194],[-56.938571,-26.356705],[-56.938782,-26.357056],[-56.939571,-26.356956],[-56.940149,-26.356326],[-56.940804,-26.356213],[-56.940992,-26.356481],[-56.940704,-26.357938],[-56.941269,-26.360509],[-56.940814,-26.361909],[-56.941758,-26.363567],[-56.943113,-26.364127],[-56.946389,-26.364543],[-56.946326,-26.365551],[-56.946867,-26.365613],[-56.947327,-26.36526],[-56.947085,-26.364353],[-56.949199,-26.364516],[-56.950206,-26.363581],[-56.952227,-26.363061],[-56.953745,-26.363441],[-56.954287,-26.363322],[-56.955194,-26.36155],[-56.956221,-26.36165],[-56.956795,-26.363044],[-56.957127,-26.363133],[-56.958941,-26.362323],[-56.960018,-26.362495],[-56.960964,-26.36145],[-56.962397,-26.362032],[-56.963044,-26.36142],[-56.96403,-26.361084],[-56.965017,-26.360107],[-56.965697,-26.359905],[-56.966409,-26.360241],[-56.966492,-26.361152],[-56.967528,-26.362063],[-56.968415,-26.361593],[-56.969575,-26.361586],[-56.970586,-26.363132],[-56.971232,-26.36358],[-56.972011,-26.363617],[-56.973122,-26.362707],[-56.973885,-26.362714],[-56.975528,-26.364411],[-56.977654,-26.365],[-56.978667,-26.364888],[-56.979582,-26.363561],[-56.98172,-26.364558],[-56.982385,-26.364552],[-56.983087,-26.363892],[-56.983529,-26.364138],[-56.983908,-26.36476],[-56.983855,-26.366543],[-56.98247,-26.367065],[-56.982429,-26.367468],[-56.982935,-26.367678],[-56.986499,-26.367581],[-56.986648,-26.368193],[-56.98543,-26.369865],[-56.98525,-26.37056],[-56.985567,-26.370918],[-56.986698,-26.370582],[-56.987177,-26.370773],[-56.987637,-26.371994],[-56.98708,-26.373366],[-56.987625,-26.373336],[-56.988679,-26.372227],[-56.989532,-26.372282],[-56.98949,-26.372929],[-56.988119,-26.37421],[-56.987972,-26.37698],[-56.9889,-26.378197],[-56.988983,-26.378959],[-56.990164,-26.38038],[-56.99138,-26.381047],[-56.991789,-26.382511],[-56.992883,-26.382561],[-56.993812,-26.381983],[-56.994265,-26.382113],[-56.994364,-26.382501],[-56.993434,-26.383626],[-56.99459,-26.384237],[-56.994764,-26.384662],[-56.994012,-26.384802],[-56.992408,-26.384181],[-56.992128,-26.384674],[-56.993259,-26.384909],[-56.993894,-26.385626],[-56.995541,-26.386426],[-56.995914,-26.387955],[-56.996772,-26.387726],[-56.996921,-26.38693],[-56.99727,-26.386673],[-56.998115,-26.386723],[-57.000055,-26.38784],[-56.999309,-26.388999],[-56.996766,-26.390332],[-56.995019,-26.390551],[-56.994814,-26.390842],[-56.994801,-26.391223],[-56.995205,-26.391463],[-56.996275,-26.391217],[-56.996312,-26.391514],[-56.995106,-26.392757],[-56.995311,-26.393048],[-56.996654,-26.393362],[-56.995982,-26.394493],[-56.996977,-26.394734],[-56.997139,-26.395053],[-56.996268,-26.395378],[-56.996095,-26.396348],[-56.995092,-26.396244],[-56.993027,-26.399275],[-56.992994,-26.400156],[-56.993293,-26.400634],[-56.994669,-26.401067],[-56.995871,-26.401829],[-56.996377,-26.401784],[-56.997687,-26.40088],[-56.999751,-26.400933],[-57.000738,-26.402135],[-57.000498,-26.404255],[-57.001252,-26.40483],[-57.002114,-26.404196],[-57.002222,-26.402852],[-57.00354,-26.403105],[-57.004258,-26.401911],[-57.006192,-26.401891],[-57.008304,-26.402797],[-57.009011,-26.403404],[-57.009863,-26.405086],[-57.009918,-26.408551],[-57.007329,-26.412427],[-57.009062,-26.413317],[-57.014772,-26.41757],[-57.017067,-26.417986],[-57.023405,-26.417063],[-57.029343,-26.416978],[-57.030752,-26.414154],[-57.032295,-26.413088],[-57.0338,-26.412527],[-57.035688,-26.412575],[-57.040253,-26.413681],[-57.04228,-26.413247],[-57.043084,-26.411985],[-57.042549,-26.409627],[-57.042371,-26.404653],[-57.043191,-26.402847],[-57.044505,-26.401539],[-57.047004,-26.40076],[-57.048879,-26.400831],[-57.053036,-26.40181],[-57.0582,-26.402009],[-57.060649,-26.401184],[-57.062205,-26.400175],[-57.063366,-26.398993],[-57.064591,-26.396893],[-57.065561,-26.394793],[-57.066938,-26.385531],[-57.068015,-26.383564],[-57.071329,-26.379031],[-57.072628,-26.378308],[-57.074364,-26.377909],[-57.081709,-26.377695],[-57.084808,-26.37703],[-57.086989,-26.376147],[-57.087854,-26.376148],[-57.088246,-26.375679]]]}}]}
