{"type":"FeatureCollection","name":"distrito","features":[{"type":"Feature","properties":{"clave":"9-17","nombre":"Quiindy"},"geometry":{"type":"Polygon","coordinates":[[[-57.270589,-26.08619],[-57.301157,-26.087231],[-57.303202,-26.086798],[-57.304761,-26.08586],[-57.309862,-26.080969],[-57.311421,-26.080013],[-57.312241,-26.079874],[-57.312849,-26.076651],[-57.314233,-26.07625],[-57.314951,-26.075224],[-57.316657,-26.075071],[-57.318823,-26.074087],[-57.320695,-26.0742],[-57.322015,-26.07487],[-57.323121,-26.074768],[-57.324272,-26.07565],[-57.326165,-26.075646],[-57.327551,-26.076948],[-57.329742,-26.077155],[-57.332165,-26.076783],[-57.333885,-26.07561],[-57.3358,-26.075854],[-57.337839,-26.075005],[-57.3409,-26.07442],[-57.3423,-26.073324],[-57.343831,-26.073244],[-57.344399,-26.072443],[-57.344365,-26.073992],[-57.345709,-26.075217],[-57.347311,-26.078698],[-57.362392,-26.105068],[-57.376347,-26.128672],[-57.444012,-26.118601],[-57.456151,-26.116563],[-57.457751,-26.115678],[-57.458545,-26.115486],[-57.459061,-26.115687],[-57.45909,-26.115308],[-57.461759,-26.11492],[-57.464602,-26.113836],[-57.466596,-26.114069],[-57.468136,-26.11337],[-57.488729,-26.059954],[-57.48994,-26.058322],[-57.489963,-26.057232],[-57.489248,-26.055372],[-57.485055,-26.051034],[-57.484035,-26.049358],[-57.483765,-26.04721],[-57.484069,-26.046039],[-57.48549,-26.043913],[-57.491794,-26.039361],[-57.493891,-26.037408],[-57.494068,-26.036879],[-57.492939,-26.031035],[-57.49356,-26.029358],[-57.495579,-26.026956],[-57.499619,-26.025117],[-57.47605,-25.972293],[-57.446799,-25.932162],[-57.442369,-25.931792],[-57.431549,-25.922659],[-57.428152,-25.935541],[-57.417625,-25.935685],[-57.411902,-25.934175],[-57.389843,-25.925125],[-57.369806,-25.917294],[-57.36763,-25.917011],[-57.366981,-25.916548],[-57.366496,-25.914215],[-57.365353,-25.913468],[-57.365019,-25.912137],[-57.364145,-25.912031],[-57.362059,-25.912469],[-57.361307,-25.911907],[-57.360984,-25.910576],[-57.359167,-25.908025],[-57.359278,-25.907262],[-57.359997,-25.907066],[-57.36014,-25.906691],[-57.359415,-25.905013],[-57.357419,-25.904643],[-57.356937,-25.905001],[-57.35632,-25.904926],[-57.356466,-25.905521],[-57.353843,-25.905257],[-57.352816,-25.905634],[-57.35243,-25.907197],[-57.351957,-25.907307],[-57.35208,-25.907026],[-57.351782,-25.907027],[-57.351587,-25.907226],[-57.351365,-25.908667],[-57.350803,-25.90972],[-57.350218,-25.910268],[-57.34837,-25.910923],[-57.347896,-25.910806],[-57.347936,-25.910265],[-57.347237,-25.910343],[-57.346978,-25.909838],[-57.346415,-25.910521],[-57.344082,-25.910951],[-57.341572,-25.910384],[-57.341184,-25.911396],[-57.340486,-25.911741],[-57.34033,-25.911326],[-57.339304,-25.911793],[-57.335631,-25.910935],[-57.333986,-25.911042],[-57.331955,-25.91288],[-57.329491,-25.913942],[-57.329391,-25.914967],[-57.328141,-25.916595],[-57.327093,-25.917113],[-57.32693,-25.917596],[-57.326169,-25.917318],[-57.325574,-25.917933],[-57.325284,-25.917162],[-57.324956,-25.917804],[-57.323897,-25.917666],[-57.322317,-25.91897],[-57.3203,-25.918324],[-57.318624,-25.91845],[-57.317369,-25.918146],[-57.317029,-25.917663],[-57.316953,-25.916322],[-57.315903,-25.915842],[-57.314526,-25.916106],[-57.313378,-25.917504],[-57.312328,-25.917145],[-57.307601,-25.918185],[-57.306571,-25.917546],[-57.305564,-25.917855],[-57.304554,-25.916882],[-57.303372,-25.916884],[-57.300546,-25.917391],[-57.299211,-25.918247],[-57.297104,-25.918514],[-57.29533,-25.917321],[-57.294757,-25.914292],[-57.293872,-25.913653],[-57.293617,-25.912764],[-57.292934,-25.912021],[-57.291765,-25.911382],[-57.285074,-25.909377],[-57.283003,-25.909846],[-57.280151,-25.911816],[-57.278609,-25.911493],[-57.27759,-25.911793],[-57.274763,-25.913894],[-57.27384,-25.914162],[-57.271623,-25.91334],[-57.269966,-25.912331],[-57.267651,-25.912313],[-57.265031,-25.911659],[-57.263537,-25.912307],[-57.26103,-25.911942],[-57.259112,-25.911995],[-57.256557,-25.911028],[-57.254347,-25.912039],[-57.252851,-25.912042],[-57.250217,-25.913925],[-57.248888,-25.913778],[-57.246887,-25.914422],[-57.237271,-25.915526],[-57.229873,-25.918098],[-57.220627,-25.925512],[-57.215898,-25.9307],[-57.213316,-25.931755],[-57.210717,-25.932097],[-57.201297,-25.943027],[-57.188439,-25.943736],[-57.190037,-25.947194],[-57.189677,-25.948497],[-57.187883,-25.948567],[-57.185151,-25.949528],[-57.184431,-25.949235],[-57.183876,-25.948022],[-57.183089,-25.947818],[-57.179501,-25.948713],[-57.179927,-25.952262],[-57.179782,-25.956421],[-57.177742,-25.956526],[-57.174404,-25.956151],[-57.168079,-25.957924],[-57.165405,-25.958239],[-57.163851,-25.958035],[-57.163901,-25.958654],[-57.162745,-25.959031],[-57.163302,-25.960651],[-57.160864,-25.961892],[-57.158947,-25.960201],[-57.152539,-25.958411],[-57.150707,-25.95904],[-57.151266,-25.960706],[-57.151074,-25.960986],[-57.146857,-25.961428],[-57.140931,-25.96087],[-57.140549,-25.961908],[-57.140051,-25.967426],[-57.139025,-25.971242],[-57.138529,-25.971527],[-57.13661,-25.971299],[-57.133629,-25.971738],[-57.13259,-25.972988],[-57.130235,-25.972488],[-57.129835,-25.971499],[-57.129055,-25.970913],[-57.128261,-25.971776],[-57.126897,-25.972174],[-57.12666,-25.972689],[-57.125319,-25.973445],[-57.124648,-25.97615],[-57.124028,-25.97666],[-57.124491,-25.977301],[-57.124195,-25.977807],[-57.113165,-25.972673],[-57.112019,-25.971762],[-57.110796,-25.971477],[-57.107902,-25.971864],[-57.109117,-25.977584],[-57.109577,-25.981593],[-57.107197,-25.982074],[-57.106854,-25.982313],[-57.106934,-25.982787],[-57.106467,-25.983582],[-57.105666,-25.984278],[-57.105405,-25.984183],[-57.107867,-25.993403],[-57.108553,-25.993283],[-57.109249,-25.995155],[-57.110498,-25.999702],[-57.11057,-26.002239],[-57.11114,-26.003494],[-57.112426,-26.00473],[-57.113044,-26.006481],[-57.113571,-26.010644],[-57.113869,-26.011181],[-57.111891,-26.012329],[-57.11112,-26.014307],[-57.111121,-26.015653],[-57.112966,-26.01948],[-57.113386,-26.019863],[-57.114449,-26.019989],[-57.115086,-26.020566],[-57.114373,-26.022562],[-57.112541,-26.025173],[-57.11205,-26.026646],[-57.112137,-26.027304],[-57.111003,-26.027594],[-57.109636,-26.028885],[-57.109636,-26.02918],[-57.110619,-26.03055],[-57.110285,-26.031327],[-57.115505,-26.031465],[-57.116195,-26.032209],[-57.116997,-26.032344],[-57.117334,-26.031287],[-57.118448,-26.031201],[-57.11962,-26.030297],[-57.119841,-26.030689],[-57.120571,-26.030657],[-57.120732,-26.029298],[-57.121841,-26.02866],[-57.122518,-26.027685],[-57.125845,-26.027921],[-57.127157,-26.027762],[-57.128324,-26.027476],[-57.128017,-26.026863],[-57.128273,-26.026632],[-57.129457,-26.027101],[-57.130759,-26.027176],[-57.131281,-26.026666],[-57.135052,-26.026743],[-57.133552,-26.028695],[-57.132451,-26.029346],[-57.131693,-26.03062],[-57.131695,-26.032006],[-57.132987,-26.035884],[-57.13293,-26.037915],[-57.134377,-26.039268],[-57.134826,-26.040153],[-57.13301,-26.044999],[-57.133022,-26.045663],[-57.135256,-26.04911],[-57.137506,-26.050968],[-57.140673,-26.054414],[-57.13864,-26.055753],[-57.137516,-26.056865],[-57.138249,-26.062589],[-57.137453,-26.06412],[-57.136492,-26.065119],[-57.137192,-26.068265],[-57.137437,-26.068468],[-57.137976,-26.068327],[-57.137956,-26.069127],[-57.137243,-26.070012],[-57.136021,-26.070659],[-57.134633,-26.072444],[-57.133861,-26.075194],[-57.133944,-26.077239],[-57.133678,-26.07798],[-57.134345,-26.079505],[-57.135669,-26.080276],[-57.136205,-26.081102],[-57.13609,-26.081942],[-57.136434,-26.083147],[-57.13771,-26.084861],[-57.137569,-26.086622],[-57.140172,-26.09052],[-57.140909,-26.091161],[-57.141589,-26.091305],[-57.14199,-26.090984],[-57.14194,-26.089661],[-57.143419,-26.089623],[-57.14468,-26.088407],[-57.147515,-26.088165],[-57.148132,-26.087501],[-57.148655,-26.08518],[-57.149097,-26.084787],[-57.151835,-26.083763],[-57.157029,-26.082394],[-57.159006,-26.081417],[-57.159782,-26.081389],[-57.160919,-26.081871],[-57.161619,-26.080944],[-57.163732,-26.08101],[-57.164978,-26.078318],[-57.165677,-26.077761],[-57.166875,-26.077485],[-57.169423,-26.078222],[-57.172094,-26.077257],[-57.174184,-26.07711],[-57.175887,-26.077691],[-57.17854,-26.077538],[-57.179365,-26.078969],[-57.180372,-26.079572],[-57.180734,-26.080344],[-57.181429,-26.080497],[-57.182795,-26.081759],[-57.183544,-26.081568],[-57.184651,-26.082181],[-57.18455,-26.08261],[-57.186975,-26.084151],[-57.187435,-26.085306],[-57.188399,-26.085436],[-57.189847,-26.084883],[-57.191591,-26.085305],[-57.19427,-26.087211],[-57.195024,-26.088353],[-57.196128,-26.088356],[-57.198205,-26.087807],[-57.199087,-26.089223],[-57.198976,-26.090036],[-57.199452,-26.090852],[-57.199617,-26.092103],[-57.199961,-26.092594],[-57.200777,-26.092941],[-57.201862,-26.094705],[-57.202794,-26.097453],[-57.204744,-26.098475],[-57.206958,-26.097528],[-57.207669,-26.096322],[-57.209346,-26.095258],[-57.210077,-26.094309],[-57.210711,-26.094168],[-57.212026,-26.091579],[-57.214887,-26.089575],[-57.215276,-26.088857],[-57.216469,-26.089203],[-57.217371,-26.089115],[-57.221308,-26.090613],[-57.222894,-26.090895],[-57.226186,-26.090539],[-57.231794,-26.089285],[-57.233366,-26.087861],[-57.234841,-26.087325],[-57.237697,-26.08812],[-57.238916,-26.088867],[-57.240033,-26.08666],[-57.239653,-26.085974],[-57.240621,-26.085286],[-57.242119,-26.085545],[-57.242838,-26.085955],[-57.242639,-26.087563],[-57.257086,-26.086228],[-57.261357,-26.08637],[-57.261952,-26.086779],[-57.263687,-26.087133],[-57.265889,-26.0867],[-57.266827,-26.085962],[-57.268208,-26.085441],[-57.269548,-26.085619],[-57.270589,-26.08619]]]}}]}
