{"type":"FeatureCollection","name":"distrito","features":[{"type":"Feature","properties":{"clave":"2-0","nombre":"San Pedro del Ycuamandyyú"},"geometry":{"type":"Polygon","coordinates":[[[-57.109037,-24.137101],[-57.110384,-24.140061],[-57.111345,-24.140766],[-57.113075,-24.141011],[-57.114265,-24.140517],[-57.11511,-24.13967],[-57.116032,-24.139564],[-57.11611,-24.140621],[-57.115419,-24.141997],[-57.115882,-24.144183],[-57.119458,-24.146436],[-57.122571,-24.147421],[-57.126029,-24.147277],[-57.126914,-24.148546],[-57.126608,-24.150239],[-57.124458,-24.152003],[-57.126113,-24.154294],[-57.128497,-24.155596],[-57.131456,-24.156158],[-57.135564,-24.152805],[-57.138486,-24.153789],[-57.141948,-24.1577],[-57.145369,-24.157767],[-57.147056,-24.15491],[-57.148516,-24.154485],[-57.150861,-24.155223],[-57.151931,-24.152397],[-57.151645,-24.151652],[-57.151884,-24.151051],[-57.151675,-24.149732],[-57.151107,-24.149019],[-57.151262,-24.146874],[-57.150201,-24.145782],[-57.150025,-24.144631],[-57.148756,-24.143964],[-57.147903,-24.140076],[-57.150133,-24.13647],[-57.148253,-24.135293],[-57.146566,-24.133516],[-57.145992,-24.1318],[-57.146136,-24.129443],[-57.16171,-24.096435],[-57.150045,-24.090413],[-57.135861,-24.091142],[-57.136095,-24.087601],[-57.134892,-24.084897],[-57.134997,-24.083913],[-57.135713,-24.082815],[-57.135722,-24.082291],[-57.134308,-24.08049],[-57.133582,-24.080256],[-57.133296,-24.079276],[-57.129594,-24.039378],[-57.132797,-24.032363],[-57.130697,-24.031616],[-57.129762,-24.029905],[-57.129838,-24.028581],[-57.130965,-24.027438],[-57.132632,-24.023259],[-57.134963,-24.022363],[-57.13508,-24.021758],[-57.133873,-24.020508],[-57.133016,-24.01858],[-57.132976,-24.017437],[-57.133868,-24.015865],[-57.133438,-24.01358],[-57.134059,-24.012509],[-57.13398,-24.011511],[-57.130598,-24.010408],[-57.129198,-24.010373],[-57.126089,-24.010908],[-57.123906,-24.010183],[-57.123238,-24.010929],[-57.122737,-24.010911],[-57.120627,-24.008994],[-57.12027,-24.006347],[-57.119184,-24.006348],[-57.118913,-24.006579],[-57.119248,-24.008001],[-57.118978,-24.008728],[-57.117766,-24.007618],[-57.116304,-24.00733],[-57.11432,-24.006352],[-57.112919,-24.003594],[-57.111186,-24.002213],[-57.10964,-24.000317],[-57.108283,-24.000567],[-57.108409,-24.001659],[-57.107992,-24.001642],[-57.107365,-24.000987],[-57.106092,-24.001625],[-57.106282,-24.003711],[-57.105948,-24.004195],[-57.105217,-24.004019],[-57.10388,-24.002679],[-57.102774,-24.003027],[-57.101481,-24.004252],[-57.100813,-24.004157],[-57.100541,-24.003182],[-57.09958,-24.003237],[-57.098369,-24.001684],[-57.094465,-24.001533],[-57.092189,-24.000347],[-57.090978,-24.000235],[-57.090346,-23.998112],[-57.088305,-23.994144],[-57.087123,-23.993544],[-57.084882,-23.993735],[-57.083985,-23.993397],[-57.082884,-23.991564],[-57.082598,-23.990028],[-57.0817,-23.988118],[-57.081007,-23.987374],[-57.079417,-23.986548],[-57.078071,-23.983555],[-57.076501,-23.982012],[-57.078402,-23.977047],[-57.087258,-23.967648],[-57.087316,-23.953766],[-57.088653,-23.94779],[-57.093846,-23.938962],[-57.094699,-23.933994],[-57.094651,-23.931925],[-57.103513,-23.908821],[-57.104137,-23.90885],[-57.107761,-23.910382],[-57.111833,-23.910529],[-57.114764,-23.909928],[-57.118347,-23.909775],[-57.123556,-23.906777],[-57.132025,-23.90677],[-57.133815,-23.90572],[-57.13577,-23.906617],[-57.139515,-23.905565],[-57.142935,-23.905262],[-57.146192,-23.905559],[-57.149286,-23.904957],[-57.151892,-23.905703],[-57.155314,-23.907347],[-57.158084,-23.907793],[-57.161669,-23.910035],[-57.164928,-23.91093],[-57.168999,-23.910327],[-57.173397,-23.910921],[-57.179592,-23.915406],[-57.18286,-23.922589],[-57.193134,-23.93141],[-57.197863,-23.934548],[-57.199981,-23.934845],[-57.202312,-23.936824],[-57.205526,-23.93888],[-57.209253,-23.938944],[-57.210176,-23.939507],[-57.21053,-23.94092],[-57.210356,-23.94205],[-57.212596,-23.941885],[-57.211894,-23.942815],[-57.208822,-23.943868],[-57.208428,-23.944515],[-57.208516,-23.944958],[-57.208868,-23.945362],[-57.210186,-23.9454],[-57.214268,-23.944224],[-57.215016,-23.944949],[-57.214885,-23.945313],[-57.213482,-23.946808],[-57.213264,-23.94806],[-57.212782,-23.948666],[-57.211378,-23.949233],[-57.207605,-23.951983],[-57.20844,-23.952264],[-57.20967,-23.952141],[-57.211864,-23.950968],[-57.214934,-23.948421],[-57.21524,-23.947694],[-57.217301,-23.945713],[-57.218135,-23.945389],[-57.218925,-23.94559],[-57.220199,-23.945426],[-57.221118,-23.943811],[-57.222435,-23.943324],[-57.223789,-23.943762],[-57.221968,-23.951466],[-57.222138,-23.952921],[-57.229763,-23.951756],[-57.238152,-23.941788],[-57.255777,-23.943988],[-57.263052,-23.943976],[-57.271125,-23.939207],[-57.286309,-23.933831],[-57.299219,-23.923999],[-57.302275,-23.917456],[-57.304192,-23.907794],[-57.303044,-23.900664],[-57.293009,-23.893849],[-57.28104,-23.889265],[-57.265197,-23.886024],[-57.259533,-23.882022],[-57.253541,-23.875197],[-57.252723,-23.869701],[-57.255301,-23.865982],[-57.2674,-23.856898],[-57.272881,-23.851539],[-57.276094,-23.843064],[-57.272685,-23.835046],[-57.258772,-23.824075],[-57.25148,-23.811903],[-57.250498,-23.805218],[-57.252724,-23.787087],[-57.259012,-23.782173],[-57.272245,-23.77903],[-57.278042,-23.77159],[-57.271251,-23.76655],[-57.255742,-23.761376],[-57.253795,-23.756327],[-57.256661,-23.735966],[-57.266484,-23.724657],[-57.289699,-23.713322],[-57.294856,-23.710044],[-57.303242,-23.70765],[-57.306948,-23.705265],[-57.313067,-23.699904],[-57.34319,-23.680226],[-57.360435,-23.673501],[-57.375754,-23.671087],[-57.394927,-23.662718],[-57.402993,-23.662698],[-57.410083,-23.66045],[-57.419096,-23.65374],[-57.420376,-23.650467],[-57.421153,-23.641253],[-57.427255,-23.633064],[-57.438151,-23.611637],[-57.448108,-23.59987],[-57.458685,-23.581265],[-57.46315,-23.567285],[-57.468284,-23.560286],[-57.471302,-23.547795],[-57.473517,-23.536198],[-57.470085,-23.522984],[-57.465713,-23.516756],[-57.459078,-23.508604],[-57.451608,-23.491686],[-57.44705,-23.477583],[-57.438194,-23.477587],[-57.427419,-23.478992],[-57.42401,-23.479821],[-57.418574,-23.483644],[-57.415337,-23.484393],[-57.410662,-23.483956],[-57.409516,-23.484171],[-57.408515,-23.484967],[-57.408153,-23.488644],[-57.405817,-23.493437],[-57.405683,-23.496558],[-57.404455,-23.498386],[-57.403768,-23.498705],[-57.402792,-23.498416],[-57.401491,-23.494717],[-57.399307,-23.493136],[-57.396983,-23.492772],[-57.394462,-23.493466],[-57.39418,-23.495027],[-57.394532,-23.497591],[-57.395196,-23.499388],[-57.394999,-23.500393],[-57.393799,-23.501877],[-57.392738,-23.50188],[-57.390269,-23.500987],[-57.384416,-23.499706],[-57.377757,-23.497818],[-57.376524,-23.497768],[-57.375351,-23.498644],[-57.374552,-23.500021],[-57.375105,-23.503034],[-57.374737,-23.504542],[-57.374151,-23.505371],[-57.370897,-23.505557],[-57.366714,-23.506836],[-57.365829,-23.508293],[-57.363968,-23.509328],[-57.362047,-23.509491],[-57.356337,-23.508447],[-57.355159,-23.507709],[-57.351077,-23.503857],[-57.350015,-23.503621],[-57.346949,-23.504316],[-57.345802,-23.504266],[-57.343965,-23.503556],[-57.342844,-23.502712],[-57.341578,-23.500969],[-57.338705,-23.498754],[-57.33592,-23.49757],[-57.334742,-23.496753],[-57.333711,-23.49694],[-57.33225,-23.497869],[-57.331075,-23.497871],[-57.329898,-23.497371],[-57.329009,-23.497558],[-57.328528,-23.499807],[-57.327869,-23.50039],[-57.326463,-23.499997],[-57.321494,-23.496595],[-57.320433,-23.496439],[-57.317739,-23.49692],[-57.315332,-23.497904],[-57.314099,-23.497774],[-57.31094,-23.495797],[-57.307672,-23.496121],[-57.305889,-23.494114],[-57.305,-23.494037],[-57.303684,-23.495282],[-57.302939,-23.495337],[-57.300872,-23.494177],[-57.299668,-23.494285],[-57.298895,-23.495186],[-57.299302,-23.497301],[-57.298961,-23.498756],[-57.298303,-23.499339],[-57.297184,-23.499288],[-57.296522,-23.498364],[-57.296682,-23.492572],[-57.29579,-23.491251],[-57.293496,-23.49152],[-57.289453,-23.491475],[-57.288996,-23.492031],[-57.289232,-23.495336],[-57.288661,-23.496501],[-57.287487,-23.496926],[-57.285995,-23.496612],[-57.279592,-23.492841],[-57.278473,-23.49242],[-57.275692,-23.49232],[-57.273968,-23.490947],[-57.273621,-23.489097],[-57.272187,-23.488993],[-57.271729,-23.489629],[-57.271914,-23.496029],[-57.271258,-23.497722],[-57.270171,-23.498756],[-57.268996,-23.499154],[-57.267734,-23.498998],[-57.266672,-23.498418],[-57.265694,-23.49715],[-57.264801,-23.495168],[-57.264681,-23.492418],[-57.266163,-23.488052],[-57.267392,-23.485722],[-57.267703,-23.483924],[-57.267215,-23.483501],[-57.264147,-23.483163],[-57.263486,-23.48282],[-57.262883,-23.481975],[-57.263221,-23.478986],[-57.26236,-23.478485],[-57.256883,-23.478071],[-57.255794,-23.47839],[-57.255219,-23.479106],[-57.254477,-23.479397],[-57.252356,-23.479691],[-57.251638,-23.479401],[-57.250142,-23.476389],[-57.248477,-23.475572],[-57.247847,-23.475784],[-57.247017,-23.476632],[-57.245727,-23.476528],[-57.243374,-23.475686],[-57.242685,-23.475211],[-57.241678,-23.472885],[-57.240846,-23.472622],[-57.239814,-23.472782],[-57.239012,-23.473418],[-57.236376,-23.474215],[-57.236808,-23.475193],[-57.239101,-23.475058],[-57.23979,-23.475533],[-57.239734,-23.47622],[-57.23919,-23.476565],[-57.237384,-23.476938],[-57.23707,-23.477652],[-57.237273,-23.478551],[-57.237016,-23.479292],[-57.236472,-23.479584],[-57.235755,-23.479638],[-57.234349,-23.479164],[-57.232457,-23.47914],[-57.231596,-23.478666],[-57.231394,-23.477846],[-57.233166,-23.474855],[-57.232877,-23.473136],[-57.232446,-23.472873],[-57.231987,-23.472979],[-57.23136,-23.474673],[-57.230787,-23.474938],[-57.230185,-23.475071],[-57.227832,-23.474122],[-57.227374,-23.474388],[-57.227178,-23.477085],[-57.22672,-23.477588],[-57.225861,-23.477881],[-57.225172,-23.47767],[-57.224626,-23.476904],[-57.224049,-23.474683],[-57.222787,-23.474262],[-57.221069,-23.47556],[-57.221386,-23.476618],[-57.221071,-23.477041],[-57.220613,-23.477148],[-57.219465,-23.476647],[-57.218921,-23.476886],[-57.219036,-23.477652],[-57.220301,-23.479634],[-57.220073,-23.480401],[-57.219185,-23.480561],[-57.21815,-23.479293],[-57.217203,-23.478819],[-57.216429,-23.478873],[-57.215857,-23.479482],[-57.215518,-23.482312],[-57.214716,-23.483001],[-57.214085,-23.482896],[-57.213625,-23.482235],[-57.213164,-23.480887],[-57.211756,-23.478641],[-57.20946,-23.477295],[-57.208629,-23.477534],[-57.208572,-23.478011],[-57.209119,-23.479094],[-57.209005,-23.479676],[-57.207286,-23.48063],[-57.207144,-23.481265],[-57.20795,-23.483195],[-57.20775,-23.484094],[-57.20626,-23.484784],[-57.205285,-23.484494],[-57.204911,-23.483463],[-57.205825,-23.481611],[-57.205509,-23.480897],[-57.20482,-23.480554],[-57.203989,-23.480714],[-57.203246,-23.482408],[-57.20167,-23.482965],[-57.200465,-23.48257],[-57.199977,-23.481909],[-57.199947,-23.481248],[-57.20092,-23.479898],[-57.200919,-23.47929],[-57.200546,-23.478867],[-57.200029,-23.478736],[-57.199428,-23.47908],[-57.199115,-23.480985],[-57.198542,-23.481277],[-57.197739,-23.481145],[-57.197223,-23.480776],[-57.196704,-23.479401],[-57.196015,-23.478688],[-57.195097,-23.478451],[-57.193091,-23.478771],[-57.192259,-23.478508],[-57.190967,-23.477266],[-57.190365,-23.47732],[-57.190223,-23.477875],[-57.190797,-23.478615],[-57.19183,-23.479116],[-57.192577,-23.479882],[-57.192807,-23.480728],[-57.191805,-23.481893],[-57.190773,-23.481789],[-57.189998,-23.481261],[-57.189567,-23.480389],[-57.18945,-23.478987],[-57.188876,-23.478353],[-57.187901,-23.478116],[-57.187357,-23.478619],[-57.187128,-23.479386],[-57.187389,-23.481105],[-57.18696,-23.481978],[-57.186416,-23.482376],[-57.185699,-23.482192],[-57.18432,-23.480686],[-57.183058,-23.480185],[-57.182112,-23.480186],[-57.181855,-23.480821],[-57.18223,-23.482434],[-57.182001,-23.483201],[-57.181514,-23.483545],[-57.180539,-23.483176],[-57.180652,-23.481563],[-57.180219,-23.479553],[-57.179473,-23.479025],[-57.178039,-23.478762],[-57.177465,-23.478287],[-57.177377,-23.477282],[-57.17686,-23.476357],[-57.175196,-23.475433],[-57.174422,-23.475752],[-57.174251,-23.476413],[-57.175457,-23.477787],[-57.175458,-23.478501],[-57.173397,-23.481412],[-57.172796,-23.481598],[-57.172278,-23.480435],[-57.171618,-23.480356],[-57.170472,-23.481072],[-57.168437,-23.481391],[-57.167978,-23.481048],[-57.167977,-23.48036],[-57.168865,-23.479566],[-57.169779,-23.476815],[-57.169778,-23.475968],[-57.169347,-23.475308],[-57.168113,-23.474833],[-57.167944,-23.476473],[-57.166168,-23.477929],[-57.165396,-23.479834],[-57.16445,-23.48002],[-57.163905,-23.479704],[-57.163789,-23.478752],[-57.164476,-23.47764],[-57.164389,-23.476741],[-57.163987,-23.476186],[-57.163155,-23.475817],[-57.161922,-23.475739],[-57.160546,-23.476057],[-57.160031,-23.476957],[-57.158971,-23.477408],[-57.158914,-23.477963],[-57.159316,-23.478439],[-57.161065,-23.478649],[-57.162328,-23.479282],[-57.163246,-23.48018],[-57.163133,-23.481185],[-57.162474,-23.481768],[-57.161729,-23.481822],[-57.159203,-23.480079],[-57.156851,-23.478891],[-57.155847,-23.478866],[-57.154043,-23.480666],[-57.153355,-23.480825],[-57.151634,-23.47961],[-57.150544,-23.479611],[-57.150028,-23.480008],[-57.150432,-23.481727],[-57.150232,-23.482653],[-57.149631,-23.483129],[-57.14877,-23.482945],[-57.146415,-23.479589],[-57.146013,-23.478346],[-57.146124,-23.475622],[-57.14578,-23.475173],[-57.145121,-23.475411],[-57.144435,-23.477316],[-57.143604,-23.478084],[-57.142457,-23.478058],[-57.14174,-23.477451],[-57.141624,-23.476446],[-57.142194,-23.473113],[-57.141763,-23.472796],[-57.140273,-23.472956],[-57.138781,-23.472455],[-57.137348,-23.472906],[-57.136689,-23.472827],[-57.136258,-23.471849],[-57.136458,-23.471294],[-57.138981,-23.471238],[-57.139525,-23.471132],[-57.139783,-23.470709],[-57.139324,-23.470392],[-57.138206,-23.470446],[-57.137317,-23.470023],[-57.134906,-23.468016],[-57.134877,-23.467328],[-57.136137,-23.465872],[-57.135936,-23.465211],[-57.135448,-23.464974],[-57.133557,-23.466377],[-57.132754,-23.466166],[-57.13198,-23.4654],[-57.130747,-23.465136],[-57.130059,-23.465481],[-57.129973,-23.466142],[-57.130404,-23.466565],[-57.132411,-23.467092],[-57.132899,-23.467647],[-57.132843,-23.46852],[-57.132213,-23.469684],[-57.131555,-23.470478],[-57.130695,-23.47069],[-57.12992,-23.470374],[-57.128714,-23.468444],[-57.128026,-23.467942],[-57.125474,-23.467362],[-57.123723,-23.46583],[-57.122204,-23.465276],[-57.120225,-23.465171],[-57.117588,-23.465782],[-57.116873,-23.467633],[-57.116042,-23.468084],[-57.115354,-23.467846],[-57.115124,-23.467185],[-57.115696,-23.465757],[-57.115495,-23.465016],[-57.114778,-23.464461],[-57.113545,-23.464409],[-57.112485,-23.465124],[-57.111281,-23.465416],[-57.11065,-23.465231],[-57.110535,-23.464755],[-57.111136,-23.462957],[-57.110992,-23.462348],[-57.110332,-23.461582],[-57.108468,-23.461292],[-57.107752,-23.46161],[-57.10758,-23.46243],[-57.108815,-23.464862],[-57.108586,-23.465339],[-57.107956,-23.465365],[-57.107295,-23.463753],[-57.106434,-23.463092],[-57.105574,-23.463093],[-57.105087,-23.46341],[-57.10503,-23.463886],[-57.105604,-23.46505],[-57.105519,-23.465922],[-57.105061,-23.466637],[-57.104029,-23.467087],[-57.101421,-23.46738],[-57.100847,-23.466983],[-57.101878,-23.465766],[-57.102107,-23.465052],[-57.101504,-23.463942],[-57.101388,-23.462725],[-57.100241,-23.462197],[-57.09941,-23.462515],[-57.098437,-23.464049],[-57.097462,-23.464314],[-57.096602,-23.463786],[-57.096544,-23.46294],[-57.097804,-23.461537],[-57.097832,-23.460982],[-57.09743,-23.460057],[-57.096742,-23.459687],[-57.095567,-23.459635],[-57.092558,-23.461726],[-57.091698,-23.461329],[-57.090837,-23.460272],[-57.089948,-23.459929],[-57.086566,-23.460777],[-57.08132,-23.460674],[-57.080288,-23.460992],[-57.07937,-23.460543],[-57.079054,-23.459274],[-57.078079,-23.458243],[-57.07699,-23.458085],[-57.076417,-23.45864],[-57.076561,-23.459751],[-57.078568,-23.460702],[-57.0794,-23.462262],[-57.079229,-23.463267],[-57.078254,-23.463664],[-57.077193,-23.463162],[-57.076848,-23.46139],[-57.074124,-23.459593],[-57.072259,-23.457373],[-57.071485,-23.457162],[-57.070682,-23.457373],[-57.070253,-23.458088],[-57.070655,-23.459357],[-57.070283,-23.459992],[-57.069623,-23.460045],[-57.068992,-23.459067],[-57.068648,-23.459093],[-57.068333,-23.460495],[-57.06776,-23.460628],[-57.06733,-23.459993],[-57.067329,-23.458803],[-57.066927,-23.457587],[-57.06644,-23.457428],[-57.066211,-23.458698],[-57.065695,-23.459068],[-57.064176,-23.458857],[-57.061854,-23.459519],[-57.061137,-23.459202],[-57.061051,-23.45862],[-57.061395,-23.45825],[-57.06257,-23.457959],[-57.063115,-23.45735],[-57.062971,-23.456107],[-57.061594,-23.4555],[-57.060592,-23.45706],[-57.059847,-23.45751],[-57.059101,-23.45751],[-57.058155,-23.456929],[-57.05718,-23.455766],[-57.056749,-23.454682],[-57.056806,-23.453518],[-57.056405,-23.452936],[-57.055774,-23.452884],[-57.055574,-23.4541],[-57.054943,-23.454788],[-57.05265,-23.453969],[-57.04944,-23.455451],[-57.048608,-23.455293],[-57.04815,-23.454658],[-57.048293,-23.454155],[-57.049754,-23.453626],[-57.050471,-23.452409],[-57.050269,-23.450796],[-57.04961,-23.450188],[-57.048865,-23.450003],[-57.048033,-23.450532],[-57.047977,-23.452331],[-57.047461,-23.452939],[-57.046716,-23.453098],[-57.045884,-23.452728],[-57.046113,-23.45048],[-57.045511,-23.450216],[-57.043791,-23.450798],[-57.043074,-23.450613],[-57.042758,-23.448524],[-57.042013,-23.448101],[-57.041525,-23.446832],[-57.040665,-23.446832],[-57.039748,-23.447255],[-57.039003,-23.447123],[-57.038228,-23.445246],[-57.035046,-23.443977],[-57.032925,-23.442126],[-57.031979,-23.442021],[-57.030403,-23.442338],[-57.030116,-23.44292],[-57.03069,-23.444031],[-57.03046,-23.444586],[-57.029772,-23.444851],[-57.029171,-23.444639],[-57.028454,-23.443555],[-57.027622,-23.443159],[-57.026734,-23.443318],[-57.026505,-23.444058],[-57.026591,-23.444613],[-57.027594,-23.445169],[-57.028168,-23.446015],[-57.030174,-23.446729],[-57.031436,-23.44768],[-57.03155,-23.448315],[-57.031092,-23.448738],[-57.030289,-23.448686],[-57.0292,-23.447681],[-57.027308,-23.446703],[-57.025703,-23.447919],[-57.025101,-23.447761],[-57.024126,-23.446703],[-57.023381,-23.446465],[-57.022406,-23.446677],[-57.021833,-23.447391],[-57.021461,-23.448793],[-57.020945,-23.449137],[-57.020314,-23.449005],[-57.019683,-23.447206],[-57.019024,-23.44681],[-57.017189,-23.446651],[-57.016157,-23.446202],[-57.015699,-23.444615],[-57.014838,-23.443504],[-57.013377,-23.443134],[-57.011399,-23.44451],[-57.011342,-23.445541],[-57.013004,-23.447181],[-57.012976,-23.447947],[-57.012345,-23.448609],[-57.011715,-23.448582],[-57.008676,-23.445858],[-57.008361,-23.446097],[-57.008504,-23.447525],[-57.007186,-23.449217],[-57.0071,-23.450487],[-57.006612,-23.451359],[-57.005781,-23.45173],[-57.001395,-23.450381],[-57.000736,-23.450011],[-56.999389,-23.447922],[-56.997927,-23.447419],[-56.997296,-23.447842],[-56.998328,-23.449958],[-56.998213,-23.451122],[-56.997439,-23.452259],[-56.996551,-23.452179],[-56.995863,-23.45165],[-56.992509,-23.447948],[-56.991506,-23.447525],[-56.990589,-23.44771],[-56.990044,-23.448635],[-56.990015,-23.450354],[-56.989241,-23.451544],[-56.988209,-23.452073],[-56.987292,-23.451862],[-56.986547,-23.451095],[-56.985028,-23.448661],[-56.984225,-23.448555],[-56.982591,-23.449454],[-56.981416,-23.449639],[-56.980327,-23.449216],[-56.979582,-23.448158],[-56.979352,-23.448205],[-56.978078,-23.450355],[-56.977953,-23.451886],[-56.976335,-23.452265],[-56.9765,-23.454717],[-56.976127,-23.455327],[-56.974633,-23.456822],[-56.973057,-23.457124],[-56.971522,-23.458501],[-56.971439,-23.459843],[-56.970401,-23.462982],[-56.970981,-23.464436],[-56.970898,-23.465583],[-56.96957,-23.466847],[-56.966998,-23.468224],[-56.966998,-23.469868],[-56.966582,-23.47121],[-56.967411,-23.476259],[-56.966456,-23.477447],[-56.966456,-23.477831],[-56.966622,-23.47821],[-56.967991,-23.478671],[-56.968406,-23.479322],[-56.968332,-23.483199],[-56.971677,-23.483441],[-56.959314,-23.521915],[-56.932975,-23.560066],[-56.940008,-23.577294],[-56.94624,-23.627715],[-56.961631,-23.672423],[-56.972184,-23.695064],[-56.96775,-23.695326],[-56.950502,-23.694866],[-56.925149,-23.693518],[-56.919072,-23.693511],[-56.917554,-23.693161],[-56.910449,-23.692645],[-56.908464,-23.693177],[-56.907252,-23.693159],[-56.90666,-23.693499],[-56.905242,-23.695918],[-56.904242,-23.697025],[-56.900946,-23.699084],[-56.893293,-23.700135],[-56.891572,-23.700698],[-56.888807,-23.702354],[-56.884624,-23.702672],[-56.883094,-23.70171],[-56.880905,-23.701012],[-56.878602,-23.698976],[-56.877657,-23.698893],[-56.875886,-23.699609],[-56.872726,-23.702624],[-56.85983,-23.711296],[-56.849939,-23.719816],[-56.8409,-23.721761],[-56.840601,-23.721647],[-56.837619,-23.714866],[-56.836642,-23.71354],[-56.829959,-23.718702],[-56.827595,-23.721408],[-56.827272,-23.721169],[-56.827013,-23.720589],[-56.827598,-23.719729],[-56.827293,-23.718757],[-56.824625,-23.714085],[-56.820256,-23.70861],[-56.818743,-23.705431],[-56.817076,-23.703039],[-56.814127,-23.700271],[-56.749481,-23.725405],[-56.747978,-23.726229],[-56.746495,-23.727242],[-56.745171,-23.729006],[-56.743508,-23.729906],[-56.742866,-23.730664],[-56.742663,-23.731806],[-56.740354,-23.735727],[-56.74005,-23.737493],[-56.738806,-23.738872],[-56.737998,-23.742448],[-56.736795,-23.743589],[-56.734811,-23.744597],[-56.731724,-23.746786],[-56.730162,-23.747226],[-56.727216,-23.748806],[-56.72562,-23.749345],[-56.725143,-23.750234],[-56.723621,-23.751162],[-56.722858,-23.752014],[-56.722677,-23.754114],[-56.721891,-23.756285],[-56.718869,-23.761261],[-56.713378,-23.766187],[-56.710998,-23.767086],[-56.708379,-23.769529],[-56.706225,-23.77059],[-56.706512,-23.770925],[-56.70636,-23.771254],[-56.704523,-23.772222],[-56.704318,-23.773152],[-56.703533,-23.773277],[-56.704006,-23.776006],[-56.706837,-23.782008],[-56.707367,-23.786002],[-56.709834,-23.787321],[-56.712634,-23.790347],[-56.71339,-23.792995],[-56.713978,-23.793588],[-56.716455,-23.795065],[-56.718416,-23.795037],[-56.718484,-23.796613],[-56.718854,-23.79707],[-56.719376,-23.797075],[-56.719948,-23.796444],[-56.720639,-23.796617],[-56.720906,-23.797471],[-56.720589,-23.79869],[-56.721754,-23.800119],[-56.722439,-23.800206],[-56.723968,-23.7995],[-56.724418,-23.800323],[-56.725557,-23.80097],[-56.727078,-23.80394],[-56.728504,-23.804291],[-56.728237,-23.806056],[-56.729396,-23.80721],[-56.729212,-23.807702],[-56.729711,-23.808637],[-56.730238,-23.808859],[-56.731479,-23.808758],[-56.732232,-23.809644],[-56.733128,-23.809926],[-56.734179,-23.812502],[-56.734966,-23.813298],[-56.734603,-23.815921],[-56.735284,-23.816844],[-56.735391,-23.81758],[-56.736435,-23.818097],[-56.736753,-23.819452],[-56.737668,-23.820452],[-56.737716,-23.821577],[-56.739034,-23.821516],[-56.738233,-23.823005],[-56.738571,-23.82417],[-56.738437,-23.824933],[-56.73953,-23.825879],[-56.739627,-23.826493],[-56.741085,-23.827408],[-56.740962,-23.828018],[-56.739829,-23.828567],[-56.739671,-23.828937],[-56.740404,-23.830022],[-56.741037,-23.829499],[-56.741326,-23.829901],[-56.740968,-23.830438],[-56.739908,-23.830951],[-56.740806,-23.832619],[-56.739666,-23.833317],[-56.739508,-23.83432],[-56.740048,-23.834781],[-56.741648,-23.834951],[-56.742106,-23.835358],[-56.742168,-23.835733],[-56.741256,-23.837078],[-56.742318,-23.83777],[-56.742842,-23.837568],[-56.742893,-23.837966],[-56.742696,-23.838331],[-56.741731,-23.838767],[-56.741486,-23.839968],[-56.742311,-23.840543],[-56.742511,-23.839826],[-56.74338,-23.839877],[-56.744194,-23.841337],[-56.745541,-23.842558],[-56.745435,-23.843312],[-56.744774,-23.844084],[-56.744911,-23.844721],[-56.74527,-23.84515],[-56.746346,-23.845455],[-56.745924,-23.846416],[-56.746311,-23.847437],[-56.746047,-23.848137],[-56.745021,-23.849318],[-56.743721,-23.848743],[-56.743561,-23.849777],[-56.742933,-23.85053],[-56.744261,-23.852627],[-56.743671,-23.853891],[-56.744237,-23.855197],[-56.743091,-23.856378],[-56.743195,-23.857363],[-56.743699,-23.857874],[-56.744829,-23.857831],[-56.745502,-23.858609],[-56.744767,-23.859448],[-56.746395,-23.86011],[-56.746607,-23.860449],[-56.746465,-23.861185],[-56.744722,-23.861981],[-56.744559,-23.863056],[-56.743438,-23.863971],[-56.743875,-23.866916],[-56.745459,-23.867641],[-56.744546,-23.869044],[-56.745223,-23.870314],[-56.745492,-23.871905],[-56.744844,-23.87338],[-56.744929,-23.874207],[-56.744161,-23.875163],[-56.744497,-23.875597],[-56.745463,-23.875685],[-56.745346,-23.876773],[-56.744565,-23.877575],[-56.745034,-23.878208],[-56.746185,-23.878576],[-56.746332,-23.878969],[-56.746059,-23.879809],[-56.745092,-23.880331],[-56.744055,-23.883658],[-56.743251,-23.884212],[-56.743414,-23.88559],[-56.741958,-23.886522],[-56.74104,-23.889018],[-56.738999,-23.892212],[-56.737034,-23.894295],[-56.737453,-23.895375],[-56.738356,-23.894948],[-56.738723,-23.895192],[-56.738328,-23.895851],[-56.738662,-23.897021],[-56.737974,-23.897995],[-56.738332,-23.898664],[-56.737623,-23.898618],[-56.737208,-23.898929],[-56.737106,-23.899417],[-56.737463,-23.899982],[-56.737235,-23.90041],[-56.735981,-23.899984],[-56.735477,-23.900082],[-56.735066,-23.900673],[-56.73484,-23.902091],[-56.733253,-23.902463],[-56.732851,-23.902977],[-56.732709,-23.903695],[-56.733634,-23.904026],[-56.733723,-23.904324],[-56.732121,-23.905482],[-56.731929,-23.906281],[-56.731243,-23.907116],[-56.731307,-23.908254],[-56.73037,-23.908586],[-56.729657,-23.90989],[-56.729389,-23.910947],[-56.729578,-23.912026],[-56.729017,-23.913023],[-56.729517,-23.914004],[-56.72848,-23.914142],[-56.727832,-23.915677],[-56.727864,-23.915948],[-56.728695,-23.916216],[-56.728432,-23.916879],[-56.727447,-23.916701],[-56.72647,-23.917309],[-56.725567,-23.91724],[-56.725735,-23.918008],[-56.726477,-23.918095],[-56.726571,-23.918443],[-56.725825,-23.91911],[-56.724582,-23.918972],[-56.724604,-23.91965],[-56.725229,-23.920148],[-56.725117,-23.920522],[-56.723158,-23.920591],[-56.723096,-23.921015],[-56.723838,-23.921401],[-56.723739,-23.922105],[-56.722867,-23.921769],[-56.722348,-23.921931],[-56.721944,-23.92156],[-56.721358,-23.922259],[-56.720523,-23.922506],[-56.720572,-23.923761],[-56.718814,-23.923722],[-56.718634,-23.9243],[-56.717665,-23.925264],[-56.716378,-23.925592],[-56.716683,-23.926279],[-56.716416,-23.926897],[-56.71458,-23.9266],[-56.71337,-23.928368],[-56.711314,-23.928549],[-56.709162,-23.930045],[-56.70814,-23.930178],[-56.708167,-23.930977],[-56.708623,-23.931272],[-56.708752,-23.931782],[-56.707344,-23.932471],[-56.70722,-23.933902],[-56.706637,-23.934863],[-56.707116,-23.935957],[-56.706438,-23.936317],[-56.705818,-23.935995],[-56.705329,-23.936391],[-56.701989,-23.937514],[-56.7021,-23.93825],[-56.703437,-23.939192],[-56.703875,-23.942373],[-56.703286,-23.943559],[-56.702276,-23.943778],[-56.700751,-23.943288],[-56.698268,-23.941847],[-56.69756,-23.942329],[-56.697455,-23.943196],[-56.698867,-23.944675],[-56.70195,-23.945887],[-56.70221,-23.947369],[-56.702658,-23.947744],[-56.704519,-23.947974],[-56.707125,-23.94727],[-56.708074,-23.947615],[-56.708244,-23.948207],[-56.708002,-23.94915],[-56.705909,-23.950393],[-56.705132,-23.952076],[-56.705246,-23.953038],[-56.705657,-23.953477],[-56.707666,-23.953435],[-56.708293,-23.953938],[-56.70819,-23.954886],[-56.70688,-23.956189],[-56.707192,-23.957038],[-56.7083,-23.95714],[-56.710588,-23.954999],[-56.71242,-23.954609],[-56.7133,-23.954963],[-56.713638,-23.955551],[-56.713455,-23.957158],[-56.712292,-23.958543],[-56.712785,-23.959555],[-56.713485,-23.959787],[-56.714203,-23.959657],[-56.715866,-23.957849],[-56.716988,-23.957364],[-56.718637,-23.957529],[-56.719812,-23.958642],[-56.719961,-23.959858],[-56.719281,-23.961207],[-56.718331,-23.965129],[-56.719069,-23.965894],[-56.721754,-23.966215],[-56.722138,-23.967128],[-56.721439,-23.968355],[-56.71919,-23.968699],[-56.718301,-23.969113],[-56.717978,-23.969812],[-56.718056,-23.970765],[-56.72012,-23.971487],[-56.720982,-23.972509],[-56.721867,-23.972908],[-56.724523,-23.972841],[-56.725864,-23.973091],[-56.726463,-23.97391],[-56.726414,-23.974736],[-56.725762,-23.975065],[-56.7244,-23.974796],[-56.723824,-23.97498],[-56.723521,-23.97558],[-56.723677,-23.976244],[-56.724598,-23.976788],[-56.725894,-23.97614],[-56.727003,-23.976038],[-56.728085,-23.976519],[-56.728615,-23.977238],[-56.726586,-23.979167],[-56.724548,-23.978531],[-56.722495,-23.979932],[-56.720165,-23.98009],[-56.719302,-23.980879],[-56.718992,-23.982152],[-56.71937,-23.982654],[-56.720039,-23.982881],[-56.72151,-23.982653],[-56.723233,-23.983108],[-56.723673,-23.982743],[-56.723905,-23.981149],[-56.724919,-23.981142],[-56.727312,-23.982817],[-56.727502,-23.984168],[-56.726956,-23.985897],[-56.727768,-23.986467],[-56.728864,-23.986243],[-56.729697,-23.984158],[-56.730552,-23.9836],[-56.732047,-23.983363],[-56.733281,-23.984092],[-56.733605,-23.984811],[-56.733289,-23.986572],[-56.734683,-23.988322],[-56.732626,-23.991335],[-56.732211,-23.992621],[-56.732362,-23.993371],[-56.733284,-23.993712],[-56.734812,-23.992228],[-56.737887,-23.9918],[-56.739742,-23.992278],[-56.740383,-23.993344],[-56.740125,-23.99436],[-56.738137,-23.994641],[-56.735807,-23.996015],[-56.735041,-23.997237],[-56.735336,-23.998344],[-56.736325,-23.998698],[-56.739293,-23.998265],[-56.740829,-23.996479],[-56.741622,-23.996241],[-56.743763,-23.996394],[-56.744795,-23.997642],[-56.745068,-23.998708],[-56.744727,-23.999412],[-56.743391,-23.999988],[-56.741918,-24.000099],[-56.740717,-24.001429],[-56.740434,-24.00253],[-56.740994,-24.004171],[-56.742279,-24.004579],[-56.743311,-24.003849],[-56.74401,-24.003814],[-56.747222,-24.006313],[-56.750498,-24.010626],[-56.751287,-24.010822],[-56.753125,-24.010414],[-56.753766,-24.010699],[-56.753862,-24.011305],[-56.752123,-24.013628],[-56.75223,-24.014612],[-56.752993,-24.015327],[-56.754197,-24.015221],[-56.756182,-24.01344],[-56.758721,-24.013001],[-56.75994,-24.011043],[-56.761096,-24.011014],[-56.762423,-24.011774],[-56.762938,-24.012692],[-56.76189,-24.014808],[-56.762312,-24.015825],[-56.766306,-24.017371],[-56.767864,-24.019311],[-56.770727,-24.019857],[-56.771328,-24.020477],[-56.771555,-24.022311],[-56.769642,-24.02457],[-56.76912,-24.025938],[-56.769137,-24.026493],[-56.769641,-24.027154],[-56.770728,-24.027435],[-56.774002,-24.027431],[-56.774566,-24.026249],[-56.774355,-24.024234],[-56.774829,-24.023472],[-56.775793,-24.023234],[-56.776237,-24.023302],[-56.776562,-24.023759],[-56.776399,-24.024946],[-56.778234,-24.025148],[-56.77846,-24.02653],[-56.778774,-24.026883],[-56.77992,-24.027024],[-56.781112,-24.026484],[-56.78166,-24.026634],[-56.781572,-24.028016],[-56.780136,-24.030095],[-56.781583,-24.030847],[-56.782391,-24.031643],[-56.782439,-24.034096],[-56.784176,-24.035597],[-56.784262,-24.036677],[-56.78375,-24.036974],[-56.782681,-24.037004],[-56.781837,-24.035468],[-56.77992,-24.033871],[-56.778208,-24.033137],[-56.776751,-24.033089],[-56.775884,-24.033558],[-56.775528,-24.034162],[-56.776258,-24.035685],[-56.775574,-24.036858],[-56.775543,-24.037653],[-56.77604,-24.038228],[-56.780137,-24.038206],[-56.780948,-24.038772],[-56.781204,-24.039436],[-56.780887,-24.040091],[-56.779052,-24.04068],[-56.778517,-24.041275],[-56.778594,-24.04207],[-56.779364,-24.043575],[-56.78028,-24.044186],[-56.783821,-24.044498],[-56.784917,-24.045005],[-56.787644,-24.050424],[-56.788582,-24.050642],[-56.789147,-24.050173],[-56.789306,-24.049004],[-56.788748,-24.047684],[-56.789103,-24.046881],[-56.790986,-24.046328],[-56.791884,-24.046989],[-56.791842,-24.049933],[-56.792278,-24.050494],[-56.79355,-24.051064],[-56.793801,-24.051719],[-56.79305,-24.052599],[-56.790777,-24.053255],[-56.789982,-24.053887],[-56.789754,-24.054966],[-56.791214,-24.05732],[-56.79131,-24.058273],[-56.790775,-24.059447],[-56.789389,-24.059775],[-56.789087,-24.060113],[-56.789809,-24.061162],[-56.791824,-24.061878],[-56.792771,-24.062918],[-56.792723,-24.064304],[-56.791082,-24.067048],[-56.791269,-24.067558],[-56.792351,-24.068251],[-56.79308,-24.067967],[-56.7934,-24.067028],[-56.793168,-24.065443],[-56.793796,-24.06501],[-56.797177,-24.065299],[-56.798134,-24.066294],[-56.798334,-24.06774],[-56.798961,-24.068129],[-56.799819,-24.068049],[-56.800818,-24.066826],[-56.802645,-24.066752],[-56.803296,-24.064576],[-56.803233,-24.062101],[-56.803923,-24.061546],[-56.804933,-24.061706],[-56.807469,-24.063181],[-56.808571,-24.064257],[-56.808592,-24.065441],[-56.808907,-24.065721],[-56.810193,-24.065546],[-56.812345,-24.0647],[-56.814066,-24.064919],[-56.815156,-24.064717],[-56.815973,-24.066633],[-56.817699,-24.067619],[-56.818665,-24.069332],[-56.818913,-24.070872],[-56.818263,-24.07233],[-56.819132,-24.073365],[-56.819484,-24.07802],[-56.821167,-24.08277],[-56.823624,-24.08329],[-56.830644,-24.080195],[-56.831718,-24.080901],[-56.834224,-24.083443],[-56.834785,-24.085042],[-56.83422,-24.086734],[-56.832783,-24.088848],[-56.832934,-24.091057],[-56.834827,-24.092329],[-56.837183,-24.092425],[-56.839284,-24.090923],[-56.843645,-24.084064],[-56.84662,-24.080165],[-56.849388,-24.078052],[-56.851282,-24.078336],[-56.852253,-24.079841],[-56.85266,-24.082145],[-56.853681,-24.084638],[-56.855985,-24.08558],[-56.859365,-24.085254],[-56.862849,-24.08303],[-56.863773,-24.08098],[-56.863621,-24.079335],[-56.862652,-24.076231],[-56.863627,-24.07374],[-56.866957,-24.072192],[-56.869619,-24.073228],[-56.871758,-24.079317],[-56.874669,-24.081548],[-56.877339,-24.081773],[-56.883567,-24.078066],[-56.885956,-24.078569],[-56.886979,-24.0802],[-56.886908,-24.083146],[-56.889295,-24.086282],[-56.891684,-24.0876],[-56.895986,-24.086913],[-56.896875,-24.085096],[-56.897013,-24.083404],[-56.896605,-24.080959],[-56.898179,-24.076886],[-56.90098,-24.074505],[-56.904325,-24.074131],[-56.91381,-24.081283],[-56.916471,-24.083604],[-56.921523,-24.08486],[-56.923023,-24.08787],[-56.923979,-24.088497],[-56.925686,-24.088372],[-56.929782,-24.088876],[-56.933676,-24.084866],[-56.935112,-24.080604],[-56.936615,-24.078787],[-56.939005,-24.079164],[-56.94146,-24.08418],[-56.943437,-24.090386],[-56.944871,-24.091076],[-56.94651,-24.091327],[-56.949651,-24.090701],[-56.960987,-24.085001],[-56.963035,-24.084876],[-56.96563,-24.086506],[-56.96679,-24.088826],[-56.967676,-24.092273],[-56.969314,-24.095095],[-56.971841,-24.096474],[-56.974026,-24.096286],[-56.984064,-24.089455],[-56.985771,-24.089205],[-56.990209,-24.090521],[-56.99137,-24.091963],[-56.992462,-24.096915],[-56.994989,-24.098357],[-56.999017,-24.097793],[-57.000588,-24.096477],[-57.001817,-24.093969],[-57.004138,-24.091462],[-57.007689,-24.089832],[-57.011718,-24.090459],[-57.014381,-24.092966],[-57.014927,-24.095348],[-57.014654,-24.09773],[-57.011923,-24.101491],[-57.010831,-24.103998],[-57.011514,-24.105377],[-57.026947,-24.106817],[-57.031728,-24.108258],[-57.033198,-24.108187],[-57.036079,-24.107234],[-57.03823,-24.107692],[-57.039076,-24.109737],[-57.038769,-24.111535],[-57.037694,-24.11351],[-57.036005,-24.115555],[-57.036389,-24.117459],[-57.037196,-24.118059],[-57.043497,-24.120208],[-57.051502,-24.119089],[-57.056875,-24.120842],[-57.062976,-24.119001],[-57.066345,-24.119668],[-57.069352,-24.122592],[-57.071356,-24.123845],[-57.07427,-24.124763],[-57.075104,-24.125944],[-57.075143,-24.127319],[-57.074261,-24.129188],[-57.075416,-24.133101],[-57.076338,-24.134088],[-57.077299,-24.13444],[-57.080142,-24.133452],[-57.084711,-24.129712],[-57.086286,-24.129323],[-57.08767,-24.12978],[-57.089054,-24.13193],[-57.089784,-24.132353],[-57.090553,-24.132106],[-57.091052,-24.131259],[-57.090666,-24.129708],[-57.090818,-24.127028],[-57.09239,-24.122091],[-57.092463,-24.117649],[-57.093692,-24.11733],[-57.101264,-24.122473],[-57.102957,-24.125187],[-57.102539,-24.131534],[-57.103272,-24.134566],[-57.104502,-24.135376],[-57.107345,-24.135974],[-57.109037,-24.137101]]]}}]}
