{"type":"FeatureCollection","name":"distrito","features":[{"type":"Feature","properties":{"clave":"3-11","nombre":"Emboscada"},"geometry":{"type":"Polygon","coordinates":[[[-57.324165,-25.201091],[-57.342631,-25.204256],[-57.353069,-25.207975],[-57.35446,-25.206432],[-57.356034,-25.205873],[-57.358939,-25.203617],[-57.359833,-25.202224],[-57.363228,-25.201028],[-57.363886,-25.201117],[-57.373973,-25.206853],[-57.374368,-25.206351],[-57.375191,-25.206209],[-57.374768,-25.204472],[-57.374077,-25.204035],[-57.374415,-25.203583],[-57.374348,-25.202924],[-57.375156,-25.20271],[-57.37533,-25.20177],[-57.376442,-25.201979],[-57.376748,-25.202566],[-57.377619,-25.201886],[-57.378847,-25.201675],[-57.379451,-25.200888],[-57.382175,-25.201414],[-57.38283,-25.201918],[-57.383976,-25.200578],[-57.383833,-25.199463],[-57.382431,-25.199616],[-57.382068,-25.19917],[-57.382626,-25.198378],[-57.383935,-25.198158],[-57.384591,-25.198468],[-57.384239,-25.199205],[-57.38536,-25.19913],[-57.386259,-25.200505],[-57.386726,-25.20063],[-57.387058,-25.199274],[-57.38802,-25.198748],[-57.387934,-25.198247],[-57.387403,-25.198032],[-57.388029,-25.19617],[-57.389088,-25.196063],[-57.389955,-25.195171],[-57.390511,-25.195563],[-57.39146,-25.195407],[-57.391843,-25.19415],[-57.392358,-25.19489],[-57.393024,-25.19463],[-57.393284,-25.192842],[-57.392864,-25.190441],[-57.393705,-25.190497],[-57.394455,-25.191448],[-57.3937,-25.192786],[-57.394064,-25.1934],[-57.395106,-25.19318],[-57.396027,-25.192446],[-57.396003,-25.190798],[-57.395165,-25.188434],[-57.394937,-25.188304],[-57.394497,-25.188842],[-57.394189,-25.188654],[-57.394729,-25.187261],[-57.39591,-25.186847],[-57.395248,-25.18549],[-57.397724,-25.185005],[-57.398595,-25.185147],[-57.398924,-25.185498],[-57.398731,-25.186867],[-57.399829,-25.186792],[-57.400843,-25.185958],[-57.400717,-25.184035],[-57.401498,-25.182899],[-57.400396,-25.181367],[-57.400437,-25.180121],[-57.402045,-25.180256],[-57.401414,-25.181554],[-57.402077,-25.182302],[-57.402626,-25.182269],[-57.402903,-25.181636],[-57.404476,-25.180891],[-57.402568,-25.178399],[-57.397867,-25.177134],[-57.398793,-25.175375],[-57.4,-25.175349],[-57.400535,-25.175912],[-57.401051,-25.175834],[-57.401274,-25.173476],[-57.402007,-25.173714],[-57.401456,-25.173313],[-57.39973,-25.172912],[-57.399061,-25.171807],[-57.399025,-25.170737],[-57.3975,-25.170741],[-57.39697,-25.169763],[-57.396905,-25.168901],[-57.396417,-25.168292],[-57.396972,-25.168006],[-57.398583,-25.168485],[-57.399042,-25.169437],[-57.399382,-25.169255],[-57.399888,-25.168021],[-57.400495,-25.167934],[-57.402281,-25.169193],[-57.404122,-25.169486],[-57.404561,-25.169372],[-57.404588,-25.168546],[-57.405033,-25.168355],[-57.405441,-25.168769],[-57.405799,-25.170127],[-57.406203,-25.170379],[-57.406679,-25.170179],[-57.407003,-25.169492],[-57.407037,-25.16727],[-57.407378,-25.166091],[-57.408639,-25.164692],[-57.410807,-25.163516],[-57.410176,-25.161726],[-57.412195,-25.161711],[-57.412442,-25.16148],[-57.411959,-25.159707],[-57.412204,-25.157814],[-57.409949,-25.156579],[-57.408533,-25.154813],[-57.408457,-25.153797],[-57.409347,-25.15356],[-57.412489,-25.154011],[-57.415295,-25.152315],[-57.416644,-25.153246],[-57.418251,-25.153128],[-57.419102,-25.151658],[-57.418461,-25.149705],[-57.418747,-25.149194],[-57.420747,-25.149726],[-57.422233,-25.14885],[-57.422918,-25.149738],[-57.42379,-25.150015],[-57.424233,-25.149707],[-57.42436,-25.148307],[-57.424727,-25.148093],[-57.425256,-25.148462],[-57.425813,-25.150104],[-57.426598,-25.15026],[-57.428861,-25.147269],[-57.42852,-25.145757],[-57.428641,-25.14489],[-57.429171,-25.143877],[-57.430124,-25.1434],[-57.429035,-25.142933],[-57.42923,-25.142423],[-57.430698,-25.142703],[-57.43095,-25.144228],[-57.432178,-25.145227],[-57.432658,-25.145253],[-57.434146,-25.144458],[-57.431829,-25.140428],[-57.432271,-25.139867],[-57.433922,-25.139605],[-57.434293,-25.140886],[-57.434947,-25.141105],[-57.434921,-25.14009],[-57.434192,-25.138146],[-57.433613,-25.13798],[-57.431673,-25.138695],[-57.430593,-25.138788],[-57.429814,-25.138556],[-57.429117,-25.137677],[-57.429455,-25.139026],[-57.428874,-25.139182],[-57.427528,-25.136386],[-57.430366,-25.135881],[-57.431546,-25.134844],[-57.431241,-25.134551],[-57.430004,-25.134505],[-57.429241,-25.133979],[-57.428066,-25.134131],[-57.426716,-25.13381],[-57.426369,-25.13359],[-57.42641,-25.133115],[-57.429172,-25.132597],[-57.431122,-25.131833],[-57.431387,-25.132108],[-57.43117,-25.133684],[-57.43248,-25.133951],[-57.432567,-25.132605],[-57.433834,-25.130186],[-57.433981,-25.12907],[-57.435431,-25.129892],[-57.435247,-25.130521],[-57.434332,-25.131173],[-57.434514,-25.132004],[-57.435094,-25.132381],[-57.435828,-25.131815],[-57.436256,-25.130147],[-57.437108,-25.129368],[-57.436334,-25.128418],[-57.438422,-25.127039],[-57.438832,-25.127092],[-57.438896,-25.127385],[-57.437955,-25.128941],[-57.437987,-25.129749],[-57.439038,-25.129728],[-57.440367,-25.130424],[-57.440674,-25.130288],[-57.440697,-25.129321],[-57.441078,-25.129302],[-57.441124,-25.131036],[-57.442718,-25.131311],[-57.442058,-25.132388],[-57.444774,-25.131138],[-57.446247,-25.129327],[-57.447768,-25.128668],[-57.447803,-25.127548],[-57.447144,-25.12667],[-57.445809,-25.127523],[-57.444945,-25.127548],[-57.443857,-25.126955],[-57.443635,-25.126436],[-57.44443,-25.126005],[-57.446702,-25.126066],[-57.447329,-25.125834],[-57.447202,-25.12447],[-57.447487,-25.123323],[-57.448087,-25.123316],[-57.448751,-25.124543],[-57.448719,-25.126733],[-57.44938,-25.127132],[-57.450803,-25.127128],[-57.451142,-25.126752],[-57.451086,-25.125217],[-57.451899,-25.124388],[-57.458254,-25.122482],[-57.46005,-25.121627],[-57.462136,-25.120049],[-57.46317,-25.118231],[-57.463683,-25.11822],[-57.464583,-25.119017],[-57.465134,-25.119024],[-57.466469,-25.117764],[-57.473745,-25.114585],[-57.475124,-25.113691],[-57.476251,-25.112306],[-57.476461,-25.111447],[-57.476065,-25.111146],[-57.474919,-25.111488],[-57.474356,-25.111368],[-57.473969,-25.110823],[-57.474012,-25.109861],[-57.474289,-25.109445],[-57.475857,-25.109024],[-57.478317,-25.103693],[-57.476001,-25.104924],[-57.473144,-25.10561],[-57.469539,-25.105735],[-57.460461,-25.105253],[-57.456977,-25.104586],[-57.445644,-25.099641],[-57.440162,-25.096261],[-57.427317,-25.084974],[-57.420587,-25.080013],[-57.418465,-25.077418],[-57.41559,-25.072784],[-57.413345,-25.070637],[-57.410231,-25.068496],[-57.404995,-25.063981],[-57.401883,-25.062292],[-57.399767,-25.061616],[-57.395668,-25.062196],[-57.388469,-25.065723],[-57.385737,-25.066408],[-57.383583,-25.06908],[-57.377353,-25.069979],[-57.37587,-25.070659],[-57.374614,-25.071868],[-57.372969,-25.072372],[-57.36222,-25.073663],[-57.360632,-25.071844],[-57.359243,-25.071435],[-57.354755,-25.071652],[-57.347755,-25.074198],[-57.343273,-25.076502],[-57.340143,-25.077303],[-57.335845,-25.076519],[-57.333976,-25.075448],[-57.330903,-25.074446],[-57.330847,-25.07385],[-57.331373,-25.073485],[-57.333119,-25.074308],[-57.333663,-25.073976],[-57.334132,-25.072883],[-57.336366,-25.072796],[-57.337019,-25.072496],[-57.336448,-25.069702],[-57.335158,-25.069523],[-57.330042,-25.071652],[-57.327688,-25.074254],[-57.326925,-25.074504],[-57.325871,-25.07401],[-57.324163,-25.074031],[-57.322987,-25.075621],[-57.32199,-25.076434],[-57.319178,-25.077863],[-57.316967,-25.079886],[-57.314335,-25.08052],[-57.31292,-25.08135],[-57.311448,-25.08094],[-57.311246,-25.080196],[-57.311499,-25.079798],[-57.312841,-25.078869],[-57.314928,-25.07817],[-57.315581,-25.077622],[-57.31596,-25.076579],[-57.313341,-25.075526],[-57.313358,-25.074947],[-57.314374,-25.074498],[-57.314245,-25.073886],[-57.309992,-25.072572],[-57.308576,-25.072988],[-57.304507,-25.072964],[-57.304106,-25.072204],[-57.30443,-25.071144],[-57.303358,-25.071113],[-57.302672,-25.07267],[-57.302387,-25.075268],[-57.301595,-25.078065],[-57.299986,-25.080996],[-57.299677,-25.081278],[-57.299078,-25.081263],[-57.298004,-25.080206],[-57.29724,-25.080076],[-57.295972,-25.080715],[-57.295432,-25.081684],[-57.293522,-25.086061],[-57.293641,-25.089048],[-57.294053,-25.090127],[-57.291545,-25.092905],[-57.291455,-25.093715],[-57.291129,-25.094013],[-57.290506,-25.093996],[-57.289472,-25.093439],[-57.288499,-25.092613],[-57.288109,-25.091851],[-57.286759,-25.091397],[-57.285523,-25.091474],[-57.285031,-25.090861],[-57.283374,-25.089906],[-57.279765,-25.08927],[-57.278744,-25.089728],[-57.278817,-25.090231],[-57.279441,-25.090723],[-57.279035,-25.091933],[-57.279619,-25.09249],[-57.278465,-25.093516],[-57.278805,-25.09416],[-57.279436,-25.094226],[-57.2788,-25.094652],[-57.278726,-25.095144],[-57.278969,-25.095564],[-57.278871,-25.097614],[-57.278516,-25.097935],[-57.278405,-25.098793],[-57.278851,-25.099641],[-57.278694,-25.101191],[-57.277979,-25.102023],[-57.277965,-25.104479],[-57.277226,-25.105487],[-57.277542,-25.105993],[-57.277582,-25.107754],[-57.276861,-25.109254],[-57.276123,-25.109919],[-57.276446,-25.110632],[-57.276981,-25.110861],[-57.277036,-25.111466],[-57.274218,-25.114547],[-57.273415,-25.116679],[-57.272714,-25.11682],[-57.273703,-25.117979],[-57.273224,-25.118517],[-57.27437,-25.118795],[-57.274349,-25.120353],[-57.275391,-25.122022],[-57.285492,-25.135825],[-57.285357,-25.136809],[-57.286704,-25.137254],[-57.28839,-25.140319],[-57.289344,-25.140337],[-57.2993,-25.156275],[-57.300028,-25.156865],[-57.304481,-25.163114],[-57.304972,-25.164215],[-57.305643,-25.164322],[-57.306195,-25.165838],[-57.307859,-25.168133],[-57.307395,-25.170315],[-57.308896,-25.173201],[-57.313918,-25.179414],[-57.314754,-25.180978],[-57.315927,-25.181761],[-57.317002,-25.181745],[-57.319183,-25.18464],[-57.319387,-25.184234],[-57.32096,-25.184979],[-57.321339,-25.185619],[-57.321267,-25.187675],[-57.324165,-25.201091]]]}}]}
