{"type":"FeatureCollection","name":"distrito","features":[{"type":"Feature","properties":{"clave":"1-11","nombre":"Arroyito"},"geometry":{"type":"Polygon","coordinates":[[[-56.754562,-23.228389],[-56.769093,-23.242032],[-56.771863,-23.228649],[-56.77454,-23.204947],[-56.802999,-23.218146],[-56.829043,-23.170269],[-56.827899,-23.162287],[-56.827876,-23.153426],[-56.828298,-23.151276],[-56.829569,-23.149091],[-56.830881,-23.144648],[-56.834766,-23.140466],[-56.839507,-23.133447],[-56.843033,-23.119178],[-56.845029,-23.116421],[-56.853049,-23.110674],[-56.856975,-23.0993],[-56.859037,-23.091775],[-56.867785,-23.088197],[-56.871522,-23.080944],[-56.869988,-23.0786],[-56.867718,-23.078392],[-56.866786,-23.077595],[-56.86623,-23.076622],[-56.865395,-23.076066],[-56.864529,-23.076115],[-56.859051,-23.082451],[-56.858149,-23.082898],[-56.854809,-23.081517],[-56.853656,-23.077354],[-56.854354,-23.074264],[-56.853627,-23.073712],[-56.852733,-23.073711],[-56.851608,-23.0742],[-56.849255,-23.078513],[-56.847204,-23.078174],[-56.846345,-23.077469],[-56.845884,-23.076092],[-56.844066,-23.074866],[-56.842875,-23.07465],[-56.839338,-23.073147],[-56.837121,-23.073298],[-56.835599,-23.07397],[-56.83215,-23.07618],[-56.828929,-23.077768],[-56.826412,-23.080009],[-56.825574,-23.080009],[-56.824693,-23.079518],[-56.823594,-23.076538],[-56.82214,-23.075557],[-56.821169,-23.075556],[-56.817461,-23.078367],[-56.816578,-23.078611],[-56.815344,-23.077997],[-56.814419,-23.077058],[-56.814687,-23.075018],[-56.81588,-23.072979],[-56.81822,-23.071104],[-56.818486,-23.070248],[-56.8184,-23.068452],[-56.817654,-23.066248],[-56.813294,-23.061591],[-56.804394,-23.055785],[-56.802675,-23.05562],[-56.800778,-23.055985],[-56.799057,-23.05688],[-56.797601,-23.057001],[-56.79575,-23.056305],[-56.794339,-23.056548],[-56.793233,-23.058342],[-56.791689,-23.059278],[-56.790542,-23.058991],[-56.789926,-23.058133],[-56.789796,-23.056787],[-56.79368,-23.055037],[-56.793945,-23.054425],[-56.793373,-23.053772],[-56.789758,-23.05291],[-56.787466,-23.05205],[-56.786763,-23.05058],[-56.786678,-23.048458],[-56.787696,-23.046296],[-56.78933,-23.044381],[-56.790478,-23.043852],[-56.792154,-23.043568],[-56.792595,-23.043079],[-56.793039,-23.041243],[-56.792294,-23.038345],[-56.793578,-23.035041],[-56.793359,-23.033776],[-56.791995,-23.031775],[-56.790982,-23.031365],[-56.78767,-23.034789],[-56.786699,-23.035114],[-56.785686,-23.034949],[-56.785423,-23.033398],[-56.785517,-23.030012],[-56.783978,-23.027683],[-56.781072,-23.024823],[-56.779577,-23.022617],[-56.778784,-23.022167],[-56.778034,-23.022533],[-56.777016,-23.024858],[-56.776486,-23.025388],[-56.775561,-23.025182],[-56.774636,-23.024283],[-56.774156,-23.021508],[-56.772571,-23.020118],[-56.768648,-23.019827],[-56.767459,-23.019254],[-56.765612,-23.016313],[-56.763191,-23.014187],[-56.761957,-23.0139],[-56.760546,-23.014102],[-56.757149,-23.015974],[-56.750887,-23.01678],[-56.747314,-23.017754],[-56.745111,-23.01722],[-56.742604,-23.014278],[-56.740005,-23.013131],[-56.73961,-23.012273],[-56.739745,-23.011049],[-56.742265,-23.006809],[-56.742269,-23.005136],[-56.741698,-23.003707],[-56.73897,-23.001295],[-56.738927,-23.000805],[-56.740034,-22.998195],[-56.739859,-22.997134],[-56.739199,-22.996562],[-56.73823,-22.996315],[-56.737039,-22.996558],[-56.735804,-22.997291],[-56.735626,-22.997984],[-56.73602,-22.999617],[-56.735445,-23.00031],[-56.733108,-23.001122],[-56.729969,-23.00581],[-56.725377,-23.009107],[-56.72304,-23.009674],[-56.714355,-23.009781],[-56.713035,-23.00884],[-56.71286,-23.007942],[-56.713082,-23.00733],[-56.715508,-23.006519],[-56.717891,-23.005217],[-56.718335,-23.003994],[-56.71825,-23.002443],[-56.717678,-23.001748],[-56.716929,-23.001788],[-56.715076,-23.00256],[-56.713448,-23.001006],[-56.712704,-22.998638],[-56.710018,-22.997082],[-56.708876,-22.995162],[-56.70716,-22.994098],[-56.704913,-22.993563],[-56.702136,-22.993722],[-56.699842,-22.994656],[-56.699707,-22.995472],[-56.700801,-22.999187],[-56.700843,-23.000371],[-56.69965,-23.001429],[-56.696298,-23.002525],[-56.695417,-23.001952],[-56.694233,-22.999542],[-56.693665,-22.997215],[-56.693818,-22.993669],[-56.693154,-22.994163],[-56.692293,-22.993954],[-56.689802,-22.994581],[-56.68707,-22.994363],[-56.686226,-22.995238],[-56.685497,-22.994703],[-56.684496,-22.994643],[-56.684221,-22.994832],[-56.684431,-22.99537],[-56.684179,-22.996602],[-56.683607,-22.997216],[-56.682574,-22.997254],[-56.68074,-22.996568],[-56.680115,-22.995867],[-56.679737,-22.99593],[-56.678401,-22.998912],[-56.678561,-22.999789],[-56.677664,-23.001702],[-56.674008,-23.004608],[-56.67221,-23.005684],[-56.670227,-23.006425],[-56.66667,-23.006634],[-56.663324,-23.006139],[-56.660964,-23.007178],[-56.659853,-23.007324],[-56.657954,-23.007045],[-56.656087,-23.00616],[-56.653527,-23.007026],[-56.644147,-23.00719],[-56.641602,-23.007957],[-56.63615,-23.010627],[-56.631935,-23.011539],[-56.62645,-23.01182],[-56.625853,-23.012076],[-56.625493,-23.012884],[-56.625927,-23.014136],[-56.62464,-23.01547],[-56.624013,-23.015707],[-56.622202,-23.015545],[-56.617725,-23.01885],[-56.615019,-23.01831],[-56.613894,-23.018669],[-56.613314,-23.017484],[-56.61006,-23.018555],[-56.607444,-23.017713],[-56.606005,-23.018202],[-56.604008,-23.018269],[-56.602511,-23.018817],[-56.600198,-23.018206],[-56.597163,-23.019042],[-56.594045,-23.018786],[-56.592092,-23.020199],[-56.589706,-23.021404],[-56.586544,-23.022032],[-56.585442,-23.023637],[-56.583002,-23.025297],[-56.579958,-23.026278],[-56.577656,-23.026652],[-56.575507,-23.030061],[-56.57366,-23.032066],[-56.570857,-23.033142],[-56.570138,-23.034476],[-56.542428,-23.102622],[-56.542866,-23.103179],[-56.542617,-23.103806],[-56.543176,-23.105036],[-56.543185,-23.107322],[-56.544238,-23.10784],[-56.543856,-23.10965],[-56.54417,-23.111891],[-56.545557,-23.112139],[-56.546428,-23.112665],[-56.546947,-23.113516],[-56.546597,-23.114933],[-56.547497,-23.115093],[-56.547067,-23.116312],[-56.547794,-23.11686],[-56.548196,-23.116496],[-56.548386,-23.116984],[-56.549246,-23.117425],[-56.549287,-23.11808],[-56.548678,-23.118701],[-56.54989,-23.11889],[-56.550442,-23.119591],[-56.55058,-23.120441],[-56.551333,-23.121292],[-56.551832,-23.121429],[-56.551755,-23.121953],[-56.552463,-23.123021],[-56.552652,-23.124028],[-56.552054,-23.123923],[-56.552489,-23.124592],[-56.552387,-23.124976],[-56.552876,-23.125556],[-56.553906,-23.125699],[-56.553977,-23.12648],[-56.555018,-23.12773],[-56.556462,-23.12824],[-56.556267,-23.129061],[-56.557981,-23.129897],[-56.558293,-23.130724],[-56.559797,-23.130896],[-56.558965,-23.13139],[-56.559496,-23.132074],[-56.559269,-23.132398],[-56.561595,-23.133394],[-56.562037,-23.136304],[-56.562426,-23.136445],[-56.562886,-23.135859],[-56.56311,-23.136266],[-56.563854,-23.13611],[-56.56416,-23.138238],[-56.565218,-23.138991],[-56.56515,-23.139478],[-56.565722,-23.139751],[-56.565423,-23.141232],[-56.566224,-23.141911],[-56.565979,-23.142742],[-56.566552,-23.143177],[-56.567471,-23.142813],[-56.567536,-23.143274],[-56.56887,-23.144755],[-56.568889,-23.1462],[-56.568505,-23.147098],[-56.56943,-23.147954],[-56.568827,-23.148531],[-56.5688,-23.149032],[-56.569442,-23.149707],[-56.570513,-23.149529],[-56.570108,-23.150133],[-56.570637,-23.15125],[-56.570414,-23.152107],[-56.57092,-23.152208],[-56.571142,-23.153144],[-56.572311,-23.154285],[-56.572174,-23.155924],[-56.572672,-23.156468],[-56.572365,-23.156927],[-56.572833,-23.157042],[-56.573226,-23.158018],[-56.572383,-23.158562],[-56.573208,-23.159093],[-56.57293,-23.159661],[-56.57508,-23.162892],[-56.576985,-23.163584],[-56.576733,-23.165855],[-56.578041,-23.166111],[-56.578337,-23.166618],[-56.579736,-23.167403],[-56.581516,-23.167503],[-56.581893,-23.168055],[-56.582786,-23.168229],[-56.584023,-23.168968],[-56.585875,-23.170829],[-56.585502,-23.171149],[-56.584788,-23.170962],[-56.584913,-23.172638],[-56.586671,-23.173541],[-56.587387,-23.173615],[-56.588318,-23.174404],[-56.587888,-23.175058],[-56.588429,-23.175118],[-56.588731,-23.175954],[-56.590788,-23.176357],[-56.591064,-23.176981],[-56.591379,-23.176711],[-56.592488,-23.177228],[-56.592351,-23.17786],[-56.591498,-23.178107],[-56.591382,-23.178422],[-56.592338,-23.179048],[-56.593511,-23.179209],[-56.594115,-23.179604],[-56.59424,-23.18016],[-56.595074,-23.180324],[-56.595178,-23.180682],[-56.594004,-23.181975],[-56.594506,-23.182839],[-56.595064,-23.182831],[-56.59697,-23.183812],[-56.597172,-23.184747],[-56.598094,-23.185644],[-56.598697,-23.185248],[-56.599075,-23.185795],[-56.599516,-23.185869],[-56.598922,-23.187805],[-56.599259,-23.189382],[-56.599474,-23.189568],[-56.599977,-23.189194],[-56.600165,-23.189398],[-56.601433,-23.192766],[-56.601265,-23.19314],[-56.600592,-23.192935],[-56.60101,-23.19351],[-56.600726,-23.193843],[-56.599888,-23.193385],[-56.599037,-23.193532],[-56.598966,-23.194047],[-56.599421,-23.194161],[-56.599732,-23.194821],[-56.598987,-23.195632],[-56.598936,-23.196282],[-56.598485,-23.196335],[-56.59857,-23.196932],[-56.597854,-23.197616],[-56.598408,-23.197844],[-56.597795,-23.199007],[-56.597793,-23.200213],[-56.598289,-23.200765],[-56.597055,-23.201774],[-56.597111,-23.201968],[-56.597685,-23.201861],[-56.596927,-23.202849],[-56.59732,-23.203622],[-56.597514,-23.205429],[-56.596114,-23.206324],[-56.595977,-23.206748],[-56.59449,-23.207978],[-56.593863,-23.209101],[-56.594465,-23.209116],[-56.594969,-23.209763],[-56.594627,-23.210837],[-56.595338,-23.212307],[-56.594381,-23.214093],[-56.594552,-23.215042],[-56.594999,-23.215314],[-56.594153,-23.215312],[-56.593656,-23.217121],[-56.594282,-23.217877],[-56.593828,-23.218802],[-56.593875,-23.219444],[-56.594267,-23.219792],[-56.593846,-23.220609],[-56.594743,-23.221153],[-56.594262,-23.221558],[-56.594598,-23.222097],[-56.593922,-23.221973],[-56.59345,-23.222631],[-56.592769,-23.224377],[-56.592823,-23.224865],[-56.593365,-23.225056],[-56.593257,-23.226284],[-56.592787,-23.226369],[-56.592306,-23.226982],[-56.592657,-23.227945],[-56.594125,-23.229543],[-56.594154,-23.230008],[-56.593502,-23.23063],[-56.592215,-23.230749],[-56.591649,-23.231217],[-56.591567,-23.231745],[-56.590951,-23.23206],[-56.58983,-23.234441],[-56.59024,-23.235712],[-56.589461,-23.23603],[-56.589233,-23.236865],[-56.587522,-23.237398],[-56.586105,-23.239016],[-56.584762,-23.239712],[-56.584996,-23.240499],[-56.583892,-23.240604],[-56.584227,-23.241956],[-56.58397,-23.243138],[-56.583338,-23.243372],[-56.583452,-23.244953],[-56.582733,-23.245077],[-56.581764,-23.245784],[-56.581367,-23.246736],[-56.580183,-23.247505],[-56.579821,-23.248177],[-56.578837,-23.248684],[-56.578183,-23.250182],[-56.576675,-23.251154],[-56.576223,-23.252855],[-56.574688,-23.253971],[-56.574622,-23.255547],[-56.574089,-23.255754],[-56.57326,-23.255476],[-56.573121,-23.256008],[-56.571904,-23.256461],[-56.57082,-23.260275],[-56.570185,-23.260467],[-56.569896,-23.261252],[-56.568841,-23.262247],[-56.56943,-23.262538],[-56.569575,-23.26341],[-56.567976,-23.264119],[-56.56692,-23.264266],[-56.56614,-23.266174],[-56.56538,-23.266863],[-56.565439,-23.269717],[-56.565777,-23.270371],[-56.566542,-23.270789],[-56.568066,-23.27551],[-56.567229,-23.276483],[-56.567636,-23.277113],[-56.568256,-23.277429],[-56.567402,-23.278417],[-56.567349,-23.278896],[-56.568286,-23.278655],[-56.56916,-23.279585],[-56.567922,-23.280667],[-56.567474,-23.282301],[-56.568256,-23.282719],[-56.566803,-23.284783],[-56.566955,-23.285098],[-56.567627,-23.28499],[-56.568774,-23.285818],[-56.568903,-23.288035],[-56.569652,-23.288029],[-56.571547,-23.288719],[-56.571213,-23.289323],[-56.569724,-23.289453],[-56.570241,-23.290067],[-56.570365,-23.291231],[-56.571232,-23.291446],[-56.571375,-23.291831],[-56.570607,-23.292489],[-56.571235,-23.293104],[-56.57067,-23.293932],[-56.569934,-23.294343],[-56.570213,-23.295122],[-56.569848,-23.297279],[-56.570679,-23.298961],[-56.571538,-23.299842],[-56.572392,-23.300204],[-56.572253,-23.301943],[-56.571722,-23.302278],[-56.572359,-23.302486],[-56.572779,-23.303112],[-56.571699,-23.30341],[-56.571532,-23.303775],[-56.572534,-23.30383],[-56.573432,-23.306268],[-56.574274,-23.306565],[-56.574116,-23.308027],[-56.574779,-23.308541],[-56.574444,-23.309466],[-56.574978,-23.309951],[-56.575217,-23.311249],[-56.576033,-23.311664],[-56.57632,-23.311611],[-56.576302,-23.311228],[-56.577408,-23.310824],[-56.578365,-23.311027],[-56.578831,-23.312962],[-56.579736,-23.313501],[-56.579541,-23.314533],[-56.5809,-23.315381],[-56.581258,-23.316196],[-56.582209,-23.316466],[-56.58334,-23.31603],[-56.584242,-23.316084],[-56.583403,-23.316529],[-56.583937,-23.319114],[-56.585273,-23.319112],[-56.585431,-23.320504],[-56.585807,-23.320965],[-56.586663,-23.321455],[-56.58796,-23.321668],[-56.589072,-23.322447],[-56.58833,-23.323049],[-56.588063,-23.323708],[-56.588319,-23.324784],[-56.589157,-23.32545],[-56.589062,-23.326496],[-56.589724,-23.326176],[-56.591176,-23.326542],[-56.591279,-23.327792],[-56.591932,-23.32827],[-56.593424,-23.327019],[-56.594187,-23.327211],[-56.595782,-23.326521],[-56.595699,-23.327455],[-56.595152,-23.327203],[-56.594853,-23.327532],[-56.596835,-23.328114],[-56.595983,-23.329144],[-56.596909,-23.32928],[-56.596867,-23.330276],[-56.596191,-23.330596],[-56.596623,-23.331013],[-56.599205,-23.331458],[-56.599687,-23.332925],[-56.601461,-23.333136],[-56.602952,-23.333668],[-56.602696,-23.334528],[-56.604174,-23.335144],[-56.604145,-23.335931],[-56.604994,-23.336924],[-56.605879,-23.337014],[-56.606188,-23.338068],[-56.60735,-23.33821],[-56.608443,-23.337439],[-56.610412,-23.337477],[-56.610406,-23.338656],[-56.610057,-23.33908],[-56.611183,-23.339273],[-56.611442,-23.339513],[-56.61132,-23.340274],[-56.611644,-23.340535],[-56.612086,-23.340098],[-56.612329,-23.340591],[-56.612289,-23.340986],[-56.611509,-23.341515],[-56.611941,-23.342257],[-56.611887,-23.343501],[-56.612198,-23.344141],[-56.613518,-23.345452],[-56.614405,-23.34473],[-56.61475,-23.34552],[-56.61649,-23.346274],[-56.616492,-23.34696],[-56.61722,-23.347865],[-56.617164,-23.349441],[-56.617726,-23.350581],[-56.618368,-23.350515],[-56.618247,-23.349747],[-56.6189,-23.349477],[-56.619563,-23.350391],[-56.620872,-23.35095],[-56.621159,-23.352184],[-56.622548,-23.35221],[-56.622002,-23.354132],[-56.622146,-23.355266],[-56.622557,-23.355696],[-56.62398,-23.356702],[-56.6249,-23.356226],[-56.624982,-23.356917],[-56.625465,-23.357478],[-56.626472,-23.357851],[-56.627776,-23.357768],[-56.628178,-23.358894],[-56.627438,-23.359511],[-56.628198,-23.360746],[-56.62791,-23.361657],[-56.628729,-23.362581],[-56.628676,-23.364102],[-56.629933,-23.363916],[-56.630203,-23.364296],[-56.629489,-23.36611],[-56.630239,-23.366522],[-56.630382,-23.367611],[-56.629004,-23.369184],[-56.631945,-23.370912],[-56.631679,-23.371309],[-56.630618,-23.370986],[-56.630372,-23.371509],[-56.631027,-23.372287],[-56.631024,-23.373457],[-56.634005,-23.377597],[-56.63446,-23.37762],[-56.635137,-23.377053],[-56.637225,-23.379027],[-56.637761,-23.379055],[-56.638496,-23.378357],[-56.639109,-23.379397],[-56.640281,-23.379788],[-56.641245,-23.378982],[-56.641311,-23.379623],[-56.641797,-23.379566],[-56.643651,-23.377574],[-56.644743,-23.377219],[-56.646018,-23.378564],[-56.646086,-23.38005],[-56.646797,-23.380309],[-56.647397,-23.38148],[-56.648905,-23.381361],[-56.649691,-23.381761],[-56.650446,-23.381744],[-56.649973,-23.382967],[-56.650095,-23.383324],[-56.651893,-23.383093],[-56.653041,-23.381294],[-56.653814,-23.381043],[-56.65471,-23.382783],[-56.65569,-23.381815],[-56.658144,-23.381933],[-56.659282,-23.380969],[-56.659791,-23.379732],[-56.660386,-23.379386],[-56.661051,-23.378249],[-56.663138,-23.377929],[-56.665261,-23.377012],[-56.666014,-23.377135],[-56.666523,-23.3765],[-56.667359,-23.376266],[-56.669328,-23.376442],[-56.671096,-23.377349],[-56.672,-23.378467],[-56.671658,-23.379125],[-56.672184,-23.380007],[-56.674135,-23.380377],[-56.674745,-23.380171],[-56.675932,-23.381239],[-56.67697,-23.380875],[-56.67775,-23.381776],[-56.680611,-23.382997],[-56.681305,-23.38405],[-56.682915,-23.38404],[-56.684908,-23.384595],[-56.685761,-23.385604],[-56.687001,-23.384762],[-56.688857,-23.38201],[-56.690453,-23.381454],[-56.691009,-23.381527],[-56.691185,-23.381753],[-56.690344,-23.382095],[-56.690066,-23.383142],[-56.69158,-23.384495],[-56.692821,-23.385103],[-56.694179,-23.384826],[-56.694536,-23.385563],[-56.695069,-23.385776],[-56.696845,-23.38484],[-56.697401,-23.383856],[-56.698051,-23.384345],[-56.698409,-23.385304],[-56.697927,-23.386211],[-56.699053,-23.386732],[-56.698755,-23.387924],[-56.699613,-23.388409],[-56.700654,-23.388338],[-56.700549,-23.389386],[-56.700883,-23.390263],[-56.702643,-23.39103],[-56.701548,-23.391524],[-56.701241,-23.392919],[-56.701811,-23.393029],[-56.703787,-23.392563],[-56.704492,-23.393458],[-56.703743,-23.395227],[-56.704544,-23.395631],[-56.704496,-23.396417],[-56.705762,-23.397494],[-56.705286,-23.398274],[-56.705247,-23.399024],[-56.705823,-23.399612],[-56.706133,-23.400738],[-56.707055,-23.401394],[-56.707964,-23.401179],[-56.709502,-23.399655],[-56.709922,-23.398279],[-56.709734,-23.396941],[-56.711337,-23.395933],[-56.711364,-23.393363],[-56.712764,-23.393212],[-56.713718,-23.392568],[-56.714331,-23.392601],[-56.714816,-23.392263],[-56.715409,-23.392503],[-56.715966,-23.392003],[-56.71727,-23.391608],[-56.718015,-23.390512],[-56.717905,-23.389703],[-56.719355,-23.388753],[-56.720389,-23.387119],[-56.720941,-23.38731],[-56.721083,-23.386705],[-56.722111,-23.386115],[-56.722621,-23.386753],[-56.723489,-23.386741],[-56.72464,-23.38448],[-56.726462,-23.384398],[-56.726762,-23.383811],[-56.72761,-23.383804],[-56.728471,-23.38296],[-56.730262,-23.382137],[-56.730866,-23.381086],[-56.731646,-23.381028],[-56.731895,-23.380455],[-56.732822,-23.380317],[-56.733326,-23.379916],[-56.734272,-23.379899],[-56.734469,-23.378707],[-56.735104,-23.378211],[-56.735473,-23.377372],[-56.73766,-23.375759],[-56.738063,-23.373583],[-56.739501,-23.372302],[-56.741375,-23.368661],[-56.743155,-23.366139],[-56.743858,-23.364108],[-56.743974,-23.359659],[-56.745588,-23.351216],[-56.74533,-23.346893],[-56.74603,-23.345837],[-56.746197,-23.34437],[-56.746967,-23.342239],[-56.746208,-23.336565],[-56.746617,-23.331837],[-56.747193,-23.330835],[-56.747367,-23.329169],[-56.746976,-23.326278],[-56.747573,-23.324594],[-56.747382,-23.323447],[-56.746507,-23.322158],[-56.746298,-23.321309],[-56.747479,-23.316731],[-56.74745,-23.31548],[-56.746621,-23.314548],[-56.746298,-23.31354],[-56.746822,-23.307114],[-56.745434,-23.305793],[-56.745429,-23.304754],[-56.744101,-23.302697],[-56.744105,-23.300236],[-56.743388,-23.295537],[-56.743513,-23.293035],[-56.74251,-23.289904],[-56.741866,-23.288783],[-56.741707,-23.287513],[-56.740339,-23.285162],[-56.7401,-23.283147],[-56.740433,-23.279465],[-56.737353,-23.261486],[-56.754562,-23.228389]]]}}]}
