{"type":"FeatureCollection","name":"distrito","features":[{"type":"Feature","properties":{"clave":"1-2","nombre":"Azote'y"},"geometry":{"type":"Polygon","coordinates":[[[-56.726037,-23.432877],[-56.724365,-23.430399],[-56.721873,-23.430051],[-56.722046,-23.42894],[-56.720813,-23.429123],[-56.719881,-23.430607],[-56.719244,-23.429997],[-56.717475,-23.429668],[-56.715529,-23.426616],[-56.714335,-23.426302],[-56.714241,-23.425706],[-56.713518,-23.425533],[-56.713166,-23.425049],[-56.712858,-23.422637],[-56.713492,-23.421739],[-56.713154,-23.421129],[-56.713677,-23.420592],[-56.714432,-23.421285],[-56.714796,-23.420874],[-56.713172,-23.418812],[-56.712959,-23.418111],[-56.7133,-23.417516],[-56.713139,-23.417168],[-56.712587,-23.416498],[-56.711869,-23.416375],[-56.711224,-23.415123],[-56.71157,-23.411117],[-56.710462,-23.410095],[-56.71013,-23.409575],[-56.710194,-23.409033],[-56.708959,-23.407377],[-56.709001,-23.405359],[-56.706949,-23.404519],[-56.706354,-23.403895],[-56.706784,-23.401488],[-56.705221,-23.398871],[-56.705355,-23.398103],[-56.705834,-23.397666],[-56.704496,-23.396417],[-56.704544,-23.395631],[-56.703743,-23.395227],[-56.704492,-23.393458],[-56.703787,-23.392563],[-56.701811,-23.393029],[-56.701241,-23.392919],[-56.701548,-23.391524],[-56.702643,-23.39103],[-56.700883,-23.390263],[-56.700549,-23.389386],[-56.700654,-23.388338],[-56.699613,-23.388409],[-56.698755,-23.387924],[-56.699053,-23.386732],[-56.69799,-23.386355],[-56.698411,-23.385209],[-56.697687,-23.383974],[-56.697313,-23.383901],[-56.696845,-23.38484],[-56.695069,-23.385776],[-56.694536,-23.385563],[-56.694179,-23.384826],[-56.692821,-23.385103],[-56.69158,-23.384495],[-56.690066,-23.383142],[-56.690344,-23.382095],[-56.691185,-23.381753],[-56.690453,-23.381454],[-56.688857,-23.38201],[-56.687001,-23.384762],[-56.685761,-23.385604],[-56.684908,-23.384595],[-56.682915,-23.38404],[-56.681305,-23.38405],[-56.680611,-23.382997],[-56.67775,-23.381776],[-56.67697,-23.380875],[-56.675932,-23.381239],[-56.674745,-23.380171],[-56.674135,-23.380377],[-56.672184,-23.380007],[-56.671658,-23.379125],[-56.672,-23.378467],[-56.671096,-23.377349],[-56.668924,-23.376356],[-56.666967,-23.376306],[-56.666014,-23.377135],[-56.665261,-23.377012],[-56.663138,-23.377929],[-56.661212,-23.378155],[-56.660386,-23.379386],[-56.659791,-23.379732],[-56.659282,-23.380969],[-56.658144,-23.381933],[-56.65569,-23.381815],[-56.65471,-23.382783],[-56.653814,-23.381043],[-56.653041,-23.381294],[-56.651893,-23.383093],[-56.650188,-23.383324],[-56.649973,-23.382967],[-56.650446,-23.381744],[-56.649691,-23.381761],[-56.648905,-23.381361],[-56.647397,-23.38148],[-56.646797,-23.380309],[-56.646086,-23.38005],[-56.646018,-23.378564],[-56.644743,-23.377219],[-56.643651,-23.377574],[-56.641797,-23.379566],[-56.641311,-23.379623],[-56.641245,-23.378982],[-56.640281,-23.379788],[-56.639109,-23.379397],[-56.638496,-23.378357],[-56.637761,-23.379055],[-56.637225,-23.379027],[-56.635137,-23.377053],[-56.63414,-23.377678],[-56.631024,-23.373457],[-56.631027,-23.372287],[-56.630372,-23.371509],[-56.630618,-23.370986],[-56.631679,-23.371309],[-56.631945,-23.370912],[-56.629004,-23.369184],[-56.630382,-23.367611],[-56.630239,-23.366522],[-56.629489,-23.36611],[-56.630203,-23.364296],[-56.629933,-23.363916],[-56.628676,-23.364102],[-56.628729,-23.362581],[-56.62791,-23.361657],[-56.628198,-23.360746],[-56.627438,-23.359511],[-56.628178,-23.358894],[-56.627776,-23.357768],[-56.626472,-23.357851],[-56.625465,-23.357478],[-56.624982,-23.356917],[-56.6249,-23.356226],[-56.62398,-23.356702],[-56.622557,-23.355696],[-56.622146,-23.355266],[-56.622002,-23.354132],[-56.622548,-23.35221],[-56.621159,-23.352184],[-56.620872,-23.35095],[-56.619563,-23.350391],[-56.6189,-23.349477],[-56.618247,-23.349747],[-56.618368,-23.350515],[-56.617726,-23.350581],[-56.617164,-23.349441],[-56.61722,-23.347865],[-56.616492,-23.34696],[-56.61649,-23.346274],[-56.61475,-23.34552],[-56.614405,-23.34473],[-56.613518,-23.345452],[-56.612198,-23.344141],[-56.611887,-23.343501],[-56.611941,-23.342257],[-56.611509,-23.341515],[-56.612289,-23.340986],[-56.612329,-23.340591],[-56.612086,-23.340098],[-56.611644,-23.340535],[-56.61132,-23.340274],[-56.611442,-23.339513],[-56.611183,-23.339273],[-56.610057,-23.33908],[-56.610406,-23.338656],[-56.610412,-23.337477],[-56.608443,-23.337439],[-56.60735,-23.33821],[-56.606188,-23.338068],[-56.605879,-23.337014],[-56.604994,-23.336924],[-56.604145,-23.335931],[-56.604174,-23.335144],[-56.602696,-23.334528],[-56.602952,-23.333668],[-56.601461,-23.333136],[-56.599687,-23.332925],[-56.599205,-23.331458],[-56.596623,-23.331013],[-56.596191,-23.330596],[-56.596867,-23.330276],[-56.596909,-23.32928],[-56.595983,-23.329144],[-56.596835,-23.328114],[-56.594853,-23.327532],[-56.595152,-23.327203],[-56.595699,-23.327455],[-56.595782,-23.326521],[-56.594187,-23.327211],[-56.593424,-23.327019],[-56.591932,-23.32827],[-56.591279,-23.327792],[-56.591176,-23.326542],[-56.589724,-23.326176],[-56.589062,-23.326496],[-56.589157,-23.32545],[-56.588319,-23.324784],[-56.588063,-23.323708],[-56.58833,-23.323049],[-56.589072,-23.322447],[-56.58796,-23.321668],[-56.586663,-23.321455],[-56.585807,-23.320965],[-56.585431,-23.320504],[-56.585273,-23.319112],[-56.583937,-23.319114],[-56.583403,-23.316529],[-56.584242,-23.316084],[-56.58334,-23.31603],[-56.582209,-23.316466],[-56.581258,-23.316196],[-56.5809,-23.315381],[-56.579541,-23.314533],[-56.579736,-23.313501],[-56.578831,-23.312962],[-56.578365,-23.311027],[-56.577408,-23.310824],[-56.576302,-23.311228],[-56.57632,-23.311611],[-56.576033,-23.311664],[-56.575217,-23.311249],[-56.574978,-23.309951],[-56.574444,-23.309466],[-56.574779,-23.308541],[-56.574116,-23.308027],[-56.574274,-23.306565],[-56.573432,-23.306268],[-56.572534,-23.30383],[-56.571532,-23.303775],[-56.571699,-23.30341],[-56.572779,-23.303112],[-56.572359,-23.302486],[-56.571722,-23.302278],[-56.572253,-23.301943],[-56.572392,-23.300204],[-56.571538,-23.299842],[-56.570679,-23.298961],[-56.569848,-23.297279],[-56.570213,-23.295122],[-56.569934,-23.294343],[-56.57067,-23.293932],[-56.571235,-23.293104],[-56.570607,-23.292489],[-56.571375,-23.291831],[-56.571232,-23.291446],[-56.570365,-23.291231],[-56.570241,-23.290067],[-56.569724,-23.289453],[-56.571213,-23.289323],[-56.571547,-23.288719],[-56.569652,-23.288029],[-56.568903,-23.288035],[-56.568774,-23.285818],[-56.567627,-23.28499],[-56.566955,-23.285098],[-56.566803,-23.284783],[-56.568256,-23.282719],[-56.567474,-23.282301],[-56.567922,-23.280667],[-56.56916,-23.279585],[-56.568286,-23.278655],[-56.567349,-23.278896],[-56.567402,-23.278417],[-56.568256,-23.277429],[-56.567636,-23.277113],[-56.567229,-23.276483],[-56.568066,-23.27551],[-56.566542,-23.270789],[-56.565777,-23.270371],[-56.565439,-23.269717],[-56.56538,-23.266863],[-56.56614,-23.266174],[-56.56692,-23.264266],[-56.567976,-23.264119],[-56.569575,-23.26341],[-56.56943,-23.262538],[-56.568841,-23.262247],[-56.569896,-23.261252],[-56.570185,-23.260467],[-56.57082,-23.260275],[-56.571904,-23.256461],[-56.573121,-23.256008],[-56.57326,-23.255476],[-56.574089,-23.255754],[-56.574622,-23.255547],[-56.574688,-23.253971],[-56.576223,-23.252855],[-56.576675,-23.251154],[-56.578183,-23.250182],[-56.578837,-23.248684],[-56.579821,-23.248177],[-56.580183,-23.247505],[-56.581367,-23.246736],[-56.581764,-23.245784],[-56.582733,-23.245077],[-56.583452,-23.244953],[-56.583338,-23.243372],[-56.58397,-23.243138],[-56.584227,-23.241956],[-56.583892,-23.240604],[-56.584996,-23.240499],[-56.584762,-23.239712],[-56.586105,-23.239016],[-56.587522,-23.237398],[-56.589233,-23.236865],[-56.589461,-23.23603],[-56.59024,-23.235712],[-56.58983,-23.234441],[-56.590951,-23.23206],[-56.591567,-23.231745],[-56.591649,-23.231217],[-56.592215,-23.230749],[-56.593502,-23.23063],[-56.594154,-23.230008],[-56.594125,-23.229543],[-56.592657,-23.227945],[-56.592306,-23.226982],[-56.592787,-23.226369],[-56.593257,-23.226284],[-56.593365,-23.225056],[-56.592823,-23.224865],[-56.592769,-23.224377],[-56.59345,-23.222631],[-56.593922,-23.221973],[-56.594598,-23.222097],[-56.594262,-23.221558],[-56.594743,-23.221153],[-56.593846,-23.220609],[-56.594267,-23.219792],[-56.593875,-23.219444],[-56.593828,-23.218802],[-56.594282,-23.217877],[-56.593656,-23.217121],[-56.594153,-23.215312],[-56.594999,-23.215314],[-56.594552,-23.215042],[-56.594381,-23.214093],[-56.595338,-23.212307],[-56.594627,-23.210837],[-56.594969,-23.209763],[-56.594465,-23.209116],[-56.593863,-23.209101],[-56.59449,-23.207978],[-56.595977,-23.206748],[-56.596114,-23.206324],[-56.597514,-23.205429],[-56.59732,-23.203622],[-56.596927,-23.202849],[-56.597685,-23.201861],[-56.597111,-23.201968],[-56.597055,-23.201774],[-56.598289,-23.200765],[-56.597793,-23.200213],[-56.597795,-23.199007],[-56.598408,-23.197844],[-56.597854,-23.197616],[-56.59857,-23.196932],[-56.598485,-23.196335],[-56.598936,-23.196282],[-56.598987,-23.195632],[-56.599732,-23.194821],[-56.599421,-23.194161],[-56.598966,-23.194047],[-56.599037,-23.193532],[-56.599888,-23.193385],[-56.600726,-23.193843],[-56.60101,-23.19351],[-56.600592,-23.192935],[-56.601265,-23.19314],[-56.601433,-23.192766],[-56.600165,-23.189398],[-56.599977,-23.189194],[-56.599474,-23.189568],[-56.599259,-23.189382],[-56.598922,-23.187805],[-56.599516,-23.185869],[-56.599075,-23.185795],[-56.598697,-23.185248],[-56.598094,-23.185644],[-56.597172,-23.184747],[-56.59697,-23.183812],[-56.595064,-23.182831],[-56.594506,-23.182839],[-56.594004,-23.181975],[-56.595178,-23.180682],[-56.595074,-23.180324],[-56.59424,-23.18016],[-56.594115,-23.179604],[-56.593511,-23.179209],[-56.592338,-23.179048],[-56.591382,-23.178422],[-56.591498,-23.178107],[-56.592351,-23.17786],[-56.592488,-23.177228],[-56.591379,-23.176711],[-56.591064,-23.176981],[-56.590788,-23.176357],[-56.588731,-23.175954],[-56.588429,-23.175118],[-56.587888,-23.175058],[-56.588318,-23.174404],[-56.587387,-23.173615],[-56.586671,-23.173541],[-56.584913,-23.172638],[-56.584788,-23.170962],[-56.585502,-23.171149],[-56.585875,-23.170829],[-56.584023,-23.168968],[-56.582786,-23.168229],[-56.581893,-23.168055],[-56.581516,-23.167503],[-56.579736,-23.167403],[-56.578337,-23.166618],[-56.578041,-23.166111],[-56.576733,-23.165855],[-56.576985,-23.163584],[-56.57508,-23.162892],[-56.57293,-23.159661],[-56.573208,-23.159093],[-56.572383,-23.158562],[-56.573226,-23.158018],[-56.572833,-23.157042],[-56.572365,-23.156927],[-56.572672,-23.156468],[-56.572174,-23.155924],[-56.572311,-23.154285],[-56.571142,-23.153144],[-56.57092,-23.152208],[-56.570414,-23.152107],[-56.570637,-23.15125],[-56.570108,-23.150133],[-56.570513,-23.149529],[-56.569442,-23.149707],[-56.5688,-23.149032],[-56.568827,-23.148531],[-56.56943,-23.147954],[-56.568505,-23.147098],[-56.568889,-23.1462],[-56.56887,-23.144755],[-56.567536,-23.143274],[-56.567471,-23.142813],[-56.566552,-23.143177],[-56.565979,-23.142742],[-56.566224,-23.141911],[-56.565423,-23.141232],[-56.565722,-23.139751],[-56.56515,-23.139478],[-56.565218,-23.138991],[-56.56416,-23.138238],[-56.563854,-23.13611],[-56.56311,-23.136266],[-56.562886,-23.135859],[-56.562426,-23.136445],[-56.562037,-23.136304],[-56.561595,-23.133394],[-56.559269,-23.132398],[-56.559496,-23.132074],[-56.558965,-23.13139],[-56.559797,-23.130896],[-56.558293,-23.130724],[-56.557981,-23.129897],[-56.556267,-23.129061],[-56.556462,-23.12824],[-56.555018,-23.12773],[-56.553977,-23.12648],[-56.553906,-23.125699],[-56.552876,-23.125556],[-56.552387,-23.124976],[-56.552489,-23.124592],[-56.552054,-23.123923],[-56.552652,-23.124028],[-56.552463,-23.123021],[-56.551755,-23.121953],[-56.551832,-23.121429],[-56.551333,-23.121292],[-56.55058,-23.120441],[-56.550442,-23.119591],[-56.54989,-23.11889],[-56.548678,-23.118701],[-56.549217,-23.11821],[-56.549336,-23.117587],[-56.548386,-23.116984],[-56.548196,-23.116496],[-56.547838,-23.116865],[-56.547022,-23.11619],[-56.545284,-23.116338],[-56.541098,-23.117984],[-56.538995,-23.11926],[-56.536119,-23.12025],[-56.534627,-23.121415],[-56.533752,-23.121679],[-56.528211,-23.122413],[-56.524567,-23.122289],[-56.519104,-23.123184],[-56.513259,-23.123623],[-56.507629,-23.16424],[-56.495679,-23.255422],[-56.494826,-23.25551],[-56.492287,-23.256658],[-56.49079,-23.256269],[-56.489251,-23.256905],[-56.487211,-23.255968],[-56.485728,-23.256338],[-56.482705,-23.255204],[-56.479285,-23.255165],[-56.476236,-23.253723],[-56.475339,-23.253635],[-56.473665,-23.254067],[-56.470118,-23.252303],[-56.468765,-23.252659],[-56.467408,-23.252285],[-56.466434,-23.251193],[-56.463991,-23.250932],[-56.462932,-23.249573],[-56.460821,-23.248211],[-56.457237,-23.246857],[-56.455067,-23.24661],[-56.452838,-23.24592],[-56.451423,-23.24461],[-56.449406,-23.244206],[-56.448343,-23.241854],[-56.445208,-23.240876],[-56.445282,-23.238979],[-56.444898,-23.238576],[-56.444768,-23.237343],[-56.444349,-23.236731],[-56.44399,-23.236581],[-56.442219,-23.237175],[-56.438509,-23.239055],[-56.437481,-23.238884],[-56.433556,-23.23728],[-56.432662,-23.236482],[-56.432078,-23.235373],[-56.428673,-23.234516],[-56.427368,-23.234552],[-56.424486,-23.231773],[-56.423563,-23.230361],[-56.423046,-23.228873],[-56.422072,-23.228386],[-56.419898,-23.229385],[-56.419153,-23.231035],[-56.427333,-23.24055],[-56.411014,-23.247156],[-56.382674,-23.258058],[-56.380084,-23.257872],[-56.375166,-23.256267],[-56.374262,-23.255735],[-56.373528,-23.25598],[-56.369401,-23.25586],[-56.367515,-23.256318],[-56.363315,-23.258925],[-56.361555,-23.260394],[-56.36027,-23.260859],[-56.357658,-23.26097],[-56.355452,-23.262022],[-56.3541,-23.262103],[-56.351697,-23.263592],[-56.348434,-23.264419],[-56.347666,-23.264994],[-56.346531,-23.266619],[-56.344703,-23.267592],[-56.342861,-23.266988],[-56.341255,-23.267351],[-56.338836,-23.267048],[-56.338016,-23.268295],[-56.336134,-23.268558],[-56.335145,-23.268983],[-56.334189,-23.270799],[-56.333427,-23.27081],[-56.33269,-23.271561],[-56.331541,-23.271524],[-56.330721,-23.272424],[-56.33003,-23.27243],[-56.328145,-23.2716],[-56.327063,-23.271776],[-56.324391,-23.271141],[-56.323278,-23.271335],[-56.321765,-23.270963],[-56.320492,-23.27009],[-56.319287,-23.269728],[-56.317408,-23.267882],[-56.314167,-23.266639],[-56.311056,-23.2664],[-56.308307,-23.265087],[-56.307436,-23.264081],[-56.307021,-23.262859],[-56.305351,-23.262184],[-56.303577,-23.262063],[-56.302187,-23.261131],[-56.300946,-23.260904],[-56.299918,-23.258546],[-56.299202,-23.258123],[-56.297307,-23.25891],[-56.295976,-23.257842],[-56.29365,-23.258076],[-56.292572,-23.257664],[-56.292032,-23.259487],[-56.291113,-23.259329],[-56.29044,-23.259737],[-56.290728,-23.260655],[-56.290248,-23.262125],[-56.287917,-23.262114],[-56.286633,-23.263066],[-56.287882,-23.265091],[-56.288396,-23.265088],[-56.288838,-23.265827],[-56.287458,-23.265983],[-56.287557,-23.267311],[-56.286557,-23.267695],[-56.287343,-23.268222],[-56.287553,-23.26882],[-56.287268,-23.269446],[-56.286501,-23.269872],[-56.286876,-23.271011],[-56.286595,-23.273099],[-56.286893,-23.273681],[-56.286956,-23.276757],[-56.28725,-23.277481],[-56.288395,-23.278484],[-56.287207,-23.279901],[-56.285802,-23.279655],[-56.284042,-23.280767],[-56.282437,-23.280692],[-56.282436,-23.281446],[-56.281804,-23.282631],[-56.283851,-23.283327],[-56.285108,-23.284607],[-56.286086,-23.286558],[-56.286001,-23.286909],[-56.284976,-23.287406],[-56.285067,-23.287921],[-56.285456,-23.287973],[-56.286137,-23.287493],[-56.287124,-23.287619],[-56.288443,-23.288601],[-56.291472,-23.28977],[-56.292151,-23.290442],[-56.292956,-23.290748],[-56.294214,-23.292447],[-56.296104,-23.296552],[-56.297571,-23.295985],[-56.298978,-23.295757],[-56.299271,-23.295997],[-56.299512,-23.296802],[-56.298917,-23.299519],[-56.300275,-23.302921],[-56.300122,-23.304275],[-56.299545,-23.305677],[-56.298911,-23.306465],[-56.29752,-23.307289],[-56.294585,-23.307859],[-56.293392,-23.307867],[-56.290342,-23.306973],[-56.289303,-23.307428],[-56.289163,-23.308539],[-56.290272,-23.309632],[-56.289536,-23.310699],[-56.28985,-23.313609],[-56.289568,-23.31429],[-56.287746,-23.316138],[-56.287647,-23.317989],[-56.290407,-23.319921],[-56.295181,-23.320467],[-56.296802,-23.321774],[-56.298451,-23.320937],[-56.299304,-23.320887],[-56.299853,-23.32149],[-56.30092,-23.325383],[-56.302506,-23.3268],[-56.30607,-23.326698],[-56.307494,-23.326149],[-56.308765,-23.32503],[-56.311682,-23.326845],[-56.31193,-23.327555],[-56.310217,-23.328762],[-56.30989,-23.329587],[-56.310177,-23.330094],[-56.311411,-23.32972],[-56.31205,-23.33017],[-56.311407,-23.332701],[-56.31172,-23.333601],[-56.309769,-23.335756],[-56.310359,-23.337037],[-56.313382,-23.337763],[-56.314021,-23.338191],[-56.313369,-23.339218],[-56.313394,-23.33971],[-56.314612,-23.340447],[-56.31487,-23.341103],[-56.313593,-23.344539],[-56.313979,-23.34529],[-56.315441,-23.345602],[-56.3192,-23.347927],[-56.321783,-23.347352],[-56.323535,-23.34626],[-56.32429,-23.34608],[-56.325479,-23.346415],[-56.331138,-23.349995],[-56.331687,-23.351243],[-56.332518,-23.35187],[-56.334739,-23.352099],[-56.337276,-23.352916],[-56.338189,-23.352847],[-56.340102,-23.351389],[-56.341768,-23.351506],[-56.345371,-23.353463],[-56.34867,-23.352524],[-56.349741,-23.352712],[-56.350966,-23.35378],[-56.351635,-23.355029],[-56.353215,-23.356648],[-56.353762,-23.358519],[-56.354864,-23.36043],[-56.355538,-23.360652],[-56.358835,-23.360116],[-56.35951,-23.360229],[-56.360576,-23.361479],[-56.361874,-23.363977],[-56.360156,-23.366132],[-56.359265,-23.369794],[-56.358825,-23.370525],[-56.357591,-23.371216],[-56.355723,-23.371721],[-56.355243,-23.372379],[-56.354507,-23.376848],[-56.353388,-23.378236],[-56.352985,-23.37959],[-56.354132,-23.380401],[-56.358635,-23.382252],[-56.362025,-23.383063],[-56.362619,-23.38345],[-56.36296,-23.386915],[-56.364176,-23.387855],[-56.365627,-23.389757],[-56.367025,-23.390093],[-56.371223,-23.39022],[-56.372268,-23.389647],[-56.374272,-23.387841],[-56.377991,-23.38846],[-56.378942,-23.388876],[-56.379658,-23.388549],[-56.384891,-23.390494],[-56.387372,-23.394819],[-56.387776,-23.397707],[-56.38825,-23.398286],[-56.389676,-23.398924],[-56.389702,-23.399914],[-56.392669,-23.402289],[-56.393082,-23.403115],[-56.396107,-23.406096],[-56.397557,-23.408163],[-56.398566,-23.408827],[-56.404348,-23.408107],[-56.404822,-23.408493],[-56.40476,-23.409235],[-56.405467,-23.410805],[-56.405604,-23.413554],[-56.406107,-23.414353],[-56.408192,-23.414279],[-56.410276,-23.414616],[-56.414707,-23.416172],[-56.415092,-23.416586],[-56.415089,-23.417301],[-56.41666,-23.419011],[-56.417335,-23.421295],[-56.417989,-23.4216],[-56.419934,-23.4196],[-56.420631,-23.416937],[-56.42278,-23.415927],[-56.424952,-23.416458],[-56.426681,-23.416162],[-56.427304,-23.416604],[-56.430735,-23.415434],[-56.432073,-23.415824],[-56.433409,-23.416956],[-56.433849,-23.418579],[-56.43483,-23.419023],[-56.43626,-23.418945],[-56.437782,-23.418374],[-56.44035,-23.416816],[-56.443331,-23.416249],[-56.448305,-23.416212],[-56.449887,-23.415366],[-56.450755,-23.414406],[-56.452935,-23.413095],[-56.454011,-23.412026],[-56.45476,-23.411039],[-56.457163,-23.406073],[-56.458328,-23.405334],[-56.463099,-23.403784],[-56.463783,-23.404034],[-56.464108,-23.404695],[-56.46392,-23.407085],[-56.46576,-23.408741],[-56.469546,-23.407957],[-56.469962,-23.408096],[-56.470346,-23.408949],[-56.472609,-23.409177],[-56.475498,-23.409049],[-56.476748,-23.4093],[-56.481591,-23.41234],[-56.483165,-23.413637],[-56.484618,-23.415374],[-56.484882,-23.416419],[-56.484605,-23.418535],[-56.485494,-23.419912],[-56.487246,-23.421128],[-56.489448,-23.42174],[-56.489715,-23.422153],[-56.489503,-23.423059],[-56.491376,-23.424027],[-56.495278,-23.424095],[-56.496257,-23.42506],[-56.498461,-23.42526],[-56.498997,-23.425097],[-56.500675,-23.422683],[-56.503239,-23.422114],[-56.503505,-23.4225],[-56.503647,-23.424452],[-56.508647,-23.425512],[-56.510286,-23.42549],[-56.511029,-23.425767],[-56.51174,-23.427006],[-56.512899,-23.427642],[-56.515073,-23.427951],[-56.516697,-23.431695],[-56.516569,-23.434168],[-56.51537,-23.436144],[-56.515423,-23.43804],[-56.516102,-23.439912],[-56.516068,-23.440956],[-56.515649,-23.441477],[-56.514864,-23.444251],[-56.51584,-23.446233],[-56.51583,-23.449009],[-56.51651,-23.450468],[-56.517521,-23.451021],[-56.520855,-23.451774],[-56.523858,-23.453432],[-56.52504,-23.456377],[-56.525813,-23.456902],[-56.529031,-23.456801],[-56.529034,-23.455839],[-56.531216,-23.454059],[-56.533371,-23.451262],[-56.534057,-23.451017],[-56.535635,-23.451351],[-56.537389,-23.452236],[-56.540761,-23.450734],[-56.541242,-23.449581],[-56.543003,-23.448789],[-56.543717,-23.448929],[-56.548981,-23.451803],[-56.550261,-23.452191],[-56.551245,-23.451864],[-56.551963,-23.451041],[-56.552745,-23.448927],[-56.555514,-23.44943],[-56.55689,-23.447867],[-56.557399,-23.446961],[-56.555584,-23.446324],[-56.554993,-23.444893],[-56.555294,-23.443794],[-56.556249,-23.44344],[-56.560389,-23.443809],[-56.564763,-23.445305],[-56.566785,-23.446685],[-56.567406,-23.448171],[-56.56803,-23.448448],[-56.571517,-23.448265],[-56.572437,-23.44934],[-56.575535,-23.449651],[-56.581039,-23.451947],[-56.581425,-23.452525],[-56.582944,-23.452584],[-56.585568,-23.452069],[-56.587827,-23.453559],[-56.590892,-23.454969],[-56.592352,-23.455028],[-56.595275,-23.453799],[-56.597985,-23.454191],[-56.599146,-23.454771],[-56.600755,-23.454692],[-56.60236,-23.455824],[-56.603637,-23.457449],[-56.606377,-23.457895],[-56.607626,-23.458558],[-56.608461,-23.458395],[-56.608969,-23.457902],[-56.609215,-23.455346],[-56.609902,-23.454716],[-56.611005,-23.454471],[-56.614132,-23.454919],[-56.615501,-23.455444],[-56.616689,-23.456739],[-56.617885,-23.455533],[-56.61959,-23.453035],[-56.622306,-23.451557],[-56.624637,-23.449034],[-56.629588,-23.447039],[-56.630632,-23.446465],[-56.631947,-23.444983],[-56.632783,-23.444628],[-56.634928,-23.444688],[-56.637284,-23.443539],[-56.63925,-23.443818],[-56.640532,-23.443409],[-56.642443,-23.441709],[-56.643189,-23.441546],[-56.643962,-23.441905],[-56.644972,-23.443089],[-56.648306,-23.444031],[-56.648696,-23.443098],[-56.649323,-23.442742],[-56.652272,-23.442721],[-56.656238,-23.441245],[-56.657754,-23.442788],[-56.661537,-23.443044],[-56.663237,-23.442388],[-56.663892,-23.442526],[-56.664693,-23.44371],[-56.665884,-23.444098],[-56.666689,-23.443989],[-56.667168,-23.442753],[-56.668749,-23.442234],[-56.669761,-23.442347],[-56.67119,-23.443037],[-56.672203,-23.442929],[-56.673815,-23.44175],[-56.674381,-23.441779],[-56.676434,-23.442773],[-56.676909,-23.443269],[-56.676964,-23.445083],[-56.678035,-23.445937],[-56.679734,-23.445583],[-56.680389,-23.44575],[-56.683927,-23.449001],[-56.685382,-23.451038],[-56.686305,-23.451369],[-56.688599,-23.451401],[-56.693488,-23.449982],[-56.694473,-23.449296],[-56.695222,-23.447731],[-56.696027,-23.447293],[-56.698739,-23.446831],[-56.699815,-23.445294],[-56.701306,-23.444857],[-56.703188,-23.442496],[-56.705693,-23.441374],[-56.709423,-23.438577],[-56.710051,-23.437754],[-56.710292,-23.436352],[-56.710769,-23.436161],[-56.711692,-23.436382],[-56.714731,-23.436278],[-56.715533,-23.437434],[-56.718152,-23.43873],[-56.71982,-23.438706],[-56.720536,-23.43824],[-56.720508,-23.4378],[-56.719049,-23.437275],[-56.718933,-23.435681],[-56.719324,-23.433812],[-56.72013,-23.433319],[-56.721173,-23.433266],[-56.721649,-23.433569],[-56.722063,-23.434669],[-56.722867,-23.435193],[-56.726586,-23.432975],[-56.726037,-23.432877]]]}}]}
