{"type":"FeatureCollection","name":"distrito","features":[{"type":"Feature","properties":{"clave":"5-11","nombre":"Dr. Juan Manuel Frutos"},"geometry":{"type":"Polygon","coordinates":[[[-55.828425,-25.493334],[-55.829067,-25.493271],[-55.829188,-25.493809],[-55.82972,-25.493214],[-55.82995,-25.493604],[-55.830096,-25.492726],[-55.830408,-25.492528],[-55.830394,-25.491629],[-55.831085,-25.491555],[-55.832014,-25.490975],[-55.832251,-25.491392],[-55.833447,-25.491512],[-55.834341,-25.490248],[-55.835232,-25.489583],[-55.837404,-25.490431],[-55.837641,-25.491114],[-55.839051,-25.49111],[-55.84086,-25.490468],[-55.842177,-25.490423],[-55.842764,-25.491019],[-55.843204,-25.490601],[-55.843723,-25.491065],[-55.844448,-25.490805],[-55.844278,-25.491542],[-55.844998,-25.491687],[-55.845357,-25.492308],[-55.845754,-25.492063],[-55.845307,-25.491722],[-55.845436,-25.491127],[-55.845984,-25.491572],[-55.846321,-25.491194],[-55.847401,-25.491215],[-55.848092,-25.490058],[-55.847664,-25.489704],[-55.848444,-25.489276],[-55.847828,-25.488866],[-55.847791,-25.488507],[-55.847995,-25.488363],[-55.848118,-25.488762],[-55.848613,-25.488707],[-55.848891,-25.487292],[-55.85095,-25.486748],[-55.851852,-25.485182],[-55.852596,-25.485122],[-55.853713,-25.485498],[-55.85413,-25.485063],[-55.853928,-25.4841],[-55.854393,-25.484143],[-55.85466,-25.483678],[-55.855243,-25.483772],[-55.855076,-25.483368],[-55.856084,-25.483063],[-55.856276,-25.482403],[-55.856907,-25.48255],[-55.85666,-25.482006],[-55.856892,-25.481585],[-55.857957,-25.481948],[-55.857657,-25.48098],[-55.857991,-25.480423],[-55.859205,-25.480011],[-55.858816,-25.47969],[-55.858874,-25.479333],[-55.859906,-25.479183],[-55.860803,-25.47943],[-55.860811,-25.478829],[-55.861261,-25.478419],[-55.860973,-25.477677],[-55.861682,-25.476829],[-55.863226,-25.476783],[-55.865003,-25.477418],[-55.867006,-25.475896],[-55.867483,-25.476217],[-55.868232,-25.476169],[-55.869043,-25.473523],[-55.870527,-25.473134],[-55.870106,-25.471706],[-55.870305,-25.471018],[-55.871155,-25.470751],[-55.871033,-25.470289],[-55.871804,-25.469791],[-55.871889,-25.469085],[-55.872822,-25.469252],[-55.871613,-25.468285],[-55.871585,-25.46801],[-55.871931,-25.467902],[-55.871475,-25.467199],[-55.87219,-25.467491],[-55.872341,-25.466654],[-55.873121,-25.465893],[-55.873432,-25.465836],[-55.873778,-25.466685],[-55.873894,-25.465429],[-55.874841,-25.465364],[-55.87492,-25.464867],[-55.875926,-25.464963],[-55.875775,-25.464415],[-55.875087,-25.464507],[-55.874704,-25.463837],[-55.875409,-25.463447],[-55.875072,-25.463123],[-55.875274,-25.462889],[-55.87586,-25.462773],[-55.87545,-25.462438],[-55.874964,-25.462708],[-55.87512,-25.462147],[-55.8743,-25.461441],[-55.87476,-25.460536],[-55.875187,-25.460361],[-55.874768,-25.459956],[-55.875383,-25.459592],[-55.874821,-25.459224],[-55.875282,-25.45869],[-55.875154,-25.45805],[-55.875577,-25.458311],[-55.875659,-25.457767],[-55.876357,-25.457707],[-55.876324,-25.457215],[-55.875962,-25.457353],[-55.875489,-25.45658],[-55.875916,-25.456735],[-55.876652,-25.456392],[-55.876776,-25.455159],[-55.876212,-25.454747],[-55.87664,-25.454405],[-55.876337,-25.453464],[-55.876872,-25.453202],[-55.876594,-25.452705],[-55.875986,-25.452987],[-55.875998,-25.452153],[-55.875556,-25.45263],[-55.875388,-25.452454],[-55.875375,-25.451658],[-55.875865,-25.451119],[-55.874994,-25.45089],[-55.875671,-25.450468],[-55.875277,-25.450301],[-55.8756,-25.449609],[-55.874631,-25.448771],[-55.87455,-25.449508],[-55.873963,-25.449803],[-55.873935,-25.449053],[-55.874839,-25.447635],[-55.875573,-25.447674],[-55.875283,-25.446964],[-55.876035,-25.447279],[-55.876115,-25.446608],[-55.877497,-25.446754],[-55.877515,-25.446342],[-55.878173,-25.446128],[-55.878558,-25.444703],[-55.877922,-25.444787],[-55.877282,-25.44431],[-55.877609,-25.443951],[-55.877279,-25.442664],[-55.878036,-25.442234],[-55.877812,-25.441706],[-55.87832,-25.44138],[-55.877551,-25.441],[-55.878033,-25.440926],[-55.877918,-25.440387],[-55.878398,-25.440077],[-55.877773,-25.439931],[-55.878257,-25.439031],[-55.877703,-25.438806],[-55.878101,-25.438625],[-55.877795,-25.43847],[-55.877575,-25.437621],[-55.878254,-25.4378],[-55.878385,-25.437097],[-55.879085,-25.437441],[-55.879561,-25.437246],[-55.878689,-25.436782],[-55.878469,-25.43605],[-55.878653,-25.435729],[-55.87917,-25.435805],[-55.878911,-25.435149],[-55.879424,-25.434377],[-55.879714,-25.435091],[-55.880273,-25.434504],[-55.880486,-25.43374],[-55.8812,-25.43352],[-55.881824,-25.43234],[-55.881811,-25.431879],[-55.88143,-25.431589],[-55.882119,-25.431078],[-55.881436,-25.430672],[-55.881843,-25.430707],[-55.882358,-25.430165],[-55.88184,-25.430036],[-55.88207,-25.429499],[-55.881336,-25.428917],[-55.881617,-25.42843],[-55.882176,-25.428678],[-55.882498,-25.427446],[-55.88318,-25.427317],[-55.882976,-25.426881],[-55.883376,-25.426463],[-55.883152,-25.425624],[-55.883475,-25.425835],[-55.883655,-25.425511],[-55.88321,-25.425164],[-55.883803,-25.425186],[-55.88361,-25.424243],[-55.884028,-25.423809],[-55.885126,-25.423505],[-55.884709,-25.423101],[-55.88517,-25.423062],[-55.885266,-25.422626],[-55.885874,-25.422355],[-55.885489,-25.422198],[-55.885514,-25.421361],[-55.885885,-25.421396],[-55.88721,-25.420419],[-55.887339,-25.419833],[-55.886702,-25.419615],[-55.886958,-25.41921],[-55.88739,-25.419415],[-55.887367,-25.419095],[-55.888121,-25.418885],[-55.887702,-25.418531],[-55.888243,-25.418391],[-55.887858,-25.418182],[-55.88827,-25.417666],[-55.887811,-25.417513],[-55.888832,-25.415858],[-55.888462,-25.415729],[-55.88868,-25.414994],[-55.888049,-25.413432],[-55.888834,-25.413591],[-55.888834,-25.413253],[-55.889501,-25.412879],[-55.889265,-25.412154],[-55.889949,-25.411491],[-55.890367,-25.411517],[-55.890184,-25.411177],[-55.890564,-25.410869],[-55.890008,-25.410458],[-55.890554,-25.410381],[-55.890218,-25.409895],[-55.89069,-25.409696],[-55.890179,-25.409592],[-55.890294,-25.40883],[-55.890866,-25.409209],[-55.891193,-25.408806],[-55.890813,-25.408744],[-55.891133,-25.408421],[-55.890803,-25.408125],[-55.891351,-25.407696],[-55.891188,-25.406557],[-55.8916,-25.406195],[-55.891351,-25.405976],[-55.892544,-25.404685],[-55.891929,-25.40431],[-55.891911,-25.403921],[-55.892766,-25.403183],[-55.892927,-25.402837],[-55.892664,-25.402442],[-55.893437,-25.40201],[-55.892828,-25.401495],[-55.893359,-25.401345],[-55.893532,-25.400859],[-55.893039,-25.39863],[-55.89184,-25.397749],[-55.891294,-25.396445],[-55.891486,-25.39618],[-55.890821,-25.395448],[-55.891167,-25.394999],[-55.890635,-25.394774],[-55.890912,-25.394546],[-55.890711,-25.394278],[-55.890958,-25.393047],[-55.890655,-25.392702],[-55.891049,-25.392113],[-55.890744,-25.391949],[-55.891406,-25.391209],[-55.891162,-25.390846],[-55.89186,-25.389799],[-55.891778,-25.388823],[-55.892393,-25.388304],[-55.892193,-25.387865],[-55.89242,-25.388056],[-55.892828,-25.387522],[-55.892922,-25.386601],[-55.89234,-25.386064],[-55.892875,-25.385224],[-55.892857,-25.384804],[-55.892432,-25.384566],[-55.892724,-25.383412],[-55.892214,-25.382817],[-55.892351,-25.382146],[-55.892091,-25.382378],[-55.891763,-25.381757],[-55.892197,-25.381368],[-55.891854,-25.381185],[-55.892172,-25.380885],[-55.891853,-25.379862],[-55.89257,-25.379082],[-55.892148,-25.378808],[-55.891882,-25.37751],[-55.892346,-25.377152],[-55.891944,-25.376345],[-55.892383,-25.376123],[-55.892436,-25.375478],[-55.892868,-25.375558],[-55.893021,-25.374751],[-55.893921,-25.374067],[-55.894182,-25.372958],[-55.89533,-25.371603],[-55.895467,-25.370485],[-55.896631,-25.36959],[-55.897004,-25.368785],[-55.8968,-25.366504],[-55.896129,-25.36458],[-55.897206,-25.361102],[-55.898198,-25.360794],[-55.898786,-25.35971],[-55.900825,-25.357929],[-55.900937,-25.356647],[-55.901479,-25.356137],[-55.901862,-25.355033],[-55.902545,-25.355372],[-55.903662,-25.35441],[-55.904027,-25.352702],[-55.905039,-25.351973],[-55.904995,-25.351156],[-55.905632,-25.34972],[-55.905359,-25.349298],[-55.90552,-25.348789],[-55.907846,-25.346075],[-55.909535,-25.345094],[-55.911393,-25.340684],[-55.913631,-25.337255],[-55.914119,-25.336717],[-55.91581,-25.336531],[-55.916658,-25.335865],[-55.917077,-25.335908],[-55.917524,-25.335383],[-55.919004,-25.334798],[-55.919394,-25.333122],[-55.919695,-25.332966],[-55.919639,-25.332121],[-55.922016,-25.329565],[-55.921721,-25.32815],[-55.922459,-25.326011],[-55.922399,-25.324529],[-55.923257,-25.320973],[-55.923026,-25.320303],[-55.92337,-25.319963],[-55.923253,-25.319371],[-55.924673,-25.317295],[-55.92449,-25.316517],[-55.925046,-25.315844],[-55.925651,-25.315912],[-55.925593,-25.315193],[-55.926066,-25.314822],[-55.925477,-25.313332],[-55.926473,-25.312401],[-55.92637,-25.311289],[-55.926764,-25.310407],[-55.927532,-25.309623],[-55.930574,-25.308963],[-55.932339,-25.309202],[-55.934264,-25.308755],[-55.935975,-25.308731],[-55.936803,-25.308385],[-55.939403,-25.308616],[-55.940068,-25.308192],[-55.943144,-25.308715],[-55.945653,-25.30853],[-55.947462,-25.308746],[-55.953423,-25.310441],[-55.955335,-25.310183],[-55.956589,-25.309736],[-55.957665,-25.308376],[-55.962805,-25.307487],[-55.963668,-25.306888],[-55.966911,-25.305651],[-55.968124,-25.304373],[-55.97174,-25.301725],[-55.975415,-25.300175],[-55.977559,-25.298804],[-55.979459,-25.298149],[-55.98187,-25.295727],[-55.981747,-25.292972],[-55.980966,-25.29033],[-55.981082,-25.287171],[-55.98,-25.28426],[-55.982742,-25.269456],[-55.981698,-25.251263],[-55.981992,-25.248403],[-55.972731,-25.232311],[-55.97048,-25.223897],[-55.967389,-25.214706],[-55.966373,-25.209312],[-55.965734,-25.209448],[-55.965458,-25.209234],[-55.964549,-25.209837],[-55.964104,-25.209527],[-55.963199,-25.20966],[-55.962981,-25.210024],[-55.961794,-25.210179],[-55.96049,-25.210838],[-55.957877,-25.209916],[-55.956231,-25.210672],[-55.955272,-25.21058],[-55.9547,-25.210192],[-55.954554,-25.210724],[-55.954156,-25.210509],[-55.95367,-25.210835],[-55.952262,-25.210409],[-55.950872,-25.21146],[-55.949853,-25.211331],[-55.947424,-25.212199],[-55.947046,-25.211971],[-55.946605,-25.212464],[-55.945316,-25.212315],[-55.944573,-25.212621],[-55.944175,-25.213201],[-55.941936,-25.213573],[-55.940564,-25.214692],[-55.938722,-25.215383],[-55.937125,-25.215137],[-55.936458,-25.216039],[-55.935325,-25.216424],[-55.934751,-25.217377],[-55.934441,-25.217203],[-55.933859,-25.21747],[-55.933757,-25.21802],[-55.934123,-25.21828],[-55.932968,-25.219784],[-55.933334,-25.220144],[-55.932261,-25.221075],[-55.931619,-25.220461],[-55.930522,-25.221419],[-55.930352,-25.221233],[-55.929721,-25.221513],[-55.929389,-25.220977],[-55.928599,-25.22066],[-55.927801,-25.221259],[-55.927173,-25.221115],[-55.926135,-25.221676],[-55.925349,-25.22168],[-55.924642,-25.222076],[-55.924143,-25.222813],[-55.921577,-25.223372],[-55.920702,-25.224481],[-55.918694,-25.224362],[-55.917057,-25.22673],[-55.91639,-25.226702],[-55.915859,-25.22724],[-55.915089,-25.227131],[-55.914788,-25.227571],[-55.913637,-25.227468],[-55.912886,-25.228108],[-55.912362,-25.227815],[-55.911823,-25.228466],[-55.911211,-25.228258],[-55.908436,-25.229357],[-55.908409,-25.229723],[-55.907797,-25.2297],[-55.907159,-25.230454],[-55.906578,-25.230418],[-55.906521,-25.230838],[-55.905815,-25.231239],[-55.905544,-25.231887],[-55.904208,-25.23227],[-55.902426,-25.233679],[-55.901886,-25.233169],[-55.901548,-25.233492],[-55.90128,-25.233101],[-55.900675,-25.23372],[-55.900878,-25.234037],[-55.90056,-25.234297],[-55.900038,-25.234063],[-55.899356,-25.23459],[-55.89903,-25.234258],[-55.898375,-25.234267],[-55.897678,-25.234781],[-55.896762,-25.234431],[-55.896467,-25.234623],[-55.896492,-25.235079],[-55.895571,-25.234973],[-55.89501,-25.235646],[-55.894133,-25.235671],[-55.892491,-25.236598],[-55.891514,-25.236618],[-55.890128,-25.237203],[-55.889899,-25.236718],[-55.888875,-25.237717],[-55.886432,-25.237825],[-55.88567,-25.238339],[-55.884614,-25.238426],[-55.883288,-25.239427],[-55.883326,-25.239707],[-55.882138,-25.240123],[-55.881297,-25.24208],[-55.880954,-25.242439],[-55.880244,-25.242474],[-55.880244,-25.242867],[-55.879429,-25.242861],[-55.880075,-25.243155],[-55.879068,-25.243427],[-55.879267,-25.243744],[-55.878614,-25.244033],[-55.877756,-25.245286],[-55.876253,-25.245816],[-55.876947,-25.246589],[-55.876304,-25.24718],[-55.876431,-25.247434],[-55.875275,-25.247195],[-55.874535,-25.247483],[-55.874777,-25.247742],[-55.873415,-25.24807],[-55.873098,-25.247919],[-55.872857,-25.248283],[-55.872082,-25.247956],[-55.872002,-25.248272],[-55.871622,-25.2483],[-55.871697,-25.248581],[-55.870973,-25.248914],[-55.870088,-25.248799],[-55.868891,-25.249869],[-55.869048,-25.250403],[-55.86879,-25.250825],[-55.866143,-25.25113],[-55.865381,-25.251738],[-55.864681,-25.251602],[-55.864116,-25.252406],[-55.859967,-25.251782],[-55.859231,-25.252192],[-55.858855,-25.251968],[-55.857635,-25.252148],[-55.85745,-25.25179],[-55.856979,-25.25175],[-55.85582,-25.252084],[-55.85592,-25.251557],[-55.85519,-25.251501],[-55.854592,-25.251528],[-55.854982,-25.251802],[-55.85338,-25.252742],[-55.852997,-25.252604],[-55.853287,-25.252444],[-55.852776,-25.252232],[-55.853141,-25.25209],[-55.852928,-25.251985],[-55.85193,-25.252027],[-55.850296,-25.252714],[-55.849715,-25.252366],[-55.850181,-25.252149],[-55.85001,-25.252044],[-55.84861,-25.251997],[-55.847908,-25.251648],[-55.847015,-25.251907],[-55.846104,-25.251665],[-55.845976,-25.25198],[-55.846571,-25.252017],[-55.846708,-25.252393],[-55.846011,-25.252396],[-55.846196,-25.252718],[-55.845976,-25.25282],[-55.845483,-25.252694],[-55.845526,-25.252993],[-55.844927,-25.253187],[-55.845331,-25.253321],[-55.845225,-25.253519],[-55.844545,-25.253644],[-55.844308,-25.253213],[-55.843995,-25.253929],[-55.84272,-25.253639],[-55.842667,-25.254117],[-55.842318,-25.253857],[-55.842254,-25.254317],[-55.840892,-25.25441],[-55.840816,-25.25496],[-55.839183,-25.255209],[-55.838826,-25.256213],[-55.838346,-25.256178],[-55.837426,-25.256695],[-55.837831,-25.25789],[-55.83676,-25.257665],[-55.835157,-25.258329],[-55.835251,-25.2594],[-55.83453,-25.259516],[-55.834482,-25.260012],[-55.833575,-25.260452],[-55.832535,-25.260471],[-55.831355,-25.261681],[-55.831012,-25.261041],[-55.830377,-25.26161],[-55.829139,-25.261798],[-55.827881,-25.262416],[-55.826477,-25.261953],[-55.82545,-25.260984],[-55.824803,-25.261394],[-55.824096,-25.260788],[-55.823839,-25.261106],[-55.822172,-25.260714],[-55.820159,-25.259632],[-55.819326,-25.260009],[-55.818591,-25.259647],[-55.818684,-25.260171],[-55.81824,-25.260195],[-55.818135,-25.260659],[-55.817154,-25.260258],[-55.817322,-25.260707],[-55.816534,-25.260402],[-55.816216,-25.260666],[-55.816596,-25.260732],[-55.81644,-25.260925],[-55.813949,-25.261257],[-55.812954,-25.260477],[-55.81128,-25.260234],[-55.811068,-25.259537],[-55.810717,-25.260134],[-55.810324,-25.259603],[-55.808873,-25.259934],[-55.808305,-25.259465],[-55.807714,-25.259686],[-55.807886,-25.260215],[-55.807305,-25.260161],[-55.807063,-25.260543],[-55.806151,-25.260079],[-55.805929,-25.260642],[-55.805573,-25.260495],[-55.805453,-25.260719],[-55.804827,-25.260547],[-55.803992,-25.260748],[-55.804081,-25.260221],[-55.803445,-25.260477],[-55.802875,-25.260319],[-55.802311,-25.261109],[-55.80133,-25.261201],[-55.801334,-25.261435],[-55.800454,-25.26099],[-55.800244,-25.261603],[-55.799665,-25.261643],[-55.79963,-25.262072],[-55.798277,-25.262336],[-55.797921,-25.262902],[-55.796282,-25.263471],[-55.795731,-25.263476],[-55.795771,-25.263133],[-55.794979,-25.263108],[-55.794123,-25.264162],[-55.793153,-25.264245],[-55.7918,-25.265055],[-55.78979,-25.264818],[-55.788213,-25.266033],[-55.78792,-25.266694],[-55.786808,-25.267321],[-55.786825,-25.267768],[-55.786236,-25.267479],[-55.784755,-25.268207],[-55.783734,-25.267951],[-55.783309,-25.268394],[-55.782788,-25.268449],[-55.782696,-25.26931],[-55.782287,-25.269803],[-55.781354,-25.270008],[-55.781479,-25.270618],[-55.781074,-25.270814],[-55.781115,-25.271211],[-55.780673,-25.271438],[-55.7803,-25.271182],[-55.780105,-25.271478],[-55.77961,-25.271357],[-55.779686,-25.271922],[-55.779131,-25.272865],[-55.778789,-25.272953],[-55.779246,-25.273634],[-55.778525,-25.273754],[-55.778872,-25.274303],[-55.778012,-25.274531],[-55.778496,-25.275068],[-55.777878,-25.274882],[-55.777665,-25.275327],[-55.777163,-25.275233],[-55.776896,-25.275894],[-55.777143,-25.276158],[-55.776759,-25.276385],[-55.77645,-25.275967],[-55.776097,-25.276556],[-55.775487,-25.276456],[-55.775791,-25.276901],[-55.774908,-25.277056],[-55.77532,-25.277425],[-55.774534,-25.277766],[-55.775093,-25.278033],[-55.773426,-25.278628],[-55.77264,-25.278545],[-55.772151,-25.279218],[-55.771768,-25.279197],[-55.771716,-25.279603],[-55.770959,-25.279497],[-55.770193,-25.280249],[-55.768509,-25.2808],[-55.76848,-25.281328],[-55.768095,-25.281045],[-55.767711,-25.281371],[-55.76719,-25.281344],[-55.766662,-25.280342],[-55.765556,-25.280599],[-55.765234,-25.280203],[-55.764329,-25.280489],[-55.762256,-25.279384],[-55.761825,-25.279994],[-55.760288,-25.2792],[-55.759051,-25.279515],[-55.758165,-25.279137],[-55.757312,-25.279351],[-55.756526,-25.279146],[-55.756285,-25.279483],[-55.754935,-25.279836],[-55.75476,-25.280361],[-55.754433,-25.279942],[-55.753558,-25.280254],[-55.75284,-25.27972],[-55.752361,-25.28022],[-55.751838,-25.279671],[-55.750702,-25.280192],[-55.750122,-25.280009],[-55.749679,-25.280455],[-55.749189,-25.280257],[-55.749224,-25.280662],[-55.748933,-25.280513],[-55.748621,-25.280738],[-55.748578,-25.280345],[-55.748353,-25.280387],[-55.747967,-25.280837],[-55.747549,-25.280747],[-55.746918,-25.281228],[-55.746018,-25.281418],[-55.745394,-25.281323],[-55.744985,-25.280741],[-55.743667,-25.280762],[-55.743222,-25.281566],[-55.742784,-25.281],[-55.742389,-25.281451],[-55.741878,-25.281028],[-55.740865,-25.281295],[-55.741004,-25.280743],[-55.740132,-25.280753],[-55.73939,-25.281673],[-55.738624,-25.281929],[-55.738728,-25.281299],[-55.737678,-25.280928],[-55.736507,-25.281558],[-55.735563,-25.281059],[-55.734714,-25.281476],[-55.73475,-25.280859],[-55.732102,-25.281036],[-55.731752,-25.280546],[-55.73144,-25.281133],[-55.731167,-25.280413],[-55.729619,-25.280008],[-55.728489,-25.278766],[-55.728123,-25.279053],[-55.727763,-25.278729],[-55.727218,-25.279574],[-55.726886,-25.27926],[-55.726568,-25.279482],[-55.725783,-25.278665],[-55.725452,-25.278717],[-55.724886,-25.278033],[-55.724248,-25.277835],[-55.723997,-25.27727],[-55.723186,-25.277652],[-55.721961,-25.276527],[-55.720192,-25.27608],[-55.719367,-25.275461],[-55.718911,-25.276055],[-55.718198,-25.275042],[-55.71752,-25.275669],[-55.7177,-25.275003],[-55.716502,-25.274892],[-55.716203,-25.275346],[-55.715984,-25.274906],[-55.71499,-25.27457],[-55.714743,-25.274922],[-55.714013,-25.274688],[-55.713695,-25.274856],[-55.713339,-25.274181],[-55.712372,-25.274397],[-55.712012,-25.274182],[-55.711955,-25.274651],[-55.711055,-25.274664],[-55.710654,-25.274167],[-55.709935,-25.274685],[-55.708913,-25.274796],[-55.708651,-25.274533],[-55.708384,-25.275143],[-55.707621,-25.27468],[-55.707417,-25.275081],[-55.707103,-25.27464],[-55.7059,-25.275211],[-55.705552,-25.274879],[-55.70512,-25.274958],[-55.703929,-25.276061],[-55.704988,-25.283326],[-55.708574,-25.28947],[-55.708096,-25.293245],[-55.709413,-25.295599],[-55.70979,-25.298031],[-55.711564,-25.300936],[-55.712872,-25.302031],[-55.714583,-25.304398],[-55.71557,-25.305188],[-55.716972,-25.308329],[-55.716677,-25.310394],[-55.717065,-25.312587],[-55.716744,-25.314078],[-55.717375,-25.315894],[-55.716366,-25.322147],[-55.716824,-25.323497],[-55.716759,-25.325212],[-55.717089,-25.325643],[-55.716754,-25.327745],[-55.72862,-25.335572],[-55.733103,-25.37714],[-55.732419,-25.389089],[-55.731871,-25.390506],[-55.730626,-25.391164],[-55.729126,-25.392569],[-55.72743,-25.392974],[-55.726045,-25.393946],[-55.723588,-25.395017],[-55.722152,-25.395077],[-55.719291,-25.396515],[-55.718629,-25.396568],[-55.718501,-25.397433],[-55.717934,-25.398124],[-55.718386,-25.39903],[-55.718213,-25.39939],[-55.71681,-25.400588],[-55.716042,-25.40045],[-55.715055,-25.400992],[-55.714769,-25.403568],[-55.713884,-25.404779],[-55.713031,-25.40809],[-55.713065,-25.408997],[-55.712668,-25.409522],[-55.712377,-25.412323],[-55.712929,-25.414283],[-55.711919,-25.414653],[-55.710233,-25.416074],[-55.709177,-25.41801],[-55.706738,-25.41965],[-55.705997,-25.420876],[-55.704598,-25.421866],[-55.703151,-25.423917],[-55.702684,-25.425208],[-55.702927,-25.426027],[-55.703617,-25.42676],[-55.702774,-25.428089],[-55.702203,-25.430942],[-55.701597,-25.431402],[-55.701315,-25.432374],[-55.701825,-25.433182],[-55.702219,-25.434928],[-55.700657,-25.437447],[-55.69949,-25.441563],[-55.695332,-25.444655],[-55.694833,-25.446],[-55.694877,-25.447093],[-55.693883,-25.449008],[-55.690621,-25.453236],[-55.691032,-25.454237],[-55.691403,-25.45443],[-55.691133,-25.45501],[-55.689857,-25.454935],[-55.689381,-25.455518],[-55.688449,-25.455559],[-55.687439,-25.456015],[-55.685279,-25.455685],[-55.682959,-25.457673],[-55.681244,-25.457833],[-55.678737,-25.459454],[-55.677983,-25.459501],[-55.677095,-25.460789],[-55.676381,-25.461293],[-55.675038,-25.464125],[-55.675349,-25.465473],[-55.67492,-25.465925],[-55.674693,-25.467259],[-55.674033,-25.467799],[-55.674382,-25.468557],[-55.674579,-25.471615],[-55.673825,-25.473423],[-55.674572,-25.475059],[-55.674558,-25.477849],[-55.675039,-25.479045],[-55.673861,-25.481283],[-55.672655,-25.485105],[-55.672127,-25.485962],[-55.671873,-25.487933],[-55.670072,-25.490819],[-55.670111,-25.492359],[-55.669786,-25.492103],[-55.66916,-25.492228],[-55.66901,-25.493884],[-55.668327,-25.493878],[-55.667436,-25.494917],[-55.665464,-25.495648],[-55.665369,-25.496451],[-55.664897,-25.496885],[-55.664859,-25.497918],[-55.664527,-25.498006],[-55.663746,-25.499271],[-55.663983,-25.500009],[-55.663536,-25.500466],[-55.663637,-25.501018],[-55.663078,-25.5008],[-55.662902,-25.501593],[-55.663454,-25.501517],[-55.663009,-25.502073],[-55.663386,-25.502212],[-55.662894,-25.502514],[-55.663143,-25.503144],[-55.664417,-25.503038],[-55.664759,-25.502554],[-55.665571,-25.502873],[-55.665229,-25.502242],[-55.666185,-25.501777],[-55.666656,-25.502512],[-55.66643,-25.503129],[-55.667197,-25.503312],[-55.667134,-25.503835],[-55.667423,-25.50405],[-55.668447,-25.504321],[-55.668177,-25.504856],[-55.668702,-25.504978],[-55.668942,-25.50549],[-55.669477,-25.505612],[-55.66996,-25.505373],[-55.670774,-25.506084],[-55.671042,-25.505906],[-55.670984,-25.505265],[-55.67129,-25.505114],[-55.671934,-25.505774],[-55.67255,-25.505031],[-55.673187,-25.505416],[-55.674498,-25.505121],[-55.6752,-25.506544],[-55.675774,-25.505805],[-55.676184,-25.505772],[-55.676282,-25.506378],[-55.675607,-25.506977],[-55.677304,-25.507019],[-55.677335,-25.507268],[-55.676365,-25.507598],[-55.677669,-25.508562],[-55.677515,-25.509418],[-55.678396,-25.510826],[-55.679516,-25.511256],[-55.679491,-25.511572],[-55.678553,-25.51131],[-55.678331,-25.511719],[-55.681088,-25.513843],[-55.680411,-25.514234],[-55.680402,-25.514573],[-55.681506,-25.515075],[-55.680079,-25.515965],[-55.680204,-25.516377],[-55.683901,-25.515886],[-55.68533,-25.515191],[-55.685996,-25.516023],[-55.687331,-25.515574],[-55.687501,-25.516415],[-55.688328,-25.515831],[-55.688263,-25.516409],[-55.688655,-25.516688],[-55.689421,-25.516139],[-55.690576,-25.517283],[-55.690404,-25.515854],[-55.690841,-25.515371],[-55.691469,-25.515977],[-55.691481,-25.515395],[-55.691878,-25.515163],[-55.692323,-25.516012],[-55.692863,-25.515411],[-55.694069,-25.515553],[-55.693284,-25.514797],[-55.694475,-25.514491],[-55.695001,-25.515074],[-55.695515,-25.51432],[-55.696519,-25.515155],[-55.698088,-25.513616],[-55.698479,-25.514084],[-55.699436,-25.513849],[-55.699169,-25.514181],[-55.700093,-25.515146],[-55.700323,-25.514963],[-55.700107,-25.514275],[-55.700765,-25.513879],[-55.700855,-25.515198],[-55.701596,-25.514509],[-55.702047,-25.515484],[-55.702436,-25.515162],[-55.703067,-25.513534],[-55.703934,-25.514318],[-55.705272,-25.514763],[-55.705199,-25.514433],[-55.7042,-25.514076],[-55.704111,-25.513633],[-55.705344,-25.513712],[-55.705819,-25.512881],[-55.706277,-25.512677],[-55.706461,-25.513568],[-55.706706,-25.513579],[-55.707388,-25.512538],[-55.708022,-25.514083],[-55.709008,-25.514399],[-55.709464,-25.515175],[-55.709744,-25.514875],[-55.708804,-25.51293],[-55.70947,-25.512024],[-55.709946,-25.509726],[-55.710703,-25.508892],[-55.711079,-25.508918],[-55.711595,-25.509501],[-55.711995,-25.508561],[-55.712331,-25.509345],[-55.712913,-25.508772],[-55.71445,-25.508375],[-55.7155,-25.507404],[-55.715589,-25.506795],[-55.715127,-25.506363],[-55.715699,-25.506313],[-55.715428,-25.505738],[-55.716403,-25.505651],[-55.715816,-25.505357],[-55.715673,-25.504959],[-55.716175,-25.505166],[-55.716832,-25.504856],[-55.716867,-25.504653],[-55.716058,-25.504587],[-55.716707,-25.504223],[-55.716889,-25.503593],[-55.717498,-25.503977],[-55.717699,-25.503514],[-55.7173,-25.503113],[-55.717419,-25.50264],[-55.71871,-25.502611],[-55.718556,-25.50177],[-55.718845,-25.501569],[-55.719629,-25.501743],[-55.719342,-25.500964],[-55.720406,-25.501352],[-55.719697,-25.500385],[-55.72036,-25.500657],[-55.721038,-25.499613],[-55.72181,-25.499549],[-55.722171,-25.498869],[-55.721528,-25.497989],[-55.722379,-25.497554],[-55.722499,-25.497018],[-55.723231,-25.4966],[-55.722941,-25.496011],[-55.723027,-25.494625],[-55.72356,-25.494476],[-55.7245,-25.495072],[-55.724911,-25.494827],[-55.724581,-25.49282],[-55.724779,-25.491805],[-55.725718,-25.490841],[-55.726252,-25.490831],[-55.726331,-25.490286],[-55.727377,-25.490266],[-55.72771,-25.489778],[-55.727831,-25.49023],[-55.728577,-25.49017],[-55.73005,-25.488869],[-55.730864,-25.489428],[-55.730772,-25.488985],[-55.731391,-25.488959],[-55.732558,-25.487395],[-55.732881,-25.487847],[-55.733405,-25.487868],[-55.733127,-25.487352],[-55.733248,-25.486967],[-55.733699,-25.48681],[-55.733737,-25.486236],[-55.734118,-25.486558],[-55.734828,-25.485922],[-55.734392,-25.485497],[-55.73443,-25.485044],[-55.735165,-25.484834],[-55.735801,-25.484127],[-55.735953,-25.483199],[-55.736761,-25.483364],[-55.737731,-25.482079],[-55.738954,-25.482269],[-55.739848,-25.481506],[-55.740401,-25.481796],[-55.740639,-25.481398],[-55.741089,-25.481741],[-55.74208,-25.481233],[-55.742222,-25.480784],[-55.742886,-25.481016],[-55.743127,-25.48047],[-55.744348,-25.480598],[-55.745146,-25.480188],[-55.745194,-25.480624],[-55.74589,-25.480765],[-55.746384,-25.480214],[-55.747382,-25.480187],[-55.747613,-25.480983],[-55.748412,-25.48064],[-55.748521,-25.480019],[-55.75008,-25.480665],[-55.750069,-25.479898],[-55.751329,-25.480779],[-55.751818,-25.480144],[-55.752282,-25.480454],[-55.752601,-25.479958],[-55.753175,-25.480113],[-55.753297,-25.479216],[-55.753685,-25.479479],[-55.754678,-25.47896],[-55.755237,-25.479477],[-55.755931,-25.478979],[-55.75593,-25.479884],[-55.75656,-25.478923],[-55.756872,-25.478825],[-55.756833,-25.479499],[-55.757439,-25.478953],[-55.757547,-25.479969],[-55.75796,-25.478921],[-55.758403,-25.478875],[-55.758094,-25.479487],[-55.758318,-25.47976],[-55.758895,-25.478645],[-55.759131,-25.478681],[-55.759066,-25.479266],[-55.760083,-25.478986],[-55.759857,-25.479726],[-55.760752,-25.479536],[-55.760782,-25.479957],[-55.762447,-25.480067],[-55.762044,-25.479292],[-55.763161,-25.479688],[-55.763887,-25.479021],[-55.764049,-25.479163],[-55.763597,-25.479816],[-55.764781,-25.479383],[-55.765056,-25.480377],[-55.766668,-25.479206],[-55.766847,-25.479463],[-55.766471,-25.479945],[-55.767005,-25.480723],[-55.767552,-25.480016],[-55.768736,-25.479907],[-55.768864,-25.479272],[-55.770424,-25.47974],[-55.771093,-25.479421],[-55.771045,-25.479844],[-55.771639,-25.480028],[-55.771301,-25.480383],[-55.771877,-25.480646],[-55.772409,-25.480375],[-55.77296,-25.480518],[-55.772519,-25.480702],[-55.772698,-25.481088],[-55.772339,-25.48136],[-55.772991,-25.481608],[-55.774311,-25.481357],[-55.773781,-25.481774],[-55.774346,-25.481934],[-55.774259,-25.482354],[-55.775129,-25.482693],[-55.775351,-25.483254],[-55.775655,-25.482725],[-55.776037,-25.483317],[-55.776262,-25.482927],[-55.776795,-25.482805],[-55.776629,-25.483586],[-55.777196,-25.483134],[-55.777415,-25.483239],[-55.77756,-25.483836],[-55.777103,-25.484256],[-55.777779,-25.484488],[-55.777894,-25.485039],[-55.778767,-25.48498],[-55.778311,-25.485834],[-55.778671,-25.486107],[-55.778665,-25.486604],[-55.780161,-25.487455],[-55.778915,-25.487373],[-55.77944,-25.487812],[-55.779449,-25.488795],[-55.780023,-25.488215],[-55.78044,-25.489082],[-55.780042,-25.48963],[-55.781267,-25.490047],[-55.781064,-25.490554],[-55.781789,-25.490638],[-55.781731,-25.491175],[-55.782485,-25.491397],[-55.78279,-25.492005],[-55.782385,-25.492432],[-55.782877,-25.492702],[-55.782557,-25.493496],[-55.783177,-25.493447],[-55.782919,-25.493866],[-55.783368,-25.494179],[-55.783165,-25.494728],[-55.783743,-25.495138],[-55.783331,-25.495547],[-55.784541,-25.496178],[-55.784156,-25.497005],[-55.785709,-25.49642],[-55.785058,-25.497327],[-55.786532,-25.49673],[-55.786246,-25.498324],[-55.78782,-25.498067],[-55.788147,-25.498554],[-55.788598,-25.498105],[-55.789117,-25.499037],[-55.788649,-25.49991],[-55.789401,-25.500044],[-55.789388,-25.500805],[-55.78999,-25.500095],[-55.790279,-25.500736],[-55.789847,-25.501477],[-55.790811,-25.501512],[-55.791039,-25.502056],[-55.791698,-25.501637],[-55.792234,-25.501867],[-55.792714,-25.500386],[-55.794816,-25.499471],[-55.795248,-25.498895],[-55.795833,-25.498767],[-55.795979,-25.49821],[-55.796483,-25.498624],[-55.797051,-25.498517],[-55.797024,-25.49795],[-55.796457,-25.497173],[-55.799301,-25.496698],[-55.799365,-25.496196],[-55.799917,-25.496678],[-55.799916,-25.49598],[-55.800449,-25.496381],[-55.800876,-25.495934],[-55.801525,-25.496904],[-55.801588,-25.496085],[-55.802074,-25.49662],[-55.802421,-25.496171],[-55.803513,-25.495889],[-55.803863,-25.496009],[-55.803874,-25.496358],[-55.804631,-25.49639],[-55.805027,-25.495902],[-55.805903,-25.495935],[-55.805383,-25.495736],[-55.805229,-25.495103],[-55.806372,-25.49563],[-55.806467,-25.495168],[-55.807483,-25.494816],[-55.807787,-25.494853],[-55.807418,-25.495729],[-55.808436,-25.495361],[-55.808373,-25.49608],[-55.809323,-25.495523],[-55.809484,-25.496513],[-55.809913,-25.495565],[-55.810597,-25.495781],[-55.810127,-25.495186],[-55.810647,-25.494759],[-55.811106,-25.494947],[-55.811578,-25.494749],[-55.812177,-25.495184],[-55.81483,-25.493947],[-55.816802,-25.494144],[-55.81919,-25.493615],[-55.819797,-25.493928],[-55.820096,-25.493519],[-55.820636,-25.493801],[-55.82077,-25.49344],[-55.821173,-25.493817],[-55.822163,-25.493454],[-55.822299,-25.49276],[-55.822949,-25.493037],[-55.822819,-25.492537],[-55.82315,-25.492307],[-55.823344,-25.492753],[-55.824514,-25.49319],[-55.824486,-25.492606],[-55.824804,-25.492354],[-55.825098,-25.493199],[-55.826209,-25.492456],[-55.826702,-25.493099],[-55.82696,-25.492532],[-55.828114,-25.492425],[-55.828425,-25.493334]]]}}]}
