{"type":"FeatureCollection","name":"distrito","features":[{"type":"Feature","properties":{"clave":"5-25","nombre":"Repatriación"},"geometry":{"type":"Polygon","coordinates":[[[-55.933161,-25.627229],[-56.059975,-25.622427],[-56.120886,-25.607682],[-56.133726,-25.590065],[-56.129052,-25.587333],[-56.128285,-25.586507],[-56.127201,-25.586166],[-56.124236,-25.584437],[-56.094479,-25.566495],[-56.093909,-25.56566],[-56.092359,-25.565127],[-56.087213,-25.562138],[-56.012412,-25.517069],[-56.008261,-25.521163],[-56.005377,-25.519866],[-55.999042,-25.514531],[-55.997949,-25.513986],[-55.997258,-25.512853],[-55.997067,-25.511502],[-55.995156,-25.508929],[-55.994308,-25.509912],[-55.988875,-25.511441],[-55.987189,-25.513032],[-55.986186,-25.513553],[-55.985407,-25.514785],[-55.984322,-25.515685],[-55.984049,-25.516532],[-55.982685,-25.517461],[-55.981347,-25.519407],[-55.978515,-25.520656],[-55.976348,-25.521178],[-55.9717,-25.51989],[-55.96886,-25.518083],[-55.967722,-25.517853],[-55.966589,-25.516875],[-55.964264,-25.51559],[-55.962579,-25.515208],[-55.96196,-25.514332],[-55.961076,-25.513861],[-55.954214,-25.511785],[-55.952744,-25.512004],[-55.947752,-25.513607],[-55.939883,-25.5104],[-55.939144,-25.510498],[-55.936462,-25.508447],[-55.936068,-25.508322],[-55.935581,-25.508612],[-55.935041,-25.507642],[-55.933995,-25.506966],[-55.93301,-25.507085],[-55.932358,-25.507582],[-55.929698,-25.507016],[-55.927978,-25.507758],[-55.927365,-25.507676],[-55.926669,-25.507089],[-55.925542,-25.507144],[-55.924262,-25.5082],[-55.921849,-25.508151],[-55.916199,-25.510384],[-55.911898,-25.510641],[-55.911186,-25.511151],[-55.909488,-25.511287],[-55.908695,-25.510518],[-55.907826,-25.510254],[-55.904892,-25.511122],[-55.903455,-25.511224],[-55.902255,-25.510597],[-55.900682,-25.510698],[-55.89852,-25.509923],[-55.895254,-25.510589],[-55.893248,-25.509834],[-55.89151,-25.50987],[-55.889863,-25.508824],[-55.888577,-25.509455],[-55.88159,-25.509574],[-55.880353,-25.508959],[-55.879677,-25.508999],[-55.878941,-25.508411],[-55.877316,-25.508606],[-55.87306,-25.507057],[-55.871398,-25.507893],[-55.870346,-25.507835],[-55.869651,-25.508326],[-55.868215,-25.5078],[-55.866481,-25.508126],[-55.866009,-25.507765],[-55.864964,-25.507978],[-55.864326,-25.507332],[-55.863683,-25.507151],[-55.862383,-25.507254],[-55.861149,-25.506856],[-55.859458,-25.507073],[-55.858304,-25.506776],[-55.856723,-25.505653],[-55.854969,-25.504926],[-55.853673,-25.505164],[-55.851346,-25.503638],[-55.850034,-25.503898],[-55.84871,-25.502877],[-55.847991,-25.503593],[-55.845355,-25.503135],[-55.844146,-25.503739],[-55.843155,-25.503641],[-55.842833,-25.504803],[-55.842422,-25.504922],[-55.840876,-25.503524],[-55.835453,-25.5033],[-55.834477,-25.502705],[-55.833266,-25.50252],[-55.832432,-25.50189],[-55.830767,-25.501619],[-55.830477,-25.501089],[-55.830406,-25.4994],[-55.829814,-25.498745],[-55.830271,-25.498081],[-55.829985,-25.497871],[-55.829719,-25.498026],[-55.829682,-25.497331],[-55.829252,-25.497328],[-55.829475,-25.49667],[-55.82905,-25.496807],[-55.829357,-25.496272],[-55.829039,-25.496233],[-55.829007,-25.495235],[-55.828667,-25.495422],[-55.828945,-25.494896],[-55.828266,-25.494466],[-55.828542,-25.493873],[-55.827904,-25.493552],[-55.828358,-25.492575],[-55.828114,-25.492425],[-55.82696,-25.492532],[-55.826702,-25.493099],[-55.826209,-25.492456],[-55.825098,-25.493199],[-55.824804,-25.492354],[-55.824486,-25.492606],[-55.824514,-25.49319],[-55.823344,-25.492753],[-55.82315,-25.492307],[-55.822819,-25.492537],[-55.822949,-25.493037],[-55.822299,-25.49276],[-55.822163,-25.493454],[-55.821173,-25.493817],[-55.82077,-25.49344],[-55.820636,-25.493801],[-55.820096,-25.493519],[-55.819797,-25.493928],[-55.81919,-25.493615],[-55.816802,-25.494144],[-55.81483,-25.493947],[-55.812177,-25.495184],[-55.811578,-25.494749],[-55.811106,-25.494947],[-55.810647,-25.494759],[-55.810127,-25.495186],[-55.810597,-25.495781],[-55.809913,-25.495565],[-55.809484,-25.496513],[-55.809323,-25.495523],[-55.808373,-25.49608],[-55.808436,-25.495361],[-55.807418,-25.495729],[-55.807787,-25.494853],[-55.807483,-25.494816],[-55.806467,-25.495168],[-55.806372,-25.49563],[-55.805229,-25.495103],[-55.805383,-25.495736],[-55.805903,-25.495935],[-55.805027,-25.495902],[-55.804631,-25.49639],[-55.803874,-25.496358],[-55.803863,-25.496009],[-55.803513,-25.495889],[-55.802421,-25.496171],[-55.802074,-25.49662],[-55.801588,-25.496085],[-55.801525,-25.496904],[-55.800876,-25.495934],[-55.800449,-25.496381],[-55.799916,-25.49598],[-55.799917,-25.496678],[-55.799365,-25.496196],[-55.799301,-25.496698],[-55.796457,-25.497173],[-55.797024,-25.49795],[-55.797051,-25.498517],[-55.796483,-25.498624],[-55.795979,-25.49821],[-55.795833,-25.498767],[-55.795248,-25.498895],[-55.794816,-25.499471],[-55.792714,-25.500386],[-55.792234,-25.501867],[-55.791698,-25.501637],[-55.791039,-25.502056],[-55.790811,-25.501512],[-55.789847,-25.501477],[-55.790279,-25.500736],[-55.78999,-25.500095],[-55.789388,-25.500805],[-55.789401,-25.500044],[-55.788649,-25.49991],[-55.789117,-25.499037],[-55.788598,-25.498105],[-55.788147,-25.498554],[-55.78782,-25.498067],[-55.786246,-25.498324],[-55.786532,-25.49673],[-55.785058,-25.497327],[-55.785709,-25.49642],[-55.784156,-25.497005],[-55.784541,-25.496178],[-55.783331,-25.495547],[-55.783743,-25.495138],[-55.783165,-25.494728],[-55.783368,-25.494179],[-55.782919,-25.493866],[-55.783177,-25.493447],[-55.782557,-25.493496],[-55.782877,-25.492702],[-55.782385,-25.492432],[-55.78279,-25.492005],[-55.782485,-25.491397],[-55.781731,-25.491175],[-55.781789,-25.490638],[-55.781064,-25.490554],[-55.781267,-25.490047],[-55.780042,-25.48963],[-55.78044,-25.489082],[-55.780023,-25.488215],[-55.779449,-25.488795],[-55.77944,-25.487812],[-55.778915,-25.487373],[-55.780161,-25.487455],[-55.778665,-25.486604],[-55.778671,-25.486107],[-55.778311,-25.485834],[-55.778767,-25.48498],[-55.777894,-25.485039],[-55.777779,-25.484488],[-55.777103,-25.484256],[-55.77756,-25.483836],[-55.777415,-25.483239],[-55.777196,-25.483134],[-55.776629,-25.483586],[-55.776795,-25.482805],[-55.776262,-25.482927],[-55.776037,-25.483317],[-55.775655,-25.482725],[-55.775351,-25.483254],[-55.775129,-25.482693],[-55.774259,-25.482354],[-55.774346,-25.481934],[-55.773781,-25.481774],[-55.774311,-25.481357],[-55.772991,-25.481608],[-55.772339,-25.48136],[-55.772698,-25.481088],[-55.772519,-25.480702],[-55.77296,-25.480518],[-55.772409,-25.480375],[-55.771877,-25.480646],[-55.771301,-25.480383],[-55.771639,-25.480028],[-55.771045,-25.479844],[-55.771093,-25.479421],[-55.770424,-25.47974],[-55.768864,-25.479272],[-55.768736,-25.479907],[-55.767552,-25.480016],[-55.767005,-25.480723],[-55.766471,-25.479945],[-55.766847,-25.479463],[-55.766668,-25.479206],[-55.765056,-25.480377],[-55.764781,-25.479383],[-55.763597,-25.479816],[-55.764049,-25.479163],[-55.763887,-25.479021],[-55.763161,-25.479688],[-55.762044,-25.479292],[-55.762388,-25.480074],[-55.760755,-25.479952],[-55.760752,-25.479536],[-55.759877,-25.479742],[-55.760083,-25.478986],[-55.759142,-25.479303],[-55.758996,-25.478642],[-55.758693,-25.478756],[-55.758318,-25.47976],[-55.758094,-25.479487],[-55.758403,-25.478875],[-55.75796,-25.478921],[-55.757534,-25.47997],[-55.757439,-25.478953],[-55.756833,-25.479499],[-55.756872,-25.478825],[-55.75656,-25.478923],[-55.75593,-25.479884],[-55.755931,-25.478979],[-55.755237,-25.479477],[-55.754794,-25.47895],[-55.753685,-25.479479],[-55.753297,-25.479216],[-55.753175,-25.480113],[-55.752601,-25.479958],[-55.752282,-25.480454],[-55.751818,-25.480144],[-55.751329,-25.480779],[-55.750069,-25.479898],[-55.75008,-25.480665],[-55.748521,-25.480019],[-55.748412,-25.48064],[-55.747613,-25.480983],[-55.747382,-25.480187],[-55.746384,-25.480214],[-55.74589,-25.480765],[-55.745194,-25.480624],[-55.745146,-25.480188],[-55.744348,-25.480598],[-55.743127,-25.48047],[-55.742886,-25.481016],[-55.742222,-25.480784],[-55.74208,-25.481233],[-55.741089,-25.481741],[-55.740639,-25.481398],[-55.740401,-25.481796],[-55.739848,-25.481506],[-55.738954,-25.482269],[-55.737711,-25.482087],[-55.736761,-25.483364],[-55.735953,-25.483199],[-55.735801,-25.484127],[-55.735165,-25.484834],[-55.73443,-25.485044],[-55.734392,-25.485497],[-55.734828,-25.485922],[-55.734118,-25.486558],[-55.733737,-25.486236],[-55.733699,-25.48681],[-55.733248,-25.486967],[-55.733127,-25.487352],[-55.733405,-25.487868],[-55.732881,-25.487847],[-55.732558,-25.487395],[-55.731391,-25.488959],[-55.730772,-25.488985],[-55.730864,-25.489428],[-55.730025,-25.488877],[-55.72859,-25.490165],[-55.727831,-25.49023],[-55.727673,-25.489787],[-55.727377,-25.490266],[-55.726331,-25.490286],[-55.726252,-25.490831],[-55.725718,-25.490841],[-55.72492,-25.491528],[-55.724581,-25.49282],[-55.724911,-25.494827],[-55.7245,-25.495072],[-55.72356,-25.494476],[-55.723027,-25.494625],[-55.722941,-25.496011],[-55.723231,-25.4966],[-55.722499,-25.497018],[-55.722379,-25.497554],[-55.721528,-25.497989],[-55.722171,-25.498869],[-55.72181,-25.499549],[-55.721038,-25.499613],[-55.72036,-25.500657],[-55.719697,-25.500385],[-55.720406,-25.501352],[-55.719342,-25.500964],[-55.719629,-25.501743],[-55.718845,-25.501569],[-55.718556,-25.50177],[-55.71871,-25.502611],[-55.717419,-25.50264],[-55.7173,-25.503113],[-55.717699,-25.503514],[-55.717498,-25.503977],[-55.716889,-25.503593],[-55.716707,-25.504223],[-55.716058,-25.504587],[-55.716867,-25.504653],[-55.716832,-25.504856],[-55.716175,-25.505166],[-55.715673,-25.504959],[-55.715816,-25.505357],[-55.716403,-25.505651],[-55.715428,-25.505738],[-55.715699,-25.506313],[-55.715127,-25.506363],[-55.715589,-25.506795],[-55.7155,-25.507404],[-55.71445,-25.508375],[-55.712913,-25.508772],[-55.712331,-25.509345],[-55.711995,-25.508561],[-55.711595,-25.509501],[-55.711079,-25.508918],[-55.710546,-25.508923],[-55.709848,-25.509869],[-55.70947,-25.512024],[-55.708804,-25.51293],[-55.709744,-25.514875],[-55.709464,-25.515175],[-55.709008,-25.514399],[-55.708022,-25.514083],[-55.707388,-25.512538],[-55.706706,-25.513579],[-55.706461,-25.513568],[-55.706277,-25.512677],[-55.705819,-25.512881],[-55.705344,-25.513712],[-55.704111,-25.513633],[-55.7042,-25.514076],[-55.705199,-25.514433],[-55.705272,-25.514763],[-55.703934,-25.514318],[-55.703067,-25.513534],[-55.702436,-25.515162],[-55.702047,-25.515484],[-55.701596,-25.514509],[-55.700855,-25.515198],[-55.700765,-25.513879],[-55.700107,-25.514275],[-55.700323,-25.514963],[-55.700093,-25.515146],[-55.699169,-25.514181],[-55.699436,-25.513849],[-55.698479,-25.514084],[-55.698088,-25.513616],[-55.696519,-25.515155],[-55.695515,-25.51432],[-55.695001,-25.515074],[-55.694475,-25.514491],[-55.693284,-25.514797],[-55.694069,-25.515553],[-55.692863,-25.515411],[-55.692323,-25.516012],[-55.691878,-25.515163],[-55.691481,-25.515395],[-55.691469,-25.515977],[-55.690841,-25.515371],[-55.690404,-25.515854],[-55.690576,-25.517283],[-55.689421,-25.516139],[-55.688655,-25.516688],[-55.688263,-25.516409],[-55.688328,-25.515831],[-55.687501,-25.516415],[-55.687331,-25.515574],[-55.685996,-25.516023],[-55.68533,-25.515191],[-55.683901,-25.515886],[-55.680204,-25.516377],[-55.680079,-25.515965],[-55.681506,-25.515075],[-55.680402,-25.514573],[-55.680411,-25.514234],[-55.681088,-25.513843],[-55.678331,-25.511719],[-55.678553,-25.51131],[-55.679491,-25.511572],[-55.679516,-25.511256],[-55.678396,-25.510826],[-55.677515,-25.509418],[-55.677669,-25.508562],[-55.676365,-25.507598],[-55.677335,-25.507268],[-55.677304,-25.507019],[-55.675607,-25.506977],[-55.676282,-25.506378],[-55.676184,-25.505772],[-55.675774,-25.505805],[-55.6752,-25.506544],[-55.674498,-25.505121],[-55.673187,-25.505416],[-55.67255,-25.505031],[-55.671934,-25.505774],[-55.67129,-25.505114],[-55.670984,-25.505265],[-55.671042,-25.505906],[-55.670774,-25.506084],[-55.66996,-25.505373],[-55.669477,-25.505612],[-55.668942,-25.50549],[-55.668702,-25.504978],[-55.668177,-25.504856],[-55.668447,-25.504321],[-55.667423,-25.50405],[-55.667134,-25.503835],[-55.667197,-25.503312],[-55.66643,-25.503129],[-55.666656,-25.502512],[-55.666185,-25.501777],[-55.665229,-25.502242],[-55.665701,-25.502806],[-55.664759,-25.502554],[-55.664417,-25.503038],[-55.663622,-25.503013],[-55.663409,-25.503458],[-55.662224,-25.504201],[-55.661841,-25.504929],[-55.660982,-25.504767],[-55.660103,-25.505595],[-55.658742,-25.505736],[-55.658305,-25.504608],[-55.657459,-25.50437],[-55.65628,-25.505271],[-55.655637,-25.505044],[-55.655589,-25.506172],[-55.655053,-25.506808],[-55.654795,-25.506833],[-55.654831,-25.505885],[-55.654022,-25.506681],[-55.652786,-25.506169],[-55.652132,-25.507205],[-55.652815,-25.507162],[-55.652721,-25.507459],[-55.650576,-25.507819],[-55.649914,-25.50742],[-55.649508,-25.508062],[-55.648094,-25.507647],[-55.64757,-25.50854],[-55.646737,-25.508036],[-55.645996,-25.508589],[-55.645503,-25.507293],[-55.644855,-25.50782],[-55.644349,-25.507851],[-55.64427,-25.507598],[-55.644928,-25.506995],[-55.644604,-25.506662],[-55.643579,-25.507524],[-55.642587,-25.506643],[-55.643358,-25.50647],[-55.64339,-25.506249],[-55.641904,-25.505946],[-55.642492,-25.505207],[-55.641437,-25.505671],[-55.640768,-25.505322],[-55.639705,-25.505578],[-55.636661,-25.507049],[-55.636566,-25.507648],[-55.637266,-25.5077],[-55.637432,-25.507954],[-55.637021,-25.508844],[-55.635861,-25.508111],[-55.633299,-25.511004],[-55.631773,-25.511391],[-55.632154,-25.512582],[-55.631072,-25.512229],[-55.629996,-25.513578],[-55.629321,-25.512623],[-55.628014,-25.5135],[-55.627797,-25.514135],[-55.627342,-25.514415],[-55.625522,-25.514299],[-55.624821,-25.514789],[-55.624226,-25.514575],[-55.623706,-25.515189],[-55.623138,-25.514796],[-55.622131,-25.515648],[-55.621214,-25.515369],[-55.620806,-25.51722],[-55.61997,-25.517781],[-55.620132,-25.518749],[-55.619085,-25.519258],[-55.618273,-25.518971],[-55.617471,-25.51913],[-55.617122,-25.519646],[-55.61731,-25.520275],[-55.616678,-25.520752],[-55.616494,-25.521477],[-55.615572,-25.521406],[-55.615559,-25.521717],[-55.616369,-25.522343],[-55.616286,-25.522591],[-55.614976,-25.522497],[-55.613511,-25.523797],[-55.612663,-25.5235],[-55.613643,-25.524471],[-55.612777,-25.525582],[-55.613954,-25.525598],[-55.614072,-25.525892],[-55.612846,-25.526156],[-55.612864,-25.52645],[-55.613742,-25.527063],[-55.61297,-25.527647],[-55.613943,-25.527701],[-55.61408,-25.52796],[-55.61389,-25.528734],[-55.613341,-25.529244],[-55.613481,-25.529941],[-55.612468,-25.530333],[-55.612394,-25.530621],[-55.613861,-25.531073],[-55.612645,-25.531508],[-55.612886,-25.532544],[-55.611773,-25.532683],[-55.612029,-25.53394],[-55.611208,-25.533657],[-55.610295,-25.534253],[-55.610862,-25.535468],[-55.610078,-25.535344],[-55.610417,-25.535943],[-55.609455,-25.536457],[-55.610107,-25.536924],[-55.609266,-25.538239],[-55.608575,-25.538711],[-55.609374,-25.541368],[-55.607961,-25.541756],[-55.608689,-25.542806],[-55.606424,-25.542676],[-55.605958,-25.543083],[-55.605726,-25.544069],[-55.604964,-25.544432],[-55.604825,-25.544878],[-55.603866,-25.545157],[-55.603353,-25.54476],[-55.60301,-25.544833],[-55.601883,-25.546159],[-55.600382,-25.54628],[-55.599776,-25.544929],[-55.598603,-25.545369],[-55.599425,-25.543959],[-55.599133,-25.543501],[-55.598458,-25.543742],[-55.598661,-25.542787],[-55.597445,-25.543096],[-55.597881,-25.542134],[-55.597014,-25.5426],[-55.596573,-25.543526],[-55.595623,-25.542627],[-55.595505,-25.541737],[-55.594766,-25.541536],[-55.594478,-25.540612],[-55.590228,-25.539754],[-55.58914,-25.538687],[-55.58827,-25.538769],[-55.587401,-25.53974],[-55.587079,-25.539056],[-55.587916,-25.53803],[-55.587828,-25.537632],[-55.587312,-25.537505],[-55.586199,-25.538618],[-55.585789,-25.538208],[-55.585834,-25.537342],[-55.585394,-25.537292],[-55.585,-25.538282],[-55.584697,-25.538396],[-55.584477,-25.537839],[-55.585001,-25.536905],[-55.584876,-25.536601],[-55.583841,-25.537539],[-55.582557,-25.538168],[-55.582366,-25.537209],[-55.581572,-25.537499],[-55.58156,-25.536555],[-55.581236,-25.536485],[-55.580499,-25.538098],[-55.580206,-25.538104],[-55.579787,-25.537486],[-55.579673,-25.53888],[-55.57845,-25.538205],[-55.578357,-25.539395],[-55.577056,-25.538638],[-55.576026,-25.538917],[-55.57394,-25.53826],[-55.573256,-25.538994],[-55.572766,-25.538321],[-55.570896,-25.53721],[-55.570039,-25.537247],[-55.569588,-25.537748],[-55.568817,-25.537745],[-55.568614,-25.537432],[-55.569404,-25.537078],[-55.569173,-25.535618],[-55.568542,-25.536217],[-55.566932,-25.535528],[-55.566491,-25.535592],[-55.566265,-25.536632],[-55.564905,-25.537549],[-55.563356,-25.535918],[-55.562954,-25.536916],[-55.561674,-25.536863],[-55.561464,-25.537854],[-55.560312,-25.536989],[-55.559076,-25.537844],[-55.559581,-25.538454],[-55.557636,-25.538592],[-55.557077,-25.539558],[-55.555826,-25.540498],[-55.555161,-25.540193],[-55.555119,-25.541854],[-55.554567,-25.542679],[-55.553437,-25.54293],[-55.552812,-25.54254],[-55.552209,-25.543049],[-55.551114,-25.54325],[-55.550396,-25.542787],[-55.54917,-25.543168],[-55.548791,-25.542297],[-55.548219,-25.542901],[-55.548744,-25.543655],[-55.548304,-25.543633],[-55.547481,-25.542862],[-55.54697,-25.543033],[-55.547087,-25.543874],[-55.546121,-25.542993],[-55.545365,-25.543771],[-55.544859,-25.543102],[-55.544401,-25.543983],[-55.543396,-25.543882],[-55.544554,-25.544783],[-55.542962,-25.545395],[-55.54267,-25.544498],[-55.542193,-25.544651],[-55.542321,-25.545935],[-55.542009,-25.546076],[-55.541282,-25.545789],[-55.541157,-25.546099],[-55.541598,-25.546821],[-55.540595,-25.548134],[-55.541302,-25.548434],[-55.541434,-25.549262],[-55.540206,-25.549841],[-55.539429,-25.549635],[-55.538712,-25.549876],[-55.538839,-25.552545],[-55.538693,-25.553618],[-55.538296,-25.553984],[-55.538963,-25.554618],[-55.537703,-25.555152],[-55.537478,-25.555515],[-55.538567,-25.555901],[-55.536729,-25.555882],[-55.53632,-25.557075],[-55.535576,-25.555857],[-55.533836,-25.556603],[-55.533997,-25.5572],[-55.535125,-25.557216],[-55.535503,-25.557486],[-55.535265,-25.558351],[-55.534368,-25.55845],[-55.533306,-25.557392],[-55.532519,-25.557335],[-55.531935,-25.5568],[-55.528796,-25.557595],[-55.528482,-25.557177],[-55.528886,-25.556332],[-55.52853,-25.556053],[-55.527938,-25.556322],[-55.527691,-25.557534],[-55.52691,-25.558244],[-55.5262,-25.558052],[-55.526308,-25.557222],[-55.525867,-25.556956],[-55.525484,-25.557449],[-55.525498,-25.558189],[-55.524907,-25.55826],[-55.525109,-25.557287],[-55.524871,-25.557118],[-55.524182,-25.558172],[-55.524538,-25.559561],[-55.522832,-25.559765],[-55.52318,-25.558938],[-55.522793,-25.558839],[-55.522258,-25.559633],[-55.522239,-25.5604],[-55.521133,-25.559649],[-55.520173,-25.560235],[-55.519722,-25.559436],[-55.518678,-25.560387],[-55.518845,-25.559454],[-55.51857,-25.559289],[-55.518094,-25.559965],[-55.517246,-25.560137],[-55.517656,-25.560972],[-55.51691,-25.562499],[-55.515895,-25.562349],[-55.51505,-25.562679],[-55.514859,-25.562077],[-55.514077,-25.562534],[-55.514055,-25.563148],[-55.51492,-25.563296],[-55.514211,-25.563926],[-55.514248,-25.564251],[-55.515308,-25.564298],[-55.515457,-25.564773],[-55.515079,-25.565343],[-55.514028,-25.565499],[-55.513455,-25.566401],[-55.513723,-25.567058],[-55.51423,-25.566959],[-55.514525,-25.566023],[-55.516131,-25.566852],[-55.516271,-25.567247],[-55.51574,-25.56823],[-55.516054,-25.56868],[-55.516451,-25.567831],[-55.517091,-25.5686],[-55.51795,-25.56823],[-55.518337,-25.568387],[-55.517859,-25.569705],[-55.518319,-25.570269],[-55.51905,-25.570245],[-55.51944,-25.569725],[-55.520165,-25.569737],[-55.520773,-25.5694],[-55.522614,-25.570006],[-55.522871,-25.570618],[-55.522081,-25.570677],[-55.521955,-25.570915],[-55.522586,-25.571956],[-55.523938,-25.572294],[-55.524541,-25.572923],[-55.524319,-25.573332],[-55.522277,-25.572928],[-55.521828,-25.573469],[-55.522026,-25.573941],[-55.523968,-25.574525],[-55.524934,-25.574069],[-55.524765,-25.574844],[-55.52576,-25.574913],[-55.525921,-25.575194],[-55.525079,-25.575822],[-55.525216,-25.57623],[-55.526089,-25.575878],[-55.526545,-25.576528],[-55.527633,-25.576539],[-55.528388,-25.577806],[-55.528892,-25.577066],[-55.530375,-25.577262],[-55.530557,-25.57762],[-55.53001,-25.578075],[-55.530128,-25.578672],[-55.532142,-25.578886],[-55.53396,-25.579993],[-55.534076,-25.580296],[-55.533492,-25.580394],[-55.534118,-25.58092],[-55.534676,-25.582135],[-55.534176,-25.583069],[-55.535268,-25.583662],[-55.535169,-25.585029],[-55.535888,-25.585384],[-55.535777,-25.584552],[-55.53609,-25.584429],[-55.536842,-25.58519],[-55.537019,-25.586185],[-55.538019,-25.586525],[-55.538709,-25.587696],[-55.538077,-25.588439],[-55.537095,-25.588885],[-55.537827,-25.58948],[-55.537862,-25.589913],[-55.536809,-25.589713],[-55.536395,-25.590007],[-55.53741,-25.590396],[-55.536965,-25.591593],[-55.538203,-25.5916],[-55.538137,-25.591875],[-55.537259,-25.592056],[-55.537212,-25.592349],[-55.539815,-25.593007],[-55.539784,-25.593323],[-55.538788,-25.593705],[-55.539334,-25.594912],[-55.538489,-25.595743],[-55.539342,-25.596383],[-55.538329,-25.59705],[-55.538473,-25.597273],[-55.539412,-25.597292],[-55.539546,-25.599266],[-55.538548,-25.59935],[-55.538397,-25.599624],[-55.539193,-25.601135],[-55.538824,-25.601655],[-55.538654,-25.601049],[-55.537892,-25.601407],[-55.536732,-25.600696],[-55.536675,-25.601945],[-55.535496,-25.601591],[-55.53545,-25.601879],[-55.537082,-25.603502],[-55.537168,-25.604162],[-55.536057,-25.604418],[-55.536683,-25.605381],[-55.535675,-25.605493],[-55.53497,-25.607409],[-55.534257,-25.608169],[-55.534634,-25.608389],[-55.535215,-25.608138],[-55.534896,-25.608812],[-55.535802,-25.609313],[-55.536286,-25.610045],[-55.536214,-25.610378],[-55.534566,-25.611309],[-55.534716,-25.611767],[-55.535581,-25.612281],[-55.534927,-25.613516],[-55.534237,-25.614123],[-55.533931,-25.615109],[-55.534762,-25.616011],[-55.535001,-25.614839],[-55.535541,-25.614714],[-55.535769,-25.614937],[-55.536303,-25.616834],[-55.535149,-25.617802],[-55.53569,-25.618033],[-55.535318,-25.618923],[-55.535957,-25.620212],[-55.53717,-25.621226],[-55.538415,-25.621568],[-55.544215,-25.619441],[-55.546512,-25.619216],[-55.547575,-25.6197],[-55.5476,-25.6204],[-55.548118,-25.619837],[-55.548783,-25.620263],[-55.549254,-25.619717],[-55.549617,-25.619829],[-55.549915,-25.620261],[-55.549387,-25.621037],[-55.549861,-25.621551],[-55.550489,-25.621625],[-55.550673,-25.622115],[-55.550594,-25.622773],[-55.549569,-25.622835],[-55.549362,-25.623117],[-55.54942,-25.623754],[-55.550483,-25.623566],[-55.550848,-25.623949],[-55.550642,-25.624945],[-55.549764,-25.625216],[-55.550752,-25.625655],[-55.550269,-25.626602],[-55.550677,-25.626963],[-55.551365,-25.626907],[-55.55104,-25.627707],[-55.552354,-25.629169],[-55.553656,-25.628925],[-55.553301,-25.630041],[-55.553484,-25.630304],[-55.554894,-25.630603],[-55.555444,-25.631646],[-55.556286,-25.631099],[-55.556797,-25.631195],[-55.556666,-25.631848],[-55.555084,-25.632803],[-55.55487,-25.633654],[-55.555396,-25.63435],[-55.555366,-25.63523],[-55.556804,-25.634942],[-55.556554,-25.635535],[-55.557662,-25.635681],[-55.557496,-25.636429],[-55.558032,-25.636421],[-55.558406,-25.636077],[-55.558554,-25.636692],[-55.559683,-25.636676],[-55.560197,-25.637286],[-55.560589,-25.636767],[-55.561179,-25.636664],[-55.56187,-25.637357],[-55.56324,-25.637],[-55.563547,-25.636033],[-55.564252,-25.635895],[-55.564457,-25.636006],[-55.563711,-25.636829],[-55.564969,-25.636525],[-55.566323,-25.636999],[-55.566582,-25.636844],[-55.566272,-25.635053],[-55.567759,-25.635763],[-55.569239,-25.635565],[-55.569768,-25.634744],[-55.571782,-25.634452],[-55.572158,-25.634461],[-55.572761,-25.635166],[-55.573004,-25.63441],[-55.573884,-25.634279],[-55.57416,-25.634575],[-55.573876,-25.635606],[-55.574442,-25.634916],[-55.574978,-25.634763],[-55.576675,-25.635421],[-55.577098,-25.635967],[-55.578892,-25.636264],[-55.578765,-25.636814],[-55.579506,-25.63664],[-55.579861,-25.637416],[-55.581112,-25.637261],[-55.5804,-25.637742],[-55.580377,-25.638048],[-55.58142,-25.638307],[-55.581559,-25.63889],[-55.581378,-25.639132],[-55.58069,-25.638679],[-55.57967,-25.63977],[-55.579588,-25.640221],[-55.580515,-25.64023],[-55.579346,-25.641532],[-55.580121,-25.641219],[-55.580461,-25.641363],[-55.579975,-25.642355],[-55.580725,-25.642092],[-55.580974,-25.643381],[-55.581813,-25.642838],[-55.582591,-25.643821],[-55.583391,-25.643052],[-55.583623,-25.644305],[-55.584644,-25.644455],[-55.583752,-25.645295],[-55.584737,-25.645336],[-55.585075,-25.645917],[-55.584242,-25.645751],[-55.584321,-25.647178],[-55.583662,-25.647917],[-55.584185,-25.648364],[-55.586151,-25.64874],[-55.586037,-25.649032],[-55.58488,-25.649355],[-55.585498,-25.650381],[-55.586642,-25.650609],[-55.5858,-25.651174],[-55.585422,-25.652444],[-55.586945,-25.652364],[-55.587799,-25.652914],[-55.587225,-25.654167],[-55.587796,-25.654661],[-55.588671,-25.654628],[-55.589743,-25.655501],[-55.59027,-25.65635],[-55.590798,-25.656364],[-55.591001,-25.655229],[-55.591691,-25.655154],[-55.592085,-25.656566],[-55.593964,-25.658097],[-55.594374,-25.658028],[-55.594066,-25.656874],[-55.59435,-25.656543],[-55.595966,-25.658482],[-55.599393,-25.658903],[-55.60199,-25.658693],[-55.603418,-25.65909],[-55.607308,-25.657435],[-55.608029,-25.658981],[-55.608411,-25.659025],[-55.609265,-25.657359],[-55.608591,-25.656354],[-55.609897,-25.656128],[-55.610309,-25.655184],[-55.609558,-25.65249],[-55.61086,-25.652417],[-55.61118,-25.652984],[-55.611749,-25.653134],[-55.612303,-25.653726],[-55.612809,-25.65258],[-55.613126,-25.652922],[-55.613687,-25.652841],[-55.614855,-25.653769],[-55.614883,-25.652306],[-55.613981,-25.652176],[-55.614216,-25.651474],[-55.614068,-25.650466],[-55.613093,-25.649432],[-55.613188,-25.648927],[-55.613891,-25.64832],[-55.614554,-25.648412],[-55.614092,-25.649238],[-55.615732,-25.649154],[-55.618622,-25.649899],[-55.618564,-25.650292],[-55.617639,-25.650919],[-55.617655,-25.651502],[-55.619454,-25.650314],[-55.621373,-25.649591],[-55.623033,-25.650302],[-55.627554,-25.650905],[-55.627586,-25.651207],[-55.626317,-25.651855],[-55.627789,-25.65227],[-55.631907,-25.650043],[-55.632608,-25.650803],[-55.633192,-25.650032],[-55.633563,-25.649995],[-55.633765,-25.650439],[-55.634094,-25.650451],[-55.635276,-25.649424],[-55.636326,-25.649461],[-55.636972,-25.647901],[-55.637407,-25.648139],[-55.637475,-25.646519],[-55.637873,-25.646627],[-55.638928,-25.644944],[-55.639548,-25.645293],[-55.640839,-25.645436],[-55.641067,-25.645659],[-55.640521,-25.645884],[-55.640663,-25.646102],[-55.641524,-25.646363],[-55.641612,-25.646693],[-55.643999,-25.647478],[-55.646557,-25.647872],[-55.650374,-25.64733],[-55.65072,-25.64764],[-55.651736,-25.647735],[-55.652641,-25.648994],[-55.654266,-25.649808],[-55.656431,-25.650103],[-55.657629,-25.649722],[-55.658198,-25.649054],[-55.65994,-25.649138],[-55.661366,-25.648785],[-55.662331,-25.647602],[-55.662917,-25.647888],[-55.663024,-25.647387],[-55.663745,-25.647245],[-55.663957,-25.64666],[-55.664396,-25.646809],[-55.666178,-25.645696],[-55.666542,-25.645794],[-55.666345,-25.646109],[-55.666603,-25.646206],[-55.666666,-25.646847],[-55.66766,-25.646572],[-55.668533,-25.647257],[-55.669084,-25.647249],[-55.669651,-25.648062],[-55.66981,-25.649251],[-55.668914,-25.649748],[-55.668658,-25.650662],[-55.668715,-25.650979],[-55.669043,-25.651027],[-55.669241,-25.650505],[-55.669515,-25.650562],[-55.669545,-25.651632],[-55.670604,-25.652003],[-55.671432,-25.651518],[-55.671638,-25.652396],[-55.67285,-25.652362],[-55.672908,-25.652908],[-55.674001,-25.65235],[-55.673996,-25.651713],[-55.674542,-25.652291],[-55.6748,-25.651598],[-55.675098,-25.651556],[-55.67572,-25.651851],[-55.675889,-25.65252],[-55.676545,-25.651858],[-55.676929,-25.651875],[-55.678243,-25.652496],[-55.678421,-25.652963],[-55.677871,-25.653062],[-55.678017,-25.65328],[-55.678917,-25.653482],[-55.679083,-25.654039],[-55.679731,-25.654212],[-55.679729,-25.655611],[-55.680097,-25.655885],[-55.679528,-25.656417],[-55.679431,-25.657626],[-55.679739,-25.657859],[-55.679482,-25.658724],[-55.67991,-25.659446],[-55.679729,-25.659719],[-55.679389,-25.659454],[-55.679334,-25.660443],[-55.680768,-25.661711],[-55.680684,-25.662662],[-55.682161,-25.663317],[-55.682964,-25.664037],[-55.682665,-25.665547],[-55.683224,-25.666003],[-55.683771,-25.666031],[-55.684362,-25.666804],[-55.686607,-25.668494],[-55.686806,-25.668893],[-55.686518,-25.669378],[-55.687466,-25.670028],[-55.686964,-25.670831],[-55.688082,-25.671437],[-55.6877,-25.671813],[-55.6883,-25.671976],[-55.688106,-25.67267],[-55.690854,-25.672902],[-55.692459,-25.674081],[-55.692785,-25.674906],[-55.693197,-25.675131],[-55.692903,-25.675462],[-55.69338,-25.676112],[-55.693495,-25.67693],[-55.693165,-25.6776],[-55.693557,-25.677739],[-55.693944,-25.678532],[-55.695154,-25.6782],[-55.695766,-25.678503],[-55.696596,-25.678344],[-55.696036,-25.677784],[-55.696371,-25.677656],[-55.700589,-25.67754],[-55.701855,-25.676892],[-55.704234,-25.676308],[-55.706209,-25.674926],[-55.709174,-25.674095],[-55.711399,-25.673925],[-55.71188,-25.67359],[-55.713932,-25.674046],[-55.714871,-25.673933],[-55.716551,-25.675257],[-55.717899,-25.675585],[-55.719458,-25.675332],[-55.720324,-25.675498],[-55.721012,-25.676668],[-55.723323,-25.677108],[-55.724257,-25.677595],[-55.729367,-25.680863],[-55.73028,-25.681742],[-55.730685,-25.682748],[-55.732329,-25.683155],[-55.732992,-25.683666],[-55.733955,-25.683404],[-55.734881,-25.683787],[-55.735865,-25.684657],[-55.736676,-25.686741],[-55.737815,-25.68685],[-55.739401,-25.687853],[-55.740116,-25.687963],[-55.740566,-25.688468],[-55.740606,-25.689384],[-55.743935,-25.689774],[-55.744953,-25.690609],[-55.746422,-25.691231],[-55.748603,-25.691097],[-55.749588,-25.690766],[-55.750159,-25.691069],[-55.75056,-25.689917],[-55.751542,-25.689668],[-55.754161,-25.687587],[-55.75812,-25.686754],[-55.760341,-25.684118],[-55.761373,-25.68377],[-55.761948,-25.683107],[-55.766946,-25.681077],[-55.769373,-25.681409],[-55.772901,-25.683367],[-55.776751,-25.684031],[-55.781344,-25.688065],[-55.782527,-25.689519],[-55.785676,-25.691631],[-55.786869,-25.692779],[-55.792684,-25.694746],[-55.796373,-25.69158],[-55.798018,-25.689788],[-55.79922,-25.689414],[-55.80102,-25.689785],[-55.8019,-25.690849],[-55.802265,-25.690771],[-55.803545,-25.691422],[-55.807671,-25.691438],[-55.808851,-25.692536],[-55.810654,-25.69181],[-55.811186,-25.690568],[-55.812267,-25.689457],[-55.81422,-25.689609],[-55.815067,-25.689358],[-55.816072,-25.68822],[-55.817469,-25.687748],[-55.818765,-25.687718],[-55.819342,-25.687975],[-55.821609,-25.687271],[-55.822899,-25.68772],[-55.82378,-25.687023],[-55.824634,-25.687197],[-55.82467,-25.687748],[-55.825499,-25.688021],[-55.827695,-25.687176],[-55.829793,-25.687261],[-55.831253,-25.686257],[-55.831519,-25.686818],[-55.83264,-25.68648],[-55.833223,-25.686633],[-55.833413,-25.686301],[-55.834725,-25.687079],[-55.835676,-25.685944],[-55.837178,-25.685342],[-55.839247,-25.685743],[-55.840902,-25.686478],[-55.843016,-25.68682],[-55.844172,-25.686156],[-55.844871,-25.686252],[-55.846195,-25.68568],[-55.846956,-25.685673],[-55.850446,-25.683091],[-55.853459,-25.682433],[-55.857968,-25.679782],[-55.861755,-25.678484],[-55.862349,-25.677875],[-55.862563,-25.676292],[-55.863925,-25.675887],[-55.864544,-25.675247],[-55.863225,-25.674604],[-55.863253,-25.673814],[-55.861992,-25.673019],[-55.860977,-25.671883],[-55.860578,-25.670326],[-55.8592,-25.668113],[-55.858628,-25.661449],[-55.859171,-25.658559],[-55.860078,-25.656747],[-55.933161,-25.627229]]]}}]}
