{"type":"FeatureCollection","name":"distrito","features":[{"type":"Feature","properties":{"clave":"7-15","nombre":"Coronel Bogado"},"geometry":{"type":"Polygon","coordinates":[[[-56.28554,-27.247038],[-56.285416,-27.246231],[-56.286562,-27.245892],[-56.28781,-27.247064],[-56.288999,-27.24743],[-56.290627,-27.247208],[-56.292917,-27.244097],[-56.296363,-27.241423],[-56.298317,-27.240454],[-56.300874,-27.24087],[-56.301616,-27.240701],[-56.302216,-27.240071],[-56.302236,-27.239337],[-56.300264,-27.235513],[-56.300948,-27.234322],[-56.300658,-27.233422],[-56.301663,-27.2321],[-56.30133,-27.231702],[-56.29977,-27.232188],[-56.299098,-27.23097],[-56.299255,-27.230428],[-56.300157,-27.231008],[-56.300674,-27.230937],[-56.300758,-27.230501],[-56.299564,-27.23001],[-56.299745,-27.229733],[-56.300929,-27.230002],[-56.301202,-27.229543],[-56.301149,-27.228739],[-56.30006,-27.229135],[-56.299174,-27.22832],[-56.299177,-27.227845],[-56.30046,-27.226536],[-56.3003,-27.226077],[-56.298667,-27.224627],[-56.297951,-27.225259],[-56.297602,-27.225206],[-56.296068,-27.224198],[-56.295713,-27.222975],[-56.295905,-27.222417],[-56.296604,-27.222135],[-56.297044,-27.221475],[-56.296887,-27.221136],[-56.296408,-27.22103],[-56.294893,-27.221659],[-56.294502,-27.221462],[-56.294262,-27.220344],[-56.294848,-27.219528],[-56.296629,-27.218238],[-56.296646,-27.21781],[-56.296269,-27.217665],[-56.293388,-27.218274],[-56.293727,-27.217463],[-56.295076,-27.217302],[-56.295356,-27.217091],[-56.295276,-27.216674],[-56.292504,-27.216901],[-56.292457,-27.216594],[-56.293188,-27.216028],[-56.294436,-27.216451],[-56.294841,-27.215788],[-56.294575,-27.215136],[-56.294058,-27.215543],[-56.293584,-27.21546],[-56.292583,-27.214863],[-56.292422,-27.21446],[-56.293923,-27.213518],[-56.295283,-27.211669],[-56.294279,-27.211503],[-56.294618,-27.210855],[-56.294467,-27.210298],[-56.293497,-27.211068],[-56.292477,-27.210946],[-56.292283,-27.210609],[-56.292555,-27.210201],[-56.293953,-27.21004],[-56.293931,-27.209748],[-56.292862,-27.209421],[-56.292684,-27.209106],[-56.293532,-27.208226],[-56.292828,-27.207119],[-56.293532,-27.206896],[-56.293789,-27.206291],[-56.293319,-27.205726],[-56.292318,-27.206283],[-56.292129,-27.205191],[-56.290836,-27.20461],[-56.291407,-27.2034],[-56.290875,-27.20225],[-56.289366,-27.201913],[-56.288844,-27.202941],[-56.287724,-27.202972],[-56.287522,-27.20015],[-56.288333,-27.198569],[-56.287639,-27.198339],[-56.286943,-27.197378],[-56.284381,-27.196739],[-56.283355,-27.195864],[-56.282867,-27.194913],[-56.282836,-27.192402],[-56.283342,-27.191103],[-56.282258,-27.19073],[-56.28237,-27.189982],[-56.281712,-27.189495],[-56.282412,-27.187925],[-56.281955,-27.187255],[-56.282139,-27.186401],[-56.280991,-27.186048],[-56.280467,-27.185548],[-56.280779,-27.185406],[-56.281592,-27.185793],[-56.280633,-27.184623],[-56.280403,-27.183726],[-56.281412,-27.184011],[-56.281659,-27.182402],[-56.280802,-27.181925],[-56.280675,-27.182855],[-56.280106,-27.182888],[-56.279096,-27.18121],[-56.279409,-27.181027],[-56.279983,-27.181691],[-56.280491,-27.181766],[-56.28042,-27.181059],[-56.281556,-27.180305],[-56.280573,-27.17999],[-56.279564,-27.178792],[-56.279696,-27.177925],[-56.278508,-27.178054],[-56.277932,-27.17689],[-56.278162,-27.176388],[-56.278854,-27.176679],[-56.279157,-27.176398],[-56.278874,-27.175861],[-56.278091,-27.175569],[-56.27787,-27.174785],[-56.278189,-27.174454],[-56.278651,-27.174519],[-56.279083,-27.175399],[-56.279445,-27.175477],[-56.279296,-27.174401],[-56.279605,-27.173989],[-56.280809,-27.174211],[-56.281912,-27.173797],[-56.282724,-27.174377],[-56.283626,-27.173721],[-56.28347,-27.173335],[-56.282424,-27.173482],[-56.282468,-27.172433],[-56.281857,-27.172531],[-56.280629,-27.171688],[-56.281706,-27.170115],[-56.281624,-27.169406],[-56.27979,-27.170071],[-56.279839,-27.168999],[-56.281373,-27.169185],[-56.281594,-27.168607],[-56.282807,-27.167996],[-56.284198,-27.166266],[-56.286282,-27.164871],[-56.287744,-27.165265],[-56.288593,-27.164601],[-56.289645,-27.164753],[-56.291252,-27.163976],[-56.291868,-27.164081],[-56.292204,-27.163186],[-56.292769,-27.163176],[-56.294974,-27.164478],[-56.324643,-27.174832],[-56.324976,-27.175429],[-56.327964,-27.177009],[-56.328988,-27.177952],[-56.330813,-27.177313],[-56.332072,-27.177224],[-56.33329,-27.177732],[-56.339785,-27.17843],[-56.344463,-27.177078],[-56.34607,-27.176254],[-56.347226,-27.176061],[-56.348689,-27.176259],[-56.353272,-27.171045],[-56.355149,-27.169912],[-56.358,-27.169906],[-56.360104,-27.170461],[-56.362015,-27.171636],[-56.363616,-27.17328],[-56.367232,-27.175882],[-56.369169,-27.176804],[-56.370594,-27.177036],[-56.371544,-27.176831],[-56.373588,-27.17571],[-56.37703,-27.175578],[-56.380423,-27.173977],[-56.381245,-27.173921],[-56.384556,-27.174845],[-56.387639,-27.174093],[-56.389876,-27.17296],[-56.39179,-27.172745],[-56.396385,-27.173821],[-56.399556,-27.17417],[-56.40112,-27.175677],[-56.401697,-27.175873],[-56.403264,-27.175577],[-56.405012,-27.174673],[-56.406887,-27.174836],[-56.408786,-27.175723],[-56.411328,-27.176026],[-56.412957,-27.177039],[-56.414318,-27.177328],[-56.417295,-27.178584],[-56.432811,-27.175377],[-56.434334,-27.174037],[-56.436007,-27.173317],[-56.438426,-27.174085],[-56.439486,-27.173173],[-56.44005,-27.173124],[-56.441311,-27.173439],[-56.471163,-27.19109],[-56.476547,-27.181175],[-56.477246,-27.177479],[-56.477108,-27.174539],[-56.477934,-27.17206],[-56.477179,-27.169591],[-56.477362,-27.166881],[-56.476901,-27.165951],[-56.47372,-27.163123],[-56.473196,-27.161342],[-56.47126,-27.15925],[-56.469556,-27.156665],[-56.464242,-27.154971],[-56.463729,-27.154282],[-56.463462,-27.152547],[-56.462359,-27.151696],[-56.462694,-27.150514],[-56.459289,-27.125903],[-56.45956,-27.124594],[-56.461477,-27.121473],[-56.464473,-27.118513],[-56.465143,-27.116298],[-56.467674,-27.114785],[-56.468471,-27.113982],[-56.470647,-27.109034],[-56.471372,-27.104924],[-56.473431,-27.101228],[-56.473715,-27.099942],[-56.473332,-27.098185],[-56.473684,-27.094085],[-56.473062,-27.089323],[-56.480733,-27.070732],[-56.482484,-27.063631],[-56.47842,-27.058311],[-56.469077,-27.05451],[-56.456742,-27.057062],[-56.437354,-27.050781],[-56.43529,-27.051372],[-56.433138,-27.052836],[-56.43245,-27.054446],[-56.431656,-27.055023],[-56.430527,-27.055266],[-56.429874,-27.055739],[-56.429053,-27.055775],[-56.428437,-27.055638],[-56.427832,-27.05495],[-56.427385,-27.055583],[-56.426666,-27.055423],[-56.424975,-27.056415],[-56.422831,-27.055971],[-56.422419,-27.05557],[-56.422086,-27.055674],[-56.421622,-27.055088],[-56.42075,-27.055056],[-56.419955,-27.05554],[-56.419506,-27.055288],[-56.417774,-27.055418],[-56.416746,-27.054971],[-56.415705,-27.054042],[-56.414945,-27.053078],[-56.414841,-27.052251],[-56.41434,-27.052091],[-56.413417,-27.052518],[-56.411314,-27.052855],[-56.411638,-27.054165],[-56.411422,-27.054936],[-56.411757,-27.05567],[-56.411091,-27.056281],[-56.408372,-27.056677],[-56.407461,-27.056472],[-56.406295,-27.056968],[-56.404781,-27.057109],[-56.404126,-27.056903],[-56.403126,-27.057261],[-56.401587,-27.057218],[-56.400558,-27.05622],[-56.398108,-27.0565],[-56.397336,-27.055777],[-56.395321,-27.055264],[-56.393589,-27.055324],[-56.393036,-27.054934],[-56.39146,-27.055523],[-56.390167,-27.056617],[-56.389909,-27.056319],[-56.388767,-27.056148],[-56.388178,-27.056552],[-56.387549,-27.056277],[-56.38687,-27.056772],[-56.38642,-27.056451],[-56.385907,-27.056694],[-56.385007,-27.055661],[-56.383261,-27.055054],[-56.38253,-27.055159],[-56.382389,-27.055527],[-56.38171,-27.055632],[-56.381518,-27.056011],[-56.38044,-27.055956],[-56.380031,-27.056496],[-56.377424,-27.054731],[-56.376757,-27.055456],[-56.375782,-27.055492],[-56.374424,-27.056241],[-56.373528,-27.0573],[-56.371051,-27.056718],[-56.36986,-27.057386],[-56.368422,-27.056998],[-56.366832,-27.057598],[-56.366229,-27.057507],[-56.365817,-27.056898],[-56.365317,-27.056727],[-56.364728,-27.057371],[-56.362407,-27.057697],[-56.361831,-27.05856],[-56.36128,-27.058675],[-56.360199,-27.057367],[-56.359481,-27.057356],[-56.358648,-27.057886],[-56.357556,-27.057049],[-56.356581,-27.057119],[-56.355028,-27.056673],[-56.353556,-27.058032],[-56.352171,-27.058482],[-56.34872,-27.058085],[-56.34686,-27.058604],[-56.346333,-27.057858],[-56.345692,-27.058296],[-56.345024,-27.057688],[-56.344331,-27.057654],[-56.34328,-27.057954],[-56.342896,-27.05838],[-56.34336,-27.059586],[-56.342412,-27.060197],[-56.342017,-27.06145],[-56.341478,-27.061359],[-56.340914,-27.061693],[-56.340387,-27.06128],[-56.339953,-27.062039],[-56.338952,-27.061994],[-56.338324,-27.062432],[-56.337361,-27.062065],[-56.337081,-27.06287],[-56.335605,-27.062504],[-56.335426,-27.062746],[-56.335722,-27.063389],[-56.335504,-27.063539],[-56.334913,-27.063206],[-56.333861,-27.063253],[-56.33087,-27.061763],[-56.330588,-27.06189],[-56.330756,-27.06243],[-56.330461,-27.062557],[-56.32969,-27.061949],[-56.328267,-27.062456],[-56.327625,-27.061928],[-56.326919,-27.061837],[-56.326869,-27.062734],[-56.326074,-27.062861],[-56.325201,-27.062414],[-56.324612,-27.063093],[-56.32311,-27.062405],[-56.3222,-27.0629],[-56.320763,-27.062753],[-56.32039,-27.062098],[-56.319748,-27.061766],[-56.319235,-27.061858],[-56.317916,-27.062986],[-56.317646,-27.062837],[-56.31776,-27.061941],[-56.317388,-27.061792],[-56.316145,-27.062609],[-56.314335,-27.061864],[-56.313669,-27.062233],[-56.313428,-27.063899],[-56.313069,-27.064141],[-56.311632,-27.063947],[-56.310336,-27.063294],[-56.309599,-27.062563],[-56.308979,-27.062504],[-56.308674,-27.062647],[-56.308669,-27.063457],[-56.308244,-27.063977],[-56.307042,-27.062789],[-56.30658,-27.063358],[-56.30635,-27.064501],[-56.305198,-27.063762],[-56.304838,-27.064597],[-56.304235,-27.064483],[-56.303503,-27.063784],[-56.302484,-27.064053],[-56.302531,-27.063275],[-56.301927,-27.063198],[-56.301545,-27.063463],[-56.301203,-27.065357],[-56.30002,-27.065328],[-56.299729,-27.06566],[-56.300014,-27.065987],[-56.300833,-27.066036],[-56.30096,-27.066486],[-56.29921,-27.066677],[-56.298904,-27.066953],[-56.29928,-27.067444],[-56.300425,-27.067788],[-56.300553,-27.068117],[-56.300212,-27.070091],[-56.299367,-27.070315],[-56.299751,-27.071355],[-56.29895,-27.071618],[-56.296325,-27.070761],[-56.295569,-27.071734],[-56.294088,-27.071747],[-56.293161,-27.073245],[-56.293945,-27.073419],[-56.294134,-27.073731],[-56.29294,-27.075465],[-56.293808,-27.075617],[-56.293721,-27.076291],[-56.292932,-27.076797],[-56.293298,-27.077791],[-56.292429,-27.077883],[-56.292209,-27.078726],[-56.291495,-27.079011],[-56.29122,-27.078099],[-56.290432,-27.078473],[-56.290256,-27.078886],[-56.290874,-27.079238],[-56.290913,-27.079563],[-56.29057,-27.080228],[-56.290173,-27.080219],[-56.289856,-27.079373],[-56.289094,-27.079421],[-56.288446,-27.080032],[-56.287373,-27.080056],[-56.286962,-27.080438],[-56.285614,-27.080676],[-56.285281,-27.080445],[-56.285296,-27.079584],[-56.285659,-27.078253],[-56.286238,-27.077887],[-56.286394,-27.077152],[-56.286025,-27.075785],[-56.284959,-27.076184],[-56.283408,-27.075825],[-56.282304,-27.075948],[-56.282225,-27.076798],[-56.283147,-27.077409],[-56.283146,-27.077684],[-56.282668,-27.07882],[-56.282258,-27.078968],[-56.281836,-27.078473],[-56.281296,-27.078587],[-56.280836,-27.077908],[-56.279375,-27.077618],[-56.278069,-27.076432],[-56.277312,-27.076717],[-56.275858,-27.073544],[-56.273029,-27.071448],[-56.271848,-27.071697],[-56.271397,-27.072316],[-56.270768,-27.072384],[-56.26959,-27.071611],[-56.26777,-27.071274],[-56.266202,-27.072281],[-56.265435,-27.071268],[-56.264858,-27.071037],[-56.264482,-27.072506],[-56.262572,-27.072065],[-56.261855,-27.071569],[-56.26081,-27.069305],[-56.259899,-27.069118],[-56.259259,-27.068635],[-56.25849,-27.068667],[-56.257757,-27.069125],[-56.256835,-27.068548],[-56.256258,-27.068535],[-56.255017,-27.067257],[-56.253134,-27.066506],[-56.251457,-27.065376],[-56.247421,-27.063769],[-56.245082,-27.061785],[-56.186902,-27.039449],[-56.186258,-27.041917],[-56.184417,-27.043364],[-56.182887,-27.044046],[-56.180604,-27.046836],[-56.179952,-27.050556],[-56.178636,-27.053094],[-56.177645,-27.056451],[-56.177101,-27.0575],[-56.175006,-27.058959],[-56.174678,-27.05954],[-56.174175,-27.061076],[-56.174215,-27.062187],[-56.173379,-27.063585],[-56.173604,-27.069218],[-56.17278,-27.069933],[-56.172558,-27.072267],[-56.171799,-27.073423],[-56.17147,-27.076307],[-56.171736,-27.076704],[-56.171143,-27.07805],[-56.170428,-27.078427],[-56.170033,-27.079849],[-56.169648,-27.080245],[-56.168381,-27.080344],[-56.168204,-27.080903],[-56.166545,-27.081855],[-56.166134,-27.081668],[-56.165791,-27.082565],[-56.164601,-27.083313],[-56.163946,-27.083196],[-56.161923,-27.084296],[-56.161221,-27.085025],[-56.160318,-27.085303],[-56.160204,-27.085869],[-56.158906,-27.08681],[-56.158462,-27.086559],[-56.157611,-27.08698],[-56.157019,-27.086463],[-56.156115,-27.086741],[-56.154532,-27.088694],[-56.153883,-27.088513],[-56.153193,-27.089209],[-56.151853,-27.089162],[-56.151103,-27.08944],[-56.14913,-27.091606],[-56.148109,-27.091407],[-56.14766,-27.091588],[-56.146026,-27.093098],[-56.144026,-27.09391],[-56.142848,-27.096105],[-56.142753,-27.096634],[-56.143178,-27.096867],[-56.143115,-27.097225],[-56.140624,-27.098377],[-56.140701,-27.100001],[-56.139057,-27.100974],[-56.138624,-27.101549],[-56.138678,-27.102788],[-56.137099,-27.105434],[-56.137715,-27.107246],[-56.137608,-27.108653],[-56.13667,-27.109826],[-56.136451,-27.110816],[-56.135962,-27.111152],[-56.135414,-27.110677],[-56.135228,-27.111565],[-56.134724,-27.112108],[-56.135225,-27.112409],[-56.135913,-27.112192],[-56.136983,-27.112379],[-56.136577,-27.113176],[-56.137504,-27.113561],[-56.137695,-27.114614],[-56.138113,-27.114246],[-56.138244,-27.113443],[-56.138741,-27.113446],[-56.138513,-27.115535],[-56.139651,-27.115668],[-56.139751,-27.115922],[-56.138759,-27.116295],[-56.138315,-27.116919],[-56.140324,-27.116941],[-56.140148,-27.11814],[-56.14049,-27.118513],[-56.141861,-27.117907],[-56.141996,-27.118359],[-56.141645,-27.119088],[-56.142849,-27.11887],[-56.142964,-27.119814],[-56.143889,-27.120158],[-56.143915,-27.120822],[-56.146253,-27.121432],[-56.146943,-27.121166],[-56.146996,-27.122073],[-56.146129,-27.122483],[-56.147219,-27.122869],[-56.146924,-27.123648],[-56.147808,-27.123861],[-56.148715,-27.123673],[-56.148617,-27.12411],[-56.147285,-27.124517],[-56.147022,-27.125062],[-56.148149,-27.125389],[-56.147907,-27.126159],[-56.14817,-27.127028],[-56.149355,-27.127125],[-56.148826,-27.12774],[-56.14891,-27.128066],[-56.149763,-27.128161],[-56.150426,-27.128734],[-56.150851,-27.128064],[-56.15106,-27.129171],[-56.150237,-27.129771],[-56.150568,-27.130405],[-56.149569,-27.130286],[-56.149525,-27.13118],[-56.14858,-27.131968],[-56.147521,-27.132251],[-56.147959,-27.133098],[-56.148293,-27.135235],[-56.147557,-27.135614],[-56.147174,-27.136496],[-56.148345,-27.137176],[-56.148035,-27.137729],[-56.147006,-27.138274],[-56.148815,-27.138673],[-56.148792,-27.139612],[-56.15112,-27.140316],[-56.151439,-27.141054],[-56.150778,-27.141542],[-56.150596,-27.142164],[-56.151808,-27.142704],[-56.151644,-27.143493],[-56.152692,-27.143057],[-56.153533,-27.143297],[-56.154033,-27.142641],[-56.154753,-27.142731],[-56.155452,-27.143435],[-56.15702,-27.143155],[-56.157157,-27.143788],[-56.156679,-27.144611],[-56.15561,-27.144076],[-56.15509,-27.144353],[-56.155338,-27.144964],[-56.156649,-27.14569],[-56.156505,-27.14665],[-56.158596,-27.146591],[-56.158296,-27.148439],[-56.158513,-27.148603],[-56.159559,-27.148393],[-56.159807,-27.147627],[-56.159252,-27.146716],[-56.161038,-27.145319],[-56.162253,-27.146093],[-56.162088,-27.146806],[-56.162648,-27.147238],[-56.164422,-27.147984],[-56.166259,-27.148266],[-56.16569,-27.149892],[-56.167854,-27.148659],[-56.16909,-27.148906],[-56.168789,-27.14982],[-56.169844,-27.1504],[-56.170176,-27.150135],[-56.170058,-27.14971],[-56.170432,-27.149875],[-56.170474,-27.150688],[-56.169738,-27.1515],[-56.169178,-27.151538],[-56.168975,-27.15183],[-56.169695,-27.152471],[-56.169722,-27.153089],[-56.170539,-27.153243],[-56.170959,-27.153751],[-56.170738,-27.154151],[-56.169559,-27.154542],[-56.170087,-27.155836],[-56.168737,-27.156794],[-56.169909,-27.156823],[-56.17003,-27.157406],[-56.169675,-27.157928],[-56.168771,-27.157891],[-56.168088,-27.157417],[-56.167839,-27.157565],[-56.168509,-27.158873],[-56.16902,-27.159043],[-56.169602,-27.158582],[-56.169749,-27.158799],[-56.169588,-27.159439],[-56.169894,-27.159956],[-56.169275,-27.160557],[-56.169247,-27.161058],[-56.170535,-27.161725],[-56.16955,-27.162545],[-56.170326,-27.163615],[-56.169936,-27.163901],[-56.170321,-27.164346],[-56.170073,-27.164855],[-56.170441,-27.165353],[-56.17003,-27.16601],[-56.170908,-27.166584],[-56.170369,-27.167325],[-56.171066,-27.168002],[-56.171575,-27.169183],[-56.170284,-27.169632],[-56.170343,-27.171135],[-56.169513,-27.171884],[-56.168791,-27.173301],[-56.16763,-27.173611],[-56.168135,-27.17439],[-56.167273,-27.174281],[-56.166755,-27.173289],[-56.166486,-27.173365],[-56.166295,-27.175408],[-56.165492,-27.175999],[-56.166654,-27.17602],[-56.16609,-27.177483],[-56.166434,-27.178677],[-56.165027,-27.179292],[-56.165466,-27.179877],[-56.164297,-27.179504],[-56.163586,-27.180439],[-56.165325,-27.181058],[-56.164903,-27.182938],[-56.165507,-27.182883],[-56.166359,-27.183674],[-56.166007,-27.184732],[-56.165934,-27.187418],[-56.164928,-27.187443],[-56.164778,-27.187903],[-56.166677,-27.188668],[-56.165785,-27.189322],[-56.166958,-27.189681],[-56.166177,-27.190389],[-56.167282,-27.190518],[-56.166504,-27.192251],[-56.168004,-27.191619],[-56.168313,-27.19181],[-56.168242,-27.192573],[-56.170381,-27.192346],[-56.171043,-27.19295],[-56.170753,-27.193617],[-56.171832,-27.193578],[-56.172243,-27.19386],[-56.171867,-27.1943],[-56.170623,-27.194487],[-56.170605,-27.195448],[-56.169304,-27.196073],[-56.169381,-27.196682],[-56.170144,-27.196998],[-56.168657,-27.198962],[-56.168837,-27.199365],[-56.169814,-27.199249],[-56.170313,-27.199681],[-56.169947,-27.200143],[-56.170172,-27.200745],[-56.169264,-27.200749],[-56.17,-27.201543],[-56.169136,-27.201863],[-56.170071,-27.20246],[-56.169006,-27.202584],[-56.169371,-27.203665],[-56.169973,-27.204143],[-56.169345,-27.204613],[-56.168562,-27.204198],[-56.168428,-27.205032],[-56.167733,-27.204604],[-56.167533,-27.20481],[-56.168434,-27.205781],[-56.169115,-27.207338],[-56.170233,-27.207819],[-56.170212,-27.208288],[-56.170761,-27.208625],[-56.170688,-27.209257],[-56.171179,-27.209355],[-56.171596,-27.209086],[-56.171601,-27.208021],[-56.172113,-27.207658],[-56.173363,-27.209566],[-56.172564,-27.210153],[-56.174002,-27.210279],[-56.173764,-27.211478],[-56.174168,-27.212378],[-56.173447,-27.21306],[-56.173405,-27.213525],[-56.174442,-27.214014],[-56.173991,-27.214634],[-56.174965,-27.214419],[-56.175361,-27.214724],[-56.175442,-27.215207],[-56.175054,-27.215868],[-56.175947,-27.216],[-56.176041,-27.215287],[-56.176891,-27.216832],[-56.178785,-27.216504],[-56.178809,-27.215881],[-56.17963,-27.216911],[-56.179664,-27.217548],[-56.179997,-27.217685],[-56.180481,-27.217516],[-56.180652,-27.216565],[-56.181296,-27.216244],[-56.181804,-27.216256],[-56.181851,-27.217339],[-56.182723,-27.21715],[-56.182847,-27.216018],[-56.183646,-27.216275],[-56.184452,-27.21609],[-56.185813,-27.217457],[-56.186744,-27.217535],[-56.187524,-27.216889],[-56.187982,-27.217154],[-56.188737,-27.219135],[-56.187808,-27.219351],[-56.188176,-27.219935],[-56.187207,-27.220097],[-56.187489,-27.221164],[-56.186977,-27.221287],[-56.186223,-27.220827],[-56.185048,-27.221312],[-56.184624,-27.221007],[-56.184364,-27.220189],[-56.183477,-27.221389],[-56.183379,-27.220544],[-56.183138,-27.220533],[-56.182736,-27.221624],[-56.183157,-27.2221],[-56.182562,-27.222345],[-56.182466,-27.224818],[-56.181228,-27.225275],[-56.181177,-27.227234],[-56.182882,-27.228093],[-56.183466,-27.229829],[-56.185123,-27.230864],[-56.185575,-27.23176],[-56.185436,-27.233163],[-56.186945,-27.23314],[-56.187536,-27.232561],[-56.187768,-27.232734],[-56.187565,-27.233654],[-56.188247,-27.233843],[-56.190005,-27.232621],[-56.190023,-27.231971],[-56.188925,-27.231482],[-56.189173,-27.230842],[-56.190178,-27.230523],[-56.190171,-27.230198],[-56.189292,-27.22962],[-56.189827,-27.228973],[-56.191485,-27.228978],[-56.191578,-27.229935],[-56.191883,-27.230118],[-56.193,-27.229998],[-56.193702,-27.230421],[-56.194019,-27.229994],[-56.194544,-27.230011],[-56.194803,-27.230717],[-56.193365,-27.232841],[-56.193258,-27.234606],[-56.192276,-27.234897],[-56.192064,-27.235786],[-56.189513,-27.236774],[-56.186606,-27.236814],[-56.185808,-27.235679],[-56.185303,-27.23562],[-56.183211,-27.236412],[-56.182469,-27.236295],[-56.180313,-27.235167],[-56.179231,-27.234073],[-56.176623,-27.234128],[-56.176129,-27.234676],[-56.176156,-27.235397],[-56.178343,-27.235461],[-56.179377,-27.236095],[-56.179762,-27.237277],[-56.181851,-27.239675],[-56.181897,-27.241056],[-56.181495,-27.242234],[-56.179424,-27.245084],[-56.178803,-27.245482],[-56.177312,-27.245775],[-56.177722,-27.247259],[-56.176978,-27.249138],[-56.174406,-27.251182],[-56.173951,-27.251982],[-56.173493,-27.25311],[-56.173486,-27.254089],[-56.174337,-27.256781],[-56.173389,-27.259562],[-56.171971,-27.261336],[-56.17247,-27.262243],[-56.173057,-27.262649],[-56.172828,-27.26325],[-56.170914,-27.26369],[-56.168426,-27.265835],[-56.168952,-27.266893],[-56.166605,-27.286119],[-56.168231,-27.297061],[-56.156555,-27.298008],[-56.124613,-27.306457],[-56.098127,-27.308322],[-56.110496,-27.311413],[-56.141466,-27.327051],[-56.147195,-27.329303],[-56.162266,-27.33209],[-56.175637,-27.340166],[-56.179345,-27.344955],[-56.184069,-27.353057],[-56.188138,-27.362391],[-56.192227,-27.368986],[-56.197087,-27.375038],[-56.204085,-27.38202],[-56.20912,-27.385061],[-56.215848,-27.38729],[-56.224569,-27.389392],[-56.236022,-27.391125],[-56.269638,-27.399057],[-56.278324,-27.402076],[-56.286873,-27.406465],[-56.292493,-27.411052],[-56.30967,-27.389404],[-56.272077,-27.310227],[-56.271361,-27.309778],[-56.271217,-27.30825],[-56.27262,-27.304949],[-56.27227,-27.301403],[-56.268717,-27.298507],[-56.267722,-27.296544],[-56.267101,-27.294367],[-56.266384,-27.293365],[-56.266434,-27.292387],[-56.267649,-27.290964],[-56.269674,-27.289487],[-56.271235,-27.28877],[-56.272073,-27.287972],[-56.272737,-27.286997],[-56.273852,-27.283529],[-56.274672,-27.282582],[-56.275883,-27.281629],[-56.277221,-27.281381],[-56.277444,-27.280795],[-56.276877,-27.280362],[-56.272565,-27.279674],[-56.271977,-27.279201],[-56.27196,-27.278418],[-56.277057,-27.27625],[-56.280355,-27.275188],[-56.280695,-27.273989],[-56.279234,-27.271218],[-56.279177,-27.270435],[-56.279465,-27.269743],[-56.280989,-27.268584],[-56.28114,-27.268111],[-56.280006,-27.266134],[-56.280727,-27.265256],[-56.281997,-27.265131],[-56.282769,-27.265796],[-56.283434,-27.267759],[-56.284182,-27.268325],[-56.289425,-27.267536],[-56.291702,-27.266726],[-56.295846,-27.266189],[-56.297126,-27.266415],[-56.29832,-27.267317],[-56.299928,-27.270306],[-56.30121,-27.27018],[-56.301823,-27.269449],[-56.301745,-27.268744],[-56.299977,-27.267604],[-56.298316,-27.265203],[-56.298271,-27.264571],[-56.300727,-27.263365],[-56.305878,-27.262083],[-56.30634,-27.261719],[-56.306293,-27.261366],[-56.304436,-27.26148],[-56.30369,-27.261063],[-56.303604,-27.259898],[-56.304698,-27.259334],[-56.304794,-27.25888],[-56.304566,-27.258284],[-56.303149,-27.257344],[-56.30263,-27.256094],[-56.30305,-27.25551],[-56.304423,-27.256111],[-56.307233,-27.255976],[-56.307909,-27.255732],[-56.30832,-27.255015],[-56.308253,-27.254016],[-56.307322,-27.253507],[-56.306823,-27.253521],[-56.306018,-27.255153],[-56.303944,-27.254325],[-56.304161,-27.253682],[-56.304977,-27.253223],[-56.304852,-27.25105],[-56.304194,-27.249825],[-56.304244,-27.249263],[-56.305337,-27.248756],[-56.30525,-27.246443],[-56.305511,-27.246147],[-56.306102,-27.24615],[-56.30664,-27.247326],[-56.308994,-27.247742],[-56.309439,-27.247406],[-56.309471,-27.246844],[-56.308056,-27.245541],[-56.308383,-27.244898],[-56.309435,-27.2452],[-56.310839,-27.246678],[-56.311967,-27.246642],[-56.312119,-27.246007],[-56.312021,-27.245329],[-56.311195,-27.244358],[-56.31043,-27.244099],[-56.305734,-27.244414],[-56.304441,-27.244687],[-56.303115,-27.245558],[-56.301858,-27.245868],[-56.300475,-27.245516],[-56.299088,-27.245926],[-56.296706,-27.245756],[-56.296289,-27.245495],[-56.296474,-27.244201],[-56.29617,-27.243883],[-56.295671,-27.243938],[-56.294116,-27.245398],[-56.293887,-27.245987],[-56.294152,-27.247384],[-56.292689,-27.249492],[-56.292124,-27.249777],[-56.291528,-27.249745],[-56.29062,-27.248316],[-56.28972,-27.247995],[-56.287042,-27.248744],[-56.28554,-27.247038]]]}}]}
