{"type":"FeatureCollection","name":"distrito","features":[{"type":"Feature","properties":{"clave":"7-53","nombre":"Tomás Romero Pereira"},"geometry":{"type":"Polygon","coordinates":[[[-55.275844,-26.607933],[-55.27521,-26.60621],[-55.276073,-26.604596],[-55.275094,-26.60407],[-55.275152,-26.603867],[-55.276262,-26.603574],[-55.277813,-26.602622],[-55.279807,-26.602881],[-55.281169,-26.601981],[-55.282332,-26.602659],[-55.283217,-26.602466],[-55.283478,-26.601634],[-55.284821,-26.60189],[-55.283994,-26.600043],[-55.285839,-26.599397],[-55.285842,-26.599086],[-55.285114,-26.598576],[-55.284898,-26.596696],[-55.28631,-26.59512],[-55.286537,-26.594459],[-55.284543,-26.593726],[-55.284161,-26.592657],[-55.285545,-26.592172],[-55.286698,-26.592146],[-55.286243,-26.591179],[-55.288285,-26.590707],[-55.288888,-26.590922],[-55.290266,-26.590573],[-55.290767,-26.590136],[-55.293149,-26.589971],[-55.293855,-26.590183],[-55.294496,-26.589906],[-55.295544,-26.590167],[-55.296221,-26.588631],[-55.294574,-26.587452],[-55.294948,-26.586179],[-55.295664,-26.585799],[-55.296935,-26.587006],[-55.297513,-26.587026],[-55.299783,-26.585415],[-55.298435,-26.583792],[-55.298657,-26.581069],[-55.30027,-26.577581],[-55.299988,-26.576626],[-55.299334,-26.576216],[-55.299458,-26.575694],[-55.30027,-26.575279],[-55.300253,-26.575031],[-55.298876,-26.575439],[-55.298757,-26.572305],[-55.299392,-26.569004],[-55.300011,-26.567892],[-55.300911,-26.567876],[-55.301625,-26.568679],[-55.302033,-26.570182],[-55.301754,-26.572043],[-55.301967,-26.572497],[-55.302525,-26.572558],[-55.303815,-26.571873],[-55.305426,-26.571617],[-55.305802,-26.572001],[-55.30571,-26.573376],[-55.307143,-26.574368],[-55.31064,-26.574965],[-55.312085,-26.573524],[-55.314076,-26.57334],[-55.314964,-26.572448],[-55.314188,-26.569726],[-55.310749,-26.571541],[-55.310668,-26.568899],[-55.308146,-26.567985],[-55.307444,-26.566496],[-55.307418,-26.565738],[-55.310838,-26.564113],[-55.311192,-26.562835],[-55.311909,-26.561891],[-55.314561,-26.562568],[-55.314802,-26.563054],[-55.315484,-26.562538],[-55.315811,-26.562655],[-55.316361,-26.563099],[-55.316568,-26.563865],[-55.318368,-26.563101],[-55.317472,-26.560648],[-55.316299,-26.559312],[-55.315122,-26.559767],[-55.31518,-26.558974],[-55.314627,-26.558331],[-55.314276,-26.55834],[-55.313483,-26.559265],[-55.312194,-26.559205],[-55.310739,-26.560253],[-55.310323,-26.559805],[-55.310031,-26.558845],[-55.310768,-26.558398],[-55.311054,-26.556731],[-55.31015,-26.557113],[-55.309701,-26.556878],[-55.309938,-26.555784],[-55.308675,-26.555128],[-55.309493,-26.554894],[-55.309836,-26.554108],[-55.308855,-26.55406],[-55.308521,-26.552788],[-55.308883,-26.551587],[-55.309731,-26.551859],[-55.310267,-26.551459],[-55.309937,-26.550341],[-55.310106,-26.55004],[-55.311833,-26.549163],[-55.311479,-26.547669],[-55.310611,-26.54746],[-55.310326,-26.546843],[-55.310991,-26.545768],[-55.309201,-26.545539],[-55.309502,-26.54454],[-55.310367,-26.543634],[-55.312563,-26.542063],[-55.313274,-26.542256],[-55.313388,-26.541838],[-55.314301,-26.5416],[-55.31571,-26.540543],[-55.31607,-26.541107],[-55.316416,-26.541088],[-55.318149,-26.539606],[-55.319195,-26.539821],[-55.320307,-26.539609],[-55.320911,-26.538921],[-55.322988,-26.539256],[-55.323064,-26.539722],[-55.322611,-26.540435],[-55.323586,-26.541796],[-55.323288,-26.542645],[-55.325118,-26.542292],[-55.326181,-26.541596],[-55.326002,-26.539757],[-55.324851,-26.537884],[-55.323951,-26.53428],[-55.320476,-26.533698],[-55.319609,-26.53427],[-55.319198,-26.533778],[-55.319477,-26.531958],[-55.320254,-26.531335],[-55.319455,-26.530888],[-55.319345,-26.529582],[-55.32001,-26.529332],[-55.320428,-26.528218],[-55.321864,-26.528054],[-55.322468,-26.527669],[-55.322315,-26.527013],[-55.321648,-26.526499],[-55.322169,-26.524741],[-55.322863,-26.524194],[-55.32391,-26.524305],[-55.324593,-26.523636],[-55.325438,-26.524256],[-55.325664,-26.525897],[-55.327837,-26.526179],[-55.327764,-26.526625],[-55.327174,-26.527025],[-55.32713,-26.528044],[-55.326593,-26.528746],[-55.325635,-26.52925],[-55.326168,-26.530294],[-55.32682,-26.5306],[-55.327311,-26.531359],[-55.327304,-26.533697],[-55.327541,-26.534083],[-55.329281,-26.532691],[-55.329981,-26.531237],[-55.330922,-26.53169],[-55.332577,-26.531285],[-55.334289,-26.531319],[-55.335481,-26.530349],[-55.335195,-26.529596],[-55.33713,-26.528057],[-55.338245,-26.527998],[-55.340855,-26.529319],[-55.341845,-26.529137],[-55.344338,-26.530195],[-55.346706,-26.530452],[-55.346538,-26.528013],[-55.345278,-26.527109],[-55.345387,-26.525125],[-55.345067,-26.52365],[-55.343376,-26.52354],[-55.342934,-26.522772],[-55.342004,-26.522946],[-55.341717,-26.523453],[-55.340445,-26.523321],[-55.340559,-26.523814],[-55.339612,-26.523704],[-55.339295,-26.523578],[-55.339339,-26.522613],[-55.338502,-26.522418],[-55.338387,-26.522092],[-55.338829,-26.521361],[-55.338674,-26.520168],[-55.337838,-26.519282],[-55.338087,-26.518541],[-55.337279,-26.516631],[-55.338363,-26.515849],[-55.337561,-26.514409],[-55.338158,-26.511929],[-55.339547,-26.512054],[-55.340159,-26.511451],[-55.34145,-26.511403],[-55.343095,-26.511707],[-55.344186,-26.512767],[-55.345104,-26.512836],[-55.346713,-26.512345],[-55.347014,-26.5133],[-55.347655,-26.513624],[-55.348111,-26.513367],[-55.348553,-26.512289],[-55.349716,-26.512623],[-55.350361,-26.511895],[-55.351437,-26.51397],[-55.351847,-26.515911],[-55.352773,-26.515913],[-55.353193,-26.515642],[-55.353252,-26.516081],[-55.354359,-26.517231],[-55.355434,-26.517333],[-55.355754,-26.518303],[-55.357233,-26.518627],[-55.357286,-26.517729],[-55.358875,-26.51731],[-55.360243,-26.515502],[-55.361056,-26.515665],[-55.360651,-26.514672],[-55.361525,-26.51451],[-55.361797,-26.514843],[-55.362228,-26.514528],[-55.36226,-26.514207],[-55.361361,-26.513507],[-55.362383,-26.511153],[-55.361538,-26.510309],[-55.360802,-26.510318],[-55.360131,-26.511055],[-55.359482,-26.510506],[-55.359008,-26.510844],[-55.358752,-26.510407],[-55.356861,-26.510282],[-55.356235,-26.509629],[-55.356057,-26.508842],[-55.356725,-26.50713],[-55.358612,-26.50652],[-55.359181,-26.505741],[-55.359943,-26.505885],[-55.356682,-26.503482],[-55.356493,-26.503029],[-55.35673,-26.502765],[-55.357554,-26.502617],[-55.358497,-26.501585],[-55.359629,-26.501404],[-55.360192,-26.500381],[-55.361358,-26.501131],[-55.362091,-26.502195],[-55.362732,-26.501006],[-55.365181,-26.500303],[-55.367306,-26.501321],[-55.369486,-26.501201],[-55.369731,-26.502603],[-55.370169,-26.502874],[-55.37125,-26.502724],[-55.371555,-26.50206],[-55.372516,-26.50268],[-55.373744,-26.502324],[-55.376462,-26.502472],[-55.376793,-26.503284],[-55.378728,-26.50229],[-55.379702,-26.502685],[-55.379763,-26.502144],[-55.37919,-26.502088],[-55.379421,-26.501436],[-55.379934,-26.501663],[-55.380795,-26.501073],[-55.3804,-26.500414],[-55.380788,-26.499867],[-55.379986,-26.498558],[-55.380311,-26.49775],[-55.380045,-26.497115],[-55.380813,-26.494695],[-55.381844,-26.494084],[-55.381382,-26.493867],[-55.384259,-26.493263],[-55.384116,-26.492665],[-55.384509,-26.492372],[-55.384811,-26.49122],[-55.385124,-26.491038],[-55.385589,-26.491324],[-55.386165,-26.49022],[-55.385701,-26.489497],[-55.38649,-26.489063],[-55.38669,-26.488592],[-55.386819,-26.489284],[-55.387056,-26.489553],[-55.387263,-26.489406],[-55.387595,-26.487884],[-55.387506,-26.486182],[-55.388972,-26.484443],[-55.390404,-26.483479],[-55.390986,-26.485147],[-55.391522,-26.484783],[-55.391104,-26.484494],[-55.39119,-26.484197],[-55.392146,-26.484447],[-55.392834,-26.483489],[-55.393637,-26.483859],[-55.393748,-26.48321],[-55.392741,-26.482707],[-55.392952,-26.482334],[-55.392436,-26.48222],[-55.393003,-26.48182],[-55.392583,-26.481586],[-55.392009,-26.47911],[-55.393948,-26.478008],[-55.394225,-26.477573],[-55.393809,-26.477176],[-55.3945,-26.477017],[-55.394537,-26.475817],[-55.393906,-26.47534],[-55.394323,-26.475259],[-55.395292,-26.473767],[-55.395304,-26.472503],[-55.395772,-26.472197],[-55.397811,-26.472148],[-55.397851,-26.471891],[-55.397427,-26.471755],[-55.397645,-26.471392],[-55.397185,-26.471446],[-55.396917,-26.470833],[-55.39732,-26.46966],[-55.397935,-26.469035],[-55.397557,-26.468841],[-55.398273,-26.467671],[-55.400927,-26.467349],[-55.401314,-26.467732],[-55.401662,-26.467623],[-55.40259,-26.466067],[-55.402631,-26.465422],[-55.404077,-26.465037],[-55.405012,-26.464099],[-55.404774,-26.463339],[-55.405223,-26.462481],[-55.40489,-26.46185],[-55.405259,-26.461498],[-55.405064,-26.461148],[-55.403728,-26.461178],[-55.402897,-26.460781],[-55.402706,-26.460287],[-55.402953,-26.459121],[-55.401765,-26.459477],[-55.40177,-26.459861],[-55.399759,-26.459058],[-55.399488,-26.458283],[-55.399176,-26.458974],[-55.398748,-26.458672],[-55.39879,-26.458076],[-55.398438,-26.457621],[-55.398795,-26.457278],[-55.398521,-26.456968],[-55.398686,-26.454528],[-55.39971,-26.454359],[-55.399978,-26.454619],[-55.400493,-26.452968],[-55.401373,-26.452779],[-55.403225,-26.450611],[-55.405378,-26.450567],[-55.405732,-26.450842],[-55.406352,-26.450244],[-55.407059,-26.450433],[-55.407229,-26.450141],[-55.406906,-26.449668],[-55.408284,-26.448839],[-55.408672,-26.449625],[-55.408907,-26.448891],[-55.409577,-26.449319],[-55.409437,-26.448532],[-55.410178,-26.44891],[-55.410176,-26.448427],[-55.411274,-26.448421],[-55.410855,-26.447356],[-55.410026,-26.447293],[-55.411603,-26.445893],[-55.41121,-26.444534],[-55.414037,-26.443586],[-55.414666,-26.443837],[-55.415274,-26.443289],[-55.416352,-26.443057],[-55.416098,-26.442187],[-55.416568,-26.441105],[-55.417053,-26.44121],[-55.417987,-26.440168],[-55.425906,-26.437335],[-55.427046,-26.437307],[-55.428156,-26.436367],[-55.43341,-26.433292],[-55.43478,-26.432134],[-55.436345,-26.431474],[-55.438795,-26.431704],[-55.441627,-26.42937],[-55.443858,-26.425824],[-55.444813,-26.423392],[-55.449002,-26.415958],[-55.449685,-26.415763],[-55.451563,-26.414172],[-55.458279,-26.407465],[-55.458787,-26.405173],[-55.459484,-26.40365],[-55.459314,-26.401862],[-55.459668,-26.401016],[-55.475736,-26.379969],[-55.476009,-26.378916],[-55.477202,-26.378247],[-55.487338,-26.365829],[-55.488437,-26.36482],[-55.495831,-26.3543],[-55.498236,-26.350111],[-55.499317,-26.346564],[-55.507141,-26.327221],[-55.507104,-26.319987],[-55.511288,-26.316764],[-55.513137,-26.313866],[-55.507194,-26.307913],[-55.502027,-26.307101],[-55.498401,-26.307179],[-55.482375,-26.310219],[-55.47141,-26.317219],[-55.469404,-26.317139],[-55.462533,-26.317883],[-55.457256,-26.320451],[-55.455124,-26.325036],[-55.452063,-26.324578],[-55.449969,-26.324923],[-55.452104,-26.329117],[-55.451547,-26.333101],[-55.450789,-26.345167],[-55.449896,-26.348877],[-55.450145,-26.34966],[-55.449949,-26.351315],[-55.451129,-26.353774],[-55.452092,-26.354064],[-55.450776,-26.35544],[-55.45048,-26.356574],[-55.450239,-26.356572],[-55.450404,-26.356163],[-55.449831,-26.356143],[-55.447856,-26.357124],[-55.446662,-26.357291],[-55.447531,-26.357897],[-55.446597,-26.359317],[-55.444897,-26.358843],[-55.444296,-26.358177],[-55.443678,-26.358266],[-55.443833,-26.357969],[-55.443262,-26.357805],[-55.442453,-26.358207],[-55.441586,-26.357882],[-55.440619,-26.356711],[-55.438959,-26.357686],[-55.439283,-26.358051],[-55.436168,-26.357705],[-55.435403,-26.356564],[-55.434318,-26.35569],[-55.434513,-26.355132],[-55.434218,-26.354299],[-55.433147,-26.352685],[-55.432235,-26.35258],[-55.429166,-26.353408],[-55.428414,-26.352624],[-55.42803,-26.353748],[-55.426218,-26.355705],[-55.425916,-26.356677],[-55.424996,-26.356888],[-55.424474,-26.357527],[-55.42302,-26.35725],[-55.422166,-26.357886],[-55.421667,-26.359487],[-55.421071,-26.35986],[-55.42132,-26.360503],[-55.421136,-26.36079],[-55.420234,-26.360857],[-55.419766,-26.361443],[-55.41949,-26.361341],[-55.419665,-26.360819],[-55.418031,-26.361144],[-55.417701,-26.361443],[-55.418309,-26.361648],[-55.417067,-26.361865],[-55.416656,-26.362235],[-55.415853,-26.361662],[-55.414015,-26.361998],[-55.410148,-26.361273],[-55.409834,-26.361816],[-55.409111,-26.361998],[-55.40762,-26.361051],[-55.406999,-26.361667],[-55.406497,-26.362975],[-55.406003,-26.3658],[-55.4055,-26.366002],[-55.404951,-26.365829],[-55.404025,-26.364726],[-55.403803,-26.362823],[-55.404292,-26.360676],[-55.403911,-26.35976],[-55.40659,-26.357704],[-55.406122,-26.356539],[-55.40516,-26.357305],[-55.403258,-26.358087],[-55.402145,-26.358377],[-55.400904,-26.3583],[-55.398292,-26.356722],[-55.397792,-26.353896],[-55.396218,-26.35442],[-55.394782,-26.355464],[-55.392704,-26.355373],[-55.392022,-26.355109],[-55.39183,-26.354113],[-55.390788,-26.35365],[-55.390431,-26.352874],[-55.38861,-26.352407],[-55.385974,-26.354088],[-55.386559,-26.354523],[-55.386249,-26.354786],[-55.386225,-26.355603],[-55.385599,-26.356237],[-55.385613,-26.357627],[-55.386838,-26.358512],[-55.38596,-26.359423],[-55.384237,-26.358469],[-55.384761,-26.360854],[-55.383465,-26.360948],[-55.38303,-26.36125],[-55.381774,-26.361059],[-55.380678,-26.36241],[-55.379982,-26.362154],[-55.379466,-26.362943],[-55.378931,-26.362742],[-55.377257,-26.362912],[-55.373905,-26.361814],[-55.373407,-26.362931],[-55.371501,-26.363617],[-55.368109,-26.364132],[-55.366267,-26.3637],[-55.365747,-26.364445],[-55.365781,-26.366704],[-55.366995,-26.366903],[-55.367339,-26.367718],[-55.366005,-26.367695],[-55.36571,-26.368692],[-55.366005,-26.369818],[-55.365644,-26.370514],[-55.366609,-26.370296],[-55.366583,-26.371209],[-55.365853,-26.371944],[-55.36377,-26.371481],[-55.363172,-26.371862],[-55.363094,-26.372367],[-55.361579,-26.373014],[-55.361387,-26.372335],[-55.360512,-26.371772],[-55.35871,-26.371964],[-55.359525,-26.372361],[-55.35956,-26.373643],[-55.359026,-26.374143],[-55.358735,-26.373009],[-55.357831,-26.373856],[-55.357655,-26.375444],[-55.358265,-26.377317],[-55.358124,-26.378301],[-55.357671,-26.378378],[-55.357187,-26.377503],[-55.356021,-26.377062],[-55.353939,-26.377473],[-55.353698,-26.376818],[-55.352268,-26.375501],[-55.350865,-26.375038],[-55.35082,-26.374211],[-55.349749,-26.374475],[-55.349668,-26.375609],[-55.3477,-26.375962],[-55.346956,-26.379224],[-55.345542,-26.379243],[-55.344826,-26.37861],[-55.344122,-26.379353],[-55.343008,-26.379277],[-55.343241,-26.377089],[-55.342519,-26.376025],[-55.341653,-26.376715],[-55.341251,-26.376599],[-55.341535,-26.375788],[-55.341338,-26.375426],[-55.340285,-26.375398],[-55.339168,-26.374899],[-55.337421,-26.374847],[-55.336165,-26.374322],[-55.335433,-26.374828],[-55.334787,-26.374875],[-55.334162,-26.373488],[-55.333154,-26.374892],[-55.332916,-26.376166],[-55.331124,-26.376525],[-55.330306,-26.378145],[-55.330417,-26.378708],[-55.331408,-26.37936],[-55.3324,-26.381507],[-55.33195,-26.381652],[-55.331642,-26.380814],[-55.331021,-26.380648],[-55.329086,-26.381808],[-55.328891,-26.382245],[-55.329423,-26.383101],[-55.328817,-26.383659],[-55.328029,-26.383824],[-55.326555,-26.385274],[-55.325814,-26.382157],[-55.325092,-26.38169],[-55.323829,-26.381272],[-55.319807,-26.381656],[-55.318813,-26.381478],[-55.319292,-26.380523],[-55.318349,-26.379859],[-55.317714,-26.378567],[-55.318322,-26.377807],[-55.318847,-26.372447],[-55.317535,-26.371815],[-55.31703,-26.371223],[-55.315831,-26.370648],[-55.3151,-26.371699],[-55.314541,-26.371819],[-55.314174,-26.371407],[-55.314718,-26.371117],[-55.314669,-26.37086],[-55.312821,-26.371174],[-55.312478,-26.370253],[-55.310241,-26.371357],[-55.30805,-26.370165],[-55.307455,-26.369422],[-55.306046,-26.369753],[-55.304821,-26.369446],[-55.302269,-26.371951],[-55.300465,-26.371676],[-55.299516,-26.374397],[-55.298166,-26.374848],[-55.297922,-26.374125],[-55.299027,-26.374194],[-55.299216,-26.373915],[-55.297398,-26.372439],[-55.298947,-26.370994],[-55.299918,-26.369455],[-55.299207,-26.364045],[-55.297868,-26.363411],[-55.295845,-26.363388],[-55.293874,-26.364218],[-55.292273,-26.364511],[-55.290115,-26.366172],[-55.289319,-26.367657],[-55.289482,-26.369133],[-55.289125,-26.369684],[-55.287358,-26.370282],[-55.286906,-26.371884],[-55.287373,-26.374648],[-55.284768,-26.376447],[-55.284551,-26.376874],[-55.284782,-26.37731],[-55.285755,-26.377841],[-55.289013,-26.378138],[-55.289759,-26.377568],[-55.290692,-26.377725],[-55.291073,-26.379153],[-55.292437,-26.378881],[-55.2948,-26.378907],[-55.295178,-26.379208],[-55.29516,-26.379987],[-55.293521,-26.381747],[-55.292151,-26.382176],[-55.291408,-26.382982],[-55.29071,-26.383033],[-55.287579,-26.382071],[-55.286091,-26.382759],[-55.284515,-26.384436],[-55.283693,-26.384118],[-55.283002,-26.384578],[-55.280986,-26.384587],[-55.280784,-26.383342],[-55.280011,-26.382594],[-55.279379,-26.382393],[-55.278427,-26.383559],[-55.278808,-26.384457],[-55.278256,-26.385737],[-55.274478,-26.387118],[-55.273092,-26.386888],[-55.272144,-26.387134],[-55.269548,-26.389176],[-55.268533,-26.390534],[-55.268727,-26.390987],[-55.270939,-26.390605],[-55.271597,-26.391084],[-55.270155,-26.395927],[-55.269386,-26.397377],[-55.268316,-26.398269],[-55.265376,-26.398447],[-55.259892,-26.396752],[-55.258902,-26.396876],[-55.258626,-26.39816],[-55.258154,-26.398375],[-55.257449,-26.398224],[-55.257256,-26.39853],[-55.259779,-26.399226],[-55.260863,-26.399824],[-55.261254,-26.401561],[-55.25944,-26.403108],[-55.258732,-26.405184],[-55.258666,-26.405808],[-55.259641,-26.406674],[-55.259127,-26.408447],[-55.256427,-26.40807],[-55.255712,-26.407436],[-55.255203,-26.406548],[-55.254947,-26.404908],[-55.253799,-26.402707],[-55.253128,-26.399152],[-55.250906,-26.39682],[-55.249642,-26.396321],[-55.248419,-26.396257],[-55.246039,-26.397293],[-55.243512,-26.397361],[-55.242519,-26.39785],[-55.242091,-26.398607],[-55.242187,-26.399285],[-55.243127,-26.400723],[-55.241265,-26.405047],[-55.240465,-26.406192],[-55.239713,-26.406526],[-55.237129,-26.403551],[-55.236224,-26.403495],[-55.234623,-26.404446],[-55.23496,-26.405687],[-55.234716,-26.406297],[-55.232459,-26.407533],[-55.231646,-26.408882],[-55.231115,-26.41059],[-55.22913,-26.412407],[-55.229718,-26.414879],[-55.231432,-26.417026],[-55.231242,-26.417773],[-55.230003,-26.417509],[-55.228576,-26.418484],[-55.223291,-26.416798],[-55.222918,-26.416433],[-55.22294,-26.415932],[-55.223392,-26.414484],[-55.224222,-26.413371],[-55.223982,-26.412763],[-55.21988,-26.41194],[-55.217436,-26.410966],[-55.212547,-26.411136],[-55.211848,-26.412707],[-55.212054,-26.41469],[-55.210947,-26.415552],[-55.210021,-26.415802],[-55.204747,-26.415168],[-55.203508,-26.414498],[-55.202138,-26.413149],[-55.201606,-26.413029],[-55.200316,-26.414403],[-55.198848,-26.417332],[-55.199056,-26.419727],[-55.199843,-26.421898],[-55.199803,-26.422688],[-55.198652,-26.425147],[-55.197243,-26.42623],[-55.196671,-26.42764],[-55.193723,-26.428677],[-55.191992,-26.428673],[-55.191936,-26.427923],[-55.193223,-26.426653],[-55.193955,-26.424428],[-55.191987,-26.424079],[-55.188142,-26.425009],[-55.186715,-26.423087],[-55.186169,-26.423355],[-55.185302,-26.426535],[-55.185821,-26.429877],[-55.185116,-26.431186],[-55.185289,-26.432497],[-55.185797,-26.43295],[-55.188042,-26.43366],[-55.189764,-26.434882],[-55.187829,-26.436451],[-55.184021,-26.436759],[-55.182151,-26.43451],[-55.180539,-26.433483],[-55.180208,-26.433574],[-55.179871,-26.434657],[-55.178945,-26.435133],[-55.178235,-26.434957],[-55.177609,-26.434412],[-55.177341,-26.433307],[-55.178214,-26.431129],[-55.177919,-26.43067],[-55.177182,-26.430678],[-55.173648,-26.431744],[-55.172594,-26.433066],[-55.172511,-26.433471],[-55.173648,-26.434637],[-55.173442,-26.437595],[-55.173827,-26.439292],[-55.174356,-26.439741],[-55.175799,-26.439182],[-55.176496,-26.439917],[-55.175674,-26.441478],[-55.17304,-26.443895],[-55.172305,-26.44398],[-55.170316,-26.44312],[-55.168369,-26.442914],[-55.16478,-26.439889],[-55.163656,-26.439424],[-55.162885,-26.440813],[-55.160908,-26.440882],[-55.159945,-26.441826],[-55.159226,-26.441804],[-55.158135,-26.441004],[-55.157348,-26.442443],[-55.156901,-26.442712],[-55.156191,-26.442256],[-55.156254,-26.441021],[-55.155373,-26.440842],[-55.152657,-26.442779],[-55.150337,-26.443192],[-55.147192,-26.444907],[-55.14381,-26.445883],[-55.142715,-26.448346],[-55.141636,-26.449235],[-55.142283,-26.451441],[-55.144906,-26.453235],[-55.145875,-26.45258],[-55.146335,-26.451011],[-55.147204,-26.450964],[-55.150976,-26.454009],[-55.153108,-26.454574],[-55.154309,-26.458566],[-55.153832,-26.459011],[-55.149384,-26.459039],[-55.145976,-26.458625],[-55.145109,-26.458902],[-55.142221,-26.461419],[-55.143476,-26.465461],[-55.143005,-26.466376],[-55.142139,-26.467023],[-55.13642,-26.46814],[-55.135726,-26.468686],[-55.135258,-26.469908],[-55.135094,-26.470705],[-55.136104,-26.471372],[-55.139721,-26.472566],[-55.139202,-26.47394],[-55.136906,-26.477056],[-55.136795,-26.477903],[-55.137258,-26.478378],[-55.138331,-26.478505],[-55.139851,-26.478037],[-55.143098,-26.475986],[-55.146697,-26.474421],[-55.147738,-26.474394],[-55.15025,-26.474986],[-55.150813,-26.476569],[-55.150548,-26.477508],[-55.147312,-26.480441],[-55.146239,-26.481857],[-55.145831,-26.484917],[-55.144945,-26.48676],[-55.144197,-26.487454],[-55.140732,-26.488],[-55.139855,-26.487673],[-55.137738,-26.486107],[-55.135195,-26.48564],[-55.134166,-26.485961],[-55.131004,-26.488677],[-55.130784,-26.489572],[-55.131027,-26.492874],[-55.132017,-26.493826],[-55.133475,-26.494459],[-55.135776,-26.496032],[-55.136318,-26.498896],[-55.137869,-26.499828],[-55.138866,-26.501556],[-55.138703,-26.502358],[-55.137796,-26.502454],[-55.13535,-26.501587],[-55.129176,-26.497815],[-55.127965,-26.497438],[-55.124335,-26.497088],[-55.122644,-26.497805],[-55.120755,-26.499631],[-55.11916,-26.500373],[-55.117178,-26.503194],[-55.115985,-26.504023],[-55.115013,-26.505242],[-55.114295,-26.505142],[-55.114285,-26.500376],[-55.112714,-26.498848],[-55.11277,-26.496452],[-55.113492,-26.493808],[-55.115221,-26.490703],[-55.116611,-26.487287],[-55.116804,-26.485584],[-55.116219,-26.483712],[-55.112442,-26.480751],[-55.111197,-26.478298],[-55.110071,-26.47928],[-55.110219,-26.480857],[-55.108265,-26.482045],[-55.107405,-26.48388],[-55.107804,-26.487202],[-55.106705,-26.49055],[-55.108004,-26.496727],[-55.105438,-26.498751],[-55.103294,-26.499116],[-55.10252,-26.49952],[-55.101971,-26.501531],[-55.102198,-26.505261],[-55.101845,-26.505983],[-55.10118,-26.506259],[-55.100117,-26.506023],[-55.095655,-26.502683],[-55.091113,-26.500442],[-55.090284,-26.500454],[-55.089883,-26.502565],[-55.090237,-26.504768],[-55.090668,-26.505464],[-55.095221,-26.507966],[-55.096886,-26.509221],[-55.098107,-26.511218],[-55.099937,-26.512497],[-55.101875,-26.514423],[-55.104123,-26.515265],[-55.107364,-26.51548],[-55.107816,-26.516167],[-55.107357,-26.516865],[-55.106124,-26.517616],[-55.101599,-26.518278],[-55.100128,-26.51732],[-55.097323,-26.513397],[-55.093357,-26.51162],[-55.090521,-26.511009],[-55.089042,-26.510253],[-55.087325,-26.51088],[-55.085062,-26.512443],[-55.083688,-26.514293],[-55.084185,-26.514999],[-55.086732,-26.516049],[-55.090857,-26.520245],[-55.093747,-26.521724],[-55.094729,-26.524261],[-55.095193,-26.52691],[-55.096359,-26.529175],[-55.097826,-26.528857],[-55.100389,-26.526944],[-55.101822,-26.526753],[-55.103055,-26.529735],[-55.104769,-26.531445],[-55.104653,-26.531879],[-55.102192,-26.534166],[-55.099457,-26.53562],[-55.095402,-26.53842],[-55.095409,-26.538947],[-55.096221,-26.539914],[-55.094655,-26.544335],[-55.094715,-26.545932],[-55.095214,-26.546452],[-55.096396,-26.546805],[-55.099828,-26.546759],[-55.100269,-26.547496],[-55.100223,-26.548416],[-55.099771,-26.548811],[-55.09823,-26.548847],[-55.096441,-26.549765],[-55.092989,-26.548699],[-55.092499,-26.548995],[-55.092216,-26.550067],[-55.092998,-26.550984],[-55.096219,-26.552784],[-55.097291,-26.554612],[-55.098659,-26.555115],[-55.1002,-26.554981],[-55.102472,-26.55376],[-55.103704,-26.551092],[-55.104246,-26.550874],[-55.105236,-26.551555],[-55.105705,-26.552475],[-55.106527,-26.557624],[-55.104013,-26.558671],[-55.103253,-26.557995],[-55.102692,-26.556481],[-55.102343,-26.556302],[-55.095914,-26.557908],[-55.09466,-26.560058],[-55.094678,-26.560596],[-55.095163,-26.560789],[-55.097374,-26.56053],[-55.100823,-26.560955],[-55.101006,-26.56131],[-55.100438,-26.56352],[-55.100074,-26.563733],[-55.09906,-26.563071],[-55.095866,-26.56187],[-55.092321,-26.562431],[-55.091084,-26.565451],[-55.088453,-26.568508],[-55.087585,-26.56912],[-55.088084,-26.569799],[-55.088147,-26.570676],[-55.089594,-26.572166],[-55.089567,-26.573768],[-55.091753,-26.574542],[-55.092488,-26.576429],[-55.093464,-26.577124],[-55.093718,-26.578405],[-55.094984,-26.57857],[-55.096214,-26.577612],[-55.096141,-26.576862],[-55.09688,-26.576362],[-55.097451,-26.576744],[-55.0975,-26.577918],[-55.097974,-26.577645],[-55.098636,-26.576291],[-55.098617,-26.575297],[-55.097988,-26.574093],[-55.098361,-26.572839],[-55.098991,-26.572658],[-55.098456,-26.571743],[-55.099269,-26.571344],[-55.099842,-26.570476],[-55.101087,-26.570167],[-55.102197,-26.57132],[-55.103238,-26.571433],[-55.103745,-26.573759],[-55.105018,-26.574959],[-55.105997,-26.575057],[-55.1062,-26.575529],[-55.10596,-26.576081],[-55.106728,-26.576746],[-55.109224,-26.577127],[-55.109565,-26.575949],[-55.110285,-26.575029],[-55.111065,-26.576325],[-55.112484,-26.576348],[-55.113747,-26.577805],[-55.114905,-26.578578],[-55.115019,-26.578882],[-55.114733,-26.579091],[-55.111641,-26.579257],[-55.113504,-26.5824],[-55.113806,-26.58435],[-55.116181,-26.583226],[-55.116156,-26.582964],[-55.115132,-26.582715],[-55.115206,-26.582486],[-55.115901,-26.582527],[-55.117186,-26.581763],[-55.119499,-26.58206],[-55.120239,-26.580973],[-55.119836,-26.58011],[-55.120982,-26.579656],[-55.121314,-26.579733],[-55.122199,-26.580981],[-55.12192,-26.583302],[-55.124518,-26.584288],[-55.128768,-26.582837],[-55.132731,-26.581995],[-55.13285,-26.581577],[-55.131858,-26.579944],[-55.131416,-26.578196],[-55.132006,-26.577734],[-55.1333,-26.577544],[-55.134121,-26.576295],[-55.135475,-26.577247],[-55.136284,-26.578332],[-55.137204,-26.578804],[-55.137281,-26.579938],[-55.138086,-26.580273],[-55.138183,-26.581394],[-55.138898,-26.583263],[-55.14048,-26.584701],[-55.141944,-26.584995],[-55.142669,-26.585704],[-55.145115,-26.585745],[-55.146375,-26.586763],[-55.147218,-26.586499],[-55.148301,-26.585529],[-55.149093,-26.585774],[-55.150087,-26.58506],[-55.147962,-26.584053],[-55.146481,-26.582865],[-55.145394,-26.581795],[-55.145648,-26.58095],[-55.145299,-26.580165],[-55.144419,-26.579115],[-55.143378,-26.578727],[-55.143562,-26.577308],[-55.144539,-26.576508],[-55.144993,-26.576685],[-55.145174,-26.577577],[-55.146063,-26.577042],[-55.148958,-26.577477],[-55.148835,-26.576686],[-55.149855,-26.577457],[-55.151073,-26.576801],[-55.151987,-26.576812],[-55.152171,-26.577262],[-55.15304,-26.576853],[-55.153675,-26.577268],[-55.155917,-26.576552],[-55.156765,-26.576698],[-55.158002,-26.575112],[-55.158509,-26.574965],[-55.158693,-26.575342],[-55.158916,-26.57525],[-55.15884,-26.574211],[-55.160412,-26.57601],[-55.163447,-26.578003],[-55.164358,-26.578119],[-55.165261,-26.578618],[-55.16543,-26.578449],[-55.164598,-26.576538],[-55.166023,-26.576123],[-55.167113,-26.576268],[-55.16832,-26.578337],[-55.170309,-26.578881],[-55.169689,-26.581893],[-55.170738,-26.583581],[-55.172133,-26.583964],[-55.173308,-26.581154],[-55.174638,-26.579623],[-55.17634,-26.579121],[-55.176821,-26.581023],[-55.177771,-26.581112],[-55.178602,-26.581745],[-55.179321,-26.581335],[-55.180535,-26.581553],[-55.181397,-26.580987],[-55.181089,-26.580459],[-55.180111,-26.580194],[-55.180254,-26.579695],[-55.181126,-26.578903],[-55.181146,-26.578235],[-55.183316,-26.578064],[-55.184275,-26.577557],[-55.184378,-26.57704],[-55.185892,-26.57756],[-55.187329,-26.576351],[-55.188386,-26.575953],[-55.18868,-26.576007],[-55.189062,-26.577086],[-55.190105,-26.581793],[-55.190758,-26.582419],[-55.191046,-26.583858],[-55.19195,-26.584077],[-55.193173,-26.582292],[-55.194316,-26.581228],[-55.197367,-26.580202],[-55.19894,-26.57819],[-55.199152,-26.577047],[-55.199407,-26.577014],[-55.20087,-26.578477],[-55.20355,-26.580442],[-55.21556,-26.594575],[-55.2139,-26.595777],[-55.21188,-26.602229],[-55.209707,-26.603667],[-55.210299,-26.60414],[-55.21074,-26.605874],[-55.211753,-26.607805],[-55.213223,-26.608966],[-55.213697,-26.608954],[-55.214027,-26.609608],[-55.215507,-26.610574],[-55.216406,-26.612029],[-55.217654,-26.612406],[-55.217443,-26.612877],[-55.218582,-26.613943],[-55.218456,-26.615115],[-55.219479,-26.615683],[-55.221079,-26.615396],[-55.222515,-26.615852],[-55.223359,-26.61561],[-55.223715,-26.616305],[-55.225378,-26.616249],[-55.226065,-26.616542],[-55.227007,-26.615732],[-55.228701,-26.616462],[-55.229172,-26.616246],[-55.229296,-26.616546],[-55.22978,-26.616583],[-55.230344,-26.617249],[-55.230124,-26.617644],[-55.230411,-26.617859],[-55.232652,-26.617138],[-55.234039,-26.617462],[-55.234731,-26.618179],[-55.235076,-26.619353],[-55.234912,-26.620817],[-55.235446,-26.621266],[-55.236192,-26.621154],[-55.236375,-26.621797],[-55.236976,-26.622211],[-55.236577,-26.622707],[-55.236842,-26.623143],[-55.240556,-26.622517],[-55.24125,-26.622787],[-55.242753,-26.624462],[-55.243697,-26.624956],[-55.245297,-26.624218],[-55.245688,-26.623307],[-55.24532,-26.622043],[-55.24641,-26.621384],[-55.24864,-26.62138],[-55.250932,-26.623155],[-55.252528,-26.623639],[-55.253827,-26.623484],[-55.2551,-26.622867],[-55.25694,-26.623021],[-55.255121,-26.620489],[-55.254945,-26.619837],[-55.257651,-26.618372],[-55.258882,-26.61678],[-55.25955,-26.618964],[-55.261381,-26.620823],[-55.26287,-26.620724],[-55.26427,-26.619983],[-55.263367,-26.618712],[-55.26161,-26.617161],[-55.261597,-26.616646],[-55.262267,-26.615612],[-55.263772,-26.614913],[-55.265837,-26.615479],[-55.265654,-26.613654],[-55.266354,-26.613157],[-55.26588,-26.612379],[-55.266241,-26.611978],[-55.266981,-26.611508],[-55.268334,-26.61217],[-55.269061,-26.612143],[-55.268887,-26.610155],[-55.270599,-26.609553],[-55.270239,-26.608957],[-55.270397,-26.60872],[-55.271432,-26.608552],[-55.272656,-26.60886],[-55.274732,-26.608037],[-55.275844,-26.607933]]]}}]}
