{"type":"FeatureCollection","name":"distrito","features":[{"type":"Feature","properties":{"clave":"2-32","nombre":"Yrybucua"},"geometry":{"type":"Polygon","coordinates":[[[-56.109845,-24.599946],[-56.111049,-24.600139],[-56.113332,-24.599674],[-56.118174,-24.601711],[-56.119432,-24.60199],[-56.120786,-24.602756],[-56.123759,-24.60355],[-56.126165,-24.603826],[-56.128908,-24.604763],[-56.129936,-24.605442],[-56.131779,-24.605723],[-56.132773,-24.606262],[-56.134088,-24.607877],[-56.134847,-24.607936],[-56.137437,-24.611053],[-56.143926,-24.616219],[-56.146081,-24.618458],[-56.151471,-24.622954],[-56.163326,-24.625174],[-56.164586,-24.626834],[-56.16646,-24.627838],[-56.169182,-24.627139],[-56.171385,-24.627084],[-56.172573,-24.626621],[-56.172614,-24.626106],[-56.173185,-24.625852],[-56.174637,-24.625941],[-56.174517,-24.625448],[-56.174814,-24.624962],[-56.176041,-24.624562],[-56.176899,-24.624716],[-56.177566,-24.62379],[-56.180454,-24.622058],[-56.180097,-24.621564],[-56.180962,-24.621311],[-56.180641,-24.621088],[-56.181316,-24.620554],[-56.181872,-24.620454],[-56.182093,-24.621137],[-56.182265,-24.620785],[-56.182596,-24.620837],[-56.182317,-24.62033],[-56.182621,-24.619961],[-56.184068,-24.61986],[-56.184289,-24.620078],[-56.185545,-24.619421],[-56.185832,-24.618673],[-56.186291,-24.618522],[-56.186318,-24.61803],[-56.187279,-24.618907],[-56.187543,-24.618507],[-56.188176,-24.618379],[-56.188141,-24.618027],[-56.18915,-24.617987],[-56.189306,-24.617663],[-56.188904,-24.617033],[-56.189524,-24.616309],[-56.191473,-24.616473],[-56.19299,-24.61533],[-56.192816,-24.614963],[-56.193333,-24.61414],[-56.193922,-24.613872],[-56.193721,-24.613473],[-56.194139,-24.613345],[-56.194413,-24.612479],[-56.196606,-24.6125],[-56.196792,-24.612081],[-56.197388,-24.612075],[-56.197229,-24.611085],[-56.197616,-24.610957],[-56.198053,-24.611257],[-56.198493,-24.610528],[-56.198299,-24.60933],[-56.199397,-24.608573],[-56.201025,-24.608306],[-56.201374,-24.607969],[-56.201215,-24.607612],[-56.20397,-24.606213],[-56.204277,-24.605912],[-56.203964,-24.605721],[-56.204591,-24.605169],[-56.204297,-24.603067],[-56.204058,-24.603283],[-56.203979,-24.603057],[-56.204174,-24.602118],[-56.20553,-24.599543],[-56.205964,-24.599391],[-56.20593,-24.599125],[-56.205335,-24.598923],[-56.206187,-24.59853],[-56.205233,-24.598227],[-56.205801,-24.597652],[-56.205351,-24.597478],[-56.205738,-24.597024],[-56.205368,-24.596593],[-56.20563,-24.595344],[-56.205033,-24.595228],[-56.205693,-24.594897],[-56.205207,-24.594131],[-56.205496,-24.593776],[-56.2047,-24.592882],[-56.204955,-24.591963],[-56.204245,-24.591918],[-56.204506,-24.591473],[-56.204229,-24.591421],[-56.204241,-24.590997],[-56.203648,-24.591062],[-56.203265,-24.590694],[-56.203851,-24.58913],[-56.203907,-24.589812],[-56.204458,-24.589115],[-56.205185,-24.588957],[-56.203809,-24.586886],[-56.204391,-24.586839],[-56.204133,-24.5856],[-56.203883,-24.585712],[-56.203774,-24.585468],[-56.204244,-24.585019],[-56.203755,-24.584745],[-56.204263,-24.584531],[-56.204196,-24.584102],[-56.204899,-24.583509],[-56.204786,-24.58322],[-56.206479,-24.582466],[-56.206803,-24.583054],[-56.207845,-24.582798],[-56.208235,-24.582077],[-56.208636,-24.582116],[-56.20967,-24.581101],[-56.209279,-24.580986],[-56.210118,-24.580561],[-56.210388,-24.580951],[-56.21108,-24.580507],[-56.211233,-24.580779],[-56.211733,-24.580222],[-56.212267,-24.580378],[-56.212729,-24.580042],[-56.213314,-24.580226],[-56.213567,-24.579798],[-56.213168,-24.57966],[-56.213629,-24.579423],[-56.21356,-24.579139],[-56.214089,-24.579394],[-56.214115,-24.578979],[-56.214625,-24.579442],[-56.215749,-24.578703],[-56.21763,-24.578654],[-56.217786,-24.578262],[-56.218169,-24.578332],[-56.218294,-24.578834],[-56.21873,-24.578574],[-56.21943,-24.578749],[-56.219711,-24.578331],[-56.219984,-24.578874],[-56.220964,-24.578558],[-56.2209,-24.578332],[-56.221699,-24.578427],[-56.221932,-24.578812],[-56.222864,-24.578564],[-56.223134,-24.578132],[-56.224016,-24.57805],[-56.224827,-24.579192],[-56.22564,-24.578872],[-56.225405,-24.578613],[-56.226166,-24.578057],[-56.226635,-24.57847],[-56.227152,-24.577579],[-56.227607,-24.577613],[-56.228086,-24.577146],[-56.228449,-24.577315],[-56.228912,-24.576188],[-56.229904,-24.57608],[-56.230721,-24.57538],[-56.230797,-24.575832],[-56.232212,-24.574932],[-56.232013,-24.574628],[-56.232505,-24.574653],[-56.232753,-24.575192],[-56.23298,-24.574782],[-56.233604,-24.574993],[-56.23332,-24.57431],[-56.234004,-24.574579],[-56.234032,-24.574146],[-56.2347,-24.574326],[-56.234508,-24.574609],[-56.234793,-24.574791],[-56.236515,-24.573572],[-56.236514,-24.573197],[-56.237301,-24.573079],[-56.236415,-24.572835],[-56.237657,-24.572137],[-56.237563,-24.571482],[-56.23821,-24.571178],[-56.238019,-24.570874],[-56.238485,-24.570443],[-56.239121,-24.570555],[-56.23933,-24.571111],[-56.240576,-24.571027],[-56.240764,-24.570667],[-56.241033,-24.57103],[-56.242631,-24.570753],[-56.242193,-24.570074],[-56.243091,-24.570403],[-56.243289,-24.570251],[-56.243022,-24.569902],[-56.244595,-24.569648],[-56.244842,-24.569319],[-56.244633,-24.568654],[-56.24534,-24.568663],[-56.245387,-24.568247],[-56.246139,-24.567813],[-56.245928,-24.567532],[-56.246294,-24.567019],[-56.247008,-24.566878],[-56.24745,-24.566302],[-56.248815,-24.566197],[-56.249464,-24.565783],[-56.250727,-24.565934],[-56.250774,-24.565393],[-56.251578,-24.565492],[-56.251863,-24.56512],[-56.252178,-24.565286],[-56.252323,-24.564914],[-56.251964,-24.564882],[-56.25303,-24.564064],[-56.252993,-24.563473],[-56.255432,-24.560955],[-56.25576,-24.560191],[-56.256408,-24.559828],[-56.256553,-24.560172],[-56.257327,-24.55985],[-56.256785,-24.559481],[-56.257146,-24.558777],[-56.256156,-24.559074],[-56.256978,-24.55794],[-56.256152,-24.557885],[-56.257293,-24.557521],[-56.256102,-24.556948],[-56.256233,-24.555961],[-56.257192,-24.555804],[-56.256898,-24.555329],[-56.25723,-24.555109],[-56.256875,-24.554765],[-56.257365,-24.554555],[-56.256538,-24.55398],[-56.256722,-24.55338],[-56.257205,-24.553093],[-56.2573,-24.552573],[-56.257,-24.55229],[-56.257546,-24.551899],[-56.257268,-24.551673],[-56.257802,-24.551514],[-56.257679,-24.55109],[-56.257088,-24.551057],[-56.256899,-24.550754],[-56.257788,-24.549418],[-56.257477,-24.548657],[-56.258238,-24.548597],[-56.258442,-24.548249],[-56.257706,-24.546643],[-56.258842,-24.545805],[-56.258737,-24.544884],[-56.25968,-24.544405],[-56.259429,-24.543893],[-56.259642,-24.543417],[-56.259262,-24.543607],[-56.259037,-24.543233],[-56.259745,-24.542037],[-56.260267,-24.541888],[-56.260108,-24.541508],[-56.260566,-24.540523],[-56.26024,-24.54032],[-56.260342,-24.539823],[-56.261679,-24.539205],[-56.260813,-24.538377],[-56.260981,-24.537904],[-56.261859,-24.537213],[-56.261181,-24.536478],[-56.261484,-24.536113],[-56.260914,-24.536171],[-56.261218,-24.535672],[-56.260523,-24.535185],[-56.260951,-24.533655],[-56.261334,-24.534023],[-56.261519,-24.533849],[-56.261366,-24.533072],[-56.261603,-24.532734],[-56.261104,-24.53255],[-56.261558,-24.532133],[-56.262119,-24.532374],[-56.262044,-24.531302],[-56.260955,-24.530537],[-56.26083,-24.529915],[-56.261183,-24.529823],[-56.260844,-24.529358],[-56.261229,-24.52891],[-56.260975,-24.528377],[-56.260539,-24.527559],[-56.260092,-24.527392],[-56.260332,-24.527135],[-56.259805,-24.526739],[-56.259958,-24.526394],[-56.259298,-24.5263],[-56.258298,-24.524528],[-56.259225,-24.522957],[-56.258934,-24.522489],[-56.259567,-24.522371],[-56.25865,-24.522081],[-56.259337,-24.521517],[-56.25841,-24.521055],[-56.258835,-24.520694],[-56.25774,-24.520162],[-56.258383,-24.520047],[-56.258066,-24.519649],[-56.258383,-24.519439],[-56.257775,-24.519251],[-56.257652,-24.518848],[-56.257007,-24.518747],[-56.257361,-24.518403],[-56.257361,-24.517744],[-56.256967,-24.517319],[-56.257365,-24.517073],[-56.257468,-24.516455],[-56.257964,-24.516357],[-56.257939,-24.515695],[-56.257523,-24.515199],[-56.257906,-24.515023],[-56.258637,-24.513787],[-56.257871,-24.513575],[-56.257588,-24.512982],[-56.258442,-24.513144],[-56.258124,-24.512313],[-56.258255,-24.511853],[-56.258434,-24.511975],[-56.258893,-24.511396],[-56.258776,-24.51068],[-56.259012,-24.51056],[-56.259264,-24.51083],[-56.259352,-24.510152],[-56.259816,-24.510524],[-56.259442,-24.509749],[-56.260841,-24.50975],[-56.26062,-24.509208],[-56.260989,-24.508924],[-56.260708,-24.5086],[-56.261381,-24.50903],[-56.261948,-24.50825],[-56.263182,-24.508071],[-56.263449,-24.508257],[-56.263683,-24.507839],[-56.264052,-24.508203],[-56.264735,-24.50822],[-56.264628,-24.507544],[-56.265196,-24.507738],[-56.265072,-24.506995],[-56.266138,-24.506204],[-56.266151,-24.505791],[-56.266922,-24.505852],[-56.267225,-24.505524],[-56.268199,-24.505338],[-56.268102,-24.504931],[-56.268708,-24.504846],[-56.269196,-24.503747],[-56.269901,-24.503707],[-56.269312,-24.503324],[-56.269371,-24.502606],[-56.26973,-24.502725],[-56.270052,-24.50232],[-56.270433,-24.502396],[-56.270401,-24.501583],[-56.271161,-24.501647],[-56.270815,-24.500439],[-56.271318,-24.49979],[-56.272384,-24.499617],[-56.272166,-24.49928],[-56.272566,-24.498687],[-56.273116,-24.498744],[-56.273266,-24.49825],[-56.274155,-24.498154],[-56.274188,-24.497452],[-56.274662,-24.497374],[-56.274786,-24.496803],[-56.2763,-24.496055],[-56.276199,-24.495661],[-56.277523,-24.494666],[-56.277208,-24.494406],[-56.278022,-24.493963],[-56.277753,-24.493468],[-56.278046,-24.493617],[-56.27864,-24.493147],[-56.278635,-24.492727],[-56.279447,-24.492032],[-56.279199,-24.491705],[-56.27975,-24.491543],[-56.279531,-24.49132],[-56.280056,-24.490654],[-56.282171,-24.490036],[-56.282806,-24.489293],[-56.285023,-24.488084],[-56.285162,-24.487581],[-56.285734,-24.487691],[-56.285708,-24.487002],[-56.28616,-24.486941],[-56.286163,-24.486474],[-56.287085,-24.486371],[-56.286859,-24.486024],[-56.287275,-24.485911],[-56.287103,-24.485118],[-56.28776,-24.485084],[-56.28752,-24.48471],[-56.287945,-24.484191],[-56.28852,-24.484365],[-56.288538,-24.483892],[-56.289051,-24.483938],[-56.288371,-24.482846],[-56.290589,-24.480673],[-56.290738,-24.480358],[-56.290452,-24.480219],[-56.290956,-24.479482],[-56.291699,-24.47915],[-56.291034,-24.478592],[-56.291709,-24.478048],[-56.292079,-24.478238],[-56.292624,-24.477938],[-56.29247,-24.475139],[-56.292722,-24.474703],[-56.293235,-24.474951],[-56.292913,-24.47413],[-56.293629,-24.474083],[-56.293354,-24.47341],[-56.294305,-24.473259],[-56.293943,-24.472405],[-56.294545,-24.471611],[-56.294135,-24.471441],[-56.294669,-24.4705],[-56.294544,-24.469901],[-56.295014,-24.469285],[-56.294149,-24.468982],[-56.294734,-24.468663],[-56.294262,-24.468405],[-56.294815,-24.468052],[-56.294355,-24.467532],[-56.295334,-24.466512],[-56.295296,-24.466028],[-56.29595,-24.465826],[-56.29564,-24.46481],[-56.295827,-24.46427],[-56.295123,-24.464126],[-56.295372,-24.463519],[-56.295894,-24.463495],[-56.295436,-24.46322],[-56.295238,-24.462598],[-56.295893,-24.462238],[-56.29537,-24.461937],[-56.295398,-24.461601],[-56.296073,-24.461651],[-56.29562,-24.461196],[-56.296188,-24.461289],[-56.29625,-24.460802],[-56.295446,-24.460133],[-56.295827,-24.459648],[-56.295758,-24.460165],[-56.296259,-24.459861],[-56.296119,-24.459196],[-56.297133,-24.45915],[-56.295914,-24.458419],[-56.297105,-24.458135],[-56.297522,-24.458379],[-56.297444,-24.458003],[-56.29635,-24.457352],[-56.296668,-24.456927],[-56.296316,-24.456865],[-56.296855,-24.456203],[-56.297397,-24.45641],[-56.297077,-24.455868],[-56.297395,-24.455553],[-56.297264,-24.455287],[-56.297846,-24.454934],[-56.297603,-24.454362],[-56.297783,-24.453724],[-56.29818,-24.453518],[-56.297739,-24.452948],[-56.298433,-24.453005],[-56.298216,-24.452346],[-56.29617,-24.453228],[-56.295007,-24.45301],[-56.292532,-24.453251],[-56.288409,-24.452839],[-56.285711,-24.453093],[-56.283461,-24.453746],[-56.280054,-24.45368],[-56.277067,-24.454253],[-56.271444,-24.456208],[-56.266167,-24.45262],[-56.263216,-24.45005],[-56.260924,-24.44718],[-56.252793,-24.44271],[-56.249806,-24.440749],[-56.249414,-24.439916],[-56.247123,-24.437512],[-56.244805,-24.43666],[-56.240659,-24.435831],[-56.237426,-24.434013],[-56.232134,-24.432514],[-56.191355,-24.445808],[-56.188477,-24.444045],[-56.188121,-24.438584],[-56.183308,-24.432539],[-56.180996,-24.426805],[-56.179425,-24.425324],[-56.171573,-24.420599],[-56.169466,-24.418768],[-56.166479,-24.414308],[-56.165046,-24.408777],[-56.164036,-24.407119],[-56.158805,-24.4015],[-56.156541,-24.397988],[-56.155025,-24.39676],[-56.154275,-24.39509],[-56.149988,-24.391625],[-56.149211,-24.389624],[-56.148374,-24.388468],[-56.145954,-24.386811],[-56.140452,-24.385362],[-56.1388,-24.384133],[-56.134276,-24.383859],[-56.131108,-24.382861],[-56.12819,-24.383377],[-56.127184,-24.382712],[-56.125685,-24.38232],[-56.124694,-24.380454],[-56.123182,-24.379704],[-56.123073,-24.381206],[-56.122338,-24.383144],[-56.122594,-24.385698],[-56.121396,-24.386702],[-56.119973,-24.388586],[-56.118248,-24.389897],[-56.116013,-24.390635],[-56.115375,-24.392833],[-56.113521,-24.393793],[-56.113123,-24.394372],[-56.11119,-24.395742],[-56.111209,-24.396152],[-56.112465,-24.39637],[-56.112307,-24.39704],[-56.109543,-24.396813],[-56.110192,-24.397728],[-56.110179,-24.398138],[-56.109519,-24.398685],[-56.107979,-24.398536],[-56.104988,-24.399519],[-56.103686,-24.399671],[-56.100519,-24.399322],[-56.099283,-24.399455],[-56.099007,-24.399854],[-56.100268,-24.400772],[-56.099926,-24.401211],[-56.096821,-24.399791],[-56.093981,-24.399454],[-56.093902,-24.399904],[-56.094807,-24.400229],[-56.095108,-24.400912],[-56.095056,-24.401982],[-56.094341,-24.402679],[-56.093926,-24.402566],[-56.093857,-24.401605],[-56.092871,-24.400358],[-56.091275,-24.400338],[-56.0887,-24.399772],[-56.087834,-24.400047],[-56.084369,-24.403069],[-56.082216,-24.404498],[-56.081398,-24.404333],[-56.081127,-24.403991],[-56.081012,-24.403229],[-56.081544,-24.402231],[-56.08112,-24.401929],[-56.080791,-24.402047],[-56.080385,-24.403796],[-56.080739,-24.404689],[-56.080475,-24.404968],[-56.079405,-24.404751],[-56.079103,-24.404229],[-56.079678,-24.403291],[-56.079766,-24.40178],[-56.076417,-24.399257],[-56.073796,-24.400493],[-56.073695,-24.400872],[-56.074173,-24.401326],[-56.074048,-24.401936],[-56.072722,-24.402438],[-56.070588,-24.402685],[-56.067956,-24.402459],[-56.065034,-24.40135],[-56.061137,-24.402196],[-56.061468,-24.403229],[-56.061116,-24.403498],[-56.058916,-24.402433],[-56.057731,-24.403086],[-56.05813,-24.403379],[-56.059096,-24.40314],[-56.057981,-24.40416],[-56.059117,-24.404568],[-56.057777,-24.405037],[-56.057678,-24.405328],[-56.056572,-24.405143],[-56.056637,-24.405718],[-56.055412,-24.406804],[-56.056449,-24.407385],[-56.056108,-24.408721],[-56.055621,-24.408381],[-56.05508,-24.408567],[-56.055418,-24.409633],[-56.055057,-24.41045],[-56.055947,-24.41049],[-56.055651,-24.41121],[-56.05505,-24.41078],[-56.054869,-24.411488],[-56.055134,-24.411887],[-56.055939,-24.411554],[-56.056265,-24.411712],[-56.056502,-24.412698],[-56.055637,-24.413064],[-56.055704,-24.413976],[-56.05275,-24.418944],[-56.052707,-24.419771],[-56.052164,-24.420032],[-56.051892,-24.420965],[-56.052905,-24.420476],[-56.053409,-24.420406],[-56.053401,-24.420738],[-56.052429,-24.421554],[-56.049315,-24.422717],[-56.049252,-24.423809],[-56.049675,-24.423964],[-56.050145,-24.423589],[-56.050292,-24.424463],[-56.049336,-24.424868],[-56.048055,-24.425952],[-56.047531,-24.42685],[-56.047542,-24.427909],[-56.047083,-24.42848],[-56.046073,-24.428609],[-56.046007,-24.429194],[-56.044788,-24.429411],[-56.044136,-24.43028],[-56.044669,-24.430486],[-56.044886,-24.431051],[-56.0444,-24.431875],[-56.043126,-24.432092],[-56.041554,-24.433344],[-56.039493,-24.433494],[-56.039287,-24.433887],[-56.038893,-24.433952],[-56.037343,-24.433148],[-56.037521,-24.434044],[-56.03675,-24.433493],[-56.036526,-24.433863],[-56.036867,-24.434232],[-56.036155,-24.434114],[-56.036042,-24.434423],[-56.034905,-24.434236],[-56.034558,-24.434611],[-56.033808,-24.434601],[-56.033583,-24.4351],[-56.034078,-24.435447],[-56.033012,-24.435705],[-56.032947,-24.436132],[-56.032341,-24.436573],[-56.032121,-24.436397],[-56.032848,-24.435467],[-56.032376,-24.435318],[-56.031698,-24.436321],[-56.031143,-24.436447],[-56.027022,-24.440475],[-56.025832,-24.440912],[-56.026166,-24.441488],[-56.025499,-24.441816],[-56.025486,-24.442644],[-56.026432,-24.442796],[-56.025372,-24.443961],[-56.025069,-24.443384],[-56.024258,-24.443244],[-56.024995,-24.444167],[-56.024048,-24.444144],[-56.024408,-24.445266],[-56.023511,-24.445182],[-56.022568,-24.445497],[-56.022484,-24.445941],[-56.023213,-24.445602],[-56.023769,-24.445972],[-56.02436,-24.445964],[-56.024672,-24.44698],[-56.023837,-24.447566],[-56.023757,-24.448336],[-56.022325,-24.45143],[-56.021625,-24.455997],[-56.02216,-24.456896],[-56.021194,-24.457762],[-56.021412,-24.459013],[-56.022199,-24.458985],[-56.02227,-24.45934],[-56.022064,-24.459795],[-56.021417,-24.459852],[-56.02187,-24.460221],[-56.021757,-24.460446],[-56.021079,-24.460622],[-56.0212,-24.460926],[-56.021876,-24.461032],[-56.021965,-24.461449],[-56.021215,-24.461343],[-56.020515,-24.462054],[-56.021009,-24.462524],[-56.020309,-24.46391],[-56.020605,-24.464723],[-56.020299,-24.465279],[-56.021009,-24.46566],[-56.020049,-24.466504],[-56.020504,-24.467453],[-56.019898,-24.467815],[-56.017873,-24.47037],[-56.014539,-24.472679],[-56.015091,-24.472835],[-56.015174,-24.473291],[-56.012822,-24.474256],[-56.012669,-24.474941],[-56.013387,-24.475245],[-56.01372,-24.475917],[-56.01338,-24.476173],[-56.012664,-24.475673],[-56.012208,-24.47576],[-56.013029,-24.476993],[-56.012688,-24.477346],[-56.011956,-24.477279],[-56.012587,-24.478432],[-56.012486,-24.478713],[-56.012014,-24.478541],[-56.012165,-24.480456],[-56.012788,-24.482667],[-56.012164,-24.483755],[-56.010506,-24.48491],[-56.011385,-24.485743],[-56.011302,-24.486216],[-56.010584,-24.485896],[-56.010263,-24.486857],[-56.009304,-24.487498],[-56.005341,-24.489166],[-56.005061,-24.49037],[-56.003702,-24.490338],[-56.003479,-24.491221],[-56.004087,-24.492244],[-56.003716,-24.492483],[-56.002871,-24.491847],[-56.002026,-24.492179],[-56.001239,-24.493627],[-56.001441,-24.493808],[-56.002138,-24.49356],[-56.001956,-24.494082],[-56.000927,-24.494244],[-56.000419,-24.495485],[-56.000737,-24.495712],[-56.00115,-24.495569],[-56.001743,-24.494537],[-56.00223,-24.494422],[-56.002369,-24.49471],[-56.00081,-24.496535],[-55.999858,-24.497131],[-55.999269,-24.496896],[-55.998587,-24.499082],[-55.997341,-24.498663],[-55.996208,-24.49959],[-55.996113,-24.500772],[-55.994864,-24.50149],[-55.994279,-24.502358],[-55.994779,-24.504434],[-55.99467,-24.506466],[-55.99496,-24.507965],[-55.994071,-24.507554],[-55.993028,-24.507913],[-55.99325,-24.50868],[-55.992549,-24.508552],[-55.992966,-24.508768],[-55.992414,-24.509373],[-55.992627,-24.511198],[-55.99329,-24.511304],[-55.992707,-24.511948],[-55.99351,-24.51233],[-55.99261,-24.512488],[-55.993145,-24.513341],[-55.992461,-24.513427],[-55.992463,-24.513984],[-55.992818,-24.514257],[-55.991933,-24.514814],[-55.991968,-24.515068],[-55.992925,-24.515446],[-55.992071,-24.515339],[-55.99195,-24.515833],[-55.992393,-24.515864],[-55.992081,-24.516414],[-55.992236,-24.517023],[-55.993175,-24.517238],[-55.99274,-24.517459],[-55.992893,-24.518285],[-55.99266,-24.518567],[-55.993722,-24.518436],[-55.992987,-24.51906],[-55.993484,-24.519447],[-55.99394,-24.519411],[-55.993652,-24.520743],[-55.992686,-24.523045],[-55.992087,-24.525631],[-55.991514,-24.52574],[-55.991138,-24.527359],[-55.990446,-24.527636],[-55.99088,-24.52881],[-55.990463,-24.528661],[-55.990606,-24.529225],[-55.989972,-24.529158],[-55.988846,-24.529956],[-55.987378,-24.53038],[-55.98717,-24.530975],[-55.98744,-24.531236],[-55.989305,-24.530945],[-55.990965,-24.532938],[-55.992038,-24.533085],[-55.993665,-24.53409],[-55.994878,-24.535908],[-55.9964,-24.536826],[-55.997785,-24.538691],[-56.004986,-24.544288],[-56.006084,-24.54561],[-56.006792,-24.547402],[-56.008618,-24.54936],[-56.011656,-24.552126],[-56.014242,-24.553795],[-56.015526,-24.555181],[-56.016197,-24.556495],[-56.017168,-24.556804],[-56.017836,-24.557557],[-56.0189,-24.558057],[-56.020608,-24.56093],[-56.021721,-24.562197],[-56.022055,-24.564624],[-56.022849,-24.565989],[-56.025106,-24.568008],[-56.02663,-24.568027],[-56.027311,-24.568311],[-56.028669,-24.570158],[-56.031882,-24.572224],[-56.032833,-24.574036],[-56.035731,-24.575274],[-56.038941,-24.580293],[-56.045609,-24.581437],[-56.0525,-24.582153],[-56.054814,-24.584412],[-56.057025,-24.585952],[-56.057859,-24.586982],[-56.059075,-24.587442],[-56.063063,-24.587033],[-56.066872,-24.584176],[-56.067978,-24.583772],[-56.069607,-24.583886],[-56.073337,-24.584771],[-56.078206,-24.586955],[-56.083023,-24.588018],[-56.109845,-24.599946]]]}}]}
