{"type":"FeatureCollection","name":"distrito","features":[{"type":"Feature","properties":{"clave":"2-3","nombre":"Antequera"},"geometry":{"type":"Polygon","coordinates":[[[-57.26125,-24.168777],[-57.266545,-24.160833],[-57.271476,-24.156634],[-57.27456,-24.154872],[-57.277024,-24.152374],[-57.279115,-24.148405],[-57.279846,-24.143644],[-57.275877,-24.135491],[-57.270313,-24.132331],[-57.263395,-24.130753],[-57.257588,-24.128726],[-57.251656,-24.125733],[-57.245597,-24.121096],[-57.239536,-24.114873],[-57.233107,-24.109672],[-57.227917,-24.107074],[-57.223098,-24.104245],[-57.218897,-24.102214],[-57.213956,-24.100352],[-57.210619,-24.09775],[-57.208264,-24.091973],[-57.207513,-24.085629],[-57.209106,-24.078374],[-57.217734,-24.071619],[-57.221674,-24.065833],[-57.240665,-24.058213],[-57.258296,-24.050593],[-57.26076,-24.048719],[-57.263468,-24.045314],[-57.264077,-24.041686],[-57.263821,-24.03704],[-57.261963,-24.033534],[-57.258503,-24.030934],[-57.250722,-24.026751],[-57.228504,-24.020382],[-57.223689,-24.018014],[-57.218749,-24.015072],[-57.214672,-24.011451],[-57.21133,-24.004546],[-57.212032,-24.000309],[-57.212327,-23.992094],[-57.215403,-23.987555],[-57.220486,-23.984572],[-57.226342,-23.983006],[-57.232201,-23.983566],[-57.236057,-23.984549],[-57.23914,-23.984829],[-57.240835,-23.983977],[-57.240829,-23.980716],[-57.234643,-23.969964],[-57.232781,-23.963166],[-57.229843,-23.957999],[-57.229763,-23.951756],[-57.222138,-23.952921],[-57.221968,-23.951466],[-57.223789,-23.943762],[-57.222435,-23.943324],[-57.221118,-23.943811],[-57.220199,-23.945426],[-57.218925,-23.94559],[-57.218135,-23.945389],[-57.216818,-23.946037],[-57.214408,-23.948906],[-57.210548,-23.951777],[-57.20967,-23.952141],[-57.207694,-23.952184],[-57.207825,-23.95178],[-57.211378,-23.949233],[-57.213045,-23.948383],[-57.213482,-23.946808],[-57.214885,-23.945313],[-57.215016,-23.944949],[-57.214708,-23.944425],[-57.213873,-23.944225],[-57.211679,-23.945075],[-57.208868,-23.945362],[-57.208428,-23.944515],[-57.208822,-23.943868],[-57.211894,-23.942815],[-57.212596,-23.941885],[-57.210356,-23.94205],[-57.21053,-23.94092],[-57.210176,-23.939507],[-57.209253,-23.938944],[-57.205526,-23.93888],[-57.202312,-23.936824],[-57.199981,-23.934845],[-57.197863,-23.934548],[-57.193134,-23.93141],[-57.18286,-23.922589],[-57.179592,-23.915406],[-57.173397,-23.910921],[-57.168999,-23.910327],[-57.164928,-23.91093],[-57.161669,-23.910035],[-57.158084,-23.907793],[-57.155314,-23.907347],[-57.151892,-23.905703],[-57.149286,-23.904957],[-57.146192,-23.905559],[-57.142935,-23.905262],[-57.139515,-23.905565],[-57.13577,-23.906617],[-57.133815,-23.90572],[-57.132025,-23.90677],[-57.123556,-23.906777],[-57.118347,-23.909775],[-57.114764,-23.909928],[-57.111833,-23.910529],[-57.107761,-23.910382],[-57.104137,-23.90885],[-57.103513,-23.908821],[-57.094651,-23.931925],[-57.094699,-23.933994],[-57.093846,-23.938962],[-57.088653,-23.94779],[-57.087316,-23.953766],[-57.087258,-23.967648],[-57.078402,-23.977047],[-57.076501,-23.982012],[-57.078071,-23.983555],[-57.079417,-23.986548],[-57.081007,-23.987374],[-57.0817,-23.988118],[-57.082598,-23.990028],[-57.082884,-23.991564],[-57.083985,-23.993397],[-57.084882,-23.993735],[-57.087123,-23.993544],[-57.088305,-23.994144],[-57.090346,-23.998112],[-57.090978,-24.000235],[-57.092189,-24.000347],[-57.094465,-24.001533],[-57.098369,-24.001684],[-57.09958,-24.003237],[-57.100541,-24.003182],[-57.100813,-24.004157],[-57.101481,-24.004252],[-57.102774,-24.003027],[-57.10388,-24.002679],[-57.105217,-24.004019],[-57.105948,-24.004195],[-57.106282,-24.003711],[-57.106092,-24.001625],[-57.107365,-24.000987],[-57.107992,-24.001642],[-57.108409,-24.001659],[-57.108283,-24.000567],[-57.10964,-24.000317],[-57.111186,-24.002213],[-57.112919,-24.003594],[-57.11432,-24.006352],[-57.116304,-24.00733],[-57.117766,-24.007618],[-57.118978,-24.008728],[-57.119248,-24.008001],[-57.118913,-24.006579],[-57.119184,-24.006348],[-57.12027,-24.006347],[-57.120627,-24.008994],[-57.122737,-24.010911],[-57.123238,-24.010929],[-57.123906,-24.010183],[-57.126089,-24.010908],[-57.129198,-24.010373],[-57.130598,-24.010408],[-57.13398,-24.011511],[-57.134059,-24.012509],[-57.133438,-24.01358],[-57.133868,-24.015865],[-57.132976,-24.017437],[-57.133016,-24.01858],[-57.133873,-24.020508],[-57.13508,-24.021758],[-57.134963,-24.022363],[-57.132632,-24.023259],[-57.130965,-24.027438],[-57.129838,-24.028581],[-57.129762,-24.029905],[-57.130697,-24.031616],[-57.132797,-24.032363],[-57.129594,-24.039378],[-57.133296,-24.079276],[-57.133582,-24.080256],[-57.134308,-24.08049],[-57.135722,-24.082291],[-57.135713,-24.082815],[-57.134997,-24.083913],[-57.134892,-24.084897],[-57.136095,-24.087601],[-57.135861,-24.091142],[-57.150045,-24.090413],[-57.16171,-24.096435],[-57.146136,-24.129443],[-57.145992,-24.1318],[-57.146566,-24.133516],[-57.148253,-24.135293],[-57.150133,-24.13647],[-57.147903,-24.140076],[-57.148756,-24.143964],[-57.150025,-24.144631],[-57.150201,-24.145782],[-57.151262,-24.146874],[-57.151107,-24.149019],[-57.151675,-24.149732],[-57.151884,-24.151051],[-57.151645,-24.151652],[-57.151931,-24.152397],[-57.150861,-24.155223],[-57.148516,-24.154485],[-57.147056,-24.15491],[-57.145369,-24.157767],[-57.141948,-24.1577],[-57.138486,-24.153789],[-57.135564,-24.152805],[-57.131456,-24.156158],[-57.128497,-24.155596],[-57.126113,-24.154294],[-57.124458,-24.152003],[-57.126608,-24.150239],[-57.126914,-24.148546],[-57.126029,-24.147277],[-57.122571,-24.147421],[-57.119458,-24.146436],[-57.115882,-24.144183],[-57.115419,-24.141997],[-57.11611,-24.140621],[-57.116032,-24.139564],[-57.11511,-24.13967],[-57.114265,-24.140517],[-57.113075,-24.141011],[-57.111345,-24.140766],[-57.110384,-24.140061],[-57.109037,-24.137101],[-57.107345,-24.135974],[-57.104502,-24.135376],[-57.103272,-24.134566],[-57.102539,-24.131534],[-57.102957,-24.125187],[-57.101264,-24.122473],[-57.093692,-24.11733],[-57.092463,-24.117649],[-57.09239,-24.122091],[-57.090818,-24.127028],[-57.090666,-24.129708],[-57.091052,-24.131259],[-57.090553,-24.132106],[-57.089784,-24.132353],[-57.08186,-24.187982],[-57.093824,-24.201452],[-57.09925,-24.203308],[-57.099821,-24.205021],[-57.097536,-24.206734],[-57.096823,-24.210589],[-57.095395,-24.212731],[-57.091826,-24.214016],[-57.089541,-24.216585],[-57.088954,-24.218275],[-57.123699,-24.239208],[-57.129417,-24.250551],[-57.153042,-24.256506],[-57.155785,-24.261134],[-57.16107,-24.263263],[-57.165019,-24.262569],[-57.169672,-24.262988],[-57.172276,-24.264819],[-57.174807,-24.265945],[-57.175797,-24.26631],[-57.179011,-24.266654],[-57.180411,-24.266295],[-57.181278,-24.26568],[-57.182257,-24.265837],[-57.191252,-24.264015],[-57.194885,-24.262881],[-57.196065,-24.262903],[-57.19741,-24.261952],[-57.200349,-24.261791],[-57.201224,-24.261329],[-57.204586,-24.26132],[-57.203705,-24.252772],[-57.204063,-24.244955],[-57.204794,-24.238378],[-57.206265,-24.230844],[-57.210331,-24.223473],[-57.214151,-24.217348],[-57.218837,-24.212017],[-57.226493,-24.209793],[-57.235874,-24.205019],[-57.240561,-24.201047],[-57.244255,-24.194696],[-57.247822,-24.186417],[-57.254348,-24.175924],[-57.26125,-24.168777]]]}}]}
