{"type":"FeatureCollection","name":"distrito","features":[{"type":"Feature","properties":{"clave":"11-19","nombre":"Mariano Roque Alonso"},"geometry":{"type":"Polygon","coordinates":[[[-57.539848,-25.236209],[-57.550819,-25.232466],[-57.559209,-25.228125],[-57.560924,-25.22855],[-57.567701,-25.22636],[-57.571217,-25.225794],[-57.575086,-25.224663],[-57.573532,-25.222428],[-57.570642,-25.216664],[-57.564752,-25.207634],[-57.559354,-25.197463],[-57.553971,-25.190241],[-57.545482,-25.183762],[-57.54323,-25.180939],[-57.540962,-25.181992],[-57.539502,-25.181858],[-57.536805,-25.180639],[-57.533101,-25.177989],[-57.529939,-25.174392],[-57.528799,-25.171539],[-57.528733,-25.170181],[-57.530443,-25.166323],[-57.530556,-25.163737],[-57.529896,-25.161529],[-57.529219,-25.160606],[-57.525071,-25.158205],[-57.522967,-25.157603],[-57.51721,-25.153972],[-57.516166,-25.154029],[-57.516282,-25.154289],[-57.514626,-25.154197],[-57.511951,-25.155721],[-57.509389,-25.155443],[-57.50796,-25.156613],[-57.506404,-25.156977],[-57.506767,-25.15901],[-57.5059,-25.159944],[-57.506683,-25.161664],[-57.505903,-25.162101],[-57.504678,-25.161281],[-57.503798,-25.161515],[-57.501709,-25.161212],[-57.501129,-25.161515],[-57.500653,-25.162731],[-57.50068,-25.163504],[-57.501838,-25.163261],[-57.502442,-25.164293],[-57.503227,-25.164752],[-57.503032,-25.16523],[-57.501632,-25.165565],[-57.500909,-25.166204],[-57.500922,-25.167339],[-57.501723,-25.168215],[-57.502453,-25.168434],[-57.503029,-25.167141],[-57.503756,-25.166904],[-57.504979,-25.167111],[-57.50532,-25.167668],[-57.505301,-25.1694],[-57.504178,-25.170125],[-57.503512,-25.171131],[-57.504227,-25.172564],[-57.504596,-25.174722],[-57.504307,-25.176229],[-57.505258,-25.178244],[-57.505703,-25.181833],[-57.506191,-25.182757],[-57.504995,-25.18539],[-57.504131,-25.185929],[-57.503222,-25.187279],[-57.501302,-25.190995],[-57.500189,-25.191641],[-57.50006,-25.19318],[-57.500492,-25.194259],[-57.500541,-25.196821],[-57.499786,-25.198597],[-57.500146,-25.200567],[-57.49946,-25.203482],[-57.500129,-25.204031],[-57.501442,-25.204025],[-57.501667,-25.204594],[-57.500789,-25.205083],[-57.500801,-25.20545],[-57.502427,-25.205873],[-57.502777,-25.206834],[-57.503642,-25.207634],[-57.503532,-25.207969],[-57.502419,-25.208244],[-57.501955,-25.20872],[-57.502781,-25.21017],[-57.504208,-25.211317],[-57.505112,-25.210804],[-57.506994,-25.210386],[-57.50902,-25.211442],[-57.51235,-25.215968],[-57.514766,-25.218139],[-57.515373,-25.220453],[-57.517248,-25.223977],[-57.518278,-25.228221],[-57.520147,-25.23118],[-57.521549,-25.235476],[-57.52276,-25.236951],[-57.524805,-25.242793],[-57.527853,-25.241187],[-57.528761,-25.241957],[-57.530607,-25.24128],[-57.530107,-25.239916],[-57.532743,-25.238339],[-57.533108,-25.238899],[-57.535982,-25.237159],[-57.536544,-25.237833],[-57.538363,-25.236488],[-57.538844,-25.23707],[-57.539848,-25.236209]]]}}]}
