{"type":"FeatureCollection","name":"distrito","features":[{"type":"Feature","properties":{"clave":"13-4","nombre":"Zanja Pyta"},"geometry":{"type":"Polygon","coordinates":[[[-55.65819,-23.00555],[-55.661212,-23.002514],[-55.662611,-23.002029],[-55.664527,-23.002835],[-55.665388,-23.002779],[-55.665906,-23.003334],[-55.666971,-23.003384],[-55.668205,-23.003015],[-55.67,-23.003549],[-55.671158,-23.003433],[-55.672599,-23.004488],[-55.673295,-23.005727],[-55.676108,-23.006139],[-55.675007,-23.004499],[-55.674094,-23.00161],[-55.67236,-22.999419],[-55.672772,-22.996794],[-55.67163,-22.994351],[-55.671335,-22.992935],[-55.672495,-22.990614],[-55.673023,-22.988261],[-55.672889,-22.987109],[-55.671542,-22.985327],[-55.669262,-22.979898],[-55.666339,-22.976297],[-55.666041,-22.9747],[-55.665208,-22.974115],[-55.664482,-22.973043],[-55.663393,-22.972619],[-55.663506,-22.971617],[-55.662445,-22.969775],[-55.662533,-22.968588],[-55.661248,-22.96622],[-55.661474,-22.964867],[-55.661185,-22.964045],[-55.664943,-22.954604],[-55.664777,-22.954034],[-55.665333,-22.951316],[-55.66521,-22.950348],[-55.665869,-22.948651],[-55.667815,-22.948889],[-55.671502,-22.948626],[-55.672353,-22.948033],[-55.673631,-22.944679],[-55.674447,-22.943652],[-55.675521,-22.939231],[-55.676493,-22.938236],[-55.67749,-22.937712],[-55.679001,-22.935931],[-55.678952,-22.933687],[-55.679238,-22.932722],[-55.680859,-22.931219],[-55.681794,-22.93091],[-55.682204,-22.930268],[-55.682985,-22.930103],[-55.683291,-22.929392],[-55.685125,-22.928639],[-55.68655,-22.927242],[-55.687509,-22.924753],[-55.688142,-22.923932],[-55.688412,-22.92257],[-55.690032,-22.922227],[-55.69084,-22.92082],[-55.692737,-22.919305],[-55.693728,-22.91897],[-55.694629,-22.918002],[-55.695082,-22.918001],[-55.696059,-22.917327],[-55.697737,-22.917621],[-55.699734,-22.91654],[-55.700181,-22.915947],[-55.701825,-22.915789],[-55.704121,-22.91625],[-55.708121,-22.916175],[-55.709722,-22.914562],[-55.710506,-22.914446],[-55.711866,-22.913613],[-55.712487,-22.914051],[-55.713378,-22.913566],[-55.714669,-22.912344],[-55.715421,-22.912025],[-55.715785,-22.911215],[-55.716463,-22.910995],[-55.716559,-22.910535],[-55.718281,-22.909889],[-55.719697,-22.908848],[-55.721276,-22.909254],[-55.722064,-22.909866],[-55.723173,-22.910028],[-55.724714,-22.910844],[-55.725406,-22.910457],[-55.727905,-22.91017],[-55.733073,-22.907222],[-55.734189,-22.907289],[-55.735128,-22.90591],[-55.736579,-22.905122],[-55.738115,-22.904963],[-55.740043,-22.904301],[-55.742308,-22.904152],[-55.744105,-22.903556],[-55.745837,-22.904053],[-55.74861,-22.903073],[-55.752599,-22.902964],[-55.753938,-22.901254],[-55.756282,-22.899357],[-55.758086,-22.899913],[-55.759497,-22.899568],[-55.760338,-22.898409],[-55.7603,-22.897655],[-55.76118,-22.896939],[-55.761991,-22.894204],[-55.762632,-22.89378],[-55.764791,-22.893539],[-55.76702,-22.892599],[-55.767639,-22.892116],[-55.768244,-22.890649],[-55.769563,-22.889354],[-55.768655,-22.888728],[-55.768277,-22.886183],[-55.767896,-22.886031],[-55.767587,-22.885337],[-55.767861,-22.88473],[-55.767228,-22.884327],[-55.767336,-22.883719],[-55.766652,-22.88356],[-55.766964,-22.883061],[-55.766118,-22.882413],[-55.766163,-22.880973],[-55.765872,-22.880803],[-55.765116,-22.881186],[-55.764746,-22.880849],[-55.764729,-22.880212],[-55.764161,-22.880208],[-55.763699,-22.879621],[-55.764181,-22.877959],[-55.763291,-22.876258],[-55.763616,-22.874391],[-55.764074,-22.874232],[-55.764755,-22.872973],[-55.764655,-22.872141],[-55.764986,-22.871164],[-55.76399,-22.871278],[-55.763737,-22.87175],[-55.763016,-22.871289],[-55.763005,-22.871672],[-55.762738,-22.871711],[-55.762326,-22.871333],[-55.762351,-22.870349],[-55.762069,-22.870342],[-55.762138,-22.870749],[-55.761678,-22.870524],[-55.761612,-22.869706],[-55.761275,-22.869333],[-55.761493,-22.86863],[-55.76283,-22.868198],[-55.761819,-22.864573],[-55.760866,-22.864322],[-55.75966,-22.863152],[-55.759208,-22.863148],[-55.759186,-22.862312],[-55.757185,-22.860603],[-55.757026,-22.858439],[-55.755669,-22.856753],[-55.753904,-22.855524],[-55.753214,-22.853324],[-55.752178,-22.852128],[-55.752633,-22.850095],[-55.752567,-22.846906],[-55.751586,-22.843547],[-55.751237,-22.83902],[-55.749012,-22.834793],[-55.748374,-22.832923],[-55.749123,-22.831037],[-55.750207,-22.830467],[-55.750966,-22.829583],[-55.751786,-22.826962],[-55.752474,-22.826019],[-55.760003,-22.821521],[-55.761759,-22.819096],[-55.76486,-22.816993],[-55.765756,-22.815478],[-55.765922,-22.813252],[-55.767045,-22.811933],[-55.770226,-22.810364],[-55.774187,-22.808913],[-55.775883,-22.80758],[-55.781554,-22.807095],[-55.786207,-22.80774],[-55.787609,-22.808031],[-55.788955,-22.808782],[-55.789239,-22.808536],[-55.793548,-22.810782],[-55.815244,-22.800137],[-55.816422,-22.798411],[-55.815626,-22.795944],[-55.81565,-22.792828],[-55.814883,-22.786717],[-55.813896,-22.782938],[-55.812178,-22.780884],[-55.808259,-22.778994],[-55.805428,-22.777813],[-55.803362,-22.777775],[-55.798684,-22.776421],[-55.796825,-22.775505],[-55.815391,-22.773822],[-55.821739,-22.774091],[-55.82499,-22.773762],[-55.830722,-22.774274],[-55.835147,-22.775196],[-55.837695,-22.776073],[-55.840115,-22.77521],[-55.84177,-22.773957],[-55.844798,-22.773135],[-55.850262,-22.773283],[-55.851847,-22.773691],[-55.853243,-22.773498],[-55.854307,-22.773904],[-55.854602,-22.771855],[-55.853992,-22.7711],[-55.85421,-22.770283],[-55.85379,-22.769927],[-55.852068,-22.769948],[-55.850871,-22.768612],[-55.850832,-22.76823],[-55.851597,-22.767715],[-55.852941,-22.765993],[-55.853393,-22.766159],[-55.853533,-22.766742],[-55.853877,-22.766818],[-55.854546,-22.766279],[-55.854952,-22.766848],[-55.855448,-22.766823],[-55.855743,-22.765492],[-55.857878,-22.76233],[-55.85605,-22.760546],[-55.856683,-22.759273],[-55.856975,-22.756165],[-55.856001,-22.755564],[-55.855886,-22.753378],[-55.855145,-22.753154],[-55.854206,-22.753455],[-55.853714,-22.752247],[-55.852055,-22.752033],[-55.851734,-22.751308],[-55.851096,-22.751046],[-55.849319,-22.748943],[-55.849589,-22.747456],[-55.848507,-22.747592],[-55.8481,-22.746412],[-55.847343,-22.74593],[-55.847258,-22.745252],[-55.846085,-22.744638],[-55.845418,-22.743532],[-55.845644,-22.743084],[-55.84703,-22.742615],[-55.846951,-22.742341],[-55.846212,-22.742391],[-55.847226,-22.741356],[-55.847281,-22.740768],[-55.846033,-22.740397],[-55.845618,-22.741327],[-55.844313,-22.741326],[-55.844327,-22.740179],[-55.842098,-22.739024],[-55.84173,-22.739172],[-55.841878,-22.740401],[-55.841451,-22.741142],[-55.841028,-22.74026],[-55.838384,-22.739951],[-55.838497,-22.738439],[-55.837848,-22.737493],[-55.838989,-22.73645],[-55.837227,-22.736425],[-55.836917,-22.736141],[-55.837747,-22.735479],[-55.837162,-22.734432],[-55.837956,-22.733257],[-55.83775,-22.732949],[-55.834834,-22.732776],[-55.834896,-22.733495],[-55.834607,-22.733897],[-55.833157,-22.734416],[-55.832057,-22.734298],[-55.832131,-22.733589],[-55.831836,-22.733082],[-55.830146,-22.732595],[-55.829479,-22.730636],[-55.830051,-22.729375],[-55.828983,-22.729203],[-55.82867,-22.730306],[-55.827975,-22.730082],[-55.82699,-22.730264],[-55.826509,-22.730895],[-55.824846,-22.731693],[-55.824578,-22.731585],[-55.824868,-22.730746],[-55.824722,-22.730162],[-55.823453,-22.730831],[-55.822339,-22.730436],[-55.821522,-22.730604],[-55.821025,-22.732214],[-55.820053,-22.732823],[-55.819721,-22.733566],[-55.819055,-22.733729],[-55.817779,-22.733143],[-55.817529,-22.73202],[-55.816809,-22.731243],[-55.817127,-22.730569],[-55.818386,-22.730028],[-55.818403,-22.728695],[-55.817563,-22.728728],[-55.814585,-22.730213],[-55.814357,-22.730637],[-55.814699,-22.731626],[-55.814493,-22.73177],[-55.812547,-22.731078],[-55.812204,-22.728705],[-55.810503,-22.728462],[-55.810279,-22.729918],[-55.809824,-22.730144],[-55.8095,-22.729889],[-55.810052,-22.728021],[-55.809818,-22.727619],[-55.809087,-22.727701],[-55.80882,-22.727199],[-55.808291,-22.727036],[-55.807859,-22.727722],[-55.806527,-22.727266],[-55.806479,-22.727043],[-55.807225,-22.726683],[-55.806815,-22.725894],[-55.806721,-22.724712],[-55.807055,-22.724395],[-55.807025,-22.723588],[-55.807615,-22.723017],[-55.806953,-22.721549],[-55.806613,-22.722022],[-55.805788,-22.722095],[-55.805986,-22.721198],[-55.805342,-22.720726],[-55.805763,-22.720318],[-55.805694,-22.719342],[-55.806473,-22.718806],[-55.806208,-22.716177],[-55.805869,-22.716102],[-55.804875,-22.716709],[-55.80458,-22.716285],[-55.80468,-22.715652],[-55.803975,-22.715851],[-55.803752,-22.715301],[-55.802935,-22.715554],[-55.802534,-22.713212],[-55.80266,-22.71234],[-55.802247,-22.711003],[-55.802489,-22.710179],[-55.80312,-22.710222],[-55.803422,-22.710668],[-55.80397,-22.71054],[-55.804262,-22.708998],[-55.803853,-22.70919],[-55.803226,-22.708981],[-55.803093,-22.708639],[-55.802376,-22.708697],[-55.802309,-22.707855],[-55.802736,-22.707959],[-55.803075,-22.707583],[-55.803025,-22.706293],[-55.801605,-22.704335],[-55.801175,-22.704218],[-55.800658,-22.704637],[-55.799609,-22.704229],[-55.798518,-22.704611],[-55.798457,-22.703816],[-55.797679,-22.703785],[-55.797193,-22.70312],[-55.797706,-22.702358],[-55.798414,-22.702164],[-55.79841,-22.701852],[-55.7977,-22.700687],[-55.79653,-22.700064],[-55.796409,-22.699527],[-55.797201,-22.699454],[-55.797202,-22.698593],[-55.797849,-22.698734],[-55.798283,-22.698507],[-55.797824,-22.698176],[-55.797943,-22.697751],[-55.798754,-22.697455],[-55.799159,-22.696632],[-55.798321,-22.696042],[-55.798301,-22.69562],[-55.79874,-22.695119],[-55.794426,-22.693217],[-55.794224,-22.692995],[-55.794508,-22.692338],[-55.792987,-22.691829],[-55.792424,-22.692152],[-55.791494,-22.691247],[-55.791562,-22.690523],[-55.792622,-22.690836],[-55.792433,-22.689902],[-55.793235,-22.689155],[-55.794295,-22.688715],[-55.794529,-22.687576],[-55.793631,-22.685832],[-55.795499,-22.684727],[-55.795394,-22.684247],[-55.794832,-22.683644],[-55.791894,-22.685195],[-55.79103,-22.684927],[-55.789876,-22.684045],[-55.789688,-22.68199],[-55.789118,-22.681459],[-55.789376,-22.680811],[-55.788907,-22.680455],[-55.788695,-22.679757],[-55.788862,-22.678207],[-55.787844,-22.676869],[-55.784375,-22.676603],[-55.783939,-22.675658],[-55.782375,-22.675009],[-55.78242,-22.674571],[-55.783309,-22.673913],[-55.783362,-22.673311],[-55.783778,-22.673091],[-55.783403,-22.672467],[-55.782458,-22.672107],[-55.782594,-22.671402],[-55.781925,-22.67134],[-55.781705,-22.670172],[-55.780322,-22.669827],[-55.778631,-22.670167],[-55.77839,-22.670468],[-55.778615,-22.671147],[-55.778252,-22.671532],[-55.776892,-22.670961],[-55.77733,-22.669027],[-55.77651,-22.668474],[-55.77489,-22.668512],[-55.774566,-22.667136],[-55.774108,-22.666857],[-55.774693,-22.666279],[-55.774257,-22.666041],[-55.774439,-22.665767],[-55.773734,-22.664939],[-55.773951,-22.664047],[-55.773534,-22.663195],[-55.773395,-22.661604],[-55.772633,-22.661214],[-55.772138,-22.661459],[-55.771875,-22.660558],[-55.771347,-22.660369],[-55.771358,-22.660021],[-55.770377,-22.660005],[-55.769431,-22.659604],[-55.768894,-22.658711],[-55.768932,-22.655464],[-55.767999,-22.65542],[-55.767868,-22.653473],[-55.767339,-22.653225],[-55.766429,-22.653484],[-55.766017,-22.653305],[-55.765832,-22.652541],[-55.764165,-22.652022],[-55.764192,-22.651354],[-55.763793,-22.650881],[-55.763409,-22.651492],[-55.762939,-22.651633],[-55.762088,-22.650963],[-55.762044,-22.650411],[-55.761296,-22.650225],[-55.7606,-22.650865],[-55.759411,-22.649452],[-55.759613,-22.648862],[-55.75923,-22.648913],[-55.759035,-22.649336],[-55.758612,-22.648393],[-55.758362,-22.648351],[-55.758397,-22.64869],[-55.757813,-22.648342],[-55.75769,-22.64751],[-55.757609,-22.64797],[-55.75709,-22.647596],[-55.756371,-22.648358],[-55.755869,-22.648516],[-55.7556,-22.64823],[-55.755319,-22.648729],[-55.755158,-22.648511],[-55.75468,-22.648688],[-55.754573,-22.649026],[-55.753805,-22.648853],[-55.753607,-22.649632],[-55.753106,-22.64952],[-55.752243,-22.650647],[-55.751461,-22.649855],[-55.750738,-22.650016],[-55.750998,-22.650935],[-55.750497,-22.650846],[-55.750138,-22.650391],[-55.749804,-22.651165],[-55.750419,-22.651595],[-55.749615,-22.651859],[-55.749599,-22.652216],[-55.749099,-22.651602],[-55.74865,-22.651969],[-55.74788,-22.651548],[-55.747953,-22.651973],[-55.74759,-22.652083],[-55.747588,-22.651234],[-55.746095,-22.650874],[-55.746706,-22.650455],[-55.746274,-22.650253],[-55.745589,-22.648779],[-55.743733,-22.647455],[-55.743244,-22.648029],[-55.743129,-22.647315],[-55.74209,-22.646295],[-55.742183,-22.6449],[-55.741943,-22.644637],[-55.741458,-22.644737],[-55.741396,-22.643788],[-55.740475,-22.642986],[-55.740745,-22.641773],[-55.740345,-22.641594],[-55.740373,-22.641991],[-55.740021,-22.641727],[-55.740608,-22.640977],[-55.739553,-22.640052],[-55.739839,-22.639436],[-55.739455,-22.639527],[-55.739565,-22.638923],[-55.738956,-22.638882],[-55.739309,-22.638515],[-55.739274,-22.638004],[-55.739607,-22.637862],[-55.739185,-22.637561],[-55.739938,-22.637318],[-55.738536,-22.635546],[-55.738068,-22.634219],[-55.737174,-22.633706],[-55.737115,-22.633105],[-55.737646,-22.632685],[-55.737209,-22.631534],[-55.735198,-22.629942],[-55.713496,-22.652766],[-55.656546,-22.606506],[-55.655748,-22.605428],[-55.651305,-22.607906],[-55.649228,-22.610461],[-55.641388,-22.612705],[-55.636665,-22.61785],[-55.631334,-22.620607],[-55.625163,-22.628248],[-55.623297,-22.643808],[-55.622493,-22.647101],[-55.622873,-22.650469],[-55.621603,-22.652905],[-55.618095,-22.653527],[-55.614424,-22.655087],[-55.613802,-22.660002],[-55.617235,-22.664858],[-55.61829,-22.670419],[-55.617308,-22.677623],[-55.609313,-22.689018],[-55.613628,-22.692824],[-55.614754,-22.699673],[-55.613181,-22.704535],[-55.613922,-22.711557],[-55.61342,-22.717043],[-55.617037,-22.725085],[-55.61601,-22.735918],[-55.613089,-22.738946],[-55.616454,-22.740074],[-55.619751,-22.743302],[-55.620956,-22.74525],[-55.620125,-22.746837],[-55.6194,-22.749447],[-55.620181,-22.753352],[-55.626639,-22.757624],[-55.625731,-22.760396],[-55.620731,-22.763789],[-55.61944,-22.765233],[-55.61806,-22.767514],[-55.618519,-22.767941],[-55.623142,-22.767034],[-55.6277,-22.766607],[-55.629749,-22.766705],[-55.630776,-22.767079],[-55.631505,-22.768205],[-55.633213,-22.769377],[-55.635294,-22.770292],[-55.636638,-22.771745],[-55.636846,-22.773849],[-55.636296,-22.777139],[-55.63657,-22.778869],[-55.639015,-22.782699],[-55.641883,-22.78535],[-55.643591,-22.786449],[-55.644027,-22.787546],[-55.645515,-22.788878],[-55.650426,-22.791042],[-55.650665,-22.791916],[-55.652314,-22.792306],[-55.650632,-22.793344],[-55.649871,-22.799234],[-55.64916,-22.801624],[-55.650908,-22.804366],[-55.6543,-22.807004],[-55.655673,-22.808589],[-55.653436,-22.811828],[-55.65338,-22.816641],[-55.65459,-22.818996],[-55.656153,-22.82067],[-55.657484,-22.823222],[-55.660875,-22.827413],[-55.659239,-22.834625],[-55.658995,-22.841005],[-55.663185,-22.847126],[-55.665857,-22.852473],[-55.663064,-22.857205],[-55.663294,-22.860292],[-55.661614,-22.862599],[-55.660135,-22.863978],[-55.659927,-22.868088],[-55.661679,-22.874469],[-55.661745,-22.878],[-55.661224,-22.882224],[-55.656849,-22.885091],[-55.653787,-22.884829],[-55.650979,-22.887307],[-55.649536,-22.891017],[-55.6487,-22.896927],[-55.651109,-22.902529],[-55.650551,-22.911085],[-55.648085,-22.912953],[-55.647169,-22.921832],[-55.645516,-22.924494],[-55.651648,-22.931081],[-55.650637,-22.934562],[-55.647137,-22.937479],[-55.644755,-22.940064],[-55.643962,-22.942412],[-55.647609,-22.949894],[-55.644092,-22.9509],[-55.638408,-22.950596],[-55.636077,-22.953853],[-55.634619,-22.955152],[-55.638191,-22.957604],[-55.6379,-22.96024],[-55.636836,-22.964769],[-55.633662,-22.967731],[-55.63171,-22.970055],[-55.628894,-22.975107],[-55.626419,-22.977914],[-55.621977,-22.984552],[-55.624131,-22.988497],[-55.62665,-22.989193],[-55.628191,-22.987902],[-55.633931,-22.991824],[-55.633344,-22.997305],[-55.628475,-22.998348],[-55.632321,-23.001534],[-55.632946,-23.008303],[-55.636647,-23.018262],[-55.65819,-23.00555]]]}}]}
