{"type":"FeatureCollection","name":"distrito","features":[{"type":"Feature","properties":{"clave":"11-11","nombre":"J. Augusto Saldívar"},"geometry":{"type":"Polygon","coordinates":[[[-57.430662,-25.45884],[-57.437446,-25.460238],[-57.442751,-25.459512],[-57.448486,-25.459321],[-57.450392,-25.458489],[-57.454828,-25.45735],[-57.458678,-25.456606],[-57.462628,-25.456277],[-57.461802,-25.454722],[-57.459355,-25.452196],[-57.469696,-25.44862],[-57.471787,-25.446417],[-57.470048,-25.445303],[-57.468207,-25.442161],[-57.466757,-25.441064],[-57.463859,-25.437658],[-57.45955,-25.428348],[-57.458944,-25.425239],[-57.456971,-25.421308],[-57.456366,-25.419291],[-57.455749,-25.418289],[-57.455503,-25.418806],[-57.453344,-25.416887],[-57.450737,-25.412116],[-57.45028,-25.410655],[-57.450411,-25.405442],[-57.449019,-25.402439],[-57.448531,-25.399116],[-57.447288,-25.39617],[-57.435572,-25.399647],[-57.434661,-25.399964],[-57.434818,-25.400421],[-57.423675,-25.403558],[-57.423669,-25.40404],[-57.42398,-25.40403],[-57.424552,-25.40468],[-57.424639,-25.405705],[-57.425269,-25.406877],[-57.425085,-25.408291],[-57.425563,-25.408447],[-57.425467,-25.409416],[-57.425786,-25.409526],[-57.425798,-25.410516],[-57.426368,-25.411179],[-57.426182,-25.411565],[-57.426998,-25.412003],[-57.427047,-25.412344],[-57.413901,-25.416554],[-57.399236,-25.418339],[-57.398759,-25.419206],[-57.398761,-25.419799],[-57.399377,-25.420542],[-57.398864,-25.421376],[-57.39888,-25.422011],[-57.399353,-25.422557],[-57.399098,-25.423319],[-57.400118,-25.425363],[-57.399972,-25.426262],[-57.398706,-25.428136],[-57.3988,-25.429014],[-57.399763,-25.430587],[-57.400323,-25.430817],[-57.400552,-25.4319],[-57.40175,-25.433067],[-57.401779,-25.433599],[-57.40235,-25.433815],[-57.402862,-25.435268],[-57.402626,-25.435413],[-57.402725,-25.436043],[-57.402399,-25.436065],[-57.402309,-25.436636],[-57.401983,-25.436538],[-57.401865,-25.437048],[-57.402178,-25.439037],[-57.401791,-25.440652],[-57.402045,-25.443124],[-57.401844,-25.443928],[-57.401464,-25.444192],[-57.402247,-25.446402],[-57.403073,-25.44695],[-57.403179,-25.447366],[-57.404312,-25.447369],[-57.405795,-25.449302],[-57.405701,-25.449667],[-57.428444,-25.459173],[-57.430662,-25.45884]]]}}]}
