{"type":"FeatureCollection","name":"distrito","features":[{"type":"Feature","properties":{"clave":"6-9","nombre":"Gral. Higinio Morinigo"},"geometry":{"type":"Polygon","coordinates":[[[-56.178454,-26.153335],[-56.198658,-26.155747],[-56.207961,-26.1496],[-56.2152,-26.138078],[-56.217671,-26.138882],[-56.219523,-26.138504],[-56.220429,-26.139709],[-56.221758,-26.140105],[-56.222001,-26.14077],[-56.222866,-26.140901],[-56.225741,-26.140172],[-56.22642,-26.139557],[-56.225158,-26.139184],[-56.224946,-26.138249],[-56.224462,-26.137844],[-56.225241,-26.137839],[-56.225097,-26.137148],[-56.225657,-26.136821],[-56.226215,-26.135808],[-56.226851,-26.135695],[-56.227479,-26.134804],[-56.227263,-26.134645],[-56.226625,-26.135057],[-56.226477,-26.134487],[-56.226131,-26.134449],[-56.225114,-26.134701],[-56.225205,-26.133492],[-56.224162,-26.133057],[-56.225524,-26.13269],[-56.224997,-26.132439],[-56.224842,-26.131675],[-56.223913,-26.131688],[-56.2235,-26.130647],[-56.223916,-26.129832],[-56.223692,-26.129249],[-56.222848,-26.129285],[-56.222477,-26.128276],[-56.221085,-26.128418],[-56.221228,-26.127479],[-56.220035,-26.127464],[-56.220461,-26.126563],[-56.219923,-26.126506],[-56.219217,-26.126985],[-56.218916,-26.126474],[-56.218458,-26.126945],[-56.217331,-26.126614],[-56.217122,-26.126378],[-56.217421,-26.125224],[-56.215701,-26.12461],[-56.215393,-26.123642],[-56.214943,-26.123698],[-56.214473,-26.123176],[-56.214109,-26.123454],[-56.213293,-26.123003],[-56.212883,-26.123249],[-56.212011,-26.122662],[-56.213168,-26.12158],[-56.212627,-26.121555],[-56.212639,-26.12104],[-56.212116,-26.121222],[-56.212188,-26.120094],[-56.211738,-26.120611],[-56.210911,-26.120615],[-56.21083,-26.119229],[-56.209641,-26.117592],[-56.208098,-26.11748],[-56.207917,-26.116847],[-56.208532,-26.116471],[-56.207999,-26.115895],[-56.208709,-26.115285],[-56.207519,-26.114895],[-56.207927,-26.113958],[-56.209077,-26.113436],[-56.209002,-26.113201],[-56.208422,-26.113509],[-56.207842,-26.112987],[-56.207934,-26.112766],[-56.208738,-26.112739],[-56.208762,-26.112251],[-56.207977,-26.112139],[-56.208827,-26.111516],[-56.208096,-26.111521],[-56.208209,-26.110993],[-56.207746,-26.111144],[-56.207308,-26.110912],[-56.207264,-26.110609],[-56.207892,-26.110188],[-56.207192,-26.109904],[-56.206238,-26.10882],[-56.206772,-26.108024],[-56.205897,-26.108091],[-56.204936,-26.107684],[-56.205968,-26.106886],[-56.205808,-26.106303],[-56.205023,-26.106493],[-56.204621,-26.105962],[-56.205365,-26.105709],[-56.204998,-26.105116],[-56.206136,-26.104856],[-56.205197,-26.104363],[-56.205975,-26.1036],[-56.205243,-26.103903],[-56.204549,-26.103438],[-56.204614,-26.103177],[-56.205444,-26.103032],[-56.205598,-26.102595],[-56.204874,-26.102731],[-56.20446,-26.101817],[-56.2036,-26.101374],[-56.204336,-26.101103],[-56.20395,-26.100455],[-56.204122,-26.100055],[-56.204328,-26.100475],[-56.205357,-26.100459],[-56.204951,-26.099734],[-56.205991,-26.099397],[-56.204842,-26.098808],[-56.205998,-26.098336],[-56.205338,-26.097334],[-56.206031,-26.097004],[-56.205419,-26.096603],[-56.206287,-26.096351],[-56.206234,-26.095886],[-56.205802,-26.095603],[-56.204573,-26.095556],[-56.202722,-26.09583],[-56.201473,-26.094171],[-56.198637,-26.094024],[-56.198408,-26.093644],[-56.198709,-26.092639],[-56.198397,-26.092163],[-56.197579,-26.091874],[-56.196507,-26.092076],[-56.196111,-26.091599],[-56.196323,-26.091257],[-56.195818,-26.091349],[-56.195486,-26.090797],[-56.195228,-26.0915],[-56.194767,-26.091456],[-56.194132,-26.089024],[-56.194998,-26.088311],[-56.194959,-26.08795],[-56.194309,-26.087644],[-56.19402,-26.08692],[-56.193056,-26.08663],[-56.192293,-26.087515],[-56.191226,-26.086845],[-56.191065,-26.085689],[-56.190223,-26.08595],[-56.190733,-26.085136],[-56.190213,-26.084375],[-56.190203,-26.082781],[-56.189362,-26.082812],[-56.189134,-26.082396],[-56.189306,-26.081828],[-56.18996,-26.081547],[-56.19016,-26.079819],[-56.189273,-26.077462],[-56.188497,-26.077304],[-56.187292,-26.078209],[-56.18661,-26.079704],[-56.185264,-26.079832],[-56.184426,-26.079466],[-56.184165,-26.077794],[-56.183541,-26.076879],[-56.182324,-26.073549],[-56.182751,-26.072626],[-56.18168,-26.072485],[-56.181432,-26.071991],[-56.181857,-26.071271],[-56.181755,-26.070855],[-56.180469,-26.071399],[-56.179588,-26.071299],[-56.179521,-26.068811],[-56.17913,-26.067536],[-56.179912,-26.066917],[-56.179097,-26.066285],[-56.179058,-26.065942],[-56.179628,-26.06553],[-56.179484,-26.064996],[-56.180769,-26.064606],[-56.180247,-26.064034],[-56.180444,-26.063412],[-56.177943,-26.063109],[-56.177273,-26.062762],[-56.176274,-26.061411],[-56.175395,-26.060986],[-56.172057,-26.060665],[-56.171243,-26.059866],[-56.171127,-26.058384],[-56.170564,-26.057884],[-56.169911,-26.058052],[-56.169507,-26.058677],[-56.168771,-26.058732],[-56.168782,-26.057287],[-56.167864,-26.056392],[-56.16681,-26.053917],[-56.166264,-26.053954],[-56.166426,-26.054696],[-56.165122,-26.054896],[-56.164578,-26.054703],[-56.164352,-26.053961],[-56.1637,-26.053994],[-56.163346,-26.053653],[-56.163006,-26.054125],[-56.161974,-26.054516],[-56.160423,-26.054033],[-56.159632,-26.052909],[-56.159643,-26.051428],[-56.158939,-26.049984],[-56.15603,-26.049552],[-56.155398,-26.048654],[-56.153396,-26.043744],[-56.151081,-26.041415],[-56.148668,-26.038159],[-56.144308,-26.037014],[-56.141733,-26.035725],[-56.140187,-26.034578],[-56.137666,-26.031809],[-56.136796,-26.030134],[-56.135227,-26.029389],[-56.135169,-26.028684],[-56.134833,-26.028682],[-56.134281,-26.029324],[-56.133022,-26.029281],[-56.131612,-26.029669],[-56.131152,-26.029305],[-56.130854,-26.029891],[-56.130312,-26.029359],[-56.130139,-26.029981],[-56.1293,-26.029804],[-56.129065,-26.030394],[-56.127829,-26.029872],[-56.1281,-26.030312],[-56.127341,-26.030592],[-56.127253,-26.031124],[-56.126731,-26.030719],[-56.126267,-26.030964],[-56.125871,-26.030619],[-56.12482,-26.031804],[-56.124649,-26.030797],[-56.12401,-26.03128],[-56.12337,-26.030464],[-56.123162,-26.031004],[-56.122187,-26.030199],[-56.121943,-26.030717],[-56.121166,-26.030559],[-56.120881,-26.030286],[-56.121303,-26.029941],[-56.12096,-26.029357],[-56.12061,-26.026533],[-56.119972,-26.025306],[-56.118647,-26.024918],[-56.117221,-26.025095],[-56.116576,-26.024829],[-56.116018,-26.024288],[-56.112801,-26.0177],[-56.11209,-26.018011],[-56.111115,-26.017956],[-56.110367,-26.016999],[-56.110008,-26.015904],[-56.10909,-26.016092],[-56.109085,-26.01556],[-56.108581,-26.015814],[-56.108353,-26.015415],[-56.107652,-26.015271],[-56.106325,-26.01636],[-56.105724,-26.015936],[-56.105323,-26.016796],[-56.104643,-26.01709],[-56.10426,-26.016938],[-56.103829,-26.017893],[-56.102995,-26.017567],[-56.10194,-26.018165],[-56.101528,-26.018741],[-56.100764,-26.018334],[-56.100361,-26.019176],[-56.099751,-26.01863],[-56.099352,-26.019183],[-56.098534,-26.016767],[-56.09878,-26.016001],[-56.097812,-26.014817],[-56.096914,-26.01455],[-56.097088,-26.013246],[-56.096296,-26.012668],[-56.095887,-26.010101],[-56.094761,-26.008148],[-56.09408,-26.007534],[-56.0945,-26.006846],[-56.094205,-26.005851],[-56.093584,-26.005707],[-56.092661,-26.004446],[-56.093031,-26.003776],[-56.092344,-26.002982],[-56.092217,-26.000791],[-56.091483,-26.000308],[-56.091514,-25.999545],[-56.090881,-25.999329],[-56.091317,-25.99865],[-56.091236,-25.998198],[-56.091043,-25.998007],[-56.090587,-25.998325],[-56.048453,-25.89086],[-56.043978,-25.892077],[-56.040375,-25.893696],[-56.038252,-25.895041],[-56.036278,-25.894608],[-56.034475,-25.894989],[-56.031832,-25.894958],[-56.02716,-25.892457],[-56.00921,-25.922469],[-56.005308,-25.922714],[-56.000781,-25.923938],[-56.000269,-25.924374],[-56.000074,-25.924072],[-55.999735,-25.924153],[-55.999453,-25.92479],[-55.997884,-25.92514],[-55.99665,-25.926723],[-55.993886,-25.929307],[-55.991184,-25.934484],[-55.992218,-25.93639],[-55.992058,-25.937474],[-55.992348,-25.938696],[-55.993016,-25.939583],[-55.994112,-25.942981],[-55.991833,-25.946288],[-55.991685,-25.947256],[-55.992197,-25.947647],[-55.992949,-25.947381],[-55.995574,-25.947399],[-55.997747,-25.947753],[-55.999178,-25.948351],[-55.998168,-25.951337],[-55.999007,-25.954133],[-55.999169,-25.956116],[-55.998901,-25.956525],[-55.997151,-25.957235],[-55.996676,-25.957074],[-55.994619,-25.957741],[-55.993674,-25.958556],[-55.992629,-25.960535],[-55.988867,-25.961913],[-55.989041,-25.963747],[-55.988727,-25.965041],[-55.990519,-25.96624],[-55.992882,-25.967245],[-55.993987,-25.967059],[-55.995618,-25.966262],[-55.996777,-25.967056],[-55.998966,-25.967527],[-55.999652,-25.969595],[-55.99832,-25.970245],[-55.999291,-25.970956],[-55.999131,-25.973302],[-55.99992,-25.97459],[-55.999475,-25.976889],[-55.999752,-25.978846],[-55.999587,-25.979097],[-55.999104,-25.978954],[-55.999603,-25.981057],[-55.999197,-25.982508],[-55.999427,-25.984514],[-55.990786,-25.991013],[-55.992995,-25.992496],[-55.993648,-25.9945],[-55.993226,-25.995441],[-55.992574,-26.000057],[-55.991372,-26.001595],[-55.99108,-26.002505],[-55.993823,-26.00888],[-55.994448,-26.013471],[-55.994164,-26.014396],[-55.990619,-26.020334],[-55.990275,-26.021799],[-55.990446,-26.022599],[-55.992131,-26.025599],[-55.992534,-26.027539],[-55.990374,-26.03439],[-55.990513,-26.035204],[-55.989973,-26.036798],[-55.98985,-26.039601],[-55.989305,-26.040242],[-55.989152,-26.041217],[-55.988417,-26.041893],[-55.987938,-26.045899],[-55.987285,-26.046436],[-55.986046,-26.046657],[-55.986644,-26.047492],[-55.984648,-26.050318],[-55.984158,-26.051872],[-55.983131,-26.053192],[-55.982637,-26.054836],[-55.982042,-26.055148],[-55.981825,-26.055742],[-55.981787,-26.057363],[-55.982564,-26.059865],[-55.986657,-26.0682],[-55.986989,-26.07041],[-55.987619,-26.072008],[-55.988812,-26.07333],[-55.990926,-26.074148],[-55.991683,-26.074745],[-55.992526,-26.076214],[-55.993473,-26.080094],[-55.99455,-26.081749],[-55.99583,-26.082905],[-55.997463,-26.083471],[-55.999602,-26.082222],[-56.000253,-26.081454],[-56.001441,-26.082971],[-56.003669,-26.084051],[-56.004487,-26.084928],[-56.005502,-26.08452],[-56.006505,-26.085236],[-56.007329,-26.084672],[-56.010946,-26.086521],[-56.014739,-26.087175],[-56.015491,-26.087663],[-56.016148,-26.089035],[-56.016679,-26.089463],[-56.017769,-26.089394],[-56.018621,-26.088],[-56.019583,-26.087284],[-56.021884,-26.086587],[-56.024122,-26.08546],[-56.024732,-26.083595],[-56.025405,-26.082854],[-56.027585,-26.082693],[-56.03325,-26.083282],[-56.034058,-26.084962],[-56.035295,-26.084889],[-56.035686,-26.085167],[-56.037061,-26.087723],[-56.040814,-26.089016],[-56.041871,-26.092219],[-56.042691,-26.092875],[-56.043905,-26.09254],[-56.044616,-26.092662],[-56.045809,-26.092209],[-56.046624,-26.093027],[-56.047541,-26.092997],[-56.048856,-26.093534],[-56.049714,-26.092669],[-56.050754,-26.09245],[-56.051024,-26.091725],[-56.052959,-26.091895],[-56.05414,-26.091158],[-56.054279,-26.091543],[-56.056599,-26.093075],[-56.05883,-26.093031],[-56.061408,-26.095531],[-56.062965,-26.095825],[-56.063878,-26.096599],[-56.068916,-26.099159],[-56.069866,-26.100759],[-56.07017,-26.102273],[-56.07087,-26.102486],[-56.072287,-26.101777],[-56.073215,-26.102167],[-56.075591,-26.101672],[-56.07646,-26.101939],[-56.077508,-26.102605],[-56.078911,-26.104352],[-56.080878,-26.105732],[-56.082295,-26.106261],[-56.082907,-26.106896],[-56.083709,-26.108572],[-56.083037,-26.1098],[-56.086557,-26.109931],[-56.087031,-26.109726],[-56.087722,-26.110087],[-56.08772,-26.111062],[-56.088488,-26.113094],[-56.090618,-26.117256],[-56.091391,-26.117654],[-56.091727,-26.117164],[-56.093017,-26.117163],[-56.093749,-26.117583],[-56.094336,-26.117316],[-56.096055,-26.119277],[-56.097642,-26.120086],[-56.097921,-26.120652],[-56.098281,-26.120749],[-56.098424,-26.122642],[-56.100922,-26.124594],[-56.101571,-26.125605],[-56.103874,-26.127064],[-56.104098,-26.128022],[-56.103279,-26.129281],[-56.103368,-26.129869],[-56.104643,-26.130335],[-56.127999,-26.126047],[-56.135438,-26.130074],[-56.135652,-26.130486],[-56.13551,-26.132796],[-56.135866,-26.13395],[-56.136869,-26.134949],[-56.137773,-26.137099],[-56.13931,-26.137988],[-56.139545,-26.13859],[-56.140611,-26.139283],[-56.140913,-26.141375],[-56.153375,-26.142415],[-56.164737,-26.1504],[-56.178454,-26.153335]]]}}]}
