{"type":"FeatureCollection","name":"distrito","features":[{"type":"Feature","properties":{"clave":"4-7","nombre":"Doctor Bottrell"},"geometry":{"type":"Polygon","coordinates":[[[-56.318914,-25.626204],[-56.31997,-25.625064],[-56.32169,-25.625699],[-56.322621,-25.625432],[-56.323165,-25.625907],[-56.323611,-25.625391],[-56.324766,-25.624909],[-56.325448,-25.624935],[-56.3271,-25.626215],[-56.327479,-25.62566],[-56.328233,-25.625885],[-56.329822,-25.628048],[-56.331906,-25.629638],[-56.33601,-25.630908],[-56.337896,-25.632649],[-56.338837,-25.632544],[-56.339676,-25.631722],[-56.3411,-25.6321],[-56.341447,-25.632322],[-56.3417,-25.633244],[-56.343022,-25.632728],[-56.343725,-25.631933],[-56.345064,-25.631128],[-56.346535,-25.631203],[-56.34742,-25.630107],[-56.347708,-25.630205],[-56.348065,-25.63117],[-56.347322,-25.631454],[-56.347587,-25.632899],[-56.34827,-25.632861],[-56.348728,-25.632272],[-56.348985,-25.632369],[-56.348496,-25.633651],[-56.348643,-25.633922],[-56.349585,-25.633637],[-56.349866,-25.632167],[-56.350901,-25.631635],[-56.351716,-25.63234],[-56.352225,-25.633497],[-56.353138,-25.633089],[-56.353884,-25.632474],[-56.353528,-25.630959],[-56.354864,-25.630828],[-56.355315,-25.628671],[-56.35741,-25.628309],[-56.358486,-25.628547],[-56.360743,-25.62622],[-56.361274,-25.626181],[-56.361454,-25.62669],[-56.361955,-25.626528],[-56.36252,-25.62587],[-56.362531,-25.623794],[-56.363318,-25.623464],[-56.362093,-25.623338],[-56.36184,-25.622526],[-56.364884,-25.623268],[-56.36707,-25.622934],[-56.367371,-25.623402],[-56.36726,-25.624393],[-56.367562,-25.624572],[-56.367974,-25.624079],[-56.367857,-25.623171],[-56.368814,-25.622927],[-56.369061,-25.622158],[-56.369544,-25.622614],[-56.36907,-25.62341],[-56.369187,-25.624194],[-56.369835,-25.624912],[-56.370899,-25.624518],[-56.371639,-25.625043],[-56.372126,-25.62488],[-56.372617,-25.623714],[-56.373313,-25.624129],[-56.374011,-25.623995],[-56.374581,-25.625138],[-56.375066,-25.625264],[-56.375437,-25.62396],[-56.376179,-25.624196],[-56.377105,-25.624035],[-56.377951,-25.624658],[-56.377405,-25.625338],[-56.377658,-25.625605],[-56.378432,-25.625416],[-56.378891,-25.624634],[-56.379514,-25.624444],[-56.379949,-25.625519],[-56.381494,-25.622968],[-56.383191,-25.623167],[-56.385044,-25.622612],[-56.385935,-25.623454],[-56.387056,-25.62372],[-56.388818,-25.623177],[-56.389002,-25.622807],[-56.388732,-25.622269],[-56.389203,-25.62201],[-56.389718,-25.62226],[-56.389865,-25.622921],[-56.389316,-25.623619],[-56.388693,-25.623864],[-56.388707,-25.624181],[-56.390467,-25.623968],[-56.392815,-25.624665],[-56.393649,-25.624614],[-56.393782,-25.625316],[-56.393175,-25.625998],[-56.393352,-25.626331],[-56.394706,-25.625484],[-56.3951,-25.625582],[-56.395915,-25.626369],[-56.395894,-25.627593],[-56.39671,-25.628284],[-56.397015,-25.627969],[-56.396381,-25.627196],[-56.396538,-25.626276],[-56.397615,-25.626225],[-56.398134,-25.625622],[-56.398686,-25.627276],[-56.39794,-25.627959],[-56.39891,-25.628004],[-56.400006,-25.629343],[-56.400332,-25.628849],[-56.400877,-25.628943],[-56.401094,-25.630154],[-56.401864,-25.629845],[-56.402013,-25.628306],[-56.401653,-25.627516],[-56.40382,-25.62681],[-56.404608,-25.62707],[-56.404794,-25.626319],[-56.405118,-25.626155],[-56.405845,-25.626378],[-56.406023,-25.627277],[-56.407238,-25.626952],[-56.40699,-25.628033],[-56.4079,-25.627853],[-56.408606,-25.628241],[-56.409278,-25.627437],[-56.409966,-25.627238],[-56.409464,-25.626539],[-56.409587,-25.626283],[-56.410577,-25.626434],[-56.411262,-25.627005],[-56.411505,-25.626969],[-56.41157,-25.62609],[-56.411974,-25.626036],[-56.412458,-25.626441],[-56.413177,-25.628131],[-56.412831,-25.62868],[-56.411657,-25.628822],[-56.411433,-25.629096],[-56.41305,-25.629451],[-56.413961,-25.629198],[-56.413997,-25.630133],[-56.415797,-25.630012],[-56.416733,-25.628989],[-56.41797,-25.628205],[-56.418597,-25.628171],[-56.419101,-25.628576],[-56.419195,-25.629952],[-56.41968,-25.630155],[-56.42148,-25.630016],[-56.422802,-25.628499],[-56.423468,-25.628864],[-56.423564,-25.629786],[-56.423929,-25.629751],[-56.425152,-25.627665],[-56.425597,-25.627575],[-56.426362,-25.62844],[-56.42817,-25.626742],[-56.428472,-25.626853],[-56.428872,-25.627863],[-56.429687,-25.626711],[-56.430957,-25.62756],[-56.431709,-25.626738],[-56.431989,-25.62713],[-56.431827,-25.627825],[-56.432228,-25.628078],[-56.432998,-25.627714],[-56.433328,-25.626359],[-56.434378,-25.626748],[-56.434918,-25.628052],[-56.435327,-25.6271],[-56.436482,-25.626683],[-56.436111,-25.628038],[-56.437917,-25.626872],[-56.438024,-25.625607],[-56.437528,-25.623515],[-56.437731,-25.623296],[-56.438458,-25.6235],[-56.439262,-25.624603],[-56.439607,-25.624256],[-56.439123,-25.623533],[-56.439204,-25.623151],[-56.440442,-25.623723],[-56.441366,-25.623087],[-56.441413,-25.622737],[-56.440585,-25.62227],[-56.440791,-25.62192],[-56.442191,-25.621863],[-56.442849,-25.622247],[-56.443962,-25.621711],[-56.443022,-25.62104],[-56.442731,-25.619503],[-56.442174,-25.619754],[-56.440738,-25.619722],[-56.440262,-25.620447],[-56.43879,-25.620604],[-56.438643,-25.620079],[-56.439062,-25.619656],[-56.438493,-25.61937],[-56.439096,-25.618605],[-56.43793,-25.618767],[-56.437637,-25.617994],[-56.436853,-25.617864],[-56.437158,-25.61713],[-56.436147,-25.616941],[-56.437188,-25.616055],[-56.436561,-25.614901],[-56.435415,-25.614996],[-56.435163,-25.615524],[-56.434436,-25.615218],[-56.433104,-25.616721],[-56.433203,-25.616148],[-56.43261,-25.615613],[-56.432022,-25.615828],[-56.431684,-25.615307],[-56.43078,-25.615385],[-56.430005,-25.616172],[-56.429451,-25.6157],[-56.43031,-25.615202],[-56.428693,-25.614821],[-56.428391,-25.614229],[-56.428559,-25.612812],[-56.429433,-25.612391],[-56.42862,-25.612369],[-56.428313,-25.612011],[-56.429237,-25.611406],[-56.428585,-25.61064],[-56.429173,-25.609134],[-56.428504,-25.60896],[-56.427508,-25.609593],[-56.426698,-25.60907],[-56.42725,-25.608933],[-56.427051,-25.607884],[-56.42769,-25.607435],[-56.427225,-25.606079],[-56.427938,-25.606438],[-56.428456,-25.605388],[-56.429019,-25.605197],[-56.429059,-25.604984],[-56.428353,-25.604643],[-56.429318,-25.604028],[-56.429378,-25.60346],[-56.429012,-25.603359],[-56.428214,-25.604074],[-56.42818,-25.603545],[-56.428775,-25.602762],[-56.426172,-25.602377],[-56.425594,-25.602971],[-56.425319,-25.602378],[-56.424488,-25.601951],[-56.424316,-25.601255],[-56.424878,-25.600737],[-56.424212,-25.600757],[-56.42478,-25.600073],[-56.424796,-25.598918],[-56.423319,-25.598862],[-56.422657,-25.599284],[-56.4226,-25.600101],[-56.422067,-25.600081],[-56.422234,-25.599332],[-56.422892,-25.598716],[-56.422691,-25.598277],[-56.421824,-25.598188],[-56.421983,-25.597511],[-56.422242,-25.597237],[-56.423015,-25.597394],[-56.423283,-25.596848],[-56.422539,-25.596823],[-56.422166,-25.595417],[-56.423116,-25.595981],[-56.423437,-25.595463],[-56.422383,-25.594827],[-56.422258,-25.594609],[-56.422795,-25.594607],[-56.422821,-25.594399],[-56.421911,-25.593908],[-56.422568,-25.593649],[-56.422575,-25.593387],[-56.422034,-25.593272],[-56.422442,-25.592687],[-56.420658,-25.591844],[-56.42034,-25.591423],[-56.42071,-25.590788],[-56.419762,-25.590333],[-56.419828,-25.589732],[-56.419187,-25.589698],[-56.419465,-25.589243],[-56.418638,-25.588328],[-56.419297,-25.588091],[-56.419276,-25.587676],[-56.418266,-25.587338],[-56.41896,-25.587002],[-56.418704,-25.58612],[-56.420195,-25.585968],[-56.419749,-25.585285],[-56.418532,-25.585271],[-56.418598,-25.584603],[-56.418059,-25.583716],[-56.417255,-25.583284],[-56.417784,-25.582907],[-56.417778,-25.582342],[-56.41674,-25.582767],[-56.416987,-25.582271],[-56.416802,-25.580875],[-56.414659,-25.580808],[-56.414626,-25.580564],[-56.415314,-25.580364],[-56.415301,-25.580052],[-56.41434,-25.579678],[-56.414076,-25.57816],[-56.413366,-25.57864],[-56.413256,-25.577416],[-56.412457,-25.578479],[-56.412196,-25.57836],[-56.412191,-25.577791],[-56.411941,-25.577835],[-56.411317,-25.579061],[-56.410653,-25.579379],[-56.409875,-25.578351],[-56.409915,-25.57748],[-56.40899,-25.577277],[-56.409419,-25.576665],[-56.408509,-25.576846],[-56.408595,-25.576323],[-56.408045,-25.57568],[-56.407627,-25.576387],[-56.406655,-25.57632],[-56.406603,-25.57608],[-56.407307,-25.575735],[-56.406352,-25.575014],[-56.406451,-25.57477],[-56.4072,-25.5748],[-56.406788,-25.574257],[-56.407511,-25.57407],[-56.407201,-25.573405],[-56.406952,-25.57367],[-56.406568,-25.573412],[-56.406358,-25.573655],[-56.405583,-25.572703],[-56.405133,-25.572981],[-56.405436,-25.573533],[-56.405246,-25.573953],[-56.404631,-25.573327],[-56.404194,-25.573542],[-56.403372,-25.573092],[-56.402946,-25.574006],[-56.402358,-25.574013],[-56.40204,-25.57379],[-56.402592,-25.573066],[-56.402543,-25.572388],[-56.401571,-25.572326],[-56.400459,-25.574398],[-56.399621,-25.574824],[-56.399091,-25.574176],[-56.398409,-25.574232],[-56.398387,-25.574706],[-56.397562,-25.575217],[-56.397817,-25.575877],[-56.397182,-25.575825],[-56.396757,-25.575363],[-56.396834,-25.574541],[-56.396398,-25.573867],[-56.39616,-25.574353],[-56.394869,-25.574542],[-56.393781,-25.574127],[-56.394327,-25.574066],[-56.394334,-25.573411],[-56.393782,-25.572912],[-56.394317,-25.57226],[-56.393571,-25.571114],[-56.392636,-25.570564],[-56.394407,-25.56993],[-56.394291,-25.569379],[-56.393675,-25.569106],[-56.393808,-25.568469],[-56.392822,-25.568953],[-56.392659,-25.567991],[-56.392262,-25.568716],[-56.391941,-25.568742],[-56.391632,-25.567038],[-56.3914,-25.567028],[-56.39139,-25.567394],[-56.39012,-25.566887],[-56.389668,-25.565856],[-56.388818,-25.565997],[-56.388982,-25.566648],[-56.388422,-25.56674],[-56.388296,-25.565837],[-56.387668,-25.565685],[-56.387723,-25.566548],[-56.386397,-25.566569],[-56.386975,-25.567114],[-56.387291,-25.567977],[-56.386918,-25.568138],[-56.386378,-25.567865],[-56.386454,-25.568236],[-56.385742,-25.568477],[-56.385787,-25.569009],[-56.383876,-25.568988],[-56.383492,-25.569451],[-56.38319,-25.569251],[-56.383272,-25.568597],[-56.382948,-25.568153],[-56.381587,-25.569272],[-56.381343,-25.568264],[-56.380964,-25.568],[-56.380585,-25.568473],[-56.380872,-25.569224],[-56.38003,-25.569491],[-56.379451,-25.569249],[-56.378821,-25.569766],[-56.37934,-25.570143],[-56.378968,-25.570845],[-56.378039,-25.570896],[-56.376349,-25.57013],[-56.376599,-25.57098],[-56.376112,-25.572066],[-56.376573,-25.57326],[-56.376286,-25.573791],[-56.375816,-25.573871],[-56.375685,-25.57494],[-56.374313,-25.575472],[-56.374389,-25.576212],[-56.373439,-25.576935],[-56.372906,-25.576382],[-56.372547,-25.576683],[-56.372192,-25.57618],[-56.371489,-25.57648],[-56.371136,-25.577232],[-56.369192,-25.576741],[-56.36967,-25.577249],[-56.369824,-25.578337],[-56.368759,-25.578066],[-56.366449,-25.576363],[-56.36578,-25.576676],[-56.365461,-25.576508],[-56.365145,-25.575902],[-56.363126,-25.574439],[-56.362416,-25.57272],[-56.361429,-25.572766],[-56.360612,-25.570997],[-56.359706,-25.570893],[-56.358729,-25.571593],[-56.358036,-25.571663],[-56.358094,-25.570742],[-56.355968,-25.569572],[-56.353259,-25.57007],[-56.352913,-25.570069],[-56.35241,-25.569362],[-56.351903,-25.569554],[-56.351317,-25.569357],[-56.350755,-25.56977],[-56.347397,-25.569606],[-56.346916,-25.569871],[-56.346991,-25.57072],[-56.345148,-25.571389],[-56.345571,-25.572185],[-56.345648,-25.572696],[-56.34538,-25.572862],[-56.342536,-25.571305],[-56.341585,-25.569729],[-56.341236,-25.570089],[-56.341254,-25.571782],[-56.340118,-25.572283],[-56.339825,-25.572259],[-56.339458,-25.571142],[-56.338448,-25.570559],[-56.337995,-25.570535],[-56.337406,-25.571133],[-56.334904,-25.570349],[-56.3337,-25.571093],[-56.333798,-25.572737],[-56.333285,-25.57385],[-56.331655,-25.574592],[-56.330615,-25.574633],[-56.330323,-25.57432],[-56.330756,-25.573279],[-56.330438,-25.572893],[-56.328426,-25.57264],[-56.326378,-25.571832],[-56.325851,-25.570768],[-56.324364,-25.569651],[-56.323465,-25.56841],[-56.316968,-25.564776],[-56.315467,-25.566196],[-56.313868,-25.566189],[-56.313017,-25.565751],[-56.31128,-25.566493],[-56.310468,-25.566344],[-56.309099,-25.567981],[-56.308297,-25.56851],[-56.306189,-25.56874],[-56.305924,-25.582733],[-56.305036,-25.595663],[-56.304269,-25.617169],[-56.302515,-25.632514],[-56.304023,-25.632664],[-56.304276,-25.632178],[-56.30385,-25.63163],[-56.303841,-25.631039],[-56.304684,-25.630207],[-56.308202,-25.63052],[-56.30885,-25.630163],[-56.310055,-25.630824],[-56.310374,-25.629921],[-56.311579,-25.630733],[-56.312088,-25.63008],[-56.313132,-25.630299],[-56.314038,-25.629979],[-56.314638,-25.631034],[-56.315278,-25.631067],[-56.31548,-25.631548],[-56.316171,-25.631505],[-56.316337,-25.630763],[-56.316774,-25.632041],[-56.317768,-25.631296],[-56.318354,-25.631755],[-56.318613,-25.631176],[-56.319169,-25.630892],[-56.319056,-25.629879],[-56.319851,-25.629526],[-56.3209,-25.628162],[-56.320574,-25.626861],[-56.31925,-25.627211],[-56.318914,-25.626204]]]}}]}
