{"type":"FeatureCollection","name":"distrito","features":[{"type":"Feature","properties":{"clave":"10-19","nombre":"Minga Porá"},"geometry":{"type":"Polygon","coordinates":[[[-54.899018,-24.943808],[-54.959317,-24.888708],[-54.960361,-24.888758],[-54.961583,-24.888258],[-54.961823,-24.887829],[-54.96127,-24.886807],[-54.966925,-24.881658],[-54.96922,-24.881544],[-54.971764,-24.880626],[-54.973341,-24.88123],[-54.974286,-24.882015],[-54.974982,-24.882132],[-54.975485,-24.881837],[-54.975873,-24.88228],[-54.975617,-24.882592],[-54.976619,-24.883716],[-54.977692,-24.883632],[-54.978297,-24.883929],[-54.979991,-24.882914],[-54.979371,-24.882247],[-54.979761,-24.881741],[-54.980383,-24.87817],[-54.982093,-24.874822],[-54.983048,-24.874194],[-54.982718,-24.873426],[-54.983124,-24.872822],[-54.982935,-24.871524],[-54.983862,-24.870332],[-54.98559,-24.869412],[-54.986516,-24.867718],[-54.987236,-24.867497],[-54.98884,-24.867623],[-54.990044,-24.8668],[-54.99103,-24.867124],[-54.99184,-24.866508],[-54.993366,-24.866524],[-54.993946,-24.865967],[-54.994828,-24.865708],[-54.995737,-24.865761],[-54.998475,-24.864674],[-55.001684,-24.864356],[-55.004772,-24.863264],[-55.005924,-24.863076],[-55.006618,-24.863605],[-55.008773,-24.860641],[-55.008879,-24.859184],[-55.009345,-24.858717],[-55.009558,-24.85779],[-55.011021,-24.856446],[-55.011569,-24.855085],[-55.012135,-24.854863],[-55.014129,-24.854898],[-55.016156,-24.854221],[-55.017048,-24.852495],[-55.019203,-24.850921],[-55.021031,-24.850359],[-55.022966,-24.850497],[-55.023955,-24.849833],[-55.029041,-24.848298],[-55.025614,-24.830983],[-55.02581,-24.829369],[-55.024989,-24.827657],[-55.024217,-24.824071],[-55.022043,-24.81167],[-55.018405,-24.794604],[-55.010597,-24.754607],[-55.010786,-24.74922],[-55.009654,-24.747765],[-55.009137,-24.746061],[-55.004088,-24.719578],[-55.005909,-24.717955],[-55.006079,-24.715944],[-55.00764,-24.711974],[-55.007721,-24.710684],[-55.007074,-24.710617],[-55.005406,-24.711403],[-55.004679,-24.711375],[-55.002776,-24.71056],[-55.002135,-24.709396],[-54.990389,-24.649646],[-54.990642,-24.641606],[-54.991236,-24.636648],[-54.989374,-24.633003],[-54.987968,-24.625365],[-54.978925,-24.608817],[-54.977275,-24.607265],[-54.966495,-24.602719],[-54.962389,-24.595969],[-54.961707,-24.592421],[-54.962298,-24.588655],[-54.961318,-24.58416],[-54.958552,-24.575947],[-54.957434,-24.574361],[-54.957255,-24.571515],[-54.95653,-24.569239],[-54.955603,-24.568365],[-54.955096,-24.567317],[-54.954006,-24.567378],[-54.95407,-24.566379],[-54.952674,-24.565513],[-54.952513,-24.565143],[-54.951162,-24.565226],[-54.950903,-24.565532],[-54.950074,-24.565342],[-54.949072,-24.565536],[-54.949118,-24.56609],[-54.948095,-24.566357],[-54.947675,-24.565754],[-54.947064,-24.565866],[-54.946698,-24.565417],[-54.946244,-24.565436],[-54.946492,-24.56608],[-54.94572,-24.565301],[-54.945299,-24.565263],[-54.945339,-24.565012],[-54.945025,-24.565052],[-54.945104,-24.564605],[-54.94417,-24.564516],[-54.943852,-24.564788],[-54.943723,-24.564361],[-54.943316,-24.565145],[-54.942893,-24.565245],[-54.942999,-24.565694],[-54.942435,-24.565511],[-54.942188,-24.56577],[-54.94261,-24.566245],[-54.942223,-24.56727],[-54.941463,-24.5675],[-54.940316,-24.568751],[-54.939514,-24.568893],[-54.940153,-24.569506],[-54.938984,-24.570411],[-54.937951,-24.570065],[-54.937807,-24.56959],[-54.936745,-24.568837],[-54.936454,-24.567908],[-54.935782,-24.568318],[-54.935792,-24.569392],[-54.935152,-24.569128],[-54.935339,-24.568865],[-54.935093,-24.568328],[-54.934037,-24.568923],[-54.932151,-24.568388],[-54.931954,-24.568043],[-54.93174,-24.568248],[-54.932,-24.568881],[-54.931144,-24.56868],[-54.930748,-24.569264],[-54.930257,-24.568362],[-54.929556,-24.568429],[-54.929123,-24.568095],[-54.928876,-24.568387],[-54.929334,-24.568862],[-54.928794,-24.569721],[-54.928152,-24.569079],[-54.927878,-24.569738],[-54.927217,-24.569539],[-54.927014,-24.569089],[-54.926461,-24.569038],[-54.926364,-24.56864],[-54.925941,-24.568987],[-54.925945,-24.569442],[-54.925423,-24.569213],[-54.924851,-24.570162],[-54.923415,-24.571307],[-54.921088,-24.571435],[-54.920741,-24.571721],[-54.920288,-24.571449],[-54.919642,-24.572249],[-54.919967,-24.572825],[-54.919003,-24.572633],[-54.919504,-24.573131],[-54.919288,-24.573445],[-54.918933,-24.573516],[-54.918489,-24.573154],[-54.918086,-24.573465],[-54.917807,-24.573235],[-54.917554,-24.573865],[-54.916915,-24.573711],[-54.917082,-24.574208],[-54.91649,-24.574163],[-54.916519,-24.574586],[-54.915782,-24.574405],[-54.915678,-24.574876],[-54.915179,-24.57495],[-54.914159,-24.573869],[-54.913454,-24.57506],[-54.914085,-24.575418],[-54.913452,-24.576163],[-54.912228,-24.576015],[-54.911696,-24.576463],[-54.911956,-24.576819],[-54.911534,-24.577057],[-54.912499,-24.577216],[-54.912215,-24.57763],[-54.911634,-24.577754],[-54.911555,-24.57819],[-54.91116,-24.578257],[-54.912026,-24.579336],[-54.911693,-24.579476],[-54.911914,-24.58032],[-54.911482,-24.580915],[-54.911609,-24.581212],[-54.911971,-24.580958],[-54.91221,-24.581933],[-54.911681,-24.58193],[-54.91149,-24.582626],[-54.912086,-24.58294],[-54.91157,-24.58306],[-54.911706,-24.583764],[-54.911209,-24.583969],[-54.911941,-24.584441],[-54.911801,-24.584912],[-54.911338,-24.585048],[-54.911416,-24.585635],[-54.911099,-24.586053],[-54.911874,-24.586595],[-54.910994,-24.586608],[-54.911043,-24.58726],[-54.910662,-24.587648],[-54.910978,-24.58782],[-54.910955,-24.588231],[-54.912011,-24.588883],[-54.911751,-24.590539],[-54.911337,-24.591154],[-54.910496,-24.591544],[-54.908949,-24.591139],[-54.908485,-24.591292],[-54.909503,-24.594496],[-54.907243,-24.598844],[-54.90693,-24.598989],[-54.906703,-24.598587],[-54.904939,-24.597956],[-54.902557,-24.59847],[-54.902613,-24.598705],[-54.903853,-24.598787],[-54.904317,-24.603268],[-54.904105,-24.604226],[-54.904684,-24.60509],[-54.90424,-24.60589],[-54.903409,-24.606097],[-54.903625,-24.606912],[-54.902744,-24.60778],[-54.90299,-24.609685],[-54.904099,-24.610154],[-54.903774,-24.610985],[-54.90434,-24.61169],[-54.903978,-24.612501],[-54.902104,-24.613227],[-54.899812,-24.613513],[-54.899298,-24.614965],[-54.898716,-24.614245],[-54.898344,-24.614354],[-54.898772,-24.615789],[-54.898264,-24.616728],[-54.898582,-24.618127],[-54.897924,-24.618609],[-54.894924,-24.618279],[-54.894506,-24.617344],[-54.893235,-24.616917],[-54.889766,-24.616327],[-54.888723,-24.616639],[-54.888872,-24.617221],[-54.889703,-24.617322],[-54.889032,-24.617678],[-54.889715,-24.618636],[-54.888519,-24.619012],[-54.888383,-24.619426],[-54.889612,-24.620403],[-54.889664,-24.621492],[-54.890206,-24.622448],[-54.891367,-24.622536],[-54.892345,-24.623253],[-54.893574,-24.623515],[-54.89424,-24.623121],[-54.895365,-24.621372],[-54.896468,-24.621138],[-54.896956,-24.621361],[-54.8982,-24.624086],[-54.898908,-24.629243],[-54.897999,-24.629532],[-54.895774,-24.628802],[-54.895137,-24.629135],[-54.893408,-24.629137],[-54.890397,-24.629872],[-54.889633,-24.630293],[-54.887117,-24.633534],[-54.886387,-24.633375],[-54.886218,-24.633971],[-54.88595,-24.633964],[-54.885174,-24.633633],[-54.88425,-24.632449],[-54.883851,-24.632458],[-54.882142,-24.634087],[-54.880944,-24.634728],[-54.880767,-24.635604],[-54.880129,-24.635404],[-54.878765,-24.635766],[-54.878198,-24.635609],[-54.877825,-24.636023],[-54.877267,-24.635643],[-54.876684,-24.635839],[-54.87659,-24.634475],[-54.875806,-24.634818],[-54.875502,-24.634153],[-54.875115,-24.634766],[-54.875619,-24.635313],[-54.87423,-24.634758],[-54.873971,-24.63561],[-54.873656,-24.635629],[-54.873531,-24.634604],[-54.872313,-24.634736],[-54.872116,-24.634008],[-54.871368,-24.63386],[-54.868954,-24.635139],[-54.867772,-24.63522],[-54.867484,-24.635737],[-54.867016,-24.635749],[-54.866664,-24.635186],[-54.866117,-24.635666],[-54.863996,-24.636264],[-54.863406,-24.637441],[-54.862402,-24.638129],[-54.861486,-24.63938],[-54.861388,-24.640034],[-54.860696,-24.640094],[-54.860469,-24.641421],[-54.860663,-24.642274],[-54.859893,-24.641515],[-54.859322,-24.641613],[-54.858963,-24.642041],[-54.859152,-24.644122],[-54.860362,-24.647119],[-54.860272,-24.647611],[-54.859607,-24.648126],[-54.85965,-24.64922],[-54.859112,-24.649133],[-54.858803,-24.648161],[-54.856261,-24.648674],[-54.856218,-24.649106],[-54.857398,-24.64883],[-54.857537,-24.649017],[-54.857278,-24.649293],[-54.855671,-24.649586],[-54.855208,-24.649589],[-54.854742,-24.64888],[-54.853608,-24.649719],[-54.85262,-24.648915],[-54.851316,-24.650189],[-54.850225,-24.649452],[-54.850224,-24.648663],[-54.847245,-24.649094],[-54.846795,-24.64892],[-54.846816,-24.649752],[-54.846075,-24.650281],[-54.846825,-24.650724],[-54.846653,-24.650982],[-54.845636,-24.651265],[-54.845922,-24.650567],[-54.845075,-24.649853],[-54.84433,-24.650284],[-54.843813,-24.651341],[-54.842455,-24.65194],[-54.841937,-24.65249],[-54.84195,-24.652881],[-54.843575,-24.655141],[-54.843709,-24.656495],[-54.842888,-24.656335],[-54.841865,-24.654884],[-54.841139,-24.654813],[-54.839955,-24.655874],[-54.837707,-24.654401],[-54.83514,-24.656312],[-54.833872,-24.65614],[-54.833369,-24.656393],[-54.832647,-24.658131],[-54.835326,-24.65883],[-54.834381,-24.659662],[-54.834296,-24.660414],[-54.835144,-24.660231],[-54.835632,-24.659076],[-54.83596,-24.658918],[-54.836213,-24.659326],[-54.835737,-24.661565],[-54.837942,-24.662019],[-54.84043,-24.662855],[-54.840684,-24.663212],[-54.840066,-24.664788],[-54.838436,-24.66523],[-54.83604,-24.664935],[-54.835679,-24.665492],[-54.836287,-24.667672],[-54.838543,-24.668783],[-54.83927,-24.66792],[-54.841399,-24.670693],[-54.84148,-24.671322],[-54.840457,-24.673414],[-54.839023,-24.671594],[-54.838765,-24.670316],[-54.836622,-24.669248],[-54.834981,-24.668792],[-54.834018,-24.669178],[-54.833415,-24.669927],[-54.834224,-24.672561],[-54.833955,-24.674561],[-54.832668,-24.675147],[-54.830697,-24.674691],[-54.829274,-24.671918],[-54.830512,-24.669783],[-54.830606,-24.669036],[-54.828473,-24.668857],[-54.82818,-24.668434],[-54.829287,-24.665628],[-54.828986,-24.663861],[-54.825285,-24.663417],[-54.824871,-24.662829],[-54.823637,-24.662831],[-54.823058,-24.662455],[-54.821788,-24.662985],[-54.821539,-24.66353],[-54.822798,-24.66632],[-54.823644,-24.666811],[-54.823409,-24.667161],[-54.822841,-24.667357],[-54.821321,-24.666773],[-54.820886,-24.666882],[-54.820277,-24.667636],[-54.820248,-24.668435],[-54.821639,-24.668623],[-54.819814,-24.669117],[-54.816924,-24.668815],[-54.816088,-24.668049],[-54.81513,-24.667863],[-54.815056,-24.667123],[-54.813186,-24.667603],[-54.81204,-24.66852],[-54.811299,-24.67075],[-54.810557,-24.671284],[-54.811419,-24.672031],[-54.810644,-24.673316],[-54.810209,-24.673426],[-54.809308,-24.672897],[-54.809861,-24.673826],[-54.808207,-24.674174],[-54.806866,-24.676358],[-54.806821,-24.675171],[-54.805326,-24.675382],[-54.805936,-24.674006],[-54.804995,-24.673378],[-54.804762,-24.671864],[-54.8042,-24.672595],[-54.803934,-24.67412],[-54.801468,-24.673182],[-54.801052,-24.673697],[-54.801415,-24.674702],[-54.801272,-24.675072],[-54.800384,-24.674924],[-54.800034,-24.673918],[-54.79903,-24.674341],[-54.797745,-24.675401],[-54.797469,-24.675183],[-54.797628,-24.674233],[-54.796847,-24.6741],[-54.796381,-24.673689],[-54.797276,-24.67168],[-54.796475,-24.669677],[-54.796474,-24.667839],[-54.796174,-24.667289],[-54.795223,-24.666848],[-54.793716,-24.666812],[-54.790177,-24.667597],[-54.78852,-24.666087],[-54.785519,-24.665452],[-54.783841,-24.664258],[-54.782236,-24.661686],[-54.782604,-24.660921],[-54.780816,-24.661183],[-54.781682,-24.659408],[-54.782428,-24.658737],[-54.781644,-24.658462],[-54.780998,-24.657773],[-54.780272,-24.658148],[-54.779905,-24.65781],[-54.779758,-24.658916],[-54.779324,-24.658572],[-54.779684,-24.656609],[-54.78134,-24.655552],[-54.781265,-24.65503],[-54.78077,-24.654709],[-54.780365,-24.653237],[-54.778602,-24.651542],[-54.777068,-24.650992],[-54.776133,-24.649346],[-54.77542,-24.649332],[-54.775118,-24.649957],[-54.774796,-24.650011],[-54.773806,-24.649048],[-54.773158,-24.648988],[-54.772397,-24.648423],[-54.77123,-24.648719],[-54.770878,-24.649573],[-54.77031,-24.649465],[-54.769672,-24.648682],[-54.76926,-24.649637],[-54.768156,-24.649491],[-54.768127,-24.653313],[-54.767234,-24.655465],[-54.767576,-24.655681],[-54.768443,-24.655494],[-54.768301,-24.655991],[-54.76685,-24.655911],[-54.76603,-24.656603],[-54.763635,-24.656867],[-54.762466,-24.65782],[-54.762021,-24.657752],[-54.761967,-24.656867],[-54.761449,-24.656809],[-54.760505,-24.657513],[-54.759842,-24.657301],[-54.759527,-24.657975],[-54.75805,-24.658425],[-54.757133,-24.659198],[-54.751406,-24.660177],[-54.750423,-24.660872],[-54.750186,-24.660708],[-54.751221,-24.659157],[-54.750647,-24.657854],[-54.751155,-24.656764],[-54.750642,-24.656745],[-54.750129,-24.657139],[-54.750219,-24.658718],[-54.749815,-24.659083],[-54.748809,-24.658658],[-54.749295,-24.65813],[-54.749156,-24.657746],[-54.748143,-24.658254],[-54.747045,-24.658108],[-54.747346,-24.657192],[-54.747087,-24.656947],[-54.746139,-24.65752],[-54.745756,-24.658396],[-54.744419,-24.658021],[-54.74423,-24.657065],[-54.744724,-24.655037],[-54.744986,-24.654664],[-54.746089,-24.654474],[-54.745719,-24.653951],[-54.744678,-24.654227],[-54.743882,-24.655121],[-54.742232,-24.655347],[-54.741538,-24.655001],[-54.740752,-24.655081],[-54.740463,-24.654726],[-54.74096,-24.654097],[-54.740031,-24.654009],[-54.739841,-24.653763],[-54.740111,-24.653183],[-54.739201,-24.652973],[-54.7389,-24.652362],[-54.737933,-24.651919],[-54.736298,-24.653554],[-54.73459,-24.653872],[-54.733696,-24.655429],[-54.733251,-24.655648],[-54.732704,-24.655488],[-54.731915,-24.654419],[-54.729626,-24.653294],[-54.728794,-24.65211],[-54.728438,-24.652112],[-54.728164,-24.653184],[-54.729405,-24.654311],[-54.729315,-24.654606],[-54.727106,-24.654217],[-54.725918,-24.654355],[-54.725479,-24.656259],[-54.724634,-24.656934],[-54.724213,-24.658073],[-54.72321,-24.658475],[-54.723619,-24.659801],[-54.725219,-24.65834],[-54.726134,-24.658483],[-54.727115,-24.659717],[-54.72712,-24.660146],[-54.72639,-24.660231],[-54.727364,-24.660926],[-54.727392,-24.661422],[-54.72601,-24.662011],[-54.725206,-24.663067],[-54.727717,-24.664042],[-54.727935,-24.665859],[-54.726825,-24.666502],[-54.725664,-24.666636],[-54.723753,-24.668076],[-54.721338,-24.668142],[-54.72009,-24.669619],[-54.720432,-24.670124],[-54.718524,-24.672956],[-54.720323,-24.676131],[-54.720395,-24.676735],[-54.719191,-24.67769],[-54.718521,-24.676894],[-54.718179,-24.676902],[-54.715629,-24.678457],[-54.714256,-24.67874],[-54.713508,-24.679313],[-54.713262,-24.679131],[-54.714158,-24.677948],[-54.714091,-24.677621],[-54.713593,-24.6776],[-54.71275,-24.67827],[-54.712442,-24.678042],[-54.7124,-24.677062],[-54.711744,-24.677225],[-54.71142,-24.67823],[-54.712261,-24.680028],[-54.710657,-24.679881],[-54.710494,-24.680286],[-54.710991,-24.680997],[-54.710055,-24.680413],[-54.709208,-24.680322],[-54.708091,-24.680607],[-54.706714,-24.681428],[-54.706668,-24.681958],[-54.707839,-24.682684],[-54.706224,-24.683513],[-54.706518,-24.684779],[-54.706108,-24.684862],[-54.705733,-24.683997],[-54.705375,-24.683835],[-54.703527,-24.684733],[-54.703231,-24.685861],[-54.70248,-24.685158],[-54.702173,-24.685259],[-54.702051,-24.685905],[-54.701359,-24.686369],[-54.700443,-24.690026],[-54.699794,-24.690413],[-54.698789,-24.690302],[-54.698451,-24.689058],[-54.697464,-24.68892],[-54.696942,-24.689063],[-54.696463,-24.689865],[-54.695613,-24.69027],[-54.691061,-24.690697],[-54.689661,-24.690089],[-54.687385,-24.688325],[-54.687099,-24.687969],[-54.68704,-24.68583],[-54.68663,-24.684596],[-54.68728,-24.683429],[-54.684948,-24.682746],[-54.685241,-24.682415],[-54.686301,-24.682236],[-54.686936,-24.680885],[-54.685989,-24.680569],[-54.684321,-24.681285],[-54.683128,-24.680067],[-54.683882,-24.677941],[-54.684598,-24.677221],[-54.683785,-24.676249],[-54.684131,-24.675055],[-54.68316,-24.675391],[-54.682903,-24.675058],[-54.683102,-24.673549],[-54.684199,-24.673008],[-54.683119,-24.67197],[-54.682078,-24.672473],[-54.680794,-24.671209],[-54.677493,-24.672408],[-54.676247,-24.67173],[-54.675108,-24.672918],[-54.67323,-24.673709],[-54.672012,-24.67028],[-54.671303,-24.669946],[-54.670386,-24.67035],[-54.668222,-24.673073],[-54.667437,-24.673251],[-54.66583,-24.672645],[-54.665696,-24.673313],[-54.666924,-24.674253],[-54.666557,-24.674632],[-54.665725,-24.674675],[-54.665396,-24.674318],[-54.665249,-24.673027],[-54.665947,-24.67128],[-54.665681,-24.670829],[-54.66381,-24.669991],[-54.663751,-24.668545],[-54.663248,-24.668682],[-54.662686,-24.669962],[-54.659542,-24.66767],[-54.658504,-24.667308],[-54.657282,-24.667998],[-54.656144,-24.666808],[-54.654509,-24.667726],[-54.653372,-24.671317],[-54.653196,-24.678129],[-54.65249,-24.678358],[-54.647905,-24.677837],[-54.645496,-24.678441],[-54.645442,-24.678907],[-54.646206,-24.680489],[-54.645517,-24.68225],[-54.647953,-24.683397],[-54.647709,-24.683818],[-54.646773,-24.683643],[-54.643058,-24.684722],[-54.642488,-24.685808],[-54.642599,-24.686779],[-54.643018,-24.688042],[-54.643666,-24.688889],[-54.644404,-24.689061],[-54.645052,-24.688304],[-54.646807,-24.687913],[-54.64859,-24.686866],[-54.650528,-24.688592],[-54.653299,-24.688977],[-54.654064,-24.689324],[-54.655422,-24.691821],[-54.654504,-24.693558],[-54.654954,-24.698043],[-54.655907,-24.698936],[-54.657861,-24.699844],[-54.6588,-24.70002],[-54.659369,-24.699627],[-54.660415,-24.700785],[-54.660843,-24.700634],[-54.66047,-24.699739],[-54.661891,-24.699102],[-54.663511,-24.699516],[-54.666083,-24.698883],[-54.666773,-24.698312],[-54.667546,-24.698288],[-54.668986,-24.697439],[-54.669912,-24.697697],[-54.67143,-24.695121],[-54.672283,-24.695035],[-54.673327,-24.693945],[-54.674635,-24.693537],[-54.674618,-24.692833],[-54.675364,-24.693336],[-54.676221,-24.692582],[-54.678987,-24.694056],[-54.679726,-24.693765],[-54.680545,-24.694102],[-54.681481,-24.693381],[-54.681982,-24.693353],[-54.682689,-24.694384],[-54.685177,-24.695708],[-54.687403,-24.697841],[-54.689525,-24.698434],[-54.691514,-24.700031],[-54.69284,-24.700466],[-54.694059,-24.700088],[-54.696171,-24.70031],[-54.697558,-24.701744],[-54.698044,-24.702713],[-54.699133,-24.710921],[-54.699457,-24.711878],[-54.700698,-24.713612],[-54.702299,-24.713993],[-54.704305,-24.716299],[-54.707957,-24.718539],[-54.70839,-24.719457],[-54.70793,-24.720018],[-54.710194,-24.722992],[-54.712016,-24.723734],[-54.714724,-24.724334],[-54.714407,-24.72495],[-54.71525,-24.725304],[-54.715439,-24.726083],[-54.717485,-24.72923],[-54.720995,-24.730762],[-54.722269,-24.731743],[-54.723884,-24.733768],[-54.728498,-24.748041],[-54.72835,-24.748691],[-54.727554,-24.749517],[-54.727738,-24.749932],[-54.72729,-24.751744],[-54.72725,-24.753941],[-54.727737,-24.754554],[-54.728634,-24.755402],[-54.730772,-24.756495],[-54.731772,-24.756283],[-54.733114,-24.75547],[-54.735167,-24.756713],[-54.738658,-24.756387],[-54.740143,-24.756864],[-54.743544,-24.756991],[-54.745278,-24.757472],[-54.74676,-24.758101],[-54.748602,-24.75953],[-54.750011,-24.759627],[-54.751741,-24.760335],[-54.756598,-24.763881],[-54.756335,-24.766166],[-54.74611,-24.767501],[-54.741914,-24.767768],[-54.735839,-24.770036],[-54.734549,-24.771217],[-54.728797,-24.779507],[-54.726179,-24.78097],[-54.72288,-24.782277],[-54.712595,-24.781148],[-54.689185,-24.779948],[-54.680528,-24.783587],[-54.675909,-24.784039],[-54.675467,-24.783829],[-54.674136,-24.781479],[-54.668689,-24.78009],[-54.667489,-24.778027],[-54.666773,-24.775872],[-54.665415,-24.775057],[-54.66656,-24.780576],[-54.666376,-24.781268],[-54.666836,-24.782268],[-54.670679,-24.800399],[-54.68266,-24.859725],[-54.686553,-24.858781],[-54.687588,-24.858169],[-54.688632,-24.856827],[-54.689469,-24.854773],[-54.690022,-24.852241],[-54.691595,-24.849909],[-54.692893,-24.84881],[-54.693905,-24.847381],[-54.693274,-24.844081],[-54.693811,-24.842424],[-54.694369,-24.841869],[-54.695079,-24.84192],[-54.6953,-24.843187],[-54.696646,-24.845041],[-54.696456,-24.845827],[-54.695798,-24.846241],[-54.695576,-24.846771],[-54.69561,-24.847055],[-54.696406,-24.847474],[-54.695387,-24.848438],[-54.695323,-24.848834],[-54.696665,-24.849256],[-54.698698,-24.850583],[-54.698319,-24.851439],[-54.694354,-24.855805],[-54.693011,-24.85689],[-54.692377,-24.858668],[-54.690832,-24.859881],[-54.69007,-24.861485],[-54.689049,-24.862507],[-54.687494,-24.863629],[-54.685352,-24.864634],[-54.683902,-24.864981],[-54.681112,-24.865037],[-54.679752,-24.86586],[-54.678056,-24.86819],[-54.678192,-24.870087],[-54.679185,-24.871872],[-54.680424,-24.872252],[-54.681928,-24.87321],[-54.684627,-24.873356],[-54.68803,-24.870538],[-54.694905,-24.86614],[-54.703899,-24.858809],[-54.704519,-24.858106],[-54.705587,-24.855739],[-54.707157,-24.854224],[-54.710614,-24.852472],[-54.711609,-24.8514],[-54.713113,-24.851242],[-54.717174,-24.849458],[-54.718373,-24.848068],[-54.718572,-24.846925],[-54.721266,-24.845901],[-54.721876,-24.845391],[-54.72399,-24.842914],[-54.724419,-24.841039],[-54.724144,-24.83862],[-54.724557,-24.839064],[-54.725946,-24.843833],[-54.72896,-24.842872],[-54.729404,-24.843046],[-54.730493,-24.844448],[-54.731274,-24.844614],[-54.731699,-24.845094],[-54.734,-24.845255],[-54.73542,-24.844216],[-54.735769,-24.843012],[-54.737536,-24.840425],[-54.738649,-24.8406],[-54.739654,-24.840227],[-54.74089,-24.837877],[-54.741011,-24.83823],[-54.740938,-24.839006],[-54.740233,-24.839604],[-54.739767,-24.840536],[-54.738961,-24.84112],[-54.737868,-24.841396],[-54.738152,-24.841996],[-54.737582,-24.843608],[-54.738514,-24.845522],[-54.738346,-24.846034],[-54.736702,-24.846871],[-54.737188,-24.846947],[-54.737166,-24.847208],[-54.735113,-24.847872],[-54.732999,-24.84793],[-54.728337,-24.846826],[-54.725211,-24.847911],[-54.723457,-24.847938],[-54.721755,-24.848359],[-54.719618,-24.850186],[-54.719207,-24.85101],[-54.71922,-24.852292],[-54.718235,-24.853491],[-54.716541,-24.854901],[-54.715081,-24.856639],[-54.713013,-24.857672],[-54.710993,-24.859212],[-54.710246,-24.861615],[-54.709301,-24.862814],[-54.708727,-24.864191],[-54.70753,-24.865274],[-54.705845,-24.867861],[-54.704466,-24.868878],[-54.704001,-24.870153],[-54.704007,-24.871742],[-54.704801,-24.873645],[-54.707356,-24.875656],[-54.708068,-24.875595],[-54.709236,-24.87448],[-54.711062,-24.875],[-54.711368,-24.874242],[-54.71222,-24.874973],[-54.713227,-24.874731],[-54.714294,-24.873687],[-54.716885,-24.872918],[-54.717539,-24.871687],[-54.719233,-24.870901],[-54.720231,-24.868456],[-54.720628,-24.866097],[-54.723444,-24.86243],[-54.727083,-24.860175],[-54.72768,-24.859507],[-54.730109,-24.858344],[-54.731511,-24.857196],[-54.736352,-24.855694],[-54.737204,-24.854999],[-54.742625,-24.855315],[-54.74586,-24.856822],[-54.749221,-24.856719],[-54.750846,-24.856152],[-54.751942,-24.855311],[-54.753072,-24.853176],[-54.75442,-24.853065],[-54.755083,-24.853905],[-54.756048,-24.85392],[-54.757477,-24.854424],[-54.760045,-24.852784],[-54.762952,-24.852128],[-54.765188,-24.85208],[-54.766293,-24.85262],[-54.768166,-24.854648],[-54.769375,-24.855144],[-54.77177,-24.854792],[-54.772918,-24.854276],[-54.773481,-24.853405],[-54.77402,-24.851476],[-54.775373,-24.850662],[-54.776103,-24.84977],[-54.775874,-24.851657],[-54.776671,-24.852762],[-54.777796,-24.852783],[-54.778627,-24.852375],[-54.779753,-24.852699],[-54.780811,-24.852611],[-54.781592,-24.85311],[-54.782624,-24.853265],[-54.784355,-24.852957],[-54.787101,-24.851914],[-54.789789,-24.852604],[-54.79097,-24.852577],[-54.793167,-24.849996],[-54.794563,-24.848983],[-54.794111,-24.851143],[-54.794205,-24.855098],[-54.793743,-24.856422],[-54.79418,-24.857647],[-54.795228,-24.858385],[-54.795517,-24.859572],[-54.794934,-24.861346],[-54.794234,-24.861476],[-54.79374,-24.862096],[-54.791493,-24.863164],[-54.790515,-24.864016],[-54.790626,-24.864519],[-54.791455,-24.864847],[-54.793995,-24.86446],[-54.795624,-24.864895],[-54.795875,-24.865381],[-54.795164,-24.866414],[-54.795728,-24.866449],[-54.796846,-24.865143],[-54.798089,-24.864326],[-54.798283,-24.863819],[-54.798029,-24.863305],[-54.798346,-24.863197],[-54.79904,-24.863492],[-54.798973,-24.864425],[-54.80025,-24.865911],[-54.801809,-24.866345],[-54.802891,-24.865498],[-54.802963,-24.866849],[-54.803633,-24.867504],[-54.802906,-24.867764],[-54.802772,-24.868467],[-54.80354,-24.868487],[-54.805274,-24.869162],[-54.804838,-24.869837],[-54.804053,-24.869496],[-54.803489,-24.870468],[-54.804874,-24.871779],[-54.805019,-24.873212],[-54.805588,-24.873049],[-54.807061,-24.871247],[-54.808829,-24.870582],[-54.809161,-24.87112],[-54.809517,-24.871125],[-54.810294,-24.870716],[-54.810361,-24.869941],[-54.810818,-24.869817],[-54.812466,-24.870825],[-54.813553,-24.870963],[-54.81356,-24.871288],[-54.812546,-24.872081],[-54.812959,-24.872584],[-54.814845,-24.872986],[-54.815149,-24.872494],[-54.81503,-24.87149],[-54.815286,-24.871304],[-54.815395,-24.872114],[-54.816708,-24.872882],[-54.816906,-24.873982],[-54.817436,-24.87385],[-54.817865,-24.872822],[-54.818624,-24.872296],[-54.8192,-24.872625],[-54.819011,-24.873588],[-54.819357,-24.874049],[-54.821516,-24.874704],[-54.82388,-24.874937],[-54.825368,-24.87573],[-54.826197,-24.875855],[-54.826719,-24.876923],[-54.827677,-24.877732],[-54.828165,-24.8775],[-54.828097,-24.876483],[-54.828365,-24.876361],[-54.828812,-24.877541],[-54.828442,-24.878321],[-54.828586,-24.878639],[-54.831218,-24.87907],[-54.831988,-24.880002],[-54.832797,-24.880356],[-54.834108,-24.883296],[-54.834929,-24.883836],[-54.83636,-24.884186],[-54.837013,-24.885351],[-54.837844,-24.885706],[-54.837854,-24.889818],[-54.838777,-24.894137],[-54.840203,-24.896026],[-54.844966,-24.89897],[-54.847085,-24.899624],[-54.848972,-24.900924],[-54.849593,-24.902057],[-54.851914,-24.903598],[-54.852389,-24.905541],[-54.852781,-24.906016],[-54.854491,-24.906636],[-54.855267,-24.906444],[-54.856041,-24.906798],[-54.857272,-24.906712],[-54.857987,-24.906321],[-54.860126,-24.907313],[-54.8613,-24.907104],[-54.864504,-24.909411],[-54.864277,-24.910695],[-54.865177,-24.913871],[-54.866183,-24.915019],[-54.866541,-24.916184],[-54.866035,-24.919377],[-54.866281,-24.920928],[-54.866858,-24.92174],[-54.868091,-24.922417],[-54.869289,-24.924564],[-54.870651,-24.92536],[-54.871678,-24.926783],[-54.872685,-24.927389],[-54.877654,-24.928895],[-54.878588,-24.9288],[-54.879985,-24.929379],[-54.882628,-24.931683],[-54.88863,-24.935677],[-54.888928,-24.936715],[-54.891299,-24.938567],[-54.892966,-24.939322],[-54.895091,-24.939397],[-54.896769,-24.940436],[-54.899018,-24.943808]]]}}]}
