{"type":"FeatureCollection","name":"distrito","features":[{"type":"Feature","properties":{"clave":"1-8","nombre":"San Alfredo"},"geometry":{"type":"Polygon","coordinates":[[[-57.501587,-22.934656],[-57.50287,-22.934838],[-57.507037,-22.934382],[-57.508963,-22.934728],[-57.510932,-22.936058],[-57.51166,-22.937836],[-57.512141,-22.937852],[-57.512258,-22.936998],[-57.512619,-22.937033],[-57.512744,-22.93837],[-57.513551,-22.939632],[-57.513533,-22.940259],[-57.514535,-22.940202],[-57.515332,-22.938921],[-57.515893,-22.938879],[-57.515721,-22.94107],[-57.516205,-22.94185],[-57.517288,-22.941995],[-57.517888,-22.941844],[-57.518088,-22.941491],[-57.51883,-22.941674],[-57.51935,-22.941451],[-57.520677,-22.942576],[-57.522363,-22.94313],[-57.523508,-22.943885],[-57.525313,-22.943897],[-57.528221,-22.944484],[-57.532727,-22.943353],[-57.533231,-22.944282],[-57.532814,-22.945246],[-57.534039,-22.94595],[-57.532803,-22.947626],[-57.533068,-22.948587],[-57.534694,-22.949345],[-57.538222,-22.949351],[-57.538948,-22.95046],[-57.538872,-22.951462],[-57.539498,-22.952594],[-57.541662,-22.952474],[-57.542562,-22.951879],[-57.546185,-22.950697],[-57.547972,-22.951395],[-57.550797,-22.951051],[-57.551655,-22.950158],[-57.552199,-22.950807],[-57.553201,-22.950822],[-57.554478,-22.949295],[-57.557603,-22.948801],[-57.559086,-22.94885],[-57.560322,-22.947251],[-57.561123,-22.946968],[-57.564089,-22.946809],[-57.566938,-22.947413],[-57.568955,-22.945752],[-57.569337,-22.946031],[-57.56932,-22.946718],[-57.569983,-22.947068],[-57.571985,-22.946505],[-57.574632,-22.946735],[-57.576122,-22.948436],[-57.578389,-22.948839],[-57.579133,-22.949279],[-57.579557,-22.950023],[-57.581443,-22.950553],[-57.582368,-22.951142],[-57.582797,-22.953222],[-57.58531,-22.95492],[-57.585981,-22.957072],[-57.587045,-22.957308],[-57.586927,-22.958049],[-57.58797,-22.958104],[-57.587693,-22.958863],[-57.587895,-22.959233],[-57.589256,-22.958916],[-57.589662,-22.960026],[-57.590548,-22.960935],[-57.591971,-22.960912],[-57.591956,-22.96191],[-57.592836,-22.961572],[-57.593559,-22.961868],[-57.593622,-22.962536],[-57.594567,-22.963201],[-57.593673,-22.96497],[-57.593599,-22.966344],[-57.594122,-22.966694],[-57.594623,-22.966782],[-57.595163,-22.966446],[-57.595419,-22.965334],[-57.598325,-22.965377],[-57.598844,-22.964743],[-57.598901,-22.963948],[-57.599582,-22.963999],[-57.600025,-22.964332],[-57.599771,-22.965801],[-57.600276,-22.96682],[-57.599921,-22.96814],[-57.600844,-22.968304],[-57.602142,-22.96698],[-57.603084,-22.967085],[-57.603729,-22.967791],[-57.603233,-22.96894],[-57.603461,-22.970647],[-57.605267,-22.971105],[-57.606434,-22.972103],[-57.607278,-22.972344],[-57.607656,-22.971728],[-57.608416,-22.971463],[-57.609361,-22.971925],[-57.610281,-22.971533],[-57.61369,-22.9718],[-57.614689,-22.970938],[-57.615633,-22.971458],[-57.616152,-22.970788],[-57.616736,-22.971341],[-57.617593,-22.970389],[-57.618015,-22.970555],[-57.618018,-22.971187],[-57.618319,-22.971186],[-57.618638,-22.970945],[-57.618815,-22.97005],[-57.621174,-22.969923],[-57.62139,-22.970117],[-57.621011,-22.971062],[-57.61964,-22.971759],[-57.619666,-22.972684],[-57.61906,-22.972664],[-57.618907,-22.972994],[-57.618922,-22.973378],[-57.619379,-22.973629],[-57.620039,-22.973686],[-57.620715,-22.973231],[-57.621617,-22.973987],[-57.621773,-22.975192],[-57.620327,-22.976083],[-57.620177,-22.97682],[-57.623248,-22.975769],[-57.623552,-22.975998],[-57.623471,-22.976757],[-57.623954,-22.977704],[-57.625339,-22.977996],[-57.625752,-22.977331],[-57.626234,-22.977392],[-57.626659,-22.978077],[-57.626134,-22.97868],[-57.6279,-22.979824],[-57.62831,-22.979841],[-57.629248,-22.977823],[-57.630854,-22.977816],[-57.630388,-22.979354],[-57.630648,-22.980125],[-57.632604,-22.979729],[-57.639234,-22.983261],[-57.642419,-22.983303],[-57.643891,-22.984403],[-57.644291,-22.984252],[-57.644613,-22.983483],[-57.64539,-22.983399],[-57.647214,-22.984489],[-57.647358,-22.985252],[-57.648114,-22.985908],[-57.647759,-22.986411],[-57.649278,-22.986594],[-57.650561,-22.98765],[-57.651409,-22.987828],[-57.651128,-22.988267],[-57.651346,-22.98846],[-57.652237,-22.988764],[-57.651763,-22.989095],[-57.652448,-22.989955],[-57.652156,-22.9903],[-57.653453,-22.991012],[-57.652905,-22.991656],[-57.652989,-22.992071],[-57.653604,-22.992258],[-57.654171,-22.991493],[-57.655589,-22.99132],[-57.656371,-22.991727],[-57.655559,-22.992304],[-57.655734,-22.992733],[-57.656677,-22.992593],[-57.657012,-22.991951],[-57.65732,-22.992112],[-57.657669,-22.99328],[-57.656531,-22.99473],[-57.656619,-22.995082],[-57.658469,-22.9939],[-57.658424,-22.992965],[-57.659645,-22.993136],[-57.659979,-22.992209],[-57.659281,-22.992181],[-57.658781,-22.990733],[-57.658972,-22.990416],[-57.659543,-22.990382],[-57.660141,-22.991445],[-57.661064,-22.99216],[-57.660545,-22.993752],[-57.661163,-22.995235],[-57.660916,-22.995692],[-57.662891,-22.995783],[-57.662294,-22.996766],[-57.663655,-22.996489],[-57.665783,-22.998296],[-57.668349,-22.998759],[-57.668654,-22.998704],[-57.66874,-22.997773],[-57.669122,-22.997433],[-57.670047,-22.997636],[-57.671691,-22.997435],[-57.67216,-22.997935],[-57.672602,-23.000534],[-57.673503,-23.001601],[-57.674898,-23.002074],[-57.676057,-23.001915],[-57.676683,-23.001221],[-57.675952,-23.000177],[-57.676754,-23.000106],[-57.678352,-23.001318],[-57.678898,-23.002842],[-57.680602,-23.004262],[-57.683671,-23.004719],[-57.684556,-23.003622],[-57.685064,-23.00343],[-57.685321,-23.004829],[-57.6849,-23.005355],[-57.685041,-23.005697],[-57.685962,-23.005454],[-57.685745,-23.004854],[-57.686003,-23.004216],[-57.687935,-23.003639],[-57.68844,-23.004134],[-57.688066,-23.004781],[-57.68824,-23.005517],[-57.687764,-23.006196],[-57.688392,-23.006193],[-57.689171,-23.005657],[-57.689172,-23.004361],[-57.690243,-23.002581],[-57.690984,-23.002578],[-57.691365,-23.003841],[-57.692909,-23.00406],[-57.693518,-23.003429],[-57.694115,-23.002036],[-57.694913,-23.001526],[-57.696008,-23.001765],[-57.696925,-23.002972],[-57.698741,-23.003375],[-57.699814,-23.002458],[-57.6995,-23.000662],[-57.699893,-23.000461],[-57.701429,-23.001186],[-57.702804,-23.001392],[-57.703297,-23.003319],[-57.702893,-23.003718],[-57.701467,-23.003724],[-57.700908,-23.004016],[-57.699872,-23.006735],[-57.700173,-23.007406],[-57.701504,-23.00773],[-57.702732,-23.007675],[-57.703652,-23.008186],[-57.705623,-23.007843],[-57.707061,-23.007972],[-57.707968,-23.008731],[-57.709217,-23.009254],[-57.711483,-23.009488],[-57.714601,-23.010869],[-57.716424,-23.01115],[-57.717268,-23.012813],[-57.71965,-23.014062],[-57.72337,-23.013964],[-57.725884,-23.015059],[-57.727434,-23.015264],[-57.730764,-23.015036],[-57.733011,-23.014163],[-57.737507,-23.013867],[-57.742737,-23.01203],[-57.748336,-23.011674],[-57.750416,-23.012135],[-57.752543,-23.013927],[-57.753942,-23.016154],[-57.755873,-23.022309],[-57.755626,-23.024077],[-57.754248,-23.027142],[-57.753383,-23.030137],[-57.747479,-23.038117],[-57.742702,-23.046295],[-57.738619,-23.051751],[-57.738205,-23.055215],[-57.743562,-23.051443],[-57.74952,-23.048068],[-57.756302,-23.043063],[-57.759481,-23.040297],[-57.763429,-23.037758],[-57.767183,-23.035906],[-57.770396,-23.034929],[-57.773589,-23.034592],[-57.776687,-23.03506],[-57.779188,-23.035071],[-57.782972,-23.034338],[-57.784799,-23.033485],[-57.786599,-23.032143],[-57.788395,-23.030075],[-57.789818,-23.027796],[-57.790833,-23.023505],[-57.79062,-23.021009],[-57.789651,-23.016203],[-57.788018,-23.012061],[-57.784939,-23.006277],[-57.780579,-23.000409],[-57.777725,-22.995889],[-57.773013,-22.986874],[-57.770601,-22.982939],[-57.766588,-22.97776],[-57.765863,-22.976363],[-57.765954,-22.971237],[-57.767394,-22.965291],[-57.768894,-22.962849],[-57.771625,-22.959886],[-57.778089,-22.955058],[-57.782562,-22.950353],[-57.789877,-22.941428],[-57.798847,-22.93359],[-57.794781,-22.933121],[-57.789444,-22.933937],[-57.785272,-22.93532],[-57.780876,-22.938209],[-57.777409,-22.941166],[-57.775184,-22.94469],[-57.772494,-22.948145],[-57.769573,-22.951672],[-57.767722,-22.953044],[-57.764787,-22.954176],[-57.757296,-22.9549],[-57.750618,-22.956882],[-57.744069,-22.959953],[-57.740739,-22.962665],[-57.73865,-22.965887],[-57.737863,-22.969102],[-57.729014,-22.965743],[-57.726683,-22.964076],[-57.723162,-22.96012],[-57.72121,-22.957132],[-57.721618,-22.955237],[-57.722232,-22.954245],[-57.725041,-22.952396],[-57.725332,-22.951922],[-57.724952,-22.950346],[-57.724174,-22.949475],[-57.718235,-22.944999],[-57.715721,-22.943992],[-57.714068,-22.94172],[-57.713299,-22.939687],[-57.713818,-22.938322],[-57.714887,-22.938375],[-57.718653,-22.942144],[-57.720066,-22.942854],[-57.720778,-22.942851],[-57.721071,-22.942563],[-57.721146,-22.942032],[-57.719981,-22.93851],[-57.720171,-22.936229],[-57.719501,-22.932518],[-57.718676,-22.931733],[-57.717887,-22.931851],[-57.7166,-22.934381],[-57.715287,-22.935046],[-57.714374,-22.935022],[-57.710931,-22.933947],[-57.709907,-22.933479],[-57.709112,-22.932392],[-57.709337,-22.928089],[-57.708927,-22.926657],[-57.707478,-22.924857],[-57.707426,-22.923853],[-57.708844,-22.922657],[-57.710393,-22.919811],[-57.711627,-22.918902],[-57.713573,-22.918205],[-57.714914,-22.917066],[-57.715019,-22.916348],[-57.71421,-22.915692],[-57.711947,-22.915129],[-57.709017,-22.916179],[-57.70855,-22.915674],[-57.708285,-22.914318],[-57.707838,-22.913785],[-57.705235,-22.912014],[-57.705246,-22.911536],[-57.706118,-22.910683],[-57.706167,-22.910074],[-57.705111,-22.907868],[-57.705186,-22.907413],[-57.706332,-22.907145],[-57.707457,-22.907429],[-57.708238,-22.908638],[-57.709189,-22.908476],[-57.710069,-22.907621],[-57.709795,-22.906403],[-57.707395,-22.904368],[-57.706594,-22.904192],[-57.705473,-22.904389],[-57.704201,-22.905302],[-57.703811,-22.904169],[-57.703146,-22.903981],[-57.702043,-22.905223],[-57.701661,-22.904934],[-57.701498,-22.903271],[-57.701116,-22.90333],[-57.701069,-22.904172],[-57.700743,-22.9044],[-57.700408,-22.903401],[-57.700047,-22.903271],[-57.698745,-22.903558],[-57.698862,-22.904979],[-57.698152,-22.904869],[-57.698052,-22.901649],[-57.699145,-22.901058],[-57.699259,-22.900652],[-57.697725,-22.898322],[-57.697729,-22.897844],[-57.699963,-22.89636],[-57.700497,-22.894714],[-57.699129,-22.894271],[-57.698983,-22.892971],[-57.698683,-22.8927],[-57.697194,-22.892721],[-57.697515,-22.89121],[-57.697342,-22.890716],[-57.696924,-22.89061],[-57.696712,-22.891554],[-57.695429,-22.891886],[-57.696004,-22.893106],[-57.695913,-22.893475],[-57.695375,-22.893471],[-57.694744,-22.892656],[-57.693789,-22.892811],[-57.69435,-22.893593],[-57.694011,-22.895262],[-57.693315,-22.89543],[-57.692833,-22.89279],[-57.693902,-22.883701],[-57.69241,-22.879513],[-57.690942,-22.87835],[-57.687727,-22.877654],[-57.685539,-22.87813],[-57.685111,-22.877616],[-57.684527,-22.874517],[-57.684951,-22.874264],[-57.68553,-22.874717],[-57.687616,-22.873871],[-57.687892,-22.873568],[-57.68758,-22.872824],[-57.687871,-22.872497],[-57.688956,-22.873649],[-57.689082,-22.872284],[-57.688176,-22.872103],[-57.687899,-22.871738],[-57.689072,-22.870545],[-57.687502,-22.870778],[-57.68745,-22.870431],[-57.688136,-22.869962],[-57.687401,-22.868949],[-57.68462,-22.867651],[-57.683976,-22.868521],[-57.682938,-22.868589],[-57.683515,-22.869743],[-57.681066,-22.869604],[-57.681475,-22.870763],[-57.681006,-22.870905],[-57.678369,-22.869277],[-57.678526,-22.868902],[-57.679427,-22.8693],[-57.679778,-22.869],[-57.67908,-22.866523],[-57.678425,-22.866404],[-57.676965,-22.866754],[-57.675066,-22.866518],[-57.673194,-22.865243],[-57.672078,-22.864028],[-57.670851,-22.863812],[-57.669312,-22.863069],[-57.668772,-22.862529],[-57.668714,-22.861915],[-57.669533,-22.861623],[-57.670658,-22.861758],[-57.670984,-22.861391],[-57.668474,-22.858434],[-57.66804,-22.856972],[-57.668388,-22.853963],[-57.669634,-22.853407],[-57.669636,-22.852801],[-57.668447,-22.852012],[-57.667656,-22.852959],[-57.66771,-22.852019],[-57.667165,-22.851881],[-57.667219,-22.852518],[-57.666795,-22.852547],[-57.666185,-22.851569],[-57.662614,-22.851742],[-57.662335,-22.851436],[-57.663109,-22.851397],[-57.663231,-22.851153],[-57.662245,-22.850579],[-57.661944,-22.850729],[-57.661725,-22.851529],[-57.661094,-22.850958],[-57.660249,-22.851233],[-57.660192,-22.850081],[-57.659273,-22.8506],[-57.658201,-22.848893],[-57.657829,-22.84889],[-57.657846,-22.849567],[-57.657392,-22.849343],[-57.656564,-22.847346],[-57.654705,-22.847629],[-57.654191,-22.847369],[-57.654185,-22.846664],[-57.653156,-22.846894],[-57.652456,-22.84585],[-57.65072,-22.845414],[-57.650701,-22.845017],[-57.651438,-22.844729],[-57.651107,-22.843823],[-57.652013,-22.842342],[-57.651786,-22.842067],[-57.651269,-22.842562],[-57.650973,-22.842464],[-57.651395,-22.84169],[-57.650357,-22.840352],[-57.649383,-22.840311],[-57.648954,-22.840981],[-57.647991,-22.840945],[-57.647636,-22.840625],[-57.647363,-22.839321],[-57.644993,-22.839891],[-57.644549,-22.840539],[-57.643778,-22.840519],[-57.640586,-22.839552],[-57.640436,-22.839214],[-57.640764,-22.839054],[-57.641906,-22.839298],[-57.641493,-22.838631],[-57.639812,-22.838625],[-57.640206,-22.840362],[-57.639353,-22.840198],[-57.639521,-22.841467],[-57.639287,-22.841599],[-57.638515,-22.841001],[-57.63835,-22.841521],[-57.638908,-22.842011],[-57.637378,-22.842586],[-57.637634,-22.843769],[-57.636612,-22.843529],[-57.63591,-22.844277],[-57.635485,-22.843931],[-57.635147,-22.842785],[-57.634115,-22.842947],[-57.631813,-22.841014],[-57.631254,-22.840005],[-57.631819,-22.839858],[-57.631948,-22.839424],[-57.630737,-22.838814],[-57.630509,-22.838147],[-57.630157,-22.838189],[-57.629923,-22.83884],[-57.629285,-22.838802],[-57.629012,-22.838428],[-57.629159,-22.837687],[-57.628578,-22.837481],[-57.628219,-22.836787],[-57.626507,-22.836306],[-57.626037,-22.835554],[-57.625358,-22.835267],[-57.625044,-22.83451],[-57.624063,-22.835449],[-57.623584,-22.835473],[-57.623171,-22.835041],[-57.624072,-22.832657],[-57.624779,-22.832713],[-57.625711,-22.832262],[-57.626427,-22.830634],[-57.626314,-22.830313],[-57.625111,-22.829722],[-57.625299,-22.82894],[-57.624726,-22.828454],[-57.625206,-22.827947],[-57.625213,-22.826736],[-57.624722,-22.826164],[-57.624444,-22.824851],[-57.624683,-22.823581],[-57.625569,-22.823288],[-57.624881,-22.822397],[-57.625217,-22.822116],[-57.625699,-22.822547],[-57.626461,-22.822291],[-57.626559,-22.821979],[-57.625868,-22.821594],[-57.625733,-22.820862],[-57.626678,-22.820985],[-57.626807,-22.820578],[-57.626283,-22.820052],[-57.624697,-22.819597],[-57.623825,-22.817862],[-57.623767,-22.816606],[-57.622705,-22.816258],[-57.622949,-22.815011],[-57.621499,-22.814696],[-57.621418,-22.814009],[-57.620403,-22.813566],[-57.621084,-22.812868],[-57.620271,-22.812501],[-57.620704,-22.811176],[-57.620267,-22.810803],[-57.620363,-22.810256],[-57.619148,-22.80984],[-57.620221,-22.8091],[-57.620263,-22.808617],[-57.618326,-22.808064],[-57.619348,-22.806551],[-57.618202,-22.805404],[-57.618566,-22.80398],[-57.617889,-22.803635],[-57.617357,-22.804274],[-57.617335,-22.802598],[-57.616243,-22.802232],[-57.616467,-22.801301],[-57.616097,-22.800232],[-57.615197,-22.800542],[-57.615181,-22.799639],[-57.61439,-22.798906],[-57.613878,-22.799025],[-57.613906,-22.799509],[-57.613508,-22.799926],[-57.613003,-22.799914],[-57.613157,-22.799146],[-57.611868,-22.798943],[-57.611865,-22.798387],[-57.610841,-22.797041],[-57.611057,-22.796439],[-57.610222,-22.795494],[-57.609816,-22.795459],[-57.609007,-22.79614],[-57.60848,-22.796047],[-57.608888,-22.794844],[-57.609893,-22.794325],[-57.609898,-22.793874],[-57.609049,-22.793276],[-57.608998,-22.79408],[-57.608568,-22.794136],[-57.606981,-22.792864],[-57.606892,-22.792358],[-57.607978,-22.792847],[-57.60868,-22.792248],[-57.608389,-22.791955],[-57.60744,-22.791841],[-57.607107,-22.790953],[-57.60605,-22.790961],[-57.606173,-22.789208],[-57.604989,-22.788264],[-57.605509,-22.787242],[-57.604157,-22.78684],[-57.603572,-22.785939],[-57.604112,-22.785639],[-57.604067,-22.785359],[-57.603157,-22.78464],[-57.602484,-22.783486],[-57.602131,-22.783361],[-57.601455,-22.783684],[-57.601487,-22.782438],[-57.600584,-22.782983],[-57.600112,-22.782876],[-57.600932,-22.781342],[-57.60012,-22.780496],[-57.600824,-22.780186],[-57.601108,-22.779697],[-57.600809,-22.778922],[-57.600258,-22.779299],[-57.599911,-22.779169],[-57.600082,-22.777705],[-57.599181,-22.777758],[-57.598969,-22.777533],[-57.598844,-22.776458],[-57.599406,-22.775499],[-57.598575,-22.774888],[-57.597849,-22.775008],[-57.597126,-22.774708],[-57.596455,-22.773775],[-57.595713,-22.773548],[-57.595563,-22.772943],[-57.596172,-22.773429],[-57.596668,-22.771507],[-57.595805,-22.771551],[-57.594443,-22.769835],[-57.594928,-22.769265],[-57.594595,-22.768597],[-57.595351,-22.76789],[-57.594219,-22.767433],[-57.595713,-22.766538],[-57.595553,-22.766241],[-57.59493,-22.766198],[-57.595368,-22.764891],[-57.594058,-22.763848],[-57.594397,-22.762943],[-57.595671,-22.762071],[-57.595173,-22.761707],[-57.595592,-22.760897],[-57.595037,-22.760353],[-57.593943,-22.760637],[-57.59342,-22.76049],[-57.593325,-22.759907],[-57.593778,-22.759418],[-57.593966,-22.758378],[-57.593695,-22.758135],[-57.5934,-22.758457],[-57.591828,-22.757248],[-57.591671,-22.756869],[-57.592044,-22.756281],[-57.590755,-22.75508],[-57.590787,-22.754849],[-57.591827,-22.754976],[-57.591737,-22.754498],[-57.590518,-22.754295],[-57.5904,-22.753766],[-57.58988,-22.753443],[-57.590724,-22.752641],[-57.589583,-22.752085],[-57.589706,-22.750382],[-57.591112,-22.749139],[-57.590662,-22.748571],[-57.591147,-22.747124],[-57.589482,-22.746204],[-57.589036,-22.744978],[-57.58836,-22.74456],[-57.588159,-22.743558],[-57.58699,-22.743964],[-57.58641,-22.743777],[-57.586534,-22.742177],[-57.586266,-22.741799],[-57.585717,-22.741661],[-57.584711,-22.741985],[-57.584502,-22.741805],[-57.584651,-22.741331],[-57.585552,-22.740681],[-57.58549,-22.738983],[-57.585085,-22.738339],[-57.585607,-22.738161],[-57.586603,-22.738433],[-57.586904,-22.738183],[-57.585901,-22.737667],[-57.586074,-22.736637],[-57.585205,-22.736469],[-57.585906,-22.735364],[-57.585308,-22.733745],[-57.585265,-22.732512],[-57.585816,-22.732194],[-57.587275,-22.732414],[-57.587089,-22.731227],[-57.587473,-22.73086],[-57.59086,-22.731041],[-57.590649,-22.730125],[-57.591731,-22.729475],[-57.590859,-22.729167],[-57.591978,-22.72858],[-57.592026,-22.727324],[-57.592788,-22.726603],[-57.592781,-22.725944],[-57.592136,-22.724876],[-57.592768,-22.723749],[-57.592166,-22.722703],[-57.592587,-22.721821],[-57.593302,-22.721245],[-57.593242,-22.720716],[-57.592513,-22.720005],[-57.593381,-22.719392],[-57.592219,-22.718543],[-57.59295,-22.717303],[-57.594008,-22.716395],[-57.593245,-22.715983],[-57.593392,-22.715567],[-57.594061,-22.715225],[-57.594033,-22.714905],[-57.592958,-22.714389],[-57.593529,-22.71366],[-57.593098,-22.712795],[-57.593437,-22.711912],[-57.592981,-22.711964],[-57.592339,-22.710805],[-57.591858,-22.711209],[-57.591011,-22.711072],[-57.590099,-22.711446],[-57.589484,-22.710848],[-57.588295,-22.710351],[-57.588213,-22.710053],[-57.588806,-22.70959],[-57.58787,-22.70953],[-57.588344,-22.707564],[-57.587526,-22.707747],[-57.587275,-22.706773],[-57.58644,-22.706974],[-57.586086,-22.70633],[-57.585095,-22.706573],[-57.584634,-22.705784],[-57.583365,-22.705558],[-57.583369,-22.704027],[-57.58256,-22.704202],[-57.581876,-22.703445],[-57.582555,-22.702765],[-57.58247,-22.702106],[-57.581556,-22.701974],[-57.581598,-22.701035],[-57.58054,-22.700374],[-57.581772,-22.697895],[-57.580804,-22.698354],[-57.580761,-22.697176],[-57.580445,-22.696788],[-57.57962,-22.697374],[-57.578981,-22.696952],[-57.577775,-22.697083],[-57.577494,-22.69674],[-57.577765,-22.696243],[-57.576637,-22.696373],[-57.576199,-22.695882],[-57.576829,-22.695537],[-57.575245,-22.694906],[-57.575849,-22.694154],[-57.574835,-22.693918],[-57.574804,-22.692608],[-57.5751,-22.691839],[-57.573754,-22.691758],[-57.573175,-22.69022],[-57.573557,-22.689379],[-57.572986,-22.689119],[-57.571831,-22.689403],[-57.572278,-22.688421],[-57.571211,-22.687382],[-57.571825,-22.686079],[-57.571412,-22.685507],[-57.571468,-22.685037],[-57.572458,-22.684464],[-57.572453,-22.683841],[-57.571048,-22.683575],[-57.570105,-22.682494],[-57.570583,-22.68092],[-57.570461,-22.679936],[-57.569753,-22.679632],[-57.569327,-22.679073],[-57.567581,-22.679007],[-57.568125,-22.678088],[-57.567202,-22.675246],[-57.566413,-22.6757],[-57.565374,-22.674652],[-57.565432,-22.673915],[-57.566608,-22.672746],[-57.566778,-22.671521],[-57.566062,-22.671036],[-57.565614,-22.66998],[-57.564021,-22.671111],[-57.563422,-22.66918],[-57.562653,-22.669612],[-57.562192,-22.669473],[-57.562533,-22.66753],[-57.561318,-22.667236],[-57.560196,-22.665031],[-57.558927,-22.664236],[-57.559371,-22.662735],[-57.557903,-22.662397],[-57.557195,-22.662919],[-57.556936,-22.662825],[-57.556803,-22.662093],[-57.557818,-22.661652],[-57.557849,-22.660897],[-57.555547,-22.660878],[-57.556456,-22.659836],[-57.554464,-22.658791],[-57.554369,-22.657377],[-57.553571,-22.657037],[-57.552877,-22.656163],[-57.550913,-22.656436],[-57.549458,-22.655908],[-57.546171,-22.656452],[-57.5441,-22.653478],[-57.542986,-22.653663],[-57.542533,-22.652969],[-57.540891,-22.652324],[-57.540763,-22.651859],[-57.539649,-22.652297],[-57.539091,-22.652172],[-57.538842,-22.650416],[-57.538505,-22.650101],[-57.53734,-22.650407],[-57.536052,-22.650159],[-57.534967,-22.650388],[-57.533351,-22.649359],[-57.532757,-22.649447],[-57.532567,-22.650495],[-57.531837,-22.651013],[-57.5323,-22.651684],[-57.531924,-22.652106],[-57.531289,-22.651701],[-57.530469,-22.65039],[-57.52932,-22.650064],[-57.529092,-22.64931],[-57.527724,-22.649292],[-57.527297,-22.650635],[-57.526149,-22.649934],[-57.524402,-22.650486],[-57.523099,-22.648959],[-57.521449,-22.649005],[-57.520204,-22.648558],[-57.517854,-22.648263],[-57.517447,-22.647586],[-57.517992,-22.646207],[-57.517576,-22.645761],[-57.517185,-22.645885],[-57.516653,-22.647142],[-57.51624,-22.647265],[-57.515645,-22.646273],[-57.516452,-22.644956],[-57.515617,-22.643333],[-57.513956,-22.642449],[-57.511742,-22.641896],[-57.511034,-22.641234],[-57.507499,-22.633038],[-57.505723,-22.630302],[-57.501998,-22.628575],[-57.498852,-22.626678],[-57.493532,-22.624599],[-57.490879,-22.621685],[-57.486807,-22.614737],[-57.485932,-22.612382],[-57.483823,-22.609018],[-57.48343,-22.605122],[-57.483591,-22.602659],[-57.483036,-22.600678],[-57.48356,-22.598662],[-57.483289,-22.596161],[-57.48345,-22.594403],[-57.484851,-22.590216],[-57.484281,-22.584423],[-57.484644,-22.582665],[-57.484292,-22.576003],[-57.48451,-22.573812],[-57.483585,-22.571118],[-57.482098,-22.558268],[-57.547519,-22.449591],[-57.54635,-22.448681],[-57.542846,-22.447373],[-57.51386,-22.442036],[-57.511139,-22.440142],[-57.510996,-22.436077],[-57.508102,-22.432699],[-57.499227,-22.425247],[-57.498775,-22.420225],[-57.496875,-22.417534],[-57.497409,-22.416438],[-57.476633,-22.405017],[-57.475685,-22.402714],[-57.474867,-22.403219],[-57.470958,-22.403313],[-57.469768,-22.403088],[-57.468294,-22.401872],[-57.465827,-22.401873],[-57.389237,-22.50603],[-57.385537,-22.505786],[-57.371346,-22.506588],[-57.354739,-22.53236],[-57.333704,-22.554171],[-57.319285,-22.577886],[-57.327122,-22.597939],[-57.322882,-22.612543],[-57.320797,-22.618147],[-57.319399,-22.615722],[-57.317982,-22.614383],[-57.317407,-22.611146],[-57.315721,-22.607892],[-57.313528,-22.606492],[-57.312048,-22.605153],[-57.307433,-22.603161],[-57.30529,-22.604227],[-57.304005,-22.604329],[-57.300829,-22.606634],[-57.298144,-22.609453],[-57.295137,-22.614463],[-57.292207,-22.616682],[-57.290222,-22.617137],[-57.277484,-22.615878],[-57.243041,-22.632293],[-57.242188,-22.635225],[-57.242495,-22.637931],[-57.241579,-22.639685],[-57.241702,-22.640651],[-57.241182,-22.641582],[-57.240935,-22.643033],[-57.245013,-22.648126],[-57.246546,-22.648828],[-57.246757,-22.65077],[-57.247189,-22.651569],[-57.247001,-22.65301],[-57.248258,-22.655488],[-57.248331,-22.657042],[-57.249067,-22.65868],[-57.249887,-22.659641],[-57.249663,-22.662726],[-57.251162,-22.665398],[-57.251317,-22.666383],[-57.250808,-22.667752],[-57.250549,-22.671506],[-57.25014,-22.671886],[-57.249638,-22.671638],[-57.249446,-22.672004],[-57.249298,-22.675609],[-57.255275,-22.68184],[-57.272349,-22.681529],[-57.27251,-22.681202],[-57.250157,-22.730664],[-57.248963,-22.732229],[-57.248035,-22.735374],[-57.247224,-22.735976],[-57.2455,-22.736507],[-57.244345,-22.737466],[-57.240578,-22.741614],[-57.239726,-22.742107],[-57.238792,-22.742014],[-57.237941,-22.742634],[-57.238146,-22.74384],[-57.237661,-22.744744],[-57.233241,-22.747424],[-57.230685,-22.748255],[-57.229854,-22.748861],[-57.228013,-22.750621],[-57.22724,-22.753115],[-57.226445,-22.754114],[-57.22541,-22.754762],[-57.223657,-22.754913],[-57.223179,-22.75523],[-57.222802,-22.756044],[-57.222926,-22.758686],[-57.222109,-22.758705],[-57.221632,-22.759388],[-57.221872,-22.760146],[-57.222809,-22.760294],[-57.222969,-22.760664],[-57.223193,-22.763379],[-57.222237,-22.764121],[-57.221281,-22.764303],[-57.220906,-22.766318],[-57.220369,-22.766689],[-57.219651,-22.766893],[-57.218814,-22.766727],[-57.216644,-22.767489],[-57.216365,-22.767543],[-57.216464,-22.767196],[-57.215747,-22.767472],[-57.215494,-22.771538],[-57.215138,-22.772943],[-57.214064,-22.774385],[-57.213231,-22.776956],[-57.213376,-22.780502],[-57.213696,-22.781129],[-57.215609,-22.78133],[-57.216788,-22.783307],[-57.21673,-22.784341],[-57.216233,-22.785082],[-57.216535,-22.787042],[-57.216217,-22.787504],[-57.214345,-22.788577],[-57.213374,-22.791907],[-57.21242,-22.793552],[-57.212382,-22.794772],[-57.213304,-22.798262],[-57.212832,-22.802698],[-57.213213,-22.80384],[-57.213236,-22.805652],[-57.213039,-22.807242],[-57.211727,-22.809701],[-57.211935,-22.815134],[-57.212335,-22.815761],[-57.212079,-22.817704],[-57.21192,-22.818219],[-57.211223,-22.818441],[-57.210603,-22.817557],[-57.209886,-22.817689],[-57.209648,-22.818389],[-57.208851,-22.818779],[-57.208692,-22.819316],[-57.209193,-22.820644],[-57.210688,-22.820863],[-57.211726,-22.821878],[-57.211568,-22.822768],[-57.21115,-22.823026],[-57.211333,-22.825799],[-57.210539,-22.827444],[-57.210801,-22.829364],[-57.208078,-22.834747],[-57.208082,-22.837425],[-57.206687,-22.837964],[-57.205595,-22.840811],[-57.203439,-22.842675],[-57.204085,-22.844305],[-57.203987,-22.845412],[-57.203648,-22.845746],[-57.201933,-22.84499],[-57.201714,-22.845473],[-57.202073,-22.845861],[-57.202275,-22.847117],[-57.20401,-22.847851],[-57.204909,-22.848961],[-57.205371,-22.851399],[-57.204877,-22.854006],[-57.202963,-22.854469],[-57.202665,-22.855115],[-57.202846,-22.856149],[-57.202608,-22.856687],[-57.201432,-22.857023],[-57.200738,-22.859535],[-57.201478,-22.861233],[-57.201401,-22.86345],[-57.200804,-22.864192],[-57.200965,-22.864856],[-57.20049,-22.867462],[-57.201211,-22.869697],[-57.200278,-22.872101],[-57.200102,-22.87506],[-57.19961,-22.875689],[-57.200678,-22.876825],[-57.200982,-22.878338],[-57.202029,-22.878594],[-57.202332,-22.878969],[-57.202313,-22.880161],[-57.20175,-22.880478],[-57.20149,-22.881337],[-57.201975,-22.882569],[-57.201616,-22.884674],[-57.202182,-22.886837],[-57.203211,-22.888123],[-57.203175,-22.891538],[-57.203963,-22.893231],[-57.203866,-22.895656],[-57.202119,-22.898698],[-57.202524,-22.900003],[-57.202366,-22.901964],[-57.203053,-22.903824],[-57.20322,-22.908038],[-57.202238,-22.911043],[-57.201072,-22.911848],[-57.201679,-22.913898],[-57.20146,-22.915669],[-57.200253,-22.916117],[-57.200052,-22.916452],[-57.200436,-22.917291],[-57.200619,-22.919044],[-57.198951,-22.920482],[-57.197826,-22.922408],[-57.196458,-22.923137],[-57.196379,-22.923692],[-57.19499,-22.924254],[-57.193784,-22.925805],[-57.193605,-22.926627],[-57.194513,-22.928618],[-57.194457,-22.929151],[-57.195069,-22.929389],[-57.196105,-22.929284],[-57.197308,-22.930963],[-57.198146,-22.931179],[-57.198725,-22.93037],[-57.199914,-22.930111],[-57.200119,-22.931764],[-57.20115,-22.932611],[-57.201425,-22.931816],[-57.201691,-22.931811],[-57.202008,-22.934178],[-57.202425,-22.934173],[-57.203624,-22.933349],[-57.204224,-22.931085],[-57.206275,-22.931354],[-57.208848,-22.933749],[-57.209306,-22.933459],[-57.208904,-22.932231],[-57.209195,-22.931792],[-57.210274,-22.931696],[-57.212831,-22.932203],[-57.213691,-22.931994],[-57.213844,-22.932437],[-57.213089,-22.93284],[-57.213439,-22.93325],[-57.213981,-22.9332],[-57.214107,-22.934211],[-57.214427,-22.934301],[-57.214975,-22.93365],[-57.21537,-22.933713],[-57.215226,-22.934196],[-57.214892,-22.934301],[-57.215711,-22.934842],[-57.215082,-22.935253],[-57.215221,-22.935737],[-57.217346,-22.935345],[-57.218322,-22.93594],[-57.218335,-22.936726],[-57.219094,-22.936698],[-57.21932,-22.937623],[-57.218338,-22.937702],[-57.218619,-22.938641],[-57.221581,-22.938899],[-57.222316,-22.93948],[-57.222668,-22.939227],[-57.222909,-22.940238],[-57.22239,-22.940284],[-57.222846,-22.941426],[-57.222425,-22.941436],[-57.221888,-22.940858],[-57.221531,-22.941076],[-57.221594,-22.942178],[-57.222646,-22.942714],[-57.221791,-22.942878],[-57.22182,-22.943501],[-57.223608,-22.94315],[-57.224395,-22.943511],[-57.225367,-22.943067],[-57.226105,-22.943079],[-57.226435,-22.944068],[-57.226899,-22.944433],[-57.227734,-22.944576],[-57.227916,-22.943966],[-57.228218,-22.943876],[-57.228512,-22.944101],[-57.22852,-22.944846],[-57.228853,-22.944895],[-57.229277,-22.944353],[-57.229498,-22.945093],[-57.230437,-22.945164],[-57.231449,-22.946193],[-57.232409,-22.946327],[-57.233036,-22.94582],[-57.234113,-22.947106],[-57.234199,-22.948217],[-57.233796,-22.95015],[-57.234557,-22.950447],[-57.2344,-22.951387],[-57.236137,-22.950662],[-57.236313,-22.950923],[-57.235932,-22.951425],[-57.236637,-22.951894],[-57.238559,-22.950495],[-57.238776,-22.950915],[-57.238193,-22.951431],[-57.239472,-22.95156],[-57.239012,-22.952496],[-57.239611,-22.953385],[-57.239816,-22.952621],[-57.240149,-22.952508],[-57.240181,-22.953226],[-57.24147,-22.954764],[-57.241292,-22.955198],[-57.241541,-22.955767],[-57.242578,-22.955887],[-57.243036,-22.956573],[-57.244278,-22.956724],[-57.2451,-22.957139],[-57.24489,-22.958711],[-57.242787,-22.961645],[-57.242951,-22.962151],[-57.243674,-22.962177],[-57.243639,-22.961644],[-57.243889,-22.961544],[-57.244291,-22.961946],[-57.24494,-22.961963],[-57.245141,-22.963322],[-57.246407,-22.963587],[-57.246359,-22.964016],[-57.24677,-22.96434],[-57.247617,-22.963774],[-57.247938,-22.964646],[-57.248762,-22.964161],[-57.248528,-22.963552],[-57.249685,-22.963229],[-57.250754,-22.964022],[-57.251868,-22.963239],[-57.253305,-22.963652],[-57.252799,-22.965076],[-57.253199,-22.96545],[-57.253909,-22.965386],[-57.25364,-22.967816],[-57.253961,-22.968091],[-57.254914,-22.967918],[-57.255359,-22.968166],[-57.255106,-22.969594],[-57.255923,-22.970333],[-57.256022,-22.970775],[-57.256401,-22.970793],[-57.256836,-22.970232],[-57.257541,-22.970787],[-57.257968,-22.970637],[-57.25818,-22.969783],[-57.258985,-22.968892],[-57.258126,-22.968161],[-57.259919,-22.967065],[-57.260882,-22.967109],[-57.261396,-22.967537],[-57.26264,-22.966654],[-57.263602,-22.966608],[-57.26406,-22.966128],[-57.264892,-22.966596],[-57.26527,-22.965936],[-57.265866,-22.966026],[-57.26628,-22.966716],[-57.266672,-22.966372],[-57.266799,-22.9656],[-57.268377,-22.96505],[-57.268691,-22.964549],[-57.269118,-22.964756],[-57.269668,-22.964362],[-57.270278,-22.964966],[-57.271837,-22.965442],[-57.273372,-22.963773],[-57.274887,-22.964298],[-57.277004,-22.967547],[-57.278247,-22.967134],[-57.278263,-22.966257],[-57.278996,-22.965637],[-57.280659,-22.966714],[-57.281701,-22.96594],[-57.282026,-22.966463],[-57.283249,-22.966456],[-57.284012,-22.965904],[-57.284652,-22.965844],[-57.284698,-22.9671],[-57.285325,-22.967108],[-57.285343,-22.967464],[-57.286018,-22.967653],[-57.285535,-22.969162],[-57.286235,-22.969762],[-57.28787,-22.968453],[-57.288174,-22.967595],[-57.288916,-22.968302],[-57.288452,-22.968741],[-57.289083,-22.969436],[-57.290389,-22.968855],[-57.29079,-22.969356],[-57.291429,-22.969355],[-57.292809,-22.968535],[-57.292423,-22.968124],[-57.292612,-22.967961],[-57.293939,-22.968117],[-57.294693,-22.966517],[-57.295136,-22.966177],[-57.294313,-22.96448],[-57.29571,-22.963299],[-57.296495,-22.963027],[-57.297279,-22.96307],[-57.297908,-22.963697],[-57.298745,-22.96318],[-57.299309,-22.963604],[-57.299764,-22.964935],[-57.301221,-22.96547],[-57.302283,-22.965441],[-57.302698,-22.965892],[-57.302579,-22.966886],[-57.303318,-22.967779],[-57.305419,-22.966926],[-57.305248,-22.966429],[-57.305457,-22.966239],[-57.305792,-22.966342],[-57.306072,-22.967249],[-57.306582,-22.966566],[-57.307586,-22.966917],[-57.308545,-22.966468],[-57.307854,-22.966094],[-57.308025,-22.965827],[-57.309046,-22.966223],[-57.309763,-22.966669],[-57.310494,-22.968022],[-57.310059,-22.969053],[-57.3106,-22.969242],[-57.3111,-22.968744],[-57.311636,-22.969262],[-57.311617,-22.971006],[-57.310909,-22.971328],[-57.310684,-22.971911],[-57.311076,-22.972317],[-57.310969,-22.972881],[-57.311228,-22.973093],[-57.312278,-22.972983],[-57.313164,-22.974783],[-57.312756,-22.975317],[-57.311249,-22.975871],[-57.310713,-22.976409],[-57.309867,-22.978584],[-57.309915,-22.979288],[-57.311438,-22.980496],[-57.311522,-22.981105],[-57.311966,-22.980896],[-57.312754,-22.983546],[-57.313491,-22.983536],[-57.313773,-22.984222],[-57.314675,-22.98436],[-57.315096,-22.984788],[-57.315633,-22.984625],[-57.317321,-22.985457],[-57.317884,-22.984981],[-57.317833,-22.984318],[-57.3184,-22.984587],[-57.319627,-22.984463],[-57.320067,-22.985153],[-57.321242,-22.984487],[-57.321671,-22.98534],[-57.321049,-22.986068],[-57.321894,-22.987435],[-57.321172,-22.98778],[-57.320679,-22.988426],[-57.320772,-22.989271],[-57.321752,-22.990344],[-57.323549,-22.990123],[-57.324915,-22.990419],[-57.325051,-22.991028],[-57.324093,-22.991482],[-57.324774,-22.991995],[-57.32523,-22.9918],[-57.325885,-22.990543],[-57.326524,-22.992186],[-57.327381,-22.992686],[-57.327748,-22.99226],[-57.327161,-22.991336],[-57.328662,-22.991052],[-57.328818,-22.993125],[-57.329736,-22.993376],[-57.329943,-22.993687],[-57.328627,-22.993912],[-57.328191,-22.994486],[-57.330351,-22.995543],[-57.330612,-22.99641],[-57.329924,-22.996912],[-57.329428,-22.998336],[-57.329764,-22.998887],[-57.33027,-22.998673],[-57.330929,-22.996838],[-57.33131,-22.997768],[-57.33107,-22.998735],[-57.331531,-22.999262],[-57.332235,-22.999279],[-57.332511,-22.998257],[-57.333065,-22.997809],[-57.333309,-22.999579],[-57.33485,-22.999445],[-57.336065,-22.998869],[-57.337099,-23.000958],[-57.337624,-23.001318],[-57.338105,-22.999876],[-57.338834,-23.000259],[-57.339276,-23.000176],[-57.338544,-22.999396],[-57.338742,-22.998877],[-57.34016,-22.998874],[-57.340982,-22.998172],[-57.345249,-22.999807],[-57.348009,-22.999317],[-57.348445,-22.999976],[-57.348183,-23.000712],[-57.346665,-23.000928],[-57.345932,-23.001707],[-57.346101,-23.002388],[-57.346968,-23.00264],[-57.350648,-23.000811],[-57.358607,-23.000603],[-57.367826,-23.000718],[-57.368061,-23.001521],[-57.368684,-23.001709],[-57.377559,-23.003039],[-57.379324,-23.002804],[-57.380034,-23.002396],[-57.406627,-23.0086],[-57.438071,-23.015178],[-57.434747,-22.997449],[-57.436988,-22.994],[-57.437844,-22.986891],[-57.440924,-22.981474],[-57.448629,-22.981998],[-57.462041,-22.942345],[-57.488911,-22.942235],[-57.501587,-22.934656]]]}}]}
