{"type":"FeatureCollection","name":"distrito","features":[{"type":"Feature","properties":{"clave":"5-35","nombre":"Vaquería"},"geometry":{"type":"Polygon","coordinates":[[[-55.802488,-25.027143],[-55.802623,-25.025673],[-55.803931,-25.025697],[-55.804646,-25.02424],[-55.806605,-25.024124],[-55.806725,-25.024527],[-55.807341,-25.024424],[-55.807566,-25.02471],[-55.808309,-25.024156],[-55.808426,-25.023715],[-55.809564,-25.023485],[-55.810138,-25.02306],[-55.810847,-25.02331],[-55.811911,-25.022984],[-55.812244,-25.023253],[-55.812652,-25.022435],[-55.814333,-25.022412],[-55.815105,-25.021714],[-55.816482,-25.021761],[-55.817986,-25.020509],[-55.81942,-25.020362],[-55.81962,-25.020093],[-55.818872,-25.019604],[-55.81955,-25.01923],[-55.8211,-25.019346],[-55.822439,-25.018594],[-55.822529,-25.018847],[-55.823053,-25.018716],[-55.822941,-25.019094],[-55.823514,-25.0196],[-55.824134,-25.018765],[-55.823836,-25.018438],[-55.824308,-25.017886],[-55.824508,-25.018181],[-55.824787,-25.017989],[-55.824894,-25.018247],[-55.825448,-25.018225],[-55.825582,-25.017932],[-55.825095,-25.017734],[-55.826803,-25.017386],[-55.82676,-25.016759],[-55.827108,-25.016594],[-55.827171,-25.016974],[-55.827549,-25.016747],[-55.827318,-25.016284],[-55.827707,-25.015384],[-55.829166,-25.014579],[-55.829617,-25.014785],[-55.829864,-25.014471],[-55.830207,-25.014786],[-55.830888,-25.014443],[-55.832142,-25.014553],[-55.831687,-25.014991],[-55.832139,-25.015252],[-55.832775,-25.015117],[-55.832583,-25.015734],[-55.833351,-25.016318],[-55.834764,-25.014952],[-55.835333,-25.015097],[-55.836313,-25.015971],[-55.838985,-25.015988],[-55.839,-25.016764],[-55.839363,-25.016961],[-55.839059,-25.017361],[-55.839495,-25.017829],[-55.838997,-25.017974],[-55.838731,-25.018501],[-55.839275,-25.018703],[-55.839395,-25.019066],[-55.840241,-25.019212],[-55.840406,-25.018635],[-55.842403,-25.017856],[-55.843529,-25.01791],[-55.844365,-25.017497],[-55.845763,-25.01814],[-55.84715,-25.018385],[-55.851092,-25.01791],[-55.853057,-25.018169],[-55.854248,-25.017578],[-55.854831,-25.016571],[-55.855557,-25.016545],[-55.856066,-25.015953],[-55.857271,-25.015493],[-55.858409,-25.015619],[-55.858898,-25.014932],[-55.860602,-25.015234],[-55.863403,-25.014732],[-55.864461,-25.013417],[-55.865247,-25.01345],[-55.865231,-25.012994],[-55.865764,-25.012939],[-55.865621,-25.012654],[-55.866111,-25.012161],[-55.86708,-25.012398],[-55.867425,-25.011435],[-55.867307,-25.010472],[-55.86798,-25.010021],[-55.867718,-25.009717],[-55.869031,-25.00793],[-55.869098,-25.00696],[-55.870525,-25.006686],[-55.870037,-25.005969],[-55.870688,-25.006051],[-55.870892,-25.005235],[-55.871653,-25.005168],[-55.871571,-25.003728],[-55.871922,-25.003459],[-55.871841,-25.00303],[-55.87237,-25.002957],[-55.873309,-25.00207],[-55.875435,-25.002375],[-55.875534,-25.002001],[-55.875139,-25.001524],[-55.876168,-25.001135],[-55.875742,-25.000427],[-55.876166,-24.999771],[-55.852744,-24.959639],[-55.850933,-24.960023],[-55.848211,-24.961555],[-55.845009,-24.964817],[-55.842912,-24.96648],[-55.840179,-24.968283],[-55.8392,-24.968397],[-55.838814,-24.968932],[-55.832792,-24.970329],[-55.830597,-24.971206],[-55.828813,-24.97098],[-55.826074,-24.969884],[-55.824921,-24.96871],[-55.822226,-24.963912],[-55.818869,-24.960932],[-55.818521,-24.960279],[-55.817697,-24.960124],[-55.815064,-24.95738],[-55.810727,-24.954136],[-55.809646,-24.952827],[-55.808492,-24.952574],[-55.806794,-24.951616],[-55.805781,-24.95141],[-55.804663,-24.951644],[-55.804169,-24.950724],[-55.802895,-24.949847],[-55.801222,-24.949219],[-55.798762,-24.94682],[-55.798235,-24.945638],[-55.798012,-24.943338],[-55.798242,-24.942342],[-55.797737,-24.941818],[-55.795335,-24.940882],[-55.794997,-24.94046],[-55.794914,-24.937917],[-55.796199,-24.933354],[-55.796099,-24.932631],[-55.791942,-24.929581],[-55.79076,-24.925445],[-55.790146,-24.924501],[-55.786827,-24.922763],[-55.7843,-24.922205],[-55.781112,-24.919407],[-55.779911,-24.918733],[-55.776888,-24.91772],[-55.775309,-24.917716],[-55.774154,-24.917006],[-55.771178,-24.917248],[-55.767496,-24.915787],[-55.764574,-24.913564],[-55.763094,-24.911624],[-55.761368,-24.91002],[-55.758969,-24.905368],[-55.757273,-24.903033],[-55.757043,-24.901081],[-55.75512,-24.900107],[-55.753522,-24.899751],[-55.751013,-24.897748],[-55.749082,-24.897601],[-55.747923,-24.897167],[-55.746748,-24.897238],[-55.743527,-24.896294],[-55.741805,-24.895372],[-55.739242,-24.897577],[-55.734495,-24.8975],[-55.731415,-24.899194],[-55.728697,-24.900074],[-55.726036,-24.902255],[-55.724957,-24.902015],[-55.723782,-24.90326],[-55.722505,-24.903358],[-55.717824,-24.905715],[-55.716017,-24.90737],[-55.71543,-24.907374],[-55.714557,-24.908676],[-55.713217,-24.908944],[-55.71317,-24.9094],[-55.711465,-24.910568],[-55.711006,-24.911666],[-55.710121,-24.912475],[-55.709298,-24.912152],[-55.707885,-24.912194],[-55.486123,-24.834944],[-55.482913,-24.835205],[-55.481224,-24.834935],[-55.479697,-24.835597],[-55.479408,-24.83516],[-55.476826,-24.83498],[-55.474251,-24.833961],[-55.473032,-24.833876],[-55.469296,-24.832028],[-55.467178,-24.829866],[-55.466562,-24.829783],[-55.465938,-24.83086],[-55.465286,-24.830745],[-55.464924,-24.829843],[-55.463827,-24.82896],[-55.463308,-24.829257],[-55.463147,-24.828737],[-55.461263,-24.827674],[-55.460979,-24.826687],[-55.460289,-24.826062],[-55.45974,-24.826038],[-55.45903,-24.82539],[-55.457869,-24.825265],[-55.457915,-24.824425],[-55.456999,-24.824583],[-55.455835,-24.825569],[-55.454916,-24.825473],[-55.454747,-24.824993],[-55.452305,-24.824684],[-55.452225,-24.823581],[-55.451605,-24.823259],[-55.452135,-24.822808],[-55.450664,-24.822116],[-55.445923,-24.821918],[-55.444121,-24.823018],[-55.441889,-24.823203],[-55.439633,-24.822507],[-55.436742,-24.822562],[-55.433864,-24.822162],[-55.429884,-24.82105],[-55.427333,-24.821394],[-55.426458,-24.8217],[-55.425947,-24.822273],[-55.424725,-24.821782],[-55.423795,-24.821984],[-55.423534,-24.82153],[-55.421042,-24.82191],[-55.418499,-24.821833],[-55.416237,-24.823281],[-55.414458,-24.823592],[-55.41368,-24.824229],[-55.41059,-24.825225],[-55.410611,-24.826178],[-55.409424,-24.825782],[-55.407917,-24.826321],[-55.40554,-24.827795],[-55.403426,-24.828165],[-55.400679,-24.829391],[-55.399759,-24.829105],[-55.399157,-24.829753],[-55.398763,-24.829131],[-55.397827,-24.829053],[-55.397418,-24.828559],[-55.396038,-24.82787],[-55.394813,-24.828206],[-55.393864,-24.827437],[-55.39098,-24.826941],[-55.390883,-24.826634],[-55.389848,-24.826818],[-55.387471,-24.82544],[-55.386338,-24.825434],[-55.385709,-24.82476],[-55.38554,-24.823326],[-55.384238,-24.82183],[-55.384589,-24.821198],[-55.384021,-24.82099],[-55.384738,-24.82052],[-55.384628,-24.819686],[-55.384026,-24.819618],[-55.383475,-24.819178],[-55.38342,-24.818767],[-55.382764,-24.819189],[-55.381923,-24.818861],[-55.381823,-24.819331],[-55.381581,-24.819323],[-55.381237,-24.818995],[-55.381247,-24.818205],[-55.380394,-24.818343],[-55.379977,-24.817898],[-55.379514,-24.817911],[-55.37945,-24.81668],[-55.379012,-24.816302],[-55.378414,-24.81635],[-55.378114,-24.817277],[-55.377001,-24.816739],[-55.375603,-24.817452],[-55.375881,-24.815686],[-55.377579,-24.814623],[-55.377897,-24.812218],[-55.378682,-24.810529],[-55.378845,-24.810241],[-55.379673,-24.810119],[-55.37934,-24.808839],[-55.380147,-24.809065],[-55.380659,-24.810072],[-55.380872,-24.809552],[-55.382325,-24.809074],[-55.382186,-24.810016],[-55.38311,-24.809837],[-55.383715,-24.810975],[-55.384508,-24.8111],[-55.383695,-24.810047],[-55.384434,-24.809445],[-55.385048,-24.809945],[-55.385963,-24.809273],[-55.386047,-24.808882],[-55.384993,-24.808058],[-55.38506,-24.807798],[-55.386095,-24.807664],[-55.385891,-24.806211],[-55.386249,-24.805562],[-55.386773,-24.805626],[-55.386272,-24.806273],[-55.386924,-24.806237],[-55.387519,-24.806954],[-55.387789,-24.806928],[-55.387832,-24.803649],[-55.389841,-24.800697],[-55.391375,-24.800075],[-55.393039,-24.797989],[-55.393336,-24.798384],[-55.393327,-24.80027],[-55.393974,-24.800668],[-55.394853,-24.800315],[-55.395019,-24.79978],[-55.394181,-24.799379],[-55.395398,-24.798725],[-55.395918,-24.795335],[-55.397188,-24.79297],[-55.397607,-24.792582],[-55.398976,-24.792379],[-55.400355,-24.791436],[-55.401408,-24.789866],[-55.402868,-24.788852],[-55.403348,-24.787333],[-55.403966,-24.788704],[-55.404794,-24.788611],[-55.404574,-24.785881],[-55.404857,-24.784897],[-55.405478,-24.784788],[-55.406056,-24.785607],[-55.407363,-24.785287],[-55.407035,-24.784877],[-55.404298,-24.78389],[-55.404176,-24.783454],[-55.406314,-24.782809],[-55.40707,-24.783354],[-55.408522,-24.782876],[-55.408958,-24.781154],[-55.409372,-24.781071],[-55.409416,-24.781377],[-55.409783,-24.781206],[-55.411516,-24.778671],[-55.412203,-24.777126],[-55.413519,-24.77611],[-55.414207,-24.774507],[-55.415028,-24.773688],[-55.415555,-24.772243],[-55.415922,-24.772087],[-55.416885,-24.772634],[-55.417151,-24.770417],[-55.416777,-24.768585],[-55.417359,-24.767779],[-55.419083,-24.768479],[-55.4189,-24.767838],[-55.419729,-24.767615],[-55.419208,-24.767377],[-55.4195,-24.766873],[-55.419092,-24.766491],[-55.418655,-24.764615],[-55.419702,-24.763509],[-55.420762,-24.761329],[-55.42159,-24.761178],[-55.421406,-24.760654],[-55.421697,-24.760279],[-55.422486,-24.760752],[-55.424094,-24.760508],[-55.424023,-24.759825],[-55.423452,-24.759689],[-55.423061,-24.75922],[-55.424284,-24.759277],[-55.424569,-24.758061],[-55.423118,-24.757247],[-55.423458,-24.7567],[-55.425164,-24.757545],[-55.425333,-24.756748],[-55.424926,-24.756236],[-55.425204,-24.755615],[-55.424523,-24.755463],[-55.424541,-24.75526],[-55.424979,-24.754568],[-55.426218,-24.754581],[-55.425584,-24.753167],[-55.425671,-24.752631],[-55.426257,-24.752783],[-55.428554,-24.752023],[-55.427534,-24.753521],[-55.427656,-24.753987],[-55.428105,-24.753615],[-55.430636,-24.753249],[-55.430595,-24.75396],[-55.431173,-24.754778],[-55.431747,-24.754625],[-55.433503,-24.755253],[-55.43379,-24.753863],[-55.433164,-24.754378],[-55.432067,-24.754411],[-55.431354,-24.753054],[-55.431857,-24.752203],[-55.432691,-24.751588],[-55.433353,-24.752015],[-55.434499,-24.751824],[-55.433978,-24.750281],[-55.434033,-24.749716],[-55.434677,-24.749026],[-55.436895,-24.749383],[-55.437003,-24.749808],[-55.438829,-24.750166],[-55.439334,-24.75069],[-55.440376,-24.74992],[-55.44074,-24.750736],[-55.441506,-24.751413],[-55.443593,-24.751267],[-55.443552,-24.751696],[-55.444427,-24.75221],[-55.444856,-24.753023],[-55.446007,-24.751956],[-55.446445,-24.752439],[-55.446648,-24.752342],[-55.447444,-24.751465],[-55.447956,-24.751732],[-55.448779,-24.751447],[-55.45041,-24.751604],[-55.451046,-24.75101],[-55.451412,-24.75133],[-55.453559,-24.750467],[-55.454672,-24.750551],[-55.456066,-24.749933],[-55.457206,-24.750266],[-55.457391,-24.75001],[-55.457016,-24.748914],[-55.457246,-24.748542],[-55.458675,-24.748376],[-55.460391,-24.746935],[-55.462081,-24.746293],[-55.462579,-24.745508],[-55.463003,-24.745599],[-55.463352,-24.744839],[-55.464365,-24.743965],[-55.464908,-24.742381],[-55.465991,-24.742406],[-55.465596,-24.740975],[-55.466527,-24.739409],[-55.466973,-24.73926],[-55.467244,-24.739665],[-55.467961,-24.738516],[-55.46966,-24.737554],[-55.4712,-24.737624],[-55.471359,-24.736564],[-55.472136,-24.736821],[-55.473035,-24.736383],[-55.475875,-24.736624],[-55.477056,-24.736491],[-55.477261,-24.73611],[-55.477891,-24.735972],[-55.479732,-24.736776],[-55.481616,-24.73647],[-55.483344,-24.735761],[-55.484293,-24.736285],[-55.484898,-24.73542],[-55.485609,-24.73554],[-55.486488,-24.734321],[-55.487427,-24.73452],[-55.488319,-24.733183],[-55.488724,-24.733255],[-55.489602,-24.732465],[-55.489711,-24.731301],[-55.490369,-24.731773],[-55.49083,-24.731629],[-55.490304,-24.73086],[-55.490369,-24.730491],[-55.491948,-24.73024],[-55.493288,-24.729315],[-55.494243,-24.729753],[-55.494743,-24.728918],[-55.495164,-24.729144],[-55.495619,-24.728981],[-55.495937,-24.728696],[-55.495696,-24.728106],[-55.49597,-24.727685],[-55.497028,-24.727113],[-55.497809,-24.727243],[-55.498454,-24.726283],[-55.499298,-24.725953],[-55.49982,-24.724757],[-55.500791,-24.724582],[-55.501145,-24.723962],[-55.50281,-24.72271],[-55.504514,-24.72214],[-55.505319,-24.72139],[-55.506203,-24.721778],[-55.506681,-24.721476],[-55.506636,-24.720789],[-55.507276,-24.721215],[-55.507849,-24.719903],[-55.509285,-24.720183],[-55.511462,-24.718918],[-55.512771,-24.71871],[-55.513185,-24.717978],[-55.513558,-24.718144],[-55.514956,-24.717743],[-55.515564,-24.716521],[-55.51665,-24.716699],[-55.516887,-24.716475],[-55.516745,-24.715327],[-55.517044,-24.715095],[-55.517805,-24.715089],[-55.518665,-24.715685],[-55.519156,-24.714773],[-55.520326,-24.714825],[-55.523733,-24.713509],[-55.524094,-24.712813],[-55.525026,-24.712361],[-55.526079,-24.710638],[-55.526595,-24.71063],[-55.526998,-24.709934],[-55.528042,-24.709768],[-55.528623,-24.707598],[-55.529618,-24.705982],[-55.529764,-24.703613],[-55.528962,-24.703149],[-55.528845,-24.702683],[-55.529046,-24.700459],[-55.529615,-24.699869],[-55.530416,-24.698089],[-55.531815,-24.697407],[-55.532677,-24.69589],[-55.533959,-24.695519],[-55.534786,-24.694759],[-55.534814,-24.694195],[-55.53593,-24.692865],[-55.536146,-24.691874],[-55.537552,-24.690912],[-55.538879,-24.69084],[-55.540449,-24.689546],[-55.542282,-24.689089],[-55.543694,-24.689157],[-55.544557,-24.688407],[-55.545507,-24.688493],[-55.545821,-24.687516],[-55.547751,-24.687485],[-55.549837,-24.686639],[-55.552686,-24.686219],[-55.555389,-24.684557],[-55.558138,-24.682069],[-55.559956,-24.679959],[-55.561607,-24.677185],[-55.562167,-24.676671],[-55.56321,-24.676334],[-55.563424,-24.67402],[-55.565001,-24.672315],[-55.565139,-24.671445],[-55.56582,-24.670688],[-55.564894,-24.669266],[-55.565287,-24.667983],[-55.564844,-24.665798],[-55.563844,-24.664859],[-55.563784,-24.664416],[-55.564106,-24.660888],[-55.564648,-24.659959],[-55.562441,-24.655852],[-55.563175,-24.654938],[-55.563141,-24.653375],[-55.564044,-24.652517],[-55.564127,-24.650631],[-55.568162,-24.645847],[-55.568157,-24.643743],[-55.569176,-24.64257],[-55.592494,-24.60245],[-55.584814,-24.602626],[-55.577875,-24.601239],[-55.57531,-24.596425],[-55.567756,-24.585534],[-55.56419,-24.581454],[-55.562686,-24.570786],[-55.55926,-24.562412],[-55.555343,-24.557502],[-55.551627,-24.550859],[-55.552968,-24.544183],[-55.552925,-24.540053],[-55.551169,-24.527814],[-55.552465,-24.51865],[-55.543932,-24.513539],[-55.539774,-24.513995],[-55.53153,-24.516557],[-55.52541,-24.515094],[-55.513492,-24.515307],[-55.51129,-24.518341],[-55.508618,-24.522939],[-55.505238,-24.526292],[-55.501243,-24.528234],[-55.493706,-24.533788],[-55.492748,-24.559284],[-55.491108,-24.568021],[-55.484022,-24.571584],[-55.481081,-24.565447],[-55.478483,-24.555645],[-55.470957,-24.546897],[-55.460479,-24.541427],[-55.452697,-24.544684],[-55.443957,-24.549704],[-55.437838,-24.551255],[-55.426499,-24.546733],[-55.418987,-24.544159],[-55.411393,-24.539081],[-55.4019,-24.535048],[-55.400627,-24.536478],[-55.399987,-24.54895],[-55.392659,-24.544614],[-55.383865,-24.542024],[-55.369768,-24.539964],[-55.359236,-24.522967],[-55.345172,-24.509034],[-55.345126,-24.497018],[-55.342734,-24.493647],[-55.335271,-24.494989],[-55.33202,-24.496766],[-55.32944,-24.506011],[-55.321946,-24.509644],[-55.317228,-24.513184],[-55.31267,-24.514867],[-55.310341,-24.511868],[-55.306259,-24.508354],[-55.30374,-24.504362],[-55.305065,-24.496449],[-55.304158,-24.493571],[-55.296792,-24.487562],[-55.289124,-24.489085],[-55.288621,-24.491247],[-55.289181,-24.499862],[-55.288586,-24.503819],[-55.280979,-24.50076],[-55.276228,-24.496976],[-55.272355,-24.49292],[-55.266036,-24.484796],[-55.262969,-24.481478],[-55.252526,-24.467507],[-55.250231,-24.467892],[-55.238953,-24.475998],[-55.228121,-24.476367],[-55.217106,-24.475246],[-55.215562,-24.474361],[-55.214779,-24.472308],[-55.21292,-24.469809],[-55.210568,-24.468604],[-55.202511,-24.469004],[-55.190303,-24.466195],[-55.1803,-24.465456],[-55.174916,-24.467186],[-55.163867,-24.469468],[-55.161713,-24.473344],[-55.153701,-24.479811],[-55.148163,-24.483706],[-55.143023,-24.488102],[-55.138767,-24.496782],[-55.149414,-24.511106],[-55.153501,-24.51228],[-55.156165,-24.514502],[-55.15977,-24.516876],[-55.160261,-24.517491],[-55.160848,-24.518731],[-55.160653,-24.519211],[-55.158673,-24.521774],[-55.156687,-24.523226],[-55.157646,-24.526253],[-55.156962,-24.527491],[-55.157631,-24.528465],[-55.159169,-24.529102],[-55.161699,-24.528925],[-55.164098,-24.526955],[-55.167337,-24.526344],[-55.16838,-24.525639],[-55.16944,-24.525887],[-55.16974,-24.525425],[-55.170935,-24.524889],[-55.172195,-24.52504],[-55.173468,-24.524279],[-55.174664,-24.524311],[-55.176673,-24.523406],[-55.178534,-24.521248],[-55.179936,-24.520935],[-55.182305,-24.51951],[-55.184076,-24.519274],[-55.184912,-24.518413],[-55.186893,-24.517556],[-55.188663,-24.518431],[-55.192713,-24.519152],[-55.194266,-24.518182],[-55.196,-24.518004],[-55.200012,-24.516251],[-55.201206,-24.516477],[-55.202281,-24.516075],[-55.204395,-24.51605],[-55.207489,-24.51545],[-55.209034,-24.515952],[-55.21456,-24.515227],[-55.217164,-24.516504],[-55.218731,-24.51655],[-55.220522,-24.517103],[-55.223262,-24.51724],[-55.224457,-24.516437],[-55.226901,-24.516668],[-55.229124,-24.51641],[-55.230925,-24.517217],[-55.231672,-24.516982],[-55.233296,-24.517281],[-55.233749,-24.518103],[-55.234862,-24.518992],[-55.236826,-24.519349],[-55.237797,-24.519098],[-55.239286,-24.517906],[-55.239751,-24.516977],[-55.24175,-24.516337],[-55.242954,-24.515552],[-55.243993,-24.5155],[-55.245561,-24.514634],[-55.24723,-24.514509],[-55.248131,-24.514736],[-55.248673,-24.515383],[-55.250569,-24.515604],[-55.251163,-24.51515],[-55.251855,-24.516039],[-55.252924,-24.516588],[-55.253358,-24.517559],[-55.255542,-24.518582],[-55.255878,-24.519936],[-55.256634,-24.521182],[-55.257279,-24.521203],[-55.257876,-24.52176],[-55.258903,-24.522012],[-55.261604,-24.521817],[-55.262464,-24.522147],[-55.264328,-24.521699],[-55.266017,-24.521954],[-55.266692,-24.522815],[-55.269307,-24.523025],[-55.270302,-24.523818],[-55.270378,-24.524974],[-55.271295,-24.525355],[-55.271425,-24.526119],[-55.271773,-24.526299],[-55.27241,-24.525733],[-55.272746,-24.525787],[-55.273563,-24.52688],[-55.274862,-24.527405],[-55.27496,-24.527862],[-55.275523,-24.527728],[-55.275438,-24.52863],[-55.27601,-24.529097],[-55.276848,-24.531418],[-55.276484,-24.532701],[-55.276604,-24.534079],[-55.277107,-24.53464],[-55.277189,-24.535607],[-55.278328,-24.536825],[-55.278523,-24.53769],[-55.279669,-24.539188],[-55.280383,-24.540898],[-55.281381,-24.541515],[-55.281474,-24.542369],[-55.282484,-24.543635],[-55.283079,-24.545019],[-55.28377,-24.545375],[-55.284872,-24.546638],[-55.28612,-24.547252],[-55.287561,-24.547458],[-55.287968,-24.549905],[-55.287602,-24.550515],[-55.287413,-24.552007],[-55.287801,-24.552368],[-55.288602,-24.552472],[-55.288444,-24.554272],[-55.290056,-24.555658],[-55.289994,-24.55619],[-55.291584,-24.558176],[-55.292521,-24.558611],[-55.29254,-24.560101],[-55.293183,-24.560325],[-55.29373,-24.561185],[-55.295316,-24.562381],[-55.2968,-24.562723],[-55.297996,-24.562542],[-55.298714,-24.563539],[-55.298778,-24.564433],[-55.299335,-24.565388],[-55.300068,-24.565373],[-55.301899,-24.566699],[-55.302111,-24.568227],[-55.301123,-24.569029],[-55.301799,-24.569939],[-55.301253,-24.571125],[-55.301516,-24.572938],[-55.301186,-24.573715],[-55.301872,-24.574274],[-55.302125,-24.575992],[-55.302596,-24.576146],[-55.303279,-24.575545],[-55.303772,-24.575609],[-55.304412,-24.576605],[-55.303544,-24.578062],[-55.303783,-24.579126],[-55.302966,-24.579442],[-55.302936,-24.581058],[-55.303037,-24.581438],[-55.303975,-24.581683],[-55.304441,-24.583499],[-55.305338,-24.583947],[-55.306153,-24.58806],[-55.305906,-24.589393],[-55.306713,-24.58989],[-55.305995,-24.590419],[-55.30525,-24.592347],[-55.304087,-24.593093],[-55.301225,-24.596099],[-55.30046,-24.596298],[-55.300687,-24.597424],[-55.300034,-24.59776],[-55.299731,-24.599079],[-55.299012,-24.599563],[-55.298427,-24.599557],[-55.298833,-24.600401],[-55.298261,-24.600525],[-55.298384,-24.601701],[-55.29925,-24.602275],[-55.298217,-24.603419],[-55.298081,-24.604632],[-55.297301,-24.605286],[-55.296979,-24.606827],[-55.296117,-24.607106],[-55.296095,-24.607823],[-55.294388,-24.60891],[-55.294025,-24.60998],[-55.294583,-24.610655],[-55.29374,-24.610948],[-55.292623,-24.613116],[-55.292746,-24.613939],[-55.293043,-24.613951],[-55.292992,-24.61479],[-55.293342,-24.614844],[-55.293197,-24.615208],[-55.293651,-24.615321],[-55.294045,-24.616621],[-55.294784,-24.616422],[-55.293902,-24.617288],[-55.294182,-24.617652],[-55.294053,-24.618129],[-55.294605,-24.618727],[-55.294557,-24.619363],[-55.295518,-24.620484],[-55.296327,-24.62062],[-55.296197,-24.620226],[-55.296627,-24.619942],[-55.296849,-24.620378],[-55.29771,-24.619819],[-55.298039,-24.620192],[-55.298582,-24.620104],[-55.299057,-24.620515],[-55.298927,-24.620997],[-55.29937,-24.621201],[-55.298615,-24.621571],[-55.299189,-24.622043],[-55.299027,-24.622515],[-55.299654,-24.622856],[-55.299286,-24.623425],[-55.299677,-24.623606],[-55.299486,-24.623902],[-55.299815,-24.624045],[-55.29991,-24.624548],[-55.300558,-24.624356],[-55.300215,-24.625197],[-55.300603,-24.625391],[-55.299747,-24.625837],[-55.29938,-24.626623],[-55.3,-24.626878],[-55.299505,-24.627712],[-55.300038,-24.627578],[-55.300271,-24.627793],[-55.299565,-24.628291],[-55.300563,-24.628153],[-55.300449,-24.628711],[-55.30103,-24.628614],[-55.30134,-24.628965],[-55.301038,-24.629639],[-55.301328,-24.62994],[-55.300798,-24.630864],[-55.301327,-24.631277],[-55.300423,-24.632174],[-55.301059,-24.632208],[-55.301063,-24.633043],[-55.301454,-24.633522],[-55.300196,-24.635575],[-55.300482,-24.635786],[-55.300845,-24.635339],[-55.301182,-24.635401],[-55.300716,-24.63647],[-55.300977,-24.636884],[-55.30065,-24.638149],[-55.301033,-24.63828],[-55.300372,-24.639247],[-55.300232,-24.638207],[-55.299532,-24.638285],[-55.299742,-24.638707],[-55.299043,-24.639291],[-55.298948,-24.638739],[-55.297843,-24.63907],[-55.298284,-24.638574],[-55.297863,-24.638537],[-55.297494,-24.639057],[-55.297928,-24.63963],[-55.296752,-24.639725],[-55.296297,-24.6401],[-55.296,-24.639563],[-55.294883,-24.639375],[-55.294789,-24.639983],[-55.294222,-24.64013],[-55.293825,-24.641178],[-55.29426,-24.642212],[-55.29377,-24.642698],[-55.293648,-24.642223],[-55.293028,-24.642266],[-55.292735,-24.644032],[-55.292178,-24.644897],[-55.292563,-24.645479],[-55.292403,-24.645992],[-55.29356,-24.646759],[-55.293656,-24.64718],[-55.294146,-24.647307],[-55.293907,-24.648406],[-55.294692,-24.647932],[-55.294488,-24.648706],[-55.295813,-24.649231],[-55.295305,-24.650417],[-55.296279,-24.650149],[-55.296256,-24.650771],[-55.296781,-24.651012],[-55.297515,-24.650686],[-55.297646,-24.651523],[-55.298716,-24.651634],[-55.298672,-24.652008],[-55.298062,-24.651916],[-55.297905,-24.652244],[-55.299052,-24.652952],[-55.298582,-24.653727],[-55.299053,-24.653918],[-55.299402,-24.654798],[-55.30022,-24.655091],[-55.300241,-24.654672],[-55.300631,-24.654663],[-55.30075,-24.655264],[-55.301255,-24.655559],[-55.301104,-24.657724],[-55.301578,-24.657337],[-55.301732,-24.657944],[-55.302342,-24.657743],[-55.302829,-24.658561],[-55.303184,-24.658326],[-55.303429,-24.658572],[-55.303672,-24.65997],[-55.302843,-24.660091],[-55.302458,-24.660498],[-55.303283,-24.660746],[-55.30302,-24.661375],[-55.303962,-24.661156],[-55.304478,-24.662737],[-55.305186,-24.662632],[-55.305753,-24.663677],[-55.305872,-24.664708],[-55.306367,-24.665418],[-55.305763,-24.66602],[-55.306536,-24.666002],[-55.306614,-24.667023],[-55.306994,-24.667506],[-55.306282,-24.668071],[-55.306687,-24.669714],[-55.307124,-24.669778],[-55.30679,-24.670221],[-55.307846,-24.670364],[-55.307455,-24.671064],[-55.308156,-24.671361],[-55.308844,-24.672136],[-55.309201,-24.673201],[-55.309637,-24.673477],[-55.309551,-24.674117],[-55.310447,-24.67386],[-55.310679,-24.674373],[-55.3112,-24.674185],[-55.311319,-24.67369],[-55.31177,-24.674133],[-55.311999,-24.673589],[-55.312284,-24.673597],[-55.312792,-24.674456],[-55.312599,-24.674788],[-55.313375,-24.675216],[-55.313492,-24.676147],[-55.314123,-24.676317],[-55.313941,-24.677087],[-55.314924,-24.676723],[-55.316152,-24.678091],[-55.316294,-24.678996],[-55.316038,-24.679932],[-55.31567,-24.679856],[-55.315503,-24.679389],[-55.314753,-24.67966],[-55.315136,-24.680283],[-55.314422,-24.680966],[-55.314618,-24.681446],[-55.313729,-24.681292],[-55.312857,-24.682131],[-55.313609,-24.682659],[-55.314168,-24.682471],[-55.314045,-24.683133],[-55.314656,-24.683492],[-55.314232,-24.683695],[-55.314296,-24.684156],[-55.316153,-24.685599],[-55.315286,-24.685865],[-55.31574,-24.686836],[-55.316112,-24.686998],[-55.316527,-24.686795],[-55.316773,-24.687218],[-55.316133,-24.687256],[-55.315965,-24.687967],[-55.317388,-24.688064],[-55.316927,-24.688226],[-55.316847,-24.688613],[-55.316882,-24.690713],[-55.317203,-24.691209],[-55.317035,-24.691861],[-55.317681,-24.691927],[-55.317422,-24.692543],[-55.317816,-24.692764],[-55.317219,-24.692965],[-55.316544,-24.692587],[-55.315658,-24.693814],[-55.315039,-24.695202],[-55.315312,-24.69697],[-55.314727,-24.696896],[-55.315181,-24.697673],[-55.314324,-24.69802],[-55.314572,-24.69731],[-55.313573,-24.697628],[-55.313197,-24.696834],[-55.312257,-24.697663],[-55.312084,-24.699562],[-55.311701,-24.699702],[-55.311719,-24.698962],[-55.311041,-24.699577],[-55.310518,-24.7007],[-55.309704,-24.699706],[-55.30996,-24.701763],[-55.309332,-24.701657],[-55.308661,-24.70304],[-55.307669,-24.702943],[-55.306759,-24.704097],[-55.306032,-24.704468],[-55.305808,-24.705174],[-55.305443,-24.704949],[-55.305568,-24.704206],[-55.304452,-24.704636],[-55.304048,-24.704098],[-55.303581,-24.704413],[-55.303146,-24.707004],[-55.303596,-24.707926],[-55.303198,-24.708431],[-55.303907,-24.708151],[-55.30408,-24.70841],[-55.303411,-24.709391],[-55.301994,-24.710517],[-55.302093,-24.710744],[-55.302739,-24.710697],[-55.30268,-24.711148],[-55.3018,-24.711607],[-55.301085,-24.712489],[-55.301835,-24.713039],[-55.301481,-24.713495],[-55.30222,-24.713499],[-55.302337,-24.714169],[-55.301602,-24.713966],[-55.302391,-24.714458],[-55.302056,-24.715267],[-55.302591,-24.715454],[-55.301989,-24.715799],[-55.301735,-24.715092],[-55.301442,-24.715057],[-55.301012,-24.715973],[-55.30174,-24.716171],[-55.301793,-24.717562],[-55.302809,-24.71709],[-55.302506,-24.717845],[-55.30313,-24.718042],[-55.30368,-24.719348],[-55.303473,-24.71977],[-55.303094,-24.719653],[-55.303293,-24.720928],[-55.303036,-24.721463],[-55.303286,-24.721994],[-55.302867,-24.72258],[-55.303455,-24.7227],[-55.30295,-24.723945],[-55.30377,-24.723782],[-55.303417,-24.725729],[-55.304086,-24.726508],[-55.304788,-24.726525],[-55.304624,-24.726921],[-55.304966,-24.727055],[-55.305309,-24.72863],[-55.305755,-24.728392],[-55.305741,-24.728933],[-55.306497,-24.728811],[-55.307063,-24.73125],[-55.30786,-24.731043],[-55.308306,-24.7327],[-55.308938,-24.733371],[-55.309045,-24.732925],[-55.308497,-24.732201],[-55.309009,-24.732315],[-55.309698,-24.734287],[-55.310264,-24.733607],[-55.311282,-24.734255],[-55.31192,-24.736984],[-55.313558,-24.737576],[-55.314115,-24.738666],[-55.31429,-24.737955],[-55.314629,-24.737981],[-55.313635,-24.740615],[-55.314933,-24.740278],[-55.315994,-24.741292],[-55.31636,-24.742276],[-55.316114,-24.743099],[-55.317062,-24.743191],[-55.316959,-24.744169],[-55.317489,-24.744469],[-55.317004,-24.745],[-55.317346,-24.745442],[-55.316671,-24.745421],[-55.316838,-24.745784],[-55.317097,-24.745959],[-55.31775,-24.745745],[-55.317724,-24.746322],[-55.318246,-24.745922],[-55.318968,-24.745943],[-55.319084,-24.746198],[-55.318677,-24.746455],[-55.318871,-24.746615],[-55.319612,-24.746362],[-55.32028,-24.747019],[-55.32046,-24.748073],[-55.321555,-24.748771],[-55.32131,-24.74941],[-55.322274,-24.749303],[-55.321709,-24.749843],[-55.32254,-24.750105],[-55.322052,-24.750659],[-55.323332,-24.751035],[-55.322806,-24.751512],[-55.323664,-24.751978],[-55.323593,-24.752952],[-55.323002,-24.753298],[-55.323647,-24.753887],[-55.323057,-24.754138],[-55.323172,-24.755322],[-55.323636,-24.755562],[-55.323101,-24.75608],[-55.323863,-24.756142],[-55.323739,-24.756795],[-55.324302,-24.756684],[-55.324,-24.757417],[-55.324343,-24.75822],[-55.3241,-24.758524],[-55.323677,-24.758501],[-55.323448,-24.758268],[-55.323674,-24.757819],[-55.323203,-24.757959],[-55.323408,-24.758873],[-55.323004,-24.759099],[-55.323549,-24.760044],[-55.323116,-24.761118],[-55.321545,-24.761714],[-55.322847,-24.76251],[-55.321533,-24.7638],[-55.321561,-24.764482],[-55.322007,-24.764148],[-55.322236,-24.764327],[-55.321892,-24.765465],[-55.322019,-24.766563],[-55.320892,-24.766203],[-55.320705,-24.766364],[-55.321723,-24.767043],[-55.321423,-24.767983],[-55.322553,-24.76828],[-55.322012,-24.769561],[-55.322113,-24.770199],[-55.322392,-24.770328],[-55.323094,-24.769817],[-55.323843,-24.771491],[-55.323764,-24.772104],[-55.322979,-24.772876],[-55.323903,-24.773365],[-55.324045,-24.773999],[-55.32355,-24.774503],[-55.324048,-24.77483],[-55.324119,-24.775693],[-55.324584,-24.776063],[-55.324818,-24.776919],[-55.325336,-24.77688],[-55.325576,-24.777248],[-55.324662,-24.777888],[-55.325621,-24.778007],[-55.325822,-24.778551],[-55.32686,-24.778247],[-55.326681,-24.778872],[-55.327096,-24.779301],[-55.327269,-24.780522],[-55.327955,-24.780525],[-55.328454,-24.781447],[-55.32901,-24.783796],[-55.328772,-24.784566],[-55.32929,-24.784748],[-55.328505,-24.785028],[-55.328229,-24.785539],[-55.329259,-24.785768],[-55.330274,-24.785445],[-55.329795,-24.786225],[-55.330851,-24.78658],[-55.331274,-24.787072],[-55.331107,-24.787319],[-55.330726,-24.787093],[-55.330564,-24.787303],[-55.330614,-24.788103],[-55.331069,-24.7887],[-55.330231,-24.790451],[-55.329041,-24.791205],[-55.33014,-24.791949],[-55.330432,-24.792503],[-55.330098,-24.792503],[-55.329549,-24.791906],[-55.328956,-24.792148],[-55.328852,-24.792521],[-55.329158,-24.793039],[-55.329931,-24.793463],[-55.329469,-24.793598],[-55.329513,-24.793946],[-55.33101,-24.794762],[-55.330877,-24.795108],[-55.331222,-24.795568],[-55.33011,-24.797212],[-55.330323,-24.797422],[-55.330791,-24.796967],[-55.330975,-24.797091],[-55.33094,-24.799424],[-55.331804,-24.79961],[-55.331409,-24.80082],[-55.331979,-24.80098],[-55.331582,-24.801544],[-55.33223,-24.801479],[-55.332296,-24.80241],[-55.333054,-24.802017],[-55.333063,-24.802911],[-55.334106,-24.803012],[-55.334991,-24.804192],[-55.334975,-24.805424],[-55.334297,-24.807218],[-55.334985,-24.807031],[-55.335289,-24.807703],[-55.335619,-24.807115],[-55.336021,-24.807846],[-55.335724,-24.808461],[-55.334586,-24.80904],[-55.334431,-24.809892],[-55.334633,-24.810025],[-55.335408,-24.809609],[-55.33557,-24.809006],[-55.336096,-24.809125],[-55.336543,-24.809586],[-55.336222,-24.811943],[-55.337824,-24.812024],[-55.336644,-24.81383],[-55.334174,-24.815676],[-55.333826,-24.815447],[-55.333571,-24.815624],[-55.333703,-24.816407],[-55.334343,-24.81701],[-55.334219,-24.818318],[-55.334839,-24.818519],[-55.334692,-24.819515],[-55.333741,-24.820687],[-55.33447,-24.820736],[-55.334399,-24.821561],[-55.334965,-24.821445],[-55.334985,-24.822804],[-55.334666,-24.823528],[-55.335608,-24.823186],[-55.335843,-24.823342],[-55.335537,-24.824377],[-55.333846,-24.825893],[-55.334791,-24.826026],[-55.334158,-24.826714],[-55.335557,-24.827569],[-55.335508,-24.828792],[-55.335944,-24.82928],[-55.335676,-24.829679],[-55.336496,-24.83008],[-55.337142,-24.831081],[-55.336546,-24.832045],[-55.337358,-24.831977],[-55.33723,-24.832603],[-55.337482,-24.832773],[-55.338079,-24.832468],[-55.33899,-24.832591],[-55.33789,-24.83359],[-55.338489,-24.834093],[-55.338513,-24.834554],[-55.339534,-24.835193],[-55.339111,-24.83564],[-55.34084,-24.835731],[-55.3416,-24.834868],[-55.341766,-24.835466],[-55.342487,-24.835131],[-55.343325,-24.835524],[-55.343481,-24.836058],[-55.345025,-24.836405],[-55.344549,-24.837226],[-55.345278,-24.836755],[-55.345383,-24.837131],[-55.34407,-24.838986],[-55.344517,-24.839167],[-55.345257,-24.838859],[-55.345714,-24.83816],[-55.347081,-24.839935],[-55.347004,-24.840436],[-55.346164,-24.841108],[-55.347425,-24.840838],[-55.346983,-24.841891],[-55.348037,-24.841738],[-55.348251,-24.842142],[-55.347909,-24.842793],[-55.348398,-24.84283],[-55.348866,-24.842709],[-55.348252,-24.840844],[-55.348133,-24.838479],[-55.352622,-24.835672],[-55.354519,-24.836596],[-55.354965,-24.835564],[-55.355601,-24.83536],[-55.357868,-24.833525],[-55.358791,-24.83336],[-55.361566,-24.833844],[-55.36218,-24.833107],[-55.362251,-24.832499],[-55.362072,-24.831587],[-55.360914,-24.830147],[-55.361229,-24.829474],[-55.363833,-24.831177],[-55.369265,-24.837674],[-55.368993,-24.838998],[-55.370036,-24.841131],[-55.370238,-24.8434],[-55.370792,-24.844462],[-55.370834,-24.846991],[-55.371171,-24.847879],[-55.370726,-24.849788],[-55.371099,-24.851309],[-55.371697,-24.852079],[-55.373863,-24.858626],[-55.377267,-24.864319],[-55.380692,-24.867905],[-55.383091,-24.868897],[-55.389055,-24.875151],[-55.391484,-24.875705],[-55.394632,-24.878014],[-55.398269,-24.879448],[-55.400358,-24.879548],[-55.406196,-24.877001],[-55.411838,-24.876135],[-55.41467,-24.876743],[-55.41656,-24.876605],[-55.419389,-24.875272],[-55.420828,-24.874944],[-55.422299,-24.8751],[-55.423215,-24.876996],[-55.423084,-24.877884],[-55.42353,-24.87918],[-55.426087,-24.882196],[-55.437509,-24.884266],[-55.448556,-24.889884],[-55.457276,-24.893636],[-55.463317,-24.894024],[-55.465063,-24.894958],[-55.466614,-24.897015],[-55.473626,-24.89784],[-55.488649,-24.893068],[-55.499321,-24.892973],[-55.500437,-24.892794],[-55.500942,-24.892212],[-55.530079,-24.890899],[-55.548747,-24.893222],[-55.552954,-24.896676],[-55.552948,-24.897877],[-55.556848,-24.899576],[-55.558603,-24.901629],[-55.559482,-24.901976],[-55.570893,-24.900953],[-55.580412,-24.90145],[-55.582437,-24.900688],[-55.583486,-24.900604],[-55.585809,-24.901136],[-55.586383,-24.901845],[-55.586813,-24.904635],[-55.587793,-24.906428],[-55.589443,-24.907486],[-55.59301,-24.911985],[-55.593903,-24.912522],[-55.594971,-24.912586],[-55.596534,-24.913215],[-55.600989,-24.917611],[-55.605753,-24.919437],[-55.630877,-24.92729],[-55.631866,-24.928862],[-55.632034,-24.930809],[-55.6326,-24.931396],[-55.632171,-24.934598],[-55.636237,-24.935728],[-55.639937,-24.938096],[-55.642928,-24.93885],[-55.644914,-24.938984],[-55.647499,-24.939771],[-55.65031,-24.945303],[-55.651582,-24.945934],[-55.652874,-24.948315],[-55.657521,-24.951116],[-55.661958,-24.962459],[-55.662529,-24.962649],[-55.66415,-24.966271],[-55.663294,-24.969933],[-55.664668,-24.970335],[-55.665345,-24.974168],[-55.666976,-24.974651],[-55.668413,-24.975644],[-55.674335,-24.980837],[-55.677458,-24.982209],[-55.680049,-24.983844],[-55.682672,-24.987434],[-55.685732,-24.987194],[-55.691431,-24.987741],[-55.693867,-24.988625],[-55.69937,-24.988795],[-55.703403,-24.990939],[-55.705682,-24.991812],[-55.70724,-24.993044],[-55.708073,-24.993322],[-55.710766,-24.992054],[-55.7181,-24.991014],[-55.718158,-24.991596],[-55.717581,-24.992001],[-55.717773,-24.993007],[-55.717246,-24.992568],[-55.717039,-24.992695],[-55.716581,-24.994086],[-55.715818,-24.994521],[-55.715726,-24.995192],[-55.713294,-24.997465],[-55.712526,-24.997871],[-55.710561,-24.998157],[-55.710203,-24.998625],[-55.708215,-24.999124],[-55.707349,-24.998883],[-55.707056,-24.999126],[-55.706668,-24.998918],[-55.70508,-24.999093],[-55.703549,-25.001023],[-55.702858,-25.000814],[-55.703009,-25.001535],[-55.702464,-25.000874],[-55.701857,-25.001311],[-55.702772,-25.002746],[-55.702084,-25.002802],[-55.701642,-25.003248],[-55.701522,-25.002872],[-55.701236,-25.003014],[-55.701094,-25.003337],[-55.701331,-25.003467],[-55.700698,-25.004767],[-55.700864,-25.006214],[-55.701119,-25.006299],[-55.700959,-25.006715],[-55.701466,-25.006543],[-55.701355,-25.007053],[-55.701627,-25.007203],[-55.700931,-25.007989],[-55.700936,-25.008581],[-55.701414,-25.009268],[-55.701752,-25.008992],[-55.702082,-25.009445],[-55.701435,-25.009769],[-55.701675,-25.010249],[-55.701364,-25.010667],[-55.70106,-25.010403],[-55.700602,-25.01069],[-55.700983,-25.012131],[-55.700357,-25.012657],[-55.700651,-25.013216],[-55.700228,-25.013272],[-55.700696,-25.01367],[-55.70022,-25.014125],[-55.700474,-25.014441],[-55.70018,-25.014842],[-55.700736,-25.015622],[-55.701284,-25.015476],[-55.701363,-25.016656],[-55.700905,-25.016517],[-55.700827,-25.017032],[-55.700164,-25.017096],[-55.700574,-25.018351],[-55.699987,-25.018915],[-55.699888,-25.019864],[-55.699398,-25.019995],[-55.700017,-25.020348],[-55.699971,-25.020929],[-55.699284,-25.020418],[-55.69859,-25.021121],[-55.698304,-25.020739],[-55.697818,-25.02096],[-55.697515,-25.020679],[-55.697671,-25.02024],[-55.696549,-25.020146],[-55.696008,-25.019446],[-55.693396,-25.018642],[-55.692575,-25.017553],[-55.690752,-25.017699],[-55.689211,-25.017475],[-55.688674,-25.017914],[-55.687975,-25.019765],[-55.687608,-25.019645],[-55.687901,-25.018855],[-55.686989,-25.019382],[-55.686391,-25.019156],[-55.684972,-25.019683],[-55.684766,-25.021769],[-55.683956,-25.020313],[-55.683711,-25.020484],[-55.683888,-25.020998],[-55.682445,-25.021413],[-55.681876,-25.02204],[-55.681096,-25.021843],[-55.680977,-25.022229],[-55.68045,-25.022002],[-55.679289,-25.022455],[-55.679426,-25.023955],[-55.678826,-25.02401],[-55.677874,-25.025392],[-55.677528,-25.02516],[-55.677015,-25.025706],[-55.6779,-25.026373],[-55.678109,-25.027038],[-55.677912,-25.02756],[-55.678459,-25.027259],[-55.678746,-25.027778],[-55.678534,-25.028128],[-55.679052,-25.028681],[-55.679926,-25.028661],[-55.679769,-25.029192],[-55.681941,-25.029634],[-55.682009,-25.029882],[-55.681506,-25.030098],[-55.682665,-25.03047],[-55.683108,-25.031049],[-55.682999,-25.031545],[-55.683564,-25.031727],[-55.683625,-25.032157],[-55.682903,-25.033312],[-55.68332,-25.03334],[-55.683273,-25.033875],[-55.683733,-25.033777],[-55.68363,-25.034396],[-55.684453,-25.034509],[-55.683911,-25.035549],[-55.684313,-25.035883],[-55.683943,-25.036267],[-55.684719,-25.036635],[-55.68424,-25.037099],[-55.684833,-25.037091],[-55.685433,-25.03758],[-55.685269,-25.038431],[-55.686313,-25.039037],[-55.686663,-25.0399],[-55.686447,-25.041094],[-55.68752,-25.041957],[-55.687976,-25.041998],[-55.687692,-25.042531],[-55.688673,-25.043115],[-55.688399,-25.043318],[-55.688833,-25.043949],[-55.688481,-25.044139],[-55.689317,-25.044511],[-55.689174,-25.045027],[-55.690161,-25.04539],[-55.690419,-25.04583],[-55.690255,-25.046392],[-55.690784,-25.046801],[-55.690445,-25.047416],[-55.691049,-25.047176],[-55.691217,-25.047802],[-55.692664,-25.048259],[-55.693332,-25.048978],[-55.69326,-25.049363],[-55.694515,-25.050213],[-55.694626,-25.050816],[-55.694191,-25.050956],[-55.694758,-25.051323],[-55.694472,-25.051733],[-55.694764,-25.052379],[-55.695561,-25.052594],[-55.695719,-25.052944],[-55.697012,-25.052946],[-55.697055,-25.053351],[-55.696548,-25.053612],[-55.697007,-25.053754],[-55.696546,-25.054154],[-55.696623,-25.055156],[-55.696358,-25.055456],[-55.697013,-25.056037],[-55.697142,-25.05561],[-55.697581,-25.056067],[-55.698793,-25.056022],[-55.699284,-25.055743],[-55.699449,-25.055087],[-55.699752,-25.055159],[-55.700031,-25.055738],[-55.701377,-25.056534],[-55.701425,-25.057988],[-55.701993,-25.05823],[-55.7018,-25.05847],[-55.702033,-25.059188],[-55.702721,-25.059447],[-55.702288,-25.060078],[-55.702902,-25.059934],[-55.703621,-25.060359],[-55.703578,-25.060878],[-55.703978,-25.061207],[-55.707014,-25.062294],[-55.706965,-25.062706],[-55.707302,-25.062873],[-55.707049,-25.063294],[-55.707488,-25.063463],[-55.707222,-25.064089],[-55.706961,-25.064097],[-55.707239,-25.064563],[-55.706897,-25.064828],[-55.707121,-25.065098],[-55.708002,-25.065178],[-55.70795,-25.065868],[-55.708625,-25.066266],[-55.708564,-25.066698],[-55.709267,-25.06657],[-55.709009,-25.067434],[-55.709598,-25.068418],[-55.709242,-25.068889],[-55.71013,-25.068433],[-55.711566,-25.069579],[-55.710997,-25.069946],[-55.711262,-25.070556],[-55.711636,-25.070477],[-55.711776,-25.071138],[-55.713005,-25.071592],[-55.712604,-25.072114],[-55.713097,-25.072283],[-55.713269,-25.072903],[-55.713777,-25.073016],[-55.713628,-25.073478],[-55.714113,-25.073374],[-55.714441,-25.073632],[-55.713983,-25.074378],[-55.714653,-25.0745],[-55.714691,-25.074894],[-55.714333,-25.075077],[-55.71538,-25.076416],[-55.715279,-25.077149],[-55.715978,-25.0768],[-55.71649,-25.077361],[-55.717338,-25.077476],[-55.717714,-25.078044],[-55.717241,-25.078666],[-55.717658,-25.078499],[-55.718797,-25.079228],[-55.718681,-25.079714],[-55.720278,-25.07962],[-55.721537,-25.080172],[-55.722123,-25.08013],[-55.722381,-25.080612],[-55.722834,-25.080322],[-55.723135,-25.080812],[-55.723993,-25.080765],[-55.723869,-25.081197],[-55.724744,-25.081173],[-55.725109,-25.08195],[-55.726816,-25.081949],[-55.728214,-25.081381],[-55.728225,-25.081907],[-55.728633,-25.081879],[-55.729111,-25.082479],[-55.729683,-25.082159],[-55.729673,-25.081463],[-55.730929,-25.081505],[-55.730785,-25.080653],[-55.729996,-25.079804],[-55.730879,-25.079757],[-55.732534,-25.078913],[-55.732836,-25.079248],[-55.733128,-25.078934],[-55.733661,-25.079116],[-55.733646,-25.078103],[-55.734192,-25.077837],[-55.73482,-25.075431],[-55.736065,-25.074792],[-55.736972,-25.074931],[-55.738053,-25.073835],[-55.738134,-25.073403],[-55.739423,-25.072679],[-55.739406,-25.071813],[-55.740574,-25.069697],[-55.741575,-25.068902],[-55.742057,-25.069091],[-55.742569,-25.06884],[-55.742569,-25.069683],[-55.743183,-25.07016],[-55.742923,-25.070761],[-55.743653,-25.070759],[-55.745497,-25.068038],[-55.746601,-25.067954],[-55.747042,-25.066312],[-55.747617,-25.066548],[-55.747474,-25.065604],[-55.748272,-25.065526],[-55.747868,-25.065228],[-55.748007,-25.064039],[-55.748329,-25.064158],[-55.748196,-25.064636],[-55.74857,-25.064662],[-55.75001,-25.063283],[-55.750256,-25.063223],[-55.750616,-25.063736],[-55.750699,-25.063072],[-55.751684,-25.063081],[-55.751864,-25.062896],[-55.751578,-25.062593],[-55.7522,-25.062389],[-55.752801,-25.061652],[-55.753286,-25.061602],[-55.753924,-25.060595],[-55.754793,-25.060277],[-55.755071,-25.059646],[-55.755519,-25.059804],[-55.75584,-25.059119],[-55.756212,-25.059222],[-55.756833,-25.058269],[-55.758139,-25.057584],[-55.758619,-25.057905],[-55.759578,-25.057897],[-55.759744,-25.058316],[-55.760289,-25.058089],[-55.760752,-25.05851],[-55.761225,-25.057826],[-55.761767,-25.058039],[-55.761848,-25.057538],[-55.763076,-25.056079],[-55.762926,-25.056712],[-55.763409,-25.05677],[-55.763588,-25.055836],[-55.76397,-25.056697],[-55.765553,-25.056192],[-55.76582,-25.055847],[-55.766329,-25.055897],[-55.766595,-25.055583],[-55.766832,-25.0556],[-55.766734,-25.056117],[-55.768048,-25.055432],[-55.768657,-25.055553],[-55.768518,-25.055119],[-55.769023,-25.054683],[-55.769217,-25.053873],[-55.769527,-25.054339],[-55.770921,-25.053268],[-55.771744,-25.053267],[-55.7725,-25.053721],[-55.773519,-25.053181],[-55.773941,-25.053409],[-55.774708,-25.053083],[-55.775283,-25.05325],[-55.776793,-25.051593],[-55.776646,-25.051066],[-55.777401,-25.05108],[-55.77761,-25.050525],[-55.77795,-25.050504],[-55.778224,-25.049363],[-55.778972,-25.04926],[-55.779537,-25.048739],[-55.780446,-25.048708],[-55.780639,-25.048084],[-55.780067,-25.047515],[-55.780006,-25.046834],[-55.783301,-25.044928],[-55.784474,-25.044729],[-55.784785,-25.045041],[-55.784899,-25.044663],[-55.785545,-25.044529],[-55.78554,-25.044196],[-55.785026,-25.043829],[-55.785525,-25.043114],[-55.785898,-25.043109],[-55.785995,-25.043667],[-55.787235,-25.043553],[-55.787554,-25.042968],[-55.788228,-25.04268],[-55.788462,-25.043061],[-55.789055,-25.043158],[-55.789195,-25.042711],[-55.788596,-25.042327],[-55.789426,-25.041638],[-55.790331,-25.041963],[-55.791294,-25.041576],[-55.791657,-25.041711],[-55.791814,-25.041333],[-55.792827,-25.040947],[-55.79466,-25.040946],[-55.794355,-25.038026],[-55.795029,-25.037747],[-55.794149,-25.036413],[-55.794269,-25.035628],[-55.794769,-25.035578],[-55.794498,-25.035355],[-55.794712,-25.0349],[-55.795194,-25.035076],[-55.795268,-25.034634],[-55.796899,-25.034254],[-55.796895,-25.032561],[-55.798067,-25.033216],[-55.799057,-25.033202],[-55.798858,-25.032649],[-55.799966,-25.03139],[-55.79933,-25.030743],[-55.799401,-25.030437],[-55.800244,-25.029717],[-55.801107,-25.0299],[-55.801514,-25.028914],[-55.801462,-25.028124],[-55.802488,-25.027143]]]}}]}
