{"type":"FeatureCollection","name":"distrito","features":[{"type":"Feature","properties":{"clave":"4-29","nombre":"San Salvador"},"geometry":{"type":"Polygon","coordinates":[[[-56.48823,-25.938607],[-56.482603,-25.925735],[-56.488723,-25.914666],[-56.489788,-25.911974],[-56.491358,-25.901279],[-56.491124,-25.899143],[-56.489881,-25.895832],[-56.494253,-25.893322],[-56.49403,-25.888536],[-56.489932,-25.879995],[-56.467172,-25.883544],[-56.454695,-25.885918],[-56.454944,-25.897856],[-56.43342,-25.91753],[-56.430817,-25.919204],[-56.429083,-25.919062],[-56.427972,-25.918172],[-56.426643,-25.918145],[-56.426012,-25.917329],[-56.423467,-25.916231],[-56.422506,-25.9143],[-56.421862,-25.913728],[-56.420901,-25.914198],[-56.419497,-25.914256],[-56.419447,-25.913574],[-56.418744,-25.913354],[-56.418179,-25.912431],[-56.417451,-25.912076],[-56.416295,-25.912311],[-56.415362,-25.911941],[-56.413203,-25.908506],[-56.412166,-25.908181],[-56.410465,-25.906996],[-56.409646,-25.906974],[-56.407773,-25.908023],[-56.403859,-25.907574],[-56.400537,-25.905957],[-56.399967,-25.90526],[-56.397946,-25.904443],[-56.396528,-25.903372],[-56.394764,-25.902538],[-56.394199,-25.901195],[-56.392801,-25.90146],[-56.391481,-25.901342],[-56.390483,-25.899703],[-56.38959,-25.899017],[-56.389069,-25.898997],[-56.388852,-25.90064],[-56.38839,-25.901315],[-56.3877,-25.901574],[-56.387139,-25.901292],[-56.386899,-25.899349],[-56.386233,-25.898985],[-56.383564,-25.899182],[-56.381028,-25.897776],[-56.379083,-25.898806],[-56.378731,-25.898425],[-56.37818,-25.896048],[-56.376745,-25.895495],[-56.375065,-25.893849],[-56.374556,-25.893721],[-56.373001,-25.895692],[-56.372061,-25.895064],[-56.37117,-25.893318],[-56.370356,-25.89312],[-56.368468,-25.893383],[-56.367784,-25.892915],[-56.364607,-25.89356],[-56.363888,-25.893781],[-56.367755,-25.9156],[-56.369215,-25.933374],[-56.370163,-25.934416],[-56.370648,-25.936179],[-56.369946,-25.938614],[-56.370421,-25.939433],[-56.37167,-25.939737],[-56.371952,-25.941278],[-56.371393,-25.942128],[-56.36952,-25.943195],[-56.369264,-25.944011],[-56.369356,-25.946047],[-56.367275,-25.950282],[-56.367414,-25.951488],[-56.368896,-25.95387],[-56.350981,-25.967972],[-56.35077,-25.968887],[-56.351139,-25.970496],[-56.350603,-25.971401],[-56.349728,-25.971528],[-56.349401,-25.97214],[-56.349964,-25.97305],[-56.349826,-25.973497],[-56.350316,-25.973716],[-56.34967,-25.974169],[-56.350238,-25.974695],[-56.349686,-25.975744],[-56.350637,-25.976277],[-56.350772,-25.978174],[-56.351466,-25.978515],[-56.352151,-25.982234],[-56.353777,-25.983835],[-56.354974,-25.985926],[-56.356663,-25.986498],[-56.358742,-25.989117],[-56.365472,-25.993102],[-56.366468,-25.993426],[-56.367081,-25.993253],[-56.368807,-25.994001],[-56.369595,-25.993652],[-56.370848,-25.994624],[-56.370961,-25.993843],[-56.371643,-25.99409],[-56.372592,-25.993115],[-56.373088,-25.993072],[-56.373286,-25.99333],[-56.373025,-25.994719],[-56.374,-25.995039],[-56.374383,-25.9957],[-56.377328,-25.996345],[-56.377919,-25.996149],[-56.378278,-25.996466],[-56.378823,-25.996094],[-56.380654,-25.997339],[-56.381546,-25.997153],[-56.382684,-25.997352],[-56.383197,-25.99753],[-56.383583,-25.998241],[-56.384789,-25.998147],[-56.385938,-25.999362],[-56.386114,-25.999945],[-56.38684,-25.999433],[-56.387981,-25.999673],[-56.388215,-26.000604],[-56.389257,-26.001312],[-56.389416,-26.002433],[-56.390671,-26.002876],[-56.390883,-26.004137],[-56.392599,-26.006681],[-56.393493,-26.006834],[-56.392969,-26.007473],[-56.394072,-26.007477],[-56.39384,-26.008077],[-56.39557,-26.007556],[-56.395608,-26.008274],[-56.395982,-26.008519],[-56.398122,-26.009111],[-56.399034,-26.00981],[-56.399399,-26.01173],[-56.400252,-26.011788],[-56.400714,-26.01104],[-56.400896,-26.011962],[-56.401229,-26.012189],[-56.402269,-26.01227],[-56.403596,-26.013345],[-56.405342,-26.013637],[-56.407272,-26.014828],[-56.408249,-26.014963],[-56.409136,-26.016583],[-56.409656,-26.016626],[-56.409929,-26.016157],[-56.410758,-26.016815],[-56.410725,-26.017307],[-56.41154,-26.018728],[-56.411178,-26.020212],[-56.412062,-26.020441],[-56.413553,-26.022104],[-56.414507,-26.022596],[-56.419001,-26.023029],[-56.42174,-26.024733],[-56.423279,-26.025114],[-56.423355,-26.026541],[-56.423726,-26.027297],[-56.424886,-26.028394],[-56.428374,-26.030399],[-56.429034,-26.03153],[-56.431067,-26.033082],[-56.432106,-26.033497],[-56.434876,-26.035887],[-56.436753,-26.036346],[-56.439478,-26.039029],[-56.441507,-26.038798],[-56.442264,-26.03806],[-56.445284,-26.038072],[-56.446648,-26.037851],[-56.447184,-26.037379],[-56.447784,-26.037485],[-56.448242,-26.037243],[-56.448726,-26.037462],[-56.448918,-26.036343],[-56.448451,-26.035673],[-56.448827,-26.035119],[-56.448109,-26.034886],[-56.448036,-26.034462],[-56.448815,-26.033295],[-56.449202,-26.033437],[-56.449138,-26.034285],[-56.45027,-26.033332],[-56.449911,-26.031859],[-56.450511,-26.030354],[-56.450096,-26.029946],[-56.450047,-26.029223],[-56.450923,-26.028287],[-56.451854,-26.0283],[-56.451857,-26.026936],[-56.452411,-26.026306],[-56.454212,-26.025356],[-56.455368,-26.025785],[-56.456268,-26.025052],[-56.456337,-26.024294],[-56.458896,-26.023735],[-56.459467,-26.022365],[-56.46035,-26.021654],[-56.461246,-26.021649],[-56.46206,-26.02088],[-56.462899,-26.021077],[-56.463605,-26.020294],[-56.464879,-26.019594],[-56.465353,-26.019682],[-56.46597,-26.01935],[-56.466799,-26.019513],[-56.467312,-26.018962],[-56.468343,-26.018917],[-56.469364,-26.017995],[-56.469793,-26.018213],[-56.470366,-26.019285],[-56.471274,-26.018819],[-56.47173,-26.019584],[-56.473437,-26.01977],[-56.474947,-26.02053],[-56.475886,-26.020705],[-56.47643,-26.020233],[-56.476884,-26.020808],[-56.477561,-26.020467],[-56.478853,-26.021108],[-56.479922,-26.02053],[-56.480881,-26.020849],[-56.481576,-26.020048],[-56.48228,-26.020904],[-56.483031,-26.01901],[-56.48394,-26.018874],[-56.484738,-26.019305],[-56.4852,-26.019203],[-56.485418,-26.018242],[-56.486314,-26.017519],[-56.485003,-26.016318],[-56.483815,-26.016142],[-56.482936,-26.015209],[-56.481218,-26.014828],[-56.4799,-26.014164],[-56.479743,-26.013364],[-56.478975,-26.012472],[-56.478613,-26.009387],[-56.478367,-26.008704],[-56.477983,-26.008595],[-56.477129,-25.993643],[-56.473593,-25.982248],[-56.472415,-25.979991],[-56.464526,-25.969578],[-56.48681,-25.946304],[-56.48823,-25.938607]]]}}]}
