{"type":"FeatureCollection","name":"distrito","features":[{"type":"Feature","properties":{"clave":"14-3","nombre":"Francisco Caballero Alvarez"},"geometry":{"type":"Polygon","coordinates":[[[-54.717384,-24.190714],[-54.717903,-24.191093],[-54.719866,-24.190444],[-54.721505,-24.190833],[-54.722507,-24.190678],[-54.726862,-24.188606],[-54.728335,-24.188475],[-54.731135,-24.191689],[-54.732105,-24.192289],[-54.733025,-24.193609],[-54.735485,-24.194655],[-54.736758,-24.193817],[-54.737281,-24.194555],[-54.7386,-24.195278],[-54.738959,-24.196412],[-54.741002,-24.198028],[-54.741143,-24.199473],[-54.741953,-24.199162],[-54.742907,-24.199626],[-54.743966,-24.198853],[-54.745086,-24.198751],[-54.746158,-24.197748],[-54.7465,-24.197754],[-54.746842,-24.198335],[-54.746685,-24.199343],[-54.747119,-24.199892],[-54.748498,-24.199352],[-54.748846,-24.198458],[-54.749341,-24.199272],[-54.750972,-24.199627],[-54.75167,-24.198831],[-54.753982,-24.198288],[-54.754856,-24.196978],[-54.755479,-24.196775],[-54.756541,-24.197944],[-54.758552,-24.197719],[-54.763346,-24.200699],[-54.764107,-24.201567],[-54.768302,-24.204454],[-54.769773,-24.204959],[-54.771529,-24.206138],[-54.772295,-24.206209],[-54.772568,-24.205382],[-54.771685,-24.204037],[-54.770666,-24.200943],[-54.771631,-24.199693],[-54.773438,-24.199507],[-54.773583,-24.199127],[-54.772854,-24.198005],[-54.772023,-24.197366],[-54.771447,-24.195923],[-54.771135,-24.195792],[-54.769451,-24.195852],[-54.768903,-24.196505],[-54.768455,-24.197831],[-54.767878,-24.198017],[-54.767726,-24.197701],[-54.768473,-24.195693],[-54.770834,-24.193938],[-54.770883,-24.193252],[-54.77009,-24.192638],[-54.769555,-24.193088],[-54.768852,-24.193061],[-54.767446,-24.192047],[-54.767262,-24.190891],[-54.76621,-24.190273],[-54.766079,-24.189813],[-54.767274,-24.188626],[-54.767154,-24.188082],[-54.76642,-24.187757],[-54.765661,-24.187805],[-54.764439,-24.188398],[-54.764541,-24.188926],[-54.765233,-24.189555],[-54.764733,-24.190107],[-54.76465,-24.191133],[-54.763832,-24.191401],[-54.763624,-24.191135],[-54.764209,-24.189888],[-54.764046,-24.189699],[-54.762847,-24.190088],[-54.759568,-24.187699],[-54.758702,-24.184878],[-54.757648,-24.184371],[-54.75737,-24.183824],[-54.754533,-24.183739],[-54.753735,-24.183397],[-54.754029,-24.181917],[-54.753501,-24.181425],[-54.753323,-24.18049],[-54.751882,-24.179374],[-54.752208,-24.177114],[-54.752967,-24.17654],[-54.752955,-24.176175],[-54.751046,-24.175366],[-54.7498,-24.175746],[-54.749421,-24.175232],[-54.750496,-24.173992],[-54.752251,-24.173602],[-54.752474,-24.17302],[-54.751593,-24.172626],[-54.748901,-24.173757],[-54.748115,-24.171141],[-54.749141,-24.169035],[-54.748671,-24.168935],[-54.747877,-24.169381],[-54.747394,-24.168483],[-54.748572,-24.166176],[-54.7472,-24.165834],[-54.746817,-24.164997],[-54.745723,-24.164624],[-54.745456,-24.164044],[-54.747335,-24.163953],[-54.747417,-24.162961],[-54.747737,-24.162627],[-54.749686,-24.16274],[-54.750312,-24.162376],[-54.750383,-24.160952],[-54.749895,-24.159274],[-54.748704,-24.158111],[-54.748671,-24.15733],[-54.749996,-24.15718],[-54.750505,-24.157696],[-54.751355,-24.157684],[-54.754859,-24.159321],[-54.764195,-24.162054],[-54.767768,-24.160224],[-54.768615,-24.16044],[-54.770072,-24.159061],[-54.770676,-24.1589],[-54.771899,-24.159249],[-54.774145,-24.156652],[-54.775176,-24.155861],[-54.77631,-24.155479],[-54.776838,-24.154901],[-54.77657,-24.154372],[-54.774852,-24.153719],[-54.774898,-24.152701],[-54.777441,-24.151817],[-54.77964,-24.153014],[-54.780335,-24.151305],[-54.781058,-24.152243],[-54.781976,-24.154767],[-54.783413,-24.156484],[-54.785907,-24.158421],[-54.787078,-24.159841],[-54.788291,-24.160288],[-54.789375,-24.158912],[-54.790412,-24.158803],[-54.791573,-24.158005],[-54.794661,-24.159034],[-54.795472,-24.160652],[-54.796359,-24.160654],[-54.797253,-24.159569],[-54.798253,-24.161688],[-54.797634,-24.163963],[-54.797463,-24.166744],[-54.797755,-24.167675],[-54.798433,-24.167719],[-54.798551,-24.168003],[-54.79804,-24.168301],[-54.79498,-24.167737],[-54.792868,-24.168668],[-54.791198,-24.174028],[-54.789126,-24.175513],[-54.789801,-24.177118],[-54.789108,-24.177277],[-54.78831,-24.176338],[-54.787729,-24.176443],[-54.787506,-24.17722],[-54.786034,-24.178907],[-54.786871,-24.179711],[-54.786782,-24.180592],[-54.785629,-24.180247],[-54.785067,-24.180669],[-54.785441,-24.182552],[-54.78468,-24.182348],[-54.784577,-24.18263],[-54.78621,-24.184452],[-54.785392,-24.184666],[-54.786261,-24.185753],[-54.785604,-24.186683],[-54.786659,-24.187705],[-54.78338,-24.188381],[-54.783227,-24.189374],[-54.783442,-24.189773],[-54.784481,-24.19032],[-54.78559,-24.191817],[-54.785772,-24.191232],[-54.786207,-24.191069],[-54.787633,-24.191316],[-54.787961,-24.192304],[-54.789216,-24.193148],[-54.789779,-24.191991],[-54.791252,-24.191662],[-54.792539,-24.192122],[-54.792993,-24.192932],[-54.793593,-24.193212],[-54.793879,-24.193046],[-54.793743,-24.192354],[-54.794368,-24.19259],[-54.794377,-24.193506],[-54.794634,-24.1936],[-54.795087,-24.193075],[-54.796337,-24.192844],[-54.796864,-24.191596],[-54.799057,-24.190972],[-54.799284,-24.190647],[-54.798763,-24.189441],[-54.798987,-24.189286],[-54.799787,-24.189388],[-54.800343,-24.190764],[-54.804868,-24.190072],[-54.805453,-24.188316],[-54.806781,-24.187091],[-54.806975,-24.186562],[-54.806492,-24.185209],[-54.806904,-24.184208],[-54.806736,-24.183934],[-54.805244,-24.183913],[-54.805213,-24.183607],[-54.807221,-24.182245],[-54.808765,-24.183556],[-54.811353,-24.183605],[-54.811255,-24.184305],[-54.811646,-24.184525],[-54.812646,-24.183702],[-54.814418,-24.180312],[-54.815299,-24.179683],[-54.815394,-24.178721],[-54.815877,-24.178614],[-54.818272,-24.061086],[-54.820802,-24.043377],[-54.820834,-23.990612],[-54.82326,-23.889803],[-54.818877,-23.890347],[-54.814378,-23.890504],[-54.810782,-23.883706],[-54.807711,-23.88141],[-54.805931,-23.879245],[-54.800746,-23.877317],[-54.798991,-23.877121],[-54.799181,-23.873949],[-54.79609,-23.87112],[-54.796149,-23.869982],[-54.792895,-23.868137],[-54.79019,-23.868566],[-54.787107,-23.870372],[-54.780965,-23.868987],[-54.779154,-23.870664],[-54.776577,-23.868144],[-54.774657,-23.865446],[-54.764121,-23.866273],[-54.761962,-23.858085],[-54.759219,-23.856778],[-54.749354,-23.861028],[-54.748497,-23.866124],[-54.745371,-23.868776],[-54.738671,-23.866629],[-54.739735,-23.87045],[-54.738638,-23.873788],[-54.736557,-23.877522],[-54.734555,-23.878625],[-54.733585,-23.879879],[-54.733418,-23.881488],[-54.731517,-23.88606],[-54.731575,-23.88941],[-54.731032,-23.891023],[-54.731334,-23.893943],[-54.729305,-23.89826],[-54.728533,-23.901846],[-54.728533,-23.90538],[-54.725998,-23.912551],[-54.725717,-23.915987],[-54.726361,-23.91977],[-54.728466,-23.923805],[-54.730018,-23.924775],[-54.727728,-23.92643],[-54.726787,-23.926407],[-54.724963,-23.926962],[-54.724585,-23.92767],[-54.723574,-23.928192],[-54.7231,-23.928726],[-54.722865,-23.93061],[-54.722361,-23.931857],[-54.721516,-23.933226],[-54.720464,-23.934162],[-54.719148,-23.936413],[-54.719189,-23.937484],[-54.718213,-23.940114],[-54.718069,-23.945696],[-54.716934,-23.947295],[-54.71655,-23.948449],[-54.716914,-23.951759],[-54.716579,-23.952647],[-54.716673,-23.954644],[-54.716166,-23.955959],[-54.716049,-23.958923],[-54.71543,-23.962235],[-54.715405,-23.968536],[-54.714473,-23.969231],[-54.712403,-23.969552],[-54.71198,-23.969438],[-54.711556,-23.967644],[-54.709736,-23.967572],[-54.709089,-23.967002],[-54.708416,-23.967796],[-54.707364,-23.967924],[-54.707471,-23.968472],[-54.707223,-23.968653],[-54.704446,-23.969203],[-54.703449,-23.968254],[-54.702738,-23.968983],[-54.700446,-23.969166],[-54.699497,-23.970203],[-54.699062,-23.969249],[-54.698538,-23.970333],[-54.697998,-23.970063],[-54.697563,-23.970179],[-54.697632,-23.971123],[-54.697272,-23.970978],[-54.696783,-23.969815],[-54.696529,-23.969825],[-54.696238,-23.970506],[-54.695827,-23.969512],[-54.69466,-23.969476],[-54.693767,-23.970334],[-54.694841,-23.970851],[-54.695968,-23.972971],[-54.694895,-23.972924],[-54.693699,-23.974084],[-54.694872,-23.974304],[-54.694929,-23.974707],[-54.694022,-23.97519],[-54.692869,-23.974834],[-54.692691,-23.974529],[-54.693375,-23.97384],[-54.693552,-23.973125],[-54.693034,-23.972602],[-54.69093,-23.974471],[-54.691977,-23.976527],[-54.692218,-23.977975],[-54.692976,-23.978903],[-54.692643,-23.980545],[-54.693855,-23.981136],[-54.694127,-23.981596],[-54.693948,-23.982803],[-54.695151,-23.983408],[-54.696924,-23.983746],[-54.69708,-23.984313],[-54.696616,-23.985335],[-54.698041,-23.986313],[-54.697485,-23.987217],[-54.698599,-23.987942],[-54.699112,-23.988681],[-54.700561,-23.988522],[-54.700632,-23.989584],[-54.699996,-23.990035],[-54.702087,-23.991253],[-54.701012,-23.991797],[-54.700253,-23.993835],[-54.700352,-23.995073],[-54.701249,-23.995375],[-54.701725,-23.996344],[-54.701668,-23.998135],[-54.703257,-24.005078],[-54.702698,-24.007552],[-54.703287,-24.009917],[-54.702478,-24.011508],[-54.702827,-24.012037],[-54.702593,-24.012543],[-54.702977,-24.013926],[-54.703768,-24.014596],[-54.703868,-24.015203],[-54.702651,-24.016552],[-54.702961,-24.016823],[-54.704201,-24.016887],[-54.704684,-24.017454],[-54.706105,-24.021181],[-54.705899,-24.02181],[-54.70522,-24.022138],[-54.704791,-24.022953],[-54.704833,-24.024673],[-54.705386,-24.025277],[-54.705312,-24.026427],[-54.704785,-24.026948],[-54.706573,-24.029024],[-54.704994,-24.030372],[-54.705123,-24.030694],[-54.705661,-24.030775],[-54.705273,-24.032195],[-54.705361,-24.034909],[-54.704604,-24.036803],[-54.704432,-24.03824],[-54.702592,-24.04278],[-54.701166,-24.04433],[-54.700946,-24.045224],[-54.701074,-24.048309],[-54.699643,-24.05087],[-54.698218,-24.051972],[-54.69819,-24.054666],[-54.699146,-24.056563],[-54.698781,-24.058164],[-54.683915,-24.089513],[-54.653665,-24.132093],[-54.647681,-24.145651],[-54.615599,-24.198306],[-54.588979,-24.268115],[-54.587362,-24.267407],[-54.585298,-24.265842],[-54.583254,-24.265293],[-54.580343,-24.265948],[-54.57843,-24.265954],[-54.577332,-24.266527],[-54.576956,-24.268103],[-54.577574,-24.269594],[-54.578057,-24.272111],[-54.578844,-24.273292],[-54.579513,-24.273592],[-54.579936,-24.274817],[-54.580457,-24.275317],[-54.580196,-24.276414],[-54.580536,-24.276817],[-54.58156,-24.277167],[-54.581753,-24.277613],[-54.584359,-24.278498],[-54.586578,-24.280122],[-54.587423,-24.281458],[-54.587815,-24.2835],[-54.590976,-24.286619],[-54.593997,-24.290972],[-54.594553,-24.29484],[-54.593781,-24.303701],[-54.593922,-24.305703],[-54.594231,-24.307274],[-54.595507,-24.310268],[-54.594764,-24.312662],[-54.595297,-24.314124],[-54.596719,-24.315757],[-54.59945,-24.320165],[-54.60009,-24.322324],[-54.600069,-24.324147],[-54.600858,-24.325725],[-54.601936,-24.330459],[-54.603027,-24.332665],[-54.602968,-24.333946],[-54.603561,-24.336803],[-54.603098,-24.340361],[-54.603515,-24.344015],[-54.603329,-24.349703],[-54.604458,-24.357231],[-54.601823,-24.36423],[-54.601739,-24.365659],[-54.602587,-24.368068],[-54.579236,-24.384045],[-54.580027,-24.386766],[-54.581503,-24.390382],[-54.585223,-24.397274],[-54.586327,-24.398718],[-54.587597,-24.399722],[-54.588431,-24.39965],[-54.588935,-24.400014],[-54.590279,-24.401787],[-54.591008,-24.402042],[-54.591819,-24.40289],[-54.592516,-24.4043],[-54.593143,-24.404197],[-54.593082,-24.404833],[-54.59394,-24.405067],[-54.593837,-24.405382],[-54.594057,-24.405272],[-54.594299,-24.405958],[-54.594587,-24.405759],[-54.594769,-24.406092],[-54.59576,-24.406053],[-54.595776,-24.407082],[-54.596314,-24.407199],[-54.597046,-24.409468],[-54.597478,-24.409827],[-54.597627,-24.411336],[-54.598114,-24.411822],[-54.598668,-24.413542],[-54.599644,-24.414654],[-54.602433,-24.416476],[-54.603881,-24.418864],[-54.605252,-24.419545],[-54.60627,-24.419498],[-54.612351,-24.421007],[-54.615929,-24.422543],[-54.620971,-24.425588],[-54.6239,-24.428595],[-54.625596,-24.431009],[-54.634143,-24.439574],[-54.637158,-24.441454],[-54.603578,-24.472279],[-54.611941,-24.513567],[-54.613095,-24.513098],[-54.612617,-24.512197],[-54.612816,-24.511961],[-54.616419,-24.511661],[-54.618963,-24.510912],[-54.619754,-24.511394],[-54.620583,-24.513366],[-54.621109,-24.513857],[-54.622122,-24.514315],[-54.623446,-24.514336],[-54.62574,-24.513718],[-54.626211,-24.512764],[-54.627728,-24.511704],[-54.628329,-24.5105],[-54.630169,-24.509649],[-54.631656,-24.508404],[-54.636109,-24.508406],[-54.638415,-24.507305],[-54.640019,-24.508187],[-54.640639,-24.508111],[-54.641356,-24.506719],[-54.642182,-24.506519],[-54.643514,-24.506933],[-54.644369,-24.506599],[-54.645098,-24.5061],[-54.646199,-24.504028],[-54.647567,-24.504094],[-54.646644,-24.50296],[-54.646727,-24.502416],[-54.647899,-24.501504],[-54.648225,-24.499731],[-54.64911,-24.499248],[-54.64889,-24.498207],[-54.650174,-24.498218],[-54.65168,-24.498846],[-54.652811,-24.498787],[-54.655127,-24.498087],[-54.656658,-24.497226],[-54.656974,-24.497227],[-54.657125,-24.497748],[-54.657417,-24.497626],[-54.658123,-24.496446],[-54.659167,-24.496679],[-54.659898,-24.497466],[-54.660458,-24.496495],[-54.660909,-24.496719],[-54.661339,-24.496518],[-54.662481,-24.494451],[-54.663521,-24.493898],[-54.664235,-24.493841],[-54.664648,-24.495563],[-54.665508,-24.496506],[-54.665515,-24.497386],[-54.666176,-24.497839],[-54.672339,-24.495375],[-54.673103,-24.49554],[-54.673945,-24.496957],[-54.679721,-24.49738],[-54.684333,-24.499062],[-54.688855,-24.498734],[-54.690029,-24.498923],[-54.693184,-24.497757],[-54.696262,-24.49729],[-54.697348,-24.495618],[-54.697935,-24.491967],[-54.699474,-24.488736],[-54.71318,-24.473278],[-54.711877,-24.452835],[-54.70344,-24.410185],[-54.701529,-24.407891],[-54.698934,-24.40383],[-54.69711,-24.396607],[-54.696322,-24.391482],[-54.692732,-24.382842],[-54.691288,-24.381354],[-54.687197,-24.378606],[-54.677838,-24.374062],[-54.671695,-24.370027],[-54.662716,-24.367799],[-54.67728,-24.289951],[-54.677462,-24.274179],[-54.678396,-24.272975],[-54.679669,-24.273456],[-54.680031,-24.272295],[-54.683629,-24.271297],[-54.685613,-24.271266],[-54.68748,-24.270398],[-54.687564,-24.269982],[-54.685853,-24.267475],[-54.68475,-24.264969],[-54.683918,-24.264234],[-54.683846,-24.26298],[-54.683352,-24.262476],[-54.683784,-24.261186],[-54.683146,-24.25895],[-54.687948,-24.245369],[-54.699706,-24.230427],[-54.700249,-24.229948],[-54.702635,-24.229364],[-54.703088,-24.228537],[-54.702989,-24.226351],[-54.705376,-24.223679],[-54.704613,-24.222593],[-54.704621,-24.222169],[-54.707229,-24.221324],[-54.712973,-24.213678],[-54.715189,-24.204887],[-54.71398,-24.20335],[-54.717384,-24.190714]]]}}]}
