{"type":"FeatureCollection","name":"distrito","features":[{"type":"Feature","properties":{"clave":"2-25","nombre":"Tacuatí"},"geometry":{"type":"Polygon","coordinates":[[[-56.932975,-23.560066],[-56.959314,-23.521915],[-56.971677,-23.483441],[-56.968332,-23.483199],[-56.968406,-23.479322],[-56.967991,-23.478671],[-56.966622,-23.47821],[-56.966456,-23.477831],[-56.966456,-23.477447],[-56.967411,-23.476259],[-56.966582,-23.47121],[-56.966998,-23.469868],[-56.966998,-23.468224],[-56.96957,-23.466847],[-56.970898,-23.465583],[-56.970981,-23.464436],[-56.970401,-23.462982],[-56.971439,-23.459843],[-56.971522,-23.458501],[-56.973057,-23.457124],[-56.974633,-23.456822],[-56.976127,-23.455327],[-56.9765,-23.454717],[-56.976335,-23.452265],[-56.977953,-23.451886],[-56.978078,-23.450355],[-56.978534,-23.449321],[-56.979582,-23.448158],[-56.978832,-23.445606],[-56.977357,-23.444204],[-56.969303,-23.438487],[-56.967555,-23.437644],[-56.964576,-23.43702],[-56.96402,-23.437386],[-56.96406,-23.438156],[-56.96537,-23.439403],[-56.965608,-23.440282],[-56.965251,-23.441198],[-56.96382,-23.442334],[-56.963025,-23.444533],[-56.962429,-23.445339],[-56.961793,-23.445339],[-56.960443,-23.44391],[-56.95949,-23.443579],[-56.958338,-23.443652],[-56.955795,-23.444421],[-56.953968,-23.444458],[-56.952737,-23.443724],[-56.949243,-23.438665],[-56.948807,-23.437419],[-56.949403,-23.436026],[-56.949324,-23.43555],[-56.948807,-23.435403],[-56.940783,-23.436426],[-56.940346,-23.436756],[-56.93963,-23.438992],[-56.9382,-23.439064],[-56.934705,-23.437927],[-56.931567,-23.437889],[-56.931447,-23.438365],[-56.931844,-23.438805],[-56.934148,-23.440016],[-56.934425,-23.440932],[-56.933908,-23.441885],[-56.932915,-23.442544],[-56.930849,-23.44236],[-56.930731,-23.441847],[-56.931645,-23.440564],[-56.931725,-23.439831],[-56.930812,-23.438805],[-56.930136,-23.438548],[-56.92962,-23.438694],[-56.927395,-23.440526],[-56.926997,-23.441332],[-56.927275,-23.441882],[-56.929102,-23.442432],[-56.930134,-23.443349],[-56.930292,-23.444229],[-56.929895,-23.444705],[-56.929299,-23.444632],[-56.928148,-23.443751],[-56.926455,-23.443283],[-56.925858,-23.443668],[-56.925739,-23.44474],[-56.925053,-23.445124],[-56.923535,-23.443447],[-56.922879,-23.443144],[-56.922462,-23.443364],[-56.922164,-23.444656],[-56.921478,-23.445343],[-56.920286,-23.445287],[-56.919631,-23.444654],[-56.918858,-23.44273],[-56.917934,-23.442399],[-56.916772,-23.442564],[-56.916444,-23.442976],[-56.916413,-23.444598],[-56.915936,-23.445532],[-56.914297,-23.446081],[-56.910454,-23.445996],[-56.909948,-23.445556],[-56.90977,-23.443494],[-56.909295,-23.441982],[-56.907866,-23.440525],[-56.906258,-23.439452],[-56.905155,-23.439286],[-56.90149,-23.440438],[-56.899702,-23.441647],[-56.898182,-23.44203],[-56.89431,-23.441093],[-56.892611,-23.441202],[-56.891419,-23.441669],[-56.888707,-23.443426],[-56.887336,-23.443617],[-56.884536,-23.442653],[-56.883314,-23.443147],[-56.882421,-23.442487],[-56.881529,-23.440809],[-56.880427,-23.439929],[-56.878015,-23.439047],[-56.876914,-23.437782],[-56.878018,-23.436243],[-56.87781,-23.435611],[-56.877036,-23.435088],[-56.87635,-23.435087],[-56.873368,-23.438824],[-56.872324,-23.439345],[-56.871073,-23.439426],[-56.868424,-23.437473],[-56.867142,-23.437664],[-56.863327,-23.4392],[-56.860585,-23.440709],[-56.859452,-23.441808],[-56.858289,-23.442192],[-56.855937,-23.440843],[-56.855879,-23.439798],[-56.85302,-23.438503],[-56.852992,-23.437404],[-56.854572,-23.435701],[-56.854484,-23.435096],[-56.853561,-23.434436],[-56.852042,-23.434297],[-56.850492,-23.434872],[-56.84724,-23.438855],[-56.846525,-23.439019],[-56.845156,-23.437534],[-56.84453,-23.43778],[-56.842502,-23.44006],[-56.841637,-23.440389],[-56.836662,-23.440219],[-56.834072,-23.439199],[-56.833001,-23.438016],[-56.831988,-23.43796],[-56.82984,-23.440157],[-56.828856,-23.44054],[-56.827546,-23.440319],[-56.824838,-23.437979],[-56.824093,-23.437841],[-56.82138,-23.439487],[-56.819265,-23.439458],[-56.816613,-23.439839],[-56.811787,-23.439036],[-56.811819,-23.437937],[-56.812416,-23.436865],[-56.811822,-23.435683],[-56.809768,-23.434718],[-56.809176,-23.432134],[-56.807183,-23.42952],[-56.806261,-23.429024],[-56.804176,-23.428911],[-56.80379,-23.428031],[-56.803852,-23.426409],[-56.804568,-23.425503],[-56.8043,-23.425255],[-56.797418,-23.425769],[-56.796405,-23.426125],[-56.793391,-23.429447],[-56.792347,-23.430023],[-56.791275,-23.429966],[-56.79077,-23.428729],[-56.791398,-23.42763],[-56.79113,-23.427162],[-56.789998,-23.427601],[-56.788297,-23.42922],[-56.786504,-23.432791],[-56.78555,-23.433422],[-56.783852,-23.433145],[-56.780873,-23.433388],[-56.776877,-23.435472],[-56.77631,-23.436323],[-56.776097,-23.438549],[-56.77562,-23.439071],[-56.774786,-23.439152],[-56.773505,-23.438793],[-56.772522,-23.439094],[-56.771862,-23.441512],[-56.771355,-23.441979],[-56.768673,-23.441947],[-56.7676,-23.44222],[-56.766616,-23.443126],[-56.766196,-23.44461],[-56.761691,-23.447764],[-56.759545,-23.448366],[-56.75746,-23.448417],[-56.756355,-23.449845],[-56.755311,-23.450503],[-56.753672,-23.450501],[-56.752002,-23.451158],[-56.750304,-23.451018],[-56.748519,-23.449448],[-56.747269,-23.448786],[-56.746974,-23.447494],[-56.745784,-23.44664],[-56.744563,-23.446418],[-56.743998,-23.445785],[-56.744478,-23.443861],[-56.74439,-23.443284],[-56.744003,-23.443036],[-56.742004,-23.444352],[-56.740275,-23.444954],[-56.739352,-23.444787],[-56.739088,-23.442615],[-56.736589,-23.440852],[-56.735491,-23.438486],[-56.734183,-23.437439],[-56.731597,-23.434521],[-56.730196,-23.434601],[-56.727876,-23.432783],[-56.727132,-23.432699],[-56.722867,-23.435193],[-56.722063,-23.434669],[-56.721649,-23.433569],[-56.721173,-23.433266],[-56.72013,-23.433319],[-56.719324,-23.433812],[-56.718933,-23.435681],[-56.719049,-23.437275],[-56.720508,-23.4378],[-56.720536,-23.43824],[-56.71982,-23.438706],[-56.718152,-23.43873],[-56.715533,-23.437434],[-56.714731,-23.436278],[-56.711692,-23.436382],[-56.710769,-23.436161],[-56.710292,-23.436352],[-56.710051,-23.437754],[-56.709423,-23.438577],[-56.705693,-23.441374],[-56.703188,-23.442496],[-56.701306,-23.444857],[-56.699815,-23.445294],[-56.698739,-23.446831],[-56.696027,-23.447293],[-56.695222,-23.447731],[-56.694473,-23.449296],[-56.693488,-23.449982],[-56.688599,-23.451401],[-56.686305,-23.451369],[-56.685382,-23.451038],[-56.683927,-23.449001],[-56.680389,-23.44575],[-56.679734,-23.445583],[-56.678035,-23.445937],[-56.676964,-23.445083],[-56.676909,-23.443269],[-56.676434,-23.442773],[-56.674381,-23.441779],[-56.673815,-23.44175],[-56.672203,-23.442929],[-56.67119,-23.443037],[-56.669761,-23.442347],[-56.668749,-23.442234],[-56.667168,-23.442753],[-56.666689,-23.443989],[-56.665884,-23.444098],[-56.664693,-23.44371],[-56.663892,-23.442526],[-56.663237,-23.442388],[-56.661537,-23.443044],[-56.657754,-23.442788],[-56.656238,-23.441245],[-56.652272,-23.442721],[-56.649323,-23.442742],[-56.648696,-23.443098],[-56.648306,-23.444031],[-56.644972,-23.443089],[-56.643962,-23.441905],[-56.643189,-23.441546],[-56.642443,-23.441709],[-56.640532,-23.443409],[-56.63925,-23.443818],[-56.637284,-23.443539],[-56.634928,-23.444688],[-56.632783,-23.444628],[-56.631947,-23.444983],[-56.630632,-23.446465],[-56.629588,-23.447039],[-56.624637,-23.449034],[-56.622306,-23.451557],[-56.61959,-23.453035],[-56.617885,-23.455533],[-56.616689,-23.456739],[-56.615501,-23.455444],[-56.614132,-23.454919],[-56.611005,-23.454471],[-56.609902,-23.454716],[-56.609215,-23.455346],[-56.608969,-23.457902],[-56.608461,-23.458395],[-56.607626,-23.458558],[-56.606377,-23.457895],[-56.603637,-23.457449],[-56.60236,-23.455824],[-56.600755,-23.454692],[-56.599146,-23.454771],[-56.597985,-23.454191],[-56.595275,-23.453799],[-56.592352,-23.455028],[-56.590892,-23.454969],[-56.587827,-23.453559],[-56.585568,-23.452069],[-56.582944,-23.452584],[-56.581425,-23.452525],[-56.581039,-23.451947],[-56.575535,-23.449651],[-56.572437,-23.44934],[-56.571517,-23.448265],[-56.56803,-23.448448],[-56.567406,-23.448171],[-56.566785,-23.446685],[-56.564763,-23.445305],[-56.560389,-23.443809],[-56.556249,-23.44344],[-56.555294,-23.443794],[-56.554993,-23.444893],[-56.555584,-23.446324],[-56.557399,-23.446961],[-56.55689,-23.447867],[-56.555514,-23.44943],[-56.552745,-23.448927],[-56.551963,-23.451041],[-56.551245,-23.451864],[-56.550261,-23.452191],[-56.548981,-23.451803],[-56.543717,-23.448929],[-56.543003,-23.448789],[-56.541242,-23.449581],[-56.540761,-23.450734],[-56.537389,-23.452236],[-56.535635,-23.451351],[-56.534057,-23.451017],[-56.533371,-23.451262],[-56.531216,-23.454059],[-56.529034,-23.455839],[-56.529031,-23.456801],[-56.525813,-23.456902],[-56.52504,-23.456377],[-56.523858,-23.453432],[-56.520855,-23.451774],[-56.517521,-23.451021],[-56.51651,-23.450468],[-56.51583,-23.449009],[-56.51584,-23.446233],[-56.514864,-23.444251],[-56.515649,-23.441477],[-56.516068,-23.440956],[-56.516102,-23.439912],[-56.515423,-23.43804],[-56.51537,-23.436144],[-56.516569,-23.434168],[-56.516697,-23.431695],[-56.515073,-23.427951],[-56.512899,-23.427642],[-56.51174,-23.427006],[-56.511029,-23.425767],[-56.510286,-23.42549],[-56.508647,-23.425512],[-56.503647,-23.424452],[-56.503505,-23.4225],[-56.503239,-23.422114],[-56.500675,-23.422683],[-56.498997,-23.425097],[-56.498461,-23.42526],[-56.496257,-23.42506],[-56.495278,-23.424095],[-56.491376,-23.424027],[-56.489503,-23.423059],[-56.489715,-23.422153],[-56.489448,-23.42174],[-56.487246,-23.421128],[-56.485494,-23.419912],[-56.484605,-23.418535],[-56.484882,-23.416419],[-56.484618,-23.415374],[-56.483165,-23.413637],[-56.481591,-23.41234],[-56.476748,-23.4093],[-56.475498,-23.409049],[-56.472609,-23.409177],[-56.470346,-23.408949],[-56.469962,-23.408096],[-56.469546,-23.407957],[-56.46576,-23.408741],[-56.46392,-23.407085],[-56.464108,-23.404695],[-56.463783,-23.404034],[-56.463099,-23.403784],[-56.458328,-23.405334],[-56.457163,-23.406073],[-56.45476,-23.411039],[-56.454011,-23.412026],[-56.452935,-23.413095],[-56.450755,-23.414406],[-56.449887,-23.415366],[-56.448305,-23.416212],[-56.443331,-23.416249],[-56.44035,-23.416816],[-56.437782,-23.418374],[-56.43626,-23.418945],[-56.43483,-23.419023],[-56.433849,-23.418579],[-56.433409,-23.416956],[-56.432073,-23.415824],[-56.430735,-23.415434],[-56.427304,-23.416604],[-56.426681,-23.416162],[-56.424952,-23.416458],[-56.42278,-23.415927],[-56.420631,-23.416937],[-56.420325,-23.418805],[-56.418587,-23.421245],[-56.417989,-23.4216],[-56.417335,-23.421295],[-56.41666,-23.419011],[-56.415089,-23.417301],[-56.415092,-23.416586],[-56.414707,-23.416172],[-56.410276,-23.414616],[-56.408192,-23.414279],[-56.406107,-23.414353],[-56.405604,-23.413554],[-56.405467,-23.410805],[-56.40476,-23.409235],[-56.404822,-23.408493],[-56.404348,-23.408107],[-56.398566,-23.408827],[-56.397557,-23.408163],[-56.396107,-23.406096],[-56.393082,-23.403115],[-56.392669,-23.402289],[-56.389702,-23.399914],[-56.389676,-23.398924],[-56.38825,-23.398286],[-56.387776,-23.397707],[-56.387372,-23.394819],[-56.384891,-23.390494],[-56.379658,-23.388549],[-56.378942,-23.388876],[-56.377991,-23.38846],[-56.374272,-23.387841],[-56.372268,-23.389647],[-56.371223,-23.39022],[-56.367025,-23.390093],[-56.365627,-23.389757],[-56.364176,-23.387855],[-56.36296,-23.386915],[-56.362619,-23.38345],[-56.362025,-23.383063],[-56.358635,-23.382252],[-56.354132,-23.380401],[-56.352985,-23.37959],[-56.353388,-23.378236],[-56.354507,-23.376848],[-56.355243,-23.372379],[-56.355723,-23.371721],[-56.357591,-23.371216],[-56.358825,-23.370525],[-56.359265,-23.369794],[-56.360156,-23.366132],[-56.361874,-23.363977],[-56.360576,-23.361479],[-56.35951,-23.360229],[-56.358835,-23.360116],[-56.355538,-23.360652],[-56.354864,-23.36043],[-56.353762,-23.358519],[-56.353215,-23.356648],[-56.351635,-23.355029],[-56.350966,-23.35378],[-56.349741,-23.352712],[-56.34867,-23.352524],[-56.345371,-23.353463],[-56.341768,-23.351506],[-56.340102,-23.351389],[-56.338189,-23.352847],[-56.337276,-23.352916],[-56.334739,-23.352099],[-56.332518,-23.35187],[-56.331687,-23.351243],[-56.331138,-23.349995],[-56.329991,-23.349147],[-56.325479,-23.346415],[-56.32429,-23.34608],[-56.321783,-23.347352],[-56.3192,-23.347927],[-56.315441,-23.345602],[-56.314223,-23.345397],[-56.312634,-23.346689],[-56.311139,-23.346706],[-56.30941,-23.345944],[-56.307561,-23.344092],[-56.30437,-23.341863],[-56.301376,-23.338069],[-56.300157,-23.338122],[-56.298771,-23.339055],[-56.297385,-23.342261],[-56.294464,-23.343628],[-56.293573,-23.343624],[-56.291068,-23.33996],[-56.29174,-23.33878],[-56.293452,-23.337941],[-56.29321,-23.336235],[-56.2943,-23.332054],[-56.293731,-23.33037],[-56.292355,-23.329239],[-56.29045,-23.328697],[-56.289444,-23.328924],[-56.287507,-23.331733],[-56.287132,-23.33143],[-56.286728,-23.329596],[-56.286104,-23.328735],[-56.285616,-23.328582],[-56.281918,-23.329713],[-56.281744,-23.329214],[-56.282766,-23.328372],[-56.282177,-23.328079],[-56.278954,-23.329618],[-56.277913,-23.331852],[-56.276805,-23.332334],[-56.274274,-23.33122],[-56.273817,-23.329908],[-56.272745,-23.328465],[-56.272237,-23.324879],[-56.270208,-23.323872],[-56.269643,-23.323847],[-56.267252,-23.324902],[-56.264168,-23.323879],[-56.263816,-23.324005],[-56.263026,-23.326019],[-56.262256,-23.326769],[-56.261047,-23.327355],[-56.260269,-23.327386],[-56.259684,-23.326455],[-56.259437,-23.323416],[-56.256764,-23.32091],[-56.254605,-23.320761],[-56.251949,-23.319716],[-56.25147,-23.319934],[-56.250228,-23.321923],[-56.249524,-23.322116],[-56.247757,-23.31922],[-56.243874,-23.316492],[-56.241696,-23.313853],[-56.240342,-23.313445],[-56.238682,-23.313947],[-56.238294,-23.314532],[-56.237492,-23.317157],[-56.235548,-23.320302],[-56.235082,-23.32282],[-56.233692,-23.325735],[-56.23341,-23.328208],[-56.233046,-23.328922],[-56.232173,-23.329351],[-56.231526,-23.329307],[-56.230703,-23.328746],[-56.230106,-23.327733],[-56.229063,-23.322842],[-56.226786,-23.319058],[-56.225359,-23.31868],[-56.225022,-23.31907],[-56.224995,-23.319915],[-56.225545,-23.32134],[-56.224692,-23.322057],[-56.2211,-23.321792],[-56.217957,-23.320931],[-56.217893,-23.320395],[-56.218616,-23.319038],[-56.219154,-23.318628],[-56.221815,-23.317796],[-56.222018,-23.317467],[-56.221563,-23.315094],[-56.220409,-23.313893],[-56.219948,-23.312571],[-56.222977,-23.309844],[-56.223031,-23.308319],[-56.221905,-23.306128],[-56.220235,-23.305481],[-56.217794,-23.306891],[-56.217325,-23.306827],[-56.214178,-23.30308],[-56.21391,-23.303079],[-56.212538,-23.304865],[-56.211642,-23.305417],[-56.21086,-23.305496],[-56.208455,-23.304577],[-56.20774,-23.304717],[-56.208519,-23.308803],[-56.208446,-23.309854],[-56.207884,-23.310614],[-56.204944,-23.309465],[-56.203236,-23.307704],[-56.198838,-23.307785],[-56.197257,-23.307138],[-56.196547,-23.306495],[-56.195798,-23.304925],[-56.196524,-23.302949],[-56.196329,-23.301856],[-56.19531,-23.300696],[-56.194187,-23.301762],[-56.192149,-23.302885],[-56.189084,-23.304107],[-56.187477,-23.304098],[-56.182174,-23.302669],[-56.181588,-23.303511],[-56.180802,-23.30796],[-56.180219,-23.308369],[-56.178882,-23.308053],[-56.178352,-23.307225],[-56.177964,-23.304935],[-56.17632,-23.30369],[-56.174569,-23.301681],[-56.174123,-23.301555],[-56.172591,-23.304],[-56.172496,-23.304906],[-56.173881,-23.308295],[-56.173738,-23.309758],[-56.171822,-23.309191],[-56.170421,-23.308297],[-56.16854,-23.309359],[-56.166998,-23.30966],[-56.164791,-23.309112],[-56.163895,-23.309602],[-56.16396,-23.309994],[-56.16547,-23.31126],[-56.167939,-23.312696],[-56.168333,-23.313831],[-56.168174,-23.314325],[-56.166112,-23.315737],[-56.16329,-23.317206],[-56.162516,-23.319573],[-56.16267,-23.319986],[-56.164782,-23.321337],[-56.165045,-23.32204],[-56.165043,-23.322431],[-56.164527,-23.322779],[-56.162511,-23.322812],[-56.162657,-23.324091],[-56.163607,-23.325948],[-56.163013,-23.328636],[-56.163739,-23.334931],[-56.162926,-23.337623],[-56.164212,-23.346161],[-56.164593,-23.352341],[-56.162723,-23.357633],[-56.161907,-23.358446],[-56.161556,-23.360545],[-56.160152,-23.36359],[-56.159325,-23.369131],[-56.158886,-23.370028],[-56.15917,-23.372766],[-56.158937,-23.376897],[-56.157773,-23.380075],[-56.157858,-23.381593],[-56.156299,-23.385202],[-56.156172,-23.38871],[-56.15573,-23.390808],[-56.157011,-23.405343],[-56.15653,-23.407662],[-56.154762,-23.411098],[-56.155076,-23.413399],[-56.154533,-23.41746],[-56.154281,-23.423519],[-56.155076,-23.4286],[-56.157531,-23.43354],[-56.158037,-23.437928],[-56.160517,-23.441166],[-56.160531,-23.443022],[-56.16108,-23.445365],[-56.163402,-23.448918],[-56.167057,-23.45246],[-56.168364,-23.45626],[-56.1671,-23.458814],[-56.167289,-23.462568],[-56.166333,-23.465164],[-56.166889,-23.468184],[-56.166513,-23.470165],[-56.147186,-23.492972],[-56.226352,-23.494395],[-56.265397,-23.528361],[-56.268097,-23.530076],[-56.269761,-23.53063],[-56.271639,-23.531718],[-56.272874,-23.531995],[-56.275263,-23.531731],[-56.279139,-23.531794],[-56.282133,-23.530399],[-56.286591,-23.530943],[-56.288326,-23.532211],[-56.289547,-23.534466],[-56.290471,-23.535486],[-56.294011,-23.536776],[-56.297054,-23.537453],[-56.29873,-23.538829],[-56.29984,-23.540546],[-56.30185,-23.54144],[-56.303496,-23.542698],[-56.304701,-23.542925],[-56.306349,-23.541916],[-56.308016,-23.543337],[-56.309791,-23.543928],[-56.310416,-23.546044],[-56.312155,-23.548165],[-56.31236,-23.549905],[-56.313835,-23.551578],[-56.318392,-23.555545],[-56.318502,-23.558305],[-56.320143,-23.56025],[-56.321518,-23.561159],[-56.32692,-23.56349],[-56.329756,-23.563606],[-56.331063,-23.564556],[-56.332622,-23.565019],[-56.333719,-23.565814],[-56.334627,-23.565375],[-56.337009,-23.565037],[-56.339621,-23.565171],[-56.34297,-23.563175],[-56.343669,-23.563029],[-56.34648,-23.563542],[-56.34846,-23.562932],[-56.351494,-23.563924],[-56.354034,-23.563944],[-56.354826,-23.564214],[-56.355934,-23.563943],[-56.356324,-23.563416],[-56.358484,-23.563533],[-56.360527,-23.565145],[-56.362614,-23.56565],[-56.363763,-23.56659],[-56.364714,-23.568455],[-56.364809,-23.57027],[-56.36978,-23.572571],[-56.372551,-23.573535],[-56.373198,-23.574301],[-56.373359,-23.575842],[-56.377349,-23.580225],[-56.381928,-23.580813],[-56.383382,-23.581762],[-56.385758,-23.584003],[-56.386858,-23.58417],[-56.388627,-23.583779],[-56.389646,-23.58391],[-56.3914,-23.5858],[-56.392357,-23.586431],[-56.394165,-23.587003],[-56.39429,-23.587604],[-56.395013,-23.587417],[-56.395569,-23.588106],[-56.397404,-23.589255],[-56.399997,-23.588841],[-56.400696,-23.589115],[-56.400578,-23.589349],[-56.40085,-23.589513],[-56.401316,-23.589243],[-56.4015,-23.589736],[-56.401828,-23.589683],[-56.402292,-23.590236],[-56.402988,-23.590487],[-56.403157,-23.590222],[-56.404559,-23.591013],[-56.405325,-23.590993],[-56.405498,-23.591341],[-56.406242,-23.59143],[-56.406739,-23.592259],[-56.40768,-23.592899],[-56.408052,-23.592805],[-56.408636,-23.593074],[-56.408672,-23.59339],[-56.408985,-23.593243],[-56.409079,-23.593514],[-56.41019,-23.593559],[-56.410933,-23.594031],[-56.412745,-23.593772],[-56.413978,-23.594558],[-56.414382,-23.594338],[-56.416399,-23.594752],[-56.417277,-23.594159],[-56.417999,-23.593064],[-56.418784,-23.593162],[-56.419268,-23.592893],[-56.419579,-23.593097],[-56.419991,-23.592634],[-56.421067,-23.592425],[-56.423298,-23.592867],[-56.423323,-23.593635],[-56.424797,-23.593803],[-56.425674,-23.594443],[-56.426413,-23.594649],[-56.427603,-23.594441],[-56.429143,-23.595531],[-56.429339,-23.595961],[-56.430898,-23.596531],[-56.431284,-23.596316],[-56.431801,-23.596557],[-56.432703,-23.596298],[-56.433533,-23.596563],[-56.434237,-23.596317],[-56.435058,-23.596451],[-56.436602,-23.598019],[-56.438577,-23.598758],[-56.438814,-23.599382],[-56.441577,-23.600115],[-56.441799,-23.6004],[-56.442277,-23.600199],[-56.44284,-23.601009],[-56.444031,-23.601506],[-56.444431,-23.602157],[-56.446264,-23.6023],[-56.446276,-23.602774],[-56.448349,-23.603409],[-56.449162,-23.604554],[-56.449939,-23.605067],[-56.451919,-23.605382],[-56.453833,-23.606477],[-56.455353,-23.607729],[-56.457012,-23.610665],[-56.458937,-23.612298],[-56.460071,-23.613729],[-56.461369,-23.614551],[-56.465451,-23.614633],[-56.468506,-23.616414],[-56.470706,-23.616764],[-56.472325,-23.61826],[-56.477437,-23.619461],[-56.479714,-23.621203],[-56.483099,-23.622668],[-56.483801,-23.623592],[-56.486382,-23.624287],[-56.487061,-23.624971],[-56.488755,-23.624972],[-56.490007,-23.6256],[-56.491195,-23.625811],[-56.491501,-23.626291],[-56.492191,-23.626415],[-56.492831,-23.627686],[-56.493501,-23.62809],[-56.49471,-23.628266],[-56.494866,-23.628081],[-56.495555,-23.628748],[-56.49637,-23.62875],[-56.497331,-23.629322],[-56.498152,-23.629004],[-56.499764,-23.630825],[-56.500903,-23.630955],[-56.502175,-23.630544],[-56.503751,-23.631077],[-56.504472,-23.630795],[-56.505423,-23.630861],[-56.507046,-23.631354],[-56.507079,-23.630912],[-56.507649,-23.63057],[-56.508038,-23.630906],[-56.509563,-23.631108],[-56.509846,-23.630907],[-56.510164,-23.631287],[-56.510979,-23.631116],[-56.511489,-23.631381],[-56.513101,-23.632864],[-56.513233,-23.633503],[-56.513758,-23.63352],[-56.513756,-23.634229],[-56.515161,-23.634466],[-56.515122,-23.635024],[-56.515418,-23.634814],[-56.515441,-23.635146],[-56.51574,-23.635122],[-56.516255,-23.637894],[-56.517142,-23.639],[-56.517776,-23.64192],[-56.518329,-23.642358],[-56.518779,-23.643489],[-56.518669,-23.644093],[-56.51912,-23.644111],[-56.519661,-23.644622],[-56.520138,-23.645774],[-56.521317,-23.646519],[-56.522123,-23.648255],[-56.521918,-23.649],[-56.522372,-23.649039],[-56.522357,-23.649676],[-56.522791,-23.649765],[-56.522975,-23.650473],[-56.523534,-23.65063],[-56.523957,-23.653753],[-56.524303,-23.653654],[-56.524286,-23.654193],[-56.525147,-23.6547],[-56.525077,-23.655144],[-56.525442,-23.655445],[-56.525081,-23.655592],[-56.526106,-23.656156],[-56.52619,-23.656714],[-56.526632,-23.656534],[-56.526735,-23.657162],[-56.527114,-23.657112],[-56.527532,-23.658043],[-56.527336,-23.65863],[-56.528049,-23.658723],[-56.527991,-23.659518],[-56.527726,-23.659575],[-56.528166,-23.660085],[-56.528484,-23.660042],[-56.528633,-23.661216],[-56.529067,-23.661276],[-56.529174,-23.661848],[-56.529652,-23.662251],[-56.529747,-23.66306],[-56.529429,-23.663052],[-56.52989,-23.663388],[-56.529869,-23.664148],[-56.530215,-23.664208],[-56.529974,-23.664681],[-56.530383,-23.66461],[-56.530489,-23.665257],[-56.530261,-23.665412],[-56.530824,-23.665367],[-56.530697,-23.665703],[-56.531014,-23.665881],[-56.530596,-23.666396],[-56.531101,-23.666251],[-56.531533,-23.666782],[-56.531885,-23.666581],[-56.532521,-23.667234],[-56.532547,-23.666857],[-56.533032,-23.666842],[-56.532689,-23.667469],[-56.533547,-23.667288],[-56.533765,-23.667705],[-56.534235,-23.66766],[-56.534324,-23.66806],[-56.53459,-23.667823],[-56.535177,-23.668743],[-56.536,-23.668734],[-56.535729,-23.66894],[-56.536609,-23.669842],[-56.536313,-23.670074],[-56.536884,-23.669945],[-56.537068,-23.670713],[-56.537312,-23.670388],[-56.537653,-23.6709],[-56.537999,-23.67079],[-56.538244,-23.671518],[-56.53912,-23.67127],[-56.538874,-23.671697],[-56.539378,-23.672],[-56.539088,-23.67258],[-56.539411,-23.672686],[-56.539454,-23.673263],[-56.54003,-23.673029],[-56.540857,-23.673931],[-56.540485,-23.674156],[-56.540861,-23.674413],[-56.540522,-23.675304],[-56.540986,-23.67545],[-56.540931,-23.67597],[-56.541287,-23.675897],[-56.541283,-23.676255],[-56.54168,-23.676102],[-56.541825,-23.676393],[-56.541944,-23.677709],[-56.541673,-23.678057],[-56.542183,-23.6781],[-56.542318,-23.67848],[-56.541963,-23.678904],[-56.542757,-23.678983],[-56.542476,-23.679454],[-56.542858,-23.679866],[-56.543271,-23.679419],[-56.543335,-23.679865],[-56.543673,-23.679913],[-56.543709,-23.68035],[-56.543297,-23.680653],[-56.543645,-23.68074],[-56.543837,-23.681259],[-56.543398,-23.681321],[-56.544226,-23.681916],[-56.545326,-23.682047],[-56.545005,-23.68289],[-56.546045,-23.682744],[-56.546588,-23.682006],[-56.54728,-23.682575],[-56.547282,-23.683542],[-56.548237,-23.684589],[-56.548478,-23.685724],[-56.549398,-23.685954],[-56.549594,-23.687142],[-56.54923,-23.687232],[-56.549251,-23.687676],[-56.550275,-23.687881],[-56.550957,-23.688415],[-56.551055,-23.690094],[-56.551468,-23.690362],[-56.551584,-23.691088],[-56.551973,-23.691098],[-56.552836,-23.691891],[-56.553118,-23.693488],[-56.553887,-23.694562],[-56.554962,-23.694672],[-56.554762,-23.695438],[-56.556051,-23.698736],[-56.555972,-23.700409],[-56.555512,-23.700605],[-56.556275,-23.701177],[-56.55557,-23.701258],[-56.554967,-23.701924],[-56.554498,-23.703228],[-56.554769,-23.704656],[-56.554156,-23.705954],[-56.554318,-23.70667],[-56.553877,-23.707085],[-56.553808,-23.709613],[-56.553544,-23.710077],[-56.55412,-23.710481],[-56.553569,-23.710661],[-56.554043,-23.711815],[-56.55378,-23.713269],[-56.554116,-23.713338],[-56.554263,-23.713824],[-56.553744,-23.714259],[-56.554329,-23.714563],[-56.553896,-23.71548],[-56.554298,-23.715439],[-56.554703,-23.715815],[-56.554333,-23.71619],[-56.554506,-23.716665],[-56.554242,-23.717054],[-56.554869,-23.716866],[-56.554967,-23.717758],[-56.554458,-23.718013],[-56.555137,-23.718133],[-56.555159,-23.718363],[-56.554808,-23.719136],[-56.554263,-23.719009],[-56.554669,-23.719745],[-56.554203,-23.720438],[-56.554175,-23.721208],[-56.553213,-23.721063],[-56.553371,-23.721366],[-56.552923,-23.721915],[-56.553269,-23.722434],[-56.55263,-23.7225],[-56.552625,-23.723467],[-56.551999,-23.723251],[-56.55261,-23.724131],[-56.553034,-23.723954],[-56.552664,-23.724404],[-56.553227,-23.724631],[-56.552944,-23.725243],[-56.553439,-23.725152],[-56.553635,-23.72476],[-56.553972,-23.72582],[-56.553739,-23.72615],[-56.554397,-23.725743],[-56.554832,-23.726046],[-56.554503,-23.726419],[-56.555083,-23.726672],[-56.554901,-23.727297],[-56.55566,-23.72685],[-56.556176,-23.727317],[-56.556439,-23.727083],[-56.556595,-23.727501],[-56.557042,-23.727259],[-56.556922,-23.727753],[-56.557503,-23.727702],[-56.55738,-23.728292],[-56.55782,-23.7287],[-56.557732,-23.729448],[-56.55733,-23.729614],[-56.558208,-23.729582],[-56.558612,-23.730324],[-56.559212,-23.730038],[-56.559798,-23.73046],[-56.560445,-23.730325],[-56.560322,-23.730891],[-56.560649,-23.731281],[-56.561353,-23.731422],[-56.561245,-23.731201],[-56.561538,-23.731055],[-56.561955,-23.731807],[-56.561793,-23.731986],[-56.56274,-23.731879],[-56.562682,-23.732469],[-56.563097,-23.73291],[-56.563868,-23.73264],[-56.564342,-23.732946],[-56.564043,-23.733229],[-56.565969,-23.734194],[-56.566215,-23.733937],[-56.566724,-23.734029],[-56.566634,-23.733701],[-56.567026,-23.733644],[-56.566685,-23.73454],[-56.567278,-23.734428],[-56.567396,-23.734],[-56.568007,-23.734627],[-56.568216,-23.734202],[-56.568786,-23.734297],[-56.569087,-23.73486],[-56.570777,-23.735372],[-56.570852,-23.735639],[-56.57049,-23.735805],[-56.570651,-23.736041],[-56.571275,-23.735898],[-56.570968,-23.736485],[-56.571926,-23.736191],[-56.571788,-23.736553],[-56.572351,-23.736671],[-56.572538,-23.736367],[-56.572295,-23.735959],[-56.572817,-23.736163],[-56.572936,-23.736684],[-56.572623,-23.736876],[-56.573094,-23.73704],[-56.573532,-23.736802],[-56.573598,-23.737455],[-56.574084,-23.737138],[-56.573858,-23.736754],[-56.5744,-23.736797],[-56.574751,-23.737519],[-56.57517,-23.737678],[-56.574996,-23.738265],[-56.575851,-23.738581],[-56.575903,-23.739067],[-56.576291,-23.739296],[-56.576902,-23.739184],[-56.577129,-23.73848],[-56.577437,-23.738674],[-56.577311,-23.739406],[-56.577558,-23.739516],[-56.578105,-23.738964],[-56.578858,-23.738755],[-56.579168,-23.738934],[-56.579121,-23.738407],[-56.57963,-23.738218],[-56.579828,-23.738388],[-56.579513,-23.739005],[-56.580498,-23.738968],[-56.580829,-23.739615],[-56.580922,-23.738925],[-56.582596,-23.738398],[-56.582112,-23.738085],[-56.582888,-23.737857],[-56.582564,-23.737321],[-56.583209,-23.73749],[-56.583602,-23.737164],[-56.583873,-23.737597],[-56.58392,-23.737118],[-56.584825,-23.736647],[-56.584493,-23.736283],[-56.585324,-23.736329],[-56.584888,-23.735924],[-56.585253,-23.735625],[-56.586012,-23.735732],[-56.586038,-23.736285],[-56.586258,-23.736172],[-56.58617,-23.735546],[-56.586622,-23.735431],[-56.586728,-23.736229],[-56.587341,-23.73624],[-56.587416,-23.735833],[-56.58706,-23.735697],[-56.587556,-23.735283],[-56.588694,-23.735746],[-56.588751,-23.735118],[-56.589493,-23.735288],[-56.590023,-23.734543],[-56.590628,-23.734812],[-56.591891,-23.734615],[-56.59198,-23.735071],[-56.592115,-23.734667],[-56.592484,-23.73464],[-56.592728,-23.735089],[-56.593337,-23.734754],[-56.593476,-23.733932],[-56.594674,-23.734365],[-56.59583,-23.735045],[-56.596156,-23.735563],[-56.597026,-23.735854],[-56.597203,-23.738086],[-56.597806,-23.737579],[-56.598473,-23.738131],[-56.598922,-23.737929],[-56.599206,-23.739128],[-56.599058,-23.740644],[-56.600693,-23.740041],[-56.600479,-23.739627],[-56.601442,-23.740398],[-56.602228,-23.740285],[-56.60435,-23.741918],[-56.604482,-23.742766],[-56.605335,-23.742677],[-56.6068,-23.74361],[-56.607122,-23.744272],[-56.607826,-23.744423],[-56.609022,-23.745289],[-56.608834,-23.746599],[-56.608595,-23.746772],[-56.607842,-23.74648],[-56.607769,-23.747063],[-56.607183,-23.747685],[-56.607958,-23.748228],[-56.608699,-23.748111],[-56.608967,-23.74852],[-56.608396,-23.748949],[-56.607925,-23.74879],[-56.607888,-23.749137],[-56.608802,-23.749677],[-56.609584,-23.74927],[-56.60951,-23.750249],[-56.609982,-23.749804],[-56.610372,-23.750164],[-56.610781,-23.751347],[-56.61061,-23.751611],[-56.611282,-23.75191],[-56.610563,-23.752255],[-56.611086,-23.753186],[-56.611543,-23.753225],[-56.611142,-23.753988],[-56.610684,-23.753838],[-56.610598,-23.754268],[-56.611809,-23.754366],[-56.61109,-23.75481],[-56.611371,-23.755216],[-56.610715,-23.755553],[-56.610633,-23.755892],[-56.610947,-23.756149],[-56.611737,-23.755923],[-56.612082,-23.756383],[-56.61156,-23.756543],[-56.611123,-23.757203],[-56.609987,-23.757212],[-56.610232,-23.757849],[-56.611286,-23.758178],[-56.610871,-23.758913],[-56.610548,-23.7589],[-56.610632,-23.759197],[-56.611068,-23.759165],[-56.61123,-23.75886],[-56.612054,-23.759527],[-56.610622,-23.759623],[-56.611393,-23.760001],[-56.611238,-23.760769],[-56.610633,-23.760358],[-56.609986,-23.76058],[-56.610837,-23.761284],[-56.611354,-23.761112],[-56.611621,-23.761815],[-56.611127,-23.762062],[-56.6125,-23.762264],[-56.612465,-23.763222],[-56.612982,-23.763178],[-56.613437,-23.763972],[-56.614967,-23.764501],[-56.615028,-23.764985],[-56.615499,-23.765097],[-56.615188,-23.765423],[-56.616431,-23.76562],[-56.616724,-23.765319],[-56.617243,-23.766073],[-56.617839,-23.766194],[-56.617838,-23.76662],[-56.618167,-23.76629],[-56.617979,-23.765905],[-56.618483,-23.765551],[-56.618912,-23.766498],[-56.618672,-23.767184],[-56.618286,-23.767013],[-56.61819,-23.767426],[-56.618855,-23.76737],[-56.619225,-23.766788],[-56.619857,-23.767125],[-56.619899,-23.766402],[-56.620241,-23.766456],[-56.620208,-23.766861],[-56.620687,-23.767222],[-56.620157,-23.767377],[-56.620438,-23.768138],[-56.621735,-23.767444],[-56.621681,-23.76837],[-56.622054,-23.768655],[-56.622115,-23.769229],[-56.622892,-23.769669],[-56.623342,-23.769268],[-56.623839,-23.769716],[-56.62428,-23.769419],[-56.624565,-23.769537],[-56.624162,-23.770629],[-56.62531,-23.77093],[-56.625356,-23.770533],[-56.625633,-23.770511],[-56.625912,-23.771225],[-56.626618,-23.771069],[-56.626367,-23.770526],[-56.627571,-23.77094],[-56.627754,-23.771257],[-56.627509,-23.77197],[-56.628611,-23.772284],[-56.628795,-23.772736],[-56.629566,-23.772815],[-56.629021,-23.773251],[-56.629163,-23.774101],[-56.629416,-23.774214],[-56.629529,-23.773898],[-56.629932,-23.77385],[-56.629563,-23.773614],[-56.630347,-23.773133],[-56.630569,-23.773458],[-56.630916,-23.773296],[-56.630979,-23.773753],[-56.63148,-23.77416],[-56.631045,-23.774444],[-56.631138,-23.774783],[-56.632005,-23.775051],[-56.632182,-23.774392],[-56.632566,-23.774578],[-56.632195,-23.776014],[-56.633202,-23.775912],[-56.635337,-23.777168],[-56.635569,-23.776166],[-56.636303,-23.775766],[-56.63632,-23.776651],[-56.635529,-23.777336],[-56.635817,-23.77819],[-56.636342,-23.777975],[-56.636413,-23.777519],[-56.637591,-23.777079],[-56.637888,-23.776361],[-56.638424,-23.776196],[-56.638856,-23.776567],[-56.638454,-23.777022],[-56.638886,-23.777068],[-56.639126,-23.776766],[-56.6395,-23.777034],[-56.6396,-23.778587],[-56.64089,-23.778478],[-56.640816,-23.779073],[-56.641118,-23.779151],[-56.641873,-23.778561],[-56.642736,-23.780058],[-56.643477,-23.778953],[-56.644371,-23.779384],[-56.644372,-23.779886],[-56.645001,-23.779675],[-56.646098,-23.779844],[-56.646228,-23.779551],[-56.645755,-23.778687],[-56.645948,-23.778539],[-56.646996,-23.778763],[-56.647263,-23.779739],[-56.648235,-23.778856],[-56.648269,-23.778404],[-56.64918,-23.778772],[-56.650258,-23.777794],[-56.650673,-23.778333],[-56.650108,-23.779226],[-56.650594,-23.779227],[-56.651301,-23.778682],[-56.651399,-23.779378],[-56.651893,-23.779546],[-56.65228,-23.778603],[-56.652683,-23.778798],[-56.652942,-23.779562],[-56.653818,-23.779284],[-56.65396,-23.77974],[-56.653119,-23.780822],[-56.654178,-23.781154],[-56.653717,-23.781655],[-56.654628,-23.78172],[-56.655935,-23.781063],[-56.657052,-23.781626],[-56.659562,-23.784919],[-56.659872,-23.78492],[-56.660171,-23.784361],[-56.661076,-23.784927],[-56.66173,-23.784563],[-56.662667,-23.785703],[-56.663032,-23.785613],[-56.663418,-23.785957],[-56.664131,-23.785345],[-56.664216,-23.786397],[-56.664608,-23.786637],[-56.665843,-23.785976],[-56.666632,-23.786064],[-56.666927,-23.786539],[-56.665829,-23.787336],[-56.666623,-23.787482],[-56.666589,-23.787739],[-56.665339,-23.787971],[-56.665131,-23.787546],[-56.664831,-23.788584],[-56.665539,-23.788884],[-56.665787,-23.78846],[-56.666364,-23.788511],[-56.667469,-23.787886],[-56.668017,-23.788655],[-56.667792,-23.789232],[-56.668369,-23.789306],[-56.668558,-23.788764],[-56.668967,-23.788652],[-56.670076,-23.78926],[-56.669622,-23.789647],[-56.66969,-23.790135],[-56.670702,-23.789965],[-56.670221,-23.790538],[-56.669287,-23.790586],[-56.669687,-23.791187],[-56.671169,-23.7911],[-56.671449,-23.790934],[-56.67128,-23.790527],[-56.672093,-23.790528],[-56.672561,-23.791238],[-56.671973,-23.791608],[-56.672039,-23.792032],[-56.673081,-23.791727],[-56.673133,-23.791262],[-56.674541,-23.790624],[-56.674698,-23.791979],[-56.67411,-23.792014],[-56.673908,-23.792407],[-56.673346,-23.792356],[-56.673203,-23.792861],[-56.673635,-23.793549],[-56.674504,-23.793198],[-56.674588,-23.793749],[-56.67524,-23.794306],[-56.67544,-23.795494],[-56.676724,-23.795375],[-56.676912,-23.795809],[-56.677472,-23.795882],[-56.678729,-23.795533],[-56.679505,-23.79497],[-56.680969,-23.795136],[-56.681479,-23.795507],[-56.681784,-23.79628],[-56.682899,-23.796156],[-56.683908,-23.796722],[-56.685542,-23.796138],[-56.685669,-23.79538],[-56.686533,-23.795251],[-56.68707,-23.795469],[-56.687711,-23.796563],[-56.688747,-23.79722],[-56.689607,-23.797204],[-56.690438,-23.79651],[-56.691177,-23.796782],[-56.691509,-23.797487],[-56.692132,-23.797787],[-56.692491,-23.797426],[-56.692151,-23.796721],[-56.692575,-23.796437],[-56.69231,-23.795949],[-56.692702,-23.795299],[-56.693702,-23.796119],[-56.694849,-23.795136],[-56.695628,-23.794849],[-56.695915,-23.795188],[-56.695749,-23.795892],[-56.696081,-23.796078],[-56.697603,-23.795183],[-56.698079,-23.795599],[-56.698463,-23.795532],[-56.698821,-23.795153],[-56.698548,-23.794778],[-56.698788,-23.794286],[-56.699755,-23.794482],[-56.700713,-23.795586],[-56.702149,-23.794442],[-56.702831,-23.794231],[-56.703775,-23.794287],[-56.704964,-23.795156],[-56.707126,-23.794049],[-56.708639,-23.794689],[-56.709832,-23.793467],[-56.710637,-23.793785],[-56.71106,-23.794608],[-56.713013,-23.794837],[-56.713544,-23.794581],[-56.713641,-23.79398],[-56.714672,-23.794122],[-56.71339,-23.792995],[-56.712787,-23.790555],[-56.710324,-23.787778],[-56.707367,-23.786002],[-56.706837,-23.782008],[-56.704006,-23.776006],[-56.703533,-23.773277],[-56.704318,-23.773152],[-56.704523,-23.772222],[-56.70636,-23.771254],[-56.706512,-23.770925],[-56.706225,-23.77059],[-56.708379,-23.769529],[-56.710998,-23.767086],[-56.713378,-23.766187],[-56.718869,-23.761261],[-56.721891,-23.756285],[-56.722677,-23.754114],[-56.722858,-23.752014],[-56.723621,-23.751162],[-56.725143,-23.750234],[-56.72562,-23.749345],[-56.727216,-23.748806],[-56.730162,-23.747226],[-56.731724,-23.746786],[-56.734811,-23.744597],[-56.736795,-23.743589],[-56.737998,-23.742448],[-56.738806,-23.738872],[-56.74005,-23.737493],[-56.740354,-23.735727],[-56.742663,-23.731806],[-56.742866,-23.730664],[-56.743508,-23.729906],[-56.745171,-23.729006],[-56.746495,-23.727242],[-56.749481,-23.725405],[-56.814127,-23.700271],[-56.817076,-23.703039],[-56.818743,-23.705431],[-56.820256,-23.70861],[-56.824625,-23.714085],[-56.827293,-23.718757],[-56.827598,-23.719729],[-56.827013,-23.720589],[-56.827272,-23.721169],[-56.827595,-23.721408],[-56.829959,-23.718702],[-56.836642,-23.71354],[-56.837619,-23.714866],[-56.840601,-23.721647],[-56.8409,-23.721761],[-56.849939,-23.719816],[-56.85983,-23.711296],[-56.872726,-23.702624],[-56.875886,-23.699609],[-56.877657,-23.698893],[-56.878602,-23.698976],[-56.880905,-23.701012],[-56.883094,-23.70171],[-56.884624,-23.702672],[-56.888807,-23.702354],[-56.891572,-23.700698],[-56.893293,-23.700135],[-56.900946,-23.699084],[-56.904242,-23.697025],[-56.905242,-23.695918],[-56.90666,-23.693499],[-56.907252,-23.693159],[-56.908464,-23.693177],[-56.910449,-23.692645],[-56.917554,-23.693161],[-56.919072,-23.693511],[-56.925149,-23.693518],[-56.950502,-23.694866],[-56.96775,-23.695326],[-56.972184,-23.695064],[-56.961631,-23.672423],[-56.94624,-23.627715],[-56.940008,-23.577294],[-56.932975,-23.560066]]]}}]}
