{"type":"FeatureCollection","name":"distrito","features":[{"type":"Feature","properties":{"clave":"14-16","nombre":"Yasy Cañy"},"geometry":{"type":"Polygon","coordinates":[[[-55.942034,-24.570468],[-55.942545,-24.569199],[-55.94215,-24.568713],[-55.942608,-24.568662],[-55.94188,-24.568336],[-55.942913,-24.567932],[-55.942332,-24.567418],[-55.943148,-24.566092],[-55.942958,-24.565531],[-55.943901,-24.56514],[-55.944168,-24.564415],[-55.944629,-24.564969],[-55.945288,-24.563501],[-55.945181,-24.563007],[-55.947203,-24.563087],[-55.948401,-24.562026],[-55.948965,-24.562181],[-55.949189,-24.562873],[-55.950245,-24.563097],[-55.95043,-24.562858],[-55.950005,-24.562692],[-55.951009,-24.562759],[-55.950681,-24.561988],[-55.955182,-24.559364],[-55.955142,-24.558649],[-55.955742,-24.558359],[-55.956157,-24.557437],[-55.956676,-24.557458],[-55.957668,-24.556666],[-55.958217,-24.55691],[-55.958393,-24.556281],[-55.958088,-24.555882],[-55.958621,-24.555766],[-55.958479,-24.555386],[-55.958894,-24.555311],[-55.958487,-24.554455],[-55.958971,-24.553864],[-55.958977,-24.553191],[-55.960389,-24.552432],[-55.962024,-24.550917],[-55.965621,-24.549506],[-55.967396,-24.547722],[-55.968271,-24.54753],[-55.968029,-24.546567],[-55.969552,-24.546746],[-55.969599,-24.546548],[-55.9682,-24.545769],[-55.969055,-24.545643],[-55.969026,-24.545198],[-55.97027,-24.54487],[-55.970443,-24.544571],[-55.972743,-24.544346],[-55.972852,-24.543957],[-55.973272,-24.543905],[-55.973183,-24.543592],[-55.974156,-24.543485],[-55.974009,-24.543009],[-55.974495,-24.543752],[-55.974627,-24.542905],[-55.975063,-24.543317],[-55.975503,-24.54332],[-55.975627,-24.54263],[-55.976179,-24.542616],[-55.97624,-24.543217],[-55.976541,-24.543285],[-55.977091,-24.542712],[-55.976358,-24.542358],[-55.976466,-24.542005],[-55.977836,-24.541509],[-55.977373,-24.54117],[-55.977651,-24.540883],[-55.977278,-24.539914],[-55.978445,-24.540144],[-55.978497,-24.539429],[-55.979816,-24.539564],[-55.979741,-24.539041],[-55.980414,-24.538673],[-55.980103,-24.538209],[-55.980909,-24.538394],[-55.981355,-24.537676],[-55.981081,-24.537392],[-55.981574,-24.537299],[-55.981671,-24.536723],[-55.982,-24.536696],[-55.981596,-24.535443],[-55.982387,-24.535839],[-55.982306,-24.535292],[-55.982854,-24.535037],[-55.982482,-24.534692],[-55.983024,-24.534306],[-55.982957,-24.533584],[-55.985427,-24.5327],[-55.987526,-24.531475],[-55.98717,-24.530975],[-55.987378,-24.53038],[-55.988846,-24.529956],[-55.989972,-24.529158],[-55.990606,-24.529225],[-55.990394,-24.528716],[-55.99088,-24.52881],[-55.990943,-24.528602],[-55.990446,-24.527636],[-55.991138,-24.527359],[-55.991514,-24.52574],[-55.992087,-24.525631],[-55.99394,-24.519411],[-55.993484,-24.519447],[-55.992987,-24.51906],[-55.993622,-24.518332],[-55.99266,-24.518567],[-55.992893,-24.518285],[-55.99274,-24.517459],[-55.993175,-24.517238],[-55.992236,-24.517023],[-55.992081,-24.516414],[-55.992393,-24.515864],[-55.99195,-24.515833],[-55.991939,-24.515597],[-55.992071,-24.515339],[-55.992925,-24.515446],[-55.991968,-24.515068],[-55.991933,-24.514814],[-55.992818,-24.514257],[-55.992463,-24.513984],[-55.992461,-24.513427],[-55.993145,-24.513341],[-55.99261,-24.512488],[-55.99351,-24.51233],[-55.992707,-24.511948],[-55.99329,-24.511304],[-55.992627,-24.511198],[-55.992414,-24.509373],[-55.992966,-24.508768],[-55.992549,-24.508552],[-55.99325,-24.50868],[-55.993028,-24.507913],[-55.994071,-24.507554],[-55.99496,-24.507965],[-55.99467,-24.506466],[-55.994779,-24.504434],[-55.994279,-24.502358],[-55.994864,-24.50149],[-55.996113,-24.500772],[-55.996208,-24.49959],[-55.997341,-24.498663],[-55.998587,-24.499082],[-55.999269,-24.496896],[-55.999858,-24.497131],[-56.00081,-24.496535],[-56.002369,-24.49471],[-56.00223,-24.494422],[-56.001743,-24.494537],[-56.00115,-24.495569],[-56.000737,-24.495712],[-56.000419,-24.495485],[-56.000927,-24.494244],[-56.001956,-24.494082],[-56.002138,-24.49356],[-56.001441,-24.493808],[-56.001239,-24.493627],[-56.002026,-24.492179],[-56.002871,-24.491847],[-56.003716,-24.492483],[-56.004087,-24.492244],[-56.003479,-24.491221],[-56.003702,-24.490338],[-56.005061,-24.49037],[-56.005341,-24.489166],[-56.009304,-24.487498],[-56.010263,-24.486857],[-56.010584,-24.485896],[-56.011302,-24.486216],[-56.011439,-24.486014],[-56.010506,-24.48491],[-56.012164,-24.483755],[-56.012788,-24.482667],[-56.012165,-24.480456],[-56.012014,-24.478541],[-56.012486,-24.478713],[-56.012587,-24.478432],[-56.011956,-24.477279],[-56.012688,-24.477346],[-56.013029,-24.476993],[-56.012208,-24.47576],[-56.012664,-24.475673],[-56.01338,-24.476173],[-56.01372,-24.475917],[-56.013387,-24.475245],[-56.012669,-24.474941],[-56.012822,-24.474256],[-56.015292,-24.473185],[-56.014539,-24.472679],[-56.017179,-24.470928],[-56.019057,-24.469105],[-56.019898,-24.467815],[-56.020504,-24.467453],[-56.020119,-24.466313],[-56.021009,-24.46566],[-56.020299,-24.465279],[-56.020605,-24.464723],[-56.020309,-24.46391],[-56.021009,-24.462524],[-56.020559,-24.461891],[-56.021215,-24.461343],[-56.021859,-24.461544],[-56.022009,-24.461281],[-56.021717,-24.460935],[-56.021059,-24.460824],[-56.02187,-24.460221],[-56.021474,-24.459746],[-56.022064,-24.459795],[-56.02227,-24.45934],[-56.022199,-24.458985],[-56.021412,-24.459013],[-56.021194,-24.457762],[-56.02216,-24.456896],[-56.021625,-24.455997],[-56.022325,-24.45143],[-56.023757,-24.448336],[-56.023837,-24.447566],[-56.024672,-24.44698],[-56.02436,-24.445964],[-56.023769,-24.445972],[-56.023213,-24.445602],[-56.022484,-24.445941],[-56.022568,-24.445497],[-56.023511,-24.445182],[-56.024408,-24.445266],[-56.024048,-24.444144],[-56.024995,-24.444167],[-56.024258,-24.443244],[-56.025069,-24.443384],[-56.025372,-24.443961],[-56.026432,-24.442796],[-56.025486,-24.442644],[-56.025499,-24.441816],[-56.026166,-24.441488],[-56.025832,-24.440912],[-56.027022,-24.440475],[-56.031143,-24.436447],[-56.031698,-24.436321],[-56.032376,-24.435318],[-56.032848,-24.435467],[-56.032121,-24.436397],[-56.032341,-24.436573],[-56.032947,-24.436132],[-56.033012,-24.435705],[-56.034078,-24.435447],[-56.033583,-24.4351],[-56.033808,-24.434601],[-56.034558,-24.434611],[-56.034905,-24.434236],[-56.036042,-24.434423],[-56.036155,-24.434114],[-56.036867,-24.434232],[-56.036526,-24.433863],[-56.03675,-24.433493],[-56.037521,-24.434044],[-56.037343,-24.433148],[-56.038893,-24.433952],[-56.039287,-24.433887],[-56.039493,-24.433494],[-56.041554,-24.433344],[-56.043126,-24.432092],[-56.0444,-24.431875],[-56.044886,-24.431051],[-56.044669,-24.430486],[-56.044136,-24.43028],[-56.044788,-24.429411],[-56.046007,-24.429194],[-56.046073,-24.428609],[-56.047083,-24.42848],[-56.047542,-24.427909],[-56.047531,-24.42685],[-56.048055,-24.425952],[-56.049336,-24.424868],[-56.050292,-24.424463],[-56.050145,-24.423589],[-56.049675,-24.423964],[-56.049252,-24.423809],[-56.049315,-24.422717],[-56.052429,-24.421554],[-56.053401,-24.420738],[-56.053409,-24.420406],[-56.052905,-24.420476],[-56.051892,-24.420965],[-56.052164,-24.420032],[-56.052707,-24.419771],[-56.05275,-24.418944],[-56.055704,-24.413976],[-56.055637,-24.413064],[-56.056502,-24.412698],[-56.056265,-24.411712],[-56.055939,-24.411554],[-56.055134,-24.411887],[-56.054869,-24.411488],[-56.05505,-24.41078],[-56.055651,-24.41121],[-56.055947,-24.41049],[-56.055057,-24.41045],[-56.055418,-24.409633],[-56.05508,-24.408567],[-56.055621,-24.408381],[-56.056108,-24.408721],[-56.056449,-24.407385],[-56.055412,-24.406804],[-56.056637,-24.405718],[-56.056572,-24.405143],[-56.057678,-24.405328],[-56.057777,-24.405037],[-56.059117,-24.404568],[-56.057981,-24.40416],[-56.059096,-24.40314],[-56.057983,-24.403366],[-56.057106,-24.40167],[-56.055549,-24.4008],[-56.052925,-24.401818],[-56.051181,-24.401807],[-56.047915,-24.400323],[-56.047679,-24.401593],[-56.046855,-24.401691],[-56.044084,-24.400816],[-56.043486,-24.400901],[-56.04319,-24.401624],[-56.042087,-24.402371],[-56.041758,-24.400994],[-56.040417,-24.401074],[-56.04051,-24.401563],[-56.041378,-24.40216],[-56.039724,-24.40311],[-56.039515,-24.402991],[-56.039786,-24.401233],[-56.04123,-24.400399],[-56.040655,-24.399553],[-56.039559,-24.399309],[-56.037908,-24.399816],[-56.035504,-24.399505],[-56.035447,-24.400643],[-56.035172,-24.400775],[-56.03477,-24.400476],[-56.034776,-24.399722],[-56.03341,-24.398841],[-56.032215,-24.396763],[-56.030593,-24.395703],[-56.029158,-24.395398],[-56.028146,-24.396841],[-56.027549,-24.396807],[-56.026552,-24.396284],[-56.025687,-24.395332],[-56.024464,-24.394777],[-56.021518,-24.395822],[-56.019451,-24.395883],[-56.018848,-24.39653],[-56.019008,-24.396767],[-56.019866,-24.396477],[-56.020348,-24.396776],[-56.020195,-24.397706],[-56.019517,-24.397746],[-56.017844,-24.396878],[-56.016472,-24.396913],[-56.014104,-24.398303],[-56.013954,-24.398834],[-56.013158,-24.399509],[-56.013213,-24.400737],[-56.014198,-24.400713],[-56.014664,-24.401012],[-56.014577,-24.401795],[-56.01371,-24.401154],[-56.011221,-24.401419],[-56.008395,-24.397378],[-56.007521,-24.397668],[-56.008308,-24.398132],[-56.008463,-24.39905],[-56.006995,-24.398803],[-56.006532,-24.398224],[-56.006288,-24.396403],[-56.00689,-24.395816],[-56.006218,-24.394924],[-56.005927,-24.394981],[-56.005371,-24.395983],[-56.004516,-24.39583],[-56.002943,-24.394651],[-56.002667,-24.394812],[-56.002708,-24.395833],[-56.002175,-24.3958],[-56.001875,-24.395014],[-56.002364,-24.394426],[-56.002139,-24.394247],[-56.001538,-24.394657],[-56.001657,-24.393889],[-56.000721,-24.393897],[-56.000748,-24.392552],[-56.001156,-24.391889],[-56.000929,-24.390069],[-55.999846,-24.39021],[-55.999036,-24.388445],[-55.998423,-24.388382],[-55.998953,-24.386759],[-55.998566,-24.386682],[-55.998172,-24.387419],[-55.99732,-24.386984],[-55.997181,-24.386244],[-55.997328,-24.385994],[-55.997876,-24.386057],[-55.998303,-24.385231],[-55.998305,-24.384921],[-55.997743,-24.384607],[-55.997835,-24.383158],[-55.997563,-24.382831],[-55.996787,-24.382989],[-55.996606,-24.383327],[-55.996872,-24.384483],[-55.994412,-24.38318],[-55.994226,-24.382203],[-55.994855,-24.382325],[-55.99612,-24.381565],[-55.995588,-24.381428],[-55.995191,-24.380627],[-55.994659,-24.38049],[-55.994557,-24.381199],[-55.994217,-24.38136],[-55.993821,-24.380396],[-55.993132,-24.379726],[-55.991671,-24.378726],[-55.991122,-24.378648],[-55.99054,-24.378792],[-55.989659,-24.379999],[-55.988817,-24.380289],[-55.987994,-24.380209],[-55.986824,-24.379196],[-55.985186,-24.376036],[-55.982028,-24.375319],[-55.981701,-24.37582],[-55.982098,-24.376636],[-55.981402,-24.376853],[-55.981059,-24.375328],[-55.980557,-24.375561],[-55.980326,-24.376195],[-55.979564,-24.374549],[-55.978758,-24.374455],[-55.976977,-24.373097],[-55.97562,-24.373147],[-55.970005,-24.370861],[-55.96867,-24.372272],[-55.967423,-24.370814],[-55.966724,-24.36942],[-55.966051,-24.368764],[-55.964251,-24.367835],[-55.9631,-24.36836],[-55.962903,-24.368846],[-55.962305,-24.368916],[-55.961245,-24.368214],[-55.96028,-24.36973],[-55.958882,-24.369026],[-55.957088,-24.367239],[-55.95659,-24.367014],[-55.955296,-24.367316],[-55.954107,-24.366686],[-55.95362,-24.366934],[-55.953191,-24.366192],[-55.952689,-24.366351],[-55.952649,-24.367297],[-55.951648,-24.36729],[-55.951754,-24.368149],[-55.951059,-24.368203],[-55.95023,-24.368996],[-55.949923,-24.369038],[-55.94962,-24.368592],[-55.947973,-24.368655],[-55.947387,-24.369168],[-55.946312,-24.368466],[-55.94594,-24.368537],[-55.945533,-24.368919],[-55.945653,-24.369955],[-55.945959,-24.370105],[-55.946643,-24.369385],[-55.947245,-24.370794],[-55.947081,-24.371044],[-55.946712,-24.370761],[-55.945465,-24.371284],[-55.944206,-24.371261],[-55.944095,-24.372931],[-55.94459,-24.373555],[-55.943568,-24.374213],[-55.941505,-24.373844],[-55.940953,-24.37418],[-55.940083,-24.373982],[-55.939596,-24.374304],[-55.93929,-24.374184],[-55.939448,-24.372691],[-55.939159,-24.372467],[-55.938482,-24.372448],[-55.937276,-24.371848],[-55.936334,-24.372566],[-55.935655,-24.372591],[-55.93469,-24.372273],[-55.932768,-24.370412],[-55.932285,-24.37029],[-55.926904,-24.370962],[-55.924184,-24.369996],[-55.920958,-24.3716],[-55.920709,-24.372411],[-55.921286,-24.372948],[-55.920912,-24.373167],[-55.919753,-24.372833],[-55.918729,-24.373639],[-55.918171,-24.374744],[-55.914617,-24.376937],[-55.91239,-24.378724],[-55.910625,-24.379392],[-55.910907,-24.38034],[-55.909854,-24.380762],[-55.910853,-24.381035],[-55.910833,-24.381464],[-55.910041,-24.381502],[-55.910076,-24.383173],[-55.909436,-24.382429],[-55.909381,-24.381305],[-55.908396,-24.381387],[-55.907692,-24.382506],[-55.906768,-24.381094],[-55.906374,-24.381786],[-55.904724,-24.382218],[-55.902705,-24.384185],[-55.900926,-24.384615],[-55.899948,-24.385643],[-55.8976,-24.386528],[-55.897304,-24.387132],[-55.896345,-24.387805],[-55.896326,-24.38816],[-55.897118,-24.388077],[-55.896771,-24.388991],[-55.89614,-24.389135],[-55.895845,-24.389635],[-55.895072,-24.389437],[-55.894323,-24.390201],[-55.895804,-24.390611],[-55.895978,-24.391011],[-55.894141,-24.390702],[-55.89051,-24.38868],[-55.889719,-24.388585],[-55.886986,-24.387264],[-55.885659,-24.387712],[-55.882321,-24.390896],[-55.881123,-24.391316],[-55.881663,-24.392252],[-55.880599,-24.392067],[-55.879977,-24.393053],[-55.879345,-24.393373],[-55.879213,-24.393638],[-55.879801,-24.394737],[-55.879261,-24.395576],[-55.875605,-24.396303],[-55.875041,-24.396239],[-55.874902,-24.395558],[-55.874515,-24.395481],[-55.873088,-24.396181],[-55.872726,-24.396873],[-55.871081,-24.396668],[-55.871493,-24.397632],[-55.870845,-24.39782],[-55.870623,-24.399149],[-55.86938,-24.399154],[-55.870456,-24.399843],[-55.86937,-24.400263],[-55.869417,-24.400485],[-55.870031,-24.400431],[-55.869863,-24.401125],[-55.869327,-24.401446],[-55.869995,-24.402604],[-55.868945,-24.402744],[-55.868902,-24.402123],[-55.868597,-24.401928],[-55.868544,-24.402416],[-55.868059,-24.402501],[-55.868457,-24.40314],[-55.868145,-24.403699],[-55.867029,-24.403854],[-55.867068,-24.404904],[-55.865683,-24.404494],[-55.865581,-24.405129],[-55.865077,-24.405495],[-55.86525,-24.405999],[-55.864538,-24.406171],[-55.863887,-24.408532],[-55.864139,-24.409229],[-55.863807,-24.41035],[-55.865051,-24.410256],[-55.865242,-24.410568],[-55.864166,-24.411654],[-55.862334,-24.41612],[-55.862507,-24.416624],[-55.862213,-24.417007],[-55.862198,-24.418618],[-55.861903,-24.419148],[-55.862222,-24.419624],[-55.861381,-24.421495],[-55.862469,-24.422701],[-55.861688,-24.423301],[-55.862699,-24.424004],[-55.861626,-24.424779],[-55.862749,-24.425646],[-55.862503,-24.426072],[-55.86184,-24.426186],[-55.862559,-24.427034],[-55.862392,-24.427698],[-55.863258,-24.428281],[-55.861819,-24.428492],[-55.862928,-24.429077],[-55.862646,-24.429888],[-55.863208,-24.430351],[-55.861844,-24.431139],[-55.863069,-24.4314],[-55.862239,-24.432059],[-55.862316,-24.432518],[-55.863074,-24.432583],[-55.863287,-24.432303],[-55.864089,-24.432886],[-55.863536,-24.433325],[-55.864614,-24.433807],[-55.864418,-24.434042],[-55.863611,-24.434006],[-55.864229,-24.435253],[-55.863791,-24.435471],[-55.863683,-24.434938],[-55.863344,-24.434906],[-55.862615,-24.435181],[-55.86218,-24.436834],[-55.860151,-24.43982],[-55.85888,-24.441008],[-55.856724,-24.441939],[-55.856473,-24.442883],[-55.855957,-24.44282],[-55.855856,-24.443292],[-55.855092,-24.443834],[-55.855587,-24.444399],[-55.854813,-24.44426],[-55.854147,-24.444684],[-55.853357,-24.446334],[-55.853854,-24.446693],[-55.852782,-24.447379],[-55.853731,-24.447786],[-55.853632,-24.448036],[-55.853224,-24.448506],[-55.852938,-24.448061],[-55.852178,-24.448158],[-55.851308,-24.447827],[-55.851235,-24.448743],[-55.850193,-24.447966],[-55.849466,-24.447916],[-55.849623,-24.448479],[-55.848611,-24.44961],[-55.847462,-24.449808],[-55.84479,-24.452375],[-55.843951,-24.452251],[-55.843498,-24.452365],[-55.843299,-24.452941],[-55.842087,-24.45299],[-55.841339,-24.453517],[-55.840533,-24.455122],[-55.839193,-24.455053],[-55.839555,-24.456046],[-55.838145,-24.456568],[-55.836371,-24.458062],[-55.835208,-24.458009],[-55.835004,-24.459116],[-55.834398,-24.458299],[-55.833737,-24.45819],[-55.834201,-24.458608],[-55.834355,-24.459452],[-55.830342,-24.461905],[-55.830773,-24.464244],[-55.830763,-24.465353],[-55.83042,-24.465705],[-55.830593,-24.466268],[-55.830461,-24.466578],[-55.828958,-24.46661],[-55.829485,-24.467295],[-55.829046,-24.467572],[-55.828892,-24.468488],[-55.827757,-24.468967],[-55.827419,-24.470532],[-55.8272,-24.469805],[-55.82595,-24.470431],[-55.826071,-24.469663],[-55.825185,-24.46939],[-55.825226,-24.4701],[-55.824806,-24.470127],[-55.824306,-24.470034],[-55.823683,-24.469275],[-55.823787,-24.470282],[-55.823592,-24.470398],[-55.823417,-24.470086],[-55.822558,-24.470405],[-55.822172,-24.47018],[-55.821978,-24.470297],[-55.82236,-24.470891],[-55.820963,-24.471635],[-55.820482,-24.47135],[-55.819791,-24.47266],[-55.819132,-24.472286],[-55.81819,-24.472781],[-55.818052,-24.471981],[-55.817553,-24.47183],[-55.817358,-24.471961],[-55.81785,-24.472867],[-55.816741,-24.472237],[-55.816398,-24.472678],[-55.815477,-24.472671],[-55.815214,-24.473157],[-55.814634,-24.47299],[-55.812961,-24.473982],[-55.812557,-24.473949],[-55.812513,-24.47352],[-55.81134,-24.472801],[-55.808858,-24.473891],[-55.808464,-24.474656],[-55.807446,-24.474589],[-55.806117,-24.475111],[-55.805642,-24.475787],[-55.805686,-24.476231],[-55.803885,-24.477091],[-55.803834,-24.477355],[-55.804475,-24.477907],[-55.804053,-24.478066],[-55.803672,-24.479084],[-55.802625,-24.478809],[-55.802588,-24.479238],[-55.802199,-24.479368],[-55.8015,-24.478179],[-55.801188,-24.478635],[-55.800577,-24.478409],[-55.800168,-24.478908],[-55.799555,-24.4788],[-55.797528,-24.479612],[-55.796865,-24.481321],[-55.797198,-24.482004],[-55.797715,-24.481993],[-55.79776,-24.482393],[-55.796074,-24.48303],[-55.796133,-24.483607],[-55.794803,-24.484085],[-55.794776,-24.485312],[-55.794519,-24.48477],[-55.793958,-24.484955],[-55.794363,-24.485874],[-55.794236,-24.486231],[-55.793704,-24.48572],[-55.793268,-24.485758],[-55.793257,-24.487626],[-55.7919,-24.490053],[-55.788703,-24.491111],[-55.787687,-24.492728],[-55.78746,-24.493747],[-55.786128,-24.495488],[-55.785288,-24.49754],[-55.784912,-24.497752],[-55.785103,-24.498306],[-55.784255,-24.499383],[-55.784059,-24.500547],[-55.781459,-24.50351],[-55.778512,-24.504967],[-55.778584,-24.505555],[-55.777559,-24.506296],[-55.77714,-24.50753],[-55.776649,-24.507986],[-55.77703,-24.509046],[-55.775221,-24.509745],[-55.773803,-24.510871],[-55.770805,-24.512368],[-55.770659,-24.512819],[-55.771139,-24.514714],[-55.770704,-24.517858],[-55.771568,-24.518393],[-55.772414,-24.519515],[-55.772786,-24.519455],[-55.772611,-24.520375],[-55.773081,-24.520243],[-55.773032,-24.52073],[-55.77414,-24.521624],[-55.773998,-24.522558],[-55.774537,-24.523113],[-55.774312,-24.525093],[-55.774673,-24.525923],[-55.774438,-24.526688],[-55.773893,-24.527086],[-55.774155,-24.527639],[-55.773213,-24.528308],[-55.772806,-24.529],[-55.772791,-24.530418],[-55.772436,-24.53093],[-55.77119,-24.531556],[-55.769757,-24.53294],[-55.768584,-24.533147],[-55.767093,-24.532819],[-55.765252,-24.532871],[-55.764712,-24.533187],[-55.764152,-24.534343],[-55.761087,-24.53397],[-55.758221,-24.535527],[-55.757339,-24.536315],[-55.757022,-24.538276],[-55.758122,-24.542611],[-55.758741,-24.547912],[-55.758006,-24.551003],[-55.758675,-24.55281],[-55.757428,-24.554127],[-55.75696,-24.555149],[-55.757547,-24.558454],[-55.756875,-24.561604],[-55.754856,-24.564681],[-55.753094,-24.566133],[-55.749205,-24.571361],[-55.752741,-24.574393],[-55.755521,-24.57578],[-55.759625,-24.57701],[-55.76085,-24.579079],[-55.76249,-24.585644],[-55.763354,-24.586414],[-55.765605,-24.586843],[-55.766567,-24.58738],[-55.767042,-24.588372],[-55.767609,-24.591361],[-55.767383,-24.595622],[-55.764929,-24.597539],[-55.764676,-24.598516],[-55.765508,-24.602804],[-55.765191,-24.60397],[-55.764078,-24.60569],[-55.763533,-24.608282],[-55.763876,-24.61057],[-55.764837,-24.612505],[-55.764422,-24.614669],[-55.764801,-24.618172],[-55.760854,-24.624171],[-55.759656,-24.627358],[-55.756931,-24.630668],[-55.755307,-24.633386],[-55.753153,-24.63521],[-55.752496,-24.636406],[-55.752553,-24.637476],[-55.753466,-24.639127],[-55.754073,-24.642045],[-55.755379,-24.644548],[-55.756608,-24.646134],[-55.762284,-24.650872],[-55.76231,-24.655807],[-55.755168,-24.669442],[-55.753334,-24.671016],[-55.750495,-24.67251],[-55.748866,-24.67404],[-55.746578,-24.678008],[-55.745029,-24.679864],[-55.74536,-24.687037],[-55.743424,-24.692606],[-55.742059,-24.695186],[-55.740082,-24.697964],[-55.737838,-24.699458],[-55.7363,-24.699666],[-55.736253,-24.701201],[-55.737086,-24.703059],[-55.736896,-24.704434],[-55.73296,-24.709539],[-55.730722,-24.710423],[-55.729168,-24.712257],[-55.72885,-24.714241],[-55.729009,-24.71673],[-55.728417,-24.717429],[-55.728003,-24.7199],[-55.727095,-24.72135],[-55.729207,-24.723089],[-55.729068,-24.727795],[-55.735155,-24.733958],[-55.736124,-24.736526],[-55.736106,-24.743189],[-55.73073,-24.751181],[-55.72607,-24.755849],[-55.718269,-24.758095],[-55.714408,-24.764174],[-55.708025,-24.769156],[-55.703703,-24.775974],[-55.701991,-24.78397],[-55.71961,-24.783801],[-55.72624,-24.782765],[-55.728738,-24.782867],[-55.73408,-24.781675],[-55.737509,-24.779424],[-55.740013,-24.778461],[-55.745112,-24.777867],[-55.746997,-24.776912],[-55.748989,-24.776545],[-55.750717,-24.776921],[-55.752458,-24.778692],[-55.754426,-24.779765],[-55.755894,-24.779899],[-55.758428,-24.781658],[-55.758833,-24.782452],[-55.759589,-24.782936],[-55.765099,-24.780512],[-55.766127,-24.78071],[-55.77056,-24.782932],[-55.771009,-24.782922],[-55.772363,-24.781489],[-55.773332,-24.779546],[-55.774214,-24.779129],[-55.777269,-24.78007],[-55.780484,-24.781848],[-55.78253,-24.782086],[-55.785744,-24.780392],[-55.787789,-24.778066],[-55.790488,-24.777139],[-55.792492,-24.777476],[-55.797376,-24.779344],[-55.799197,-24.778749],[-55.800375,-24.775756],[-55.801058,-24.775414],[-55.803844,-24.775662],[-55.805389,-24.776184],[-55.810827,-24.776679],[-55.811561,-24.776292],[-55.811949,-24.775446],[-55.812729,-24.775195],[-55.815216,-24.77479],[-55.819231,-24.77521],[-55.820961,-24.774867],[-55.821771,-24.774255],[-55.821919,-24.773543],[-55.821154,-24.770503],[-55.821241,-24.769528],[-55.824274,-24.766319],[-55.824735,-24.764986],[-55.825305,-24.764363],[-55.826166,-24.764072],[-55.829165,-24.764168],[-55.833417,-24.763713],[-55.836676,-24.762461],[-55.838209,-24.762504],[-55.839619,-24.761879],[-55.839579,-24.756375],[-55.84011,-24.751615],[-55.839998,-24.747709],[-55.841186,-24.744503],[-55.845012,-24.737787],[-55.845146,-24.735097],[-55.844395,-24.731452],[-55.84699,-24.730145],[-55.848279,-24.729012],[-55.851541,-24.724838],[-55.85255,-24.72281],[-55.853424,-24.718843],[-55.853205,-24.717437],[-55.853444,-24.715082],[-55.854632,-24.711854],[-55.855891,-24.710035],[-55.85654,-24.706008],[-55.857631,-24.701993],[-55.860012,-24.696422],[-55.863018,-24.693577],[-55.863884,-24.692405],[-55.866042,-24.687907],[-55.867036,-24.684857],[-55.870607,-24.682649],[-55.872687,-24.681089],[-55.873085,-24.680469],[-55.873908,-24.680538],[-55.874272,-24.679922],[-55.875378,-24.67961],[-55.875921,-24.678169],[-55.876509,-24.678034],[-55.876487,-24.677293],[-55.877798,-24.676341],[-55.877353,-24.675715],[-55.87902,-24.674612],[-55.880075,-24.672484],[-55.8821,-24.671822],[-55.883721,-24.672326],[-55.884389,-24.672241],[-55.886284,-24.673122],[-55.886382,-24.672793],[-55.887895,-24.67228],[-55.888939,-24.671268],[-55.891584,-24.670276],[-55.89164,-24.669843],[-55.893015,-24.668972],[-55.894451,-24.667032],[-55.896002,-24.666732],[-55.897579,-24.667137],[-55.898833,-24.665268],[-55.900148,-24.664916],[-55.901164,-24.664174],[-55.902101,-24.664249],[-55.903103,-24.664771],[-55.90513,-24.664794],[-55.907076,-24.664344],[-55.907021,-24.664993],[-55.907847,-24.664968],[-55.908779,-24.663945],[-55.910147,-24.663472],[-55.909764,-24.662688],[-55.910791,-24.662655],[-55.910672,-24.661922],[-55.911306,-24.662062],[-55.911718,-24.661578],[-55.912408,-24.661605],[-55.912871,-24.660949],[-55.913896,-24.660447],[-55.913442,-24.659622],[-55.913645,-24.659063],[-55.913135,-24.658757],[-55.913769,-24.658391],[-55.914293,-24.657411],[-55.915135,-24.65706],[-55.915798,-24.655805],[-55.915892,-24.654618],[-55.916281,-24.654138],[-55.916177,-24.650886],[-55.916732,-24.649491],[-55.919375,-24.647947],[-55.920735,-24.647831],[-55.921925,-24.645916],[-55.921371,-24.645514],[-55.921586,-24.644825],[-55.922838,-24.64422],[-55.92318,-24.643356],[-55.925561,-24.642971],[-55.92538,-24.64194],[-55.926336,-24.640073],[-55.926883,-24.639332],[-55.927927,-24.639109],[-55.928128,-24.638542],[-55.928723,-24.638212],[-55.928217,-24.636601],[-55.92912,-24.635406],[-55.9291,-24.634846],[-55.929572,-24.634759],[-55.929518,-24.634181],[-55.929919,-24.633488],[-55.929437,-24.63278],[-55.930652,-24.631462],[-55.931905,-24.631177],[-55.931784,-24.630734],[-55.932187,-24.629987],[-55.933359,-24.629246],[-55.93303,-24.628435],[-55.933838,-24.628035],[-55.933785,-24.62733],[-55.934299,-24.627103],[-55.93443,-24.626431],[-55.935279,-24.62539],[-55.934573,-24.624554],[-55.935173,-24.623542],[-55.939095,-24.623611],[-55.940816,-24.622936],[-55.941307,-24.622312],[-55.942782,-24.621903],[-55.942529,-24.621404],[-55.9429,-24.620409],[-55.944019,-24.619265],[-55.942973,-24.61617],[-55.942516,-24.615986],[-55.94197,-24.615147],[-55.942617,-24.61405],[-55.941982,-24.612365],[-55.942013,-24.611946],[-55.942507,-24.611728],[-55.941646,-24.610891],[-55.941752,-24.610318],[-55.940837,-24.61019],[-55.94157,-24.606976],[-55.942075,-24.605968],[-55.942102,-24.604695],[-55.941795,-24.604268],[-55.9425,-24.603226],[-55.942549,-24.602332],[-55.943258,-24.601488],[-55.943633,-24.599721],[-55.943091,-24.59932],[-55.943558,-24.598808],[-55.94333,-24.598436],[-55.943554,-24.598244],[-55.942906,-24.597688],[-55.9429,-24.59734],[-55.943859,-24.59658],[-55.943409,-24.596342],[-55.944133,-24.595471],[-55.94378,-24.594796],[-55.943376,-24.594684],[-55.943312,-24.593794],[-55.942953,-24.593548],[-55.943336,-24.593095],[-55.942919,-24.592581],[-55.943229,-24.591635],[-55.942446,-24.591206],[-55.942143,-24.59035],[-55.942545,-24.587874],[-55.943284,-24.587337],[-55.943469,-24.586259],[-55.943434,-24.585758],[-55.943073,-24.58548],[-55.943272,-24.585197],[-55.942817,-24.584656],[-55.943115,-24.582658],[-55.942469,-24.581918],[-55.942453,-24.581516],[-55.942841,-24.581198],[-55.942276,-24.581126],[-55.942453,-24.580545],[-55.94204,-24.580249],[-55.941604,-24.580494],[-55.941435,-24.580195],[-55.941761,-24.579809],[-55.941623,-24.579121],[-55.941213,-24.578784],[-55.94158,-24.578498],[-55.941314,-24.578153],[-55.941758,-24.577885],[-55.941467,-24.576668],[-55.941668,-24.576209],[-55.941234,-24.575854],[-55.941588,-24.575297],[-55.941469,-24.574176],[-55.941333,-24.573678],[-55.94064,-24.573276],[-55.940525,-24.57202],[-55.940031,-24.571768],[-55.940481,-24.57057],[-55.941263,-24.570305],[-55.942034,-24.570468]]]}}]}
