{"type":"FeatureCollection","name":"distrito","features":[{"type":"Feature","properties":{"clave":"4-17","nombre":"Iturbe"},"geometry":{"type":"Polygon","coordinates":[[[-56.538137,-26.123353],[-56.537983,-26.124852],[-56.538445,-26.125946],[-56.53989,-26.126045],[-56.541,-26.124514],[-56.542318,-26.124328],[-56.5431,-26.125347],[-56.542922,-26.127378],[-56.543175,-26.127974],[-56.544236,-26.128362],[-56.546105,-26.128367],[-56.546719,-26.128884],[-56.546525,-26.129574],[-56.54531,-26.130722],[-56.54462,-26.13346],[-56.543039,-26.135622],[-56.542075,-26.137655],[-56.542007,-26.138766],[-56.543082,-26.140841],[-56.543057,-26.141916],[-56.542502,-26.142546],[-56.540907,-26.143096],[-56.54014,-26.143667],[-56.538715,-26.149378],[-56.539093,-26.150549],[-56.541253,-26.152339],[-56.541291,-26.153454],[-56.540306,-26.155578],[-56.54062,-26.15654],[-56.541447,-26.157116],[-56.543188,-26.157505],[-56.543632,-26.158044],[-56.542835,-26.160805],[-56.543021,-26.161975],[-56.545546,-26.163111],[-56.545898,-26.165338],[-56.546406,-26.166067],[-56.547382,-26.166322],[-56.549828,-26.165946],[-56.550653,-26.166716],[-56.551621,-26.169324],[-56.551618,-26.170169],[-56.551126,-26.170935],[-56.549485,-26.172158],[-56.548942,-26.175203],[-56.549662,-26.175973],[-56.550829,-26.176401],[-56.551956,-26.176328],[-56.552936,-26.175523],[-56.553976,-26.175815],[-56.553482,-26.177272],[-56.552137,-26.178821],[-56.552751,-26.179396],[-56.554324,-26.179459],[-56.554854,-26.17975],[-56.555378,-26.181707],[-56.555121,-26.182225],[-56.553523,-26.1831],[-56.551732,-26.18486],[-56.551068,-26.186163],[-56.551532,-26.18695],[-56.552996,-26.187681],[-56.556162,-26.187998],[-56.560068,-26.189084],[-56.561536,-26.1888],[-56.562839,-26.187174],[-56.564582,-26.187179],[-56.565682,-26.188469],[-56.564124,-26.190325],[-56.563994,-26.190956],[-56.564458,-26.191743],[-56.565181,-26.19184],[-56.566309,-26.191577],[-56.566822,-26.190717],[-56.566369,-26.186842],[-56.567178,-26.18623],[-56.568156,-26.186269],[-56.569088,-26.187039],[-56.569827,-26.18831],[-56.570264,-26.191034],[-56.57156,-26.191304],[-56.572411,-26.190905],[-56.572776,-26.189967],[-56.572694,-26.189258],[-56.571828,-26.187833],[-56.571959,-26.186705],[-56.575751,-26.184301],[-56.578936,-26.185019],[-56.579907,-26.186977],[-56.58065,-26.187268],[-56.582186,-26.185566],[-56.58425,-26.184899],[-56.58476,-26.185225],[-56.584798,-26.1863],[-56.584648,-26.186701],[-56.583498,-26.187389],[-56.583432,-26.188021],[-56.584322,-26.188561],[-56.585854,-26.188299],[-56.58626,-26.187591],[-56.586289,-26.185519],[-56.588186,-26.184107],[-56.589296,-26.18267],[-56.591954,-26.182104],[-56.593574,-26.180898],[-56.595658,-26.180674],[-56.596169,-26.18031],[-56.596066,-26.179488],[-56.593291,-26.176563],[-56.593293,-26.176026],[-56.594038,-26.175568],[-56.597374,-26.176038],[-56.601609,-26.174113],[-56.60325,-26.172948],[-56.603822,-26.173351],[-56.604495,-26.175692],[-56.605258,-26.176231],[-56.606597,-26.176275],[-56.611808,-26.175062],[-56.612697,-26.175926],[-56.613201,-26.177982],[-56.614156,-26.178404],[-56.615007,-26.178041],[-56.615798,-26.176472],[-56.571444,-26.098256],[-56.569274,-26.065489],[-56.570012,-26.03846],[-56.560478,-26.038184],[-56.553167,-26.03727],[-56.542635,-26.033955],[-56.529252,-26.034423],[-56.521709,-26.035197],[-56.516735,-26.036526],[-56.514675,-26.037746],[-56.51375,-26.03975],[-56.511375,-26.042102],[-56.509651,-26.045335],[-56.506623,-26.047524],[-56.503419,-26.049279],[-56.50087,-26.048988],[-56.497761,-26.050709],[-56.496662,-26.049199],[-56.496474,-26.048222],[-56.497777,-26.046752],[-56.497117,-26.043866],[-56.497382,-26.043498],[-56.497959,-26.043414],[-56.49851,-26.043697],[-56.499679,-26.045349],[-56.50047,-26.045634],[-56.5016,-26.045269],[-56.503365,-26.041512],[-56.501681,-26.039887],[-56.501521,-26.039384],[-56.501923,-26.038402],[-56.504321,-26.037321],[-56.504792,-26.036721],[-56.505011,-26.036038],[-56.504532,-26.033129],[-56.504205,-26.032706],[-56.504914,-26.031706],[-56.504938,-26.031033],[-56.504038,-26.030543],[-56.503049,-26.031551],[-56.502718,-26.031446],[-56.502565,-26.030781],[-56.500574,-26.030838],[-56.500316,-26.030435],[-56.500714,-26.029479],[-56.499794,-26.029201],[-56.499846,-26.027919],[-56.499113,-26.027943],[-56.498579,-26.02739],[-56.497125,-26.027954],[-56.497048,-26.026266],[-56.496547,-26.026128],[-56.495874,-26.02641],[-56.4953,-26.02556],[-56.495465,-26.025276],[-56.496179,-26.025138],[-56.496234,-26.024561],[-56.494481,-26.024609],[-56.49405,-26.02384],[-56.493528,-26.023567],[-56.493721,-26.02317],[-56.493382,-26.022925],[-56.493628,-26.022542],[-56.493398,-26.021851],[-56.494635,-26.021634],[-56.494681,-26.021395],[-56.493958,-26.021243],[-56.495018,-26.020321],[-56.494126,-26.019758],[-56.494388,-26.019182],[-56.493617,-26.019242],[-56.493496,-26.018339],[-56.492929,-26.019258],[-56.492517,-26.019116],[-56.492761,-26.017997],[-56.491866,-26.017389],[-56.49201,-26.018112],[-56.491012,-26.018637],[-56.490978,-26.017684],[-56.490241,-26.017618],[-56.489992,-26.017116],[-56.489399,-26.016934],[-56.487777,-26.018373],[-56.486915,-26.018013],[-56.486548,-26.017501],[-56.486172,-26.017581],[-56.485561,-26.018035],[-56.485472,-26.018866],[-56.484976,-26.019302],[-56.484132,-26.018897],[-56.483169,-26.018916],[-56.48228,-26.020904],[-56.481576,-26.020048],[-56.480881,-26.020849],[-56.479922,-26.02053],[-56.478853,-26.021108],[-56.477561,-26.020467],[-56.476884,-26.020808],[-56.47643,-26.020233],[-56.475886,-26.020705],[-56.474947,-26.02053],[-56.473437,-26.01977],[-56.47173,-26.019584],[-56.471274,-26.018819],[-56.470366,-26.019285],[-56.469793,-26.018213],[-56.469364,-26.017995],[-56.468578,-26.018805],[-56.467312,-26.018962],[-56.466799,-26.019513],[-56.46597,-26.01935],[-56.465353,-26.019682],[-56.464879,-26.019594],[-56.463605,-26.020294],[-56.462899,-26.021077],[-56.46206,-26.02088],[-56.461246,-26.021649],[-56.46035,-26.021654],[-56.459467,-26.022365],[-56.458896,-26.023735],[-56.456337,-26.024294],[-56.456268,-26.025052],[-56.455368,-26.025785],[-56.454212,-26.025356],[-56.452079,-26.026617],[-56.451854,-26.0283],[-56.450923,-26.028287],[-56.450047,-26.029223],[-56.450096,-26.029946],[-56.450516,-26.030498],[-56.449911,-26.031859],[-56.45029,-26.032804],[-56.45016,-26.033558],[-56.449138,-26.034285],[-56.449202,-26.033437],[-56.448815,-26.033295],[-56.448046,-26.034412],[-56.448109,-26.034886],[-56.448827,-26.035119],[-56.448451,-26.035673],[-56.448918,-26.036343],[-56.448805,-26.037413],[-56.447184,-26.037379],[-56.446648,-26.037851],[-56.445284,-26.038072],[-56.442264,-26.03806],[-56.441507,-26.038798],[-56.439478,-26.039029],[-56.436753,-26.036346],[-56.434876,-26.035887],[-56.432106,-26.033497],[-56.431067,-26.033082],[-56.429034,-26.03153],[-56.428374,-26.030399],[-56.424886,-26.028394],[-56.423726,-26.027297],[-56.423355,-26.026541],[-56.423279,-26.025114],[-56.42174,-26.024733],[-56.419001,-26.023029],[-56.414507,-26.022596],[-56.413553,-26.022104],[-56.412062,-26.020441],[-56.411178,-26.020212],[-56.41154,-26.018728],[-56.410725,-26.017307],[-56.410758,-26.016815],[-56.409929,-26.016157],[-56.409656,-26.016626],[-56.409136,-26.016583],[-56.408249,-26.014963],[-56.407272,-26.014828],[-56.405342,-26.013637],[-56.403596,-26.013345],[-56.402269,-26.01227],[-56.401229,-26.012189],[-56.400896,-26.011962],[-56.400714,-26.01104],[-56.400252,-26.011788],[-56.399399,-26.01173],[-56.399034,-26.00981],[-56.398122,-26.009111],[-56.395982,-26.008519],[-56.395608,-26.008274],[-56.39557,-26.007556],[-56.39384,-26.008077],[-56.394072,-26.007477],[-56.392969,-26.007473],[-56.393493,-26.006834],[-56.392599,-26.006681],[-56.390883,-26.004137],[-56.390671,-26.002876],[-56.389416,-26.002433],[-56.389257,-26.001312],[-56.388215,-26.000604],[-56.387981,-25.999673],[-56.38684,-25.999433],[-56.386114,-25.999945],[-56.385938,-25.999362],[-56.384789,-25.998147],[-56.383583,-25.998241],[-56.383197,-25.99753],[-56.382684,-25.997352],[-56.381546,-25.997153],[-56.380654,-25.997339],[-56.378823,-25.996094],[-56.378278,-25.996466],[-56.377919,-25.996149],[-56.377328,-25.996345],[-56.374383,-25.9957],[-56.374,-25.995039],[-56.373025,-25.994719],[-56.373286,-25.99333],[-56.373088,-25.993072],[-56.372592,-25.993115],[-56.371643,-25.99409],[-56.370961,-25.993843],[-56.370848,-25.994624],[-56.369595,-25.993652],[-56.368807,-25.994001],[-56.367081,-25.993253],[-56.366468,-25.993426],[-56.365472,-25.993102],[-56.358742,-25.989117],[-56.356663,-25.986498],[-56.354974,-25.985926],[-56.353777,-25.983835],[-56.352011,-25.982008],[-56.352096,-25.98106],[-56.351466,-25.978515],[-56.350772,-25.978174],[-56.350718,-25.976494],[-56.349686,-25.975744],[-56.350238,-25.974695],[-56.34967,-25.974169],[-56.350316,-25.973716],[-56.349826,-25.973497],[-56.349964,-25.97305],[-56.349448,-25.972321],[-56.349519,-25.971671],[-56.349072,-25.970852],[-56.348107,-25.970107],[-56.347926,-25.969434],[-56.347282,-25.968812],[-56.346321,-25.968664],[-56.344625,-25.967496],[-56.344345,-25.967002],[-56.343406,-25.967264],[-56.342329,-25.968289],[-56.339812,-25.968381],[-56.33845,-25.967928],[-56.337764,-25.96718],[-56.336539,-25.967486],[-56.335247,-25.966798],[-56.333175,-25.966387],[-56.332695,-25.965735],[-56.331833,-25.965767],[-56.330783,-25.965324],[-56.330695,-25.964619],[-56.329313,-25.965173],[-56.32814,-25.964616],[-56.32755,-25.964681],[-56.32638,-25.963606],[-56.324646,-25.96437],[-56.32492,-25.963708],[-56.323526,-25.963818],[-56.322503,-25.963042],[-56.321628,-25.962839],[-56.320301,-25.963207],[-56.319642,-25.962911],[-56.318814,-25.963088],[-56.3185,-25.96235],[-56.317851,-25.96274],[-56.317565,-25.96175],[-56.317911,-25.961133],[-56.316339,-25.95894],[-56.316644,-25.956562],[-56.316175,-25.954687],[-56.316746,-25.95357],[-56.316383,-25.952597],[-56.316469,-25.951559],[-56.31551,-25.951153],[-56.315413,-25.950669],[-56.314067,-25.950659],[-56.313999,-25.949913],[-56.313435,-25.949567],[-56.312782,-25.949668],[-56.312204,-25.949033],[-56.311471,-25.949563],[-56.310847,-25.948711],[-56.309786,-25.948868],[-56.309318,-25.94841],[-56.3099,-25.947871],[-56.308744,-25.947383],[-56.308388,-25.947891],[-56.306926,-25.947988],[-56.306081,-25.947329],[-56.305195,-25.947492],[-56.304406,-25.947276],[-56.303334,-25.94761],[-56.302106,-25.946556],[-56.301592,-25.944788],[-56.300748,-25.944671],[-56.299714,-25.944066],[-56.300073,-25.943567],[-56.29921,-25.942547],[-56.298343,-25.942899],[-56.297702,-25.943686],[-56.297393,-25.943694],[-56.296858,-25.943041],[-56.296253,-25.943774],[-56.294364,-25.94404],[-56.293968,-25.944463],[-56.293125,-25.942409],[-56.291973,-25.942678],[-56.291566,-25.942148],[-56.290912,-25.942696],[-56.290528,-25.942103],[-56.289746,-25.942198],[-56.289826,-25.940772],[-56.28955,-25.940481],[-56.288398,-25.940458],[-56.287223,-25.939477],[-56.286292,-25.940046],[-56.284888,-25.940057],[-56.283453,-25.939503],[-56.282774,-25.938683],[-56.281454,-25.938911],[-56.281747,-25.940001],[-56.281118,-25.94053],[-56.278666,-25.940662],[-56.278161,-25.941242],[-56.277266,-25.940881],[-56.276087,-25.940911],[-56.275108,-25.941837],[-56.274593,-25.941929],[-56.274312,-25.94237],[-56.281246,-25.972478],[-56.280961,-25.976187],[-56.283179,-25.977254],[-56.286162,-25.980353],[-56.286939,-25.981905],[-56.287658,-25.982333],[-56.289855,-25.982429],[-56.291961,-25.983207],[-56.296138,-25.983693],[-56.299203,-25.982899],[-56.301645,-25.983688],[-56.307885,-25.988061],[-56.310777,-25.992499],[-56.314457,-25.994336],[-56.315681,-25.997114],[-56.317984,-25.998199],[-56.320766,-25.998212],[-56.321658,-25.999268],[-56.322366,-26.001055],[-56.323347,-26.002197],[-56.325944,-26.003185],[-56.327648,-26.003432],[-56.329444,-26.00344],[-56.335464,-26.002497],[-56.337391,-26.003752],[-56.339917,-26.004473],[-56.341092,-26.00744],[-56.340847,-26.008784],[-56.341046,-26.009575],[-56.345943,-26.013552],[-56.346979,-26.016324],[-56.348096,-26.017765],[-56.347967,-26.019345],[-56.349713,-26.021948],[-56.350956,-26.02488],[-56.352308,-26.02633],[-56.355363,-26.025811],[-56.357225,-26.025842],[-56.35968,-26.024083],[-56.362274,-26.02335],[-56.364527,-26.023166],[-56.366216,-26.023828],[-56.368341,-26.02362],[-56.369777,-26.022502],[-56.369833,-26.021306],[-56.370545,-26.020397],[-56.370442,-26.01944],[-56.371294,-26.017764],[-56.374032,-26.016078],[-56.37571,-26.015584],[-56.376128,-26.015108],[-56.379113,-26.016069],[-56.380813,-26.015755],[-56.381258,-26.015216],[-56.381755,-26.015209],[-56.382793,-26.016446],[-56.385373,-26.017405],[-56.385597,-26.018412],[-56.38677,-26.018946],[-56.391861,-26.01652],[-56.392453,-26.016739],[-56.392836,-26.017364],[-56.393543,-26.017376],[-56.394446,-26.017876],[-56.395717,-26.017584],[-56.396078,-26.018249],[-56.395981,-26.018899],[-56.396636,-26.018883],[-56.396749,-26.019299],[-56.397228,-26.019292],[-56.397168,-26.018705],[-56.397449,-26.018679],[-56.398624,-26.018788],[-56.399402,-26.01945],[-56.400361,-26.01903],[-56.40047,-26.020245],[-56.400915,-26.020508],[-56.404244,-26.020937],[-56.404928,-26.02141],[-56.405252,-26.021045],[-56.405635,-26.021571],[-56.406316,-26.020625],[-56.407198,-26.021221],[-56.407165,-26.021568],[-56.407614,-26.021394],[-56.407714,-26.022031],[-56.408236,-26.02178],[-56.408265,-26.022155],[-56.410906,-26.023869],[-56.402443,-26.137133],[-56.402691,-26.138073],[-56.410134,-26.139789],[-56.410898,-26.139282],[-56.414428,-26.138344],[-56.418721,-26.136745],[-56.421758,-26.135119],[-56.422576,-26.133551],[-56.423331,-26.132782],[-56.42628,-26.131751],[-56.428069,-26.130277],[-56.432498,-26.127708],[-56.434335,-26.125394],[-56.434974,-26.123934],[-56.435936,-26.123121],[-56.437506,-26.119072],[-56.439463,-26.117906],[-56.441429,-26.118067],[-56.443225,-26.117564],[-56.443933,-26.117815],[-56.444462,-26.117239],[-56.445662,-26.117334],[-56.446108,-26.117688],[-56.447109,-26.117362],[-56.448755,-26.118299],[-56.451496,-26.118603],[-56.454487,-26.119621],[-56.45571,-26.119454],[-56.458087,-26.119756],[-56.461117,-26.118779],[-56.463221,-26.11848],[-56.465719,-26.118859],[-56.466841,-26.118471],[-56.468801,-26.119408],[-56.470073,-26.118902],[-56.47064,-26.117997],[-56.47428,-26.118164],[-56.48085,-26.116594],[-56.483962,-26.118077],[-56.485784,-26.118106],[-56.486338,-26.118564],[-56.487675,-26.118858],[-56.489586,-26.116964],[-56.491765,-26.117599],[-56.492559,-26.118541],[-56.494694,-26.119289],[-56.49657,-26.119029],[-56.530081,-26.121327],[-56.531091,-26.122048],[-56.531433,-26.121584],[-56.532745,-26.121778],[-56.533164,-26.120687],[-56.534494,-26.11963],[-56.53594,-26.120823],[-56.537213,-26.120723],[-56.538782,-26.121324],[-56.538991,-26.12164],[-56.538137,-26.123353]]]}}]}
