{"type":"FeatureCollection","name":"distrito","features":[{"type":"Feature","properties":{"clave":"10-34","nombre":"Tavapy"},"geometry":{"type":"Polygon","coordinates":[[[-55.06678,-25.680818],[-55.073816,-25.674114],[-55.076002,-25.673855],[-55.101066,-25.666067],[-55.103167,-25.666279],[-55.112926,-25.659315],[-55.117983,-25.660451],[-55.13143,-25.656394],[-55.131559,-25.654671],[-55.132079,-25.653364],[-55.141068,-25.654102],[-55.141528,-25.654689],[-55.143348,-25.655665],[-55.14512,-25.655846],[-55.146763,-25.657121],[-55.147,-25.658605],[-55.149143,-25.66185],[-55.151538,-25.663745],[-55.15341,-25.665168],[-55.157002,-25.666666],[-55.161185,-25.667622],[-55.161831,-25.668799],[-55.244114,-25.672137],[-55.243589,-25.669851],[-55.243026,-25.669235],[-55.243218,-25.668836],[-55.242643,-25.668143],[-55.242807,-25.667174],[-55.242032,-25.664041],[-55.242278,-25.662496],[-55.241989,-25.662091],[-55.242767,-25.660394],[-55.242889,-25.65789],[-55.241493,-25.655414],[-55.23979,-25.653908],[-55.239476,-25.652184],[-55.239081,-25.652387],[-55.23916,-25.651594],[-55.238806,-25.651052],[-55.239027,-25.65068],[-55.238727,-25.650388],[-55.239018,-25.650048],[-55.238652,-25.649909],[-55.238754,-25.649142],[-55.238466,-25.648697],[-55.23899,-25.646798],[-55.238494,-25.646404],[-55.238474,-25.645496],[-55.237956,-25.645228],[-55.238236,-25.644686],[-55.237826,-25.644103],[-55.237852,-25.642623],[-55.237073,-25.642162],[-55.23746,-25.641629],[-55.236736,-25.641169],[-55.236984,-25.640603],[-55.236395,-25.640023],[-55.236593,-25.638175],[-55.235977,-25.637278],[-55.236761,-25.637062],[-55.236966,-25.636478],[-55.237362,-25.636419],[-55.23732,-25.636003],[-55.236759,-25.634751],[-55.236357,-25.634651],[-55.235586,-25.63345],[-55.236366,-25.633315],[-55.235729,-25.63305],[-55.235768,-25.63236],[-55.234563,-25.632404],[-55.234491,-25.631632],[-55.234906,-25.632025],[-55.235082,-25.631819],[-55.234733,-25.631255],[-55.233757,-25.630905],[-55.233305,-25.630204],[-55.231887,-25.629862],[-55.231999,-25.629317],[-55.231696,-25.629228],[-55.231824,-25.628877],[-55.231579,-25.628698],[-55.231805,-25.628399],[-55.231514,-25.628179],[-55.231156,-25.628323],[-55.231422,-25.627731],[-55.231177,-25.627357],[-55.231733,-25.626913],[-55.231606,-25.625584],[-55.232181,-25.625036],[-55.231557,-25.625006],[-55.231591,-25.622939],[-55.230168,-25.622258],[-55.230549,-25.622028],[-55.23017,-25.621753],[-55.230936,-25.620254],[-55.230427,-25.619409],[-55.230942,-25.619234],[-55.230539,-25.618918],[-55.23102,-25.618369],[-55.231948,-25.618434],[-55.232348,-25.618109],[-55.232292,-25.617684],[-55.23135,-25.617091],[-55.231231,-25.616444],[-55.231694,-25.616553],[-55.231751,-25.617073],[-55.23265,-25.617305],[-55.232879,-25.616428],[-55.232642,-25.61614],[-55.232939,-25.615711],[-55.231908,-25.615527],[-55.231827,-25.614325],[-55.229962,-25.61405],[-55.228373,-25.61297],[-55.228825,-25.612045],[-55.228385,-25.611909],[-55.22943,-25.610373],[-55.228468,-25.608362],[-55.227911,-25.608076],[-55.227652,-25.606384],[-55.227152,-25.606441],[-55.227216,-25.605052],[-55.226893,-25.6048],[-55.227456,-25.60338],[-55.22715,-25.602907],[-55.22777,-25.60272],[-55.227452,-25.601854],[-55.227726,-25.601415],[-55.228292,-25.601391],[-55.227674,-25.599681],[-55.22816,-25.599213],[-55.228032,-25.59849],[-55.228441,-25.59835],[-55.228051,-25.598088],[-55.226991,-25.598116],[-55.226735,-25.597336],[-55.22711,-25.597273],[-55.226693,-25.596013],[-55.22598,-25.596348],[-55.225753,-25.595618],[-55.225408,-25.595551],[-55.225132,-25.596053],[-55.22488,-25.595003],[-55.224275,-25.59463],[-55.223317,-25.594885],[-55.223085,-25.594051],[-55.222392,-25.593758],[-55.221252,-25.593812],[-55.220895,-25.594363],[-55.220362,-25.593829],[-55.219787,-25.594007],[-55.219761,-25.593564],[-55.219345,-25.593559],[-55.218918,-25.59285],[-55.218311,-25.592765],[-55.219029,-25.590413],[-55.218488,-25.588493],[-55.218624,-25.588043],[-55.21799,-25.587286],[-55.218438,-25.586764],[-55.217731,-25.58541],[-55.217926,-25.582862],[-55.217794,-25.582666],[-55.217355,-25.583108],[-55.217052,-25.582138],[-55.217029,-25.581312],[-55.217317,-25.581017],[-55.217189,-25.579404],[-55.217769,-25.579068],[-55.217367,-25.578662],[-55.217599,-25.577604],[-55.217197,-25.576886],[-55.216759,-25.576614],[-55.2163,-25.576739],[-55.216271,-25.576364],[-55.215412,-25.576088],[-55.215637,-25.575016],[-55.215276,-25.574714],[-55.215727,-25.574448],[-55.2155,-25.573954],[-55.216223,-25.573123],[-55.215558,-25.573083],[-55.215666,-25.572669],[-55.215352,-25.572544],[-55.215718,-25.571921],[-55.215063,-25.571849],[-55.215517,-25.570988],[-55.216098,-25.570855],[-55.21631,-25.57042],[-55.216281,-25.569607],[-55.215633,-25.569618],[-55.215307,-25.569252],[-55.2155,-25.568343],[-55.215938,-25.567987],[-55.215497,-25.567526],[-55.216158,-25.567132],[-55.215978,-25.566448],[-55.215702,-25.5664],[-55.215749,-25.565891],[-55.216327,-25.565708],[-55.215944,-25.565198],[-55.217004,-25.56392],[-55.216419,-25.56333],[-55.21637,-25.562346],[-55.215895,-25.562069],[-55.216961,-25.56122],[-55.216672,-25.560693],[-55.217249,-25.560402],[-55.2163,-25.559628],[-55.216196,-25.559211],[-55.217618,-25.558154],[-55.21711,-25.556685],[-55.218365,-25.556163],[-55.217732,-25.555515],[-55.217213,-25.55563],[-55.217248,-25.554724],[-55.216882,-25.554457],[-55.21715,-25.553522],[-55.216523,-25.55388],[-55.216761,-25.553061],[-55.216289,-25.552721],[-55.216209,-25.552138],[-55.216705,-25.552103],[-55.216013,-25.551486],[-55.216316,-25.550871],[-55.215811,-25.550571],[-55.215819,-25.549709],[-55.216282,-25.549701],[-55.215777,-25.549136],[-55.216202,-25.548369],[-55.216437,-25.549013],[-55.21667,-25.54888],[-55.216705,-25.548032],[-55.216524,-25.547136],[-55.216127,-25.547041],[-55.215795,-25.546233],[-55.216136,-25.545876],[-55.215853,-25.545015],[-55.216049,-25.544119],[-55.215396,-25.544197],[-55.215355,-25.543578],[-55.215634,-25.543347],[-55.215122,-25.543097],[-55.215292,-25.542697],[-55.214942,-25.542711],[-55.215323,-25.542242],[-55.214776,-25.542186],[-55.21508,-25.541521],[-55.214439,-25.541021],[-55.21481,-25.540259],[-55.215364,-25.540053],[-55.215082,-25.539625],[-55.214698,-25.539973],[-55.214729,-25.538967],[-55.215272,-25.539055],[-55.214552,-25.537958],[-55.21485,-25.537348],[-55.214046,-25.537392],[-55.213449,-25.536324],[-55.214287,-25.535684],[-55.214292,-25.535422],[-55.213739,-25.535362],[-55.214244,-25.534889],[-55.213685,-25.534585],[-55.214427,-25.53384],[-55.214393,-25.533167],[-55.215601,-25.533335],[-55.215817,-25.533067],[-55.215803,-25.532724],[-55.215019,-25.53284],[-55.216123,-25.53182],[-55.216105,-25.530895],[-55.215744,-25.530358],[-55.216668,-25.528636],[-55.217147,-25.528429],[-55.217043,-25.527164],[-55.217496,-25.527138],[-55.217517,-25.526523],[-55.217058,-25.52614],[-55.216423,-25.524619],[-55.215361,-25.523806],[-55.213504,-25.523565],[-55.211653,-25.524095],[-55.210774,-25.523881],[-55.210292,-25.521809],[-55.21127,-25.520701],[-55.211295,-25.520105],[-55.210607,-25.518947],[-55.208967,-25.518185],[-55.207023,-25.518467],[-55.206061,-25.519532],[-55.205769,-25.520852],[-55.204896,-25.521292],[-55.203985,-25.521121],[-55.202207,-25.518888],[-55.201696,-25.518765],[-55.201133,-25.518889],[-55.199287,-25.52118],[-55.198642,-25.521434],[-55.197074,-25.521196],[-55.194807,-25.519495],[-55.193578,-25.519145],[-55.191107,-25.519246],[-55.190363,-25.519688],[-55.189852,-25.520612],[-55.190054,-25.524252],[-55.189499,-25.524929],[-55.189113,-25.524982],[-55.18637,-25.524046],[-55.183934,-25.523929],[-55.183393,-25.523646],[-55.18309,-25.522493],[-55.184055,-25.520177],[-55.183588,-25.51924],[-55.180108,-25.519313],[-55.177735,-25.518236],[-55.176855,-25.518138],[-55.175707,-25.519826],[-55.174441,-25.520872],[-55.172082,-25.521003],[-55.169214,-25.523047],[-55.168185,-25.523238],[-55.166462,-25.522649],[-55.164725,-25.519849],[-55.161865,-25.519187],[-55.160986,-25.516951],[-55.157767,-25.516707],[-55.156383,-25.517053],[-55.154854,-25.519521],[-55.156444,-25.522523],[-55.156651,-25.523661],[-55.155965,-25.524496],[-55.154307,-25.524911],[-55.153416,-25.525497],[-55.152017,-25.526832],[-55.152848,-25.529068],[-55.151374,-25.532134],[-55.149963,-25.533207],[-55.148631,-25.533263],[-55.147866,-25.533006],[-55.144826,-25.529418],[-55.144397,-25.52918],[-55.142757,-25.529479],[-55.14193,-25.530079],[-55.141909,-25.531461],[-55.142255,-25.531873],[-55.14474,-25.532952],[-55.145003,-25.533537],[-55.144938,-25.534642],[-55.144102,-25.535868],[-55.144045,-25.537482],[-55.143063,-25.537716],[-55.142076,-25.536206],[-55.140492,-25.536025],[-55.13798,-25.537754],[-55.13747,-25.538533],[-55.137271,-25.543127],[-55.139741,-25.545195],[-55.143048,-25.547012],[-55.14413,-25.548597],[-55.144117,-25.54944],[-55.142569,-25.551065],[-55.139193,-25.553684],[-55.13635,-25.554971],[-55.136113,-25.555783],[-55.137066,-25.556406],[-55.140774,-25.5551],[-55.141271,-25.55515],[-55.14176,-25.555666],[-55.141862,-25.556307],[-55.141137,-25.557578],[-55.139038,-25.559544],[-55.133803,-25.5631],[-55.131268,-25.563155],[-55.12361,-25.558518],[-55.122723,-25.55679],[-55.123301,-25.553626],[-55.12285,-25.552719],[-55.119533,-25.552603],[-55.11871,-25.552942],[-55.11828,-25.553722],[-55.118324,-25.555061],[-55.117334,-25.556837],[-55.116841,-25.55862],[-55.115177,-25.559355],[-55.114169,-25.559211],[-55.112687,-25.557592],[-55.11197,-25.557292],[-55.110651,-25.557595],[-55.109204,-25.558813],[-55.108082,-25.558813],[-55.105411,-25.55632],[-55.104644,-25.556092],[-55.104162,-25.556158],[-55.102975,-25.55719],[-55.102238,-25.558184],[-55.10124,-25.558448],[-55.100524,-25.55806],[-55.098954,-25.555902],[-55.098066,-25.556326],[-55.097883,-25.556717],[-55.098572,-25.558777],[-55.098209,-25.559456],[-55.097744,-25.559406],[-55.097157,-25.559006],[-55.096098,-25.557043],[-55.09505,-25.556389],[-55.093936,-25.556825],[-55.093117,-25.559972],[-55.092028,-25.559855],[-55.090208,-25.558333],[-55.088169,-25.560503],[-55.087411,-25.560755],[-55.086531,-25.560627],[-55.084266,-25.558881],[-55.081444,-25.559819],[-55.078803,-25.561515],[-55.076187,-25.561612],[-55.075957,-25.562002],[-55.076153,-25.56375],[-55.074682,-25.564516],[-55.073922,-25.565903],[-55.073238,-25.566519],[-55.072479,-25.566873],[-55.069702,-25.566996],[-55.069216,-25.567339],[-55.06892,-25.568746],[-55.068628,-25.56896],[-55.067623,-25.568671],[-55.067501,-25.568233],[-55.068093,-25.567368],[-55.068079,-25.566218],[-55.067542,-25.565702],[-55.065815,-25.565388],[-55.065427,-25.565601],[-55.065162,-25.567082],[-55.063425,-25.570375],[-55.060432,-25.571019],[-55.059182,-25.572952],[-55.058811,-25.573064],[-55.057757,-25.571769],[-55.057851,-25.569938],[-55.057372,-25.568797],[-55.057649,-25.56752],[-55.056997,-25.567177],[-55.056241,-25.567327],[-55.054941,-25.568372],[-55.052115,-25.569585],[-55.048853,-25.574924],[-55.047875,-25.574867],[-55.047624,-25.574529],[-55.047172,-25.571774],[-55.046154,-25.571222],[-55.04226,-25.572988],[-55.040567,-25.572573],[-55.039363,-25.571684],[-55.038179,-25.571508],[-55.036873,-25.571883],[-55.03584,-25.572335],[-55.035331,-25.573026],[-55.035761,-25.574211],[-55.037578,-25.574904],[-55.039872,-25.574891],[-55.040476,-25.575219],[-55.040481,-25.575859],[-55.039382,-25.576412],[-55.036838,-25.576043],[-55.034315,-25.5763],[-55.033697,-25.57683],[-55.03336,-25.579822],[-55.032935,-25.580268],[-55.03177,-25.579917],[-55.031523,-25.579347],[-55.031889,-25.577519],[-55.032897,-25.575743],[-55.032846,-25.574913],[-55.031869,-25.571933],[-55.031553,-25.571594],[-55.030799,-25.571598],[-55.029029,-25.572956],[-55.029051,-25.575517],[-55.028516,-25.575873],[-55.025637,-25.576373],[-55.024904,-25.577075],[-55.024912,-25.577556],[-55.025499,-25.577913],[-55.028765,-25.578306],[-55.029222,-25.578807],[-55.029259,-25.579505],[-55.028348,-25.580279],[-55.025436,-25.580807],[-55.024986,-25.581819],[-55.025864,-25.584056],[-55.02509,-25.585268],[-55.024459,-25.585594],[-55.020661,-25.585382],[-55.018941,-25.585635],[-55.018158,-25.585421],[-55.015926,-25.583616],[-55.015274,-25.582313],[-55.013784,-25.582234],[-55.011133,-25.583435],[-55.011176,-25.585705],[-55.010582,-25.58862],[-55.009929,-25.589368],[-55.008363,-25.588983],[-55.005522,-25.587126],[-55.004851,-25.587],[-55.001941,-25.588357],[-55.000454,-25.59001],[-54.999758,-25.590378],[-54.997684,-25.590641],[-54.996919,-25.590235],[-54.995881,-25.58801],[-54.994747,-25.58692],[-54.994334,-25.585736],[-54.994043,-25.581994],[-54.993597,-25.580868],[-54.992278,-25.580122],[-54.991956,-25.580191],[-54.991902,-25.580554],[-54.992237,-25.581591],[-54.991903,-25.58339],[-54.990029,-25.585139],[-54.984065,-25.58896],[-54.97365,-25.592734],[-54.972753,-25.592644],[-54.972122,-25.591995],[-54.973661,-25.588293],[-54.980056,-25.579343],[-54.979798,-25.575577],[-54.979385,-25.574718],[-54.978597,-25.574513],[-54.977058,-25.575772],[-54.97689,-25.578116],[-54.975855,-25.581166],[-54.975243,-25.581973],[-54.973664,-25.582998],[-54.972657,-25.583139],[-54.962165,-25.578746],[-54.957376,-25.577515],[-54.95632,-25.576744],[-54.955426,-25.5752],[-54.954016,-25.571359],[-54.953508,-25.571061],[-54.952953,-25.571014],[-54.948551,-25.5733],[-54.947315,-25.573088],[-54.945901,-25.572002],[-54.945422,-25.57248],[-54.945396,-25.577774],[-54.947808,-25.583026],[-54.949273,-25.584888],[-54.951074,-25.588424],[-54.951188,-25.594264],[-54.951943,-25.59891],[-54.952805,-25.599775],[-54.955889,-25.600827],[-54.955933,-25.60201],[-54.95421,-25.602723],[-54.952538,-25.602933],[-54.951298,-25.602876],[-54.949817,-25.601944],[-54.948536,-25.601771],[-54.947634,-25.603271],[-54.948774,-25.606623],[-54.948498,-25.607763],[-54.944287,-25.608829],[-54.941187,-25.608747],[-54.940606,-25.610213],[-54.940257,-25.613117],[-54.939595,-25.614291],[-54.938617,-25.615208],[-54.936464,-25.615992],[-54.93363,-25.617853],[-54.931579,-25.617668],[-54.929865,-25.616616],[-54.925898,-25.617161],[-54.923769,-25.61781],[-54.922743,-25.617756],[-54.921382,-25.617055],[-54.920293,-25.615957],[-54.920032,-25.614964],[-54.918495,-25.612304],[-54.913382,-25.606161],[-54.912811,-25.605784],[-54.907672,-25.604915],[-54.904635,-25.60365],[-54.904099,-25.60372],[-54.903599,-25.604198],[-54.903572,-25.609434],[-54.903195,-25.612648],[-54.903398,-25.613271],[-54.904421,-25.613461],[-54.907276,-25.612058],[-54.908782,-25.612418],[-54.908793,-25.613],[-54.902264,-25.619403],[-54.901465,-25.619818],[-54.899345,-25.619962],[-54.897015,-25.617408],[-54.893133,-25.614326],[-54.890081,-25.612711],[-54.887059,-25.611814],[-54.884986,-25.611707],[-54.882737,-25.611907],[-54.882454,-25.612155],[-54.882436,-25.613182],[-54.888465,-25.61581],[-54.889687,-25.616856],[-54.889681,-25.617244],[-54.889207,-25.617411],[-54.884799,-25.617483],[-54.884452,-25.61775],[-54.885618,-25.621975],[-54.896609,-25.627157],[-54.897532,-25.628218],[-54.897649,-25.628821],[-54.897512,-25.629342],[-54.894021,-25.63319],[-54.889636,-25.63559],[-54.889315,-25.636827],[-54.889763,-25.639296],[-54.88961,-25.640729],[-54.887712,-25.647684],[-54.887081,-25.649498],[-54.88451,-25.652287],[-54.884729,-25.652539],[-54.886413,-25.652504],[-54.88609,-25.654201],[-54.887004,-25.655018],[-54.888277,-25.655099],[-54.890041,-25.65448],[-54.891008,-25.654584],[-54.892482,-25.652872],[-54.892598,-25.652219],[-54.893781,-25.653076],[-54.89461,-25.653124],[-54.896993,-25.650608],[-54.898006,-25.650587],[-54.8989,-25.651602],[-54.900366,-25.651456],[-54.90089,-25.650895],[-54.900553,-25.650199],[-54.900215,-25.65],[-54.899064,-25.650381],[-54.899066,-25.649889],[-54.899658,-25.649428],[-54.901849,-25.648914],[-54.901555,-25.650588],[-54.901721,-25.653168],[-54.901032,-25.654146],[-54.89956,-25.655321],[-54.900119,-25.655433],[-54.901787,-25.654775],[-54.903051,-25.65571],[-54.905478,-25.655912],[-54.90655,-25.657191],[-54.906702,-25.658623],[-54.90829,-25.659553],[-54.907888,-25.660202],[-54.908139,-25.660815],[-54.907861,-25.66203],[-54.90696,-25.663592],[-54.907096,-25.664451],[-54.906831,-25.664768],[-54.907762,-25.664817],[-54.907805,-25.666537],[-54.908106,-25.66665],[-54.908398,-25.666095],[-54.908745,-25.666127],[-54.909251,-25.667244],[-54.908729,-25.667945],[-54.909375,-25.668871],[-54.910598,-25.688408],[-54.917016,-25.72077],[-54.978631,-25.710769],[-54.978651,-25.710386],[-54.981929,-25.709822],[-54.988519,-25.709011],[-54.990043,-25.717052],[-54.998024,-25.716584],[-54.998252,-25.714958],[-55.005558,-25.709073],[-55.00967,-25.708001],[-55.015934,-25.705197],[-55.020121,-25.705687],[-55.022317,-25.703415],[-55.013075,-25.690473],[-55.014538,-25.68569],[-55.033253,-25.683161],[-55.036226,-25.684941],[-55.04455,-25.684573],[-55.044516,-25.682886],[-55.057493,-25.683299],[-55.059847,-25.682991],[-55.061261,-25.682157],[-55.062264,-25.681995],[-55.06599,-25.682234],[-55.067088,-25.68181],[-55.06678,-25.680818]]]}}]}
