{"type":"FeatureCollection","name":"distrito","features":[{"type":"Feature","properties":{"clave":"4-15","nombre":"Itapé"},"geometry":{"type":"Polygon","coordinates":[[[-56.561289,-25.90325],[-56.561085,-25.905927],[-56.560321,-25.90653],[-56.561511,-25.909139],[-56.561819,-25.911067],[-56.562439,-25.911245],[-56.563387,-25.910458],[-56.56389,-25.911995],[-56.564134,-25.912041],[-56.564828,-25.911153],[-56.5651,-25.911944],[-56.566206,-25.912598],[-56.565898,-25.913278],[-56.566733,-25.913069],[-56.566649,-25.913583],[-56.567463,-25.913558],[-56.566444,-25.914147],[-56.567124,-25.914357],[-56.567001,-25.914699],[-56.56639,-25.914937],[-56.566723,-25.915629],[-56.567638,-25.915658],[-56.567848,-25.916548],[-56.568641,-25.916691],[-56.568719,-25.917648],[-56.571138,-25.917728],[-56.571816,-25.918714],[-56.571793,-25.919373],[-56.572526,-25.919452],[-56.572338,-25.920535],[-56.572612,-25.920883],[-56.571998,-25.921902],[-56.572217,-25.923257],[-56.570952,-25.924549],[-56.570353,-25.924033],[-56.570047,-25.924325],[-56.569877,-25.923684],[-56.569131,-25.924562],[-56.568398,-25.924709],[-56.567027,-25.92414],[-56.566588,-25.924884],[-56.565958,-25.924719],[-56.565774,-25.924985],[-56.566259,-25.925885],[-56.567022,-25.925603],[-56.567041,-25.926063],[-56.566176,-25.926219],[-56.566328,-25.926459],[-56.567241,-25.926872],[-56.568524,-25.926668],[-56.569546,-25.927958],[-56.570603,-25.928142],[-56.571261,-25.928789],[-56.570616,-25.930241],[-56.570391,-25.930286],[-56.570302,-25.929717],[-56.570017,-25.929887],[-56.570156,-25.930606],[-56.571729,-25.931622],[-56.571443,-25.932009],[-56.57061,-25.931943],[-56.570535,-25.932896],[-56.571021,-25.933403],[-56.572129,-25.9336],[-56.572147,-25.934228],[-56.572724,-25.934871],[-56.572169,-25.936449],[-56.570559,-25.93742],[-56.570828,-25.938883],[-56.570194,-25.93992],[-56.571412,-25.940727],[-56.571973,-25.940174],[-56.572481,-25.940243],[-56.572764,-25.940867],[-56.573354,-25.940841],[-56.574287,-25.941553],[-56.574304,-25.94223],[-56.572669,-25.944442],[-56.572909,-25.945594],[-56.574486,-25.945509],[-56.57456,-25.944755],[-56.5752,-25.944829],[-56.575746,-25.945729],[-56.575732,-25.94702],[-56.576044,-25.947698],[-56.577291,-25.948799],[-56.578198,-25.948332],[-56.579242,-25.949234],[-56.57921,-25.949852],[-56.578641,-25.950614],[-56.582452,-25.951406],[-56.584176,-25.95204],[-56.585352,-25.951978],[-56.587155,-25.950704],[-56.587637,-25.949121],[-56.588603,-25.948063],[-56.589997,-25.947308],[-56.5911,-25.947376],[-56.59172,-25.948418],[-56.592143,-25.950978],[-56.593932,-25.953824],[-56.59558,-25.95604],[-56.596851,-25.955935],[-56.597815,-25.954702],[-56.597633,-25.951753],[-56.59704,-25.949973],[-56.598051,-25.948761],[-56.598635,-25.946226],[-56.599816,-25.944581],[-56.599486,-25.942846],[-56.599656,-25.942391],[-56.601024,-25.941982],[-56.604453,-25.942209],[-56.605101,-25.941907],[-56.605534,-25.941561],[-56.605632,-25.940998],[-56.604824,-25.938849],[-56.605497,-25.938287],[-56.60612,-25.938462],[-56.60638,-25.939612],[-56.607025,-25.940416],[-56.607977,-25.940535],[-56.608346,-25.940296],[-56.608469,-25.939777],[-56.607966,-25.938203],[-56.608411,-25.937036],[-56.610663,-25.935241],[-56.613142,-25.932485],[-56.612916,-25.931452],[-56.612602,-25.93144],[-56.612092,-25.932171],[-56.611572,-25.932371],[-56.610729,-25.931703],[-56.61083,-25.930546],[-56.611828,-25.92992],[-56.610466,-25.929098],[-56.610996,-25.927691],[-56.610808,-25.926205],[-56.611856,-25.925225],[-56.611598,-25.924493],[-56.610791,-25.923835],[-56.610383,-25.923037],[-56.611129,-25.922067],[-56.613087,-25.921745],[-56.613651,-25.920977],[-56.613182,-25.920238],[-56.611365,-25.920179],[-56.610666,-25.91968],[-56.609886,-25.916533],[-56.608828,-25.915089],[-56.609155,-25.914817],[-56.610048,-25.914803],[-56.6104,-25.91446],[-56.611053,-25.912179],[-56.61164,-25.911903],[-56.613577,-25.91217],[-56.614925,-25.911496],[-56.614826,-25.910513],[-56.611988,-25.910429],[-56.611756,-25.90961],[-56.612191,-25.909409],[-56.613458,-25.909669],[-56.613912,-25.909424],[-56.614871,-25.907658],[-56.614305,-25.906212],[-56.61441,-25.905786],[-56.615206,-25.904637],[-56.61565,-25.904493],[-56.616526,-25.904666],[-56.616846,-25.905016],[-56.6162,-25.906397],[-56.616528,-25.907182],[-56.617245,-25.907065],[-56.618467,-25.905541],[-56.619316,-25.90533],[-56.619993,-25.906006],[-56.619642,-25.906849],[-56.619657,-25.907941],[-56.619901,-25.908258],[-56.620647,-25.908174],[-56.621556,-25.904758],[-56.621114,-25.903517],[-56.619976,-25.902687],[-56.620196,-25.901544],[-56.620782,-25.901264],[-56.621423,-25.901386],[-56.623173,-25.902729],[-56.624097,-25.90292],[-56.625617,-25.902446],[-56.626772,-25.900973],[-56.626388,-25.900161],[-56.624889,-25.899936],[-56.623816,-25.899319],[-56.623487,-25.899028],[-56.623489,-25.898328],[-56.62416,-25.897861],[-56.626471,-25.897722],[-56.627218,-25.897118],[-56.627599,-25.896061],[-56.626971,-25.894848],[-56.626973,-25.894055],[-56.627867,-25.891685],[-56.629107,-25.890153],[-56.628741,-25.889768],[-56.627788,-25.889774],[-56.625932,-25.889207],[-56.625831,-25.888404],[-56.627286,-25.887606],[-56.627712,-25.886891],[-56.627514,-25.886203],[-56.62671,-25.885371],[-56.62589,-25.882877],[-56.624275,-25.883582],[-56.62387,-25.884391],[-56.624534,-25.886722],[-56.623904,-25.887753],[-56.62218,-25.887749],[-56.621533,-25.886856],[-56.621312,-25.886106],[-56.62154,-25.88477],[-56.624486,-25.880747],[-56.625486,-25.876152],[-56.624575,-25.873678],[-56.620606,-25.868625],[-56.619856,-25.86526],[-56.620757,-25.863582],[-56.621074,-25.862266],[-56.621568,-25.862024],[-56.622776,-25.862169],[-56.623046,-25.861907],[-56.622761,-25.85984],[-56.624508,-25.859601],[-56.624934,-25.859278],[-56.624982,-25.858347],[-56.624003,-25.856461],[-56.624096,-25.855448],[-56.625823,-25.854339],[-56.626632,-25.853186],[-56.626906,-25.851647],[-56.626399,-25.849033],[-56.626785,-25.847475],[-56.627593,-25.846788],[-56.629027,-25.846326],[-56.627765,-25.841907],[-56.628215,-25.840977],[-56.627972,-25.840085],[-56.628444,-25.839397],[-56.63019,-25.83926],[-56.630865,-25.838269],[-56.630844,-25.837581],[-56.63042,-25.837377],[-56.630061,-25.837579],[-56.629611,-25.838408],[-56.628985,-25.838143],[-56.628946,-25.836421],[-56.62803,-25.835892],[-56.627718,-25.835203],[-56.628703,-25.835226],[-56.629062,-25.834984],[-56.629244,-25.834113],[-56.627903,-25.833462],[-56.627569,-25.832873],[-56.627884,-25.832287],[-56.628242,-25.832247],[-56.629806,-25.833163],[-56.63059,-25.832982],[-56.630592,-25.832435],[-56.629722,-25.831582],[-56.62966,-25.82984],[-56.628948,-25.828583],[-56.629016,-25.828056],[-56.63092,-25.827778],[-56.631571,-25.826908],[-56.631375,-25.825288],[-56.630886,-25.824172],[-56.631001,-25.823241],[-56.633577,-25.822559],[-56.633869,-25.822073],[-56.633962,-25.821081],[-56.633248,-25.82031],[-56.632687,-25.820653],[-56.63246,-25.821725],[-56.631699,-25.821967],[-56.629395,-25.821576],[-56.62915,-25.821109],[-56.629554,-25.820685],[-56.631278,-25.820467],[-56.631036,-25.819008],[-56.63216,-25.817573],[-56.63203,-25.816114],[-56.631473,-25.815242],[-56.630287,-25.815259],[-56.629971,-25.81625],[-56.630639,-25.817346],[-56.630502,-25.818196],[-56.629493,-25.818761],[-56.628531,-25.818819],[-56.628196,-25.818474],[-56.627979,-25.816225],[-56.62592,-25.816301],[-56.624643,-25.816784],[-56.623279,-25.816476],[-56.623504,-25.81595],[-56.624826,-25.81567],[-56.625298,-25.815003],[-56.625232,-25.814537],[-56.624026,-25.813663],[-56.623561,-25.812244],[-56.624459,-25.811132],[-56.624394,-25.810504],[-56.623904,-25.809855],[-56.622472,-25.80977],[-56.621646,-25.80912],[-56.62019,-25.809703],[-56.619318,-25.809519],[-56.619175,-25.807852],[-56.617921,-25.80647],[-56.618632,-25.805067],[-56.617843,-25.805269],[-56.617327,-25.805087],[-56.61653,-25.805545],[-56.615599,-25.804816],[-56.614882,-25.80564],[-56.614301,-25.805688],[-56.613774,-25.805457],[-56.613681,-25.804892],[-56.613156,-25.804597],[-56.612317,-25.804884],[-56.610089,-25.804201],[-56.608605,-25.804274],[-56.607838,-25.804773],[-56.607237,-25.804663],[-56.604507,-25.805947],[-56.603729,-25.806026],[-56.60211,-25.808008],[-56.601606,-25.808259],[-56.599116,-25.808135],[-56.596583,-25.808923],[-56.594937,-25.807988],[-56.593223,-25.808868],[-56.59242,-25.808902],[-56.590947,-25.808505],[-56.589002,-25.807506],[-56.585894,-25.807954],[-56.584697,-25.807675],[-56.583116,-25.806158],[-56.58228,-25.804462],[-56.580316,-25.803314],[-56.579821,-25.801678],[-56.578225,-25.800875],[-56.577517,-25.800064],[-56.577453,-25.799518],[-56.556929,-25.801721],[-56.532965,-25.779564],[-56.528845,-25.775195],[-56.528001,-25.775143],[-56.52656,-25.774488],[-56.519977,-25.775162],[-56.514549,-25.777763],[-56.508755,-25.776668],[-56.505185,-25.777289],[-56.503332,-25.776709],[-56.502113,-25.77591],[-56.501891,-25.774478],[-56.49962,-25.773382],[-56.49603,-25.778153],[-56.494779,-25.781892],[-56.495939,-25.786953],[-56.496668,-25.7924],[-56.50084,-25.796304],[-56.49942,-25.800697],[-56.495395,-25.817183],[-56.497968,-25.819115],[-56.497628,-25.823839],[-56.498684,-25.826254],[-56.501867,-25.82935],[-56.503781,-25.830321],[-56.505474,-25.833124],[-56.507482,-25.837277],[-56.508006,-25.8394],[-56.509594,-25.842009],[-56.51363,-25.845205],[-56.513834,-25.84752],[-56.510302,-25.851173],[-56.508686,-25.85541],[-56.50697,-25.857912],[-56.509091,-25.860426],[-56.506732,-25.863986],[-56.506418,-25.865829],[-56.50734,-25.866353],[-56.507766,-25.867343],[-56.507784,-25.86807],[-56.50706,-25.868939],[-56.508719,-25.870209],[-56.508796,-25.87123],[-56.509552,-25.870677],[-56.509882,-25.870755],[-56.509972,-25.871942],[-56.510389,-25.872323],[-56.511761,-25.8724],[-56.512102,-25.871936],[-56.512453,-25.872529],[-56.514276,-25.872155],[-56.517399,-25.87362],[-56.517727,-25.874117],[-56.517751,-25.875201],[-56.519347,-25.877708],[-56.520412,-25.878208],[-56.521551,-25.878284],[-56.521507,-25.878974],[-56.522766,-25.87943],[-56.523282,-25.879937],[-56.523307,-25.881418],[-56.522608,-25.883272],[-56.523264,-25.884452],[-56.523952,-25.885145],[-56.525941,-25.886095],[-56.528512,-25.886077],[-56.530239,-25.886462],[-56.529993,-25.887129],[-56.530684,-25.88714],[-56.530894,-25.887859],[-56.531807,-25.88848],[-56.531731,-25.889645],[-56.532453,-25.889778],[-56.533342,-25.89105],[-56.533135,-25.89206],[-56.533856,-25.892081],[-56.533771,-25.893241],[-56.534557,-25.89486],[-56.53528,-25.894736],[-56.535354,-25.894],[-56.535679,-25.893897],[-56.536125,-25.894323],[-56.536233,-25.89514],[-56.536905,-25.895052],[-56.537853,-25.894283],[-56.537626,-25.895109],[-56.53791,-25.895331],[-56.538644,-25.8949],[-56.539691,-25.894849],[-56.539796,-25.89405],[-56.540724,-25.893435],[-56.543163,-25.893433],[-56.54333,-25.894924],[-56.543969,-25.89521],[-56.544017,-25.896104],[-56.544363,-25.896178],[-56.545086,-25.895674],[-56.545257,-25.896347],[-56.546384,-25.896662],[-56.54635,-25.897471],[-56.546706,-25.897472],[-56.547171,-25.898182],[-56.546749,-25.899598],[-56.547265,-25.900264],[-56.548624,-25.90099],[-56.548755,-25.901361],[-56.548088,-25.902939],[-56.548667,-25.903022],[-56.549095,-25.902712],[-56.549131,-25.903917],[-56.550946,-25.905404],[-56.551506,-25.90513],[-56.551438,-25.904439],[-56.551682,-25.904323],[-56.552413,-25.904627],[-56.552959,-25.905401],[-56.554028,-25.905156],[-56.554306,-25.904236],[-56.554926,-25.904166],[-56.555427,-25.903476],[-56.557584,-25.902792],[-56.558319,-25.902208],[-56.558354,-25.900912],[-56.55888,-25.900864],[-56.559402,-25.901985],[-56.560408,-25.902191],[-56.560882,-25.903123],[-56.561289,-25.90325]]]}}]}
