{"type":"FeatureCollection","name":"distrito","features":[{"type":"Feature","properties":{"clave":"2-22","nombre":"San Vicente Pancholo"},"geometry":{"type":"Polygon","coordinates":[[[-56.191075,-24.129625],[-56.18662,-24.129195],[-56.189737,-24.098081],[-56.229147,-24.093259],[-56.229111,-24.063194],[-56.219855,-24.062659],[-56.219544,-24.069132],[-56.212181,-24.068833],[-56.250519,-24.034491],[-56.231259,-24.016141],[-56.224387,-24.020584],[-56.203994,-24.00058],[-56.209867,-23.995398],[-56.200347,-23.980981],[-56.19609,-23.971671],[-56.189763,-23.956194],[-56.187307,-23.948024],[-56.073823,-23.959228],[-56.072426,-23.946685],[-56.052487,-23.948239],[-56.050116,-23.932104],[-56.048626,-23.924919],[-56.036079,-23.926247],[-56.034935,-23.92334],[-56.014811,-23.924913],[-56.014898,-23.928245],[-56.009084,-23.928815],[-56.004341,-23.91669],[-55.977068,-24.028582],[-55.977442,-24.029376],[-55.978036,-24.029758],[-55.978465,-24.02956],[-55.980163,-24.028053],[-55.982015,-24.028451],[-55.982358,-24.02892],[-55.981942,-24.02951],[-55.98195,-24.030459],[-55.982424,-24.031007],[-55.983415,-24.031365],[-55.983819,-24.031069],[-55.984851,-24.028635],[-55.985615,-24.02878],[-55.986561,-24.030121],[-55.98734,-24.030671],[-55.989065,-24.030138],[-55.990127,-24.031233],[-55.990779,-24.030992],[-55.992225,-24.029474],[-55.992762,-24.029284],[-55.993734,-24.029712],[-55.994652,-24.029735],[-55.994086,-24.031189],[-55.994925,-24.031423],[-56.002472,-24.024729],[-56.003239,-24.024435],[-56.004367,-24.02446],[-56.007227,-24.025497],[-56.008509,-24.025365],[-56.008952,-24.024929],[-56.009255,-24.022806],[-56.008743,-24.022328],[-56.006983,-24.02237],[-56.006605,-24.021875],[-56.006694,-24.020278],[-56.008205,-24.020147],[-56.013532,-24.023606],[-56.01384,-24.023397],[-56.013697,-24.022062],[-56.013928,-24.021817],[-56.014347,-24.022066],[-56.01599,-24.024658],[-56.017231,-24.024947],[-56.0174,-24.02537],[-56.017149,-24.025649],[-56.015675,-24.025903],[-56.015155,-24.026462],[-56.015547,-24.027623],[-56.016442,-24.028103],[-56.016892,-24.0293],[-56.018063,-24.02864],[-56.018671,-24.029206],[-56.019279,-24.032178],[-56.01895,-24.03272],[-56.018014,-24.032679],[-56.017473,-24.030902],[-56.016996,-24.030706],[-56.016572,-24.031089],[-56.016487,-24.03223],[-56.017927,-24.034031],[-56.019014,-24.034354],[-56.020184,-24.033905],[-56.020585,-24.034048],[-56.021207,-24.035211],[-56.022844,-24.036152],[-56.026153,-24.036015],[-56.027881,-24.035131],[-56.028645,-24.035188],[-56.029197,-24.035525],[-56.030235,-24.037393],[-56.031148,-24.037996],[-56.032934,-24.036989],[-56.033431,-24.036975],[-56.033831,-24.037188],[-56.034395,-24.038544],[-56.035025,-24.038688],[-56.035932,-24.037482],[-56.03641,-24.037485],[-56.036714,-24.037821],[-56.037094,-24.04065],[-56.035937,-24.04196],[-56.035834,-24.042978],[-56.036515,-24.044019],[-56.038577,-24.044436],[-56.039281,-24.044879],[-56.040104,-24.044744],[-56.040222,-24.04434],[-56.039863,-24.043794],[-56.039101,-24.043315],[-56.037705,-24.043376],[-56.038482,-24.041766],[-56.039172,-24.041577],[-56.039974,-24.04174],[-56.040829,-24.042377],[-56.04143,-24.043909],[-56.042687,-24.044637],[-56.043786,-24.046014],[-56.04476,-24.046072],[-56.045088,-24.045741],[-56.0451,-24.04416],[-56.045559,-24.044146],[-56.046981,-24.045753],[-56.047299,-24.046685],[-56.048612,-24.047642],[-56.04859,-24.04801],[-56.047839,-24.048726],[-56.048067,-24.048973],[-56.048563,-24.049029],[-56.05056,-24.04797],[-56.051076,-24.048043],[-56.051475,-24.048327],[-56.051622,-24.049153],[-56.05123,-24.050521],[-56.05138,-24.050943],[-56.051799,-24.051051],[-56.052279,-24.050896],[-56.052589,-24.050353],[-56.05252,-24.049282],[-56.052848,-24.048897],[-56.053325,-24.049093],[-56.054003,-24.050467],[-56.054327,-24.053192],[-56.055685,-24.053253],[-56.056396,-24.052748],[-56.057064,-24.052875],[-56.057501,-24.053264],[-56.057686,-24.054196],[-56.059612,-24.054892],[-56.060428,-24.055846],[-56.061505,-24.055009],[-56.062669,-24.055403],[-56.063205,-24.055213],[-56.064611,-24.05394],[-56.065992,-24.053369],[-56.066833,-24.053461],[-56.06706,-24.053779],[-56.066343,-24.055039],[-56.064711,-24.055942],[-56.064689,-24.056381],[-56.065202,-24.056859],[-56.066022,-24.057127],[-56.06867,-24.055861],[-56.069056,-24.055354],[-56.07051,-24.055345],[-56.071309,-24.055982],[-56.071478,-24.056423],[-56.071149,-24.056895],[-56.069902,-24.057449],[-56.068051,-24.056911],[-56.067703,-24.057401],[-56.069979,-24.059978],[-56.0729,-24.060769],[-56.073432,-24.061211],[-56.073447,-24.061808],[-56.072631,-24.063595],[-56.072838,-24.064],[-56.074498,-24.064607],[-56.075419,-24.064226],[-56.075977,-24.063685],[-56.076313,-24.062177],[-56.076755,-24.061969],[-56.07738,-24.062728],[-56.077395,-24.063413],[-56.076354,-24.064513],[-56.076102,-24.065021],[-56.076289,-24.065514],[-56.077928,-24.066402],[-56.07835,-24.066158],[-56.078306,-24.064314],[-56.079074,-24.06395],[-56.079435,-24.064233],[-56.079711,-24.06578],[-56.0807,-24.066594],[-56.080617,-24.067524],[-56.079116,-24.068744],[-56.079075,-24.069131],[-56.080271,-24.070349],[-56.079161,-24.070483],[-56.078134,-24.069634],[-56.077921,-24.070037],[-56.077874,-24.071266],[-56.07827,-24.072076],[-56.078975,-24.072414],[-56.081136,-24.072515],[-56.079793,-24.075685],[-56.082798,-24.075493],[-56.084887,-24.074838],[-56.085542,-24.074157],[-56.08644,-24.074391],[-56.086486,-24.075919],[-56.08598,-24.077145],[-56.084021,-24.078275],[-56.083674,-24.078747],[-56.08505,-24.081495],[-56.08608,-24.081905],[-56.087712,-24.081089],[-56.088176,-24.080389],[-56.087935,-24.079352],[-56.088168,-24.078879],[-56.088686,-24.078689],[-56.089239,-24.078868],[-56.091316,-24.080039],[-56.092069,-24.081712],[-56.09145,-24.082639],[-56.090242,-24.083054],[-56.090316,-24.083528],[-56.090829,-24.0839],[-56.091918,-24.084117],[-56.092475,-24.083822],[-56.092864,-24.082894],[-56.093478,-24.082722],[-56.095057,-24.083837],[-56.095625,-24.084701],[-56.096276,-24.084582],[-56.096566,-24.084145],[-56.096651,-24.082986],[-56.097204,-24.083288],[-56.097338,-24.085906],[-56.095356,-24.087597],[-56.095945,-24.088163],[-56.097936,-24.087999],[-56.099557,-24.088746],[-56.100763,-24.088578],[-56.10076,-24.089017],[-56.099565,-24.090256],[-56.099696,-24.090644],[-56.10023,-24.090875],[-56.100957,-24.090879],[-56.101788,-24.089743],[-56.103796,-24.08979],[-56.104425,-24.090144],[-56.104651,-24.09062],[-56.104432,-24.091866],[-56.106128,-24.092877],[-56.106274,-24.093914],[-56.105392,-24.094207],[-56.103212,-24.093966],[-56.101852,-24.094221],[-56.101709,-24.092851],[-56.101117,-24.092654],[-56.100348,-24.095916],[-56.100895,-24.097026],[-56.102562,-24.096719],[-56.103478,-24.097023],[-56.103471,-24.098059],[-56.102445,-24.099686],[-56.102324,-24.100617],[-56.103661,-24.100958],[-56.105524,-24.099863],[-56.106577,-24.099851],[-56.107569,-24.100261],[-56.107729,-24.10193],[-56.107225,-24.102911],[-56.106398,-24.103521],[-56.104466,-24.103562],[-56.103909,-24.103822],[-56.103734,-24.104278],[-56.105387,-24.105921],[-56.105763,-24.106889],[-56.106297,-24.107015],[-56.10948,-24.106015],[-56.110959,-24.10518],[-56.111341,-24.105253],[-56.111358,-24.105674],[-56.110507,-24.107004],[-56.111098,-24.107306],[-56.113589,-24.106759],[-56.114139,-24.107341],[-56.113069,-24.109987],[-56.113464,-24.11092],[-56.115013,-24.111105],[-56.118463,-24.110124],[-56.119644,-24.110921],[-56.120171,-24.112294],[-56.123804,-24.109698],[-56.128938,-24.108849],[-56.130882,-24.109984],[-56.135426,-24.114277],[-56.136653,-24.113898],[-56.137713,-24.112745],[-56.138843,-24.112523],[-56.139907,-24.113723],[-56.139593,-24.114775],[-56.1389,-24.115456],[-56.139239,-24.116196],[-56.140255,-24.116008],[-56.141739,-24.114436],[-56.142771,-24.114547],[-56.144029,-24.115309],[-56.14537,-24.115036],[-56.14486,-24.116947],[-56.144264,-24.117295],[-56.142737,-24.116742],[-56.142372,-24.116951],[-56.142503,-24.117391],[-56.144198,-24.118594],[-56.145148,-24.119706],[-56.14576,-24.119674],[-56.146418,-24.118572],[-56.147144,-24.118734],[-56.147645,-24.121072],[-56.148044,-24.121531],[-56.149615,-24.121171],[-56.150357,-24.121825],[-56.150238,-24.122562],[-56.149085,-24.123223],[-56.149007,-24.123521],[-56.150643,-24.1249],[-56.152266,-24.125471],[-56.152359,-24.125893],[-56.15184,-24.126276],[-56.150387,-24.126075],[-56.150003,-24.126266],[-56.150001,-24.1266],[-56.151477,-24.128979],[-56.153,-24.130217],[-56.153376,-24.131185],[-56.154271,-24.131962],[-56.155992,-24.13508],[-56.156007,-24.13573],[-56.155293,-24.136604],[-56.154083,-24.137177],[-56.153715,-24.137948],[-56.154095,-24.138266],[-56.154975,-24.138306],[-56.155647,-24.138011],[-56.15648,-24.136418],[-56.156884,-24.136227],[-56.158237,-24.137077],[-56.15886,-24.138398],[-56.160144,-24.137983],[-56.160563,-24.138354],[-56.160439,-24.139776],[-56.158415,-24.14196],[-56.158392,-24.142575],[-56.158561,-24.143103],[-56.160125,-24.143902],[-56.160828,-24.144608],[-56.160844,-24.145223],[-56.160687,-24.145731],[-56.158468,-24.145649],[-56.157987,-24.145997],[-56.158341,-24.147509],[-56.158136,-24.149493],[-56.158383,-24.149881],[-56.160048,-24.149784],[-56.161099,-24.148963],[-56.161959,-24.148736],[-56.164258,-24.14898],[-56.166112,-24.147738],[-56.166895,-24.147742],[-56.167601,-24.148163],[-56.167823,-24.148907],[-56.167642,-24.149509],[-56.166475,-24.150175],[-56.165184,-24.15047],[-56.164752,-24.150885],[-56.164669,-24.151952],[-56.165699,-24.152932],[-56.166608,-24.153168],[-56.170532,-24.152262],[-56.171573,-24.151595],[-56.17466,-24.151125],[-56.174784,-24.151427],[-56.174118,-24.152908],[-56.174746,-24.153468],[-56.176436,-24.154011],[-56.177372,-24.154016],[-56.178337,-24.153255],[-56.178648,-24.152144],[-56.179002,-24.152053],[-56.179829,-24.153217],[-56.180384,-24.153359],[-56.181145,-24.153038],[-56.184329,-24.153287],[-56.184706,-24.153545],[-56.185501,-24.155776],[-56.185903,-24.156103],[-56.189059,-24.156885],[-56.189489,-24.156771],[-56.191296,-24.154948],[-56.196017,-24.151911],[-56.200008,-24.14836],[-56.201892,-24.146189],[-56.202688,-24.144222],[-56.202457,-24.143653],[-56.191662,-24.139572],[-56.189687,-24.137502],[-56.190363,-24.136359],[-56.191075,-24.129625]]]}}]}
