{"type":"FeatureCollection","name":"distrito","features":[{"type":"Feature","properties":{"clave":"11-13","nombre":"Lambaré"},"geometry":{"type":"Polygon","coordinates":[[[-57.627293,-25.386834],[-57.634705,-25.384672],[-57.638734,-25.383117],[-57.641447,-25.380903],[-57.635298,-25.367545],[-57.636189,-25.367185],[-57.638617,-25.365376],[-57.63816,-25.364645],[-57.637676,-25.362244],[-57.6369,-25.36226],[-57.636547,-25.358479],[-57.636685,-25.35508],[-57.635968,-25.355026],[-57.636414,-25.353099],[-57.635305,-25.349388],[-57.636434,-25.349093],[-57.634518,-25.342672],[-57.633967,-25.34262],[-57.633914,-25.341193],[-57.633477,-25.341121],[-57.633304,-25.339659],[-57.632546,-25.339739],[-57.632367,-25.338431],[-57.63413,-25.33802],[-57.633181,-25.337871],[-57.632303,-25.336301],[-57.630672,-25.33528],[-57.629079,-25.333776],[-57.627787,-25.333064],[-57.627178,-25.33339],[-57.626851,-25.332503],[-57.624905,-25.330326],[-57.624655,-25.329529],[-57.623175,-25.328021],[-57.6215,-25.327784],[-57.621189,-25.327496],[-57.621073,-25.326864],[-57.621425,-25.326053],[-57.620027,-25.325071],[-57.621588,-25.323518],[-57.619292,-25.319684],[-57.619698,-25.319227],[-57.618094,-25.317539],[-57.616309,-25.31411],[-57.614625,-25.312522],[-57.612226,-25.314904],[-57.612706,-25.315879],[-57.611153,-25.316742],[-57.611466,-25.317349],[-57.607876,-25.318275],[-57.60942,-25.321724],[-57.609456,-25.322373],[-57.607863,-25.320798],[-57.604451,-25.323703],[-57.605412,-25.324694],[-57.603136,-25.326519],[-57.602347,-25.325599],[-57.597471,-25.329101],[-57.596358,-25.327953],[-57.595715,-25.328481],[-57.596359,-25.329152],[-57.595613,-25.329866],[-57.596194,-25.330329],[-57.59438,-25.332828],[-57.593468,-25.332313],[-57.59245,-25.333822],[-57.591893,-25.335736],[-57.589788,-25.335134],[-57.58816,-25.338047],[-57.59049,-25.338846],[-57.589484,-25.340443],[-57.588524,-25.340029],[-57.586143,-25.341411],[-57.602875,-25.369908],[-57.604245,-25.371542],[-57.60597,-25.37536],[-57.6074,-25.377093],[-57.608158,-25.379971],[-57.611918,-25.386077],[-57.611313,-25.38706],[-57.61423,-25.389118],[-57.616125,-25.387916],[-57.620527,-25.388164],[-57.627293,-25.386834]]]}}]}
