{"type":"FeatureCollection","name":"distrito","features":[{"type":"Feature","properties":{"clave":"7-55","nombre":"Trinidad"},"geometry":{"type":"Polygon","coordinates":[[[-55.687056,-27.180738],[-55.688006,-27.18067],[-55.690189,-27.179098],[-55.691498,-27.179306],[-55.696848,-27.183751],[-55.691483,-27.188616],[-55.69898,-27.194808],[-55.698316,-27.195441],[-55.705568,-27.201599],[-55.699377,-27.206932],[-55.702742,-27.209669],[-55.702994,-27.210505],[-55.70543,-27.212879],[-55.70874,-27.214976],[-55.710363,-27.216376],[-55.710313,-27.217327],[-55.713338,-27.219991],[-55.755247,-27.182613],[-55.757969,-27.180319],[-55.758932,-27.180068],[-55.75955,-27.178936],[-55.763017,-27.175793],[-55.837886,-27.108666],[-55.840658,-27.105986],[-55.840555,-27.10553],[-55.834405,-27.100237],[-55.828171,-27.094246],[-55.806551,-27.075553],[-55.798188,-27.070011],[-55.787392,-27.079709],[-55.784564,-27.077351],[-55.781172,-27.073774],[-55.780627,-27.073782],[-55.777393,-27.076688],[-55.773451,-27.072817],[-55.771039,-27.071072],[-55.756669,-27.083936],[-55.750324,-27.07822],[-55.751982,-27.076497],[-55.748579,-27.073302],[-55.749259,-27.071481],[-55.748883,-27.071157],[-55.747213,-27.071765],[-55.746067,-27.071538],[-55.745863,-27.071743],[-55.746532,-27.07221],[-55.746339,-27.072556],[-55.746111,-27.072301],[-55.745765,-27.072397],[-55.74597,-27.073202],[-55.744797,-27.073151],[-55.742599,-27.074102],[-55.740587,-27.073696],[-55.740243,-27.073372],[-55.737738,-27.073891],[-55.736823,-27.073797],[-55.736451,-27.072905],[-55.735491,-27.072255],[-55.734749,-27.072696],[-55.734301,-27.072642],[-55.733781,-27.073179],[-55.732083,-27.072581],[-55.731553,-27.072658],[-55.73153,-27.073213],[-55.730973,-27.07333],[-55.730498,-27.073998],[-55.730199,-27.075137],[-55.730973,-27.077261],[-55.730744,-27.077882],[-55.730872,-27.079878],[-55.730518,-27.080263],[-55.729276,-27.08036],[-55.726193,-27.080179],[-55.725511,-27.081536],[-55.725803,-27.082942],[-55.724853,-27.084147],[-55.724171,-27.084335],[-55.723884,-27.084938],[-55.725302,-27.08593],[-55.7253,-27.086219],[-55.724697,-27.086529],[-55.724627,-27.087237],[-55.722144,-27.089196],[-55.722432,-27.08988],[-55.724062,-27.090008],[-55.724066,-27.091024],[-55.725516,-27.091614],[-55.725525,-27.092021],[-55.724199,-27.093268],[-55.725421,-27.094425],[-55.725945,-27.09388],[-55.726383,-27.093843],[-55.726593,-27.0951],[-55.726062,-27.095957],[-55.726252,-27.096541],[-55.725272,-27.097105],[-55.723845,-27.099128],[-55.724332,-27.099394],[-55.723997,-27.100027],[-55.722671,-27.100214],[-55.723187,-27.101243],[-55.72303,-27.101874],[-55.723625,-27.101978],[-55.723158,-27.102606],[-55.723193,-27.104222],[-55.72197,-27.104816],[-55.722742,-27.105766],[-55.721952,-27.106477],[-55.723214,-27.106466],[-55.723587,-27.107282],[-55.722869,-27.107284],[-55.722586,-27.108225],[-55.721219,-27.109219],[-55.719348,-27.109739],[-55.717743,-27.109607],[-55.717023,-27.109442],[-55.715665,-27.108518],[-55.716409,-27.107853],[-55.715717,-27.107494],[-55.716488,-27.10654],[-55.716172,-27.106302],[-55.716105,-27.104659],[-55.71328,-27.106005],[-55.709984,-27.105695],[-55.708948,-27.106128],[-55.707215,-27.105823],[-55.704092,-27.105993],[-55.703576,-27.105586],[-55.702835,-27.105507],[-55.702282,-27.104933],[-55.701998,-27.105206],[-55.702493,-27.105874],[-55.702161,-27.106128],[-55.701331,-27.105344],[-55.700594,-27.105617],[-55.70062,-27.105031],[-55.699961,-27.10521],[-55.699361,-27.104902],[-55.698074,-27.106664],[-55.699184,-27.109694],[-55.698834,-27.111415],[-55.698307,-27.112177],[-55.699279,-27.111956],[-55.699525,-27.112355],[-55.699132,-27.113277],[-55.698467,-27.113781],[-55.696382,-27.112249],[-55.69494,-27.112435],[-55.694974,-27.11165],[-55.694726,-27.111462],[-55.694355,-27.111802],[-55.694511,-27.11276],[-55.694116,-27.112923],[-55.692806,-27.110596],[-55.691623,-27.10979],[-55.690743,-27.110058],[-55.690081,-27.109889],[-55.689691,-27.110174],[-55.688971,-27.109955],[-55.688036,-27.110114],[-55.68777,-27.110928],[-55.687049,-27.110357],[-55.686961,-27.110844],[-55.686264,-27.110914],[-55.685922,-27.111421],[-55.684911,-27.111944],[-55.684138,-27.110912],[-55.683236,-27.111537],[-55.683009,-27.110481],[-55.683239,-27.109677],[-55.684866,-27.108935],[-55.686524,-27.107107],[-55.687914,-27.106231],[-55.687115,-27.105368],[-55.683959,-27.104746],[-55.68375,-27.103724],[-55.686349,-27.101641],[-55.688385,-27.100525],[-55.689227,-27.099315],[-55.689722,-27.099418],[-55.690322,-27.100065],[-55.693247,-27.104685],[-55.695867,-27.103935],[-55.697077,-27.102745],[-55.698105,-27.102853],[-55.699619,-27.102374],[-55.700609,-27.097824],[-55.69998,-27.09502],[-55.697804,-27.093881],[-55.697026,-27.09282],[-55.685756,-27.091003],[-55.684164,-27.091943],[-55.682755,-27.096028],[-55.680516,-27.098822],[-55.679777,-27.099045],[-55.679232,-27.098546],[-55.678827,-27.096962],[-55.678178,-27.095903],[-55.674586,-27.092932],[-55.656799,-27.108865],[-55.624502,-27.136554],[-55.621143,-27.136859],[-55.620842,-27.138152],[-55.620825,-27.142002],[-55.621852,-27.14227],[-55.622366,-27.143133],[-55.62234,-27.145615],[-55.622949,-27.147228],[-55.623054,-27.1493],[-55.625036,-27.14973],[-55.625567,-27.152128],[-55.626949,-27.153545],[-55.630101,-27.154668],[-55.634543,-27.155646],[-55.636178,-27.156347],[-55.637228,-27.156931],[-55.64051,-27.160122],[-55.646885,-27.163366],[-55.650007,-27.163807],[-55.653309,-27.162701],[-55.674644,-27.181089],[-55.675837,-27.18082],[-55.678307,-27.178387],[-55.679699,-27.178085],[-55.681596,-27.178832],[-55.683184,-27.17851],[-55.6841,-27.17868],[-55.68597,-27.180328],[-55.687056,-27.180738]]]}}]}
