{"type":"FeatureCollection","name":"distrito","features":[{"type":"Feature","properties":{"clave":"7-23","nombre":"General Delgado"},"geometry":{"type":"Polygon","coordinates":[[[-56.529839,-27.186331],[-56.549817,-27.173285],[-56.545962,-27.168732],[-56.538227,-27.158618],[-56.535418,-27.158058],[-56.538154,-27.154126],[-56.540316,-27.15212],[-56.544475,-27.146012],[-56.549741,-27.150241],[-56.556845,-27.147763],[-56.567952,-27.147346],[-56.571651,-27.145653],[-56.575249,-27.14824],[-56.576001,-27.148459],[-56.577937,-27.147981],[-56.578822,-27.148562],[-56.580755,-27.148951],[-56.581777,-27.148715],[-56.582909,-27.147852],[-56.583608,-27.147831],[-56.58482,-27.147018],[-56.585394,-27.145715],[-56.585582,-27.146889],[-56.587601,-27.147617],[-56.588929,-27.14763],[-56.590619,-27.148493],[-56.591741,-27.149954],[-56.593477,-27.150104],[-56.596029,-27.14956],[-56.59677,-27.149991],[-56.601393,-27.149093],[-56.603883,-27.150567],[-56.607411,-27.151394],[-56.613921,-27.152283],[-56.617635,-27.152131],[-56.619767,-27.151757],[-56.621464,-27.153721],[-56.622863,-27.153942],[-56.625722,-27.153556],[-56.629554,-27.154275],[-56.636186,-27.157055],[-56.637729,-27.157186],[-56.63892,-27.159107],[-56.640755,-27.156512],[-56.639889,-27.153494],[-56.63639,-27.147454],[-56.634777,-27.146307],[-56.634802,-27.138759],[-56.640758,-27.035484],[-56.625861,-27.016422],[-56.62611,-27.006058],[-56.629229,-26.997258],[-56.64405,-26.978312],[-56.64703,-26.926496],[-56.644792,-26.925692],[-56.63204,-26.914781],[-56.614398,-26.894816],[-56.600574,-26.888159],[-56.561993,-26.912292],[-56.541127,-26.938283],[-56.541035,-26.960813],[-56.539702,-26.966099],[-56.464733,-27.00678],[-56.443315,-27.016309],[-56.442754,-27.017598],[-56.443014,-27.018907],[-56.440635,-27.021177],[-56.439768,-27.023236],[-56.439823,-27.024684],[-56.439329,-27.026823],[-56.439896,-27.02796],[-56.44149,-27.029141],[-56.440957,-27.03128],[-56.441232,-27.033049],[-56.43977,-27.033271],[-56.439348,-27.033858],[-56.439916,-27.035236],[-56.441936,-27.037335],[-56.442079,-27.038059],[-56.441888,-27.038381],[-56.440414,-27.038947],[-56.438168,-27.038676],[-56.436913,-27.039575],[-56.436966,-27.04015],[-56.438642,-27.0431],[-56.438541,-27.043641],[-56.437198,-27.04508],[-56.436752,-27.046541],[-56.437538,-27.047689],[-56.437354,-27.050781],[-56.456742,-27.057062],[-56.469077,-27.05451],[-56.47842,-27.058311],[-56.482484,-27.063631],[-56.480733,-27.070732],[-56.473062,-27.089323],[-56.473684,-27.094085],[-56.473332,-27.098185],[-56.473715,-27.099942],[-56.472903,-27.102468],[-56.471372,-27.104924],[-56.470647,-27.109034],[-56.468471,-27.113982],[-56.467674,-27.114785],[-56.465143,-27.116298],[-56.464473,-27.118513],[-56.461477,-27.121473],[-56.45956,-27.124594],[-56.459289,-27.125903],[-56.462694,-27.150514],[-56.462359,-27.151696],[-56.463462,-27.152547],[-56.463729,-27.154282],[-56.464242,-27.154971],[-56.469556,-27.156665],[-56.47126,-27.15925],[-56.473196,-27.161342],[-56.47372,-27.163123],[-56.476901,-27.165951],[-56.477362,-27.166881],[-56.477179,-27.169591],[-56.477934,-27.17206],[-56.477108,-27.174539],[-56.477246,-27.177479],[-56.476547,-27.181175],[-56.469749,-27.19351],[-56.469735,-27.194233],[-56.468667,-27.195426],[-56.468743,-27.196792],[-56.467585,-27.198019],[-56.467674,-27.198949],[-56.466964,-27.201015],[-56.466814,-27.207479],[-56.467467,-27.208765],[-56.46705,-27.212886],[-56.467613,-27.214471],[-56.468947,-27.216206],[-56.468738,-27.218548],[-56.470697,-27.22351],[-56.474765,-27.227108],[-56.476293,-27.227775],[-56.478319,-27.230521],[-56.480486,-27.231887],[-56.483874,-27.230833],[-56.486006,-27.230638],[-56.486781,-27.231127],[-56.488118,-27.232935],[-56.489752,-27.233191],[-56.490572,-27.232888],[-56.490875,-27.232128],[-56.490575,-27.231601],[-56.488395,-27.230441],[-56.488311,-27.2295],[-56.488871,-27.22875],[-56.491145,-27.227004],[-56.492068,-27.226724],[-56.49279,-27.226995],[-56.493712,-27.228265],[-56.495332,-27.228349],[-56.496393,-27.227654],[-56.497484,-27.225695],[-56.500149,-27.223988],[-56.500631,-27.221497],[-56.501114,-27.22089],[-56.502559,-27.220608],[-56.504844,-27.220724],[-56.505747,-27.221795],[-56.504045,-27.224378],[-56.502943,-27.225171],[-56.501984,-27.226893],[-56.501921,-27.227695],[-56.503287,-27.229458],[-56.509994,-27.231351],[-56.524386,-27.230671],[-56.55115,-27.215443],[-56.529839,-27.186331]]]}}]}
