{"type":"FeatureCollection","name":"distrito","features":[{"type":"Feature","properties":{"clave":"5-1","nombre":"3 de Febrero"},"geometry":{"type":"Polygon","coordinates":[[[-55.813808,-25.261247],[-55.816576,-25.260859],[-55.816216,-25.260666],[-55.816534,-25.260402],[-55.817322,-25.260707],[-55.817154,-25.260258],[-55.818135,-25.260659],[-55.81824,-25.260195],[-55.818684,-25.260171],[-55.818698,-25.259607],[-55.819326,-25.260009],[-55.820159,-25.259632],[-55.822172,-25.260714],[-55.823839,-25.261106],[-55.824096,-25.260788],[-55.824803,-25.261394],[-55.82545,-25.260984],[-55.826477,-25.261953],[-55.827881,-25.262416],[-55.829139,-25.261798],[-55.830377,-25.26161],[-55.831012,-25.261041],[-55.831355,-25.261681],[-55.832535,-25.260471],[-55.833575,-25.260452],[-55.834482,-25.260012],[-55.83453,-25.259516],[-55.835251,-25.2594],[-55.835157,-25.258329],[-55.83676,-25.257665],[-55.837831,-25.25789],[-55.837426,-25.256695],[-55.838346,-25.256178],[-55.838826,-25.256213],[-55.839183,-25.255209],[-55.840816,-25.25496],[-55.840892,-25.25441],[-55.842254,-25.254317],[-55.842318,-25.253857],[-55.842667,-25.254117],[-55.84272,-25.253639],[-55.843995,-25.253929],[-55.844308,-25.253213],[-55.844545,-25.253644],[-55.845225,-25.253519],[-55.845331,-25.253321],[-55.844927,-25.253187],[-55.845526,-25.252993],[-55.845483,-25.252694],[-55.845976,-25.25282],[-55.846196,-25.252718],[-55.846011,-25.252396],[-55.846708,-25.252393],[-55.846571,-25.252017],[-55.845976,-25.25198],[-55.846104,-25.251665],[-55.847015,-25.251907],[-55.847908,-25.251648],[-55.84861,-25.251997],[-55.85001,-25.252044],[-55.850181,-25.252149],[-55.849715,-25.252366],[-55.850296,-25.252714],[-55.85193,-25.252027],[-55.852928,-25.251985],[-55.853141,-25.25209],[-55.852776,-25.252232],[-55.853287,-25.252444],[-55.852997,-25.252604],[-55.85338,-25.252742],[-55.854982,-25.251802],[-55.854592,-25.251528],[-55.85519,-25.251501],[-55.85592,-25.251557],[-55.85582,-25.252084],[-55.856979,-25.25175],[-55.85745,-25.25179],[-55.857635,-25.252148],[-55.858855,-25.251968],[-55.859231,-25.252192],[-55.859967,-25.251782],[-55.86401,-25.252414],[-55.864681,-25.251602],[-55.865381,-25.251738],[-55.866143,-25.25113],[-55.868622,-25.250896],[-55.869023,-25.250529],[-55.868891,-25.249869],[-55.870165,-25.248763],[-55.870973,-25.248914],[-55.871697,-25.248581],[-55.871622,-25.2483],[-55.872002,-25.248272],[-55.872082,-25.247956],[-55.872857,-25.248283],[-55.873098,-25.247919],[-55.873415,-25.24807],[-55.874777,-25.247742],[-55.874535,-25.247483],[-55.875275,-25.247195],[-55.876431,-25.247434],[-55.876304,-25.24718],[-55.876947,-25.246589],[-55.876253,-25.245816],[-55.877756,-25.245286],[-55.878614,-25.244033],[-55.879267,-25.243744],[-55.879068,-25.243427],[-55.880075,-25.243155],[-55.879429,-25.242861],[-55.880244,-25.242867],[-55.880244,-25.242474],[-55.880954,-25.242439],[-55.881297,-25.24208],[-55.882138,-25.240123],[-55.883326,-25.239707],[-55.883288,-25.239427],[-55.884614,-25.238426],[-55.88567,-25.238339],[-55.886432,-25.237825],[-55.888875,-25.237717],[-55.889899,-25.236718],[-55.890128,-25.237203],[-55.891514,-25.236618],[-55.892491,-25.236598],[-55.894133,-25.235671],[-55.89501,-25.235646],[-55.895571,-25.234973],[-55.896492,-25.235079],[-55.896467,-25.234623],[-55.896762,-25.234431],[-55.897678,-25.234781],[-55.898375,-25.234267],[-55.89903,-25.234258],[-55.899356,-25.23459],[-55.900038,-25.234063],[-55.90056,-25.234297],[-55.900878,-25.234037],[-55.900675,-25.23372],[-55.90128,-25.233101],[-55.901548,-25.233492],[-55.901886,-25.233169],[-55.902426,-25.233679],[-55.904208,-25.23227],[-55.905544,-25.231887],[-55.905815,-25.231239],[-55.906521,-25.230838],[-55.906578,-25.230418],[-55.907159,-25.230454],[-55.907797,-25.2297],[-55.908409,-25.229723],[-55.908436,-25.229357],[-55.911211,-25.228258],[-55.911823,-25.228466],[-55.912362,-25.227815],[-55.912886,-25.228108],[-55.913637,-25.227468],[-55.914788,-25.227571],[-55.915089,-25.227131],[-55.915859,-25.22724],[-55.91639,-25.226702],[-55.917057,-25.22673],[-55.918694,-25.224362],[-55.920702,-25.224481],[-55.921577,-25.223372],[-55.924143,-25.222813],[-55.924642,-25.222076],[-55.925349,-25.22168],[-55.926135,-25.221676],[-55.927173,-25.221115],[-55.927801,-25.221259],[-55.928599,-25.22066],[-55.929389,-25.220977],[-55.929721,-25.221513],[-55.930352,-25.221233],[-55.930522,-25.221419],[-55.931619,-25.220461],[-55.932261,-25.221075],[-55.933334,-25.220144],[-55.932968,-25.219784],[-55.934123,-25.21828],[-55.933757,-25.21802],[-55.933859,-25.21747],[-55.934441,-25.217203],[-55.934751,-25.217377],[-55.935325,-25.216424],[-55.936458,-25.216039],[-55.937125,-25.215137],[-55.938655,-25.215396],[-55.940699,-25.214566],[-55.889519,-25.136458],[-55.888349,-25.136693],[-55.888248,-25.136006],[-55.887497,-25.136343],[-55.887637,-25.136927],[-55.887184,-25.136856],[-55.887398,-25.137327],[-55.886598,-25.137357],[-55.886829,-25.137824],[-55.88611,-25.137832],[-55.886048,-25.138301],[-55.8847,-25.138061],[-55.884252,-25.138486],[-55.883323,-25.138705],[-55.88379,-25.138907],[-55.883799,-25.139246],[-55.883193,-25.13935],[-55.883438,-25.13992],[-55.882897,-25.139903],[-55.883009,-25.140834],[-55.882079,-25.141012],[-55.881712,-25.141406],[-55.882214,-25.143907],[-55.881349,-25.14474],[-55.881545,-25.145988],[-55.880952,-25.145884],[-55.880891,-25.146299],[-55.879917,-25.147322],[-55.880164,-25.148109],[-55.879374,-25.149547],[-55.879346,-25.149962],[-55.879764,-25.150239],[-55.879222,-25.151478],[-55.878646,-25.151412],[-55.878303,-25.151036],[-55.877812,-25.151133],[-55.877733,-25.150368],[-55.877188,-25.150964],[-55.877056,-25.150374],[-55.87673,-25.15028],[-55.876397,-25.151084],[-55.875928,-25.15104],[-55.874975,-25.151817],[-55.87408,-25.153295],[-55.872242,-25.153287],[-55.872165,-25.154162],[-55.871104,-25.154359],[-55.870101,-25.155302],[-55.869277,-25.155051],[-55.868741,-25.156069],[-55.867541,-25.155872],[-55.867388,-25.15524],[-55.866802,-25.155123],[-55.865707,-25.155823],[-55.865415,-25.156635],[-55.864799,-25.156977],[-55.864092,-25.157078],[-55.863394,-25.156411],[-55.862725,-25.157256],[-55.862312,-25.156715],[-55.861103,-25.15744],[-55.860259,-25.158754],[-55.85925,-25.158748],[-55.858615,-25.159447],[-55.857843,-25.159362],[-55.857302,-25.160336],[-55.856419,-25.160641],[-55.855467,-25.160532],[-55.85422,-25.161415],[-55.85328,-25.161444],[-55.8514,-25.160895],[-55.851067,-25.160357],[-55.850378,-25.160238],[-55.849956,-25.159657],[-55.849163,-25.160533],[-55.848358,-25.160307],[-55.847508,-25.160448],[-55.847483,-25.161139],[-55.846796,-25.16125],[-55.846847,-25.161676],[-55.846571,-25.161832],[-55.846093,-25.161839],[-55.845818,-25.161073],[-55.845073,-25.161318],[-55.843893,-25.161005],[-55.843707,-25.161808],[-55.842788,-25.161682],[-55.842444,-25.162525],[-55.841619,-25.16203],[-55.84134,-25.162731],[-55.840837,-25.162375],[-55.840312,-25.16276],[-55.839248,-25.162949],[-55.837443,-25.162871],[-55.837388,-25.163718],[-55.837832,-25.164221],[-55.83777,-25.164568],[-55.83716,-25.164587],[-55.836704,-25.165029],[-55.834777,-25.165204],[-55.835045,-25.168617],[-55.834244,-25.168861],[-55.834362,-25.169609],[-55.833359,-25.169856],[-55.833295,-25.171543],[-55.832673,-25.171671],[-55.832339,-25.172437],[-55.833059,-25.173134],[-55.832643,-25.173414],[-55.832736,-25.173919],[-55.833376,-25.173952],[-55.833582,-25.174437],[-55.832113,-25.174879],[-55.832085,-25.175569],[-55.831554,-25.175415],[-55.83021,-25.175942],[-55.830102,-25.176259],[-55.83058,-25.176652],[-55.829885,-25.176831],[-55.829863,-25.177899],[-55.829384,-25.177921],[-55.827273,-25.180219],[-55.826456,-25.180244],[-55.825851,-25.180749],[-55.825056,-25.180756],[-55.825093,-25.179707],[-55.823177,-25.179392],[-55.822846,-25.180612],[-55.822313,-25.18061],[-55.821638,-25.179812],[-55.821789,-25.179137],[-55.820916,-25.179098],[-55.820779,-25.178686],[-55.819288,-25.178547],[-55.818331,-25.177976],[-55.818689,-25.177331],[-55.818661,-25.176605],[-55.817369,-25.174562],[-55.817419,-25.173175],[-55.816366,-25.172954],[-55.815604,-25.172381],[-55.815956,-25.171904],[-55.815749,-25.171427],[-55.814983,-25.171099],[-55.814033,-25.169976],[-55.813801,-25.169094],[-55.81294,-25.168376],[-55.813333,-25.167774],[-55.812431,-25.167575],[-55.813137,-25.167286],[-55.813162,-25.167031],[-55.812171,-25.167084],[-55.811927,-25.167318],[-55.81207,-25.167753],[-55.811125,-25.16773],[-55.809688,-25.168602],[-55.808397,-25.168991],[-55.806822,-25.169035],[-55.806153,-25.168445],[-55.805026,-25.168214],[-55.804944,-25.167436],[-55.804537,-25.167008],[-55.805004,-25.16652],[-55.803954,-25.166117],[-55.804428,-25.164786],[-55.803794,-25.164756],[-55.802686,-25.165659],[-55.802422,-25.165523],[-55.802667,-25.164677],[-55.801781,-25.164747],[-55.802389,-25.164003],[-55.803083,-25.16395],[-55.802353,-25.163147],[-55.802414,-25.162187],[-55.801327,-25.161988],[-55.800854,-25.160586],[-55.799117,-25.160476],[-55.799207,-25.160143],[-55.798709,-25.159906],[-55.798614,-25.159468],[-55.797944,-25.15977],[-55.796251,-25.15794],[-55.79502,-25.157621],[-55.794306,-25.156782],[-55.794789,-25.156167],[-55.794079,-25.156198],[-55.793816,-25.155676],[-55.792545,-25.155488],[-55.792091,-25.156185],[-55.791889,-25.157535],[-55.790931,-25.157146],[-55.789659,-25.157514],[-55.788588,-25.157087],[-55.787932,-25.157159],[-55.786465,-25.158786],[-55.785393,-25.158924],[-55.785467,-25.159405],[-55.784779,-25.159623],[-55.784682,-25.160367],[-55.784073,-25.160154],[-55.782633,-25.161029],[-55.78276,-25.161961],[-55.780284,-25.162362],[-55.780172,-25.162891],[-55.779513,-25.162695],[-55.778473,-25.163399],[-55.77732,-25.162916],[-55.7749,-25.162992],[-55.773147,-25.164076],[-55.770791,-25.164105],[-55.770739,-25.164496],[-55.771229,-25.164911],[-55.770152,-25.165561],[-55.770115,-25.16613],[-55.769454,-25.166183],[-55.769577,-25.16672],[-55.768963,-25.166793],[-55.76901,-25.167495],[-55.768371,-25.167818],[-55.76812,-25.1692],[-55.767531,-25.169282],[-55.766545,-25.168568],[-55.765884,-25.170495],[-55.76519,-25.171049],[-55.763625,-25.171125],[-55.762525,-25.171496],[-55.761899,-25.170951],[-55.761556,-25.171446],[-55.761137,-25.170417],[-55.760626,-25.170755],[-55.760178,-25.171668],[-55.758585,-25.171902],[-55.756205,-25.17008],[-55.755465,-25.16982],[-55.755293,-25.169163],[-55.754882,-25.169513],[-55.75418,-25.1694],[-55.753896,-25.170532],[-55.754304,-25.171434],[-55.753343,-25.171461],[-55.753437,-25.172099],[-55.752883,-25.172444],[-55.753073,-25.173013],[-55.751415,-25.172833],[-55.751167,-25.173218],[-55.750471,-25.173289],[-55.750373,-25.173842],[-55.749067,-25.173777],[-55.745929,-25.175246],[-55.746597,-25.176221],[-55.746172,-25.176739],[-55.746328,-25.177435],[-55.745953,-25.177761],[-55.745269,-25.177718],[-55.744618,-25.177212],[-55.744158,-25.177993],[-55.743512,-25.1776],[-55.741808,-25.177704],[-55.741525,-25.178063],[-55.740726,-25.177272],[-55.739949,-25.177066],[-55.740326,-25.176476],[-55.739138,-25.17644],[-55.738796,-25.176617],[-55.738892,-25.177226],[-55.738045,-25.177417],[-55.736874,-25.178868],[-55.735999,-25.178285],[-55.735471,-25.178818],[-55.735004,-25.178638],[-55.733592,-25.179624],[-55.733348,-25.180341],[-55.732327,-25.179535],[-55.73232,-25.179012],[-55.731906,-25.179585],[-55.731324,-25.179473],[-55.73085,-25.179868],[-55.729924,-25.178879],[-55.729632,-25.17939],[-55.728058,-25.179207],[-55.727504,-25.179968],[-55.727077,-25.179802],[-55.727036,-25.17903],[-55.724483,-25.179288],[-55.724006,-25.179585],[-55.723717,-25.178671],[-55.720958,-25.178714],[-55.721406,-25.178065],[-55.719686,-25.176798],[-55.716113,-25.177266],[-55.715561,-25.177066],[-55.715191,-25.176512],[-55.71451,-25.176919],[-55.714194,-25.176509],[-55.712521,-25.176251],[-55.711952,-25.175757],[-55.709358,-25.176547],[-55.708305,-25.178196],[-55.707675,-25.177617],[-55.705463,-25.178489],[-55.704548,-25.179192],[-55.703054,-25.179156],[-55.702292,-25.179446],[-55.701963,-25.178894],[-55.699506,-25.178467],[-55.69911,-25.17754],[-55.698222,-25.177231],[-55.697476,-25.177501],[-55.697376,-25.176952],[-55.695838,-25.17734],[-55.695389,-25.177043],[-55.695354,-25.176627],[-55.69438,-25.176744],[-55.694578,-25.176175],[-55.693816,-25.175741],[-55.693081,-25.176051],[-55.69302,-25.175242],[-55.691538,-25.175467],[-55.691455,-25.175022],[-55.690345,-25.174632],[-55.689786,-25.174802],[-55.688851,-25.175919],[-55.688051,-25.176289],[-55.707204,-25.238708],[-55.717874,-25.274785],[-55.717454,-25.275647],[-55.71801,-25.275465],[-55.718198,-25.275042],[-55.718979,-25.276083],[-55.719367,-25.275461],[-55.720192,-25.27608],[-55.721961,-25.276527],[-55.723164,-25.277643],[-55.723997,-25.27727],[-55.724248,-25.277835],[-55.724886,-25.278033],[-55.725452,-25.278717],[-55.725783,-25.278665],[-55.726568,-25.279482],[-55.726886,-25.27926],[-55.727218,-25.279574],[-55.727763,-25.278729],[-55.728123,-25.279053],[-55.728489,-25.278766],[-55.729619,-25.280008],[-55.731167,-25.280413],[-55.731451,-25.281135],[-55.731752,-25.280546],[-55.732102,-25.281036],[-55.73475,-25.280859],[-55.734714,-25.281476],[-55.735563,-25.281059],[-55.736507,-25.281558],[-55.737678,-25.280928],[-55.738728,-25.281299],[-55.738506,-25.281798],[-55.738836,-25.281939],[-55.739527,-25.281556],[-55.740021,-25.280773],[-55.740939,-25.280711],[-55.740844,-25.281287],[-55.741878,-25.281028],[-55.742389,-25.281451],[-55.742784,-25.281],[-55.743222,-25.281566],[-55.743658,-25.280767],[-55.744417,-25.28071],[-55.745014,-25.280746],[-55.745394,-25.281323],[-55.746018,-25.281418],[-55.746918,-25.281228],[-55.747549,-25.280747],[-55.747967,-25.280837],[-55.748353,-25.280387],[-55.748578,-25.280345],[-55.748621,-25.280738],[-55.748933,-25.280513],[-55.749224,-25.280662],[-55.749189,-25.280257],[-55.749679,-25.280455],[-55.750122,-25.280009],[-55.750702,-25.280192],[-55.751838,-25.279671],[-55.752361,-25.28022],[-55.75284,-25.27972],[-55.753558,-25.280254],[-55.754433,-25.279942],[-55.754725,-25.280367],[-55.754935,-25.279836],[-55.756285,-25.279483],[-55.756526,-25.279146],[-55.757312,-25.279351],[-55.75802,-25.279132],[-55.759051,-25.279515],[-55.760445,-25.279233],[-55.761825,-25.279994],[-55.762256,-25.279384],[-55.764329,-25.280489],[-55.765234,-25.280203],[-55.765556,-25.280599],[-55.766662,-25.280342],[-55.76719,-25.281344],[-55.767711,-25.281371],[-55.768095,-25.281045],[-55.76848,-25.281328],[-55.768509,-25.2808],[-55.770193,-25.280249],[-55.770959,-25.279497],[-55.771716,-25.279603],[-55.771768,-25.279197],[-55.772151,-25.279218],[-55.77264,-25.278545],[-55.773426,-25.278628],[-55.775093,-25.278033],[-55.774534,-25.277766],[-55.77532,-25.277425],[-55.774908,-25.277056],[-55.775791,-25.276901],[-55.775487,-25.276456],[-55.776097,-25.276556],[-55.77645,-25.275967],[-55.776759,-25.276385],[-55.777143,-25.276158],[-55.776896,-25.275894],[-55.777163,-25.275233],[-55.777665,-25.275327],[-55.777878,-25.274882],[-55.778496,-25.275068],[-55.778012,-25.274531],[-55.778872,-25.274303],[-55.778525,-25.273754],[-55.779246,-25.273634],[-55.778789,-25.272953],[-55.779131,-25.272865],[-55.779686,-25.271922],[-55.77961,-25.271357],[-55.780105,-25.271478],[-55.7803,-25.271182],[-55.780673,-25.271438],[-55.781115,-25.271211],[-55.781074,-25.270814],[-55.781479,-25.270618],[-55.781354,-25.270008],[-55.782287,-25.269803],[-55.782696,-25.26931],[-55.782788,-25.268449],[-55.783309,-25.268394],[-55.783734,-25.267951],[-55.784755,-25.268207],[-55.786236,-25.267479],[-55.786825,-25.267768],[-55.786808,-25.267321],[-55.78792,-25.266694],[-55.788213,-25.266033],[-55.78979,-25.264818],[-55.7918,-25.265055],[-55.793153,-25.264245],[-55.794123,-25.264162],[-55.794979,-25.263108],[-55.795771,-25.263133],[-55.795731,-25.263476],[-55.796282,-25.263471],[-55.797921,-25.262902],[-55.798277,-25.262336],[-55.79963,-25.262072],[-55.799665,-25.261643],[-55.800244,-25.261603],[-55.800454,-25.26099],[-55.801334,-25.261435],[-55.80133,-25.261201],[-55.802311,-25.261109],[-55.802875,-25.260319],[-55.803445,-25.260477],[-55.804081,-25.260221],[-55.803992,-25.260748],[-55.804827,-25.260547],[-55.805453,-25.260719],[-55.805573,-25.260495],[-55.805929,-25.260642],[-55.806151,-25.260079],[-55.807063,-25.260543],[-55.807305,-25.260161],[-55.807886,-25.260215],[-55.807684,-25.259749],[-55.808205,-25.259477],[-55.808873,-25.259934],[-55.810324,-25.259603],[-55.810717,-25.260134],[-55.811068,-25.259537],[-55.81128,-25.260234],[-55.812954,-25.260477],[-55.813808,-25.261247]]]}}]}
