{"type":"FeatureCollection","name":"distrito","features":[{"type":"Feature","properties":{"clave":"5-37","nombre":"Yhú"},"geometry":{"type":"Polygon","coordinates":[[[-55.940699,-25.214566],[-55.941936,-25.213573],[-55.944175,-25.213201],[-55.944573,-25.212621],[-55.945316,-25.212315],[-55.946605,-25.212464],[-55.947046,-25.211971],[-55.947424,-25.212199],[-55.949853,-25.211331],[-55.950872,-25.21146],[-55.952262,-25.210409],[-55.95367,-25.210835],[-55.954156,-25.210509],[-55.954554,-25.210724],[-55.9547,-25.210192],[-55.955272,-25.21058],[-55.956231,-25.210672],[-55.957877,-25.209916],[-55.96049,-25.210838],[-55.961794,-25.210179],[-55.962981,-25.210024],[-55.963199,-25.20966],[-55.964104,-25.209527],[-55.964549,-25.209837],[-55.965458,-25.209234],[-55.965734,-25.209448],[-55.966347,-25.209321],[-55.966477,-25.208419],[-55.968204,-25.206986],[-55.9725,-25.205716],[-55.974112,-25.2043],[-55.97469,-25.203094],[-55.97498,-25.200342],[-55.972318,-25.176692],[-55.972839,-25.168682],[-55.974894,-25.155598],[-55.97479,-25.154527],[-55.966934,-25.138124],[-55.964447,-25.135727],[-55.964104,-25.134624],[-55.964347,-25.133993],[-55.965478,-25.133391],[-55.966411,-25.132423],[-55.966513,-25.13129],[-55.967754,-25.128219],[-55.969676,-25.12584],[-55.970135,-25.123942],[-55.971145,-25.123105],[-55.972556,-25.122505],[-55.975151,-25.122356],[-55.978805,-25.120788],[-55.979655,-25.120179],[-55.982169,-25.116765],[-55.984836,-25.115704],[-55.985662,-25.114861],[-55.9902,-25.114355],[-55.99527,-25.111915],[-55.996986,-25.11199],[-55.999094,-25.113219],[-56.000522,-25.111987],[-56.001429,-25.109049],[-56.001383,-25.103554],[-56.0026,-25.100361],[-56.003247,-25.096965],[-56.004249,-25.094814],[-56.005395,-25.090839],[-56.00584,-25.089985],[-56.007486,-25.08842],[-56.008664,-25.086301],[-56.010518,-25.085442],[-56.012857,-25.082961],[-56.007631,-25.077991],[-55.999149,-25.06605],[-55.998661,-25.060056],[-55.998095,-25.058341],[-55.997557,-25.053944],[-55.996837,-25.051979],[-55.99432,-25.047836],[-55.993935,-25.046149],[-55.991806,-25.044238],[-55.990499,-25.045385],[-55.989042,-25.045515],[-55.987886,-25.046293],[-55.987229,-25.04641],[-55.985601,-25.04593],[-55.98422,-25.045076],[-55.982247,-25.04625],[-55.979229,-25.04441],[-55.976196,-25.044023],[-55.975734,-25.042557],[-55.975973,-25.041177],[-55.976639,-25.040251],[-55.978252,-25.035436],[-55.979151,-25.031541],[-55.978845,-25.030008],[-55.977973,-25.028625],[-55.977082,-25.025048],[-55.97749,-25.023267],[-55.976111,-25.017867],[-55.975433,-25.013144],[-55.972144,-24.987092],[-55.972612,-24.98602],[-55.971857,-24.985419],[-55.970012,-24.971369],[-55.969151,-24.961127],[-55.968192,-24.960981],[-55.968005,-24.960668],[-55.965474,-24.960465],[-55.964338,-24.958665],[-55.963344,-24.958184],[-55.962597,-24.958255],[-55.961056,-24.957816],[-55.960093,-24.958319],[-55.95855,-24.958268],[-55.957604,-24.958735],[-55.956547,-24.954068],[-55.956012,-24.950046],[-55.951434,-24.944668],[-55.949566,-24.941756],[-55.951041,-24.911064],[-55.955406,-24.912986],[-55.957444,-24.9124],[-55.963893,-24.913244],[-55.965032,-24.91313],[-55.975122,-24.907001],[-55.98672,-24.902529],[-55.989959,-24.902022],[-55.991984,-24.902072],[-55.999041,-24.89793],[-56.000227,-24.898217],[-56.002689,-24.895669],[-56.00529,-24.893524],[-56.008754,-24.891524],[-56.01025,-24.890329],[-56.012545,-24.889459],[-56.014592,-24.889531],[-56.015808,-24.889124],[-56.024134,-24.888207],[-56.02349,-24.880778],[-56.015919,-24.881609],[-55.99956,-24.874306],[-55.997656,-24.870916],[-55.988705,-24.863221],[-55.989305,-24.849696],[-55.990516,-24.838419],[-55.982016,-24.834984],[-55.972534,-24.833745],[-55.966241,-24.835904],[-55.961869,-24.83925],[-55.946237,-24.842078],[-55.938318,-24.846133],[-55.935743,-24.846261],[-55.927202,-24.847668],[-55.921253,-24.847185],[-55.915933,-24.848321],[-55.90935,-24.846658],[-55.906363,-24.848092],[-55.895423,-24.852002],[-55.884079,-24.847499],[-55.881008,-24.849091],[-55.877761,-24.852273],[-55.868537,-24.857954],[-55.860147,-24.860386],[-55.852514,-24.861251],[-55.846136,-24.861453],[-55.840204,-24.859058],[-55.834292,-24.854607],[-55.826973,-24.845741],[-55.81911,-24.843476],[-55.814759,-24.844176],[-55.80897,-24.843836],[-55.797103,-24.836629],[-55.795014,-24.837356],[-55.785496,-24.838931],[-55.781163,-24.837822],[-55.778592,-24.832267],[-55.775851,-24.82757],[-55.776427,-24.822422],[-55.770482,-24.819648],[-55.766955,-24.819371],[-55.760217,-24.82361],[-55.755337,-24.822908],[-55.751626,-24.823043],[-55.745458,-24.824478],[-55.742382,-24.824369],[-55.739752,-24.824925],[-55.734321,-24.825127],[-55.729978,-24.825008],[-55.722873,-24.829572],[-55.716845,-24.826134],[-55.712114,-24.8199],[-55.707536,-24.798883],[-55.708015,-24.790957],[-55.706736,-24.788801],[-55.705766,-24.786315],[-55.701991,-24.78397],[-55.703703,-24.775974],[-55.708025,-24.769156],[-55.714408,-24.764174],[-55.718269,-24.758095],[-55.72607,-24.755849],[-55.73073,-24.751181],[-55.736106,-24.743189],[-55.736124,-24.736526],[-55.735155,-24.733958],[-55.729068,-24.727795],[-55.729207,-24.723089],[-55.716653,-24.712906],[-55.712726,-24.707917],[-55.711416,-24.69461],[-55.702707,-24.688919],[-55.701308,-24.684282],[-55.702659,-24.676035],[-55.700174,-24.671636],[-55.694069,-24.676373],[-55.687256,-24.679617],[-55.681658,-24.679073],[-55.670795,-24.672122],[-55.662269,-24.674937],[-55.661978,-24.668327],[-55.662774,-24.66148],[-55.668465,-24.653189],[-55.662884,-24.65124],[-55.653137,-24.649997],[-55.647379,-24.647715],[-55.638464,-24.644827],[-55.627717,-24.644316],[-55.623909,-24.64552],[-55.62081,-24.647969],[-55.614764,-24.64717],[-55.612427,-24.646075],[-55.604721,-24.640223],[-55.601239,-24.636474],[-55.6018,-24.634745],[-55.608551,-24.628862],[-55.609932,-24.626562],[-55.609592,-24.624659],[-55.594746,-24.619153],[-55.594488,-24.609901],[-55.597824,-24.602417],[-55.592494,-24.60245],[-55.569176,-24.64257],[-55.568157,-24.643743],[-55.568162,-24.645847],[-55.564127,-24.650631],[-55.564044,-24.652517],[-55.563141,-24.653375],[-55.563175,-24.654938],[-55.562441,-24.655852],[-55.564648,-24.659959],[-55.564106,-24.660888],[-55.563784,-24.664416],[-55.563844,-24.664859],[-55.564844,-24.665798],[-55.565287,-24.667983],[-55.564894,-24.669266],[-55.56582,-24.670688],[-55.565139,-24.671445],[-55.565001,-24.672315],[-55.563424,-24.67402],[-55.56321,-24.676334],[-55.562167,-24.676671],[-55.561607,-24.677185],[-55.559956,-24.679959],[-55.558138,-24.682069],[-55.555389,-24.684557],[-55.552686,-24.686219],[-55.549837,-24.686639],[-55.547751,-24.687485],[-55.545821,-24.687516],[-55.545507,-24.688493],[-55.544557,-24.688407],[-55.543694,-24.689157],[-55.542282,-24.689089],[-55.540449,-24.689546],[-55.538879,-24.69084],[-55.537552,-24.690912],[-55.536298,-24.69174],[-55.53593,-24.692865],[-55.534814,-24.694195],[-55.534786,-24.694759],[-55.533959,-24.695519],[-55.532677,-24.69589],[-55.531815,-24.697407],[-55.530416,-24.698089],[-55.529615,-24.699869],[-55.529046,-24.700459],[-55.528845,-24.702683],[-55.528962,-24.703149],[-55.529764,-24.703613],[-55.529618,-24.705982],[-55.528623,-24.707598],[-55.528042,-24.709768],[-55.526998,-24.709934],[-55.526595,-24.71063],[-55.526079,-24.710638],[-55.525026,-24.712361],[-55.524094,-24.712813],[-55.523733,-24.713509],[-55.520326,-24.714825],[-55.519156,-24.714773],[-55.518665,-24.715685],[-55.517805,-24.715089],[-55.517044,-24.715095],[-55.516745,-24.715327],[-55.516887,-24.716475],[-55.51665,-24.716699],[-55.515564,-24.716521],[-55.514956,-24.717743],[-55.513558,-24.718144],[-55.513185,-24.717978],[-55.512771,-24.71871],[-55.511462,-24.718918],[-55.509285,-24.720183],[-55.507849,-24.719903],[-55.507276,-24.721215],[-55.506636,-24.720789],[-55.506681,-24.721476],[-55.506203,-24.721778],[-55.505319,-24.72139],[-55.504514,-24.72214],[-55.50281,-24.72271],[-55.501145,-24.723962],[-55.500791,-24.724582],[-55.49982,-24.724757],[-55.499298,-24.725953],[-55.498454,-24.726283],[-55.497809,-24.727243],[-55.497028,-24.727113],[-55.49597,-24.727685],[-55.495696,-24.728106],[-55.495937,-24.728696],[-55.495619,-24.728981],[-55.495164,-24.729144],[-55.494743,-24.728918],[-55.494243,-24.729753],[-55.493288,-24.729315],[-55.491948,-24.73024],[-55.490369,-24.730491],[-55.490304,-24.73086],[-55.49083,-24.731629],[-55.490369,-24.731773],[-55.489711,-24.731301],[-55.489602,-24.732465],[-55.488724,-24.733255],[-55.488319,-24.733183],[-55.487427,-24.73452],[-55.486488,-24.734321],[-55.485609,-24.73554],[-55.484898,-24.73542],[-55.484293,-24.736285],[-55.483344,-24.735761],[-55.481616,-24.73647],[-55.479732,-24.736776],[-55.477891,-24.735972],[-55.477261,-24.73611],[-55.477056,-24.736491],[-55.475875,-24.736624],[-55.473035,-24.736383],[-55.472136,-24.736821],[-55.471359,-24.736564],[-55.4712,-24.737624],[-55.46966,-24.737554],[-55.467961,-24.738516],[-55.467244,-24.739665],[-55.466973,-24.73926],[-55.466527,-24.739409],[-55.465596,-24.740975],[-55.465991,-24.742406],[-55.464908,-24.742381],[-55.464365,-24.743965],[-55.463352,-24.744839],[-55.463003,-24.745599],[-55.462579,-24.745508],[-55.462081,-24.746293],[-55.460391,-24.746935],[-55.458675,-24.748376],[-55.457246,-24.748542],[-55.457016,-24.748914],[-55.457391,-24.75001],[-55.457206,-24.750266],[-55.456066,-24.749933],[-55.454672,-24.750551],[-55.453559,-24.750467],[-55.451412,-24.75133],[-55.451046,-24.75101],[-55.45041,-24.751604],[-55.448779,-24.751447],[-55.447956,-24.751732],[-55.447444,-24.751465],[-55.446648,-24.752342],[-55.446445,-24.752439],[-55.446007,-24.751956],[-55.444856,-24.753023],[-55.444427,-24.75221],[-55.443552,-24.751696],[-55.443593,-24.751267],[-55.441506,-24.751413],[-55.44074,-24.750736],[-55.440376,-24.74992],[-55.439334,-24.75069],[-55.438829,-24.750166],[-55.437003,-24.749808],[-55.436895,-24.749383],[-55.434677,-24.749026],[-55.434033,-24.749716],[-55.433978,-24.750281],[-55.434499,-24.751824],[-55.433353,-24.752015],[-55.432691,-24.751588],[-55.431857,-24.752203],[-55.431354,-24.753054],[-55.432067,-24.754411],[-55.433164,-24.754378],[-55.43379,-24.753863],[-55.433503,-24.755253],[-55.431747,-24.754625],[-55.431173,-24.754778],[-55.430595,-24.75396],[-55.430636,-24.753249],[-55.428105,-24.753615],[-55.427656,-24.753987],[-55.427534,-24.753521],[-55.428554,-24.752023],[-55.426257,-24.752783],[-55.425671,-24.752631],[-55.425584,-24.753167],[-55.426218,-24.754581],[-55.424979,-24.754568],[-55.424541,-24.75526],[-55.424523,-24.755463],[-55.425204,-24.755615],[-55.424926,-24.756236],[-55.425333,-24.756748],[-55.425164,-24.757545],[-55.423458,-24.7567],[-55.423118,-24.757247],[-55.424569,-24.758061],[-55.424284,-24.759277],[-55.423061,-24.75922],[-55.423452,-24.759689],[-55.424023,-24.759825],[-55.424094,-24.760508],[-55.422486,-24.760752],[-55.421697,-24.760279],[-55.421406,-24.760654],[-55.42159,-24.761178],[-55.420762,-24.761329],[-55.419702,-24.763509],[-55.418655,-24.764615],[-55.419092,-24.766491],[-55.4195,-24.766873],[-55.419208,-24.767377],[-55.419729,-24.767615],[-55.4189,-24.767838],[-55.419083,-24.768479],[-55.417359,-24.767779],[-55.416777,-24.768585],[-55.417151,-24.770417],[-55.416885,-24.772634],[-55.415922,-24.772087],[-55.415555,-24.772243],[-55.415028,-24.773688],[-55.414207,-24.774507],[-55.413519,-24.77611],[-55.412203,-24.777126],[-55.411516,-24.778671],[-55.409783,-24.781206],[-55.409416,-24.781377],[-55.409372,-24.781071],[-55.408958,-24.781154],[-55.408522,-24.782876],[-55.40707,-24.783354],[-55.406314,-24.782809],[-55.404176,-24.783454],[-55.404298,-24.78389],[-55.407035,-24.784877],[-55.407363,-24.785287],[-55.406056,-24.785607],[-55.405478,-24.784788],[-55.404857,-24.784897],[-55.404574,-24.785881],[-55.404794,-24.788611],[-55.403966,-24.788704],[-55.403348,-24.787333],[-55.402868,-24.788852],[-55.401408,-24.789866],[-55.400355,-24.791436],[-55.398976,-24.792379],[-55.397607,-24.792582],[-55.397188,-24.79297],[-55.395918,-24.795335],[-55.395398,-24.798725],[-55.394181,-24.799379],[-55.395019,-24.79978],[-55.394853,-24.800315],[-55.393974,-24.800668],[-55.393327,-24.80027],[-55.393336,-24.798384],[-55.393039,-24.797989],[-55.391375,-24.800075],[-55.389841,-24.800697],[-55.387832,-24.803649],[-55.387789,-24.806928],[-55.387519,-24.806954],[-55.386924,-24.806237],[-55.386272,-24.806273],[-55.386773,-24.805626],[-55.386249,-24.805562],[-55.385891,-24.806211],[-55.386095,-24.807664],[-55.38506,-24.807798],[-55.384993,-24.808058],[-55.386047,-24.808882],[-55.385963,-24.809273],[-55.385048,-24.809945],[-55.384434,-24.809445],[-55.383695,-24.810047],[-55.384508,-24.8111],[-55.383715,-24.810975],[-55.38311,-24.809837],[-55.382186,-24.810016],[-55.382325,-24.809074],[-55.380872,-24.809552],[-55.380659,-24.810072],[-55.380147,-24.809065],[-55.37934,-24.808839],[-55.379673,-24.810119],[-55.378845,-24.810241],[-55.378682,-24.810529],[-55.377897,-24.812218],[-55.377579,-24.814623],[-55.375881,-24.815686],[-55.375603,-24.817452],[-55.377001,-24.816739],[-55.378114,-24.817277],[-55.378414,-24.81635],[-55.379012,-24.816302],[-55.37945,-24.81668],[-55.379514,-24.817911],[-55.379977,-24.817898],[-55.380394,-24.818343],[-55.381247,-24.818205],[-55.381237,-24.818995],[-55.381581,-24.819323],[-55.381823,-24.819331],[-55.381923,-24.818861],[-55.382764,-24.819189],[-55.38342,-24.818767],[-55.383475,-24.819178],[-55.384026,-24.819618],[-55.384628,-24.819686],[-55.384738,-24.82052],[-55.384021,-24.82099],[-55.384589,-24.821198],[-55.384238,-24.82183],[-55.38554,-24.823326],[-55.385709,-24.82476],[-55.386338,-24.825434],[-55.387471,-24.82544],[-55.389848,-24.826818],[-55.390883,-24.826634],[-55.39098,-24.826941],[-55.393864,-24.827437],[-55.394813,-24.828206],[-55.396038,-24.82787],[-55.397418,-24.828559],[-55.397827,-24.829053],[-55.398763,-24.829131],[-55.399157,-24.829753],[-55.399759,-24.829105],[-55.400679,-24.829391],[-55.403426,-24.828165],[-55.40554,-24.827795],[-55.407917,-24.826321],[-55.409424,-24.825782],[-55.410611,-24.826178],[-55.41059,-24.825225],[-55.41368,-24.824229],[-55.414458,-24.823592],[-55.416237,-24.823281],[-55.418499,-24.821833],[-55.421042,-24.82191],[-55.423534,-24.82153],[-55.423795,-24.821984],[-55.424725,-24.821782],[-55.425947,-24.822273],[-55.426458,-24.8217],[-55.427333,-24.821394],[-55.429884,-24.82105],[-55.433864,-24.822162],[-55.436742,-24.822562],[-55.439633,-24.822507],[-55.441889,-24.823203],[-55.444121,-24.823018],[-55.445923,-24.821918],[-55.450664,-24.822116],[-55.452135,-24.822808],[-55.451605,-24.823259],[-55.452225,-24.823581],[-55.452305,-24.824684],[-55.454747,-24.824993],[-55.454916,-24.825473],[-55.455835,-24.825569],[-55.456999,-24.824583],[-55.457915,-24.824425],[-55.457869,-24.825265],[-55.45903,-24.82539],[-55.45974,-24.826038],[-55.460289,-24.826062],[-55.460979,-24.826687],[-55.461263,-24.827674],[-55.463147,-24.828737],[-55.463308,-24.829257],[-55.463827,-24.82896],[-55.464924,-24.829843],[-55.465286,-24.830745],[-55.465938,-24.83086],[-55.466562,-24.829783],[-55.467178,-24.829866],[-55.469296,-24.832028],[-55.473032,-24.833876],[-55.474251,-24.833961],[-55.476826,-24.83498],[-55.479408,-24.83516],[-55.479697,-24.835597],[-55.481224,-24.834935],[-55.482913,-24.835205],[-55.486123,-24.834944],[-55.707885,-24.912194],[-55.709298,-24.912152],[-55.710121,-24.912475],[-55.711006,-24.911666],[-55.711465,-24.910568],[-55.71317,-24.9094],[-55.713217,-24.908944],[-55.714557,-24.908676],[-55.71543,-24.907374],[-55.716017,-24.90737],[-55.717824,-24.905715],[-55.722505,-24.903358],[-55.723782,-24.90326],[-55.724957,-24.902015],[-55.726036,-24.902255],[-55.728697,-24.900074],[-55.731415,-24.899194],[-55.734495,-24.8975],[-55.739242,-24.897577],[-55.741805,-24.895372],[-55.743527,-24.896294],[-55.746948,-24.897289],[-55.747923,-24.897167],[-55.749082,-24.897601],[-55.750703,-24.897623],[-55.751611,-24.898064],[-55.753522,-24.899751],[-55.75512,-24.900107],[-55.757043,-24.901081],[-55.757273,-24.903033],[-55.758969,-24.905368],[-55.761368,-24.91002],[-55.763094,-24.911624],[-55.764574,-24.913564],[-55.767496,-24.915787],[-55.771178,-24.917248],[-55.774154,-24.917006],[-55.775309,-24.917716],[-55.776888,-24.91772],[-55.779911,-24.918733],[-55.781112,-24.919407],[-55.7843,-24.922205],[-55.786827,-24.922763],[-55.790146,-24.924501],[-55.79076,-24.925445],[-55.791942,-24.929581],[-55.796099,-24.932631],[-55.796199,-24.933354],[-55.794914,-24.937917],[-55.794997,-24.94046],[-55.795335,-24.940882],[-55.797737,-24.941818],[-55.798242,-24.942342],[-55.798012,-24.943338],[-55.798235,-24.945638],[-55.798762,-24.94682],[-55.801222,-24.949219],[-55.802895,-24.949847],[-55.804169,-24.950724],[-55.804663,-24.951644],[-55.805781,-24.95141],[-55.806794,-24.951616],[-55.808492,-24.952574],[-55.809646,-24.952827],[-55.810727,-24.954136],[-55.815064,-24.95738],[-55.817697,-24.960124],[-55.818521,-24.960279],[-55.818869,-24.960932],[-55.822226,-24.963912],[-55.824921,-24.96871],[-55.826074,-24.969884],[-55.828813,-24.97098],[-55.830597,-24.971206],[-55.832792,-24.970329],[-55.838814,-24.968932],[-55.8392,-24.968397],[-55.840179,-24.968283],[-55.842912,-24.96648],[-55.845009,-24.964817],[-55.848211,-24.961555],[-55.850933,-24.960023],[-55.852744,-24.959639],[-55.876166,-24.999771],[-55.875742,-25.000427],[-55.876168,-25.001135],[-55.875139,-25.001524],[-55.875522,-25.002304],[-55.873309,-25.00207],[-55.87237,-25.002957],[-55.871841,-25.00303],[-55.871922,-25.003459],[-55.871571,-25.003728],[-55.871653,-25.005168],[-55.870892,-25.005235],[-55.870688,-25.006051],[-55.870037,-25.005969],[-55.870525,-25.006686],[-55.869098,-25.00696],[-55.869031,-25.00793],[-55.867718,-25.009717],[-55.86798,-25.010021],[-55.867307,-25.010472],[-55.867425,-25.011435],[-55.86696,-25.012533],[-55.866561,-25.012151],[-55.866111,-25.012161],[-55.865621,-25.012654],[-55.865764,-25.012939],[-55.865231,-25.012994],[-55.865247,-25.01345],[-55.864461,-25.013417],[-55.863403,-25.014732],[-55.860602,-25.015234],[-55.859096,-25.014893],[-55.858409,-25.015619],[-55.857271,-25.015493],[-55.856066,-25.015953],[-55.855557,-25.016545],[-55.854726,-25.016634],[-55.854248,-25.017578],[-55.853249,-25.018121],[-55.849303,-25.017978],[-55.84715,-25.018385],[-55.845763,-25.01814],[-55.844365,-25.017497],[-55.843529,-25.01791],[-55.842403,-25.017856],[-55.840406,-25.018635],[-55.84016,-25.018819],[-55.840382,-25.019105],[-55.840104,-25.019202],[-55.839395,-25.019066],[-55.839275,-25.018703],[-55.838731,-25.018501],[-55.838997,-25.017974],[-55.839495,-25.017829],[-55.839059,-25.017361],[-55.839363,-25.016961],[-55.839,-25.016764],[-55.838985,-25.015988],[-55.836313,-25.015971],[-55.835333,-25.015097],[-55.834764,-25.014952],[-55.833258,-25.016304],[-55.832583,-25.015734],[-55.832775,-25.015117],[-55.832139,-25.015252],[-55.831687,-25.014991],[-55.832142,-25.014553],[-55.830888,-25.014443],[-55.830207,-25.014786],[-55.829864,-25.014471],[-55.829617,-25.014785],[-55.829166,-25.014579],[-55.827707,-25.015384],[-55.827318,-25.016284],[-55.82749,-25.016841],[-55.827063,-25.016937],[-55.827038,-25.016589],[-55.826651,-25.017485],[-55.825095,-25.017734],[-55.825582,-25.017932],[-55.825537,-25.018176],[-55.824894,-25.018247],[-55.824787,-25.017989],[-55.824508,-25.018181],[-55.824308,-25.017886],[-55.823836,-25.018438],[-55.824134,-25.018765],[-55.823514,-25.0196],[-55.822941,-25.019094],[-55.823053,-25.018716],[-55.822529,-25.018847],[-55.822439,-25.018594],[-55.8211,-25.019346],[-55.81955,-25.01923],[-55.818872,-25.019604],[-55.81962,-25.020093],[-55.81942,-25.020362],[-55.817986,-25.020509],[-55.816482,-25.021761],[-55.815105,-25.021714],[-55.814333,-25.022412],[-55.812652,-25.022435],[-55.812244,-25.023253],[-55.811911,-25.022984],[-55.810847,-25.02331],[-55.810138,-25.02306],[-55.809564,-25.023485],[-55.808426,-25.023715],[-55.808309,-25.024156],[-55.807566,-25.02471],[-55.807341,-25.024424],[-55.806725,-25.024527],[-55.806605,-25.024124],[-55.804646,-25.02424],[-55.803931,-25.025697],[-55.802623,-25.025673],[-55.802644,-25.026806],[-55.801842,-25.028014],[-55.801462,-25.028124],[-55.801514,-25.028914],[-55.801107,-25.0299],[-55.800419,-25.029687],[-55.799594,-25.030113],[-55.79933,-25.030743],[-55.799966,-25.03139],[-55.798858,-25.032649],[-55.799057,-25.033202],[-55.798067,-25.033216],[-55.796895,-25.032561],[-55.796899,-25.034254],[-55.795268,-25.034634],[-55.795194,-25.035076],[-55.794712,-25.0349],[-55.794498,-25.035355],[-55.794769,-25.035578],[-55.794269,-25.035628],[-55.794149,-25.036413],[-55.795029,-25.037747],[-55.794355,-25.038026],[-55.79466,-25.040946],[-55.792827,-25.040947],[-55.791814,-25.041333],[-55.791657,-25.041711],[-55.791294,-25.041576],[-55.790331,-25.041963],[-55.789426,-25.041638],[-55.788596,-25.042327],[-55.789195,-25.042711],[-55.789055,-25.043158],[-55.788462,-25.043061],[-55.788228,-25.04268],[-55.787554,-25.042968],[-55.787235,-25.043553],[-55.785995,-25.043667],[-55.785898,-25.043109],[-55.785525,-25.043114],[-55.785026,-25.043829],[-55.78554,-25.044196],[-55.785545,-25.044529],[-55.784899,-25.044663],[-55.784785,-25.045041],[-55.784474,-25.044729],[-55.783301,-25.044928],[-55.780006,-25.046834],[-55.780067,-25.047515],[-55.780639,-25.048084],[-55.780446,-25.048708],[-55.779537,-25.048739],[-55.778972,-25.04926],[-55.778224,-25.049363],[-55.77795,-25.050504],[-55.77761,-25.050525],[-55.777401,-25.05108],[-55.776646,-25.051066],[-55.776793,-25.051593],[-55.775283,-25.05325],[-55.774708,-25.053083],[-55.773941,-25.053409],[-55.773519,-25.053181],[-55.7725,-25.053721],[-55.771744,-25.053267],[-55.770921,-25.053268],[-55.769527,-25.054339],[-55.769217,-25.053873],[-55.769023,-25.054683],[-55.768518,-25.055119],[-55.768657,-25.055553],[-55.768048,-25.055432],[-55.766734,-25.056117],[-55.766832,-25.0556],[-55.766595,-25.055583],[-55.766329,-25.055897],[-55.76582,-25.055847],[-55.765553,-25.056192],[-55.76397,-25.056697],[-55.763588,-25.055836],[-55.763409,-25.05677],[-55.762926,-25.056712],[-55.763076,-25.056079],[-55.761848,-25.057538],[-55.761767,-25.058039],[-55.761225,-25.057826],[-55.760752,-25.05851],[-55.760289,-25.058089],[-55.759744,-25.058316],[-55.759578,-25.057897],[-55.758738,-25.057929],[-55.757952,-25.057582],[-55.757727,-25.05799],[-55.756714,-25.058353],[-55.756212,-25.059222],[-55.75584,-25.059119],[-55.755519,-25.059804],[-55.755071,-25.059646],[-55.754793,-25.060277],[-55.753924,-25.060595],[-55.753286,-25.061602],[-55.752801,-25.061652],[-55.7522,-25.062389],[-55.751578,-25.062593],[-55.751864,-25.062896],[-55.751684,-25.063081],[-55.750699,-25.063072],[-55.750744,-25.063691],[-55.750404,-25.063704],[-55.75018,-25.063199],[-55.74857,-25.064662],[-55.748196,-25.064636],[-55.748329,-25.064158],[-55.748007,-25.064039],[-55.747868,-25.065228],[-55.748272,-25.065526],[-55.747474,-25.065604],[-55.747617,-25.066548],[-55.747042,-25.066312],[-55.746601,-25.067954],[-55.745497,-25.068038],[-55.743653,-25.070759],[-55.742923,-25.070761],[-55.743183,-25.07016],[-55.742569,-25.069683],[-55.742569,-25.06884],[-55.742057,-25.069091],[-55.741575,-25.068902],[-55.740574,-25.069697],[-55.739406,-25.071813],[-55.739423,-25.072679],[-55.738134,-25.073403],[-55.738053,-25.073835],[-55.736972,-25.074931],[-55.736065,-25.074792],[-55.73482,-25.075431],[-55.734192,-25.077837],[-55.733646,-25.078103],[-55.733661,-25.079116],[-55.733128,-25.078934],[-55.732836,-25.079248],[-55.732534,-25.078913],[-55.730879,-25.079757],[-55.729996,-25.079804],[-55.73104,-25.081382],[-55.729673,-25.081463],[-55.729683,-25.082159],[-55.728649,-25.082843],[-55.728546,-25.083813],[-55.729061,-25.085542],[-55.727174,-25.087359],[-55.724762,-25.091194],[-55.720612,-25.094576],[-55.718808,-25.095635],[-55.717694,-25.097305],[-55.714919,-25.096883],[-55.713026,-25.097061],[-55.711463,-25.097824],[-55.710567,-25.098895],[-55.709492,-25.099495],[-55.708129,-25.103619],[-55.707895,-25.105369],[-55.705801,-25.111459],[-55.704394,-25.128181],[-55.714573,-25.128486],[-55.686789,-25.169423],[-55.687896,-25.173907],[-55.688051,-25.176289],[-55.688851,-25.175919],[-55.689786,-25.174802],[-55.690345,-25.174632],[-55.691455,-25.175022],[-55.691538,-25.175467],[-55.69302,-25.175242],[-55.693081,-25.176051],[-55.693816,-25.175741],[-55.694578,-25.176175],[-55.69438,-25.176744],[-55.695354,-25.176627],[-55.695389,-25.177043],[-55.695838,-25.17734],[-55.697376,-25.176952],[-55.697476,-25.177501],[-55.698222,-25.177231],[-55.69911,-25.17754],[-55.699506,-25.178467],[-55.701963,-25.178894],[-55.702292,-25.179446],[-55.703054,-25.179156],[-55.704548,-25.179192],[-55.705463,-25.178489],[-55.707675,-25.177617],[-55.708305,-25.178196],[-55.709358,-25.176547],[-55.711952,-25.175757],[-55.712521,-25.176251],[-55.714194,-25.176509],[-55.71451,-25.176919],[-55.715191,-25.176512],[-55.715561,-25.177066],[-55.716113,-25.177266],[-55.719686,-25.176798],[-55.721406,-25.178065],[-55.720958,-25.178714],[-55.723717,-25.178671],[-55.724006,-25.179585],[-55.724483,-25.179288],[-55.727036,-25.17903],[-55.727077,-25.179802],[-55.727504,-25.179968],[-55.728058,-25.179207],[-55.729632,-25.17939],[-55.729924,-25.178879],[-55.73085,-25.179868],[-55.731324,-25.179473],[-55.731906,-25.179585],[-55.73232,-25.179012],[-55.732327,-25.179535],[-55.733348,-25.180341],[-55.733592,-25.179624],[-55.735004,-25.178638],[-55.735471,-25.178818],[-55.735999,-25.178285],[-55.736874,-25.178868],[-55.738045,-25.177417],[-55.738892,-25.177226],[-55.738796,-25.176617],[-55.739138,-25.17644],[-55.740326,-25.176476],[-55.739949,-25.177066],[-55.740726,-25.177272],[-55.741525,-25.178063],[-55.741808,-25.177704],[-55.743512,-25.1776],[-55.744158,-25.177993],[-55.744618,-25.177212],[-55.745269,-25.177718],[-55.745953,-25.177761],[-55.746328,-25.177435],[-55.746172,-25.176739],[-55.746597,-25.176221],[-55.745929,-25.175246],[-55.749067,-25.173777],[-55.750373,-25.173842],[-55.750471,-25.173289],[-55.751167,-25.173218],[-55.751415,-25.172833],[-55.753073,-25.173013],[-55.752883,-25.172444],[-55.753437,-25.172099],[-55.753343,-25.171461],[-55.754304,-25.171434],[-55.753896,-25.170532],[-55.75418,-25.1694],[-55.754882,-25.169513],[-55.755293,-25.169163],[-55.755465,-25.16982],[-55.756205,-25.17008],[-55.758585,-25.171902],[-55.760178,-25.171668],[-55.760626,-25.170755],[-55.761137,-25.170417],[-55.761556,-25.171446],[-55.761899,-25.170951],[-55.762525,-25.171496],[-55.763625,-25.171125],[-55.76519,-25.171049],[-55.765884,-25.170495],[-55.766545,-25.168568],[-55.767531,-25.169282],[-55.76812,-25.1692],[-55.768371,-25.167818],[-55.76901,-25.167495],[-55.768963,-25.166793],[-55.769577,-25.16672],[-55.769454,-25.166183],[-55.770115,-25.16613],[-55.770152,-25.165561],[-55.771229,-25.164911],[-55.770739,-25.164496],[-55.770791,-25.164105],[-55.773147,-25.164076],[-55.7749,-25.162992],[-55.77732,-25.162916],[-55.778473,-25.163399],[-55.779513,-25.162695],[-55.780172,-25.162891],[-55.780284,-25.162362],[-55.78276,-25.161961],[-55.782633,-25.161029],[-55.784073,-25.160154],[-55.784682,-25.160367],[-55.784779,-25.159623],[-55.785467,-25.159405],[-55.785393,-25.158924],[-55.786465,-25.158786],[-55.787932,-25.157159],[-55.788588,-25.157087],[-55.789659,-25.157514],[-55.790931,-25.157146],[-55.791889,-25.157535],[-55.792091,-25.156185],[-55.792545,-25.155488],[-55.793816,-25.155676],[-55.794079,-25.156198],[-55.794789,-25.156167],[-55.794306,-25.156782],[-55.79502,-25.157621],[-55.796251,-25.15794],[-55.797944,-25.15977],[-55.798614,-25.159468],[-55.798709,-25.159906],[-55.799207,-25.160143],[-55.799117,-25.160476],[-55.800854,-25.160586],[-55.801327,-25.161988],[-55.802414,-25.162187],[-55.802353,-25.163147],[-55.803083,-25.16395],[-55.802389,-25.164003],[-55.801781,-25.164747],[-55.802667,-25.164677],[-55.802422,-25.165523],[-55.802686,-25.165659],[-55.803794,-25.164756],[-55.804428,-25.164786],[-55.803954,-25.166117],[-55.805004,-25.16652],[-55.804537,-25.167008],[-55.804944,-25.167436],[-55.805026,-25.168214],[-55.806153,-25.168445],[-55.806822,-25.169035],[-55.808397,-25.168991],[-55.809688,-25.168602],[-55.811125,-25.16773],[-55.81207,-25.167753],[-55.811927,-25.167318],[-55.812171,-25.167084],[-55.813162,-25.167031],[-55.813137,-25.167286],[-55.812431,-25.167575],[-55.813333,-25.167774],[-55.81294,-25.168376],[-55.813801,-25.169094],[-55.814033,-25.169976],[-55.814983,-25.171099],[-55.815749,-25.171427],[-55.815956,-25.171904],[-55.815604,-25.172381],[-55.816366,-25.172954],[-55.817419,-25.173175],[-55.817369,-25.174562],[-55.818661,-25.176605],[-55.818689,-25.177331],[-55.818331,-25.177976],[-55.819288,-25.178547],[-55.820779,-25.178686],[-55.820916,-25.179098],[-55.821789,-25.179137],[-55.821638,-25.179812],[-55.822313,-25.18061],[-55.822846,-25.180612],[-55.823177,-25.179392],[-55.825093,-25.179707],[-55.825056,-25.180756],[-55.825851,-25.180749],[-55.826456,-25.180244],[-55.827273,-25.180219],[-55.829384,-25.177921],[-55.829863,-25.177899],[-55.829885,-25.176831],[-55.83058,-25.176652],[-55.830102,-25.176259],[-55.83021,-25.175942],[-55.831554,-25.175415],[-55.832085,-25.175569],[-55.832113,-25.174879],[-55.833582,-25.174437],[-55.833376,-25.173952],[-55.832736,-25.173919],[-55.832643,-25.173414],[-55.833059,-25.173134],[-55.832339,-25.172437],[-55.832673,-25.171671],[-55.833295,-25.171543],[-55.833359,-25.169856],[-55.834362,-25.169609],[-55.834244,-25.168861],[-55.835045,-25.168617],[-55.834777,-25.165204],[-55.836704,-25.165029],[-55.83716,-25.164587],[-55.83777,-25.164568],[-55.837832,-25.164221],[-55.837388,-25.163718],[-55.837443,-25.162871],[-55.839248,-25.162949],[-55.840312,-25.16276],[-55.840837,-25.162375],[-55.84134,-25.162731],[-55.841619,-25.16203],[-55.842444,-25.162525],[-55.842788,-25.161682],[-55.843707,-25.161808],[-55.843893,-25.161005],[-55.845073,-25.161318],[-55.845818,-25.161073],[-55.846093,-25.161839],[-55.846571,-25.161832],[-55.846847,-25.161676],[-55.846796,-25.16125],[-55.847483,-25.161139],[-55.847508,-25.160448],[-55.848358,-25.160307],[-55.849163,-25.160533],[-55.849956,-25.159657],[-55.850378,-25.160238],[-55.851067,-25.160357],[-55.8514,-25.160895],[-55.85328,-25.161444],[-55.85422,-25.161415],[-55.855467,-25.160532],[-55.856419,-25.160641],[-55.857302,-25.160336],[-55.857843,-25.159362],[-55.858615,-25.159447],[-55.85925,-25.158748],[-55.860259,-25.158754],[-55.861103,-25.15744],[-55.862312,-25.156715],[-55.862725,-25.157256],[-55.863394,-25.156411],[-55.864092,-25.157078],[-55.864799,-25.156977],[-55.865415,-25.156635],[-55.865707,-25.155823],[-55.866802,-25.155123],[-55.867388,-25.15524],[-55.867541,-25.155872],[-55.868741,-25.156069],[-55.869277,-25.155051],[-55.870101,-25.155302],[-55.871104,-25.154359],[-55.872165,-25.154162],[-55.872242,-25.153287],[-55.87408,-25.153295],[-55.874975,-25.151817],[-55.875928,-25.15104],[-55.876397,-25.151084],[-55.87673,-25.15028],[-55.877056,-25.150374],[-55.877188,-25.150964],[-55.877733,-25.150368],[-55.877812,-25.151133],[-55.878303,-25.151036],[-55.878646,-25.151412],[-55.879222,-25.151478],[-55.879764,-25.150239],[-55.879346,-25.149962],[-55.879374,-25.149547],[-55.880164,-25.148109],[-55.879917,-25.147322],[-55.880891,-25.146299],[-55.880952,-25.145884],[-55.881545,-25.145988],[-55.881349,-25.14474],[-55.882214,-25.143907],[-55.881724,-25.14137],[-55.882079,-25.141012],[-55.883009,-25.140834],[-55.882897,-25.139903],[-55.883438,-25.13992],[-55.883193,-25.13935],[-55.883799,-25.139246],[-55.88379,-25.138907],[-55.883344,-25.138682],[-55.884252,-25.138486],[-55.8847,-25.138061],[-55.886048,-25.138301],[-55.88611,-25.137832],[-55.886829,-25.137824],[-55.886598,-25.137357],[-55.887398,-25.137327],[-55.887184,-25.136856],[-55.887637,-25.136927],[-55.887497,-25.136343],[-55.888287,-25.136002],[-55.888312,-25.136679],[-55.889519,-25.136458],[-55.940699,-25.214566]]]}}]}
