{"type":"FeatureCollection","name":"distrito","features":[{"type":"Feature","properties":{"clave":"11-7","nombre":"Itá"},"geometry":{"type":"Polygon","coordinates":[[[-57.3396,-25.582822],[-57.342028,-25.584094],[-57.342615,-25.584933],[-57.343971,-25.589115],[-57.343216,-25.591058],[-57.34375,-25.592836],[-57.343923,-25.595504],[-57.343391,-25.598201],[-57.342952,-25.598852],[-57.344127,-25.601247],[-57.343425,-25.602829],[-57.343703,-25.603329],[-57.343211,-25.604848],[-57.343607,-25.604562],[-57.343593,-25.605375],[-57.344167,-25.605712],[-57.344334,-25.606294],[-57.343612,-25.608228],[-57.343713,-25.608734],[-57.343119,-25.609051],[-57.343032,-25.609611],[-57.345399,-25.612423],[-57.346437,-25.613039],[-57.355131,-25.615976],[-57.358204,-25.619066],[-57.358998,-25.619145],[-57.359482,-25.618724],[-57.359499,-25.616968],[-57.360513,-25.617024],[-57.363187,-25.620092],[-57.364505,-25.62236],[-57.364929,-25.622621],[-57.368674,-25.622828],[-57.369181,-25.62475],[-57.370384,-25.624318],[-57.371201,-25.624438],[-57.371323,-25.625341],[-57.3729,-25.627522],[-57.373117,-25.629147],[-57.374822,-25.631982],[-57.375689,-25.632802],[-57.376068,-25.633939],[-57.377222,-25.635317],[-57.377799,-25.635686],[-57.380214,-25.635969],[-57.381196,-25.636978],[-57.382357,-25.635995],[-57.383228,-25.636665],[-57.384203,-25.636667],[-57.385636,-25.637309],[-57.386523,-25.637199],[-57.386875,-25.637473],[-57.386954,-25.6381],[-57.388147,-25.639093],[-57.389663,-25.639231],[-57.390383,-25.639736],[-57.391686,-25.639935],[-57.391876,-25.639421],[-57.391217,-25.638242],[-57.38985,-25.637782],[-57.389734,-25.636609],[-57.390388,-25.636195],[-57.391647,-25.636136],[-57.392426,-25.635083],[-57.392955,-25.63489],[-57.393602,-25.6349],[-57.394923,-25.636062],[-57.395069,-25.635537],[-57.394489,-25.633964],[-57.394839,-25.633355],[-57.394695,-25.631666],[-57.396052,-25.629808],[-57.396366,-25.628301],[-57.397124,-25.6283],[-57.397279,-25.628067],[-57.39744,-25.626785],[-57.398131,-25.625943],[-57.395811,-25.624093],[-57.395337,-25.622487],[-57.393734,-25.620902],[-57.394107,-25.620057],[-57.393855,-25.618717],[-57.395075,-25.617567],[-57.394575,-25.616674],[-57.394747,-25.615748],[-57.39559,-25.615046],[-57.396806,-25.614695],[-57.39723,-25.613646],[-57.398307,-25.614357],[-57.399204,-25.61407],[-57.400984,-25.612223],[-57.401076,-25.611392],[-57.401698,-25.610925],[-57.401432,-25.61051],[-57.400559,-25.610431],[-57.401504,-25.609548],[-57.401399,-25.608406],[-57.402944,-25.608072],[-57.403497,-25.609024],[-57.404376,-25.608524],[-57.404716,-25.60753],[-57.40555,-25.606548],[-57.406698,-25.606026],[-57.40735,-25.604796],[-57.408176,-25.604234],[-57.40919,-25.604411],[-57.41031,-25.603465],[-57.410718,-25.602687],[-57.411579,-25.602224],[-57.411687,-25.601005],[-57.412271,-25.601053],[-57.412524,-25.600551],[-57.413145,-25.60045],[-57.413916,-25.599328],[-57.413629,-25.5988],[-57.415386,-25.597545],[-57.415254,-25.59698],[-57.414209,-25.59641],[-57.414618,-25.595122],[-57.414539,-25.593826],[-57.413071,-25.591465],[-57.413162,-25.590805],[-57.41495,-25.589464],[-57.416083,-25.587429],[-57.41922,-25.586472],[-57.420113,-25.585607],[-57.421695,-25.58339],[-57.422384,-25.580259],[-57.423246,-25.578536],[-57.423986,-25.577807],[-57.423868,-25.574434],[-57.424449,-25.573245],[-57.424742,-25.571312],[-57.424323,-25.570275],[-57.424564,-25.566852],[-57.426652,-25.564276],[-57.4271,-25.56283],[-57.42683,-25.561571],[-57.42627,-25.560674],[-57.426087,-25.559063],[-57.426341,-25.556918],[-57.424949,-25.556502],[-57.424966,-25.555603],[-57.423187,-25.555238],[-57.423352,-25.554344],[-57.422962,-25.553455],[-57.424868,-25.551553],[-57.424354,-25.55109],[-57.423722,-25.549547],[-57.422622,-25.549095],[-57.42265,-25.548115],[-57.423423,-25.547688],[-57.423389,-25.547183],[-57.42232,-25.546436],[-57.421734,-25.546356],[-57.421151,-25.54681],[-57.420794,-25.546431],[-57.420859,-25.544092],[-57.421285,-25.543491],[-57.421767,-25.543575],[-57.42189,-25.542884],[-57.421689,-25.542334],[-57.420388,-25.541064],[-57.420535,-25.53807],[-57.419871,-25.536677],[-57.420523,-25.534873],[-57.421473,-25.534451],[-57.421816,-25.533827],[-57.422797,-25.533309],[-57.423983,-25.531685],[-57.424651,-25.531417],[-57.42694,-25.531383],[-57.428618,-25.52968],[-57.429131,-25.527069],[-57.430652,-25.525583],[-57.431337,-25.521428],[-57.431001,-25.520878],[-57.430269,-25.520785],[-57.429815,-25.519649],[-57.428477,-25.519494],[-57.428204,-25.51917],[-57.428767,-25.518658],[-57.42871,-25.517417],[-57.42928,-25.516201],[-57.429261,-25.513564],[-57.427979,-25.505892],[-57.427572,-25.500195],[-57.427321,-25.500176],[-57.423706,-25.477639],[-57.423366,-25.474032],[-57.422077,-25.467227],[-57.428444,-25.459173],[-57.405701,-25.449667],[-57.405795,-25.449302],[-57.404312,-25.447369],[-57.403179,-25.447366],[-57.403073,-25.44695],[-57.402247,-25.446402],[-57.401536,-25.4446],[-57.392496,-25.445407],[-57.357622,-25.451446],[-57.33647,-25.454315],[-57.329351,-25.455803],[-57.320349,-25.459373],[-57.312084,-25.461159],[-57.314145,-25.470153],[-57.314784,-25.474389],[-57.316105,-25.4855],[-57.317124,-25.499341],[-57.318265,-25.510015],[-57.320221,-25.51582],[-57.322905,-25.528435],[-57.324094,-25.546202],[-57.32602,-25.551356],[-57.328906,-25.565517],[-57.330736,-25.578901],[-57.332368,-25.581407],[-57.332603,-25.582531],[-57.332977,-25.582508],[-57.332747,-25.582865],[-57.333485,-25.582877],[-57.333949,-25.583472],[-57.333985,-25.584163],[-57.334536,-25.584247],[-57.334884,-25.584734],[-57.335338,-25.58327],[-57.336118,-25.582618],[-57.336637,-25.583086],[-57.3396,-25.582822]]]}}]}
