{"type":"FeatureCollection","name":"distrito","features":[{"type":"Feature","properties":{"clave":"6-1","nombre":"Abaí"},"geometry":{"type":"Polygon","coordinates":[[[-55.900256,-26.108707],[-55.902031,-26.108143],[-55.902778,-26.109042],[-55.904698,-26.110005],[-55.907119,-26.10996],[-55.926982,-26.091366],[-55.968379,-26.07054],[-55.970563,-26.071102],[-55.973221,-26.073256],[-55.975215,-26.074412],[-55.975079,-26.075793],[-55.975516,-26.07701],[-55.976423,-26.077595],[-55.976884,-26.078289],[-55.97934,-26.078866],[-55.980845,-26.080867],[-55.981875,-26.081525],[-55.983241,-26.081963],[-55.984467,-26.081818],[-55.987334,-26.083581],[-55.989574,-26.084003],[-55.991925,-26.08392],[-55.994792,-26.082021],[-55.993403,-26.079953],[-55.992572,-26.076354],[-55.991768,-26.074863],[-55.990926,-26.074148],[-55.988812,-26.07333],[-55.987619,-26.072008],[-55.986989,-26.07041],[-55.986657,-26.0682],[-55.982856,-26.060612],[-55.981769,-26.057191],[-55.982042,-26.055148],[-55.982551,-26.054998],[-55.983131,-26.053192],[-55.984158,-26.051872],[-55.984648,-26.050318],[-55.986644,-26.047492],[-55.986046,-26.046657],[-55.987285,-26.046436],[-55.987938,-26.045899],[-55.988417,-26.041893],[-55.989152,-26.041217],[-55.989305,-26.040242],[-55.98985,-26.039601],[-55.989973,-26.036798],[-55.990513,-26.035204],[-55.990374,-26.03439],[-55.992534,-26.027539],[-55.992131,-26.025599],[-55.990446,-26.022599],[-55.990275,-26.021799],[-55.990619,-26.020334],[-55.994164,-26.014396],[-55.994448,-26.013471],[-55.993823,-26.00888],[-55.99108,-26.002505],[-55.991372,-26.001595],[-55.992574,-26.000057],[-55.993226,-25.995441],[-55.993648,-25.9945],[-55.992995,-25.992496],[-55.990786,-25.991013],[-55.999427,-25.984514],[-55.999197,-25.982508],[-55.999603,-25.981057],[-55.999104,-25.978954],[-55.999587,-25.979097],[-55.999752,-25.978846],[-55.999475,-25.976889],[-55.99992,-25.97459],[-55.999131,-25.973302],[-55.999291,-25.970956],[-55.99831,-25.97015],[-55.999652,-25.969595],[-55.999065,-25.96765],[-55.996777,-25.967056],[-55.995618,-25.966262],[-55.993987,-25.967059],[-55.992882,-25.967245],[-55.990519,-25.96624],[-55.988727,-25.965041],[-55.989041,-25.963747],[-55.988867,-25.961913],[-55.992629,-25.960535],[-55.993674,-25.958556],[-55.994619,-25.957741],[-55.996676,-25.957074],[-55.997151,-25.957235],[-55.998901,-25.956525],[-55.999169,-25.956116],[-55.999007,-25.954133],[-55.998168,-25.951337],[-55.999178,-25.948351],[-55.997747,-25.947753],[-55.995574,-25.947399],[-55.992949,-25.947381],[-55.992197,-25.947647],[-55.991685,-25.947256],[-55.991833,-25.946288],[-55.994112,-25.942981],[-55.993016,-25.939583],[-55.992348,-25.938696],[-55.992058,-25.937474],[-55.992218,-25.93639],[-55.991184,-25.934484],[-55.993886,-25.929307],[-55.99665,-25.926723],[-55.997884,-25.92514],[-55.999453,-25.92479],[-55.999735,-25.924153],[-56.000074,-25.924072],[-56.000269,-25.924374],[-56.000781,-25.923938],[-56.005308,-25.922714],[-56.00921,-25.922469],[-56.02716,-25.892457],[-56.023531,-25.890631],[-56.02072,-25.887921],[-56.019295,-25.887524],[-56.018619,-25.885925],[-56.017391,-25.884256],[-56.015182,-25.883925],[-56.013036,-25.882565],[-56.011771,-25.882168],[-56.010418,-25.879883],[-56.009724,-25.877418],[-56.007116,-25.874407],[-56.003622,-25.873331],[-55.999246,-25.873559],[-55.998056,-25.873148],[-55.996005,-25.870028],[-55.995712,-25.868211],[-55.994744,-25.867374],[-55.994291,-25.866152],[-55.99361,-25.865646],[-55.99343,-25.864864],[-55.992091,-25.863776],[-55.991806,-25.862907],[-55.989141,-25.859566],[-55.986525,-25.858134],[-55.986647,-25.857598],[-55.986016,-25.857174],[-55.985997,-25.856695],[-55.983367,-25.854383],[-55.979345,-25.854653],[-55.977098,-25.853671],[-55.974202,-25.853113],[-55.972715,-25.853184],[-55.964173,-25.855227],[-55.962844,-25.856111],[-55.959165,-25.856979],[-55.955805,-25.856467],[-55.95324,-25.855587],[-55.951457,-25.85547],[-55.949131,-25.855792],[-55.946529,-25.856653],[-55.945132,-25.855424],[-55.943979,-25.854987],[-55.939454,-25.854367],[-55.935799,-25.854337],[-55.912352,-25.876041],[-55.911612,-25.874485],[-55.911379,-25.872989],[-55.908942,-25.871797],[-55.906151,-25.87109],[-55.903643,-25.8688],[-55.900777,-25.867528],[-55.90005,-25.865834],[-55.899399,-25.865138],[-55.895489,-25.862879],[-55.890964,-25.857815],[-55.889937,-25.857414],[-55.888979,-25.856256],[-55.887567,-25.855247],[-55.886412,-25.853712],[-55.886152,-25.852681],[-55.884104,-25.850205],[-55.882557,-25.84692],[-55.88176,-25.84356],[-55.880119,-25.84124],[-55.878117,-25.839148],[-55.8763,-25.8362],[-55.875933,-25.833921],[-55.876972,-25.831708],[-55.876375,-25.831009],[-55.876417,-25.830377],[-55.875464,-25.829923],[-55.875162,-25.827925],[-55.874435,-25.827043],[-55.873442,-25.82713],[-55.873163,-25.82623],[-55.870887,-25.825206],[-55.870937,-25.824709],[-55.871901,-25.824125],[-55.87064,-25.823172],[-55.870924,-25.822754],[-55.869329,-25.821699],[-55.869113,-25.820749],[-55.867591,-25.819641],[-55.864702,-25.818602],[-55.863407,-25.818506],[-55.862869,-25.817658],[-55.863486,-25.817184],[-55.86246,-25.816553],[-55.861942,-25.817876],[-55.861334,-25.81817],[-55.860184,-25.817682],[-55.860148,-25.817072],[-55.858088,-25.816],[-55.857935,-25.81473],[-55.857449,-25.814979],[-55.857275,-25.814734],[-55.857427,-25.814297],[-55.858062,-25.814189],[-55.857943,-25.813728],[-55.853803,-25.811637],[-55.853134,-25.810394],[-55.854081,-25.808795],[-55.853219,-25.809632],[-55.852584,-25.807948],[-55.850241,-25.806968],[-55.848368,-25.805395],[-55.848042,-25.80463],[-55.848391,-25.80387],[-55.84804,-25.802959],[-55.848217,-25.802523],[-55.847753,-25.802172],[-55.847659,-25.801638],[-55.846151,-25.80247],[-55.845305,-25.802112],[-55.843626,-25.80213],[-55.840715,-25.800748],[-55.840417,-25.800894],[-55.84028,-25.800609],[-55.839518,-25.801149],[-55.838673,-25.801029],[-55.837269,-25.800598],[-55.836257,-25.799859],[-55.835615,-25.800143],[-55.834947,-25.801875],[-55.834556,-25.801416],[-55.834335,-25.8015],[-55.834111,-25.80232],[-55.833617,-25.800966],[-55.832166,-25.801248],[-55.83139,-25.80052],[-55.830825,-25.800524],[-55.829955,-25.799668],[-55.828592,-25.800055],[-55.828125,-25.799193],[-55.826675,-25.798405],[-55.826558,-25.797822],[-55.824676,-25.797752],[-55.823814,-25.797235],[-55.823313,-25.798482],[-55.822614,-25.799149],[-55.821785,-25.798858],[-55.821479,-25.798489],[-55.821876,-25.797594],[-55.821237,-25.796758],[-55.819471,-25.796211],[-55.820686,-25.795296],[-55.820623,-25.794573],[-55.820252,-25.794556],[-55.820327,-25.79406],[-55.818154,-25.792503],[-55.817436,-25.79131],[-55.817592,-25.790418],[-55.817067,-25.790878],[-55.816536,-25.790517],[-55.817161,-25.78975],[-55.81675,-25.789156],[-55.816195,-25.788975],[-55.816864,-25.788768],[-55.816938,-25.78829],[-55.814619,-25.78689],[-55.814985,-25.785877],[-55.813625,-25.784088],[-55.81109,-25.784415],[-55.810167,-25.784023],[-55.808246,-25.785014],[-55.807401,-25.786691],[-55.806115,-25.786595],[-55.805374,-25.786241],[-55.804741,-25.78704],[-55.804233,-25.786787],[-55.804479,-25.787502],[-55.803747,-25.786779],[-55.801023,-25.787081],[-55.800659,-25.788094],[-55.802658,-25.789126],[-55.802656,-25.789442],[-55.802027,-25.789649],[-55.801837,-25.790266],[-55.802009,-25.790927],[-55.802505,-25.791238],[-55.800379,-25.792507],[-55.800145,-25.792103],[-55.799146,-25.792551],[-55.799229,-25.793183],[-55.799764,-25.79345],[-55.799677,-25.794054],[-55.800143,-25.794369],[-55.798987,-25.795561],[-55.798127,-25.794935],[-55.796472,-25.794461],[-55.796665,-25.793645],[-55.796415,-25.792885],[-55.797367,-25.792256],[-55.796704,-25.791975],[-55.797639,-25.791676],[-55.795872,-25.78954],[-55.795343,-25.789165],[-55.795174,-25.78938],[-55.79545,-25.789798],[-55.794819,-25.79],[-55.794252,-25.789386],[-55.793108,-25.789129],[-55.79318,-25.7888],[-55.792694,-25.788832],[-55.79264,-25.788145],[-55.792009,-25.787955],[-55.792009,-25.788713],[-55.791118,-25.78778],[-55.790902,-25.78823],[-55.79021,-25.788463],[-55.789392,-25.78833],[-55.789678,-25.787213],[-55.788793,-25.787043],[-55.788908,-25.786579],[-55.788428,-25.786476],[-55.78806,-25.785972],[-55.786814,-25.786115],[-55.786566,-25.785521],[-55.785107,-25.785581],[-55.785543,-25.784953],[-55.784804,-25.784599],[-55.785271,-25.783511],[-55.784592,-25.782787],[-55.784854,-25.781805],[-55.784645,-25.781587],[-55.78405,-25.781871],[-55.783599,-25.781257],[-55.783231,-25.781494],[-55.781496,-25.779335],[-55.780587,-25.779724],[-55.780197,-25.77834],[-55.779188,-25.778539],[-55.779403,-25.778071],[-55.778659,-25.77765],[-55.779264,-25.777384],[-55.778799,-25.776608],[-55.777106,-25.776752],[-55.775981,-25.777677],[-55.775876,-25.77666],[-55.774884,-25.777094],[-55.773867,-25.776774],[-55.774395,-25.776147],[-55.773818,-25.775546],[-55.772707,-25.775541],[-55.77215,-25.77615],[-55.771668,-25.77592],[-55.771488,-25.77633],[-55.771019,-25.775337],[-55.771639,-25.7749],[-55.770974,-25.774709],[-55.770014,-25.77513],[-55.770463,-25.776398],[-55.769886,-25.776772],[-55.769432,-25.776678],[-55.76893,-25.775784],[-55.767247,-25.775937],[-55.766886,-25.775668],[-55.766587,-25.776031],[-55.766315,-25.775807],[-55.765722,-25.776114],[-55.764851,-25.777402],[-55.763911,-25.777087],[-55.76304,-25.77759],[-55.763305,-25.778075],[-55.762612,-25.778232],[-55.762526,-25.777071],[-55.761353,-25.778691],[-55.760918,-25.778511],[-55.76028,-25.7779],[-55.759986,-25.777103],[-55.761053,-25.775542],[-55.759881,-25.775039],[-55.757838,-25.775067],[-55.75769,-25.774754],[-55.757484,-25.775154],[-55.757005,-25.774582],[-55.756557,-25.774989],[-55.756686,-25.773965],[-55.755806,-25.773732],[-55.756036,-25.773088],[-55.756613,-25.773052],[-55.756216,-25.772579],[-55.756317,-25.772093],[-55.756043,-25.771991],[-55.755619,-25.772394],[-55.755688,-25.771663],[-55.755155,-25.771857],[-55.756516,-25.76944],[-55.757008,-25.76925],[-55.75783,-25.769699],[-55.757905,-25.768716],[-55.758341,-25.768675],[-55.758349,-25.768359],[-55.759422,-25.768192],[-55.759106,-25.767878],[-55.759479,-25.767659],[-55.758453,-25.766594],[-55.759045,-25.76627],[-55.758237,-25.766177],[-55.75819,-25.765473],[-55.757387,-25.76561],[-55.757275,-25.764937],[-55.758146,-25.764326],[-55.758161,-25.763897],[-55.758604,-25.763851],[-55.758248,-25.763509],[-55.758902,-25.763185],[-55.759098,-25.762713],[-55.75804,-25.760979],[-55.758029,-25.760478],[-55.758425,-25.760468],[-55.758738,-25.761423],[-55.759138,-25.761625],[-55.759688,-25.761142],[-55.759981,-25.76031],[-55.760433,-25.760404],[-55.760373,-25.759812],[-55.759912,-25.759822],[-55.758755,-25.759117],[-55.758333,-25.758079],[-55.757715,-25.757735],[-55.755063,-25.758146],[-55.75512,-25.757713],[-55.753594,-25.757231],[-55.754119,-25.756761],[-55.753904,-25.756118],[-55.75316,-25.755457],[-55.752442,-25.755695],[-55.752171,-25.754036],[-55.754037,-25.754381],[-55.755364,-25.753711],[-55.755315,-25.752478],[-55.754666,-25.752364],[-55.754082,-25.753054],[-55.75409,-25.752156],[-55.754507,-25.751501],[-55.754392,-25.751062],[-55.754826,-25.751011],[-55.75465,-25.750414],[-55.755612,-25.749655],[-55.756894,-25.747097],[-55.757402,-25.747052],[-55.757647,-25.747473],[-55.756845,-25.749345],[-55.757636,-25.748656],[-55.759764,-25.748751],[-55.760553,-25.748193],[-55.759879,-25.746477],[-55.761644,-25.74112],[-55.761116,-25.740185],[-55.761811,-25.739848],[-55.760706,-25.739545],[-55.760675,-25.739265],[-55.761391,-25.738783],[-55.761147,-25.738289],[-55.761833,-25.737541],[-55.76217,-25.737431],[-55.762648,-25.737729],[-55.76237,-25.73681],[-55.761984,-25.737177],[-55.761781,-25.737004],[-55.763006,-25.735601],[-55.762617,-25.734334],[-55.763133,-25.734442],[-55.763287,-25.73503],[-55.764095,-25.734509],[-55.764052,-25.733786],[-55.764798,-25.73284],[-55.764056,-25.731962],[-55.762392,-25.731591],[-55.762445,-25.729104],[-55.76321,-25.728204],[-55.763856,-25.729071],[-55.764728,-25.727864],[-55.764389,-25.727396],[-55.765058,-25.7271],[-55.765268,-25.726668],[-55.764435,-25.725857],[-55.764567,-25.724838],[-55.764025,-25.724883],[-55.763854,-25.724421],[-55.762454,-25.724834],[-55.762709,-25.724136],[-55.761593,-25.723951],[-55.762523,-25.723616],[-55.762231,-25.723044],[-55.762756,-25.723004],[-55.7619,-25.721868],[-55.762431,-25.720865],[-55.76204,-25.720921],[-55.762604,-25.720199],[-55.761872,-25.720441],[-55.761743,-25.720178],[-55.761767,-25.719691],[-55.762307,-25.719813],[-55.761708,-25.718882],[-55.762329,-25.718743],[-55.762213,-25.717974],[-55.759513,-25.717879],[-55.758683,-25.716947],[-55.757334,-25.719084],[-55.756625,-25.719037],[-55.757139,-25.718202],[-55.756501,-25.718075],[-55.755838,-25.718633],[-55.754665,-25.718885],[-55.754775,-25.719861],[-55.754487,-25.720125],[-55.754098,-25.719431],[-55.752993,-25.719485],[-55.752556,-25.719025],[-55.750491,-25.718493],[-55.749722,-25.717755],[-55.747638,-25.717466],[-55.74725,-25.71675],[-55.747467,-25.716164],[-55.746422,-25.715275],[-55.742537,-25.714352],[-55.741786,-25.713258],[-55.742147,-25.712146],[-55.7417,-25.711754],[-55.741608,-25.711184],[-55.737996,-25.711117],[-55.736014,-25.710382],[-55.733533,-25.71157],[-55.732838,-25.711442],[-55.731921,-25.710626],[-55.730382,-25.711123],[-55.729301,-25.711127],[-55.728473,-25.710592],[-55.727799,-25.709362],[-55.727761,-25.71017],[-55.726975,-25.710339],[-55.72754,-25.710873],[-55.7274,-25.711106],[-55.72434,-25.711156],[-55.725428,-25.713734],[-55.724759,-25.713692],[-55.723796,-25.712605],[-55.724052,-25.713357],[-55.723868,-25.713779],[-55.72282,-25.713888],[-55.722971,-25.715239],[-55.72211,-25.714518],[-55.722262,-25.715589],[-55.720946,-25.714941],[-55.721696,-25.714577],[-55.720612,-25.714536],[-55.720361,-25.715292],[-55.719622,-25.715011],[-55.719377,-25.71546],[-55.716758,-25.716055],[-55.716385,-25.716968],[-55.71755,-25.717412],[-55.716991,-25.717696],[-55.717231,-25.718023],[-55.716601,-25.718162],[-55.715848,-25.719122],[-55.715312,-25.717939],[-55.714515,-25.717896],[-55.714537,-25.719706],[-55.714155,-25.72024],[-55.71376,-25.719194],[-55.712458,-25.71953],[-55.710453,-25.719309],[-55.710146,-25.718837],[-55.71084,-25.71803],[-55.70786,-25.717453],[-55.70764,-25.717681],[-55.708255,-25.719127],[-55.707931,-25.719264],[-55.707509,-25.71861],[-55.70604,-25.719698],[-55.705995,-25.72154],[-55.705355,-25.720406],[-55.704125,-25.722079],[-55.70336,-25.72209],[-55.703032,-25.721405],[-55.702352,-25.721485],[-55.702282,-25.722283],[-55.702773,-25.722789],[-55.702205,-25.722964],[-55.702263,-25.723425],[-55.70398,-25.724994],[-55.703397,-25.725264],[-55.702619,-25.724679],[-55.702414,-25.725688],[-55.701745,-25.726247],[-55.701603,-25.728963],[-55.702064,-25.729523],[-55.701857,-25.729724],[-55.701241,-25.729398],[-55.700292,-25.729453],[-55.699873,-25.729738],[-55.700183,-25.732092],[-55.699215,-25.732743],[-55.698228,-25.734671],[-55.697464,-25.734673],[-55.697132,-25.735451],[-55.696351,-25.73581],[-55.696121,-25.736629],[-55.695492,-25.736876],[-55.695611,-25.737446],[-55.694964,-25.737969],[-55.695119,-25.738543],[-55.694471,-25.73856],[-55.694928,-25.739223],[-55.69428,-25.739728],[-55.694397,-25.740329],[-55.693945,-25.740248],[-55.693767,-25.739565],[-55.691947,-25.740763],[-55.692603,-25.741604],[-55.691909,-25.742289],[-55.691622,-25.741997],[-55.691125,-25.742214],[-55.691421,-25.742641],[-55.691201,-25.742874],[-55.691858,-25.742694],[-55.691695,-25.742991],[-55.690535,-25.743482],[-55.689608,-25.742986],[-55.689381,-25.742415],[-55.690023,-25.742082],[-55.690072,-25.74164],[-55.6893,-25.741877],[-55.68886,-25.741426],[-55.688366,-25.741679],[-55.688604,-25.741063],[-55.688305,-25.74078],[-55.688813,-25.73999],[-55.688355,-25.739525],[-55.688795,-25.739042],[-55.686854,-25.738117],[-55.685576,-25.738065],[-55.685383,-25.737309],[-55.684389,-25.737652],[-55.683578,-25.739934],[-55.682405,-25.74046],[-55.681064,-25.740304],[-55.681337,-25.740798],[-55.682531,-25.74099],[-55.682292,-25.741588],[-55.680772,-25.742427],[-55.679038,-25.742218],[-55.679177,-25.74119],[-55.678344,-25.741033],[-55.677821,-25.740568],[-55.677898,-25.740149],[-55.675956,-25.739269],[-55.675736,-25.738639],[-55.67609,-25.738096],[-55.675925,-25.737801],[-55.67565,-25.737704],[-55.675078,-25.738331],[-55.674354,-25.738374],[-55.673667,-25.737298],[-55.674438,-25.736709],[-55.673929,-25.736059],[-55.675147,-25.735402],[-55.674719,-25.734901],[-55.675054,-25.734466],[-55.671301,-25.732347],[-55.670539,-25.731094],[-55.670484,-25.729667],[-55.6691,-25.729473],[-55.669344,-25.728862],[-55.668577,-25.729252],[-55.66785,-25.729214],[-55.668607,-25.727194],[-55.668161,-25.727086],[-55.668034,-25.727915],[-55.66777,-25.728035],[-55.667678,-25.726996],[-55.66643,-25.726122],[-55.666848,-25.72525],[-55.667526,-25.725039],[-55.667178,-25.724422],[-55.667726,-25.724305],[-55.666686,-25.724012],[-55.667518,-25.723708],[-55.667263,-25.72292],[-55.668348,-25.722907],[-55.669873,-25.722109],[-55.670644,-25.722477],[-55.671156,-25.722129],[-55.671842,-25.723029],[-55.672353,-25.722858],[-55.672433,-25.722547],[-55.671228,-25.721362],[-55.671625,-25.720657],[-55.670874,-25.72061],[-55.670819,-25.719892],[-55.670198,-25.719602],[-55.669638,-25.717682],[-55.668394,-25.717779],[-55.667861,-25.71637],[-55.666715,-25.715665],[-55.666487,-25.715198],[-55.665579,-25.715411],[-55.665407,-25.714642],[-55.664555,-25.715013],[-55.664491,-25.714272],[-55.661901,-25.713269],[-55.662967,-25.711545],[-55.663104,-25.710002],[-55.663635,-25.709696],[-55.662938,-25.709328],[-55.662919,-25.708836],[-55.664336,-25.709346],[-55.664729,-25.709047],[-55.665073,-25.709352],[-55.665631,-25.707836],[-55.663499,-25.705925],[-55.663182,-25.705168],[-55.663427,-25.703785],[-55.662073,-25.702747],[-55.662106,-25.700491],[-55.662527,-25.699718],[-55.660708,-25.698004],[-55.65943,-25.697902],[-55.658693,-25.698148],[-55.658987,-25.6975],[-55.658743,-25.697376],[-55.657883,-25.698009],[-55.657562,-25.696986],[-55.656931,-25.697558],[-55.656224,-25.697069],[-55.656626,-25.696531],[-55.656355,-25.695941],[-55.655655,-25.695854],[-55.655147,-25.696188],[-55.655401,-25.695526],[-55.654681,-25.69556],[-55.65454,-25.69462],[-55.654764,-25.694175],[-55.655379,-25.694587],[-55.655587,-25.694372],[-55.655272,-25.69362],[-55.656174,-25.692089],[-55.655822,-25.691165],[-55.655495,-25.69099],[-55.655113,-25.691668],[-55.653325,-25.691828],[-55.653874,-25.691061],[-55.652969,-25.690863],[-55.652406,-25.69023],[-55.651638,-25.689948],[-55.65185,-25.689304],[-55.652464,-25.688971],[-55.65224,-25.688419],[-55.653051,-25.688291],[-55.653276,-25.687412],[-55.652168,-25.686987],[-55.652931,-25.686222],[-55.6509,-25.685508],[-55.650842,-25.68521],[-55.651364,-25.684849],[-55.650924,-25.684429],[-55.651159,-25.683709],[-55.6489,-25.681409],[-55.646945,-25.68009],[-55.646398,-25.678437],[-55.645541,-25.678123],[-55.644425,-25.678234],[-55.644763,-25.676526],[-55.644334,-25.676315],[-55.643674,-25.676593],[-55.643573,-25.676357],[-55.644982,-25.67516],[-55.645074,-25.674719],[-55.644632,-25.674462],[-55.644018,-25.675224],[-55.643191,-25.675157],[-55.642785,-25.674066],[-55.643086,-25.6735],[-55.642156,-25.673365],[-55.64191,-25.672766],[-55.642448,-25.672464],[-55.643582,-25.673035],[-55.643563,-25.671608],[-55.643192,-25.671135],[-55.642671,-25.671537],[-55.642338,-25.67143],[-55.642264,-25.670982],[-55.642732,-25.670512],[-55.642271,-25.669917],[-55.642812,-25.66933],[-55.641462,-25.668817],[-55.641959,-25.668383],[-55.641583,-25.667743],[-55.642354,-25.667985],[-55.642325,-25.667317],[-55.643018,-25.667594],[-55.643201,-25.667348],[-55.643063,-25.666732],[-55.642159,-25.666778],[-55.642369,-25.665512],[-55.641563,-25.664421],[-55.642902,-25.662794],[-55.642623,-25.6622],[-55.64296,-25.661698],[-55.64229,-25.66166],[-55.642898,-25.661056],[-55.641986,-25.660542],[-55.641594,-25.659961],[-55.64229,-25.659448],[-55.641879,-25.658912],[-55.638957,-25.656451],[-55.639244,-25.655962],[-55.638917,-25.655345],[-55.638081,-25.655224],[-55.637383,-25.65468],[-55.63761,-25.654114],[-55.6368,-25.653515],[-55.636559,-25.652023],[-55.635948,-25.652076],[-55.635941,-25.650816],[-55.635225,-25.651085],[-55.634874,-25.650612],[-55.633582,-25.650713],[-55.633563,-25.649995],[-55.633026,-25.650112],[-55.632747,-25.650737],[-55.632413,-25.650774],[-55.631907,-25.650043],[-55.627789,-25.65227],[-55.626317,-25.651855],[-55.627586,-25.651207],[-55.627554,-25.650905],[-55.623033,-25.650302],[-55.621198,-25.649594],[-55.619454,-25.650314],[-55.617655,-25.651502],[-55.617639,-25.650919],[-55.618564,-25.650292],[-55.618622,-25.649899],[-55.615732,-25.649154],[-55.614092,-25.649238],[-55.614554,-25.648412],[-55.613891,-25.64832],[-55.613188,-25.648927],[-55.613093,-25.649432],[-55.614068,-25.650466],[-55.614216,-25.651474],[-55.613981,-25.652176],[-55.614883,-25.652306],[-55.614855,-25.653769],[-55.613687,-25.652841],[-55.613126,-25.652922],[-55.612809,-25.65258],[-55.612303,-25.653726],[-55.611749,-25.653134],[-55.61118,-25.652984],[-55.61086,-25.652417],[-55.609558,-25.65249],[-55.610309,-25.655184],[-55.609897,-25.656128],[-55.608591,-25.656354],[-55.609265,-25.657359],[-55.608411,-25.659025],[-55.608029,-25.658981],[-55.607308,-25.657435],[-55.603418,-25.65909],[-55.60199,-25.658693],[-55.599582,-25.658909],[-55.596482,-25.658667],[-55.59554,-25.658193],[-55.59435,-25.656543],[-55.594066,-25.656874],[-55.594374,-25.658028],[-55.593964,-25.658097],[-55.592085,-25.656566],[-55.591691,-25.655154],[-55.591001,-25.655229],[-55.590798,-25.656364],[-55.59027,-25.65635],[-55.589743,-25.655501],[-55.588671,-25.654628],[-55.587796,-25.654661],[-55.587225,-25.654167],[-55.587799,-25.652914],[-55.586945,-25.652364],[-55.585422,-25.652444],[-55.5858,-25.651174],[-55.586642,-25.650609],[-55.585498,-25.650381],[-55.58488,-25.649355],[-55.586037,-25.649032],[-55.586151,-25.64874],[-55.584185,-25.648364],[-55.583662,-25.647917],[-55.584321,-25.647178],[-55.584242,-25.645751],[-55.585075,-25.645917],[-55.584737,-25.645336],[-55.583752,-25.645295],[-55.584644,-25.644455],[-55.583623,-25.644305],[-55.583391,-25.643052],[-55.582591,-25.643821],[-55.581813,-25.642838],[-55.580974,-25.643381],[-55.580725,-25.642092],[-55.579975,-25.642355],[-55.580461,-25.641363],[-55.579307,-25.641419],[-55.580476,-25.640383],[-55.580422,-25.640089],[-55.57953,-25.640112],[-55.580542,-25.638768],[-55.581378,-25.639132],[-55.581559,-25.63889],[-55.58142,-25.638307],[-55.580377,-25.638048],[-55.5804,-25.637742],[-55.581112,-25.637261],[-55.579861,-25.637416],[-55.579506,-25.63664],[-55.578765,-25.636814],[-55.578892,-25.636264],[-55.577098,-25.635967],[-55.576675,-25.635421],[-55.574978,-25.634763],[-55.574442,-25.634916],[-55.573876,-25.635606],[-55.57416,-25.634575],[-55.573884,-25.634279],[-55.573004,-25.63441],[-55.572761,-25.635166],[-55.572158,-25.634461],[-55.571782,-25.634452],[-55.569768,-25.634744],[-55.569239,-25.635565],[-55.567759,-25.635763],[-55.566272,-25.635053],[-55.566582,-25.636844],[-55.566323,-25.636999],[-55.564969,-25.636525],[-55.563711,-25.636829],[-55.564457,-25.636006],[-55.564252,-25.635895],[-55.563547,-25.636033],[-55.56324,-25.637],[-55.56187,-25.637357],[-55.561179,-25.636664],[-55.560589,-25.636767],[-55.560197,-25.637286],[-55.559683,-25.636676],[-55.558554,-25.636692],[-55.558406,-25.636077],[-55.558032,-25.636421],[-55.557496,-25.636429],[-55.557662,-25.635681],[-55.556554,-25.635535],[-55.556804,-25.634942],[-55.555366,-25.63523],[-55.555396,-25.63435],[-55.55487,-25.633654],[-55.555084,-25.632803],[-55.556666,-25.631848],[-55.556797,-25.631195],[-55.556286,-25.631099],[-55.555444,-25.631646],[-55.554894,-25.630603],[-55.553484,-25.630304],[-55.553301,-25.630041],[-55.553656,-25.628925],[-55.552354,-25.629169],[-55.55104,-25.627707],[-55.551365,-25.626907],[-55.550677,-25.626963],[-55.550269,-25.626602],[-55.550752,-25.625655],[-55.549764,-25.625216],[-55.550642,-25.624945],[-55.550848,-25.623949],[-55.550483,-25.623566],[-55.54942,-25.623754],[-55.549362,-25.623117],[-55.549569,-25.622835],[-55.550594,-25.622773],[-55.550673,-25.622115],[-55.550489,-25.621625],[-55.549861,-25.621551],[-55.549387,-25.621037],[-55.549915,-25.620261],[-55.549617,-25.619829],[-55.549254,-25.619717],[-55.548783,-25.620263],[-55.548118,-25.619837],[-55.5476,-25.6204],[-55.547469,-25.6196],[-55.546121,-25.619203],[-55.544027,-25.61948],[-55.538612,-25.621557],[-55.537507,-25.62137],[-55.536589,-25.620837],[-55.535362,-25.6191],[-55.53569,-25.618033],[-55.535149,-25.617802],[-55.536303,-25.616834],[-55.535769,-25.614937],[-55.535541,-25.614714],[-55.535001,-25.614839],[-55.534762,-25.616011],[-55.533931,-25.615109],[-55.534237,-25.614123],[-55.534927,-25.613516],[-55.535581,-25.612281],[-55.534716,-25.611767],[-55.534566,-25.611309],[-55.536214,-25.610378],[-55.536286,-25.610045],[-55.535802,-25.609313],[-55.534896,-25.608812],[-55.535215,-25.608138],[-55.534634,-25.608389],[-55.534257,-25.608169],[-55.53497,-25.607409],[-55.535675,-25.605493],[-55.536683,-25.605381],[-55.536057,-25.604418],[-55.537168,-25.604162],[-55.537082,-25.603502],[-55.53545,-25.601879],[-55.535496,-25.601591],[-55.53654,-25.602034],[-55.536648,-25.600762],[-55.536881,-25.600679],[-55.537702,-25.601369],[-55.538654,-25.601049],[-55.538663,-25.601591],[-55.538982,-25.601607],[-55.539175,-25.600783],[-55.538429,-25.599485],[-55.539412,-25.599386],[-55.539594,-25.599113],[-55.539412,-25.597292],[-55.538473,-25.597273],[-55.538329,-25.59705],[-55.539342,-25.596383],[-55.538489,-25.595743],[-55.539334,-25.594912],[-55.538788,-25.593705],[-55.539784,-25.593323],[-55.539815,-25.593007],[-55.537212,-25.592349],[-55.537259,-25.592056],[-55.538137,-25.591875],[-55.538203,-25.5916],[-55.536965,-25.591593],[-55.53741,-25.590396],[-55.536395,-25.590007],[-55.536809,-25.589713],[-55.537862,-25.589913],[-55.537827,-25.58948],[-55.537069,-25.589021],[-55.53873,-25.587836],[-55.538355,-25.586943],[-55.537735,-25.58631],[-55.537019,-25.586185],[-55.536842,-25.58519],[-55.53609,-25.584429],[-55.535777,-25.584552],[-55.535888,-25.585384],[-55.535169,-25.585029],[-55.535268,-25.583662],[-55.534176,-25.583069],[-55.534676,-25.582135],[-55.534118,-25.58092],[-55.533492,-25.580394],[-55.534076,-25.580296],[-55.53396,-25.579993],[-55.532142,-25.578886],[-55.530128,-25.578672],[-55.53001,-25.578075],[-55.530557,-25.57762],[-55.530375,-25.577262],[-55.528892,-25.577066],[-55.528388,-25.577806],[-55.527633,-25.576539],[-55.526545,-25.576528],[-55.526089,-25.575878],[-55.525216,-25.57623],[-55.525079,-25.575822],[-55.525921,-25.575194],[-55.52576,-25.574913],[-55.524765,-25.574844],[-55.524934,-25.574069],[-55.523968,-25.574525],[-55.522026,-25.573941],[-55.521828,-25.573469],[-55.522277,-25.572928],[-55.524319,-25.573332],[-55.524541,-25.572923],[-55.523938,-25.572294],[-55.522586,-25.571956],[-55.521955,-25.570915],[-55.522081,-25.570677],[-55.522871,-25.570618],[-55.522614,-25.570006],[-55.520773,-25.5694],[-55.520165,-25.569737],[-55.51944,-25.569725],[-55.51905,-25.570245],[-55.518319,-25.570269],[-55.517859,-25.569705],[-55.518406,-25.568609],[-55.518186,-25.568268],[-55.517091,-25.5686],[-55.516451,-25.567831],[-55.516054,-25.56868],[-55.51574,-25.56823],[-55.51625,-25.566966],[-55.515161,-25.566545],[-55.514715,-25.566062],[-55.51437,-25.56609],[-55.514176,-25.567018],[-55.513544,-25.566934],[-55.513455,-25.566401],[-55.513888,-25.565656],[-55.515229,-25.565245],[-55.515479,-25.564571],[-55.515157,-25.564251],[-55.514248,-25.564251],[-55.514211,-25.563926],[-55.51492,-25.563296],[-55.514055,-25.563148],[-55.513922,-25.562514],[-55.51199,-25.561511],[-55.510504,-25.561983],[-55.509412,-25.561376],[-55.508754,-25.561649],[-55.507918,-25.562589],[-55.507395,-25.562132],[-55.507328,-25.561558],[-55.506991,-25.561514],[-55.506787,-25.561733],[-55.50699,-25.562466],[-55.506487,-25.563766],[-55.506132,-25.564268],[-55.504738,-25.565062],[-55.504978,-25.566057],[-55.504616,-25.566342],[-55.502634,-25.565058],[-55.503529,-25.561921],[-55.500901,-25.561628],[-55.49931,-25.562117],[-55.498344,-25.56162],[-55.496518,-25.56138],[-55.495888,-25.561066],[-55.495246,-25.559949],[-55.49487,-25.5579],[-55.494259,-25.55774],[-55.492733,-25.558054],[-55.492593,-25.557457],[-55.49295,-25.556779],[-55.493481,-25.556613],[-55.494651,-25.556864],[-55.494981,-25.556655],[-55.494817,-25.554573],[-55.494271,-25.554233],[-55.49247,-25.554562],[-55.490679,-25.554187],[-55.490902,-25.550691],[-55.490505,-25.54945],[-55.491313,-25.549092],[-55.490784,-25.548283],[-55.490808,-25.546424],[-55.490474,-25.546037],[-55.489147,-25.545639],[-55.488126,-25.543683],[-55.487617,-25.543867],[-55.4873,-25.545534],[-55.486412,-25.545534],[-55.485856,-25.545181],[-55.485589,-25.544596],[-55.485733,-25.54406],[-55.487122,-25.542847],[-55.484518,-25.540712],[-55.484093,-25.539998],[-55.484313,-25.539301],[-55.485146,-25.538578],[-55.485952,-25.536682],[-55.486395,-25.534249],[-55.487531,-25.532996],[-55.487456,-25.532201],[-55.48621,-25.531312],[-55.482224,-25.53068],[-55.481324,-25.528319],[-55.478986,-25.527653],[-55.479337,-25.525797],[-55.478648,-25.524314],[-55.477874,-25.523692],[-55.476734,-25.523612],[-55.474554,-25.52465],[-55.474497,-25.525489],[-55.475433,-25.526691],[-55.4752,-25.527217],[-55.473505,-25.526811],[-55.471471,-25.524966],[-55.46853,-25.526967],[-55.467218,-25.525237],[-55.466412,-25.52489],[-55.465676,-25.525154],[-55.465411,-25.525756],[-55.466159,-25.526969],[-55.46595,-25.527477],[-55.464467,-25.52761],[-55.463059,-25.526801],[-55.461369,-25.527817],[-55.461378,-25.528345],[-55.462438,-25.528984],[-55.462095,-25.529608],[-55.461222,-25.529608],[-55.458151,-25.527679],[-55.45766,-25.527715],[-55.457649,-25.529168],[-55.457252,-25.530315],[-55.458212,-25.530849],[-55.459624,-25.530773],[-55.459701,-25.531465],[-55.456425,-25.533412],[-55.45485,-25.532768],[-55.453674,-25.531496],[-55.452862,-25.531569],[-55.45284,-25.532061],[-55.454532,-25.53327],[-55.454615,-25.535935],[-55.453726,-25.535993],[-55.452504,-25.535217],[-55.450786,-25.536034],[-55.450266,-25.535803],[-55.449754,-25.535039],[-55.449136,-25.535154],[-55.449084,-25.535569],[-55.449849,-25.536733],[-55.448372,-25.537593],[-55.448686,-25.539221],[-55.447898,-25.539263],[-55.447071,-25.538699],[-55.446732,-25.538957],[-55.447175,-25.539661],[-55.448589,-25.540092],[-55.448653,-25.54058],[-55.448126,-25.540908],[-55.446652,-25.540965],[-55.446266,-25.540713],[-55.445653,-25.539171],[-55.444551,-25.539448],[-55.444649,-25.541449],[-55.445184,-25.542958],[-55.444583,-25.543642],[-55.442754,-25.543375],[-55.442849,-25.543832],[-55.443837,-25.544601],[-55.443793,-25.545589],[-55.443352,-25.545954],[-55.440065,-25.545048],[-55.43973,-25.543248],[-55.43929,-25.542864],[-55.437096,-25.543107],[-55.437692,-25.544643],[-55.437641,-25.545018],[-55.437233,-25.545194],[-55.436619,-25.545038],[-55.435701,-25.544261],[-55.434199,-25.544101],[-55.433468,-25.5431],[-55.432926,-25.543053],[-55.432483,-25.543784],[-55.432437,-25.546285],[-55.432169,-25.546864],[-55.429797,-25.548094],[-55.429355,-25.547872],[-55.429453,-25.546903],[-55.428991,-25.546767],[-55.428526,-25.547096],[-55.428694,-25.548204],[-55.430503,-25.548891],[-55.430679,-25.549724],[-55.429402,-25.551303],[-55.42838,-25.551771],[-55.428199,-25.553105],[-55.427427,-25.553873],[-55.427521,-25.555283],[-55.426716,-25.556317],[-55.426453,-25.557483],[-55.42567,-25.557494],[-55.425298,-25.557185],[-55.42473,-25.555465],[-55.424245,-25.555363],[-55.423238,-25.555998],[-55.423415,-25.55686],[-55.425033,-25.557864],[-55.425156,-25.55904],[-55.424195,-25.559962],[-55.423026,-25.560102],[-55.421991,-25.559132],[-55.421408,-25.559116],[-55.421286,-25.559357],[-55.422118,-25.560747],[-55.422049,-25.561481],[-55.420088,-25.563281],[-55.419432,-25.565067],[-55.418941,-25.56559],[-55.418856,-25.56602],[-55.419335,-25.566456],[-55.420868,-25.566391],[-55.421534,-25.566899],[-55.421294,-25.567858],[-55.41946,-25.568196],[-55.419108,-25.568695],[-55.419152,-25.569834],[-55.420396,-25.570744],[-55.420392,-25.571049],[-55.420121,-25.571342],[-55.418238,-25.571653],[-55.418195,-25.571967],[-55.418671,-25.572546],[-55.420332,-25.573299],[-55.420165,-25.574759],[-55.420528,-25.57574],[-55.41891,-25.576243],[-55.418702,-25.577808],[-55.418033,-25.578233],[-55.417097,-25.577971],[-55.416713,-25.576353],[-55.416188,-25.576446],[-55.415681,-25.578153],[-55.417085,-25.579675],[-55.417107,-25.580267],[-55.41599,-25.581725],[-55.415874,-25.582298],[-55.415426,-25.582517],[-55.414667,-25.582375],[-55.413088,-25.584402],[-55.413759,-25.585978],[-55.414279,-25.586298],[-55.417597,-25.585859],[-55.418049,-25.586061],[-55.41801,-25.586787],[-55.416513,-25.587039],[-55.41344,-25.586881],[-55.412509,-25.588547],[-55.413464,-25.588862],[-55.415011,-25.588503],[-55.41541,-25.589018],[-55.414845,-25.589864],[-55.413489,-25.590737],[-55.413141,-25.592329],[-55.411854,-25.592476],[-55.411716,-25.593174],[-55.412325,-25.594266],[-55.411662,-25.594595],[-55.410705,-25.59337],[-55.409716,-25.593386],[-55.409308,-25.594287],[-55.409817,-25.595283],[-55.409733,-25.595825],[-55.408623,-25.59749],[-55.408404,-25.598393],[-55.40589,-25.600078],[-55.405548,-25.601231],[-55.405239,-25.601389],[-55.404984,-25.601279],[-55.405056,-25.600318],[-55.404668,-25.59976],[-55.403821,-25.599437],[-55.39926,-25.604094],[-55.39929,-25.604848],[-55.399963,-25.605519],[-55.401563,-25.606388],[-55.402037,-25.607998],[-55.401441,-25.609615],[-55.400041,-25.610837],[-55.400091,-25.611519],[-55.400957,-25.611824],[-55.402669,-25.611726],[-55.403986,-25.613131],[-55.403622,-25.613709],[-55.403057,-25.613838],[-55.400109,-25.613124],[-55.39928,-25.613761],[-55.399443,-25.614865],[-55.401496,-25.615937],[-55.401034,-25.616452],[-55.399412,-25.617187],[-55.39963,-25.61788],[-55.400133,-25.618047],[-55.401303,-25.617818],[-55.401534,-25.618162],[-55.401139,-25.618973],[-55.400357,-25.619054],[-55.401273,-25.620707],[-55.400022,-25.622899],[-55.40149,-25.623064],[-55.401553,-25.622067],[-55.402767,-25.6212],[-55.402859,-25.621562],[-55.402116,-25.622024],[-55.402386,-25.622559],[-55.403548,-25.622432],[-55.404066,-25.622799],[-55.406401,-25.622942],[-55.405593,-25.624052],[-55.407501,-25.623527],[-55.408692,-25.623906],[-55.408926,-25.624084],[-55.408452,-25.624539],[-55.408402,-25.625044],[-55.408889,-25.626101],[-55.408329,-25.626452],[-55.408682,-25.62879],[-55.41027,-25.630667],[-55.410783,-25.630844],[-55.411064,-25.630648],[-55.411168,-25.629652],[-55.411774,-25.629315],[-55.412228,-25.629555],[-55.412259,-25.630092],[-55.414174,-25.632158],[-55.416253,-25.630362],[-55.416982,-25.630956],[-55.416471,-25.632987],[-55.417148,-25.633414],[-55.416934,-25.633673],[-55.416278,-25.633671],[-55.41627,-25.633955],[-55.417455,-25.63553],[-55.417374,-25.636418],[-55.418224,-25.636405],[-55.419411,-25.637492],[-55.418984,-25.638349],[-55.419702,-25.638831],[-55.419462,-25.639149],[-55.418374,-25.638921],[-55.417862,-25.639398],[-55.41769,-25.640209],[-55.418476,-25.641143],[-55.417738,-25.641907],[-55.419419,-25.64267],[-55.419531,-25.643425],[-55.42223,-25.645282],[-55.422346,-25.645581],[-55.42209,-25.645714],[-55.421077,-25.645247],[-55.420314,-25.645261],[-55.419954,-25.645637],[-55.419906,-25.646512],[-55.420535,-25.646717],[-55.420885,-25.647475],[-55.422816,-25.64857],[-55.423245,-25.64927],[-55.422547,-25.649804],[-55.42352,-25.650207],[-55.424023,-25.651513],[-55.424677,-25.651393],[-55.425483,-25.650034],[-55.426052,-25.650366],[-55.426399,-25.652148],[-55.424408,-25.652239],[-55.424346,-25.6525],[-55.42464,-25.653334],[-55.426222,-25.65397],[-55.426782,-25.654603],[-55.426794,-25.655267],[-55.426097,-25.655647],[-55.427222,-25.656802],[-55.426892,-25.657299],[-55.427378,-25.658401],[-55.426943,-25.658848],[-55.427326,-25.659832],[-55.428229,-25.659331],[-55.428626,-25.659733],[-55.429794,-25.659244],[-55.429967,-25.659598],[-55.42917,-25.660312],[-55.429575,-25.66052],[-55.430307,-25.660302],[-55.431606,-25.659309],[-55.432761,-25.659276],[-55.434098,-25.659932],[-55.435796,-25.659995],[-55.435807,-25.660808],[-55.436697,-25.661052],[-55.438005,-25.660326],[-55.440138,-25.658159],[-55.441091,-25.658178],[-55.443657,-25.657393],[-55.444185,-25.657566],[-55.444625,-25.656966],[-55.445457,-25.657421],[-55.445334,-25.656481],[-55.445824,-25.65631],[-55.446213,-25.656545],[-55.446158,-25.655397],[-55.446407,-25.655179],[-55.449477,-25.654814],[-55.450912,-25.654306],[-55.451184,-25.654625],[-55.450771,-25.655388],[-55.451141,-25.65573],[-55.452592,-25.654134],[-55.452919,-25.65412],[-55.453473,-25.654604],[-55.453566,-25.655309],[-55.453042,-25.656265],[-55.453856,-25.656721],[-55.45623,-25.660167],[-55.455837,-25.662705],[-55.456425,-25.663451],[-55.455546,-25.66351],[-55.455336,-25.664072],[-55.459037,-25.665889],[-55.459562,-25.666599],[-55.459204,-25.667065],[-55.459711,-25.667246],[-55.460211,-25.667974],[-55.460004,-25.66915],[-55.458808,-25.669476],[-55.46019,-25.670628],[-55.458987,-25.671378],[-55.458946,-25.671675],[-55.461042,-25.673115],[-55.461403,-25.67371],[-55.461316,-25.674016],[-55.460612,-25.674081],[-55.460311,-25.675509],[-55.461401,-25.675344],[-55.462647,-25.675836],[-55.462832,-25.676321],[-55.461972,-25.677124],[-55.46278,-25.677548],[-55.464665,-25.677333],[-55.466076,-25.676793],[-55.468729,-25.677123],[-55.470187,-25.678344],[-55.471862,-25.67875],[-55.472136,-25.679524],[-55.471169,-25.68016],[-55.471535,-25.68052],[-55.472076,-25.680138],[-55.472588,-25.68059],[-55.473166,-25.680655],[-55.477074,-25.680407],[-55.477635,-25.685391],[-55.477332,-25.685433],[-55.477209,-25.684173],[-55.476444,-25.684255],[-55.476109,-25.685136],[-55.474674,-25.685266],[-55.474431,-25.687191],[-55.473829,-25.687022],[-55.474148,-25.685843],[-55.473734,-25.685491],[-55.47322,-25.685603],[-55.472986,-25.686801],[-55.474219,-25.688461],[-55.473833,-25.689202],[-55.47527,-25.689953],[-55.475609,-25.689636],[-55.475449,-25.688854],[-55.476584,-25.689281],[-55.476611,-25.689981],[-55.476091,-25.690291],[-55.477296,-25.691125],[-55.477292,-25.691315],[-55.476524,-25.691239],[-55.477608,-25.692587],[-55.476842,-25.692493],[-55.476828,-25.693418],[-55.476081,-25.692729],[-55.474771,-25.69323],[-55.475205,-25.693695],[-55.475091,-25.693924],[-55.472461,-25.69451],[-55.470883,-25.696376],[-55.471799,-25.697487],[-55.472122,-25.69889],[-55.471197,-25.699079],[-55.471226,-25.699842],[-55.470515,-25.699622],[-55.470528,-25.701717],[-55.470085,-25.701884],[-55.469842,-25.701552],[-55.469537,-25.701752],[-55.468657,-25.7032],[-55.468911,-25.703776],[-55.467634,-25.704729],[-55.467113,-25.706109],[-55.465932,-25.705352],[-55.46555,-25.70538],[-55.465911,-25.706675],[-55.466536,-25.707155],[-55.466233,-25.709603],[-55.466442,-25.709736],[-55.467018,-25.708871],[-55.467582,-25.709157],[-55.466633,-25.710257],[-55.46773,-25.710079],[-55.467043,-25.711823],[-55.467969,-25.711689],[-55.467516,-25.712578],[-55.466714,-25.713043],[-55.468108,-25.715356],[-55.46562,-25.715339],[-55.465781,-25.715769],[-55.467455,-25.716996],[-55.465772,-25.717281],[-55.467467,-25.717904],[-55.468355,-25.717597],[-55.469451,-25.718277],[-55.469608,-25.719064],[-55.468636,-25.719979],[-55.468508,-25.721079],[-55.472727,-25.722473],[-55.474098,-25.723612],[-55.47454,-25.725363],[-55.477159,-25.7267],[-55.477899,-25.726789],[-55.478251,-25.727244],[-55.477844,-25.727781],[-55.478267,-25.728052],[-55.478338,-25.728509],[-55.477697,-25.728764],[-55.477704,-25.72912],[-55.479088,-25.73048],[-55.479512,-25.732313],[-55.480207,-25.733638],[-55.479346,-25.733792],[-55.478667,-25.734331],[-55.477703,-25.733504],[-55.477762,-25.73308],[-55.477308,-25.733138],[-55.475501,-25.734058],[-55.474967,-25.73584],[-55.47519,-25.736204],[-55.475353,-25.735808],[-55.47618,-25.735609],[-55.476278,-25.737633],[-55.476862,-25.737165],[-55.47776,-25.738258],[-55.477227,-25.738658],[-55.47716,-25.739294],[-55.477577,-25.739009],[-55.478169,-25.739345],[-55.47913,-25.740389],[-55.479367,-25.741231],[-55.479873,-25.740713],[-55.479779,-25.739511],[-55.48002,-25.739297],[-55.480837,-25.741364],[-55.481249,-25.740853],[-55.482596,-25.741833],[-55.481691,-25.742334],[-55.481149,-25.743055],[-55.482015,-25.743692],[-55.482772,-25.744932],[-55.483107,-25.745026],[-55.483636,-25.744602],[-55.483549,-25.745744],[-55.48474,-25.745932],[-55.485348,-25.747017],[-55.485568,-25.748374],[-55.484446,-25.749612],[-55.484942,-25.750186],[-55.484052,-25.750272],[-55.483333,-25.750829],[-55.4837,-25.751338],[-55.482889,-25.75198],[-55.484086,-25.752507],[-55.483911,-25.752871],[-55.4833,-25.752918],[-55.484161,-25.753428],[-55.483263,-25.753595],[-55.482779,-25.754669],[-55.483421,-25.753994],[-55.483193,-25.755265],[-55.484112,-25.757482],[-55.485229,-25.756807],[-55.485916,-25.757834],[-55.485947,-25.759212],[-55.486299,-25.759454],[-55.487473,-25.758627],[-55.486195,-25.75753],[-55.48661,-25.756993],[-55.48713,-25.757192],[-55.488773,-25.759877],[-55.488643,-25.760066],[-55.487941,-25.759706],[-55.487937,-25.760424],[-55.486978,-25.760951],[-55.489283,-25.761833],[-55.489983,-25.762391],[-55.489981,-25.762653],[-55.489007,-25.762909],[-55.489465,-25.763658],[-55.492058,-25.763577],[-55.493299,-25.764628],[-55.492208,-25.766179],[-55.492674,-25.76645],[-55.492748,-25.767281],[-55.493651,-25.768979],[-55.494404,-25.769501],[-55.495029,-25.770595],[-55.494668,-25.771517],[-55.495296,-25.771817],[-55.496089,-25.772764],[-55.498354,-25.772918],[-55.496066,-25.774263],[-55.497197,-25.775642],[-55.497829,-25.775798],[-55.498019,-25.775465],[-55.498859,-25.776282],[-55.499051,-25.776596],[-55.49882,-25.777478],[-55.500001,-25.77717],[-55.500796,-25.777783],[-55.50154,-25.780729],[-55.502183,-25.781697],[-55.503004,-25.781313],[-55.503141,-25.781748],[-55.504328,-25.782193],[-55.5064,-25.782314],[-55.506685,-25.781947],[-55.505653,-25.781295],[-55.506852,-25.780287],[-55.508055,-25.780038],[-55.508297,-25.780446],[-55.50816,-25.782111],[-55.508907,-25.78303],[-55.509178,-25.783191],[-55.510006,-25.782802],[-55.511637,-25.782733],[-55.511801,-25.783841],[-55.512472,-25.78387],[-55.513939,-25.785556],[-55.514426,-25.785633],[-55.513939,-25.786643],[-55.514455,-25.787967],[-55.514382,-25.789117],[-55.514988,-25.789317],[-55.515154,-25.790294],[-55.515983,-25.790312],[-55.516825,-25.79158],[-55.516387,-25.792501],[-55.51678,-25.793155],[-55.516368,-25.793674],[-55.517046,-25.79429],[-55.517042,-25.794566],[-55.51651,-25.794763],[-55.517265,-25.795809],[-55.516985,-25.795996],[-55.51613,-25.795658],[-55.515847,-25.796179],[-55.516459,-25.796984],[-55.516366,-25.797791],[-55.516989,-25.798601],[-55.516889,-25.799259],[-55.517776,-25.800717],[-55.517313,-25.8018],[-55.519023,-25.801583],[-55.518583,-25.802206],[-55.519186,-25.802772],[-55.519356,-25.803758],[-55.51984,-25.80402],[-55.521229,-25.803808],[-55.521865,-25.804104],[-55.52111,-25.804958],[-55.521871,-25.805873],[-55.522073,-25.807175],[-55.522567,-25.807826],[-55.522036,-25.808096],[-55.522076,-25.808593],[-55.522345,-25.808839],[-55.522693,-25.808567],[-55.523069,-25.809149],[-55.523169,-25.810121],[-55.522851,-25.810686],[-55.523164,-25.811976],[-55.522526,-25.811437],[-55.522255,-25.811529],[-55.521345,-25.813303],[-55.52177,-25.813844],[-55.52279,-25.81394],[-55.52167,-25.815066],[-55.522702,-25.815054],[-55.523092,-25.815397],[-55.523072,-25.815704],[-55.522385,-25.815864],[-55.523048,-25.816304],[-55.522727,-25.816941],[-55.523343,-25.817264],[-55.522925,-25.817593],[-55.523086,-25.818353],[-55.52364,-25.818016],[-55.523743,-25.818211],[-55.523049,-25.82075],[-55.522642,-25.82099],[-55.522988,-25.821896],[-55.522498,-25.823254],[-55.522808,-25.823853],[-55.522345,-25.825442],[-55.522691,-25.826001],[-55.522328,-25.826787],[-55.52433,-25.829566],[-55.524626,-25.830634],[-55.524511,-25.830867],[-55.523918,-25.830834],[-55.524452,-25.831494],[-55.524124,-25.832638],[-55.525706,-25.834184],[-55.524967,-25.834551],[-55.525516,-25.836624],[-55.525187,-25.837239],[-55.526302,-25.837765],[-55.526215,-25.838207],[-55.525741,-25.838405],[-55.525733,-25.838856],[-55.526025,-25.839071],[-55.526769,-25.838966],[-55.526549,-25.83951],[-55.527146,-25.840035],[-55.527129,-25.840825],[-55.527996,-25.841624],[-55.528011,-25.843533],[-55.528469,-25.843344],[-55.528638,-25.84363],[-55.528576,-25.844889],[-55.529739,-25.845235],[-55.529349,-25.845669],[-55.530024,-25.845892],[-55.528038,-25.847131],[-55.528243,-25.84749],[-55.529041,-25.847426],[-55.528865,-25.847776],[-55.528234,-25.847878],[-55.528627,-25.849264],[-55.52826,-25.850185],[-55.528654,-25.851584],[-55.527549,-25.850982],[-55.52685,-25.851268],[-55.526483,-25.851756],[-55.527013,-25.851906],[-55.527175,-25.852526],[-55.526038,-25.853404],[-55.524076,-25.853655],[-55.523293,-25.854504],[-55.523329,-25.854902],[-55.522382,-25.855339],[-55.522889,-25.855814],[-55.522637,-25.856421],[-55.521438,-25.856156],[-55.520352,-25.856727],[-55.519815,-25.857715],[-55.520268,-25.858216],[-55.518479,-25.860342],[-55.518015,-25.861587],[-55.517734,-25.860939],[-55.518088,-25.860243],[-55.517785,-25.859856],[-55.517929,-25.85946],[-55.517371,-25.859455],[-55.517304,-25.858651],[-55.517013,-25.858467],[-55.515813,-25.858838],[-55.516183,-25.85947],[-55.516981,-25.859744],[-55.51622,-25.860039],[-55.515535,-25.860908],[-55.51521,-25.860028],[-55.514715,-25.860484],[-55.514093,-25.860152],[-55.513822,-25.860321],[-55.51414,-25.861611],[-55.513179,-25.861078],[-55.513702,-25.861877],[-55.513277,-25.861927],[-55.512819,-25.86264],[-55.513324,-25.864474],[-55.512829,-25.865137],[-55.514027,-25.865501],[-55.513227,-25.865935],[-55.513631,-25.866621],[-55.512798,-25.866879],[-55.512346,-25.868323],[-55.51372,-25.868861],[-55.51223,-25.869839],[-55.512066,-25.870352],[-55.513444,-25.872848],[-55.513687,-25.873839],[-55.514742,-25.874424],[-55.514595,-25.875311],[-55.515449,-25.875207],[-55.515679,-25.874225],[-55.516855,-25.873578],[-55.517149,-25.872787],[-55.517697,-25.872743],[-55.518653,-25.874017],[-55.518692,-25.874274],[-55.518107,-25.874485],[-55.518731,-25.875412],[-55.519973,-25.876256],[-55.522541,-25.876697],[-55.523015,-25.877406],[-55.523032,-25.878408],[-55.52445,-25.879064],[-55.524881,-25.879619],[-55.524931,-25.880319],[-55.525672,-25.88048],[-55.52541,-25.882075],[-55.525989,-25.882555],[-55.526019,-25.883075],[-55.525325,-25.885447],[-55.525837,-25.886111],[-55.525774,-25.886765],[-55.526547,-25.887851],[-55.5268,-25.888937],[-55.526568,-25.889937],[-55.525775,-25.891247],[-55.523132,-25.893103],[-55.52254,-25.892334],[-55.520604,-25.891745],[-55.519372,-25.891823],[-55.518199,-25.892867],[-55.51818,-25.893219],[-55.519866,-25.894983],[-55.519714,-25.896575],[-55.516373,-25.898654],[-55.515844,-25.901831],[-55.516581,-25.902466],[-55.516577,-25.903486],[-55.517349,-25.904649],[-55.517306,-25.906143],[-55.518006,-25.906728],[-55.51816,-25.907822],[-55.518723,-25.908604],[-55.518604,-25.909429],[-55.520592,-25.915539],[-55.52167,-25.91592],[-55.522372,-25.917417],[-55.523616,-25.918969],[-55.523711,-25.922716],[-55.524705,-25.924731],[-55.524659,-25.925416],[-55.523998,-25.926385],[-55.523326,-25.926296],[-55.522267,-25.927085],[-55.522738,-25.927595],[-55.522128,-25.928252],[-55.52295,-25.928762],[-55.522957,-25.930838],[-55.522198,-25.932099],[-55.521952,-25.933266],[-55.522218,-25.936401],[-55.524181,-25.937866],[-55.526361,-25.941115],[-55.528307,-25.94295],[-55.528632,-25.943919],[-55.528521,-25.945177],[-55.529133,-25.946484],[-55.52892,-25.94733],[-55.529209,-25.948331],[-55.530063,-25.949432],[-55.531642,-25.950639],[-55.533836,-25.956196],[-55.534432,-25.956983],[-55.534949,-25.957124],[-55.534879,-25.960445],[-55.535588,-25.962587],[-55.534935,-25.965393],[-55.535558,-25.966555],[-55.534985,-25.968797],[-55.53407,-25.969993],[-55.535262,-25.97094],[-55.538888,-25.97173],[-55.550694,-25.997042],[-55.551972,-25.998012],[-55.554154,-25.998959],[-55.555473,-26.00034],[-55.556011,-26.001541],[-55.556956,-26.00202],[-55.557213,-26.002655],[-55.557976,-26.002816],[-55.557932,-26.003028],[-55.559407,-26.003909],[-55.562079,-26.005222],[-55.563367,-26.00663],[-55.56458,-26.0068],[-55.566845,-26.008596],[-55.569443,-26.00962],[-55.571435,-26.011034],[-55.572169,-26.011985],[-55.576381,-26.014491],[-55.579023,-26.014919],[-55.580363,-26.015546],[-55.584052,-26.012738],[-55.589106,-26.013465],[-55.593457,-26.013642],[-55.597539,-26.015194],[-55.599162,-26.016632],[-55.601617,-26.021016],[-55.605382,-26.024957],[-55.607071,-26.026265],[-55.611077,-26.025847],[-55.612674,-26.027014],[-55.613512,-26.027184],[-55.614679,-26.029128],[-55.615745,-26.029693],[-55.616826,-26.031216],[-55.647214,-26.056155],[-55.649048,-26.056908],[-55.64997,-26.057734],[-55.650908,-26.060094],[-55.651153,-26.062123],[-55.650527,-26.063549],[-55.649251,-26.064832],[-55.648737,-26.06689],[-55.649172,-26.067829],[-55.650939,-26.068843],[-55.651594,-26.069865],[-55.651349,-26.071912],[-55.651665,-26.075549],[-55.651131,-26.077024],[-55.651385,-26.078354],[-55.65071,-26.081209],[-55.651194,-26.08548],[-55.649856,-26.088541],[-55.649988,-26.092339],[-55.649304,-26.092865],[-55.648873,-26.095362],[-55.647307,-26.098968],[-55.649349,-26.102007],[-55.650408,-26.102933],[-55.652198,-26.103469],[-55.653728,-26.103501],[-55.655347,-26.104279],[-55.656561,-26.106006],[-55.657024,-26.10731],[-55.658142,-26.108282],[-55.65838,-26.109246],[-55.658176,-26.110472],[-55.658988,-26.110719],[-55.659808,-26.111656],[-55.660615,-26.114002],[-55.660218,-26.116463],[-55.660989,-26.118781],[-55.660987,-26.120127],[-55.66225,-26.121592],[-55.662378,-26.124004],[-55.663845,-26.124816],[-55.664128,-26.127816],[-55.664958,-26.127941],[-55.665456,-26.128393],[-55.66662,-26.128277],[-55.667512,-26.129202],[-55.668406,-26.12939],[-55.667433,-26.130492],[-55.6679,-26.131205],[-55.668516,-26.131405],[-55.667909,-26.131959],[-55.667802,-26.132531],[-55.668288,-26.133222],[-55.667862,-26.133669],[-55.668066,-26.135192],[-55.668706,-26.135632],[-55.667961,-26.136464],[-55.668019,-26.137025],[-55.668585,-26.137874],[-55.669087,-26.137879],[-55.669096,-26.137315],[-55.669487,-26.137345],[-55.669217,-26.138295],[-55.668665,-26.138507],[-55.669864,-26.138807],[-55.669928,-26.139105],[-55.668839,-26.140088],[-55.669583,-26.140511],[-55.670237,-26.140512],[-55.670424,-26.141796],[-55.671505,-26.143801],[-55.673921,-26.143832],[-55.67394,-26.143318],[-55.674823,-26.142568],[-55.675368,-26.142509],[-55.676259,-26.141258],[-55.676871,-26.141652],[-55.677667,-26.14124],[-55.678823,-26.141354],[-55.679184,-26.14203],[-55.679725,-26.142112],[-55.680125,-26.141813],[-55.682606,-26.143108],[-55.683992,-26.142403],[-55.686294,-26.141865],[-55.686807,-26.142289],[-55.686826,-26.143418],[-55.687316,-26.143499],[-55.687969,-26.14304],[-55.688197,-26.144103],[-55.68853,-26.143849],[-55.689561,-26.144201],[-55.689621,-26.143592],[-55.691487,-26.143456],[-55.691601,-26.144305],[-55.69204,-26.144792],[-55.691872,-26.145215],[-55.692603,-26.145804],[-55.693471,-26.145618],[-55.69511,-26.145931],[-55.695077,-26.145434],[-55.695743,-26.145223],[-55.696099,-26.145484],[-55.695809,-26.146077],[-55.696101,-26.146337],[-55.696934,-26.145099],[-55.697316,-26.145346],[-55.696903,-26.14583],[-55.6971,-26.146075],[-55.697966,-26.145826],[-55.698414,-26.145026],[-55.698961,-26.145144],[-55.699353,-26.147134],[-55.698949,-26.147848],[-55.698441,-26.147175],[-55.69813,-26.147755],[-55.69889,-26.149238],[-55.69942,-26.149441],[-55.700911,-26.149319],[-55.70118,-26.150337],[-55.70219,-26.150509],[-55.702412,-26.150854],[-55.703374,-26.150501],[-55.703771,-26.151412],[-55.704318,-26.151851],[-55.704535,-26.151704],[-55.704307,-26.151359],[-55.706098,-26.151492],[-55.70663,-26.150865],[-55.707082,-26.153388],[-55.706372,-26.153548],[-55.706263,-26.153994],[-55.707489,-26.154434],[-55.707649,-26.15528],[-55.708846,-26.155038],[-55.707539,-26.155866],[-55.707492,-26.156159],[-55.708393,-26.156645],[-55.707695,-26.157221],[-55.707324,-26.15933],[-55.706799,-26.159709],[-55.707053,-26.160425],[-55.706256,-26.160824],[-55.706334,-26.161285],[-55.705939,-26.161404],[-55.706493,-26.161783],[-55.70567,-26.162141],[-55.705148,-26.161712],[-55.705079,-26.163048],[-55.704288,-26.164138],[-55.704894,-26.164744],[-55.704615,-26.165206],[-55.705211,-26.165523],[-55.705534,-26.164831],[-55.706202,-26.164882],[-55.70578,-26.165758],[-55.707419,-26.167691],[-55.707094,-26.168709],[-55.708229,-26.1688],[-55.7081,-26.169436],[-55.709013,-26.169805],[-55.708661,-26.170136],[-55.707799,-26.170196],[-55.7078,-26.171035],[-55.708826,-26.172092],[-55.709396,-26.171357],[-55.710593,-26.171738],[-55.709628,-26.172063],[-55.710833,-26.172977],[-55.710519,-26.17436],[-55.711805,-26.174475],[-55.711855,-26.1749],[-55.71229,-26.174822],[-55.712409,-26.176268],[-55.712033,-26.177208],[-55.711461,-26.177438],[-55.711968,-26.177875],[-55.711541,-26.17896],[-55.713734,-26.178753],[-55.714901,-26.179139],[-55.715392,-26.179965],[-55.71618,-26.179705],[-55.720154,-26.181334],[-55.720827,-26.180866],[-55.72143,-26.17935],[-55.722699,-26.179249],[-55.722616,-26.178359],[-55.722932,-26.177946],[-55.724169,-26.177628],[-55.725044,-26.177739],[-55.725866,-26.176451],[-55.72704,-26.175558],[-55.726545,-26.174547],[-55.72735,-26.172762],[-55.727251,-26.171502],[-55.727823,-26.171196],[-55.73008,-26.171514],[-55.730458,-26.171214],[-55.7319,-26.167936],[-55.731619,-26.166539],[-55.732209,-26.164996],[-55.732106,-26.1642],[-55.733845,-26.162545],[-55.734066,-26.161911],[-55.733696,-26.161262],[-55.73509,-26.161265],[-55.73599,-26.160009],[-55.736937,-26.159851],[-55.737035,-26.159188],[-55.739259,-26.157311],[-55.73996,-26.155715],[-55.739667,-26.15518],[-55.740484,-26.154365],[-55.740357,-26.151281],[-55.741684,-26.150778],[-55.742565,-26.149987],[-55.743757,-26.149753],[-55.744989,-26.14832],[-55.744939,-26.14669],[-55.745644,-26.145951],[-55.745372,-26.143177],[-55.746098,-26.142411],[-55.746846,-26.140856],[-55.747985,-26.136956],[-55.75026,-26.137206],[-55.752398,-26.13629],[-55.752591,-26.135836],[-55.753712,-26.135304],[-55.754838,-26.134091],[-55.75648,-26.133586],[-55.755823,-26.130795],[-55.756737,-26.129191],[-55.75592,-26.12834],[-55.755974,-26.127857],[-55.756475,-26.127383],[-55.757425,-26.127662],[-55.760045,-26.126475],[-55.761602,-26.125333],[-55.762705,-26.123789],[-55.762633,-26.123003],[-55.761117,-26.120688],[-55.760867,-26.119584],[-55.762244,-26.116951],[-55.762266,-26.116391],[-55.763848,-26.115317],[-55.763874,-26.113141],[-55.786827,-26.112163],[-55.788254,-26.113109],[-55.789111,-26.114159],[-55.788654,-26.11532],[-55.790189,-26.115802],[-55.790658,-26.115346],[-55.791245,-26.115603],[-55.791366,-26.116837],[-55.790473,-26.119912],[-55.79183,-26.119554],[-55.792229,-26.119882],[-55.793097,-26.11988],[-55.794412,-26.118654],[-55.795444,-26.11869],[-55.795676,-26.11927],[-55.796257,-26.11806],[-55.796548,-26.119918],[-55.798182,-26.119747],[-55.798881,-26.121107],[-55.814448,-26.092024],[-55.814458,-26.089171],[-55.823476,-26.089393],[-55.82369,-26.087382],[-55.824065,-26.086993],[-55.82947,-26.085918],[-55.830972,-26.08453],[-55.83154,-26.083527],[-55.833916,-26.081531],[-55.836094,-26.080652],[-55.837349,-26.079151],[-55.83866,-26.07821],[-55.839717,-26.077938],[-55.841779,-26.076331],[-55.842636,-26.077071],[-55.844233,-26.077531],[-55.845662,-26.079073],[-55.846835,-26.078825],[-55.848689,-26.080135],[-55.850713,-26.080973],[-55.852,-26.081105],[-55.855402,-26.082762],[-55.856246,-26.084597],[-55.858073,-26.086828],[-55.858198,-26.08877],[-55.858792,-26.08998],[-55.859826,-26.090941],[-55.860887,-26.09089],[-55.861687,-26.091276],[-55.863227,-26.092909],[-55.86508,-26.093573],[-55.866395,-26.093399],[-55.867188,-26.092529],[-55.869357,-26.09139],[-55.869767,-26.091682],[-55.86978,-26.092504],[-55.870657,-26.092669],[-55.871371,-26.093596],[-55.871681,-26.093598],[-55.871526,-26.092482],[-55.872295,-26.092054],[-55.873027,-26.092223],[-55.873489,-26.093603],[-55.873828,-26.093701],[-55.87435,-26.093172],[-55.874825,-26.093158],[-55.877611,-26.096213],[-55.879217,-26.097083],[-55.885055,-26.102794],[-55.886091,-26.10445],[-55.886206,-26.107109],[-55.887004,-26.107973],[-55.889005,-26.108621],[-55.89018,-26.109641],[-55.892036,-26.10994],[-55.895175,-26.111896],[-55.896932,-26.111593],[-55.898844,-26.109676],[-55.900256,-26.108707]]]}}]}
