{"type":"FeatureCollection","name":"distrito","features":[{"type":"Feature","properties":{"clave":"8-0","nombre":"San Juan Bautista de las Misiones"},"geometry":{"type":"Polygon","coordinates":[[[-57.430828,-27.057374],[-57.640095,-26.790442],[-57.648367,-26.757969],[-57.733948,-26.43636],[-57.743082,-26.400939],[-57.743139,-26.40059],[-57.741867,-26.401261],[-57.737766,-26.4017],[-57.735415,-26.401593],[-57.733193,-26.401008],[-57.73061,-26.400753],[-57.72852,-26.400078],[-57.726689,-26.398418],[-57.725403,-26.393864],[-57.724234,-26.392141],[-57.722237,-26.390362],[-57.72011,-26.389032],[-57.71812,-26.388356],[-57.716829,-26.388213],[-57.71412,-26.389121],[-57.711358,-26.392086],[-57.710973,-26.394055],[-57.712241,-26.395718],[-57.713504,-26.396606],[-57.714837,-26.39809],[-57.715675,-26.399725],[-57.71543,-26.400904],[-57.714569,-26.402138],[-57.71255,-26.403527],[-57.710692,-26.404281],[-57.709122,-26.404624],[-57.705481,-26.404568],[-57.704077,-26.405134],[-57.7033,-26.406591],[-57.70356,-26.408527],[-57.709078,-26.417666],[-57.709918,-26.419674],[-57.708285,-26.424237],[-57.702557,-26.426641],[-57.699148,-26.427412],[-57.696913,-26.427339],[-57.695977,-26.426533],[-57.692395,-26.419229],[-57.690435,-26.418484],[-57.688354,-26.418242],[-57.686464,-26.418866],[-57.684857,-26.419908],[-57.684185,-26.421839],[-57.685288,-26.424712],[-57.68566,-26.429853],[-57.684249,-26.431675],[-57.680849,-26.434178],[-57.678059,-26.434751],[-57.672005,-26.434583],[-57.668885,-26.431943],[-57.667175,-26.431308],[-57.665281,-26.431289],[-57.663424,-26.432276],[-57.662934,-26.433396],[-57.663253,-26.434848],[-57.665837,-26.436289],[-57.667616,-26.437818],[-57.668153,-26.43952],[-57.667198,-26.440698],[-57.665898,-26.441459],[-57.664039,-26.441998],[-57.66206,-26.443433],[-57.661172,-26.445533],[-57.661216,-26.447824],[-57.663342,-26.450357],[-57.673972,-26.457297],[-57.67612,-26.459606],[-57.676724,-26.462186],[-57.676156,-26.465766],[-57.674871,-26.468331],[-57.672298,-26.469125],[-57.66966,-26.469277],[-57.665279,-26.468711],[-57.660234,-26.466247],[-57.657316,-26.466205],[-57.655551,-26.467107],[-57.654074,-26.469489],[-57.654244,-26.472115],[-57.65587,-26.474092],[-57.663286,-26.478529],[-57.664228,-26.480369],[-57.664332,-26.482269],[-57.662978,-26.484483],[-57.660141,-26.487961],[-57.65788,-26.48909],[-57.65642,-26.488957],[-57.654925,-26.488153],[-57.653899,-26.482457],[-57.652584,-26.480507],[-57.64847,-26.477898],[-57.64555,-26.477688],[-57.642974,-26.477923],[-57.640184,-26.478942],[-57.638733,-26.480374],[-57.63893,-26.482301],[-57.64031,-26.484866],[-57.64319,-26.488849],[-57.643633,-26.490328],[-57.641258,-26.498918],[-57.64021,-26.500348],[-57.639246,-26.500241],[-57.638213,-26.498764],[-57.637796,-26.496251],[-57.636478,-26.493882],[-57.633203,-26.491353],[-57.629691,-26.49081],[-57.625316,-26.491611],[-57.622426,-26.491205],[-57.620066,-26.491327],[-57.61917,-26.492085],[-57.616857,-26.497383],[-57.615229,-26.498586],[-57.613308,-26.499488],[-57.612227,-26.500611],[-57.611956,-26.502149],[-57.612525,-26.504075],[-57.612191,-26.505529],[-57.611327,-26.506567],[-57.610366,-26.507046],[-57.607788,-26.507029],[-57.606239,-26.507707],[-57.605065,-26.508913],[-57.604947,-26.510171],[-57.605298,-26.511847],[-57.606524,-26.514692],[-57.608775,-26.517449],[-57.609096,-26.519404],[-57.608641,-26.521557],[-57.607561,-26.522876],[-57.604151,-26.524259],[-57.597049,-26.532505],[-57.595033,-26.533212],[-57.590429,-26.532086],[-57.587601,-26.531846],[-57.584589,-26.53225],[-57.57857,-26.533867],[-57.575897,-26.533626],[-57.572587,-26.530174],[-57.571152,-26.529062],[-57.567298,-26.528714],[-57.56596,-26.528328],[-57.565024,-26.52741],[-57.563883,-26.52272],[-57.561983,-26.521693],[-57.560088,-26.52184],[-57.555123,-26.52369],[-57.550464,-26.523897],[-57.547717,-26.524285],[-57.546884,-26.524826],[-57.54655,-26.52642],[-57.54889,-26.535046],[-57.547881,-26.53846],[-57.546095,-26.541736],[-57.545073,-26.54255],[-57.54439,-26.542609],[-57.543269,-26.54211],[-57.540736,-26.53871],[-57.539177,-26.537431],[-57.536626,-26.536798],[-57.534358,-26.536834],[-57.530974,-26.537406],[-57.522753,-26.540063],[-57.521167,-26.539817],[-57.515224,-26.537799],[-57.509633,-26.538154],[-57.508207,-26.538858],[-57.50812,-26.540172],[-57.510756,-26.543579],[-57.517323,-26.547642],[-57.520199,-26.549749],[-57.520484,-26.551068],[-57.520261,-26.552354],[-57.518989,-26.55289],[-57.517622,-26.552867],[-57.51395,-26.551651],[-57.506395,-26.551375],[-57.503024,-26.551985],[-57.499777,-26.552939],[-57.498959,-26.553697],[-57.498666,-26.554704],[-57.499126,-26.55571],[-57.504793,-26.558429],[-57.506883,-26.560182],[-57.508414,-26.561937],[-57.508824,-26.563445],[-57.508026,-26.565599],[-57.506757,-26.56675],[-57.504554,-26.567568],[-57.500639,-26.567749],[-57.49697,-26.567455],[-57.495321,-26.567041],[-57.492793,-26.564395],[-57.490837,-26.558717],[-57.490461,-26.558275],[-57.489755,-26.558278],[-57.488801,-26.558468],[-57.488017,-26.559665],[-57.486487,-26.560865],[-57.485658,-26.561166],[-57.483582,-26.56121],[-57.480632,-26.560437],[-57.475651,-26.560565],[-57.471167,-26.560132],[-57.470713,-26.560768],[-57.470759,-26.561888],[-57.472607,-26.567183],[-57.473175,-26.574124],[-57.472558,-26.57547],[-57.471024,-26.576035],[-57.469322,-26.576078],[-57.46745,-26.575076],[-57.462283,-26.570352],[-57.460078,-26.569239],[-57.458749,-26.56902],[-57.451033,-26.570239],[-57.448213,-26.571069],[-57.447013,-26.572193],[-57.446023,-26.573838],[-57.446071,-26.575331],[-57.447029,-26.576187],[-57.450682,-26.576063],[-57.45172,-26.576284],[-57.452345,-26.576842],[-57.452434,-26.578185],[-57.448662,-26.579803],[-57.447007,-26.581152],[-57.445606,-26.584068],[-57.444035,-26.585827],[-57.441091,-26.586732],[-57.434989,-26.587012],[-57.432541,-26.58743],[-57.430802,-26.588742],[-57.428321,-26.591586],[-57.427957,-26.594126],[-57.429089,-26.596997],[-57.435024,-26.605947],[-57.436186,-26.608463],[-57.436389,-26.612634],[-57.435645,-26.613672],[-57.434804,-26.613675],[-57.432839,-26.612841],[-57.428183,-26.608767],[-57.424437,-26.606483],[-57.42026,-26.605543],[-57.416088,-26.605836],[-57.414408,-26.606317],[-57.413477,-26.607383],[-57.413364,-26.610435],[-57.411432,-26.619008],[-57.41078,-26.619597],[-57.408972,-26.619239],[-57.407972,-26.61815],[-57.406743,-26.614178],[-57.405801,-26.613173],[-57.399603,-26.610901],[-57.396733,-26.610734],[-57.391224,-26.612066],[-57.389198,-26.611539],[-57.388012,-26.610814],[-57.383313,-26.606075],[-57.381815,-26.605176],[-57.380343,-26.604991],[-57.379503,-26.605518],[-57.378947,-26.606758],[-57.378405,-26.612324],[-57.377572,-26.614867],[-57.376201,-26.616928],[-57.375153,-26.617918],[-57.373939,-26.61832],[-57.373166,-26.617692],[-57.373045,-26.616496],[-57.375464,-26.61313],[-57.37623,-26.611574],[-57.375988,-26.609013],[-57.375263,-26.607628],[-57.374669,-26.607003],[-57.373196,-26.606535],[-57.371239,-26.606563],[-57.370272,-26.608338],[-57.370272,-26.611475],[-57.369746,-26.612736],[-57.368566,-26.613775],[-57.367135,-26.614171],[-57.364732,-26.612861],[-57.364042,-26.611211],[-57.36325,-26.60721],[-57.362154,-26.605169],[-57.361837,-26.603602],[-57.361951,-26.601772],[-57.363189,-26.599193],[-57.363514,-26.597065],[-57.363053,-26.59561],[-57.361347,-26.59442],[-57.35927,-26.594313],[-57.357278,-26.594691],[-57.355707,-26.596898],[-57.354846,-26.600484],[-57.354781,-26.609116],[-57.354156,-26.610986],[-57.352664,-26.612124],[-57.350122,-26.613348],[-57.348488,-26.61373],[-57.347389,-26.61346],[-57.34706,-26.61281],[-57.347102,-26.61134],[-57.348796,-26.607367],[-57.348348,-26.606192],[-57.347481,-26.605229],[-57.346125,-26.604707],[-57.34456,-26.604942],[-57.340106,-26.607283],[-57.334296,-26.609586],[-57.332568,-26.609884],[-57.331493,-26.609529],[-57.330743,-26.608775],[-57.330413,-26.607537],[-57.327906,-26.60496],[-57.322386,-26.602791],[-57.321164,-26.601351],[-57.321049,-26.600007],[-57.323003,-26.595028],[-57.323825,-26.588503],[-57.32279,-26.585958],[-57.320949,-26.584562],[-57.319204,-26.584202],[-57.316807,-26.584152],[-57.315095,-26.584603],[-57.314164,-26.585753],[-57.313367,-26.590207],[-57.312156,-26.591777],[-57.31057,-26.592592],[-57.299703,-26.592868],[-57.296903,-26.593825],[-57.294692,-26.59411],[-57.29357,-26.593804],[-57.293349,-26.592601],[-57.293782,-26.591144],[-57.298377,-26.585815],[-57.298591,-26.584555],[-57.297934,-26.583408],[-57.296967,-26.582515],[-57.294694,-26.582504],[-57.29099,-26.586851],[-57.284476,-26.596747],[-57.282764,-26.597451],[-57.282048,-26.5972],[-57.281825,-26.595325],[-57.28356,-26.591878],[-57.283961,-26.590337],[-57.283397,-26.588602],[-57.281493,-26.58701],[-57.279624,-26.58665],[-57.277849,-26.586794],[-57.274862,-26.587835],[-57.268856,-26.589191],[-57.267423,-26.589081],[-57.266207,-26.58858],[-57.265085,-26.58791],[-57.26421,-26.586568],[-57.263925,-26.58458],[-57.264638,-26.583067],[-57.265633,-26.582421],[-57.266878,-26.582531],[-57.269936,-26.585073],[-57.271525,-26.585406],[-57.273051,-26.585403],[-57.27501,-26.584279],[-57.275567,-26.58285],[-57.275253,-26.581731],[-57.274347,-26.580501],[-57.268988,-26.579279],[-57.266897,-26.577324],[-57.26677,-26.576064],[-57.267885,-26.573514],[-57.267787,-26.571778],[-57.267099,-26.570156],[-57.262891,-26.568372],[-57.258714,-26.565832],[-57.256845,-26.565499],[-57.254448,-26.565784],[-57.253171,-26.565534],[-57.250356,-26.569159],[-57.240708,-26.571867],[-57.239972,-26.571796],[-57.239482,-26.57125],[-57.239414,-26.570316],[-57.239007,-26.570032],[-57.239217,-26.568375],[-57.23685,-26.567918],[-57.235439,-26.56728],[-57.232932,-26.569085],[-57.232759,-26.570237],[-57.232094,-26.571217],[-57.230787,-26.571712],[-57.230253,-26.571369],[-57.230217,-26.570927],[-57.23129,-26.569828],[-57.231364,-26.568934],[-57.229129,-26.56845],[-57.228809,-26.567932],[-57.228988,-26.56739],[-57.22852,-26.566826],[-57.225101,-26.56619],[-57.223874,-26.566531],[-57.221928,-26.566078],[-57.221175,-26.567533],[-57.22134,-26.568774],[-57.221011,-26.569253],[-57.221428,-26.569659],[-57.221092,-26.570332],[-57.220307,-26.570843],[-57.218778,-26.571144],[-57.217369,-26.570044],[-57.217654,-26.568992],[-57.219241,-26.567653],[-57.218905,-26.566868],[-57.217645,-26.566613],[-57.218239,-26.56575],[-57.218125,-26.565434],[-57.217482,-26.565444],[-57.216706,-26.565892],[-57.215868,-26.565532],[-57.215552,-26.565907],[-57.215063,-26.565158],[-57.214632,-26.56538],[-57.214605,-26.566477],[-57.214317,-26.566713],[-57.213944,-26.566167],[-57.21309,-26.566141],[-57.213706,-26.56479],[-57.213059,-26.564159],[-57.212059,-26.564924],[-57.211859,-26.565755],[-57.210516,-26.565012],[-57.211044,-26.56386],[-57.210081,-26.563229],[-57.208486,-26.56343],[-57.208413,-26.56371],[-57.209222,-26.564133],[-57.208954,-26.564567],[-57.207771,-26.564582],[-57.207446,-26.564307],[-57.207008,-26.5635],[-57.207134,-26.562565],[-57.206402,-26.562178],[-57.206589,-26.56109],[-57.206372,-26.560282],[-57.207262,-26.559798],[-57.207613,-26.558064],[-57.208873,-26.557646],[-57.20946,-26.556625],[-57.20965,-26.55542],[-57.210682,-26.554073],[-57.209154,-26.553131],[-57.208576,-26.552414],[-57.206559,-26.552363],[-57.206066,-26.54901],[-57.20547,-26.548681],[-57.203851,-26.548945],[-57.202704,-26.547312],[-57.200989,-26.546981],[-57.200281,-26.547781],[-57.200362,-26.548846],[-57.202493,-26.550103],[-57.202782,-26.550766],[-57.202513,-26.551128],[-57.2009,-26.551125],[-57.198817,-26.550433],[-57.19795,-26.551075],[-57.196747,-26.550517],[-57.196234,-26.550725],[-57.195748,-26.551765],[-57.194556,-26.552651],[-57.193723,-26.552869],[-57.193528,-26.550422],[-57.192511,-26.548333],[-57.187292,-26.543239],[-57.186861,-26.542472],[-57.186726,-26.541064],[-57.185039,-26.540583],[-57.1852,-26.539571],[-57.1848,-26.538917],[-57.18316,-26.538215],[-57.181483,-26.536014],[-57.18151,-26.535395],[-57.182227,-26.535336],[-57.182599,-26.534767],[-57.181657,-26.533147],[-57.181758,-26.532131],[-57.181324,-26.531554],[-57.180668,-26.531604],[-57.179714,-26.532644],[-57.178873,-26.533083],[-57.172983,-26.534106],[-57.172554,-26.53333],[-57.172941,-26.532088],[-57.172457,-26.529186],[-57.169941,-26.526498],[-57.167063,-26.526267],[-57.164867,-26.525678],[-57.108887,-26.506477],[-57.119917,-26.515804],[-57.11698,-26.535201],[-57.116011,-26.536678],[-57.115336,-26.539663],[-57.114672,-26.541081],[-57.112778,-26.543665],[-57.111803,-26.54972],[-57.11211,-26.55153],[-57.110688,-26.555468],[-57.110626,-26.557653],[-57.109289,-26.561008],[-57.092296,-26.584847],[-57.091053,-26.585151],[-57.086503,-26.587348],[-57.086221,-26.58784],[-57.086161,-26.588766],[-57.087291,-26.593054],[-57.088303,-26.594946],[-57.085657,-26.595741],[-57.085499,-26.657825],[-57.080555,-26.670821],[-57.070894,-26.681665],[-57.06265,-26.705284],[-57.045455,-26.707724],[-57.033018,-26.708256],[-57.025784,-26.70898],[-57.020978,-26.708624],[-57.015731,-26.711694],[-57.009691,-26.710314],[-57.001178,-26.710183],[-57.012867,-26.72271],[-57.044426,-26.752752],[-57.044318,-26.754021],[-57.043245,-26.755438],[-57.045104,-26.759325],[-57.046088,-26.760738],[-57.048363,-26.761581],[-57.04974,-26.763558],[-57.051067,-26.764325],[-57.051951,-26.765426],[-57.052941,-26.765814],[-57.05348,-26.766843],[-57.05508,-26.76752],[-57.055471,-26.768142],[-57.056699,-26.768634],[-57.057361,-26.769812],[-57.059188,-26.770398],[-57.060341,-26.772072],[-57.061351,-26.772483],[-57.06205,-26.773435],[-57.063969,-26.77426],[-57.064704,-26.775104],[-57.066744,-26.775031],[-57.06776,-26.775509],[-57.069607,-26.775671],[-57.07632,-26.778417],[-57.079187,-26.777598],[-57.080138,-26.778302],[-57.080999,-26.779534],[-57.080348,-26.780676],[-57.079068,-26.781408],[-57.080222,-26.783741],[-57.08253,-26.786033],[-57.082902,-26.786905],[-57.083822,-26.787283],[-57.085076,-26.788366],[-57.086011,-26.78842],[-57.087408,-26.78934],[-57.090083,-26.78923],[-57.091681,-26.790127],[-57.092396,-26.791386],[-57.094122,-26.792532],[-57.095124,-26.794463],[-57.096317,-26.794936],[-57.096403,-26.795473],[-57.097084,-26.795112],[-57.097233,-26.795644],[-57.097659,-26.795147],[-57.097617,-26.795626],[-57.098043,-26.79549],[-57.098384,-26.795738],[-57.098299,-26.796045],[-57.098788,-26.795986],[-57.099087,-26.797133],[-57.099876,-26.797548],[-57.099861,-26.798067],[-57.100229,-26.7978],[-57.100181,-26.798089],[-57.100622,-26.798301],[-57.100622,-26.799023],[-57.101516,-26.798355],[-57.101793,-26.798991],[-57.102325,-26.798471],[-57.102496,-26.799004],[-57.103028,-26.798678],[-57.103561,-26.799021],[-57.105797,-26.79818],[-57.107499,-26.796896],[-57.107414,-26.797452],[-57.10931,-26.797568],[-57.110219,-26.7968],[-57.110075,-26.796303],[-57.110778,-26.796208],[-57.111225,-26.795598],[-57.111566,-26.796094],[-57.112524,-26.795922],[-57.112525,-26.796495],[-57.112816,-26.796044],[-57.11312,-26.796111],[-57.113398,-26.796702],[-57.115037,-26.796376],[-57.115022,-26.796909],[-57.115499,-26.796669],[-57.115379,-26.797008],[-57.115769,-26.796913],[-57.116015,-26.797531],[-57.116849,-26.797787],[-57.11685,-26.798839],[-57.117288,-26.798789],[-57.117639,-26.799358],[-57.118512,-26.799488],[-57.118493,-26.799872],[-57.119122,-26.799808],[-57.11925,-26.800169],[-57.120305,-26.799568],[-57.121302,-26.79991],[-57.12176,-26.800433],[-57.122431,-26.800401],[-57.122576,-26.801516],[-57.123406,-26.801457],[-57.124334,-26.800941],[-57.125213,-26.801211],[-57.1255,-26.800272],[-57.126532,-26.800438],[-57.127693,-26.801566],[-57.127935,-26.800721],[-57.128329,-26.800626],[-57.128663,-26.801059],[-57.128951,-26.800815],[-57.129498,-26.801523],[-57.130257,-26.801563],[-57.130439,-26.802064],[-57.131213,-26.801793],[-57.131684,-26.802867],[-57.131987,-26.802893],[-57.131988,-26.803548],[-57.132458,-26.803358],[-57.132489,-26.804013],[-57.133574,-26.804201],[-57.133575,-26.804729],[-57.134303,-26.805139],[-57.135426,-26.805206],[-57.135669,-26.805544],[-57.136245,-26.8053],[-57.137156,-26.80594],[-57.139263,-26.804778],[-57.139567,-26.805365],[-57.139855,-26.805324],[-57.140568,-26.804944],[-57.140529,-26.804506],[-57.141818,-26.804301],[-57.142227,-26.803105],[-57.142651,-26.80324],[-57.14306,-26.80291],[-57.143319,-26.803347],[-57.143758,-26.80276],[-57.144092,-26.803157],[-57.144728,-26.802339],[-57.145913,-26.803358],[-57.146322,-26.803195],[-57.146336,-26.802636],[-57.14705,-26.802919],[-57.147155,-26.802418],[-57.14758,-26.802607],[-57.147702,-26.803235],[-57.148681,-26.803039],[-57.149256,-26.802565],[-57.149119,-26.802154],[-57.149512,-26.801012],[-57.150149,-26.800618],[-57.150559,-26.800848],[-57.150953,-26.800563],[-57.151166,-26.80105],[-57.151681,-26.800752],[-57.152137,-26.80146],[-57.152682,-26.801035],[-57.153133,-26.801581],[-57.153426,-26.801143],[-57.153273,-26.800696],[-57.153895,-26.800722],[-57.153514,-26.799441],[-57.153893,-26.798885],[-57.154773,-26.798938],[-57.15528,-26.798626],[-57.155945,-26.798842],[-57.156055,-26.799181],[-57.156464,-26.798801],[-57.156995,-26.799031],[-57.157389,-26.798732],[-57.157738,-26.798881],[-57.15804,-26.798307],[-57.158829,-26.798035],[-57.158692,-26.797751],[-57.160299,-26.797406],[-57.160678,-26.796878],[-57.160404,-26.796156],[-57.160979,-26.795744],[-57.161253,-26.795852],[-57.161421,-26.797215],[-57.162058,-26.796849],[-57.162301,-26.797363],[-57.162422,-26.796835],[-57.162711,-26.797498],[-57.164348,-26.796928],[-57.164681,-26.796516],[-57.165046,-26.796954],[-57.166532,-26.79669],[-57.167595,-26.797032],[-57.167897,-26.796255],[-57.168552,-26.795735],[-57.168821,-26.79597],[-57.169406,-26.795807],[-57.169483,-26.796073],[-57.1698,-26.795725],[-57.170065,-26.79619],[-57.170348,-26.795959],[-57.170536,-26.796361],[-57.170763,-26.796035],[-57.170961,-26.796387],[-57.171446,-26.796102],[-57.17146,-26.795502],[-57.172097,-26.795731],[-57.171809,-26.795366],[-57.172096,-26.794955],[-57.172324,-26.79527],[-57.172688,-26.7949],[-57.172931,-26.795229],[-57.173635,-26.794777],[-57.174446,-26.794997],[-57.174561,-26.794667],[-57.17532,-26.79566],[-57.175532,-26.795443],[-57.176747,-26.796245],[-57.177574,-26.796329],[-57.177604,-26.795941],[-57.178308,-26.795656],[-57.178886,-26.796228],[-57.179369,-26.79611],[-57.179569,-26.796855],[-57.179629,-26.796552],[-57.179948,-26.796949],[-57.180327,-26.796841],[-57.182523,-26.799257],[-57.183221,-26.799243],[-57.183237,-26.799749],[-57.183708,-26.800127],[-57.184223,-26.800127],[-57.184861,-26.800645],[-57.185452,-26.800247],[-57.185741,-26.801036],[-57.186287,-26.800792],[-57.186455,-26.801324],[-57.187183,-26.801296],[-57.18685,-26.801839],[-57.187078,-26.802154],[-57.187932,-26.801787],[-57.187961,-26.802365],[-57.188375,-26.80222],[-57.188513,-26.802586],[-57.189058,-26.802219],[-57.189271,-26.802856],[-57.189984,-26.802814],[-57.191002,-26.803779],[-57.191552,-26.803656],[-57.192414,-26.804797],[-57.192854,-26.804729],[-57.193037,-26.805099],[-57.19413,-26.805571],[-57.194138,-26.806126],[-57.194571,-26.806252],[-57.194175,-26.807065],[-57.194851,-26.807502],[-57.195018,-26.807222],[-57.195222,-26.808007],[-57.195973,-26.808079],[-57.196141,-26.808498],[-57.196429,-26.808232],[-57.196776,-26.808863],[-57.19709,-26.808777],[-57.196986,-26.808533],[-57.197312,-26.808569],[-57.197483,-26.80902],[-57.197096,-26.80958],[-57.197475,-26.810099],[-57.197696,-26.809738],[-57.198539,-26.810748],[-57.198932,-26.810454],[-57.199398,-26.810679],[-57.199546,-26.811256],[-57.199877,-26.810795],[-57.199957,-26.811107],[-57.200175,-26.810827],[-57.200633,-26.811088],[-57.200689,-26.810821],[-57.2008,-26.811074],[-57.20076,-26.810573],[-57.201309,-26.811118],[-57.202082,-26.810675],[-57.202325,-26.811103],[-57.202825,-26.810918],[-57.202879,-26.811464],[-57.203221,-26.811359],[-57.203321,-26.811743],[-57.203611,-26.811738],[-57.203655,-26.812248],[-57.203969,-26.811932],[-57.203998,-26.812356],[-57.204435,-26.812206],[-57.204834,-26.81272],[-57.20494,-26.812373],[-57.205473,-26.812539],[-57.205178,-26.811849],[-57.206021,-26.811843],[-57.206756,-26.8113],[-57.207166,-26.811552],[-57.207169,-26.811006],[-57.207505,-26.810924],[-57.207673,-26.81045],[-57.208298,-26.810923],[-57.208665,-26.810733],[-57.208726,-26.81099],[-57.209019,-26.810692],[-57.209044,-26.81094],[-57.209222,-26.810741],[-57.209722,-26.810948],[-57.210147,-26.810117],[-57.210676,-26.809999],[-57.211101,-26.810589],[-57.21193,-26.811017],[-57.212052,-26.811428],[-57.212167,-26.811233],[-57.212588,-26.811558],[-57.212942,-26.811359],[-57.213599,-26.811809],[-57.213845,-26.811705],[-57.214292,-26.812269],[-57.214548,-26.812101],[-57.214549,-26.812354],[-57.215592,-26.812425],[-57.215876,-26.813332],[-57.216255,-26.813132],[-57.216342,-26.813385],[-57.216588,-26.813163],[-57.21689,-26.81333],[-57.217066,-26.812883],[-57.217428,-26.813433],[-57.218092,-26.813653],[-57.218517,-26.813142],[-57.219614,-26.813294],[-57.219869,-26.812748],[-57.221241,-26.813247],[-57.221543,-26.812718],[-57.221964,-26.813552],[-57.22308,-26.813397],[-57.223144,-26.812801],[-57.223598,-26.81313],[-57.22418,-26.813048],[-57.224156,-26.813287],[-57.224524,-26.813323],[-57.224532,-26.814126],[-57.224886,-26.814035],[-57.225511,-26.814549],[-57.226002,-26.814458],[-57.226157,-26.813893],[-57.228024,-26.812866],[-57.228754,-26.813722],[-57.229246,-26.813229],[-57.229299,-26.813604],[-57.229637,-26.813685],[-57.230509,-26.813137],[-57.230858,-26.81366],[-57.231284,-26.813348],[-57.231174,-26.81393],[-57.231991,-26.813681],[-57.231758,-26.814232],[-57.232377,-26.814818],[-57.233053,-26.81497],[-57.233643,-26.814518],[-57.233978,-26.814946],[-57.234352,-26.814945],[-57.234725,-26.814439],[-57.23548,-26.81442],[-57.235556,-26.813959],[-57.236924,-26.814345],[-57.237946,-26.813215],[-57.238371,-26.813061],[-57.238996,-26.81338],[-57.238963,-26.812712],[-57.239381,-26.812102],[-57.238861,-26.81152],[-57.239336,-26.811565],[-57.239614,-26.811217],[-57.240147,-26.811396],[-57.240315,-26.811021],[-57.24061,-26.811147],[-57.241192,-26.810773],[-57.241374,-26.810997],[-57.241478,-26.810726],[-57.241965,-26.811122],[-57.243028,-26.810981],[-57.243049,-26.811283],[-57.243803,-26.811295],[-57.243811,-26.812054],[-57.244283,-26.811899],[-57.245158,-26.81299],[-57.245709,-26.812701],[-57.245745,-26.812109],[-57.24672,-26.811363],[-57.246715,-26.810595],[-57.247716,-26.8103],[-57.247909,-26.809835],[-57.248669,-26.809851],[-57.250225,-26.810982],[-57.251055,-26.809396],[-57.252463,-26.809222],[-57.254866,-26.807782],[-57.255971,-26.806389],[-57.256095,-26.805522],[-57.257121,-26.804112],[-57.257576,-26.802509],[-57.258682,-26.801527],[-57.258289,-26.800923],[-57.258729,-26.800258],[-57.258582,-26.799062],[-57.259233,-26.798551],[-57.259499,-26.797828],[-57.259732,-26.796582],[-57.259527,-26.795769],[-57.260058,-26.794392],[-57.259729,-26.794049],[-57.259981,-26.792703],[-57.260685,-26.79137],[-57.26099,-26.790995],[-57.261838,-26.79079],[-57.26192,-26.790208],[-57.263105,-26.789073],[-57.263198,-26.788016],[-57.263562,-26.787939],[-57.263937,-26.787265],[-57.265455,-26.786734],[-57.266588,-26.785924],[-57.266841,-26.785337],[-57.267798,-26.785019],[-57.268593,-26.783956],[-57.270099,-26.783164],[-57.270814,-26.781979],[-57.27005,-26.781141],[-57.270125,-26.779781],[-57.301011,-26.819067],[-57.335137,-26.864897],[-57.3698,-26.90901],[-57.379744,-26.934327],[-57.417305,-27.026781],[-57.430828,-27.057374]]]}}]}
