{"type":"FeatureCollection","name":"distrito","features":[{"type":"Feature","properties":{"clave":"5-29","nombre":"San José de los Arroyos"},"geometry":{"type":"Polygon","coordinates":[[[-56.719637,-25.658703],[-56.720871,-25.660886],[-56.721868,-25.660757],[-56.722415,-25.660234],[-56.722933,-25.661084],[-56.724566,-25.661949],[-56.725033,-25.661115],[-56.725614,-25.661107],[-56.725934,-25.661437],[-56.725554,-25.662172],[-56.726762,-25.663172],[-56.727738,-25.663188],[-56.728195,-25.662981],[-56.728362,-25.662345],[-56.729157,-25.662382],[-56.730006,-25.661865],[-56.730559,-25.661956],[-56.733713,-25.660716],[-56.73444,-25.659457],[-56.733949,-25.658892],[-56.73503,-25.65814],[-56.735789,-25.658534],[-56.736247,-25.658336],[-56.735868,-25.656615],[-56.736384,-25.655844],[-56.736812,-25.656527],[-56.736809,-25.658707],[-56.738061,-25.658908],[-56.737785,-25.659924],[-56.739467,-25.660735],[-56.739818,-25.660212],[-56.740818,-25.659667],[-56.740259,-25.658845],[-56.740665,-25.6582],[-56.741427,-25.658291],[-56.741598,-25.657664],[-56.742426,-25.657282],[-56.742786,-25.657662],[-56.743288,-25.657626],[-56.743492,-25.658394],[-56.744035,-25.65877],[-56.744328,-25.65784],[-56.74537,-25.65758],[-56.745707,-25.656569],[-56.746499,-25.656738],[-56.746797,-25.65542],[-56.746116,-25.655347],[-56.746087,-25.655053],[-56.747042,-25.654436],[-56.747168,-25.653344],[-56.748022,-25.652582],[-56.748341,-25.650867],[-56.749321,-25.650494],[-56.748967,-25.648913],[-56.749314,-25.648548],[-56.75128,-25.648818],[-56.751982,-25.648561],[-56.751568,-25.647829],[-56.752552,-25.648007],[-56.752959,-25.647371],[-56.753483,-25.648189],[-56.754686,-25.648647],[-56.755147,-25.648129],[-56.756199,-25.647738],[-56.755916,-25.646902],[-56.756837,-25.646366],[-56.757252,-25.646864],[-56.756614,-25.64847],[-56.757225,-25.649505],[-56.75762,-25.649108],[-56.758188,-25.649524],[-56.758388,-25.648373],[-56.758715,-25.648988],[-56.759657,-25.648497],[-56.760796,-25.648734],[-56.76187,-25.647923],[-56.761959,-25.647251],[-56.762398,-25.647188],[-56.762834,-25.647749],[-56.764259,-25.647173],[-56.764753,-25.646501],[-56.76482,-25.645883],[-56.764514,-25.645525],[-56.764952,-25.645309],[-56.764975,-25.644953],[-56.764474,-25.643521],[-56.765089,-25.64251],[-56.765637,-25.642452],[-56.765463,-25.641897],[-56.76599,-25.64118],[-56.766406,-25.640882],[-56.766975,-25.641123],[-56.767524,-25.640293],[-56.76783,-25.640808],[-56.768246,-25.640727],[-56.768181,-25.640154],[-56.768993,-25.639559],[-56.769233,-25.640115],[-56.769519,-25.638846],[-56.769978,-25.639303],[-56.770493,-25.639182],[-56.770932,-25.638591],[-56.772662,-25.638888],[-56.773058,-25.637859],[-56.773474,-25.637701],[-56.773476,-25.636726],[-56.773847,-25.637223],[-56.77411,-25.636966],[-56.774003,-25.635697],[-56.774572,-25.635974],[-56.774814,-25.635577],[-56.775251,-25.635835],[-56.775449,-25.635501],[-56.776084,-25.635701],[-56.776281,-25.63548],[-56.776041,-25.635005],[-56.777224,-25.634926],[-56.777399,-25.63461],[-56.777006,-25.634171],[-56.777926,-25.634055],[-56.778081,-25.632764],[-56.778497,-25.632923],[-56.778475,-25.63328],[-56.779285,-25.633403],[-56.779374,-25.632568],[-56.780315,-25.63251],[-56.780875,-25.631974],[-56.781948,-25.631777],[-56.782517,-25.631877],[-56.783501,-25.632632],[-56.783962,-25.632118],[-56.784901,-25.63319],[-56.785032,-25.633885],[-56.785382,-25.633845],[-56.786195,-25.63232],[-56.78672,-25.632502],[-56.786787,-25.632005],[-56.78764,-25.632142],[-56.787576,-25.631546],[-56.788638,-25.631471],[-56.789033,-25.630577],[-56.790414,-25.629843],[-56.790371,-25.629229],[-56.790722,-25.62923],[-56.790852,-25.629907],[-56.791115,-25.629966],[-56.791247,-25.629312],[-56.792058,-25.629033],[-56.79302,-25.62963],[-56.793437,-25.629057],[-56.793941,-25.628918],[-56.795342,-25.628997],[-56.796108,-25.629395],[-56.79786,-25.628942],[-56.798516,-25.629538],[-56.798932,-25.62948],[-56.799196,-25.628605],[-56.800204,-25.628507],[-56.800928,-25.62742],[-56.801585,-25.627001],[-56.801697,-25.625989],[-56.802902,-25.625553],[-56.804485,-25.624115],[-56.80608,-25.623557],[-56.806685,-25.6227],[-56.807429,-25.622322],[-56.807615,-25.621803],[-56.807353,-25.621116],[-56.809721,-25.62121],[-56.810342,-25.620285],[-56.810791,-25.620452],[-56.810622,-25.619639],[-56.811334,-25.619094],[-56.810964,-25.618335],[-56.811463,-25.618011],[-56.807599,-25.603826],[-56.805482,-25.592642],[-56.80429,-25.58916],[-56.804162,-25.586482],[-56.803111,-25.582893],[-56.803062,-25.581242],[-56.799072,-25.563776],[-56.803342,-25.562986],[-56.802188,-25.557548],[-56.801748,-25.553724],[-56.810162,-25.552552],[-56.803265,-25.504007],[-56.802935,-25.496621],[-56.802379,-25.494915],[-56.809955,-25.489858],[-56.809896,-25.489461],[-56.809004,-25.488814],[-56.805882,-25.484333],[-56.805891,-25.478778],[-56.80439,-25.476509],[-56.800874,-25.476024],[-56.798903,-25.474719],[-56.796576,-25.472436],[-56.793709,-25.470804],[-56.791918,-25.469174],[-56.789231,-25.467379],[-56.786543,-25.466724],[-56.785648,-25.465583],[-56.786188,-25.464445],[-56.78458,-25.460861],[-56.78243,-25.460206],[-56.782253,-25.458578],[-56.781009,-25.456586],[-56.781106,-25.455468],[-56.780202,-25.455685],[-56.779976,-25.453943],[-56.778186,-25.454175],[-56.773968,-25.464897],[-56.718781,-25.43326],[-56.699567,-25.424022],[-56.672973,-25.413865],[-56.66704,-25.410335],[-56.651069,-25.397533],[-56.650819,-25.398661],[-56.652201,-25.400872],[-56.651641,-25.404018],[-56.652126,-25.405672],[-56.651028,-25.40599],[-56.649135,-25.408681],[-56.64601,-25.409409],[-56.645221,-25.410473],[-56.644547,-25.410855],[-56.643644,-25.410731],[-56.643493,-25.411715],[-56.642574,-25.412435],[-56.642142,-25.411527],[-56.641257,-25.411655],[-56.641336,-25.413173],[-56.640796,-25.41388],[-56.640008,-25.413793],[-56.640527,-25.414494],[-56.639894,-25.415698],[-56.639349,-25.416076],[-56.638052,-25.416045],[-56.638285,-25.416913],[-56.639298,-25.418351],[-56.639241,-25.419683],[-56.638423,-25.420254],[-56.637493,-25.41999],[-56.63731,-25.420365],[-56.636246,-25.420529],[-56.635481,-25.421074],[-56.635716,-25.421666],[-56.634761,-25.422318],[-56.635011,-25.422477],[-56.634695,-25.422814],[-56.635065,-25.425159],[-56.634478,-25.42602],[-56.633251,-25.426382],[-56.632463,-25.426304],[-56.631105,-25.426941],[-56.630456,-25.427581],[-56.628906,-25.427536],[-56.626421,-25.429702],[-56.625501,-25.431564],[-56.624304,-25.439048],[-56.62456,-25.444769],[-56.622559,-25.459965],[-56.621633,-25.46238],[-56.618505,-25.464372],[-56.618134,-25.465538],[-56.616752,-25.467202],[-56.615859,-25.469371],[-56.615764,-25.471616],[-56.614883,-25.47491],[-56.613054,-25.475433],[-56.610715,-25.476908],[-56.61012,-25.478659],[-56.609482,-25.479397],[-56.606217,-25.479822],[-56.605012,-25.480722],[-56.604419,-25.481687],[-56.602148,-25.48275],[-56.596796,-25.483562],[-56.596095,-25.482734],[-56.595077,-25.482257],[-56.592242,-25.482439],[-56.590425,-25.4834],[-56.589239,-25.485474],[-56.587965,-25.486725],[-56.583428,-25.487557],[-56.581838,-25.488333],[-56.579377,-25.49193],[-56.577155,-25.492004],[-56.57486,-25.493623],[-56.574069,-25.492673],[-56.572821,-25.493062],[-56.571425,-25.496616],[-56.571649,-25.497402],[-56.571464,-25.50137],[-56.571809,-25.5026],[-56.571618,-25.505719],[-56.570358,-25.5087],[-56.570302,-25.510659],[-56.576703,-25.515805],[-56.575371,-25.539239],[-56.559335,-25.544098],[-56.56935,-25.555054],[-56.576583,-25.564964],[-56.591675,-25.589825],[-56.600645,-25.592952],[-56.619671,-25.593972],[-56.622871,-25.59621],[-56.629039,-25.61213],[-56.63044,-25.614342],[-56.635423,-25.618156],[-56.635587,-25.621096],[-56.636537,-25.623315],[-56.638845,-25.628134],[-56.640625,-25.629822],[-56.641041,-25.631286],[-56.64267,-25.633742],[-56.643366,-25.634213],[-56.643818,-25.635113],[-56.6457,-25.635727],[-56.646504,-25.636339],[-56.648327,-25.636483],[-56.650125,-25.63823],[-56.651403,-25.63896],[-56.653155,-25.639438],[-56.654223,-25.639211],[-56.655014,-25.640531],[-56.655313,-25.642843],[-56.658772,-25.645181],[-56.659007,-25.646175],[-56.659563,-25.646854],[-56.659805,-25.648376],[-56.660444,-25.649312],[-56.660401,-25.651375],[-56.661634,-25.6528],[-56.661102,-25.653666],[-56.661912,-25.654593],[-56.661652,-25.655654],[-56.661876,-25.656693],[-56.661552,-25.657148],[-56.662072,-25.65873],[-56.661721,-25.659957],[-56.662297,-25.661159],[-56.662425,-25.663209],[-56.663077,-25.66448],[-56.66441,-25.664961],[-56.663846,-25.66589],[-56.664643,-25.666443],[-56.66442,-25.667219],[-56.665149,-25.668074],[-56.664783,-25.668886],[-56.665103,-25.669988],[-56.664741,-25.670434],[-56.664896,-25.67104],[-56.66466,-25.671504],[-56.664976,-25.672042],[-56.666523,-25.672393],[-56.668048,-25.673151],[-56.66881,-25.67309],[-56.669225,-25.674115],[-56.670227,-25.674917],[-56.671405,-25.675348],[-56.672346,-25.676913],[-56.672373,-25.677563],[-56.673495,-25.678238],[-56.674284,-25.680344],[-56.673928,-25.680926],[-56.674339,-25.682389],[-56.673694,-25.68288],[-56.67461,-25.683189],[-56.67513,-25.683886],[-56.674442,-25.684449],[-56.674643,-25.684977],[-56.674121,-25.685951],[-56.674931,-25.68594],[-56.674575,-25.686517],[-56.675441,-25.687015],[-56.675712,-25.688059],[-56.674929,-25.688536],[-56.67493,-25.689534],[-56.675769,-25.689522],[-56.675969,-25.690177],[-56.676754,-25.689885],[-56.677524,-25.690352],[-56.677092,-25.691552],[-56.677369,-25.692505],[-56.677162,-25.692839],[-56.676331,-25.693036],[-56.675806,-25.69261],[-56.675746,-25.693319],[-56.674978,-25.693882],[-56.675149,-25.694984],[-56.674778,-25.695276],[-56.674062,-25.695094],[-56.673696,-25.695468],[-56.674208,-25.69621],[-56.67347,-25.696872],[-56.67306,-25.696587],[-56.672725,-25.697114],[-56.67169,-25.69741],[-56.671759,-25.696615],[-56.671414,-25.696515],[-56.671064,-25.696821],[-56.670651,-25.696622],[-56.670577,-25.697254],[-56.66943,-25.697671],[-56.669488,-25.698511],[-56.668829,-25.699087],[-56.66949,-25.699676],[-56.669062,-25.700086],[-56.670573,-25.700193],[-56.671234,-25.700953],[-56.67072,-25.701354],[-56.670811,-25.70162],[-56.672128,-25.702224],[-56.672292,-25.700301],[-56.674248,-25.701533],[-56.674559,-25.701182],[-56.674315,-25.700043],[-56.674572,-25.699719],[-56.67498,-25.699819],[-56.675346,-25.700718],[-56.675914,-25.700828],[-56.676056,-25.700476],[-56.675544,-25.699522],[-56.675936,-25.699076],[-56.67635,-25.699271],[-56.67606,-25.699858],[-56.677374,-25.699996],[-56.677165,-25.701174],[-56.6779,-25.700765],[-56.67876,-25.701078],[-56.679414,-25.699847],[-56.680715,-25.699159],[-56.68236,-25.699307],[-56.682953,-25.700338],[-56.683594,-25.700529],[-56.684025,-25.699523],[-56.683984,-25.698728],[-56.684938,-25.698076],[-56.685336,-25.697182],[-56.687426,-25.698094],[-56.687508,-25.698357],[-56.687041,-25.698541],[-56.68701,-25.699547],[-56.688092,-25.701184],[-56.688799,-25.700901],[-56.689582,-25.700063],[-56.690767,-25.700251],[-56.692916,-25.69975],[-56.694253,-25.70015],[-56.694673,-25.700864],[-56.695906,-25.700253],[-56.696854,-25.700413],[-56.696583,-25.699166],[-56.695562,-25.69901],[-56.695126,-25.698228],[-56.695156,-25.697628],[-56.696176,-25.697282],[-56.696308,-25.696583],[-56.69722,-25.696544],[-56.697358,-25.695975],[-56.69867,-25.695594],[-56.699536,-25.695749],[-56.699336,-25.695356],[-56.699749,-25.695122],[-56.699794,-25.694346],[-56.7006,-25.695065],[-56.700362,-25.694266],[-56.70111,-25.694276],[-56.701009,-25.693089],[-56.700283,-25.693214],[-56.700092,-25.69217],[-56.701552,-25.692232],[-56.702022,-25.691777],[-56.70204,-25.690856],[-56.703518,-25.690416],[-56.70367,-25.690069],[-56.70324,-25.68982],[-56.703281,-25.689301],[-56.703805,-25.689058],[-56.703772,-25.688633],[-56.704348,-25.688607],[-56.704058,-25.687952],[-56.704759,-25.687159],[-56.704562,-25.686996],[-56.703801,-25.687428],[-56.703095,-25.686988],[-56.703112,-25.686745],[-56.703919,-25.686647],[-56.704105,-25.685252],[-56.703747,-25.685139],[-56.703589,-25.685784],[-56.703107,-25.68586],[-56.702258,-25.685045],[-56.702248,-25.684034],[-56.701603,-25.683586],[-56.701652,-25.68327],[-56.702303,-25.683045],[-56.702156,-25.682458],[-56.703115,-25.68185],[-56.702669,-25.680305],[-56.702089,-25.680295],[-56.701569,-25.681174],[-56.701073,-25.681322],[-56.699166,-25.678488],[-56.701619,-25.677842],[-56.700695,-25.6771],[-56.702446,-25.676386],[-56.701752,-25.675599],[-56.702573,-25.674657],[-56.702694,-25.673989],[-56.703717,-25.673914],[-56.70372,-25.672555],[-56.704303,-25.672687],[-56.705154,-25.674057],[-56.706131,-25.674203],[-56.70721,-25.673172],[-56.707215,-25.672025],[-56.708145,-25.670528],[-56.70869,-25.67089],[-56.709187,-25.670679],[-56.709371,-25.670142],[-56.71007,-25.67036],[-56.710609,-25.669982],[-56.710101,-25.669561],[-56.710455,-25.668695],[-56.71278,-25.670492],[-56.714171,-25.670774],[-56.714406,-25.670233],[-56.715617,-25.669915],[-56.716332,-25.668544],[-56.716931,-25.668025],[-56.716825,-25.667565],[-56.717814,-25.667007],[-56.717437,-25.666564],[-56.718477,-25.665884],[-56.7177,-25.665544],[-56.718051,-25.664488],[-56.717242,-25.662454],[-56.717359,-25.661588],[-56.718179,-25.661675],[-56.717806,-25.660121],[-56.718521,-25.659743],[-56.718297,-25.659151],[-56.718524,-25.658755],[-56.719637,-25.658703]]]}}]}
