{"type":"FeatureCollection","name":"distrito","features":[{"type":"Feature","properties":{"clave":"4-31","nombre":"Yataity"},"geometry":{"type":"Polygon","coordinates":[[[-56.468435,-25.724438],[-56.476243,-25.72243],[-56.476632,-25.722038],[-56.47784,-25.722323],[-56.479839,-25.720759],[-56.479756,-25.71837],[-56.481498,-25.712538],[-56.482382,-25.711322],[-56.483862,-25.710136],[-56.485238,-25.70772],[-56.486062,-25.707046],[-56.487747,-25.706488],[-56.48908,-25.704989],[-56.489896,-25.703136],[-56.489813,-25.701935],[-56.490854,-25.700566],[-56.492108,-25.697563],[-56.492336,-25.696087],[-56.493912,-25.694842],[-56.496943,-25.689651],[-56.49732,-25.689576],[-56.49885,-25.690773],[-56.503631,-25.686351],[-56.507544,-25.679524],[-56.512208,-25.676876],[-56.514104,-25.676268],[-56.516603,-25.674891],[-56.517855,-25.672425],[-56.517826,-25.672023],[-56.517229,-25.671624],[-56.517391,-25.67087],[-56.519588,-25.668024],[-56.520479,-25.667562],[-56.521074,-25.666178],[-56.522619,-25.665384],[-56.523704,-25.665198],[-56.524418,-25.664369],[-56.525666,-25.663872],[-56.526333,-25.662619],[-56.526227,-25.661734],[-56.526774,-25.660729],[-56.528161,-25.660078],[-56.528924,-25.658903],[-56.531277,-25.658382],[-56.531937,-25.65749],[-56.533284,-25.65781],[-56.534182,-25.65752],[-56.534537,-25.656333],[-56.535902,-25.655719],[-56.536501,-25.653879],[-56.537552,-25.653119],[-56.53817,-25.65118],[-56.540774,-25.64782],[-56.54441,-25.645352],[-56.546348,-25.644649],[-56.546444,-25.642379],[-56.547189,-25.640783],[-56.548216,-25.640307],[-56.549574,-25.640302],[-56.550514,-25.63915],[-56.548299,-25.638551],[-56.547613,-25.63756],[-56.546491,-25.637119],[-56.546065,-25.635691],[-56.54441,-25.635947],[-56.543605,-25.635787],[-56.543375,-25.634969],[-56.544504,-25.63267],[-56.54427,-25.632023],[-56.542697,-25.633283],[-56.541935,-25.632955],[-56.541663,-25.632106],[-56.541165,-25.631797],[-56.538317,-25.633007],[-56.537819,-25.632527],[-56.537881,-25.630933],[-56.537287,-25.630588],[-56.536804,-25.630948],[-56.536936,-25.63233],[-56.53644,-25.632604],[-56.535886,-25.631992],[-56.535256,-25.630054],[-56.534635,-25.630241],[-56.533769,-25.631417],[-56.532477,-25.631318],[-56.532194,-25.630956],[-56.532454,-25.630442],[-56.53389,-25.630162],[-56.535847,-25.628687],[-56.535621,-25.628122],[-56.534095,-25.628212],[-56.533391,-25.627912],[-56.533303,-25.627158],[-56.534187,-25.625711],[-56.534029,-25.625399],[-56.53328,-25.625329],[-56.532941,-25.625983],[-56.53229,-25.626184],[-56.53122,-25.625544],[-56.529954,-25.625377],[-56.528614,-25.624397],[-56.528359,-25.624604],[-56.528725,-25.625757],[-56.526908,-25.626374],[-56.526174,-25.624724],[-56.525469,-25.624487],[-56.52477,-25.625699],[-56.524114,-25.625923],[-56.522378,-25.625086],[-56.522005,-25.623599],[-56.521579,-25.623295],[-56.520073,-25.625047],[-56.520343,-25.625486],[-56.521125,-25.625818],[-56.521081,-25.626242],[-56.520118,-25.626745],[-56.519661,-25.627899],[-56.519069,-25.628362],[-56.518432,-25.628211],[-56.518072,-25.627718],[-56.519192,-25.626782],[-56.51925,-25.626308],[-56.517828,-25.626186],[-56.516737,-25.625451],[-56.515987,-25.625706],[-56.515788,-25.626767],[-56.515356,-25.627117],[-56.513904,-25.626101],[-56.511405,-25.626328],[-56.510544,-25.625155],[-56.50992,-25.625004],[-56.507832,-25.625476],[-56.507663,-25.626897],[-56.507304,-25.627145],[-56.505674,-25.626597],[-56.504787,-25.625569],[-56.502371,-25.625313],[-56.502387,-25.624636],[-56.504546,-25.624413],[-56.504536,-25.623618],[-56.502501,-25.623096],[-56.501567,-25.623788],[-56.500921,-25.623809],[-56.500319,-25.622624],[-56.498118,-25.621451],[-56.497846,-25.621726],[-56.499079,-25.622511],[-56.49914,-25.623153],[-56.496684,-25.623266],[-56.495385,-25.622918],[-56.494733,-25.623178],[-56.494885,-25.624908],[-56.493239,-25.627313],[-56.492634,-25.6276],[-56.491034,-25.627138],[-56.490144,-25.627799],[-56.489819,-25.630995],[-56.48781,-25.630477],[-56.487456,-25.63156],[-56.486457,-25.631534],[-56.484358,-25.632899],[-56.484247,-25.63349],[-56.485087,-25.634576],[-56.484619,-25.635157],[-56.482532,-25.634771],[-56.481303,-25.635791],[-56.479725,-25.635185],[-56.479122,-25.636226],[-56.478405,-25.636585],[-56.478026,-25.63647],[-56.477668,-25.635598],[-56.476059,-25.635204],[-56.476047,-25.634784],[-56.476849,-25.634678],[-56.47711,-25.63425],[-56.476139,-25.633678],[-56.475958,-25.632666],[-56.474042,-25.632397],[-56.474039,-25.632108],[-56.474777,-25.631777],[-56.47466,-25.630765],[-56.474324,-25.630028],[-56.472933,-25.628772],[-56.472571,-25.628807],[-56.472609,-25.630085],[-56.471908,-25.630737],[-56.471062,-25.631],[-56.470066,-25.630238],[-56.47144,-25.629372],[-56.471537,-25.62888],[-56.471147,-25.628413],[-56.470622,-25.628402],[-56.470136,-25.629141],[-56.469359,-25.629481],[-56.468575,-25.629433],[-56.469455,-25.628227],[-56.46902,-25.627155],[-56.466958,-25.626728],[-56.466699,-25.626903],[-56.466726,-25.627544],[-56.464755,-25.628259],[-56.463326,-25.626972],[-56.463058,-25.627296],[-56.463544,-25.629284],[-56.463025,-25.629684],[-56.462083,-25.627504],[-56.460475,-25.627774],[-56.4598,-25.627451],[-56.459983,-25.627059],[-56.461165,-25.626544],[-56.460978,-25.625893],[-56.457995,-25.625539],[-56.456974,-25.626433],[-56.455117,-25.626657],[-56.454897,-25.625703],[-56.453749,-25.625216],[-56.453259,-25.624022],[-56.452052,-25.624194],[-56.451459,-25.622972],[-56.449924,-25.623039],[-56.449829,-25.622199],[-56.449478,-25.621931],[-56.447614,-25.622515],[-56.446744,-25.622508],[-56.446263,-25.622099],[-56.446021,-25.621313],[-56.445488,-25.621026],[-56.443224,-25.622218],[-56.442191,-25.621863],[-56.440791,-25.62192],[-56.440585,-25.62227],[-56.441413,-25.622737],[-56.441366,-25.623087],[-56.440442,-25.623723],[-56.439204,-25.623151],[-56.439123,-25.623533],[-56.439607,-25.624256],[-56.439262,-25.624603],[-56.438458,-25.6235],[-56.437731,-25.623296],[-56.437528,-25.623515],[-56.438024,-25.625607],[-56.437917,-25.626872],[-56.436111,-25.628038],[-56.436482,-25.626683],[-56.435327,-25.6271],[-56.434918,-25.628052],[-56.434378,-25.626748],[-56.433328,-25.626359],[-56.433304,-25.627202],[-56.432653,-25.628025],[-56.431905,-25.628022],[-56.431989,-25.62713],[-56.431709,-25.626738],[-56.430957,-25.62756],[-56.429687,-25.626711],[-56.428872,-25.627863],[-56.428472,-25.626853],[-56.42817,-25.626742],[-56.426362,-25.62844],[-56.425597,-25.627575],[-56.425152,-25.627665],[-56.423929,-25.629751],[-56.423564,-25.629786],[-56.423468,-25.628864],[-56.422928,-25.628535],[-56.423523,-25.648939],[-56.427916,-25.659535],[-56.427351,-25.666332],[-56.430828,-25.670879],[-56.434447,-25.681278],[-56.440511,-25.683274],[-56.439251,-25.68686],[-56.43926,-25.688078],[-56.440409,-25.691148],[-56.437005,-25.69292],[-56.437858,-25.69568],[-56.437191,-25.708257],[-56.441352,-25.727133],[-56.456667,-25.731081],[-56.457848,-25.730381],[-56.458437,-25.729304],[-56.459987,-25.728831],[-56.464029,-25.726485],[-56.465154,-25.726462],[-56.466738,-25.725908],[-56.468435,-25.724438]]]}}]}
