{"type":"FeatureCollection","name":"distrito","features":[{"type":"Feature","properties":{"clave":"5-15","nombre":"La Pastora"},"geometry":{"type":"Polygon","coordinates":[[[-56.539048,-25.317874],[-56.541021,-25.316643],[-56.542582,-25.314945],[-56.542828,-25.313108],[-56.543196,-25.312495],[-56.545007,-25.310866],[-56.546447,-25.310189],[-56.548654,-25.308349],[-56.551252,-25.30544],[-56.552095,-25.30505],[-56.554145,-25.304893],[-56.557278,-25.303842],[-56.559171,-25.304624],[-56.560661,-25.305902],[-56.563013,-25.306527],[-56.565525,-25.309041],[-56.566491,-25.309206],[-56.567475,-25.308699],[-56.568259,-25.308697],[-56.570962,-25.309888],[-56.571912,-25.309823],[-56.574807,-25.310865],[-56.576871,-25.312144],[-56.578248,-25.311864],[-56.578162,-25.310536],[-56.57845,-25.310099],[-56.581106,-25.309741],[-56.583407,-25.310461],[-56.585285,-25.308813],[-56.5866,-25.308185],[-56.587543,-25.30849],[-56.589525,-25.310419],[-56.594099,-25.311154],[-56.59508,-25.311089],[-56.598766,-25.309546],[-56.601145,-25.307593],[-56.6019,-25.307414],[-56.602263,-25.3076],[-56.602291,-25.308174],[-56.601271,-25.308726],[-56.601112,-25.309923],[-56.602293,-25.310459],[-56.602627,-25.309295],[-56.603365,-25.309008],[-56.603679,-25.309808],[-56.604533,-25.309851],[-56.6052,-25.311338],[-56.60616,-25.312122],[-56.606913,-25.314232],[-56.60808,-25.313856],[-56.608377,-25.31425],[-56.608217,-25.315419],[-56.60997,-25.315374],[-56.610736,-25.315832],[-56.610912,-25.316482],[-56.610232,-25.317682],[-56.611858,-25.317596],[-56.612752,-25.318176],[-56.613127,-25.318832],[-56.613284,-25.320638],[-56.61436,-25.32065],[-56.615847,-25.319773],[-56.616825,-25.32104],[-56.619694,-25.32182],[-56.620447,-25.321162],[-56.621982,-25.320688],[-56.621928,-25.319193],[-56.621398,-25.318374],[-56.621148,-25.317078],[-56.621128,-25.315692],[-56.622565,-25.315068],[-56.623161,-25.313496],[-56.627493,-25.310952],[-56.635796,-25.303447],[-56.637058,-25.300941],[-56.638245,-25.296729],[-56.645915,-25.293723],[-56.647489,-25.291749],[-56.647362,-25.291315],[-56.647738,-25.290648],[-56.649212,-25.28969],[-56.649505,-25.289162],[-56.649177,-25.287247],[-56.647332,-25.286055],[-56.648143,-25.284355],[-56.649354,-25.283089],[-56.650907,-25.282894],[-56.651211,-25.281928],[-56.654504,-25.27962],[-56.660787,-25.272139],[-56.661777,-25.271726],[-56.662423,-25.271072],[-56.664143,-25.267518],[-56.661214,-25.263637],[-56.662158,-25.26284],[-56.66304,-25.262526],[-56.66345,-25.26199],[-56.619033,-25.166777],[-56.612846,-25.165307],[-56.605493,-25.164618],[-56.584649,-25.1659],[-56.542232,-25.166221],[-56.533894,-25.166864],[-56.532671,-25.165968],[-56.530466,-25.165515],[-56.52702,-25.169074],[-56.525295,-25.171299],[-56.522349,-25.172182],[-56.513708,-25.16733],[-56.511301,-25.168184],[-56.507573,-25.168541],[-56.505175,-25.167608],[-56.503211,-25.167285],[-56.501362,-25.168254],[-56.49925,-25.169949],[-56.496317,-25.17147],[-56.493898,-25.174546],[-56.492803,-25.175395],[-56.490866,-25.17584],[-56.488251,-25.175646],[-56.484057,-25.178142],[-56.48212,-25.177905],[-56.480332,-25.17951],[-56.480457,-25.181636],[-56.4797,-25.183473],[-56.478927,-25.184509],[-56.477869,-25.184251],[-56.477966,-25.183678],[-56.476255,-25.181416],[-56.475564,-25.181494],[-56.474554,-25.18224],[-56.474423,-25.182803],[-56.474958,-25.183512],[-56.47481,-25.184043],[-56.474296,-25.184597],[-56.473258,-25.184735],[-56.473039,-25.185471],[-56.471792,-25.186509],[-56.471357,-25.188674],[-56.47009,-25.189199],[-56.469944,-25.191962],[-56.470684,-25.192522],[-56.470188,-25.193314],[-56.470333,-25.194109],[-56.470059,-25.19459],[-56.470442,-25.195743],[-56.469718,-25.196714],[-56.469458,-25.19818],[-56.467681,-25.19977],[-56.467551,-25.200575],[-56.467865,-25.201085],[-56.465265,-25.201594],[-56.463985,-25.203135],[-56.463228,-25.203428],[-56.463128,-25.204],[-56.464323,-25.204166],[-56.4643,-25.204573],[-56.463299,-25.206106],[-56.461151,-25.207647],[-56.460636,-25.208763],[-56.458742,-25.210758],[-56.458844,-25.211519],[-56.460199,-25.213579],[-56.460452,-25.214952],[-56.46025,-25.21609],[-56.459199,-25.217113],[-56.458898,-25.220361],[-56.457996,-25.221881],[-56.457654,-25.224915],[-56.458122,-25.22685],[-56.457787,-25.227596],[-56.454979,-25.228747],[-56.453581,-25.229652],[-56.453185,-25.230028],[-56.453028,-25.230978],[-56.452529,-25.231399],[-56.451961,-25.231277],[-56.451686,-25.230014],[-56.450743,-25.229041],[-56.450749,-25.228401],[-56.449369,-25.226222],[-56.44874,-25.226564],[-56.446932,-25.22644],[-56.443814,-25.226851],[-56.44328,-25.227643],[-56.442111,-25.228405],[-56.44114,-25.22818],[-56.439429,-25.229308],[-56.439069,-25.230128],[-56.437815,-25.229847],[-56.437901,-25.230817],[-56.475696,-25.282985],[-56.480164,-25.301075],[-56.476449,-25.301988],[-56.478704,-25.311274],[-56.481591,-25.356319],[-56.481467,-25.357795],[-56.478195,-25.36224],[-56.47696,-25.363247],[-56.484892,-25.37874],[-56.485076,-25.38508],[-56.485693,-25.384807],[-56.486352,-25.38499],[-56.486678,-25.385889],[-56.4876,-25.384904],[-56.488302,-25.385209],[-56.489864,-25.384139],[-56.490413,-25.382236],[-56.490352,-25.380633],[-56.491001,-25.37956],[-56.490665,-25.378729],[-56.490837,-25.378083],[-56.491414,-25.377842],[-56.492191,-25.378088],[-56.493072,-25.377874],[-56.494841,-25.375885],[-56.499236,-25.372306],[-56.502749,-25.370679],[-56.505323,-25.370687],[-56.509151,-25.370063],[-56.509209,-25.36912],[-56.510316,-25.368464],[-56.513459,-25.368357],[-56.513867,-25.366589],[-56.514834,-25.365621],[-56.514624,-25.364501],[-56.515062,-25.363848],[-56.515146,-25.362457],[-56.514903,-25.362072],[-56.51556,-25.361402],[-56.515891,-25.360134],[-56.516385,-25.355106],[-56.518498,-25.353767],[-56.519072,-25.352568],[-56.519735,-25.35201],[-56.519822,-25.350715],[-56.523023,-25.349813],[-56.523264,-25.348252],[-56.523766,-25.347887],[-56.52382,-25.347116],[-56.52415,-25.346764],[-56.524086,-25.344651],[-56.524782,-25.344739],[-56.52438,-25.342701],[-56.525537,-25.342696],[-56.525723,-25.342241],[-56.526246,-25.342008],[-56.526558,-25.340586],[-56.527492,-25.339799],[-56.527321,-25.339225],[-56.527785,-25.33822],[-56.526754,-25.337453],[-56.526493,-25.336328],[-56.527598,-25.336386],[-56.52809,-25.33613],[-56.528095,-25.334708],[-56.527607,-25.334137],[-56.527988,-25.333227],[-56.528368,-25.333079],[-56.528279,-25.332234],[-56.528536,-25.332036],[-56.529751,-25.332663],[-56.529928,-25.331847],[-56.530644,-25.331813],[-56.530382,-25.330724],[-56.531889,-25.330133],[-56.532784,-25.328889],[-56.532527,-25.326536],[-56.533175,-25.325671],[-56.532628,-25.324166],[-56.532696,-25.322987],[-56.534931,-25.320394],[-56.537708,-25.319766],[-56.539048,-25.317874]]]}}]}
