{"type":"FeatureCollection","name":"distrito","features":[{"type":"Feature","properties":{"clave":"2-16","nombre":"Liberación"},"geometry":{"type":"Polygon","coordinates":[[[-56.383859,-24.299619],[-56.440975,-24.303412],[-56.493885,-24.301152],[-56.492231,-24.296091],[-56.490508,-24.292043],[-56.487779,-24.287135],[-56.487947,-24.286006],[-56.487129,-24.283118],[-56.485396,-24.279129],[-56.485462,-24.276925],[-56.484831,-24.273523],[-56.484895,-24.271807],[-56.484038,-24.269772],[-56.484486,-24.268094],[-56.484376,-24.265736],[-56.485212,-24.263354],[-56.487132,-24.259861],[-56.487,-24.258235],[-56.48768,-24.255686],[-56.488021,-24.250647],[-56.491363,-24.240168],[-56.491747,-24.235428],[-56.494991,-24.22754],[-56.495271,-24.226046],[-56.496183,-24.22469],[-56.497296,-24.221754],[-56.498738,-24.216705],[-56.500288,-24.214001],[-56.500319,-24.212398],[-56.498768,-24.208545],[-56.499904,-24.201364],[-56.500468,-24.200088],[-56.50033,-24.19778],[-56.501339,-24.195408],[-56.502749,-24.193172],[-56.503214,-24.191679],[-56.504755,-24.190013],[-56.505101,-24.18856],[-56.509147,-24.1832],[-56.510364,-24.180191],[-56.511664,-24.178583],[-56.512833,-24.171818],[-56.512883,-24.170915],[-56.512572,-24.17025],[-56.51295,-24.170039],[-56.513353,-24.168554],[-56.513747,-24.168221],[-56.513481,-24.167204],[-56.514017,-24.16661],[-56.513568,-24.165845],[-56.515384,-24.164216],[-56.515625,-24.163382],[-56.515365,-24.162907],[-56.515437,-24.161593],[-56.515665,-24.161286],[-56.515441,-24.160762],[-56.515727,-24.160243],[-56.515469,-24.159719],[-56.516793,-24.156788],[-56.518344,-24.154517],[-56.518421,-24.153194],[-56.519245,-24.151868],[-56.519932,-24.151455],[-56.51996,-24.150782],[-56.521316,-24.15006],[-56.52159,-24.148493],[-56.522687,-24.14767],[-56.523041,-24.146719],[-56.522922,-24.145901],[-56.523499,-24.145808],[-56.524323,-24.143733],[-56.52591,-24.141805],[-56.526001,-24.141024],[-56.526498,-24.140723],[-56.527138,-24.139325],[-56.528716,-24.137736],[-56.529093,-24.136911],[-56.529641,-24.136547],[-56.530087,-24.13513],[-56.531444,-24.13377],[-56.531754,-24.132263],[-56.533941,-24.129881],[-56.534672,-24.12804],[-56.534328,-24.124544],[-56.535129,-24.123305],[-56.533549,-24.120879],[-56.534297,-24.119459],[-56.531826,-24.113748],[-56.532692,-24.112468],[-56.532356,-24.111713],[-56.532687,-24.110711],[-56.532177,-24.109693],[-56.532545,-24.107667],[-56.533941,-24.10628],[-56.534314,-24.103224],[-56.533663,-24.100666],[-56.535516,-24.099199],[-56.535469,-24.098757],[-56.536191,-24.097445],[-56.535894,-24.09608],[-56.535385,-24.095397],[-56.535424,-24.092755],[-56.534396,-24.091916],[-56.53414,-24.090385],[-56.53408,-24.089377],[-56.534791,-24.088467],[-56.534768,-24.087817],[-56.534372,-24.086881],[-56.532502,-24.084595],[-56.533095,-24.083233],[-56.532886,-24.081195],[-56.533086,-24.08036],[-56.532219,-24.079658],[-56.532065,-24.078727],[-56.532814,-24.0777],[-56.532764,-24.07695],[-56.532157,-24.076081],[-56.532247,-24.075499],[-56.531537,-24.075013],[-56.531636,-24.074598],[-56.530681,-24.072825],[-56.531008,-24.069507],[-56.531726,-24.068967],[-56.530974,-24.067849],[-56.531031,-24.065429],[-56.531549,-24.064658],[-56.53191,-24.062582],[-56.532735,-24.061677],[-56.532639,-24.060985],[-56.533148,-24.060215],[-56.533468,-24.05719],[-56.533276,-24.056494],[-56.533978,-24.055516],[-56.533931,-24.054622],[-56.534471,-24.054137],[-56.533301,-24.053101],[-56.531608,-24.050378],[-56.530008,-24.049432],[-56.527217,-24.048718],[-56.523484,-24.048815],[-56.52113,-24.049644],[-56.51828,-24.051742],[-56.515481,-24.053153],[-56.507754,-24.055072],[-56.505597,-24.055353],[-56.503007,-24.056424],[-56.50218,-24.057429],[-56.50249,-24.058185],[-56.503156,-24.058332],[-56.505708,-24.05708],[-56.506806,-24.056904],[-56.508137,-24.05734],[-56.509935,-24.058641],[-56.511423,-24.059006],[-56.51236,-24.059729],[-56.512905,-24.060918],[-56.513016,-24.062538],[-56.512541,-24.06376],[-56.510771,-24.065409],[-56.507438,-24.065795],[-56.505011,-24.065031],[-56.50294,-24.063513],[-56.501105,-24.061636],[-56.499229,-24.060478],[-56.49778,-24.060113],[-56.495899,-24.060179],[-56.489344,-24.062604],[-56.486992,-24.062885],[-56.486246,-24.063242],[-56.485337,-24.065002],[-56.485492,-24.06547],[-56.487406,-24.06706],[-56.487911,-24.06825],[-56.48704,-24.070586],[-56.485823,-24.070978],[-56.48453,-24.070793],[-56.483397,-24.070034],[-56.481488,-24.067112],[-56.480355,-24.066209],[-56.478907,-24.065808],[-56.477495,-24.066055],[-56.476002,-24.066986],[-56.474739,-24.069105],[-56.474419,-24.070543],[-56.474689,-24.071839],[-56.475508,-24.072814],[-56.47676,-24.073322],[-56.481344,-24.073769],[-56.482867,-24.074998],[-56.482941,-24.076078],[-56.481601,-24.077981],[-56.47964,-24.078442],[-56.478269,-24.078005],[-56.475456,-24.07598],[-56.474084,-24.075868],[-56.469023,-24.077038],[-56.46675,-24.07703],[-56.465533,-24.077457],[-56.464863,-24.078319],[-56.465015,-24.079615],[-56.465912,-24.08059],[-56.468498,-24.080922],[-56.469397,-24.081393],[-56.4701,-24.082188],[-56.471723,-24.087879],[-56.471912,-24.089463],[-56.471477,-24.090361],[-56.470769,-24.090863],[-56.470064,-24.090896],[-56.469441,-24.089814],[-56.468502,-24.089307],[-56.465915,-24.08937],[-56.465251,-24.0889],[-56.464946,-24.086632],[-56.463813,-24.085872],[-56.45911,-24.085532],[-56.456723,-24.084624],[-56.455003,-24.08361],[-56.454855,-24.081788],[-56.453847,-24.080408],[-56.452483,-24.079613],[-56.451558,-24.079428],[-56.450763,-24.079728],[-56.447509,-24.082692],[-56.447507,-24.083117],[-56.448012,-24.083666],[-56.450238,-24.083816],[-56.451295,-24.084204],[-56.451777,-24.084955],[-56.45197,-24.086129],[-56.451688,-24.088852],[-56.452657,-24.091482],[-56.452727,-24.093498],[-56.451577,-24.096589],[-56.449841,-24.099137],[-56.448423,-24.100644],[-56.446774,-24.101214],[-56.445638,-24.100958],[-56.444476,-24.097858],[-56.443264,-24.09699],[-56.44158,-24.096696],[-56.439498,-24.097732],[-56.434843,-24.104265],[-56.435415,-24.108009],[-56.434275,-24.108617],[-56.433728,-24.108291],[-56.433345,-24.106166],[-56.43264,-24.105984],[-56.431502,-24.106267],[-56.428388,-24.110106],[-56.427485,-24.110499],[-56.426427,-24.110207],[-56.42553,-24.109268],[-56.425495,-24.108224],[-56.426493,-24.104234],[-56.426461,-24.102578],[-56.425999,-24.100849],[-56.424364,-24.098144],[-56.423661,-24.097494],[-56.422878,-24.097347],[-56.422328,-24.097704],[-56.422403,-24.098316],[-56.42365,-24.099941],[-56.42427,-24.101778],[-56.424029,-24.102965],[-56.423084,-24.103933],[-56.421396,-24.104466],[-56.414384,-24.10318],[-56.411207,-24.1036],[-56.407396,-24.105348],[-56.401746,-24.106262],[-56.401078,-24.106727],[-56.400876,-24.107878],[-56.401224,-24.108959],[-56.404279,-24.109582],[-56.403564,-24.111559],[-56.403678,-24.112351],[-56.404928,-24.113507],[-56.405511,-24.114481],[-56.405585,-24.115489],[-56.405032,-24.116387],[-56.404088,-24.117103],[-56.403146,-24.117315],[-56.400905,-24.116804],[-56.399565,-24.116961],[-56.397608,-24.119366],[-56.396467,-24.12008],[-56.395379,-24.120331],[-56.393638,-24.119768],[-56.39265,-24.120089],[-56.39087,-24.122355],[-56.389656,-24.122582],[-56.388774,-24.122138],[-56.388423,-24.121371],[-56.388808,-24.120189],[-56.38975,-24.118824],[-56.389677,-24.118151],[-56.388974,-24.117128],[-56.388092,-24.116637],[-56.38579,-24.116999],[-56.383784,-24.119032],[-56.382974,-24.119215],[-56.381913,-24.119094],[-56.37934,-24.118063],[-56.378177,-24.118128],[-56.377365,-24.118774],[-56.376871,-24.121788],[-56.376437,-24.122691],[-56.375625,-24.123268],[-56.374867,-24.123288],[-56.373809,-24.122564],[-56.373287,-24.12066],[-56.372382,-24.119589],[-56.370768,-24.119002],[-56.369554,-24.119113],[-56.368464,-24.119805],[-56.367925,-24.121403],[-56.366528,-24.122743],[-56.365316,-24.127586],[-56.364936,-24.127886],[-56.36395,-24.127929],[-56.363574,-24.127254],[-56.363757,-24.126026],[-56.36313,-24.124979],[-56.358792,-24.123244],[-56.358058,-24.123288],[-56.357577,-24.123518],[-56.357037,-24.125255],[-56.356325,-24.12611],[-56.352795,-24.129436],[-56.351656,-24.129849],[-56.350822,-24.129752],[-56.348635,-24.1274],[-56.347574,-24.127233],[-56.346713,-24.127531],[-56.346102,-24.128549],[-56.346072,-24.129314],[-56.346525,-24.12985],[-56.348341,-24.1306],[-56.348616,-24.131088],[-56.347749,-24.132639],[-56.347014,-24.132961],[-56.344312,-24.132531],[-56.343199,-24.132759],[-56.340128,-24.135181],[-56.338262,-24.134268],[-56.336493,-24.134168],[-56.334757,-24.132583],[-56.333169,-24.131671],[-56.33125,-24.131222],[-56.330314,-24.13145],[-56.329578,-24.132003],[-56.329143,-24.133045],[-56.329289,-24.13402],[-56.332462,-24.136493],[-56.332635,-24.137167],[-56.332376,-24.138372],[-56.331207,-24.139596],[-56.329637,-24.140076],[-56.327691,-24.139998],[-56.325596,-24.139386],[-56.325573,-24.138968],[-56.327072,-24.137444],[-56.32766,-24.136217],[-56.327487,-24.135451],[-56.326958,-24.13517],[-56.325794,-24.135374],[-56.324625,-24.136598],[-56.323943,-24.136456],[-56.323169,-24.134666],[-56.322313,-24.13392],[-56.320114,-24.13398],[-56.318196,-24.133322],[-56.317387,-24.133457],[-56.316651,-24.133964],[-56.316369,-24.134729],[-56.317089,-24.137191],[-56.315512,-24.138947],[-56.315498,-24.141568],[-56.314913,-24.142238],[-56.312561,-24.142552],[-56.311875,-24.143106],[-56.310692,-24.146928],[-56.309747,-24.14864],[-56.306954,-24.150971],[-56.300522,-24.152844],[-56.300018,-24.152702],[-56.299894,-24.152261],[-56.301264,-24.1512],[-56.302136,-24.14907],[-56.303127,-24.148054],[-56.306603,-24.145773],[-56.306811,-24.14466],[-56.306135,-24.143405],[-56.304898,-24.143074],[-56.304315,-24.143443],[-56.304076,-24.145529],[-56.303744,-24.146108],[-56.303085,-24.146476],[-56.301948,-24.146378],[-56.301268,-24.145981],[-56.300516,-24.144771],[-56.300246,-24.143192],[-56.299694,-24.142401],[-56.298811,-24.142072],[-56.297698,-24.142276],[-56.29686,-24.142898],[-56.296399,-24.144126],[-56.294062,-24.146133],[-56.293317,-24.14831],[-56.292632,-24.148794],[-56.29023,-24.14876],[-56.289318,-24.149219],[-56.287026,-24.152108],[-56.286064,-24.152429],[-56.285206,-24.152193],[-56.284359,-24.149892],[-56.283605,-24.149054],[-56.282319,-24.148514],[-56.279235,-24.148499],[-56.27656,-24.147582],[-56.275245,-24.147622],[-56.273828,-24.14801],[-56.271469,-24.149298],[-56.269925,-24.149685],[-56.269163,-24.150261],[-56.268678,-24.151163],[-56.268722,-24.1523],[-56.270146,-24.155346],[-56.269965,-24.156018],[-56.267557,-24.15712],[-56.265789,-24.156833],[-56.260197,-24.157525],[-56.258532,-24.15703],[-56.257828,-24.156377],[-56.258068,-24.154174],[-56.257391,-24.15315],[-56.256431,-24.153099],[-56.252523,-24.155655],[-56.251435,-24.155766],[-56.249094,-24.154014],[-56.247044,-24.154422],[-56.245,-24.153739],[-56.244624,-24.153203],[-56.245034,-24.152254],[-56.246738,-24.1505],[-56.246741,-24.14992],[-56.246215,-24.149105],[-56.245283,-24.148567],[-56.244321,-24.148795],[-56.243458,-24.149463],[-56.242967,-24.15127],[-56.242328,-24.152357],[-56.241034,-24.153278],[-56.239894,-24.153621],[-56.237164,-24.153561],[-56.236655,-24.154092],[-56.236441,-24.156086],[-56.23509,-24.157888],[-56.230082,-24.158327],[-56.226649,-24.157359],[-56.225556,-24.158327],[-56.22343,-24.15878],[-56.222699,-24.158359],[-56.221646,-24.156939],[-56.221016,-24.156657],[-56.220106,-24.156629],[-56.217977,-24.157477],[-56.216766,-24.157099],[-56.216037,-24.156423],[-56.216806,-24.154664],[-56.216156,-24.153454],[-56.213256,-24.152349],[-56.213241,-24.15054],[-56.213752,-24.149777],[-56.215954,-24.149255],[-56.216615,-24.148701],[-56.216848,-24.147775],[-56.21655,-24.146915],[-56.215896,-24.146331],[-56.215013,-24.146118],[-56.214076,-24.146345],[-56.212959,-24.147059],[-56.20965,-24.150799],[-56.208983,-24.152443],[-56.208474,-24.152881],[-56.207033,-24.15285],[-56.206606,-24.152477],[-56.20661,-24.151758],[-56.207888,-24.149468],[-56.20837,-24.145156],[-56.208022,-24.144203],[-56.207294,-24.143387],[-56.203843,-24.14149],[-56.202933,-24.141346],[-56.202452,-24.141553],[-56.202374,-24.141947],[-56.202688,-24.144222],[-56.202404,-24.145194],[-56.201892,-24.146189],[-56.200008,-24.14836],[-56.196017,-24.151911],[-56.191296,-24.154948],[-56.189489,-24.156771],[-56.189059,-24.156885],[-56.185903,-24.156103],[-56.185501,-24.155776],[-56.184706,-24.153545],[-56.184329,-24.153287],[-56.181145,-24.153038],[-56.180384,-24.153359],[-56.179829,-24.153217],[-56.179002,-24.152053],[-56.178648,-24.152144],[-56.178337,-24.153255],[-56.177372,-24.154016],[-56.176436,-24.154011],[-56.174746,-24.153468],[-56.174118,-24.152908],[-56.174784,-24.151427],[-56.17466,-24.151125],[-56.171573,-24.151595],[-56.170532,-24.152262],[-56.166608,-24.153168],[-56.165699,-24.152932],[-56.164669,-24.151952],[-56.164752,-24.150885],[-56.165184,-24.15047],[-56.166475,-24.150175],[-56.167642,-24.149509],[-56.167823,-24.148907],[-56.167601,-24.148163],[-56.166895,-24.147742],[-56.166112,-24.147738],[-56.164258,-24.14898],[-56.161959,-24.148736],[-56.161099,-24.148963],[-56.160641,-24.149331],[-56.160577,-24.150273],[-56.159526,-24.150526],[-56.159266,-24.150838],[-56.15936,-24.151969],[-56.160214,-24.152762],[-56.160136,-24.15311],[-56.15968,-24.1532],[-56.158094,-24.152217],[-56.157311,-24.152143],[-56.15703,-24.152582],[-56.157174,-24.153789],[-56.156486,-24.154644],[-56.157257,-24.156573],[-56.157634,-24.156808],[-56.159834,-24.156796],[-56.158034,-24.157575],[-56.157952,-24.15841],[-56.160551,-24.15919],[-56.160676,-24.159492],[-56.160522,-24.159862],[-56.15928,-24.160227],[-56.159073,-24.16106],[-56.161694,-24.162304],[-56.161234,-24.16309],[-56.160601,-24.163273],[-56.158632,-24.162728],[-56.158674,-24.164027],[-56.159077,-24.164331],[-56.160217,-24.163943],[-56.160595,-24.164108],[-56.16103,-24.165843],[-56.161038,-24.166283],[-56.160027,-24.167452],[-56.159847,-24.168987],[-56.15895,-24.170763],[-56.157525,-24.170002],[-56.154663,-24.170642],[-56.154476,-24.169848],[-56.155035,-24.169195],[-56.155007,-24.168598],[-56.154358,-24.16837],[-56.153374,-24.168707],[-56.153855,-24.171753],[-56.153061,-24.172453],[-56.153368,-24.172866],[-56.154678,-24.173225],[-56.15479,-24.174009],[-56.154498,-24.174555],[-56.15344,-24.174892],[-56.152903,-24.175466],[-56.153186,-24.176241],[-56.153996,-24.176255],[-56.154793,-24.17671],[-56.155085,-24.17769],[-56.154976,-24.178081],[-56.154316,-24.177979],[-56.153375,-24.178317],[-56.151809,-24.177917],[-56.151199,-24.178275],[-56.151195,-24.178794],[-56.154445,-24.179399],[-56.154804,-24.179969],[-56.1545,-24.180789],[-56.153433,-24.180842],[-56.153571,-24.182575],[-56.153052,-24.183599],[-56.152603,-24.183744],[-56.151869,-24.183417],[-56.151472,-24.183728],[-56.151649,-24.184414],[-56.152933,-24.185399],[-56.153439,-24.186332],[-56.152847,-24.187112],[-56.153043,-24.18813],[-56.151896,-24.188926],[-56.151619,-24.19051],[-56.15018,-24.190287],[-56.150261,-24.191031],[-56.151045,-24.191867],[-56.151384,-24.194697],[-56.198547,-24.194775],[-56.198135,-24.22078],[-56.21333,-24.222684],[-56.21328,-24.230765],[-56.227067,-24.230835],[-56.226949,-24.221041],[-56.257585,-24.220855],[-56.259847,-24.220437],[-56.260659,-24.220897],[-56.272567,-24.220945],[-56.272407,-24.284215],[-56.287015,-24.284275],[-56.286941,-24.308136],[-56.365836,-24.308323],[-56.365826,-24.299197],[-56.371236,-24.299237],[-56.374756,-24.300241],[-56.383859,-24.299619]]]}}]}
