{"type":"FeatureCollection","name":"distrito","features":[{"type":"Feature","properties":{"clave":"5-17","nombre":"Mariscal Francisco Solano López"},"geometry":{"type":"Polygon","coordinates":[[[-55.080471,-25.319781],[-55.088644,-25.322605],[-55.099059,-25.325457],[-55.110239,-25.327185],[-55.123678,-25.327808],[-55.134896,-25.327044],[-55.145009,-25.325307],[-55.159652,-25.320395],[-55.172723,-25.312297],[-55.191369,-25.29759],[-55.208744,-25.275842],[-55.217965,-25.266677],[-55.219968,-25.265591],[-55.224168,-25.238349],[-55.226509,-25.229698],[-55.231458,-25.217359],[-55.242094,-25.200438],[-55.252204,-25.196218],[-55.272109,-25.185913],[-55.278822,-25.180877],[-55.296841,-25.171167],[-55.340186,-25.152131],[-55.353577,-25.144066],[-55.363075,-25.134097],[-55.366968,-25.12493],[-55.382782,-25.124879],[-55.392452,-25.122285],[-55.39899,-25.113582],[-55.402366,-25.106807],[-55.404069,-25.093414],[-55.420659,-25.071352],[-55.422221,-25.06471],[-55.420346,-25.047797],[-55.422387,-25.040833],[-55.422312,-25.038546],[-55.421101,-25.036125],[-55.417837,-25.031457],[-55.417499,-25.030491],[-55.415698,-25.029894],[-55.414096,-25.028143],[-55.412369,-25.027307],[-55.412142,-25.026045],[-55.411343,-25.025676],[-55.411486,-25.02537],[-55.410558,-25.02388],[-55.410737,-25.015489],[-55.40978,-25.013506],[-55.408886,-25.009823],[-55.408047,-25.008314],[-55.406557,-25.007598],[-55.405497,-25.004906],[-55.404896,-24.998493],[-55.405061,-24.997384],[-55.404264,-24.99432],[-55.403666,-24.993568],[-55.380003,-24.990766],[-55.360372,-25.003205],[-55.358006,-25.005143],[-55.357399,-25.004784],[-55.356896,-25.005297],[-55.353662,-25.004178],[-55.352036,-25.002377],[-55.35097,-25.002388],[-55.350405,-25.002855],[-55.348802,-25.003163],[-55.347923,-25.002471],[-55.345598,-25.002382],[-55.343798,-25.001802],[-55.342546,-25.002032],[-55.342177,-25.001437],[-55.340793,-25.001092],[-55.339777,-25.00146],[-55.339354,-25.000597],[-55.33585,-25.000012],[-55.334704,-25.000152],[-55.334316,-25.000681],[-55.332471,-25.001346],[-55.326343,-25.002754],[-55.324621,-25.004269],[-55.32398,-25.004384],[-55.322374,-25.003025],[-55.31981,-25.002436],[-55.318703,-25.001345],[-55.318124,-25.001158],[-55.318194,-25.000689],[-55.317679,-25.000683],[-55.317252,-25.000024],[-55.316775,-25.00047],[-55.316824,-25.000782],[-55.316095,-25.000485],[-55.316161,-25.000034],[-55.315519,-25.000076],[-55.31492,-25.000968],[-55.312739,-25.001805],[-55.313405,-25.003325],[-55.309426,-25.003971],[-55.308687,-25.004825],[-55.308532,-25.008371],[-55.309489,-25.009574],[-55.309577,-25.010189],[-55.30904,-25.010652],[-55.307676,-25.011011],[-55.307563,-25.011782],[-55.309041,-25.011758],[-55.309818,-25.010629],[-55.311185,-25.009963],[-55.311505,-25.010387],[-55.311134,-25.010983],[-55.308567,-25.012877],[-55.306282,-25.01295],[-55.305485,-25.014042],[-55.304493,-25.013715],[-55.303807,-25.013937],[-55.303726,-25.014997],[-55.302998,-25.014222],[-55.302452,-25.014215],[-55.302371,-25.01477],[-55.303197,-25.016097],[-55.301881,-25.016227],[-55.299708,-25.015678],[-55.299587,-25.015049],[-55.30088,-25.014103],[-55.300942,-25.013526],[-55.300625,-25.013454],[-55.297174,-25.015866],[-55.297206,-25.016643],[-55.298905,-25.020147],[-55.298699,-25.021883],[-55.297966,-25.021978],[-55.295877,-25.021417],[-55.295025,-25.021985],[-55.294004,-25.023359],[-55.292469,-25.02354],[-55.291113,-25.024103],[-55.288968,-25.020647],[-55.288616,-25.020449],[-55.28679,-25.020726],[-55.28636,-25.021285],[-55.286993,-25.022931],[-55.287068,-25.024083],[-55.286192,-25.024836],[-55.284352,-25.025225],[-55.282974,-25.025065],[-55.278786,-25.02359],[-55.275867,-25.022166],[-55.273858,-25.022386],[-55.2729,-25.02359],[-55.272892,-25.024592],[-55.273805,-25.02495],[-55.276019,-25.023906],[-55.277307,-25.023885],[-55.277907,-25.024456],[-55.277553,-25.025296],[-55.278478,-25.026692],[-55.275857,-25.025917],[-55.275032,-25.025998],[-55.271935,-25.029772],[-55.270223,-25.030452],[-55.270109,-25.030721],[-55.272487,-25.032861],[-55.273715,-25.033223],[-55.27516,-25.032378],[-55.275493,-25.0304],[-55.27606,-25.030334],[-55.277288,-25.030949],[-55.281407,-25.038305],[-55.280621,-25.038666],[-55.277261,-25.038221],[-55.275457,-25.038327],[-55.271823,-25.041453],[-55.270361,-25.043341],[-55.268561,-25.04356],[-55.267013,-25.043253],[-55.266292,-25.040152],[-55.266091,-25.036597],[-55.264721,-25.035782],[-55.262008,-25.035181],[-55.256651,-25.033241],[-55.256037,-25.032511],[-55.256075,-25.030927],[-55.255614,-25.030376],[-55.253402,-25.030435],[-55.25145,-25.032006],[-55.249779,-25.032469],[-55.249716,-25.032816],[-55.251629,-25.034586],[-55.252988,-25.035017],[-55.253892,-25.03435],[-55.254482,-25.035287],[-55.252735,-25.036856],[-55.250042,-25.038129],[-55.245284,-25.03573],[-55.241663,-25.034269],[-55.239331,-25.03458],[-55.238539,-25.035036],[-55.237805,-25.036025],[-55.237196,-25.036099],[-55.23645,-25.034339],[-55.237216,-25.033594],[-55.237899,-25.032193],[-55.238667,-25.031756],[-55.238512,-25.031533],[-55.23672,-25.031313],[-55.235597,-25.03064],[-55.234028,-25.03115],[-55.232606,-25.031178],[-55.232031,-25.03067],[-55.231827,-25.0293],[-55.23119,-25.029035],[-55.229126,-25.029408],[-55.228192,-25.029853],[-55.228048,-25.030212],[-55.228385,-25.0306],[-55.230898,-25.031727],[-55.231052,-25.032175],[-55.230661,-25.032667],[-55.229228,-25.033133],[-55.229179,-25.034211],[-55.228887,-25.034528],[-55.227714,-25.034352],[-55.227081,-25.035003],[-55.227765,-25.035598],[-55.230064,-25.035689],[-55.231806,-25.036748],[-55.229728,-25.037938],[-55.228895,-25.037851],[-55.227831,-25.037283],[-55.227621,-25.037628],[-55.228218,-25.038186],[-55.2304,-25.038844],[-55.231879,-25.038744],[-55.232381,-25.038971],[-55.232697,-25.042762],[-55.231302,-25.042349],[-55.230977,-25.04285],[-55.231517,-25.043498],[-55.23271,-25.043205],[-55.233316,-25.043605],[-55.231658,-25.044538],[-55.230121,-25.044212],[-55.228519,-25.044726],[-55.228498,-25.045791],[-55.227919,-25.046069],[-55.226585,-25.04557],[-55.226927,-25.043059],[-55.226711,-25.042795],[-55.225803,-25.043028],[-55.223734,-25.045075],[-55.225199,-25.045865],[-55.225624,-25.046596],[-55.225396,-25.047167],[-55.224152,-25.048132],[-55.224522,-25.049693],[-55.223353,-25.05005],[-55.221735,-25.048762],[-55.220955,-25.047624],[-55.220289,-25.048239],[-55.220274,-25.049092],[-55.221344,-25.050387],[-55.221299,-25.051587],[-55.219432,-25.051073],[-55.219611,-25.048745],[-55.218014,-25.046677],[-55.217455,-25.04667],[-55.216956,-25.047716],[-55.217329,-25.048172],[-55.218417,-25.048411],[-55.218288,-25.048865],[-55.217161,-25.049389],[-55.215914,-25.049374],[-55.215438,-25.049052],[-55.215222,-25.048106],[-55.215522,-25.046791],[-55.21609,-25.046121],[-55.216125,-25.044862],[-55.21531,-25.044013],[-55.214634,-25.044099],[-55.213654,-25.045026],[-55.212449,-25.04424],[-55.212348,-25.045503],[-55.211768,-25.046241],[-55.211104,-25.04602],[-55.210813,-25.044911],[-55.210559,-25.044768],[-55.210122,-25.045119],[-55.209982,-25.04579],[-55.210741,-25.046874],[-55.211614,-25.049101],[-55.210526,-25.049124],[-55.209462,-25.04833],[-55.208411,-25.048286],[-55.208312,-25.047982],[-55.208851,-25.047122],[-55.207518,-25.047241],[-55.206622,-25.047009],[-55.205739,-25.047612],[-55.205713,-25.049251],[-55.204936,-25.049318],[-55.204616,-25.048917],[-55.204649,-25.04745],[-55.20413,-25.045693],[-55.203654,-25.045691],[-55.202654,-25.046514],[-55.202258,-25.046537],[-55.202079,-25.046196],[-55.20229,-25.043562],[-55.202756,-25.042281],[-55.201732,-25.041565],[-55.202099,-25.040784],[-55.200944,-25.040828],[-55.200931,-25.040594],[-55.202567,-25.039688],[-55.202184,-25.039191],[-55.20143,-25.039069],[-55.199464,-25.039687],[-55.198664,-25.040878],[-55.197546,-25.040932],[-55.195019,-25.043018],[-55.193267,-25.04297],[-55.192548,-25.044162],[-55.192717,-25.045247],[-55.193395,-25.046574],[-55.192827,-25.046576],[-55.191714,-25.045641],[-55.19103,-25.045479],[-55.189394,-25.046272],[-55.188057,-25.048197],[-55.186529,-25.049221],[-55.185629,-25.05116],[-55.184874,-25.051444],[-55.18298,-25.050879],[-55.183304,-25.051772],[-55.185214,-25.05231],[-55.185315,-25.052722],[-55.183859,-25.053982],[-55.183189,-25.055193],[-55.180482,-25.053846],[-55.178501,-25.054986],[-55.17867,-25.055426],[-55.180114,-25.05618],[-55.180287,-25.056629],[-55.179207,-25.057852],[-55.178767,-25.057987],[-55.177757,-25.0576],[-55.176294,-25.058814],[-55.177307,-25.062009],[-55.176819,-25.06254],[-55.175646,-25.062557],[-55.175306,-25.064422],[-55.174028,-25.065101],[-55.174487,-25.066425],[-55.174577,-25.067997],[-55.174011,-25.070184],[-55.173204,-25.070418],[-55.171127,-25.070234],[-55.170306,-25.072531],[-55.169099,-25.073351],[-55.169464,-25.074443],[-55.168037,-25.075509],[-55.168195,-25.07687],[-55.169623,-25.079005],[-55.171726,-25.081247],[-55.171551,-25.081674],[-55.170437,-25.08231],[-55.170493,-25.083534],[-55.169262,-25.083329],[-55.167325,-25.083757],[-55.167617,-25.084419],[-55.16906,-25.084992],[-55.169291,-25.086178],[-55.168818,-25.086429],[-55.16735,-25.085648],[-55.166742,-25.085623],[-55.165803,-25.087263],[-55.165322,-25.08728],[-55.163781,-25.085572],[-55.163843,-25.085099],[-55.164651,-25.084401],[-55.164045,-25.083314],[-55.163647,-25.083147],[-55.161108,-25.085553],[-55.159446,-25.086674],[-55.158926,-25.089868],[-55.157715,-25.092349],[-55.158488,-25.092639],[-55.159691,-25.091999],[-55.161798,-25.091533],[-55.162095,-25.091984],[-55.161365,-25.092932],[-55.158721,-25.09442],[-55.15894,-25.095123],[-55.159859,-25.095649],[-55.159835,-25.096041],[-55.156872,-25.096627],[-55.155936,-25.09555],[-55.155915,-25.096182],[-55.157182,-25.097882],[-55.156715,-25.098417],[-55.154971,-25.098432],[-55.154873,-25.09876],[-55.15531,-25.099303],[-55.156669,-25.099812],[-55.156491,-25.100563],[-55.15571,-25.100802],[-55.155111,-25.100578],[-55.15441,-25.098989],[-55.153998,-25.098686],[-55.152981,-25.099179],[-55.151176,-25.100759],[-55.150923,-25.100354],[-55.151078,-25.098871],[-55.148706,-25.098701],[-55.149143,-25.098152],[-55.150617,-25.097989],[-55.150731,-25.097508],[-55.150366,-25.097309],[-55.147881,-25.097233],[-55.145123,-25.098408],[-55.143725,-25.10012],[-55.141458,-25.10168],[-55.138467,-25.105308],[-55.137476,-25.109087],[-55.138018,-25.111509],[-55.136916,-25.112132],[-55.134941,-25.111922],[-55.134425,-25.1134],[-55.135432,-25.114582],[-55.135248,-25.114981],[-55.134439,-25.115116],[-55.133159,-25.113967],[-55.132205,-25.113828],[-55.131784,-25.114622],[-55.131839,-25.116604],[-55.131334,-25.116954],[-55.130963,-25.116674],[-55.130878,-25.11513],[-55.130369,-25.113959],[-55.129252,-25.114062],[-55.127819,-25.116192],[-55.126184,-25.117612],[-55.123541,-25.118923],[-55.12167,-25.120574],[-55.119778,-25.120952],[-55.119638,-25.121709],[-55.120418,-25.122274],[-55.12017,-25.122749],[-55.118573,-25.122819],[-55.117904,-25.123668],[-55.117084,-25.124109],[-55.115795,-25.123804],[-55.113548,-25.126759],[-55.111623,-25.1264],[-55.111431,-25.126818],[-55.111741,-25.12721],[-55.113288,-25.127406],[-55.113607,-25.127753],[-55.112787,-25.129787],[-55.112189,-25.129743],[-55.111177,-25.12834],[-55.110208,-25.128003],[-55.109516,-25.129736],[-55.108943,-25.12995],[-55.108099,-25.129786],[-55.107467,-25.130229],[-55.10731,-25.131739],[-55.105379,-25.132338],[-55.10378,-25.13169],[-55.10382,-25.130287],[-55.103219,-25.129882],[-55.102342,-25.130728],[-55.103146,-25.132535],[-55.103088,-25.133067],[-55.102571,-25.133358],[-55.100833,-25.131589],[-55.100603,-25.129911],[-55.099993,-25.129718],[-55.098657,-25.130126],[-55.098545,-25.129813],[-55.099082,-25.128926],[-55.098826,-25.128629],[-55.095808,-25.128324],[-55.094234,-25.127279],[-55.092476,-25.127843],[-55.092497,-25.128462],[-55.093531,-25.129793],[-55.092189,-25.130959],[-55.093426,-25.132564],[-55.094276,-25.133152],[-55.094362,-25.13416],[-55.092277,-25.135659],[-55.090836,-25.136186],[-55.090588,-25.138201],[-55.089997,-25.139263],[-55.090767,-25.140153],[-55.09041,-25.140433],[-55.089676,-25.140374],[-55.08976,-25.141612],[-55.089315,-25.142301],[-55.087824,-25.143361],[-55.087133,-25.143221],[-55.08617,-25.142473],[-55.085634,-25.142818],[-55.086697,-25.143937],[-55.087504,-25.144264],[-55.088898,-25.144187],[-55.089122,-25.14479],[-55.088473,-25.145197],[-55.085305,-25.145301],[-55.082734,-25.143999],[-55.081932,-25.144016],[-55.08156,-25.144544],[-55.08177,-25.145327],[-55.083627,-25.146448],[-55.083729,-25.146865],[-55.083349,-25.147428],[-55.082127,-25.147449],[-55.081313,-25.146612],[-55.080991,-25.143101],[-55.080608,-25.14278],[-55.077348,-25.144958],[-55.076187,-25.148843],[-55.074986,-25.15159],[-55.07226,-25.154972],[-55.07144,-25.155218],[-55.068692,-25.15469],[-55.068118,-25.154904],[-55.068051,-25.155973],[-55.069514,-25.156962],[-55.069085,-25.157756],[-55.068127,-25.157658],[-55.066767,-25.155532],[-55.065153,-25.155461],[-55.063473,-25.156608],[-55.063947,-25.157179],[-55.065448,-25.157902],[-55.065467,-25.158602],[-55.064368,-25.159518],[-55.062878,-25.159891],[-55.061557,-25.160835],[-55.06085,-25.160036],[-55.061023,-25.157876],[-55.059115,-25.157666],[-55.057503,-25.15783],[-55.057235,-25.158355],[-55.057503,-25.15992],[-55.056213,-25.160806],[-55.056091,-25.161219],[-55.056437,-25.161955],[-55.057617,-25.162688],[-55.057601,-25.164227],[-55.0584,-25.165159],[-55.058268,-25.165586],[-55.05717,-25.165765],[-55.057076,-25.166279],[-55.057473,-25.166577],[-55.058649,-25.166358],[-55.059086,-25.166978],[-55.058684,-25.167306],[-55.055743,-25.167295],[-55.055767,-25.168008],[-55.057247,-25.16852],[-55.057318,-25.169013],[-55.0568,-25.169534],[-55.05533,-25.169772],[-55.054736,-25.169498],[-55.054228,-25.168453],[-55.05438,-25.167087],[-55.055049,-25.165589],[-55.054341,-25.165399],[-55.052829,-25.166069],[-55.052626,-25.166486],[-55.052871,-25.168467],[-55.052433,-25.170411],[-55.052865,-25.170972],[-55.05441,-25.171574],[-55.054628,-25.172151],[-55.054424,-25.17315],[-55.053799,-25.174117],[-55.052803,-25.174212],[-55.052142,-25.173887],[-55.051224,-25.171979],[-55.047741,-25.171762],[-55.046378,-25.170444],[-55.045737,-25.171261],[-55.04576,-25.172625],[-55.045344,-25.173098],[-55.042747,-25.172811],[-55.041707,-25.17337],[-55.041761,-25.173985],[-55.042887,-25.174708],[-55.043332,-25.1754],[-55.043326,-25.176082],[-55.0429,-25.176266],[-55.04209,-25.176187],[-55.04085,-25.174596],[-55.039361,-25.174359],[-55.036173,-25.175495],[-55.03582,-25.176095],[-55.035775,-25.177115],[-55.035301,-25.177357],[-55.034801,-25.176705],[-55.034958,-25.174933],[-55.0346,-25.174671],[-55.033563,-25.175551],[-55.032885,-25.176986],[-55.032537,-25.177094],[-55.032,-25.176338],[-55.032562,-25.174472],[-55.030541,-25.174973],[-55.028882,-25.176175],[-55.030431,-25.178736],[-55.030478,-25.180466],[-55.029787,-25.18103],[-55.027884,-25.180485],[-55.026959,-25.180748],[-55.027108,-25.182918],[-55.026016,-25.183823],[-55.023937,-25.184522],[-55.024192,-25.18523],[-55.025438,-25.184881],[-55.025811,-25.185107],[-55.024661,-25.187673],[-55.023309,-25.189213],[-55.021274,-25.189953],[-55.02104,-25.19027],[-55.021077,-25.1913],[-55.022378,-25.192409],[-55.022518,-25.193088],[-55.021955,-25.193185],[-55.020153,-25.192407],[-55.019494,-25.192447],[-55.017584,-25.195356],[-55.016127,-25.196063],[-55.013051,-25.195859],[-55.011054,-25.193982],[-55.010256,-25.19389],[-55.009574,-25.194282],[-55.009706,-25.197295],[-55.008193,-25.19894],[-55.008275,-25.199451],[-55.012685,-25.199262],[-55.013369,-25.199447],[-55.014903,-25.201025],[-55.015994,-25.205179],[-55.019563,-25.206102],[-55.024598,-25.208607],[-55.0246,-25.209325],[-55.023334,-25.211172],[-55.022613,-25.213072],[-55.021944,-25.213388],[-55.019441,-25.213399],[-55.018821,-25.214014],[-55.018723,-25.214865],[-55.021815,-25.218459],[-55.026888,-25.222413],[-55.028331,-25.224762],[-55.028435,-25.225693],[-55.027734,-25.225887],[-55.025689,-25.224095],[-55.024902,-25.223967],[-55.022319,-25.226058],[-55.017336,-25.227968],[-55.017409,-25.229328],[-55.017961,-25.229985],[-55.021006,-25.230139],[-55.023215,-25.229031],[-55.02447,-25.228912],[-55.024105,-25.231593],[-55.02301,-25.233786],[-55.021934,-25.234859],[-55.019766,-25.234812],[-55.014021,-25.233561],[-55.012597,-25.233709],[-55.012324,-25.235245],[-55.012617,-25.236377],[-55.013284,-25.236485],[-55.016106,-25.235408],[-55.01707,-25.235841],[-55.017347,-25.239],[-55.01729,-25.243278],[-55.017009,-25.244222],[-55.016243,-25.244419],[-55.01514,-25.244044],[-55.012158,-25.241796],[-55.010856,-25.241237],[-55.006858,-25.241075],[-55.003646,-25.240472],[-55.002142,-25.241016],[-55.002053,-25.241637],[-55.003223,-25.241784],[-55.003689,-25.242625],[-55.00313,-25.244721],[-55.00414,-25.24996],[-55.003827,-25.251451],[-55.003323,-25.251968],[-55.002073,-25.251807],[-55.000004,-25.250244],[-54.997844,-25.24933],[-54.994533,-25.249534],[-54.99368,-25.249256],[-54.993719,-25.248466],[-54.995962,-25.242837],[-54.99594,-25.241803],[-54.995308,-25.241234],[-54.994369,-25.24133],[-54.993037,-25.242233],[-54.991152,-25.24464],[-54.989946,-25.245594],[-54.985544,-25.246324],[-54.984113,-25.246859],[-54.983922,-25.247881],[-54.9873,-25.25185],[-54.98834,-25.254879],[-54.989022,-25.255985],[-54.989834,-25.25666],[-54.991312,-25.25696],[-54.991496,-25.257563],[-54.98925,-25.259753],[-54.984507,-25.26032],[-54.98021,-25.263696],[-54.979347,-25.263802],[-54.976826,-25.262733],[-54.971271,-25.259457],[-54.970292,-25.258487],[-54.970361,-25.257883],[-54.972642,-25.255499],[-54.974314,-25.252769],[-54.974916,-25.248661],[-54.974674,-25.24803],[-54.972007,-25.247475],[-54.970307,-25.248435],[-54.965681,-25.249337],[-54.965133,-25.249695],[-54.965096,-25.250521],[-54.965924,-25.252536],[-54.966717,-25.256528],[-54.966324,-25.25697],[-54.96446,-25.256416],[-54.963838,-25.256877],[-54.963685,-25.2591],[-54.964237,-25.261897],[-54.964436,-25.262274],[-54.965047,-25.262423],[-54.966385,-25.26138],[-54.967499,-25.261391],[-54.967569,-25.263712],[-54.967976,-25.264453],[-54.969511,-25.265147],[-54.970038,-25.267082],[-54.969414,-25.268445],[-54.965932,-25.270352],[-54.965195,-25.271334],[-54.965178,-25.272327],[-54.965508,-25.272765],[-54.966118,-25.272922],[-54.968046,-25.272064],[-54.969462,-25.272386],[-54.970861,-25.27218],[-54.971405,-25.271551],[-54.97154,-25.269386],[-54.971841,-25.268934],[-54.972602,-25.268755],[-54.974059,-25.270441],[-54.97418,-25.271061],[-54.972679,-25.275161],[-54.972339,-25.27702],[-54.972488,-25.27774],[-54.973631,-25.278469],[-54.974836,-25.277524],[-54.97548,-25.277352],[-54.976768,-25.277785],[-54.977168,-25.278491],[-54.976783,-25.279257],[-54.975899,-25.279317],[-54.975406,-25.279703],[-54.975195,-25.282092],[-54.974729,-25.283314],[-54.973076,-25.284031],[-54.970991,-25.284318],[-54.968175,-25.286356],[-54.968157,-25.288558],[-54.967252,-25.294156],[-54.963778,-25.300206],[-54.962959,-25.3007],[-54.962479,-25.300509],[-54.961892,-25.299435],[-54.962489,-25.296934],[-54.961427,-25.295913],[-54.960574,-25.296005],[-54.959828,-25.298296],[-54.954815,-25.304401],[-54.955795,-25.30678],[-54.956959,-25.307816],[-54.958281,-25.307013],[-54.960365,-25.305097],[-54.963444,-25.306132],[-54.963554,-25.307479],[-54.961835,-25.31121],[-54.961341,-25.313352],[-54.961468,-25.313999],[-54.962534,-25.315467],[-54.964286,-25.316295],[-54.964441,-25.316662],[-54.963464,-25.318333],[-54.960495,-25.318725],[-54.959416,-25.319197],[-54.958263,-25.321036],[-54.957581,-25.321537],[-54.956852,-25.321157],[-54.956245,-25.319835],[-54.95567,-25.319367],[-54.948759,-25.316644],[-54.946824,-25.317898],[-54.941587,-25.322944],[-54.940592,-25.324943],[-54.940593,-25.328351],[-54.939009,-25.331316],[-54.938192,-25.333774],[-54.938616,-25.335445],[-54.940638,-25.3381],[-54.941587,-25.340564],[-54.941201,-25.342202],[-54.939323,-25.343701],[-54.93919,-25.344394],[-54.939952,-25.344586],[-54.941133,-25.344354],[-54.944475,-25.342947],[-54.945617,-25.342769],[-54.948104,-25.344207],[-54.950017,-25.345809],[-54.950513,-25.346624],[-54.946449,-25.347732],[-54.944529,-25.350048],[-54.940353,-25.351312],[-54.935001,-25.354468],[-54.935559,-25.356006],[-54.935058,-25.357028],[-54.93054,-25.359732],[-54.928591,-25.361708],[-54.926874,-25.364144],[-54.925475,-25.365108],[-54.923371,-25.365773],[-54.923261,-25.366512],[-54.924584,-25.368286],[-54.925562,-25.368684],[-54.92825,-25.36869],[-54.931882,-25.368082],[-54.933171,-25.368137],[-54.933479,-25.368994],[-54.93327,-25.37062],[-54.931667,-25.374209],[-54.932956,-25.377512],[-54.933436,-25.377533],[-54.934259,-25.377174],[-54.935946,-25.374995],[-54.937678,-25.373593],[-54.939841,-25.36971],[-54.941457,-25.368289],[-54.943816,-25.366963],[-54.944663,-25.366957],[-54.946672,-25.36768],[-54.9532,-25.370845],[-54.954468,-25.370546],[-54.954551,-25.370114],[-54.954183,-25.369581],[-54.95198,-25.36793],[-54.950259,-25.366074],[-54.9502,-25.365364],[-54.95932,-25.361424],[-54.960671,-25.361208],[-54.966219,-25.365699],[-54.966237,-25.366575],[-54.965391,-25.36901],[-54.964182,-25.370776],[-54.964348,-25.372927],[-54.96613,-25.376201],[-54.971021,-25.379821],[-54.979924,-25.383789],[-54.985501,-25.385508],[-54.991959,-25.386729],[-55.000168,-25.387518],[-55.008411,-25.386272],[-55.014694,-25.382962],[-55.021251,-25.378072],[-55.024816,-25.373367],[-55.031534,-25.358517],[-55.032885,-25.351973],[-55.037121,-25.336412],[-55.03875,-25.328061],[-55.040317,-25.323554],[-55.042375,-25.319506],[-55.045652,-25.317062],[-55.050671,-25.314637],[-55.058655,-25.31361],[-55.066607,-25.314622],[-55.073799,-25.316526],[-55.080471,-25.319781]]]}}]}
