{"type":"FeatureCollection","name":"distrito","features":[{"type":"Feature","properties":{"clave":"12-17","nombre":"Mayor José Dejesús Martínez"},"geometry":{"type":"Polygon","coordinates":[[[-58.199032,-27.273564],[-58.202502,-27.271101],[-58.206235,-27.269888],[-58.216101,-27.268735],[-58.225959,-27.266857],[-58.228344,-27.265957],[-58.236507,-27.261624],[-58.241349,-27.259419],[-58.249105,-27.256239],[-58.250662,-27.256059],[-58.256126,-27.255773],[-58.264445,-27.255831],[-58.269683,-27.257098],[-58.271667,-27.258297],[-58.274156,-27.260553],[-58.275151,-27.261963],[-58.275905,-27.26449],[-58.276301,-27.265032],[-58.27654,-27.264893],[-58.281147,-27.18518],[-58.285652,-27.171102],[-58.285707,-27.138853],[-58.282411,-27.129864],[-58.239208,-27.130123],[-58.223886,-27.131232],[-58.22402,-27.132581],[-58.202098,-27.143017],[-58.191272,-27.139227],[-58.169961,-27.136799],[-58.161136,-27.135539],[-58.158843,-27.134971],[-58.16108,-27.149137],[-58.161869,-27.150612],[-58.151302,-27.150794],[-58.125526,-27.150805],[-58.124362,-27.14846],[-58.122833,-27.148289],[-58.122935,-27.147126],[-58.122438,-27.144421],[-58.12148,-27.143064],[-58.121168,-27.141948],[-58.121563,-27.138139],[-58.120034,-27.134979],[-58.116451,-27.136811],[-58.113326,-27.136955],[-58.109591,-27.137876],[-58.10891,-27.137306],[-58.10691,-27.1365],[-58.103519,-27.136137],[-58.100534,-27.136249],[-58.098194,-27.135869],[-58.093217,-27.134122],[-58.088187,-27.131606],[-58.084291,-27.130019],[-58.082285,-27.129719],[-58.078141,-27.130279],[-58.075435,-27.128736],[-58.066234,-27.126428],[-58.064378,-27.126587],[-58.062379,-27.127571],[-58.059023,-27.128565],[-58.04873,-27.128672],[-58.04721,-27.128318],[-58.043377,-27.130446],[-58.038362,-27.13039],[-58.036815,-27.132159],[-58.032797,-27.132518],[-58.030706,-27.133068],[-58.027576,-27.132112],[-58.024207,-27.131597],[-58.001939,-27.132182],[-58.010584,-27.164573],[-58.011555,-27.192262],[-58.01101,-27.202519],[-58.017551,-27.2395],[-58.014583,-27.244728],[-58.010319,-27.248601],[-58.00358,-27.254076],[-57.995984,-27.266778],[-58.003295,-27.264957],[-58.010753,-27.261557],[-58.015013,-27.260173],[-58.022854,-27.258456],[-58.025843,-27.258094],[-58.032839,-27.258498],[-58.038339,-27.258456],[-58.040527,-27.258653],[-58.045657,-27.259741],[-58.061522,-27.259908],[-58.074878,-27.261626],[-58.077933,-27.263192],[-58.082879,-27.267624],[-58.085917,-27.269776],[-58.09202,-27.273151],[-58.094869,-27.273651],[-58.107758,-27.274533],[-58.119225,-27.273797],[-58.123683,-27.274246],[-58.128394,-27.275278],[-58.136788,-27.276422],[-58.145052,-27.276521],[-58.150143,-27.276963],[-58.154442,-27.276884],[-58.159505,-27.277199],[-58.168437,-27.276876],[-58.1722,-27.277113],[-58.179083,-27.276638],[-58.191549,-27.274633],[-58.19652,-27.274522],[-58.199032,-27.273564]]]}}]}
