{"type":"FeatureCollection","name":"distrito","features":[{"type":"Feature","properties":{"clave":"3-29","nombre":"San Bernardino"},"geometry":{"type":"Polygon","coordinates":[[[-57.296262,-25.353491],[-57.311104,-25.333296],[-57.320689,-25.324735],[-57.329317,-25.317731],[-57.339724,-25.303764],[-57.343299,-25.294015],[-57.343329,-25.283401],[-57.341868,-25.276037],[-57.334517,-25.265713],[-57.333788,-25.262194],[-57.32854,-25.24872],[-57.327446,-25.248248],[-57.327399,-25.247995],[-57.328074,-25.247321],[-57.32856,-25.247401],[-57.329111,-25.246718],[-57.33056,-25.245942],[-57.331423,-25.245864],[-57.331826,-25.24542],[-57.332027,-25.244706],[-57.331746,-25.24431],[-57.332209,-25.243266],[-57.332655,-25.242759],[-57.333287,-25.242676],[-57.333532,-25.242201],[-57.333711,-25.240991],[-57.333252,-25.240545],[-57.333306,-25.239782],[-57.332954,-25.239281],[-57.333463,-25.237357],[-57.334,-25.237211],[-57.334218,-25.23675],[-57.335583,-25.236277],[-57.336257,-25.234907],[-57.337417,-25.233808],[-57.337494,-25.232155],[-57.33965,-25.23201],[-57.3405,-25.232279],[-57.342401,-25.232062],[-57.344182,-25.232464],[-57.345962,-25.232298],[-57.347171,-25.230371],[-57.347265,-25.229549],[-57.348045,-25.228848],[-57.348178,-25.227962],[-57.349061,-25.228073],[-57.349818,-25.227507],[-57.349812,-25.226595],[-57.351054,-25.22517],[-57.350869,-25.224755],[-57.35148,-25.224207],[-57.351351,-25.223354],[-57.352477,-25.222254],[-57.354415,-25.222163],[-57.354758,-25.221788],[-57.355082,-25.219936],[-57.356557,-25.219598],[-57.357115,-25.218703],[-57.358495,-25.217923],[-57.359643,-25.217572],[-57.359985,-25.218082],[-57.361528,-25.217093],[-57.362662,-25.217014],[-57.364068,-25.215222],[-57.365017,-25.215414],[-57.366312,-25.213555],[-57.365583,-25.212496],[-57.365857,-25.211416],[-57.367419,-25.210929],[-57.368573,-25.211798],[-57.371049,-25.209227],[-57.371198,-25.208265],[-57.371725,-25.208354],[-57.372029,-25.208795],[-57.373714,-25.20866],[-57.373552,-25.207265],[-57.373973,-25.206853],[-57.36368,-25.201036],[-57.359833,-25.202224],[-57.358939,-25.203617],[-57.356034,-25.205873],[-57.35446,-25.206432],[-57.353069,-25.207975],[-57.342631,-25.204256],[-57.323838,-25.201111],[-57.317181,-25.204118],[-57.313368,-25.208692],[-57.307756,-25.214023],[-57.306974,-25.214991],[-57.307266,-25.21918],[-57.307236,-25.222432],[-57.306943,-25.223686],[-57.286781,-25.245943],[-57.285912,-25.250461],[-57.286606,-25.253001],[-57.286625,-25.255191],[-57.285816,-25.257536],[-57.284601,-25.259345],[-57.280088,-25.263255],[-57.277681,-25.266713],[-57.27458,-25.272278],[-57.272447,-25.275104],[-57.266586,-25.278555],[-57.260355,-25.274018],[-57.261943,-25.281976],[-57.261897,-25.283796],[-57.263685,-25.286552],[-57.268362,-25.290238],[-57.268757,-25.291406],[-57.269031,-25.296522],[-57.270682,-25.297841],[-57.266022,-25.302823],[-57.260387,-25.298804],[-57.249298,-25.311362],[-57.247868,-25.314638],[-57.247358,-25.317479],[-57.244143,-25.318324],[-57.237569,-25.320753],[-57.235088,-25.321997],[-57.233971,-25.323168],[-57.233065,-25.323598],[-57.23153,-25.32328],[-57.227271,-25.323129],[-57.225215,-25.326613],[-57.223777,-25.32699],[-57.222564,-25.327832],[-57.220667,-25.328002],[-57.22009,-25.329479],[-57.219438,-25.329932],[-57.225266,-25.336323],[-57.221929,-25.337357],[-57.212262,-25.345263],[-57.212768,-25.355857],[-57.215392,-25.357003],[-57.215519,-25.35844],[-57.214872,-25.35948],[-57.213493,-25.360374],[-57.213341,-25.36105],[-57.216056,-25.361173],[-57.218059,-25.362293],[-57.219791,-25.362671],[-57.221984,-25.362664],[-57.223689,-25.363475],[-57.225053,-25.363688],[-57.226004,-25.363416],[-57.226911,-25.364473],[-57.228588,-25.365495],[-57.230362,-25.365894],[-57.231264,-25.365562],[-57.233519,-25.36682],[-57.236057,-25.366244],[-57.237728,-25.365428],[-57.239529,-25.365424],[-57.241069,-25.364327],[-57.242527,-25.364248],[-57.245197,-25.36255],[-57.247175,-25.362235],[-57.248707,-25.36128],[-57.249129,-25.36001],[-57.250833,-25.359189],[-57.251139,-25.359806],[-57.251802,-25.360013],[-57.256616,-25.360381],[-57.259006,-25.361331],[-57.259596,-25.362139],[-57.26154,-25.362588],[-57.262948,-25.361766],[-57.265187,-25.361486],[-57.265631,-25.361656],[-57.266158,-25.362443],[-57.269219,-25.36368],[-57.270232,-25.36307],[-57.271682,-25.361501],[-57.278642,-25.359671],[-57.279808,-25.358629],[-57.282345,-25.358876],[-57.283103,-25.358779],[-57.283462,-25.358253],[-57.284397,-25.358368],[-57.290326,-25.357431],[-57.296262,-25.353491]]]}}]}
