{"type":"FeatureCollection","name":"distrito","features":[{"type":"Feature","properties":{"clave":"11-17","nombre":"Luque"},"geometry":{"type":"Polygon","coordinates":[[[-57.454311,-25.315055],[-57.455822,-25.31586],[-57.456803,-25.315639],[-57.457347,-25.316301],[-57.45791,-25.31649],[-57.458353,-25.315988],[-57.460001,-25.31616],[-57.460306,-25.316889],[-57.461229,-25.316855],[-57.461014,-25.317605],[-57.462973,-25.318113],[-57.464207,-25.319848],[-57.467712,-25.320334],[-57.468111,-25.321561],[-57.469176,-25.322152],[-57.470232,-25.323411],[-57.470987,-25.323413],[-57.472931,-25.324609],[-57.474052,-25.324727],[-57.474983,-25.324464],[-57.478493,-25.321873],[-57.480238,-25.319851],[-57.480757,-25.31961],[-57.480668,-25.318486],[-57.485549,-25.317227],[-57.486204,-25.317665],[-57.488544,-25.316071],[-57.489816,-25.316328],[-57.491987,-25.315503],[-57.493318,-25.314089],[-57.493148,-25.313785],[-57.494311,-25.311321],[-57.494787,-25.311575],[-57.495554,-25.311455],[-57.49566,-25.311769],[-57.496208,-25.311306],[-57.49761,-25.311404],[-57.501071,-25.310094],[-57.501744,-25.310077],[-57.508363,-25.306396],[-57.51014,-25.304718],[-57.511421,-25.302669],[-57.51227,-25.302722],[-57.514718,-25.301632],[-57.516025,-25.30415],[-57.520534,-25.301567],[-57.521859,-25.30312],[-57.52384,-25.301383],[-57.523651,-25.301202],[-57.524521,-25.30038],[-57.525212,-25.300975],[-57.526179,-25.30014],[-57.528331,-25.296616],[-57.529976,-25.296623],[-57.531665,-25.297553],[-57.53291,-25.29747],[-57.535964,-25.295795],[-57.542104,-25.291407],[-57.541616,-25.29002],[-57.541844,-25.289734],[-57.541549,-25.289328],[-57.541737,-25.288788],[-57.541217,-25.288073],[-57.541225,-25.286394],[-57.540507,-25.285748],[-57.541158,-25.284504],[-57.540591,-25.281201],[-57.54141,-25.280226],[-57.541495,-25.278199],[-57.541267,-25.277856],[-57.541736,-25.276958],[-57.542476,-25.276476],[-57.542386,-25.274908],[-57.542779,-25.274039],[-57.542471,-25.27197],[-57.54183,-25.270921],[-57.541628,-25.269797],[-57.540735,-25.268808],[-57.538633,-25.265185],[-57.537967,-25.263441],[-57.536219,-25.260747],[-57.535467,-25.257588],[-57.533556,-25.253114],[-57.533681,-25.250428],[-57.53318,-25.249273],[-57.531935,-25.248375],[-57.530525,-25.248154],[-57.525042,-25.243702],[-57.523135,-25.237801],[-57.521549,-25.235476],[-57.520147,-25.23118],[-57.518278,-25.228221],[-57.517248,-25.223977],[-57.515373,-25.220453],[-57.514766,-25.218139],[-57.51235,-25.215968],[-57.50902,-25.211442],[-57.506994,-25.210386],[-57.505112,-25.210804],[-57.504208,-25.211317],[-57.502781,-25.21017],[-57.501955,-25.20872],[-57.502419,-25.208244],[-57.503532,-25.207969],[-57.503642,-25.207634],[-57.502777,-25.206834],[-57.502427,-25.205873],[-57.500801,-25.20545],[-57.500789,-25.205083],[-57.501667,-25.204594],[-57.501442,-25.204025],[-57.500129,-25.204031],[-57.49946,-25.203482],[-57.498087,-25.205106],[-57.497904,-25.20689],[-57.497129,-25.207695],[-57.4958,-25.208125],[-57.495823,-25.20886],[-57.495129,-25.209692],[-57.494716,-25.211229],[-57.494103,-25.211772],[-57.491875,-25.212511],[-57.4911,-25.213341],[-57.488439,-25.213707],[-57.487834,-25.213096],[-57.486349,-25.213128],[-57.485155,-25.212263],[-57.482824,-25.212678],[-57.482524,-25.212149],[-57.481767,-25.21181],[-57.480951,-25.212198],[-57.480562,-25.212889],[-57.479647,-25.212913],[-57.478267,-25.214114],[-57.478083,-25.214662],[-57.477745,-25.214467],[-57.477786,-25.214845],[-57.477161,-25.214888],[-57.476696,-25.215518],[-57.476408,-25.215489],[-57.476202,-25.216341],[-57.476618,-25.216468],[-57.475661,-25.216783],[-57.475878,-25.217047],[-57.475259,-25.21913],[-57.474904,-25.219494],[-57.473655,-25.219595],[-57.473176,-25.220551],[-57.470714,-25.219688],[-57.46509,-25.219084],[-57.461424,-25.217035],[-57.457729,-25.213743],[-57.455167,-25.213124],[-57.450918,-25.212626],[-57.448703,-25.212784],[-57.449231,-25.209862],[-57.44838,-25.207626],[-57.448687,-25.206417],[-57.444884,-25.205294],[-57.442011,-25.202801],[-57.441475,-25.202139],[-57.44054,-25.198709],[-57.439379,-25.196234],[-57.43957,-25.195759],[-57.438805,-25.195653],[-57.437576,-25.193932],[-57.435994,-25.192501],[-57.432416,-25.191766],[-57.430437,-25.191786],[-57.428432,-25.189954],[-57.42727,-25.18951],[-57.425977,-25.189464],[-57.424603,-25.190506],[-57.422767,-25.193289],[-57.418699,-25.195833],[-57.416955,-25.197328],[-57.416239,-25.197367],[-57.415002,-25.196734],[-57.414313,-25.195675],[-57.411716,-25.18698],[-57.410175,-25.184704],[-57.409569,-25.184268],[-57.409587,-25.183094],[-57.408718,-25.182771],[-57.40548,-25.182455],[-57.404707,-25.182484],[-57.404502,-25.182923],[-57.40358,-25.182519],[-57.402825,-25.182819],[-57.402491,-25.182251],[-57.401953,-25.182248],[-57.401427,-25.181689],[-57.402045,-25.180256],[-57.400604,-25.180026],[-57.400305,-25.180351],[-57.400304,-25.181124],[-57.401498,-25.182899],[-57.400717,-25.184035],[-57.400693,-25.186157],[-57.399829,-25.186792],[-57.398995,-25.186975],[-57.398604,-25.186556],[-57.398924,-25.185498],[-57.398751,-25.185205],[-57.397724,-25.185005],[-57.395228,-25.185526],[-57.39591,-25.186847],[-57.394729,-25.187261],[-57.394189,-25.188654],[-57.394497,-25.188842],[-57.394937,-25.188304],[-57.395165,-25.188434],[-57.396003,-25.190798],[-57.395944,-25.192541],[-57.394981,-25.193239],[-57.394064,-25.1934],[-57.3937,-25.192786],[-57.394455,-25.191448],[-57.393705,-25.190497],[-57.392864,-25.190441],[-57.393284,-25.192842],[-57.393024,-25.19463],[-57.392358,-25.19489],[-57.391843,-25.19415],[-57.39146,-25.195407],[-57.390511,-25.195563],[-57.389955,-25.195171],[-57.389088,-25.196063],[-57.388029,-25.19617],[-57.387403,-25.198032],[-57.387934,-25.198247],[-57.38802,-25.198748],[-57.387058,-25.199274],[-57.386726,-25.20063],[-57.386259,-25.200505],[-57.38536,-25.19913],[-57.384239,-25.199205],[-57.384591,-25.198468],[-57.383935,-25.198158],[-57.382626,-25.198378],[-57.382068,-25.19917],[-57.382431,-25.199616],[-57.383833,-25.199463],[-57.383976,-25.200578],[-57.38283,-25.201918],[-57.382175,-25.201414],[-57.379451,-25.200888],[-57.378847,-25.201675],[-57.377619,-25.201886],[-57.376748,-25.202566],[-57.376442,-25.201979],[-57.375276,-25.201806],[-57.375156,-25.20271],[-57.374348,-25.202924],[-57.374415,-25.203583],[-57.374077,-25.204035],[-57.374768,-25.204472],[-57.375191,-25.206209],[-57.374368,-25.206351],[-57.373552,-25.207265],[-57.373714,-25.20866],[-57.372029,-25.208795],[-57.371725,-25.208354],[-57.371198,-25.208265],[-57.371049,-25.209227],[-57.368573,-25.211798],[-57.367419,-25.210929],[-57.365857,-25.211416],[-57.365583,-25.212496],[-57.366312,-25.213555],[-57.365017,-25.215414],[-57.364068,-25.215222],[-57.362662,-25.217014],[-57.361528,-25.217093],[-57.359985,-25.218082],[-57.359643,-25.217572],[-57.358495,-25.217923],[-57.357115,-25.218703],[-57.356557,-25.219598],[-57.355082,-25.219936],[-57.354758,-25.221788],[-57.354415,-25.222163],[-57.352477,-25.222254],[-57.351258,-25.22348],[-57.35148,-25.224207],[-57.350869,-25.224755],[-57.351054,-25.22517],[-57.349812,-25.226595],[-57.349818,-25.227507],[-57.384198,-25.250492],[-57.384533,-25.249903],[-57.385106,-25.249842],[-57.386915,-25.250447],[-57.386626,-25.250665],[-57.38679,-25.250962],[-57.387622,-25.250594],[-57.387598,-25.2511],[-57.386615,-25.251468],[-57.386529,-25.252033],[-57.385509,-25.252492],[-57.387211,-25.252284],[-57.387767,-25.252806],[-57.389634,-25.252802],[-57.39004,-25.253455],[-57.389953,-25.254074],[-57.391192,-25.254942],[-57.391661,-25.255767],[-57.392254,-25.255675],[-57.392344,-25.256384],[-57.392634,-25.256465],[-57.392734,-25.256099],[-57.393617,-25.2562],[-57.393443,-25.256887],[-57.393723,-25.257207],[-57.394959,-25.256978],[-57.395146,-25.257596],[-57.395457,-25.257656],[-57.395608,-25.256939],[-57.396209,-25.257496],[-57.396611,-25.257006],[-57.39743,-25.257199],[-57.397449,-25.256655],[-57.398566,-25.256547],[-57.398798,-25.255444],[-57.40006,-25.255322],[-57.399812,-25.254495],[-57.40086,-25.25438],[-57.401593,-25.254946],[-57.401993,-25.253882],[-57.402839,-25.254997],[-57.402915,-25.254609],[-57.403368,-25.254656],[-57.403749,-25.255783],[-57.404222,-25.255812],[-57.404524,-25.256956],[-57.405617,-25.257062],[-57.405569,-25.257643],[-57.40604,-25.257651],[-57.406501,-25.25816],[-57.407463,-25.258141],[-57.407405,-25.258432],[-57.408138,-25.25928],[-57.409491,-25.258948],[-57.410203,-25.259344],[-57.410263,-25.258879],[-57.411055,-25.259004],[-57.41134,-25.258431],[-57.412075,-25.258801],[-57.411981,-25.259361],[-57.412723,-25.260205],[-57.413075,-25.259829],[-57.413635,-25.260209],[-57.414258,-25.259719],[-57.414875,-25.260315],[-57.415391,-25.260246],[-57.415785,-25.260641],[-57.41662,-25.260176],[-57.416895,-25.260434],[-57.417501,-25.260134],[-57.418494,-25.260201],[-57.418663,-25.25984],[-57.418887,-25.26012],[-57.418696,-25.26057],[-57.419318,-25.260787],[-57.419649,-25.260461],[-57.419927,-25.260776],[-57.420355,-25.260354],[-57.420738,-25.260944],[-57.422437,-25.259945],[-57.422103,-25.259079],[-57.42244,-25.259469],[-57.423025,-25.259288],[-57.423722,-25.258284],[-57.424595,-25.259047],[-57.425282,-25.258673],[-57.425293,-25.259367],[-57.426636,-25.260365],[-57.42618,-25.260712],[-57.425537,-25.262788],[-57.425471,-25.264382],[-57.425882,-25.264721],[-57.425854,-25.26564],[-57.42695,-25.266811],[-57.427138,-25.267917],[-57.427522,-25.268067],[-57.427613,-25.269221],[-57.428333,-25.269713],[-57.428722,-25.269184],[-57.428686,-25.269861],[-57.42916,-25.27023],[-57.430473,-25.269959],[-57.430991,-25.270432],[-57.431548,-25.270191],[-57.434158,-25.27085],[-57.434126,-25.271129],[-57.433558,-25.271112],[-57.433185,-25.271435],[-57.433738,-25.272063],[-57.433263,-25.272982],[-57.43401,-25.274518],[-57.433941,-25.275303],[-57.434333,-25.27613],[-57.43524,-25.276095],[-57.435655,-25.275614],[-57.43588,-25.276365],[-57.438295,-25.277171],[-57.437952,-25.277787],[-57.438119,-25.278027],[-57.438532,-25.277628],[-57.438967,-25.277662],[-57.44041,-25.278253],[-57.441229,-25.279123],[-57.442282,-25.279264],[-57.442539,-25.278959],[-57.443335,-25.279031],[-57.443436,-25.279454],[-57.444107,-25.279427],[-57.444462,-25.279908],[-57.444521,-25.280644],[-57.44368,-25.281053],[-57.444347,-25.28156],[-57.446006,-25.283959],[-57.445739,-25.28465],[-57.446169,-25.284981],[-57.445855,-25.285287],[-57.446077,-25.285762],[-57.445801,-25.286522],[-57.446417,-25.286409],[-57.44657,-25.287597],[-57.447353,-25.287562],[-57.4477,-25.288613],[-57.447132,-25.288678],[-57.446506,-25.28932],[-57.446467,-25.289923],[-57.445949,-25.290141],[-57.446252,-25.291133],[-57.446772,-25.291424],[-57.44572,-25.292191],[-57.445831,-25.293178],[-57.446812,-25.293329],[-57.447123,-25.293792],[-57.446788,-25.294385],[-57.447353,-25.294276],[-57.447584,-25.294503],[-57.447125,-25.295085],[-57.447214,-25.295644],[-57.446801,-25.295892],[-57.446991,-25.29684],[-57.44647,-25.297062],[-57.446834,-25.29789],[-57.446169,-25.299877],[-57.446567,-25.300046],[-57.446657,-25.300547],[-57.446201,-25.300369],[-57.445899,-25.300877],[-57.446153,-25.301142],[-57.446576,-25.300799],[-57.447032,-25.301606],[-57.446528,-25.302386],[-57.446002,-25.302524],[-57.44676,-25.3028],[-57.446531,-25.303003],[-57.445975,-25.302872],[-57.446075,-25.303524],[-57.445835,-25.303721],[-57.445917,-25.303939],[-57.446603,-25.303751],[-57.446841,-25.304587],[-57.446458,-25.304828],[-57.446152,-25.304475],[-57.445661,-25.304567],[-57.445617,-25.305127],[-57.445221,-25.305153],[-57.445175,-25.305664],[-57.444643,-25.305596],[-57.444626,-25.306446],[-57.444063,-25.306843],[-57.444505,-25.308452],[-57.4452,-25.308913],[-57.444613,-25.309689],[-57.445242,-25.310467],[-57.446675,-25.310797],[-57.446805,-25.311199],[-57.447936,-25.311273],[-57.44792,-25.311639],[-57.448398,-25.311734],[-57.448225,-25.312501],[-57.449026,-25.313105],[-57.449611,-25.313017],[-57.450106,-25.312554],[-57.450568,-25.312704],[-57.45176,-25.311615],[-57.452531,-25.311445],[-57.45321,-25.311656],[-57.453035,-25.312082],[-57.453883,-25.313084],[-57.454311,-25.315055]]]}}]}
