{"type":"FeatureCollection","name":"distrito","features":[{"type":"Feature","properties":{"clave":"14-18","nombre":"Ybyrarobaná"},"geometry":{"type":"Polygon","coordinates":[[[-55.154518,-24.476246],[-55.154635,-24.479057],[-55.161713,-24.473344],[-55.163867,-24.469468],[-55.174916,-24.467186],[-55.1803,-24.465456],[-55.190303,-24.466195],[-55.202511,-24.469004],[-55.210568,-24.468604],[-55.21292,-24.469809],[-55.214779,-24.472308],[-55.215562,-24.474361],[-55.217106,-24.475246],[-55.228121,-24.476367],[-55.238953,-24.475998],[-55.250231,-24.467892],[-55.252526,-24.467507],[-55.262969,-24.481478],[-55.266036,-24.484796],[-55.272355,-24.49292],[-55.276228,-24.496976],[-55.280979,-24.50076],[-55.288586,-24.503819],[-55.289181,-24.499862],[-55.288621,-24.491247],[-55.289124,-24.489085],[-55.296792,-24.487562],[-55.304158,-24.493571],[-55.305065,-24.496449],[-55.30374,-24.504362],[-55.306259,-24.508354],[-55.310341,-24.511868],[-55.315255,-24.500011],[-55.317754,-24.497822],[-55.319369,-24.497014],[-55.320115,-24.495934],[-55.320353,-24.494614],[-55.318962,-24.491443],[-55.319541,-24.490312],[-55.320053,-24.487744],[-55.320937,-24.487118],[-55.322408,-24.483342],[-55.322559,-24.480458],[-55.32227,-24.479471],[-55.323028,-24.476807],[-55.324442,-24.475211],[-55.324996,-24.474075],[-55.326235,-24.473109],[-55.32799,-24.470943],[-55.327898,-24.470057],[-55.328641,-24.467718],[-55.328402,-24.467065],[-55.328807,-24.46642],[-55.32951,-24.466125],[-55.330954,-24.464782],[-55.330424,-24.464289],[-55.330539,-24.464046],[-55.331306,-24.464321],[-55.332147,-24.463712],[-55.332091,-24.462727],[-55.333052,-24.46225],[-55.333277,-24.461846],[-55.333394,-24.460728],[-55.333093,-24.460774],[-55.333083,-24.460088],[-55.332663,-24.459447],[-55.333089,-24.459176],[-55.332572,-24.458908],[-55.333093,-24.458548],[-55.332367,-24.457886],[-55.33281,-24.457489],[-55.332496,-24.457178],[-55.332062,-24.457295],[-55.331705,-24.456596],[-55.331254,-24.456537],[-55.331557,-24.455796],[-55.32927,-24.45461],[-55.329135,-24.453728],[-55.3287,-24.453534],[-55.328612,-24.451623],[-55.328139,-24.451925],[-55.328002,-24.450221],[-55.328404,-24.45009],[-55.328358,-24.448681],[-55.329132,-24.447597],[-55.328645,-24.447317],[-55.328749,-24.446659],[-55.328388,-24.446479],[-55.328693,-24.445629],[-55.328057,-24.445333],[-55.328149,-24.445036],[-55.328668,-24.445091],[-55.327913,-24.443728],[-55.327864,-24.442875],[-55.327062,-24.441886],[-55.324613,-24.439913],[-55.32283,-24.439067],[-55.322031,-24.438034],[-55.321548,-24.435951],[-55.322168,-24.434482],[-55.321769,-24.431584],[-55.322154,-24.431164],[-55.322612,-24.429521],[-55.322585,-24.427381],[-55.323059,-24.424018],[-55.323568,-24.423834],[-55.323883,-24.423192],[-55.323444,-24.42181],[-55.323842,-24.421399],[-55.324498,-24.421781],[-55.324881,-24.421176],[-55.324444,-24.420674],[-55.324516,-24.419655],[-55.324113,-24.418043],[-55.324633,-24.417841],[-55.324808,-24.416751],[-55.325295,-24.416585],[-55.325914,-24.415657],[-55.325587,-24.415455],[-55.325638,-24.414733],[-55.326483,-24.414331],[-55.326638,-24.411927],[-55.326029,-24.411464],[-55.326038,-24.410579],[-55.327419,-24.41008],[-55.326598,-24.409827],[-55.32702,-24.409114],[-55.327885,-24.409322],[-55.327824,-24.408816],[-55.328832,-24.408863],[-55.330298,-24.407353],[-55.331075,-24.407159],[-55.331685,-24.407468],[-55.33239,-24.406907],[-55.3327,-24.406116],[-55.333256,-24.40567],[-55.332632,-24.405492],[-55.332474,-24.404334],[-55.333152,-24.403931],[-55.334178,-24.402389],[-55.334882,-24.401928],[-55.335508,-24.399894],[-55.337867,-24.396922],[-55.337874,-24.396218],[-55.338313,-24.396363],[-55.339533,-24.39564],[-55.339458,-24.395088],[-55.338653,-24.394398],[-55.338835,-24.393809],[-55.339428,-24.393526],[-55.340463,-24.393587],[-55.340946,-24.392595],[-55.342097,-24.391424],[-55.343928,-24.391259],[-55.345463,-24.390775],[-55.346142,-24.389455],[-55.348546,-24.386903],[-55.349789,-24.386709],[-55.351355,-24.385702],[-55.355978,-24.385427],[-55.357543,-24.383669],[-55.358561,-24.382967],[-55.359833,-24.380231],[-55.360562,-24.379585],[-55.367977,-24.37771],[-55.368351,-24.377172],[-55.369039,-24.376994],[-55.371814,-24.374717],[-55.372902,-24.37444],[-55.373468,-24.372286],[-55.373338,-24.371696],[-55.372647,-24.371958],[-55.372699,-24.371468],[-55.372361,-24.371094],[-55.371664,-24.371329],[-55.370869,-24.371016],[-55.370849,-24.370538],[-55.371689,-24.370633],[-55.371952,-24.369668],[-55.37177,-24.369392],[-55.371184,-24.369311],[-55.371246,-24.370046],[-55.370458,-24.369201],[-55.369504,-24.369845],[-55.368925,-24.369531],[-55.368868,-24.369109],[-55.369728,-24.368919],[-55.369124,-24.367759],[-55.370068,-24.367823],[-55.368291,-24.366307],[-55.366973,-24.365857],[-55.366389,-24.366625],[-55.365614,-24.366064],[-55.365301,-24.366084],[-55.365415,-24.36656],[-55.365179,-24.366677],[-55.363913,-24.366239],[-55.363967,-24.36529],[-55.364379,-24.364715],[-55.363708,-24.364675],[-55.363853,-24.363769],[-55.36311,-24.363262],[-55.362226,-24.363757],[-55.361509,-24.363731],[-55.361335,-24.363371],[-55.361955,-24.362571],[-55.361387,-24.362834],[-55.360745,-24.362334],[-55.36099,-24.361742],[-55.360313,-24.361194],[-55.361277,-24.360736],[-55.360947,-24.360529],[-55.360299,-24.360773],[-55.360212,-24.35944],[-55.359419,-24.359984],[-55.359073,-24.359467],[-55.358583,-24.359808],[-55.358451,-24.358397],[-55.357869,-24.359012],[-55.357236,-24.358342],[-55.356277,-24.358394],[-55.35582,-24.357878],[-55.355979,-24.357172],[-55.355766,-24.357029],[-55.355287,-24.357774],[-55.354888,-24.357856],[-55.354638,-24.357268],[-55.353638,-24.356687],[-55.353579,-24.356976],[-55.354518,-24.35801],[-55.353175,-24.357984],[-55.352795,-24.357355],[-55.352279,-24.357888],[-55.351862,-24.356596],[-55.35214,-24.356058],[-55.351406,-24.355835],[-55.350833,-24.356017],[-55.350967,-24.355009],[-55.34914,-24.355061],[-55.348473,-24.353942],[-55.347791,-24.354042],[-55.346892,-24.354938],[-55.346164,-24.354479],[-55.346371,-24.353665],[-55.345919,-24.35332],[-55.344838,-24.353918],[-55.345181,-24.354889],[-55.344582,-24.354838],[-55.344,-24.354225],[-55.343943,-24.354849],[-55.34294,-24.355516],[-55.343004,-24.356099],[-55.342639,-24.356564],[-55.34314,-24.35791],[-55.342439,-24.358393],[-55.342216,-24.359504],[-55.341611,-24.359877],[-55.34171,-24.358773],[-55.341464,-24.358388],[-55.34117,-24.358465],[-55.341176,-24.35952],[-55.340615,-24.360266],[-55.340337,-24.360072],[-55.340814,-24.359495],[-55.340732,-24.359019],[-55.339597,-24.359541],[-55.338305,-24.358873],[-55.336665,-24.359173],[-55.336581,-24.358355],[-55.335931,-24.357847],[-55.336179,-24.358623],[-55.335447,-24.358379],[-55.335186,-24.359193],[-55.334822,-24.358293],[-55.334442,-24.359199],[-55.333875,-24.358906],[-55.333518,-24.359289],[-55.333417,-24.358643],[-55.332768,-24.358593],[-55.332352,-24.358144],[-55.331579,-24.358573],[-55.331027,-24.35833],[-55.330108,-24.35865],[-55.329703,-24.357843],[-55.329344,-24.35839],[-55.328616,-24.35844],[-55.32822,-24.357604],[-55.327577,-24.357697],[-55.327175,-24.356733],[-55.326352,-24.356888],[-55.325774,-24.356251],[-55.325814,-24.357348],[-55.324846,-24.356621],[-55.32479,-24.357301],[-55.324264,-24.356851],[-55.323801,-24.356946],[-55.323163,-24.356631],[-55.322878,-24.356914],[-55.323001,-24.35769],[-55.322245,-24.358061],[-55.322361,-24.356995],[-55.322751,-24.35644],[-55.321857,-24.355434],[-55.322316,-24.355038],[-55.321992,-24.354726],[-55.321978,-24.353973],[-55.321201,-24.354158],[-55.320338,-24.353776],[-55.320658,-24.354403],[-55.32045,-24.354737],[-55.319755,-24.354085],[-55.319644,-24.353589],[-55.3188,-24.35444],[-55.31866,-24.353442],[-55.317709,-24.354392],[-55.31776,-24.353489],[-55.317364,-24.353277],[-55.317078,-24.353589],[-55.316531,-24.353547],[-55.316486,-24.35397],[-55.315728,-24.354535],[-55.315142,-24.356205],[-55.314267,-24.356117],[-55.314756,-24.357003],[-55.313813,-24.357366],[-55.314563,-24.357983],[-55.314465,-24.358305],[-55.313253,-24.359445],[-55.312523,-24.359057],[-55.312152,-24.359261],[-55.311996,-24.359854],[-55.311428,-24.360177],[-55.312093,-24.360815],[-55.311326,-24.360785],[-55.311215,-24.361486],[-55.310429,-24.361793],[-55.309762,-24.363111],[-55.31002,-24.36368],[-55.309281,-24.363952],[-55.307945,-24.365571],[-55.307582,-24.365237],[-55.308223,-24.364714],[-55.308086,-24.364447],[-55.307449,-24.364691],[-55.306462,-24.364164],[-55.306476,-24.364902],[-55.305292,-24.364466],[-55.304778,-24.365485],[-55.304222,-24.36492],[-55.303428,-24.365191],[-55.303154,-24.364621],[-55.302415,-24.364312],[-55.302553,-24.363912],[-55.303283,-24.363777],[-55.30331,-24.363527],[-55.303132,-24.362751],[-55.302503,-24.362414],[-55.302579,-24.361992],[-55.301854,-24.361819],[-55.301636,-24.361143],[-55.302936,-24.36105],[-55.302829,-24.360827],[-55.301688,-24.360742],[-55.301733,-24.360348],[-55.302693,-24.359341],[-55.302556,-24.35901],[-55.302127,-24.359536],[-55.300689,-24.359978],[-55.299989,-24.35967],[-55.299933,-24.359203],[-55.299076,-24.358892],[-55.299115,-24.359524],[-55.297479,-24.360193],[-55.296308,-24.358818],[-55.295923,-24.359502],[-55.29503,-24.359012],[-55.2946,-24.359587],[-55.293597,-24.358523],[-55.293652,-24.359097],[-55.292964,-24.359039],[-55.29295,-24.359547],[-55.292362,-24.359605],[-55.291883,-24.360338],[-55.291391,-24.359645],[-55.290907,-24.360184],[-55.288895,-24.359667],[-55.288313,-24.359896],[-55.288049,-24.360947],[-55.288715,-24.361471],[-55.287909,-24.362035],[-55.288439,-24.362191],[-55.288201,-24.362984],[-55.288388,-24.36366],[-55.2875,-24.363937],[-55.286951,-24.363486],[-55.286922,-24.364432],[-55.28594,-24.364743],[-55.285569,-24.364431],[-55.28554,-24.364825],[-55.284865,-24.364953],[-55.284496,-24.365651],[-55.2842,-24.36554],[-55.283989,-24.36442],[-55.283569,-24.364759],[-55.282627,-24.363853],[-55.282223,-24.364199],[-55.281119,-24.3637],[-55.280067,-24.363953],[-55.27929,-24.364754],[-55.278697,-24.364632],[-55.278361,-24.364019],[-55.277596,-24.365071],[-55.276829,-24.364518],[-55.277298,-24.363907],[-55.277192,-24.363641],[-55.276476,-24.363998],[-55.275885,-24.364851],[-55.274937,-24.364969],[-55.271036,-24.363592],[-55.270106,-24.363538],[-55.266851,-24.364139],[-55.266275,-24.364498],[-55.267399,-24.364625],[-55.266808,-24.364999],[-55.267157,-24.365741],[-55.26684,-24.366038],[-55.266387,-24.365402],[-55.266164,-24.365686],[-55.26429,-24.36603],[-55.264385,-24.365372],[-55.265011,-24.365351],[-55.265141,-24.36503],[-55.263923,-24.364822],[-55.26256,-24.364921],[-55.262899,-24.365312],[-55.26256,-24.365516],[-55.262337,-24.366388],[-55.261774,-24.36636],[-55.26103,-24.365864],[-55.260415,-24.36504],[-55.259639,-24.365719],[-55.25902,-24.365791],[-55.259325,-24.364676],[-55.258885,-24.364772],[-55.258502,-24.365326],[-55.258245,-24.365216],[-55.25834,-24.364572],[-55.257607,-24.365008],[-55.256989,-24.364958],[-55.256859,-24.364218],[-55.255105,-24.361431],[-55.253257,-24.360443],[-55.252233,-24.359212],[-55.251213,-24.3589],[-55.249472,-24.359216],[-55.249191,-24.359106],[-55.249324,-24.358548],[-55.249053,-24.358366],[-55.248164,-24.358714],[-55.247666,-24.358536],[-55.247791,-24.35909],[-55.247136,-24.35896],[-55.246608,-24.359226],[-55.246396,-24.35984],[-55.24521,-24.359597],[-55.244608,-24.358995],[-55.244717,-24.357965],[-55.24681,-24.357086],[-55.24564,-24.356829],[-55.246514,-24.356387],[-55.246651,-24.354977],[-55.245561,-24.354606],[-55.244879,-24.353588],[-55.243242,-24.353683],[-55.242384,-24.352971],[-55.2414,-24.353382],[-55.237964,-24.352397],[-55.237509,-24.351911],[-55.237508,-24.350284],[-55.237078,-24.349742],[-55.236514,-24.349792],[-55.234528,-24.351396],[-55.233929,-24.352837],[-55.232326,-24.353363],[-55.232506,-24.353903],[-55.231726,-24.353743],[-55.23173,-24.352883],[-55.229914,-24.352984],[-55.230443,-24.352646],[-55.23022,-24.351224],[-55.230702,-24.351473],[-55.231079,-24.351313],[-55.23064,-24.350835],[-55.231157,-24.350189],[-55.230427,-24.349256],[-55.231167,-24.349508],[-55.231579,-24.346897],[-55.230107,-24.345876],[-55.229727,-24.346137],[-55.229277,-24.344756],[-55.229212,-24.345486],[-55.228734,-24.346118],[-55.228538,-24.346202],[-55.228657,-24.345465],[-55.227705,-24.345848],[-55.227758,-24.346573],[-55.226699,-24.345693],[-55.22586,-24.34582],[-55.226624,-24.344854],[-55.226448,-24.344601],[-55.225478,-24.344583],[-55.225471,-24.345665],[-55.225267,-24.345161],[-55.224498,-24.345331],[-55.224598,-24.344845],[-55.224219,-24.344561],[-55.224645,-24.344286],[-55.224228,-24.34393],[-55.22471,-24.343018],[-55.223751,-24.342806],[-55.224304,-24.342426],[-55.223398,-24.342294],[-55.223968,-24.341827],[-55.223375,-24.34058],[-55.224337,-24.338313],[-55.223768,-24.337073],[-55.22452,-24.336451],[-55.224885,-24.334922],[-55.223922,-24.334459],[-55.223871,-24.335283],[-55.223369,-24.334833],[-55.221804,-24.334907],[-55.22188,-24.335639],[-55.220717,-24.334873],[-55.218788,-24.335195],[-55.217194,-24.336215],[-55.216823,-24.335903],[-55.217118,-24.334931],[-55.216588,-24.334796],[-55.216571,-24.334344],[-55.21578,-24.333848],[-55.215482,-24.334453],[-55.21482,-24.334288],[-55.214304,-24.334827],[-55.212748,-24.335303],[-55.21289,-24.33471],[-55.212425,-24.334382],[-55.212407,-24.334016],[-55.212765,-24.333554],[-55.212054,-24.333496],[-55.212027,-24.333166],[-55.212477,-24.332935],[-55.213335,-24.333066],[-55.213513,-24.332058],[-55.214163,-24.332037],[-55.213672,-24.331365],[-55.214528,-24.331074],[-55.213924,-24.33068],[-55.214429,-24.329224],[-55.213459,-24.328166],[-55.213269,-24.327203],[-55.212348,-24.32702],[-55.21217,-24.326338],[-55.211653,-24.326382],[-55.211961,-24.327295],[-55.211779,-24.327451],[-55.210696,-24.326034],[-55.209972,-24.326921],[-55.21023,-24.325842],[-55.209588,-24.326393],[-55.208455,-24.325262],[-55.207777,-24.325648],[-55.207602,-24.326377],[-55.206799,-24.32674],[-55.207605,-24.327266],[-55.207569,-24.327609],[-55.206573,-24.327232],[-55.206863,-24.327744],[-55.206401,-24.328376],[-55.205554,-24.327951],[-55.205045,-24.328009],[-55.204583,-24.328584],[-55.20505,-24.329299],[-55.204399,-24.328926],[-55.20468,-24.329503],[-55.20387,-24.329823],[-55.203644,-24.329175],[-55.203286,-24.329035],[-55.202495,-24.330237],[-55.202581,-24.329686],[-55.201664,-24.329811],[-55.201475,-24.329364],[-55.200869,-24.329644],[-55.201119,-24.329066],[-55.200896,-24.327724],[-55.202036,-24.327329],[-55.201236,-24.326932],[-55.200597,-24.327304],[-55.200352,-24.32695],[-55.200648,-24.326467],[-55.199742,-24.32528],[-55.199528,-24.325995],[-55.199127,-24.32614],[-55.198679,-24.325777],[-55.1986,-24.326342],[-55.197909,-24.326018],[-55.197311,-24.326233],[-55.19736,-24.326693],[-55.196089,-24.326943],[-55.19588,-24.327356],[-55.19489,-24.327143],[-55.194839,-24.326297],[-55.193855,-24.326178],[-55.195029,-24.325604],[-55.195241,-24.324962],[-55.193786,-24.325518],[-55.194515,-24.324882],[-55.194586,-24.32428],[-55.194307,-24.324112],[-55.193871,-24.324551],[-55.193709,-24.323514],[-55.192985,-24.323307],[-55.193162,-24.322587],[-55.192918,-24.321681],[-55.19204,-24.321305],[-55.192514,-24.320674],[-55.191677,-24.320718],[-55.191109,-24.319239],[-55.190823,-24.319656],[-55.190942,-24.32033],[-55.190554,-24.320492],[-55.189718,-24.318302],[-55.189189,-24.317889],[-55.187462,-24.317471],[-55.186846,-24.315392],[-55.18599,-24.314863],[-55.185488,-24.313565],[-55.184395,-24.312591],[-55.184633,-24.310111],[-55.18414,-24.308299],[-55.184892,-24.306701],[-55.18549,-24.304275],[-55.185588,-24.300931],[-55.185992,-24.299292],[-55.185646,-24.298065],[-55.185875,-24.296659],[-55.186316,-24.295698],[-55.188183,-24.293598],[-55.187994,-24.292639],[-55.188397,-24.291448],[-55.188199,-24.290502],[-55.189045,-24.289194],[-55.190356,-24.285697],[-55.190569,-24.282734],[-55.191611,-24.281071],[-55.192291,-24.278948],[-55.193154,-24.272981],[-55.192445,-24.26896],[-55.192779,-24.268128],[-55.196158,-24.263839],[-55.197633,-24.262597],[-55.201788,-24.26024],[-55.209558,-24.25218],[-55.208394,-24.249912],[-55.208658,-24.241852],[-55.208464,-24.241439],[-55.206483,-24.240012],[-55.203826,-24.23938],[-55.200825,-24.239439],[-55.199401,-24.240208],[-55.198673,-24.239901],[-55.198098,-24.239204],[-55.197729,-24.236802],[-55.195157,-24.234813],[-55.192168,-24.235089],[-55.19064,-24.235662],[-55.189228,-24.235672],[-55.187249,-24.235093],[-55.185576,-24.235227],[-55.184074,-24.232929],[-55.180318,-24.231489],[-55.180117,-24.229749],[-55.178626,-24.229054],[-55.172186,-24.229792],[-55.175879,-24.220003],[-55.171446,-24.207113],[-55.171135,-24.204112],[-55.167503,-24.203644],[-55.167159,-24.199662],[-55.166244,-24.197557],[-55.164138,-24.195008],[-55.162144,-24.193182],[-55.161325,-24.191926],[-55.161545,-24.190895],[-55.161269,-24.190088],[-55.162102,-24.188618],[-55.162145,-24.18781],[-55.16362,-24.185223],[-55.165095,-24.180961],[-55.164706,-24.178424],[-55.165062,-24.17684],[-55.167617,-24.174057],[-55.169614,-24.172853],[-55.17024,-24.171145],[-55.171217,-24.170362],[-55.17162,-24.169582],[-55.175098,-24.166134],[-55.176397,-24.164443],[-55.175537,-24.163245],[-55.175347,-24.161771],[-55.175856,-24.159253],[-55.175846,-24.157831],[-55.175355,-24.156945],[-55.176389,-24.153901],[-55.175737,-24.15225],[-55.178356,-24.149776],[-55.178567,-24.147462],[-55.177306,-24.145303],[-55.17733,-24.142883],[-55.174884,-24.140249],[-55.172709,-24.137054],[-55.172059,-24.134888],[-55.170731,-24.132659],[-55.170416,-24.131204],[-55.160378,-24.137049],[-55.159796,-24.136929],[-55.156805,-24.132434],[-55.144614,-24.112129],[-55.129772,-24.119525],[-55.127058,-24.120383],[-55.12312,-24.128818],[-55.122383,-24.131044],[-55.12251,-24.132206],[-55.121845,-24.13241],[-55.121218,-24.133061],[-55.121425,-24.133642],[-55.121094,-24.134847],[-55.12034,-24.136198],[-55.116269,-24.136949],[-55.113864,-24.135778],[-55.10688,-24.135285],[-55.100493,-24.137161],[-55.098903,-24.136469],[-55.097971,-24.136592],[-55.095239,-24.135854],[-55.09308,-24.135656],[-55.093626,-24.137375],[-55.093448,-24.137502],[-55.084661,-24.14],[-55.084318,-24.139367],[-55.079425,-24.139482],[-55.078766,-24.137785],[-55.076972,-24.135366],[-55.076167,-24.134825],[-55.074328,-24.136128],[-55.073531,-24.137237],[-55.070015,-24.139029],[-55.068885,-24.138053],[-55.068813,-24.136222],[-55.067405,-24.135298],[-55.065204,-24.136022],[-55.062846,-24.136054],[-55.061749,-24.13673],[-55.057441,-24.137428],[-55.054881,-24.137594],[-55.054524,-24.136823],[-55.054052,-24.136716],[-55.053771,-24.137033],[-55.051543,-24.137316],[-55.050774,-24.138159],[-55.049431,-24.138265],[-55.047183,-24.140037],[-55.047262,-24.141067],[-55.046996,-24.141301],[-55.042071,-24.142178],[-55.038671,-24.144622],[-55.038236,-24.14643],[-55.034957,-24.150186],[-55.034581,-24.152154],[-55.035054,-24.153415],[-55.034645,-24.158194],[-55.03363,-24.158655],[-55.03314,-24.159213],[-55.033188,-24.160279],[-55.032495,-24.163164],[-55.032483,-24.165358],[-55.03117,-24.165485],[-55.027344,-24.166745],[-55.025836,-24.166897],[-55.025173,-24.167362],[-55.024478,-24.16859],[-55.023031,-24.168608],[-55.022191,-24.169703],[-55.020313,-24.171033],[-55.016988,-24.171084],[-55.016305,-24.171676],[-55.015356,-24.173478],[-55.01499,-24.176308],[-55.013937,-24.176863],[-55.008513,-24.177407],[-55.006484,-24.17659],[-55.004534,-24.176542],[-55.000963,-24.178143],[-55.000923,-24.181104],[-54.998787,-24.185441],[-54.999055,-24.191466],[-55.00034,-24.204647],[-54.994632,-24.247257],[-54.996742,-24.252932],[-54.996684,-24.255184],[-54.99797,-24.258054],[-54.994653,-24.263649],[-54.996912,-24.268915],[-54.99699,-24.269805],[-54.996364,-24.271138],[-54.996289,-24.272978],[-54.991606,-24.275453],[-54.990898,-24.276852],[-54.988291,-24.279409],[-54.987117,-24.28212],[-54.984364,-24.284431],[-54.982726,-24.286906],[-54.981564,-24.295851],[-54.980852,-24.29729],[-54.985507,-24.299207],[-54.984744,-24.29973],[-54.983473,-24.299853],[-54.978619,-24.305043],[-54.977499,-24.306752],[-54.975368,-24.308656],[-54.972119,-24.309637],[-54.971344,-24.309564],[-54.971347,-24.30992],[-54.970895,-24.309702],[-54.970064,-24.309831],[-54.969046,-24.310883],[-54.966189,-24.311991],[-54.960935,-24.315143],[-54.959975,-24.316259],[-54.955219,-24.319897],[-54.950556,-24.322285],[-54.948112,-24.324328],[-54.946652,-24.325013],[-54.943481,-24.325805],[-54.943098,-24.326355],[-54.941163,-24.327556],[-54.94079,-24.328089],[-54.940871,-24.328794],[-54.940415,-24.329569],[-54.940163,-24.331127],[-54.939624,-24.332108],[-54.938316,-24.332402],[-54.937712,-24.333879],[-54.936609,-24.334843],[-54.935336,-24.336632],[-54.934563,-24.336368],[-54.933194,-24.336494],[-54.930342,-24.337701],[-54.928945,-24.339799],[-54.927383,-24.340243],[-54.926803,-24.340682],[-54.927136,-24.340916],[-54.927336,-24.341777],[-54.92644,-24.342591],[-54.925698,-24.344147],[-54.92592,-24.345775],[-54.924798,-24.3464],[-54.924812,-24.347046],[-54.924361,-24.346986],[-54.924016,-24.346516],[-54.923169,-24.346649],[-54.922324,-24.347513],[-54.921589,-24.347711],[-54.921764,-24.349022],[-54.921494,-24.349939],[-54.921803,-24.350494],[-54.922698,-24.350701],[-54.924705,-24.351879],[-54.925823,-24.353095],[-54.926021,-24.353951],[-54.926765,-24.355027],[-54.929003,-24.355477],[-54.93061,-24.356781],[-54.931377,-24.358195],[-54.931512,-24.360188],[-54.933543,-24.363009],[-54.93543,-24.363676],[-54.937639,-24.365458],[-54.940907,-24.365791],[-54.941665,-24.366131],[-54.942595,-24.367096],[-54.944184,-24.367564],[-54.946671,-24.367684],[-54.948937,-24.368247],[-54.95082,-24.369925],[-54.953164,-24.372805],[-54.953321,-24.373493],[-54.954066,-24.374045],[-54.954354,-24.375258],[-54.95401,-24.376211],[-54.954185,-24.377572],[-54.953566,-24.378593],[-54.95329,-24.379975],[-54.954298,-24.380629],[-54.953844,-24.381097],[-54.95442,-24.381448],[-54.953937,-24.38229],[-54.954238,-24.383188],[-54.954251,-24.388081],[-54.954557,-24.390347],[-54.955498,-24.392766],[-54.955289,-24.396139],[-54.956346,-24.398532],[-54.957234,-24.405099],[-54.956639,-24.411437],[-54.954236,-24.41563],[-54.953857,-24.417033],[-54.95393,-24.419589],[-54.954686,-24.420958],[-54.957461,-24.424228],[-54.959162,-24.427586],[-54.96039,-24.428975],[-54.960836,-24.430516],[-54.961996,-24.431908],[-54.961603,-24.43268],[-54.961835,-24.436118],[-54.961582,-24.436936],[-54.961848,-24.437463],[-54.961433,-24.438627],[-54.96167,-24.439456],[-54.961056,-24.439755],[-54.95998,-24.441749],[-54.959793,-24.444346],[-54.958506,-24.44752],[-54.958853,-24.448748],[-54.958875,-24.454165],[-54.963658,-24.454144],[-55.014787,-24.485484],[-55.018261,-24.491034],[-55.0343,-24.490388],[-55.039965,-24.487108],[-55.046806,-24.481467],[-55.048651,-24.480648],[-55.049657,-24.479142],[-55.051549,-24.477393],[-55.053587,-24.474702],[-55.053714,-24.471848],[-55.05427,-24.470918],[-55.055711,-24.469607],[-55.055684,-24.467471],[-55.055924,-24.467284],[-55.106611,-24.457049],[-55.109622,-24.458098],[-55.110234,-24.45757],[-55.109547,-24.456254],[-55.113438,-24.44991],[-55.115606,-24.449308],[-55.115884,-24.448492],[-55.115571,-24.446738],[-55.119795,-24.441004],[-55.122039,-24.441762],[-55.125313,-24.441153],[-55.137752,-24.440246],[-55.140197,-24.441139],[-55.14164,-24.44247],[-55.157136,-24.460532],[-55.158367,-24.461748],[-55.159906,-24.462559],[-55.153622,-24.476393],[-55.154518,-24.476246]]]}}]}
