{"type":"FeatureCollection","name":"distrito","features":[{"type":"Feature","properties":{"clave":"5-20","nombre":"Nueva Toledo"},"geometry":{"type":"Polygon","coordinates":[[[-55.420659,-25.071352],[-55.404069,-25.093414],[-55.402366,-25.106807],[-55.406949,-25.110357],[-55.412198,-25.110985],[-55.418407,-25.110194],[-55.422944,-25.109001],[-55.428515,-25.110561],[-55.434485,-25.113142],[-55.438257,-25.1127],[-55.440742,-25.111654],[-55.442071,-25.108989],[-55.442931,-25.101496],[-55.442985,-25.09721],[-55.444516,-25.092511],[-55.446607,-25.090014],[-55.449924,-25.088281],[-55.45347,-25.086978],[-55.456448,-25.084169],[-55.460754,-25.078588],[-55.46613,-25.076804],[-55.466334,-25.076335],[-55.467138,-25.076023],[-55.467523,-25.075312],[-55.467955,-25.075383],[-55.468127,-25.074866],[-55.468845,-25.074994],[-55.470826,-25.0744],[-55.47095,-25.073864],[-55.472284,-25.074222],[-55.472423,-25.073826],[-55.473147,-25.073721],[-55.473896,-25.07479],[-55.474469,-25.074926],[-55.474573,-25.075424],[-55.475327,-25.075454],[-55.475426,-25.075731],[-55.474909,-25.075897],[-55.475724,-25.076673],[-55.475551,-25.077533],[-55.476249,-25.077667],[-55.476529,-25.078505],[-55.47764,-25.079329],[-55.478379,-25.079179],[-55.479586,-25.079837],[-55.4802,-25.080403],[-55.480455,-25.081168],[-55.483162,-25.081331],[-55.48502,-25.082741],[-55.486015,-25.082778],[-55.486789,-25.083472],[-55.487868,-25.083677],[-55.491014,-25.082901],[-55.492333,-25.081948],[-55.49498,-25.080919],[-55.496501,-25.08084],[-55.497779,-25.080509],[-55.498643,-25.079895],[-55.499668,-25.079901],[-55.500489,-25.078966],[-55.50261,-25.078558],[-55.504421,-25.07757],[-55.505968,-25.077242],[-55.506882,-25.075902],[-55.507656,-25.075472],[-55.509325,-25.075561],[-55.517167,-25.074723],[-55.51823,-25.073645],[-55.519766,-25.073078],[-55.520654,-25.072098],[-55.522908,-25.071232],[-55.525456,-25.071442],[-55.526246,-25.072127],[-55.527302,-25.071916],[-55.527687,-25.072385],[-55.528156,-25.072453],[-55.52977,-25.071909],[-55.530407,-25.070602],[-55.531188,-25.070185],[-55.533298,-25.070265],[-55.536784,-25.07113],[-55.538127,-25.070913],[-55.539934,-25.071287],[-55.541147,-25.070979],[-55.542679,-25.071003],[-55.543589,-25.070113],[-55.546668,-25.06878],[-55.550377,-25.06594],[-55.552536,-25.065302],[-55.554316,-25.063974],[-55.55897,-25.064141],[-55.561492,-25.063367],[-55.564778,-25.064893],[-55.566359,-25.064461],[-55.568314,-25.065347],[-55.572749,-25.065042],[-55.575157,-25.063968],[-55.577376,-25.062527],[-55.578917,-25.061124],[-55.580596,-25.058937],[-55.581327,-25.058528],[-55.582749,-25.056691],[-55.584518,-25.055809],[-55.585786,-25.053894],[-55.588203,-25.051736],[-55.588986,-25.051238],[-55.591964,-25.050318],[-55.596664,-25.045744],[-55.599064,-25.044539],[-55.599974,-25.041631],[-55.598796,-25.037823],[-55.598829,-25.035864],[-55.60709,-25.036077],[-55.609386,-25.042063],[-55.614617,-25.039759],[-55.626715,-25.039754],[-55.629359,-25.040221],[-55.631023,-25.040074],[-55.635627,-25.036139],[-55.648726,-25.022999],[-55.654232,-25.023536],[-55.665611,-25.017287],[-55.676851,-25.011667],[-55.688034,-25.011197],[-55.689062,-25.011432],[-55.694605,-25.014944],[-55.695464,-25.015976],[-55.697198,-25.016524],[-55.698066,-25.01864],[-55.698482,-25.018811],[-55.699958,-25.017063],[-55.700827,-25.017032],[-55.700905,-25.016517],[-55.701363,-25.016656],[-55.701284,-25.015476],[-55.700736,-25.015622],[-55.70018,-25.014842],[-55.700474,-25.014441],[-55.70022,-25.014125],[-55.700696,-25.01367],[-55.700228,-25.013272],[-55.700651,-25.013216],[-55.700357,-25.012657],[-55.700983,-25.012131],[-55.700602,-25.01069],[-55.70106,-25.010403],[-55.701364,-25.010667],[-55.701675,-25.010249],[-55.701435,-25.009769],[-55.702082,-25.009445],[-55.701752,-25.008992],[-55.701414,-25.009268],[-55.700936,-25.008581],[-55.700931,-25.007989],[-55.701627,-25.007203],[-55.701355,-25.007053],[-55.701466,-25.006543],[-55.700959,-25.006715],[-55.701119,-25.006299],[-55.700864,-25.006214],[-55.700698,-25.004767],[-55.701331,-25.003467],[-55.701094,-25.003337],[-55.701236,-25.003014],[-55.701522,-25.002872],[-55.701642,-25.003248],[-55.702084,-25.002802],[-55.702766,-25.002802],[-55.701857,-25.001311],[-55.702464,-25.000874],[-55.703009,-25.001535],[-55.702858,-25.000814],[-55.703549,-25.001023],[-55.70508,-24.999093],[-55.706668,-24.998918],[-55.707056,-24.999126],[-55.707349,-24.998883],[-55.708215,-24.999124],[-55.710203,-24.998625],[-55.710561,-24.998157],[-55.712526,-24.997871],[-55.713294,-24.997465],[-55.715726,-24.995192],[-55.715818,-24.994521],[-55.716581,-24.994086],[-55.717039,-24.992695],[-55.717246,-24.992568],[-55.717773,-24.993007],[-55.717581,-24.992001],[-55.718222,-24.991351],[-55.7181,-24.991014],[-55.715302,-24.991244],[-55.710766,-24.992054],[-55.708073,-24.993322],[-55.70724,-24.993044],[-55.705682,-24.991812],[-55.703403,-24.990939],[-55.69937,-24.988795],[-55.693867,-24.988625],[-55.691431,-24.987741],[-55.685732,-24.987194],[-55.682672,-24.987434],[-55.680049,-24.983844],[-55.677458,-24.982209],[-55.674335,-24.980837],[-55.668413,-24.975644],[-55.666976,-24.974651],[-55.665345,-24.974168],[-55.664668,-24.970335],[-55.663294,-24.969933],[-55.66415,-24.966271],[-55.662529,-24.962649],[-55.661958,-24.962459],[-55.657521,-24.951116],[-55.652874,-24.948315],[-55.651582,-24.945934],[-55.65031,-24.945303],[-55.647499,-24.939771],[-55.644914,-24.938984],[-55.642928,-24.93885],[-55.639937,-24.938096],[-55.636237,-24.935728],[-55.632171,-24.934598],[-55.6326,-24.931396],[-55.632034,-24.930809],[-55.631866,-24.928862],[-55.630877,-24.92729],[-55.605753,-24.919437],[-55.600989,-24.917611],[-55.596534,-24.913215],[-55.594971,-24.912586],[-55.593903,-24.912522],[-55.59301,-24.911985],[-55.589443,-24.907486],[-55.587793,-24.906428],[-55.586813,-24.904635],[-55.586231,-24.901469],[-55.585417,-24.900992],[-55.58292,-24.900621],[-55.580412,-24.90145],[-55.570893,-24.900953],[-55.559482,-24.901976],[-55.558603,-24.901629],[-55.556848,-24.899576],[-55.552948,-24.897877],[-55.552954,-24.896676],[-55.548747,-24.893222],[-55.530079,-24.890899],[-55.500942,-24.892212],[-55.500437,-24.892794],[-55.499321,-24.892973],[-55.489493,-24.892941],[-55.48666,-24.893576],[-55.473881,-24.897861],[-55.466614,-24.897015],[-55.465063,-24.894958],[-55.463506,-24.894075],[-55.457276,-24.893636],[-55.448556,-24.889884],[-55.437509,-24.884266],[-55.426087,-24.882196],[-55.42353,-24.87918],[-55.423084,-24.877884],[-55.423215,-24.876996],[-55.422299,-24.8751],[-55.420828,-24.874944],[-55.419389,-24.875272],[-55.41656,-24.876605],[-55.41467,-24.876743],[-55.411838,-24.876135],[-55.406021,-24.877035],[-55.399905,-24.879601],[-55.398659,-24.879565],[-55.394913,-24.878162],[-55.391484,-24.875705],[-55.389055,-24.875151],[-55.383091,-24.868897],[-55.380692,-24.867905],[-55.377267,-24.864319],[-55.373863,-24.858626],[-55.371697,-24.852079],[-55.371099,-24.851309],[-55.370726,-24.849788],[-55.371171,-24.847879],[-55.370834,-24.846991],[-55.370792,-24.844462],[-55.370238,-24.8434],[-55.370036,-24.841131],[-55.368993,-24.838998],[-55.369265,-24.837674],[-55.364012,-24.831314],[-55.361229,-24.829474],[-55.360914,-24.830147],[-55.362072,-24.831587],[-55.362251,-24.832499],[-55.36218,-24.833107],[-55.361566,-24.833844],[-55.358791,-24.83336],[-55.357868,-24.833525],[-55.355601,-24.83536],[-55.354965,-24.835564],[-55.354519,-24.836596],[-55.352622,-24.835672],[-55.348133,-24.838479],[-55.348312,-24.841157],[-55.349265,-24.843517],[-55.348979,-24.844047],[-55.348127,-24.843775],[-55.347679,-24.843946],[-55.347559,-24.844645],[-55.348281,-24.846224],[-55.349148,-24.8458],[-55.350087,-24.846853],[-55.349192,-24.847317],[-55.348757,-24.848103],[-55.347845,-24.848133],[-55.347983,-24.84929],[-55.346526,-24.849911],[-55.343704,-24.848272],[-55.343433,-24.847624],[-55.343908,-24.846559],[-55.343482,-24.846423],[-55.343084,-24.846712],[-55.34222,-24.849303],[-55.344524,-24.851062],[-55.343869,-24.85264],[-55.34511,-24.852572],[-55.345332,-24.852985],[-55.34437,-24.854343],[-55.342829,-24.854366],[-55.342544,-24.854598],[-55.342607,-24.85509],[-55.343818,-24.855804],[-55.343642,-24.856447],[-55.342589,-24.856363],[-55.342174,-24.855122],[-55.340991,-24.854513],[-55.340404,-24.855021],[-55.340758,-24.856031],[-55.34051,-24.857198],[-55.339533,-24.857557],[-55.340588,-24.858332],[-55.341992,-24.85846],[-55.342038,-24.859228],[-55.340987,-24.859438],[-55.340874,-24.859717],[-55.34238,-24.861512],[-55.343144,-24.861687],[-55.343611,-24.860347],[-55.344069,-24.860452],[-55.344182,-24.861279],[-55.343085,-24.862391],[-55.342115,-24.862507],[-55.342275,-24.863691],[-55.341994,-24.863954],[-55.339881,-24.862477],[-55.339813,-24.861718],[-55.338278,-24.862636],[-55.339132,-24.863972],[-55.341669,-24.865174],[-55.341602,-24.865783],[-55.341307,-24.865942],[-55.338834,-24.86577],[-55.338324,-24.866103],[-55.338811,-24.866515],[-55.341034,-24.867018],[-55.340843,-24.868244],[-55.338325,-24.868889],[-55.338005,-24.868266],[-55.339034,-24.866996],[-55.338625,-24.866896],[-55.337683,-24.867509],[-55.336888,-24.868462],[-55.336912,-24.870205],[-55.335476,-24.870243],[-55.335334,-24.870449],[-55.335433,-24.870802],[-55.336475,-24.871202],[-55.336735,-24.871801],[-55.336349,-24.872347],[-55.335173,-24.872794],[-55.335531,-24.874135],[-55.3339,-24.874581],[-55.332858,-24.873757],[-55.332004,-24.873937],[-55.331559,-24.874817],[-55.329362,-24.877176],[-55.329316,-24.877591],[-55.333729,-24.879645],[-55.333895,-24.880306],[-55.333438,-24.881402],[-55.332018,-24.881725],[-55.329976,-24.881661],[-55.329325,-24.882688],[-55.329695,-24.883753],[-55.329084,-24.884094],[-55.328181,-24.884038],[-55.327277,-24.884453],[-55.326712,-24.884311],[-55.326404,-24.884009],[-55.326863,-24.882832],[-55.326212,-24.882495],[-55.32539,-24.882788],[-55.325075,-24.883408],[-55.325905,-24.884663],[-55.327282,-24.885297],[-55.327457,-24.885931],[-55.327054,-24.886414],[-55.325042,-24.886761],[-55.325092,-24.887823],[-55.325534,-24.888157],[-55.327597,-24.887756],[-55.328936,-24.888227],[-55.329433,-24.888752],[-55.330135,-24.890868],[-55.329677,-24.892222],[-55.32777,-24.89192],[-55.32588,-24.892107],[-55.326001,-24.892681],[-55.326768,-24.893421],[-55.326623,-24.894878],[-55.32735,-24.895626],[-55.326174,-24.896308],[-55.326212,-24.897307],[-55.326808,-24.897738],[-55.328493,-24.897486],[-55.329294,-24.898506],[-55.32909,-24.898923],[-55.327703,-24.899693],[-55.326876,-24.900817],[-55.332025,-24.903538],[-55.335765,-24.907178],[-55.337992,-24.907618],[-55.338565,-24.908008],[-55.33847,-24.908513],[-55.337406,-24.90939],[-55.335903,-24.908936],[-55.335286,-24.909064],[-55.335452,-24.910953],[-55.336172,-24.910988],[-55.337639,-24.910142],[-55.339022,-24.910248],[-55.339566,-24.910714],[-55.339828,-24.912135],[-55.340217,-24.912482],[-55.340926,-24.911371],[-55.341873,-24.9106],[-55.342293,-24.910627],[-55.34242,-24.911988],[-55.341587,-24.912647],[-55.341393,-24.913159],[-55.341923,-24.913585],[-55.343332,-24.913736],[-55.343001,-24.914965],[-55.343789,-24.914603],[-55.344187,-24.914919],[-55.343193,-24.91726],[-55.343637,-24.918114],[-55.344316,-24.918257],[-55.345,-24.917614],[-55.345338,-24.918155],[-55.34425,-24.918856],[-55.344851,-24.920506],[-55.34371,-24.920606],[-55.342707,-24.921634],[-55.341757,-24.921736],[-55.341496,-24.922401],[-55.341639,-24.923306],[-55.340903,-24.923744],[-55.339208,-24.924204],[-55.337281,-24.92397],[-55.336415,-24.92508],[-55.334347,-24.925509],[-55.333368,-24.925353],[-55.331831,-24.924528],[-55.330638,-24.924754],[-55.329806,-24.924298],[-55.329777,-24.925453],[-55.328911,-24.926242],[-55.329428,-24.928465],[-55.33091,-24.92858],[-55.331156,-24.928132],[-55.330601,-24.927223],[-55.330801,-24.926895],[-55.331161,-24.92694],[-55.331772,-24.927823],[-55.331475,-24.929092],[-55.330377,-24.929405],[-55.330412,-24.929821],[-55.332805,-24.92987],[-55.332108,-24.930801],[-55.330705,-24.931138],[-55.330867,-24.931713],[-55.331667,-24.932489],[-55.331605,-24.932791],[-55.331093,-24.932979],[-55.329852,-24.932735],[-55.329861,-24.933264],[-55.331052,-24.934825],[-55.329924,-24.93558],[-55.33066,-24.936225],[-55.331616,-24.936033],[-55.331694,-24.936467],[-55.330845,-24.936994],[-55.330882,-24.937333],[-55.331886,-24.937187],[-55.332563,-24.93816],[-55.333553,-24.938275],[-55.333649,-24.93861],[-55.333251,-24.938877],[-55.33174,-24.938986],[-55.330803,-24.939784],[-55.329364,-24.93905],[-55.329151,-24.939562],[-55.330444,-24.940371],[-55.330598,-24.941023],[-55.329569,-24.94154],[-55.328205,-24.94105],[-55.327845,-24.941186],[-55.327594,-24.942822],[-55.328822,-24.943278],[-55.33064,-24.942175],[-55.331368,-24.943496],[-55.329487,-24.945087],[-55.330979,-24.946228],[-55.331651,-24.944913],[-55.333594,-24.943837],[-55.33309,-24.945976],[-55.333362,-24.946972],[-55.33251,-24.947229],[-55.334018,-24.947905],[-55.334778,-24.949295],[-55.33469,-24.949664],[-55.332621,-24.95011],[-55.332308,-24.950495],[-55.332857,-24.951124],[-55.334207,-24.950747],[-55.334492,-24.950962],[-55.334522,-24.951531],[-55.334247,-24.951713],[-55.332583,-24.951862],[-55.332316,-24.952816],[-55.332458,-24.95563],[-55.333966,-24.957141],[-55.334392,-24.95878],[-55.332504,-24.963837],[-55.331718,-24.964641],[-55.330554,-24.964976],[-55.33027,-24.965446],[-55.33064,-24.966132],[-55.332383,-24.967294],[-55.332773,-24.968431],[-55.331373,-24.96949],[-55.330139,-24.969576],[-55.331095,-24.970575],[-55.3311,-24.970963],[-55.329791,-24.971143],[-55.328542,-24.971923],[-55.325664,-24.972302],[-55.324413,-24.971195],[-55.323434,-24.970936],[-55.32236,-24.971547],[-55.321995,-24.971466],[-55.321856,-24.970828],[-55.322658,-24.969807],[-55.321861,-24.969613],[-55.320807,-24.970152],[-55.320751,-24.971727],[-55.319286,-24.971656],[-55.318504,-24.971932],[-55.318906,-24.973286],[-55.31747,-24.974891],[-55.316901,-24.975042],[-55.316218,-24.974768],[-55.315902,-24.975699],[-55.316168,-24.976736],[-55.314672,-24.977531],[-55.315136,-24.978683],[-55.314531,-24.978686],[-55.313287,-24.978039],[-55.312943,-24.978234],[-55.312511,-24.981696],[-55.313378,-24.983214],[-55.313272,-24.98366],[-55.310249,-24.983251],[-55.308838,-24.982178],[-55.307429,-24.983363],[-55.306984,-24.985331],[-55.308154,-24.988229],[-55.304578,-24.991127],[-55.304877,-24.991609],[-55.305852,-24.99143],[-55.306079,-24.992047],[-55.305674,-24.992548],[-55.304183,-24.993244],[-55.304076,-24.993884],[-55.304448,-24.995098],[-55.304988,-24.995203],[-55.306031,-24.994714],[-55.306219,-24.994928],[-55.305747,-24.996661],[-55.306446,-24.996655],[-55.30735,-24.995031],[-55.307819,-24.995335],[-55.308002,-24.996208],[-55.306672,-24.99785],[-55.307193,-24.998659],[-55.307911,-24.998825],[-55.308384,-24.998605],[-55.308707,-24.997286],[-55.309545,-24.996966],[-55.310111,-24.997406],[-55.310264,-24.998997],[-55.311381,-25.000585],[-55.311821,-25.000612],[-55.313095,-24.999737],[-55.313687,-24.999776],[-55.312739,-25.001805],[-55.31492,-25.000968],[-55.315519,-25.000076],[-55.316161,-25.000034],[-55.316095,-25.000485],[-55.316824,-25.000782],[-55.316775,-25.00047],[-55.317252,-25.000024],[-55.317679,-25.000683],[-55.318194,-25.000689],[-55.318124,-25.001158],[-55.318703,-25.001345],[-55.31981,-25.002436],[-55.322374,-25.003025],[-55.32398,-25.004384],[-55.324621,-25.004269],[-55.326343,-25.002754],[-55.332471,-25.001346],[-55.334316,-25.000681],[-55.334704,-25.000152],[-55.33585,-25.000012],[-55.339354,-25.000597],[-55.339777,-25.00146],[-55.340793,-25.001092],[-55.342177,-25.001437],[-55.342546,-25.002032],[-55.343798,-25.001802],[-55.345598,-25.002382],[-55.347923,-25.002471],[-55.348802,-25.003163],[-55.350405,-25.002855],[-55.35097,-25.002388],[-55.352036,-25.002377],[-55.353662,-25.004178],[-55.356896,-25.005297],[-55.357399,-25.004784],[-55.358006,-25.005143],[-55.360372,-25.003205],[-55.380003,-24.990766],[-55.403666,-24.993568],[-55.404264,-24.99432],[-55.405061,-24.997384],[-55.404896,-24.998493],[-55.405497,-25.004906],[-55.406557,-25.007598],[-55.408047,-25.008314],[-55.408886,-25.009823],[-55.40978,-25.013506],[-55.410737,-25.015489],[-55.410558,-25.02388],[-55.411486,-25.02537],[-55.411343,-25.025676],[-55.412142,-25.026045],[-55.412369,-25.027307],[-55.414096,-25.028143],[-55.415698,-25.029894],[-55.417499,-25.030491],[-55.417837,-25.031457],[-55.421101,-25.036125],[-55.422312,-25.038546],[-55.422387,-25.040833],[-55.420346,-25.047797],[-55.422221,-25.06471],[-55.420659,-25.071352]]]}}]}
