{"type":"FeatureCollection","name":"distrito","features":[{"type":"Feature","properties":{"clave":"4-25","nombre":"Ñumí"},"geometry":{"type":"Polygon","coordinates":[[[-56.316441,-25.952941],[-56.316746,-25.95357],[-56.316175,-25.954687],[-56.316644,-25.956562],[-56.316339,-25.95894],[-56.317911,-25.961133],[-56.317565,-25.96175],[-56.317851,-25.96274],[-56.3185,-25.96235],[-56.318814,-25.963088],[-56.319642,-25.962911],[-56.320301,-25.963207],[-56.321628,-25.962839],[-56.322503,-25.963042],[-56.323526,-25.963818],[-56.32492,-25.963708],[-56.324646,-25.96437],[-56.32638,-25.963606],[-56.32755,-25.964681],[-56.32814,-25.964616],[-56.329313,-25.965173],[-56.330695,-25.964619],[-56.330783,-25.965324],[-56.331833,-25.965767],[-56.332695,-25.965735],[-56.333175,-25.966387],[-56.335247,-25.966798],[-56.336539,-25.967486],[-56.337764,-25.96718],[-56.33845,-25.967928],[-56.339812,-25.968381],[-56.342329,-25.968289],[-56.343406,-25.967264],[-56.344345,-25.967002],[-56.344625,-25.967496],[-56.346321,-25.968664],[-56.347128,-25.968703],[-56.34778,-25.969257],[-56.348107,-25.970107],[-56.348979,-25.970743],[-56.349519,-25.971671],[-56.350467,-25.971518],[-56.351054,-25.970712],[-56.35077,-25.968887],[-56.350981,-25.967972],[-56.368896,-25.95387],[-56.367414,-25.951488],[-56.367275,-25.950282],[-56.369356,-25.946047],[-56.369264,-25.944011],[-56.36952,-25.943195],[-56.371544,-25.941994],[-56.371977,-25.940767],[-56.37167,-25.939737],[-56.370421,-25.939433],[-56.369946,-25.938614],[-56.370648,-25.936179],[-56.370163,-25.934416],[-56.369215,-25.933374],[-56.367755,-25.9156],[-56.363888,-25.893781],[-56.356706,-25.895503],[-56.354389,-25.895804],[-56.353061,-25.895527],[-56.351699,-25.89358],[-56.351458,-25.890671],[-56.349919,-25.88977],[-56.347321,-25.886499],[-56.341718,-25.883878],[-56.341122,-25.883175],[-56.340706,-25.880767],[-56.339091,-25.878276],[-56.289907,-25.874771],[-56.276798,-25.844823],[-56.277064,-25.878283],[-56.277315,-25.878957],[-56.276557,-25.880863],[-56.276998,-25.88417],[-56.277419,-25.884741],[-56.276963,-25.885592],[-56.276148,-25.886008],[-56.275051,-25.886088],[-56.273136,-25.885677],[-56.272018,-25.886299],[-56.269391,-25.886638],[-56.265872,-25.88848],[-56.264718,-25.888551],[-56.263291,-25.88941],[-56.262729,-25.890789],[-56.261099,-25.890871],[-56.260599,-25.89179],[-56.258621,-25.892651],[-56.257589,-25.892772],[-56.256301,-25.892427],[-56.254363,-25.892688],[-56.253546,-25.893293],[-56.252545,-25.893477],[-56.251938,-25.894219],[-56.251138,-25.894007],[-56.25042,-25.895439],[-56.249677,-25.895846],[-56.250721,-25.897053],[-56.249398,-25.89743],[-56.24925,-25.899086],[-56.250165,-25.899853],[-56.250328,-25.900599],[-56.250141,-25.901072],[-56.249397,-25.901515],[-56.249085,-25.902503],[-56.249658,-25.903029],[-56.249731,-25.903635],[-56.250403,-25.903864],[-56.250612,-25.906109],[-56.251636,-25.907441],[-56.250541,-25.908578],[-56.251415,-25.9093],[-56.250877,-25.911094],[-56.251747,-25.912905],[-56.2517,-25.913758],[-56.252664,-25.91328],[-56.252861,-25.913416],[-56.252224,-25.914474],[-56.253357,-25.914493],[-56.253068,-25.915751],[-56.253822,-25.915827],[-56.253893,-25.917814],[-56.254273,-25.918114],[-56.254042,-25.918542],[-56.253274,-25.918908],[-56.253784,-25.919475],[-56.253595,-25.920504],[-56.251961,-25.919971],[-56.253388,-25.922101],[-56.252611,-25.923307],[-56.253873,-25.92358],[-56.254099,-25.924574],[-56.255255,-25.925013],[-56.255552,-25.923846],[-56.255851,-25.924037],[-56.25584,-25.924723],[-56.256646,-25.924876],[-56.257348,-25.924825],[-56.257421,-25.924261],[-56.258555,-25.923766],[-56.260376,-25.925238],[-56.261048,-25.924262],[-56.26283,-25.923923],[-56.262739,-25.924433],[-56.262051,-25.92503],[-56.262698,-25.925385],[-56.262333,-25.926061],[-56.262797,-25.926713],[-56.261451,-25.927822],[-56.261636,-25.92826],[-56.263025,-25.928796],[-56.263145,-25.929203],[-56.262033,-25.928845],[-56.261806,-25.929923],[-56.262417,-25.930147],[-56.26271,-25.930623],[-56.261961,-25.930709],[-56.2618,-25.931498],[-56.260509,-25.931663],[-56.260461,-25.931902],[-56.26104,-25.932108],[-56.260352,-25.932534],[-56.261939,-25.933233],[-56.261566,-25.933881],[-56.262431,-25.934179],[-56.262917,-25.935111],[-56.263585,-25.935611],[-56.262684,-25.935832],[-56.263019,-25.936186],[-56.262362,-25.936332],[-56.262363,-25.936671],[-56.2628,-25.937165],[-56.263794,-25.937337],[-56.264136,-25.938043],[-56.26376,-25.93856],[-56.26415,-25.939456],[-56.264657,-25.939066],[-56.265203,-25.940473],[-56.267294,-25.939978],[-56.268349,-25.940277],[-56.268443,-25.940801],[-56.268789,-25.940058],[-56.269444,-25.940526],[-56.27009,-25.939947],[-56.270104,-25.940696],[-56.270754,-25.94051],[-56.271358,-25.940797],[-56.271128,-25.941275],[-56.271536,-25.942085],[-56.272206,-25.942061],[-56.272738,-25.941518],[-56.273207,-25.942125],[-56.274043,-25.94194],[-56.274443,-25.942393],[-56.274593,-25.941929],[-56.275108,-25.941837],[-56.275858,-25.940964],[-56.277266,-25.940881],[-56.278161,-25.941242],[-56.278666,-25.940662],[-56.281118,-25.94053],[-56.281747,-25.940001],[-56.281501,-25.939697],[-56.281629,-25.938804],[-56.282905,-25.938715],[-56.283453,-25.939503],[-56.285069,-25.940089],[-56.286292,-25.940046],[-56.287405,-25.939514],[-56.288398,-25.940458],[-56.289809,-25.940654],[-56.289845,-25.942253],[-56.290528,-25.942103],[-56.290912,-25.942696],[-56.291566,-25.942148],[-56.291973,-25.942678],[-56.293125,-25.942409],[-56.293968,-25.944463],[-56.294364,-25.94404],[-56.296253,-25.943774],[-56.296858,-25.943041],[-56.297393,-25.943694],[-56.297702,-25.943686],[-56.298343,-25.942899],[-56.29921,-25.942547],[-56.300073,-25.943567],[-56.299714,-25.944066],[-56.300748,-25.944671],[-56.301592,-25.944788],[-56.302106,-25.946556],[-56.303334,-25.94761],[-56.304406,-25.947276],[-56.305195,-25.947492],[-56.306081,-25.947329],[-56.306926,-25.947988],[-56.308388,-25.947891],[-56.308744,-25.947383],[-56.309646,-25.947676],[-56.309889,-25.947998],[-56.309318,-25.94841],[-56.309786,-25.948868],[-56.310847,-25.948711],[-56.311471,-25.949563],[-56.312204,-25.949033],[-56.312782,-25.949668],[-56.313435,-25.949567],[-56.313999,-25.949913],[-56.314067,-25.950659],[-56.31552,-25.950724],[-56.31551,-25.951153],[-56.316537,-25.951663],[-56.316441,-25.952941]]]}}]}
