{"type":"FeatureCollection","name":"distrito","features":[{"type":"Feature","properties":{"clave":"12-27","nombre":"Villa Oliva"},"geometry":{"type":"Polygon","coordinates":[[[-57.898341,-26.144625],[-57.903678,-26.149386],[-57.917792,-26.164244],[-57.940837,-26.176876],[-57.958352,-26.164111],[-57.958819,-26.165385],[-57.961843,-26.169469],[-57.966963,-26.174924],[-57.969426,-26.178921],[-57.970687,-26.182023],[-57.975325,-26.189598],[-57.976016,-26.188424],[-57.979507,-26.186893],[-57.987815,-26.184398],[-57.989031,-26.181794],[-57.990554,-26.179671],[-57.991621,-26.178449],[-57.994396,-26.176669],[-57.997479,-26.175804],[-58.000321,-26.176082],[-58.022942,-26.159287],[-58.024329,-26.156564],[-58.035254,-26.162517],[-58.089769,-26.126885],[-58.094209,-26.125613],[-58.089509,-26.115076],[-58.075482,-26.11035],[-58.064138,-26.107652],[-58.050035,-26.111725],[-58.034796,-26.110345],[-58.030235,-26.107582],[-58.023844,-26.106269],[-58.017052,-26.103863],[-58.015152,-26.102925],[-57.990925,-26.087714],[-57.981208,-26.083085],[-57.97632,-26.081523],[-57.971169,-26.079236],[-57.961373,-26.073422],[-57.95194,-26.068644],[-57.947926,-26.065879],[-57.942618,-26.060799],[-57.933996,-26.051028],[-57.929419,-26.047042],[-57.928107,-26.045542],[-57.92626,-26.042122],[-57.924725,-26.037853],[-57.923533,-26.035515],[-57.920197,-26.032397],[-57.909773,-26.02652],[-57.890763,-26.017956],[-57.888785,-26.017303],[-57.87883,-26.015895],[-57.872904,-26.014542],[-57.869268,-26.012834],[-57.862182,-26.010304],[-57.856501,-26.006678],[-57.854898,-26.005188],[-57.853322,-26.003502],[-57.85131,-26.000459],[-57.851427,-25.993773],[-57.852375,-25.991235],[-57.856274,-25.985889],[-57.858976,-25.983607],[-57.865901,-25.979026],[-57.876051,-25.974314],[-57.880224,-25.971979],[-57.883052,-25.969581],[-57.888035,-25.966864],[-57.891016,-25.964637],[-57.893095,-25.962323],[-57.894173,-25.960358],[-57.894681,-25.958567],[-57.894591,-25.956698],[-57.893577,-25.953264],[-57.889179,-25.944398],[-57.887641,-25.940176],[-57.885009,-25.936808],[-57.882016,-25.93403],[-57.872707,-25.9289],[-57.869028,-25.927301],[-57.863805,-25.926156],[-57.855245,-25.924936],[-57.84951,-25.923037],[-57.845532,-25.920144],[-57.843674,-25.917287],[-57.840668,-25.911604],[-57.840146,-25.907343],[-57.840527,-25.90365],[-57.841248,-25.901377],[-57.843018,-25.898549],[-57.84502,-25.89635],[-57.847241,-25.894608],[-57.850298,-25.892725],[-57.854976,-25.890387],[-57.861075,-25.886231],[-57.862788,-25.884457],[-57.86512,-25.880295],[-57.865515,-25.878792],[-57.865588,-25.876361],[-57.864971,-25.869577],[-57.8646,-25.86716],[-57.863078,-25.863453],[-57.860204,-25.858527],[-57.858545,-25.856907],[-57.854749,-25.85437],[-57.842688,-25.850211],[-57.836845,-25.848566],[-57.8224,-25.847719],[-57.818922,-25.847071],[-57.814917,-25.84513],[-57.811289,-25.842615],[-57.808329,-25.839976],[-57.805936,-25.839599],[-57.798882,-25.836825],[-57.792815,-25.835712],[-57.789693,-25.83384],[-57.787229,-25.829753],[-57.786462,-25.826083],[-57.78658,-25.822311],[-57.78705,-25.820192],[-57.791435,-25.809386],[-57.791706,-25.803091],[-57.793289,-25.798733],[-57.793467,-25.796999],[-57.792943,-25.796428],[-57.792372,-25.796396],[-57.790679,-25.798587],[-57.786743,-25.801155],[-57.785324,-25.801641],[-57.782774,-25.801962],[-57.778942,-25.803468],[-57.774371,-25.802969],[-57.769347,-25.801636],[-57.765416,-25.799634],[-57.763292,-25.796413],[-57.762054,-25.796162],[-57.76101,-25.796705],[-57.760357,-25.796514],[-57.759626,-25.79389],[-57.758693,-25.792333],[-57.759015,-25.792047],[-57.760492,-25.792071],[-57.761056,-25.791535],[-57.760962,-25.79047],[-57.7599,-25.790178],[-57.759598,-25.789335],[-57.761147,-25.781069],[-57.761674,-25.780854],[-57.762637,-25.781454],[-57.764631,-25.781525],[-57.765512,-25.780888],[-57.76577,-25.780187],[-57.76478,-25.7798],[-57.761904,-25.779521],[-57.762024,-25.778834],[-57.763541,-25.777377],[-57.76341,-25.776872],[-57.762424,-25.776042],[-57.761824,-25.776032],[-57.761201,-25.776464],[-57.759971,-25.778615],[-57.759284,-25.777919],[-57.759002,-25.776674],[-57.756868,-25.777083],[-57.756084,-25.776861],[-57.754909,-25.774777],[-57.755032,-25.774058],[-57.756367,-25.773464],[-57.758869,-25.773203],[-57.759683,-25.772214],[-57.759488,-25.771601],[-57.758993,-25.771374],[-57.757113,-25.772029],[-57.755625,-25.772005],[-57.756267,-25.770318],[-57.757107,-25.769532],[-57.756748,-25.768004],[-57.756213,-25.76797],[-57.755778,-25.768429],[-57.75576,-25.770153],[-57.75549,-25.770349],[-57.754648,-25.770033],[-57.754724,-25.767631],[-57.753203,-25.767232],[-57.752366,-25.767241],[-57.751813,-25.767731],[-57.752604,-25.769854],[-57.752333,-25.770216],[-57.751168,-25.769703],[-57.749867,-25.768374],[-57.746826,-25.768827],[-57.74516,-25.768718],[-57.744911,-25.769239],[-57.745302,-25.769882],[-57.747495,-25.770706],[-57.746038,-25.772872],[-57.744211,-25.773735],[-57.743867,-25.774341],[-57.744134,-25.774651],[-57.744979,-25.774178],[-57.745094,-25.776317],[-57.745576,-25.777371],[-57.746643,-25.778431],[-57.744071,-25.778652],[-57.742895,-25.777963],[-57.742136,-25.779962],[-57.739966,-25.780298],[-57.740305,-25.782283],[-57.740071,-25.783061],[-57.740604,-25.783193],[-57.742584,-25.780795],[-57.743301,-25.78048],[-57.743627,-25.780668],[-57.744132,-25.782178],[-57.743381,-25.783337],[-57.743336,-25.78411],[-57.744616,-25.785525],[-57.745208,-25.785328],[-57.745133,-25.784457],[-57.746162,-25.784407],[-57.746716,-25.784711],[-57.747715,-25.786358],[-57.748134,-25.786555],[-57.748656,-25.785071],[-57.748553,-25.783686],[-57.75105,-25.784314],[-57.751178,-25.784625],[-57.749776,-25.785377],[-57.749511,-25.786344],[-57.749847,-25.786925],[-57.751489,-25.78795],[-57.751673,-25.788378],[-57.75141,-25.788529],[-57.750166,-25.788102],[-57.75,-25.788423],[-57.750647,-25.788898],[-57.750707,-25.789291],[-57.750058,-25.789534],[-57.748235,-25.78948],[-57.74814,-25.790744],[-57.749164,-25.791773],[-57.74956,-25.790385],[-57.751071,-25.790847],[-57.751728,-25.790383],[-57.75292,-25.790598],[-57.753439,-25.79088],[-57.753543,-25.79133],[-57.752053,-25.792137],[-57.751046,-25.793632],[-57.751173,-25.794327],[-57.752255,-25.794191],[-57.752312,-25.795797],[-57.751684,-25.797151],[-57.751235,-25.797437],[-57.749435,-25.797383],[-57.748118,-25.797751],[-57.749653,-25.798994],[-57.74967,-25.799613],[-57.748768,-25.799902],[-57.7474,-25.799245],[-57.746303,-25.799124],[-57.745965,-25.799365],[-57.746263,-25.800479],[-57.74776,-25.801984],[-57.747374,-25.802351],[-57.7455,-25.802519],[-57.745094,-25.802806],[-57.74516,-25.803121],[-57.745962,-25.803492],[-57.746214,-25.804109],[-57.74597,-25.804499],[-57.745145,-25.804602],[-57.744948,-25.806874],[-57.744716,-25.807146],[-57.744194,-25.806982],[-57.743147,-25.804884],[-57.741316,-25.803773],[-57.740382,-25.803721],[-57.740244,-25.804089],[-57.742025,-25.8048],[-57.742231,-25.805124],[-57.741029,-25.805294],[-57.740016,-25.805904],[-57.739978,-25.806356],[-57.741178,-25.806934],[-57.741531,-25.807574],[-57.739858,-25.809533],[-57.73873,-25.810212],[-57.738778,-25.810538],[-57.740683,-25.811385],[-57.741223,-25.813134],[-57.741584,-25.813347],[-57.742386,-25.813427],[-57.741818,-25.812694],[-57.742945,-25.811603],[-57.743496,-25.811565],[-57.743776,-25.812658],[-57.745437,-25.814511],[-57.744744,-25.815887],[-57.744657,-25.816841],[-57.743505,-25.815984],[-57.741406,-25.816009],[-57.740735,-25.816447],[-57.740646,-25.817079],[-57.741464,-25.817839],[-57.743421,-25.818537],[-57.74352,-25.819546],[-57.742955,-25.819724],[-57.74148,-25.818978],[-57.740092,-25.818939],[-57.739168,-25.819834],[-57.739714,-25.820477],[-57.741652,-25.820953],[-57.742419,-25.821879],[-57.742432,-25.822706],[-57.741983,-25.822863],[-57.739724,-25.822047],[-57.739054,-25.822248],[-57.738798,-25.822683],[-57.738786,-25.823139],[-57.739359,-25.82374],[-57.740222,-25.823643],[-57.740652,-25.823101],[-57.741032,-25.823099],[-57.741598,-25.824464],[-57.741232,-25.826604],[-57.739801,-25.827385],[-57.741491,-25.828313],[-57.742849,-25.827034],[-57.743296,-25.82836],[-57.742862,-25.829631],[-57.742313,-25.829671],[-57.741434,-25.829113],[-57.742088,-25.830925],[-57.741951,-25.831305],[-57.741376,-25.831318],[-57.741069,-25.830272],[-57.74002,-25.83109],[-57.739608,-25.832039],[-57.741989,-25.832253],[-57.74505,-25.831462],[-57.746939,-25.832296],[-57.746827,-25.833068],[-57.746155,-25.833309],[-57.745429,-25.832535],[-57.744348,-25.832782],[-57.742751,-25.832572],[-57.742168,-25.833055],[-57.741976,-25.834039],[-57.743594,-25.833827],[-57.743883,-25.83431],[-57.740419,-25.837791],[-57.73923,-25.837215],[-57.741075,-25.836203],[-57.741131,-25.835284],[-57.740866,-25.83504],[-57.739615,-25.835622],[-57.739237,-25.834656],[-57.738383,-25.834443],[-57.738103,-25.836779],[-57.736607,-25.835279],[-57.737222,-25.834179],[-57.735842,-25.833686],[-57.735615,-25.834455],[-57.735788,-25.837084],[-57.735302,-25.837433],[-57.734581,-25.834608],[-57.733587,-25.834444],[-57.732836,-25.835279],[-57.732603,-25.835138],[-57.731845,-25.833856],[-57.733377,-25.833441],[-57.732469,-25.833256],[-57.731846,-25.831591],[-57.731017,-25.831595],[-57.730382,-25.832783],[-57.729602,-25.833327],[-57.73024,-25.833758],[-57.731383,-25.835625],[-57.730345,-25.8357],[-57.730146,-25.83608],[-57.730418,-25.837666],[-57.729475,-25.837871],[-57.728611,-25.838471],[-57.729945,-25.838619],[-57.730563,-25.840268],[-57.729674,-25.841235],[-57.729473,-25.839946],[-57.72834,-25.840983],[-57.72757,-25.843076],[-57.727785,-25.843789],[-57.727558,-25.844566],[-57.726951,-25.844388],[-57.726832,-25.843906],[-57.726435,-25.843936],[-57.726185,-25.845526],[-57.725711,-25.846295],[-57.722835,-25.845484],[-57.723451,-25.846528],[-57.72254,-25.846903],[-57.722533,-25.848089],[-57.721885,-25.848332],[-57.718798,-25.848114],[-57.718685,-25.8478],[-57.719769,-25.846299],[-57.719499,-25.845599],[-57.718373,-25.846239],[-57.717582,-25.847231],[-57.714853,-25.847552],[-57.714502,-25.848128],[-57.717486,-25.849643],[-57.714655,-25.851514],[-57.713608,-25.851639],[-57.713015,-25.851235],[-57.714372,-25.849899],[-57.714183,-25.849012],[-57.713456,-25.848521],[-57.713096,-25.848696],[-57.712155,-25.850379],[-57.711778,-25.850493],[-57.710308,-25.849124],[-57.708146,-25.849001],[-57.706634,-25.849615],[-57.705404,-25.849692],[-57.705014,-25.849165],[-57.705799,-25.848608],[-57.705153,-25.847936],[-57.705671,-25.84662],[-57.704999,-25.844297],[-57.70312,-25.844927],[-57.701797,-25.845805],[-57.702496,-25.846589],[-57.702649,-25.847307],[-57.702531,-25.847557],[-57.701631,-25.846819],[-57.701398,-25.847044],[-57.701352,-25.848711],[-57.700858,-25.848565],[-57.700282,-25.847282],[-57.698581,-25.845868],[-57.697938,-25.845722],[-57.698003,-25.846613],[-57.698834,-25.847862],[-57.698663,-25.849608],[-57.697407,-25.849378],[-57.697157,-25.850158],[-57.696108,-25.849515],[-57.696135,-25.848956],[-57.697736,-25.848769],[-57.698127,-25.848598],[-57.698288,-25.84803],[-57.696879,-25.848566],[-57.695137,-25.847813],[-57.69506,-25.84739],[-57.696101,-25.846683],[-57.695979,-25.845765],[-57.694475,-25.845631],[-57.693862,-25.84639],[-57.692666,-25.846335],[-57.692221,-25.846972],[-57.693057,-25.846873],[-57.693506,-25.847114],[-57.693706,-25.84818],[-57.693201,-25.848588],[-57.692028,-25.848828],[-57.690381,-25.847651],[-57.690041,-25.84789],[-57.689625,-25.849549],[-57.690131,-25.851841],[-57.690936,-25.850626],[-57.691391,-25.851004],[-57.690842,-25.851852],[-57.691218,-25.852043],[-57.692158,-25.85184],[-57.692332,-25.852078],[-57.691765,-25.853595],[-57.692384,-25.854604],[-57.691406,-25.854569],[-57.690574,-25.85391],[-57.689461,-25.853755],[-57.688204,-25.854443],[-57.68922,-25.854894],[-57.689223,-25.855507],[-57.686648,-25.855858],[-57.686895,-25.857321],[-57.688769,-25.857098],[-57.688744,-25.857554],[-57.687826,-25.858457],[-57.688016,-25.859372],[-57.688698,-25.85866],[-57.689552,-25.858895],[-57.688434,-25.860232],[-57.686235,-25.8618],[-57.686101,-25.861466],[-57.686844,-25.860603],[-57.686788,-25.860022],[-57.685782,-25.860934],[-57.6852,-25.860794],[-57.685152,-25.860102],[-57.68439,-25.860638],[-57.684081,-25.860377],[-57.683875,-25.859076],[-57.682838,-25.858763],[-57.681756,-25.857443],[-57.680915,-25.857244],[-57.680562,-25.857778],[-57.682078,-25.85948],[-57.682214,-25.859962],[-57.681919,-25.860348],[-57.680064,-25.858764],[-57.679514,-25.858761],[-57.679471,-25.861135],[-57.67838,-25.861513],[-57.677817,-25.86071],[-57.677391,-25.861232],[-57.676846,-25.86065],[-57.674717,-25.861523],[-57.674459,-25.861866],[-57.674908,-25.862546],[-57.674685,-25.863257],[-57.67404,-25.864027],[-57.672229,-25.864543],[-57.671448,-25.863941],[-57.67179,-25.863246],[-57.671381,-25.862016],[-57.668626,-25.86119],[-57.668402,-25.861621],[-57.668771,-25.862068],[-57.669702,-25.862445],[-57.669267,-25.86377],[-57.668923,-25.864128],[-57.668351,-25.864043],[-57.667124,-25.862838],[-57.666897,-25.863913],[-57.666096,-25.864307],[-57.664734,-25.865925],[-57.665683,-25.867757],[-57.666115,-25.867677],[-57.666164,-25.866134],[-57.666414,-25.866001],[-57.668299,-25.867032],[-57.668213,-25.867545],[-57.667369,-25.867271],[-57.666608,-25.867511],[-57.667498,-25.868611],[-57.666711,-25.869794],[-57.665501,-25.869125],[-57.66543,-25.868107],[-57.664476,-25.868295],[-57.664368,-25.867893],[-57.662108,-25.867603],[-57.661766,-25.867274],[-57.661649,-25.86655],[-57.661907,-25.866358],[-57.663141,-25.867114],[-57.663735,-25.866064],[-57.664345,-25.863761],[-57.663521,-25.862586],[-57.662742,-25.862333],[-57.661537,-25.862558],[-57.661289,-25.863079],[-57.661652,-25.864806],[-57.661009,-25.865124],[-57.660486,-25.864218],[-57.659682,-25.863848],[-57.657292,-25.865031],[-57.65447,-25.864246],[-57.654686,-25.863688],[-57.655648,-25.863478],[-57.656306,-25.862443],[-57.658369,-25.862184],[-57.658754,-25.861399],[-57.656943,-25.860462],[-57.656087,-25.860781],[-57.655267,-25.861832],[-57.654211,-25.861331],[-57.651587,-25.861101],[-57.650591,-25.859692],[-57.650878,-25.858885],[-57.65224,-25.859099],[-57.653869,-25.860055],[-57.65547,-25.860007],[-57.6559,-25.859721],[-57.655159,-25.858789],[-57.653479,-25.857835],[-57.652974,-25.856438],[-57.652626,-25.856268],[-57.652205,-25.856541],[-57.652116,-25.857747],[-57.65174,-25.858245],[-57.650566,-25.857235],[-57.650087,-25.857141],[-57.649535,-25.857505],[-57.64884,-25.859742],[-57.648186,-25.860798],[-57.647061,-25.861081],[-57.646861,-25.860362],[-57.648061,-25.859509],[-57.64798,-25.859239],[-57.646583,-25.858454],[-57.645087,-25.858547],[-57.643739,-25.858232],[-57.64376,-25.857626],[-57.644931,-25.857244],[-57.644717,-25.855692],[-57.644213,-25.855516],[-57.643049,-25.855813],[-57.642536,-25.855552],[-57.642397,-25.854047],[-57.641307,-25.854571],[-57.641685,-25.856503],[-57.640298,-25.856819],[-57.638792,-25.857855],[-57.638067,-25.857618],[-57.637508,-25.857867],[-57.637735,-25.858457],[-57.639631,-25.859841],[-57.639621,-25.860205],[-57.637437,-25.85983],[-57.636028,-25.860189],[-57.636107,-25.860548],[-57.636651,-25.860693],[-57.638235,-25.860616],[-57.638611,-25.861589],[-57.637983,-25.861724],[-57.6368,-25.861316],[-57.635932,-25.861655],[-57.636273,-25.86248],[-57.637693,-25.863396],[-57.637503,-25.863854],[-57.636419,-25.864116],[-57.635408,-25.86504],[-57.635396,-25.866115],[-57.635803,-25.867093],[-57.635419,-25.867175],[-57.634307,-25.866587],[-57.632517,-25.867406],[-57.631834,-25.866569],[-57.630317,-25.866722],[-57.630013,-25.866139],[-57.630192,-25.865881],[-57.631815,-25.865642],[-57.632513,-25.864974],[-57.632381,-25.864437],[-57.630175,-25.864314],[-57.627801,-25.863218],[-57.625116,-25.863861],[-57.625127,-25.864243],[-57.62582,-25.864441],[-57.625662,-25.865928],[-57.626902,-25.868284],[-57.627311,-25.868369],[-57.629539,-25.867472],[-57.630074,-25.867671],[-57.630716,-25.86849],[-57.632617,-25.868898],[-57.632877,-25.869193],[-57.632834,-25.869471],[-57.631311,-25.870325],[-57.631725,-25.871864],[-57.631051,-25.872584],[-57.630568,-25.874267],[-57.629592,-25.874462],[-57.626785,-25.875877],[-57.626157,-25.875687],[-57.625777,-25.873933],[-57.625125,-25.873728],[-57.62459,-25.873892],[-57.624299,-25.874482],[-57.624409,-25.875867],[-57.623938,-25.876204],[-57.62293,-25.876174],[-57.621713,-25.875429],[-57.621198,-25.875432],[-57.619804,-25.877566],[-57.617139,-25.879629],[-57.614341,-25.879213],[-57.614561,-25.877376],[-57.615199,-25.875686],[-57.61292,-25.873422],[-57.612984,-25.872657],[-57.613934,-25.872159],[-57.615076,-25.873478],[-57.615958,-25.873467],[-57.617259,-25.872379],[-57.617366,-25.871717],[-57.617048,-25.87138],[-57.613421,-25.871618],[-57.612985,-25.871308],[-57.612299,-25.868732],[-57.609739,-25.868007],[-57.608405,-25.86933],[-57.60722,-25.869693],[-57.604353,-25.868192],[-57.602794,-25.866345],[-57.600679,-25.866518],[-57.600982,-25.867608],[-57.602077,-25.86834],[-57.6028,-25.871582],[-57.601518,-25.872985],[-57.602504,-25.876226],[-57.603131,-25.876419],[-57.605117,-25.875372],[-57.60528,-25.874665],[-57.603692,-25.873853],[-57.603562,-25.873346],[-57.605225,-25.871526],[-57.605723,-25.871454],[-57.606081,-25.871684],[-57.6062,-25.872422],[-57.608849,-25.873751],[-57.608897,-25.87476],[-57.60845,-25.875543],[-57.60719,-25.876252],[-57.606428,-25.877133],[-57.605579,-25.878971],[-57.605598,-25.879573],[-57.605294,-25.879921],[-57.604069,-25.880042],[-57.603313,-25.881035],[-57.603145,-25.881605],[-57.603685,-25.882995],[-57.606678,-25.883941],[-57.608219,-25.885554],[-57.608732,-25.886747],[-57.611353,-25.887992],[-57.611259,-25.888287],[-57.609773,-25.888033],[-57.609546,-25.888528],[-57.611235,-25.889911],[-57.61078,-25.890779],[-57.609592,-25.891845],[-57.610461,-25.893052],[-57.611363,-25.893064],[-57.613298,-25.891962],[-57.614984,-25.89194],[-57.615461,-25.892076],[-57.615616,-25.892445],[-57.61478,-25.89542],[-57.614324,-25.895948],[-57.610189,-25.896318],[-57.609748,-25.893409],[-57.609201,-25.892919],[-57.608256,-25.892929],[-57.607502,-25.893619],[-57.606388,-25.89576],[-57.604998,-25.896632],[-57.604612,-25.897727],[-57.603956,-25.898137],[-57.60363,-25.898778],[-57.603652,-25.899809],[-57.604441,-25.901038],[-57.60541,-25.901428],[-57.606622,-25.901383],[-57.606897,-25.901798],[-57.606002,-25.90328],[-57.606011,-25.905004],[-57.605672,-25.905375],[-57.604311,-25.905566],[-57.602896,-25.905187],[-57.601427,-25.904146],[-57.601304,-25.903361],[-57.602337,-25.902263],[-57.602397,-25.901644],[-57.601855,-25.901218],[-57.600425,-25.90127],[-57.598079,-25.902019],[-57.596825,-25.903087],[-57.595086,-25.902632],[-57.594145,-25.901758],[-57.592831,-25.901178],[-57.592299,-25.900257],[-57.592262,-25.899656],[-57.592998,-25.89923],[-57.593302,-25.898605],[-57.593019,-25.898213],[-57.590785,-25.898303],[-57.588581,-25.896857],[-57.587295,-25.894934],[-57.586606,-25.894925],[-57.585415,-25.896859],[-57.585166,-25.898164],[-57.583267,-25.8989],[-57.582925,-25.899432],[-57.582888,-25.900854],[-57.582154,-25.901665],[-57.582776,-25.903202],[-57.583106,-25.905464],[-57.581858,-25.905866],[-57.580403,-25.905263],[-57.578589,-25.905401],[-57.577346,-25.908354],[-57.577493,-25.910417],[-57.577096,-25.911877],[-57.575168,-25.912778],[-57.574553,-25.913562],[-57.573855,-25.91384],[-57.573603,-25.914464],[-57.5718,-25.915496],[-57.57161,-25.916066],[-57.571819,-25.916566],[-57.569902,-25.917781],[-57.569472,-25.918502],[-57.567996,-25.919212],[-57.566678,-25.920273],[-57.565512,-25.920488],[-57.561244,-25.923391],[-57.559144,-25.92361],[-57.557591,-25.924531],[-57.555813,-25.927002],[-57.556053,-25.928549],[-57.554511,-25.931652],[-57.552179,-25.932435],[-57.55063,-25.93399],[-57.548392,-25.937402],[-57.548185,-25.937203],[-57.547294,-25.938233],[-57.546063,-25.940365],[-57.544735,-25.944768],[-57.542679,-25.947692],[-57.541536,-25.948266],[-57.540187,-25.947866],[-57.53707,-25.945713],[-57.534791,-25.942678],[-57.533557,-25.942541],[-57.5331,-25.942874],[-57.531972,-25.945362],[-57.531974,-25.947299],[-57.531365,-25.94825],[-57.528952,-25.949971],[-57.524733,-25.951877],[-57.518721,-25.953233],[-57.516752,-25.954162],[-57.516473,-25.955091],[-57.517492,-25.956592],[-57.522441,-25.959144],[-57.527274,-25.960906],[-57.530188,-25.962451],[-57.532351,-25.963882],[-57.533205,-25.965544],[-57.532304,-25.967229],[-57.53092,-25.968193],[-57.524246,-25.970088],[-57.521426,-25.971614],[-57.520206,-25.972669],[-57.517959,-25.975811],[-57.517807,-25.976327],[-57.518178,-25.977965],[-57.519235,-25.979374],[-57.521245,-25.980256],[-57.531013,-25.982174],[-57.53296,-25.982918],[-57.53436,-25.984327],[-57.534236,-25.986252],[-57.533677,-25.986871],[-57.532787,-25.987239],[-57.529545,-25.987619],[-57.52324,-25.989377],[-57.521599,-25.98924],[-57.518125,-25.987615],[-57.515567,-25.985691],[-57.508681,-25.979999],[-57.503615,-25.974925],[-57.50256,-25.97488],[-57.500398,-25.975396],[-57.499364,-25.975861],[-57.497653,-25.977524],[-57.497003,-25.981562],[-57.497055,-25.982627],[-57.498282,-25.986629],[-57.497577,-25.993088],[-57.498201,-25.998328],[-57.498071,-26.000219],[-57.499619,-26.025117],[-57.495579,-26.026956],[-57.49356,-26.029358],[-57.492939,-26.031035],[-57.494068,-26.036879],[-57.493891,-26.037408],[-57.491794,-26.039361],[-57.48549,-26.043913],[-57.484069,-26.046039],[-57.483765,-26.04721],[-57.484035,-26.049358],[-57.485055,-26.051034],[-57.489248,-26.055372],[-57.489963,-26.057232],[-57.48994,-26.058322],[-57.488729,-26.059954],[-57.468136,-26.11337],[-57.470976,-26.111956],[-57.474942,-26.112114],[-57.480641,-26.113197],[-57.485451,-26.115393],[-57.488665,-26.115044],[-57.489642,-26.11574],[-57.490116,-26.116632],[-57.487744,-26.116288],[-57.487417,-26.116985],[-57.486851,-26.117226],[-57.486545,-26.118644],[-57.485486,-26.118747],[-57.478524,-26.122983],[-57.4757,-26.124085],[-57.475464,-26.12581],[-57.475839,-26.127042],[-57.475645,-26.13134],[-57.473902,-26.133933],[-57.472383,-26.138277],[-57.473812,-26.140362],[-57.475482,-26.141309],[-57.475906,-26.142094],[-57.476925,-26.142758],[-57.478814,-26.145371],[-57.479214,-26.146796],[-57.478867,-26.147763],[-57.47787,-26.148074],[-57.47802,-26.149933],[-57.482267,-26.156659],[-57.482833,-26.158599],[-57.482779,-26.159926],[-57.482067,-26.161653],[-57.481144,-26.162609],[-57.479544,-26.163585],[-57.477665,-26.165474],[-57.478942,-26.166124],[-57.47963,-26.167314],[-57.480784,-26.167744],[-57.481433,-26.16869],[-57.481606,-26.169678],[-57.484205,-26.169714],[-57.484817,-26.170046],[-57.485502,-26.169696],[-57.484963,-26.168447],[-57.48503,-26.16623],[-57.485814,-26.164566],[-57.48702,-26.163366],[-57.487981,-26.162884],[-57.488939,-26.162813],[-57.489455,-26.161972],[-57.490246,-26.161802],[-57.493108,-26.161982],[-57.49494,-26.162653],[-57.497607,-26.161917],[-57.498852,-26.160084],[-57.499902,-26.15752],[-57.499812,-26.156713],[-57.499218,-26.156055],[-57.499587,-26.155598],[-57.499404,-26.15373],[-57.49895,-26.153013],[-57.497403,-26.152007],[-57.49673,-26.150615],[-57.496537,-26.14918],[-57.497083,-26.148821],[-57.498001,-26.151378],[-57.500498,-26.152904],[-57.501787,-26.154895],[-57.502531,-26.155087],[-57.503766,-26.154279],[-57.504974,-26.154446],[-57.504876,-26.15511],[-57.503399,-26.155377],[-57.503645,-26.157336],[-57.504571,-26.158407],[-57.504499,-26.158976],[-57.505878,-26.160678],[-57.506533,-26.163145],[-57.507738,-26.163552],[-57.507757,-26.164418],[-57.508119,-26.164855],[-57.509981,-26.165589],[-57.519032,-26.16766],[-57.523469,-26.169667],[-57.527364,-26.172691],[-57.528498,-26.173924],[-57.529698,-26.175847],[-57.531195,-26.179282],[-57.54417,-26.177543],[-57.55174,-26.177528],[-57.556204,-26.177887],[-57.562409,-26.178851],[-57.565568,-26.179729],[-57.568657,-26.181286],[-57.571561,-26.183236],[-57.576154,-26.187728],[-57.579656,-26.185393],[-57.580741,-26.185276],[-57.581055,-26.185518],[-57.582368,-26.18945],[-57.584656,-26.192172],[-57.587922,-26.198502],[-57.589076,-26.199702],[-57.589457,-26.204951],[-57.589989,-26.207021],[-57.59083,-26.208241],[-57.593156,-26.210038],[-57.594125,-26.211952],[-57.594806,-26.214491],[-57.596607,-26.215748],[-57.600448,-26.215822],[-57.601956,-26.216949],[-57.605649,-26.218785],[-57.60991,-26.219426],[-57.611083,-26.220297],[-57.611899,-26.2266],[-57.613269,-26.229172],[-57.613759,-26.231035],[-57.61342,-26.232129],[-57.612265,-26.232811],[-57.611053,-26.234414],[-57.610658,-26.236732],[-57.611152,-26.237484],[-57.611874,-26.237733],[-57.613597,-26.23787],[-57.615879,-26.237125],[-57.617631,-26.236901],[-57.619689,-26.238104],[-57.619925,-26.238012],[-57.624518,-26.232573],[-57.625323,-26.230818],[-57.62811,-26.22811],[-57.62908,-26.228174],[-57.630595,-26.229454],[-57.632394,-26.23471],[-57.633446,-26.235554],[-57.634545,-26.235847],[-57.640919,-26.234984],[-57.644011,-26.232062],[-57.646379,-26.227817],[-57.648961,-26.224925],[-57.650466,-26.221397],[-57.651528,-26.220083],[-57.655007,-26.217805],[-57.655854,-26.214993],[-57.65532,-26.213244],[-57.69399,-26.194639],[-57.718487,-26.238242],[-57.813382,-26.190176],[-57.814365,-26.18036],[-57.898341,-26.144625]]]}}]}
