{"type":"FeatureCollection","name":"distrito","features":[{"type":"Feature","properties":{"clave":"5-7","nombre":"Dr. Cecilio Báez"},"geometry":{"type":"Polygon","coordinates":[[[-56.297164,-25.136212],[-56.298376,-25.138136],[-56.29953,-25.138968],[-56.305166,-25.140376],[-56.308038,-25.14076],[-56.307802,-25.128555],[-56.302789,-25.102794],[-56.305076,-25.100163],[-56.306349,-25.099144],[-56.308734,-25.098934],[-56.312498,-25.097303],[-56.316406,-25.096256],[-56.318141,-25.095167],[-56.308921,-25.083597],[-56.306333,-25.078001],[-56.303656,-25.067972],[-56.299583,-25.066879],[-56.296413,-25.066493],[-56.289676,-25.063736],[-56.282905,-25.059204],[-56.280364,-25.059192],[-56.279472,-25.055281],[-56.267466,-25.051515],[-56.264388,-25.039726],[-56.262853,-25.030934],[-56.261672,-25.031078],[-56.261075,-25.031449],[-56.260626,-25.032897],[-56.259912,-25.033751],[-56.259984,-25.034921],[-56.259717,-25.035204],[-56.257783,-25.035682],[-56.253814,-25.035441],[-56.249408,-25.036872],[-56.245487,-25.03925],[-56.243203,-25.04211],[-56.241149,-25.044114],[-56.236302,-25.046274],[-56.235517,-25.046812],[-56.234741,-25.047914],[-56.23353,-25.048739],[-56.230722,-25.04974],[-56.223337,-25.051052],[-56.219951,-25.051138],[-56.2174,-25.051833],[-56.213338,-25.054697],[-56.21003,-25.056346],[-56.207751,-25.056821],[-56.206547,-25.057564],[-56.2033,-25.058527],[-56.196439,-25.063484],[-56.195676,-25.063552],[-56.193138,-25.062504],[-56.190046,-25.059963],[-56.187167,-25.058656],[-56.184908,-25.058779],[-56.181567,-25.060445],[-56.178804,-25.060764],[-56.17596,-25.060139],[-56.174663,-25.059224],[-56.172118,-25.059932],[-56.168103,-25.058207],[-56.165717,-25.058031],[-56.164254,-25.058262],[-56.162243,-25.057289],[-56.159079,-25.057728],[-56.157002,-25.057571],[-56.15493,-25.056526],[-56.150852,-25.052502],[-56.14929,-25.062017],[-56.144659,-25.085137],[-56.130938,-25.127569],[-56.134091,-25.12644],[-56.135195,-25.126356],[-56.137518,-25.122956],[-56.138788,-25.122937],[-56.143053,-25.121182],[-56.144637,-25.115999],[-56.145565,-25.114731],[-56.14711,-25.113774],[-56.148071,-25.113662],[-56.151408,-25.114625],[-56.154342,-25.113581],[-56.154654,-25.111812],[-56.155959,-25.111052],[-56.159213,-25.110822],[-56.161311,-25.111028],[-56.163107,-25.112118],[-56.164885,-25.112688],[-56.169385,-25.112483],[-56.170998,-25.112948],[-56.1722,-25.112963],[-56.173077,-25.112621],[-56.175896,-25.11032],[-56.177226,-25.110007],[-56.179379,-25.109983],[-56.180544,-25.110188],[-56.181682,-25.11079],[-56.186627,-25.11522],[-56.189512,-25.115574],[-56.190585,-25.115973],[-56.191055,-25.116481],[-56.190898,-25.117704],[-56.191439,-25.118686],[-56.192167,-25.119304],[-56.193223,-25.119649],[-56.195743,-25.119897],[-56.200441,-25.119376],[-56.204191,-25.118471],[-56.205433,-25.119101],[-56.207165,-25.121024],[-56.209485,-25.12226],[-56.212657,-25.121975],[-56.214712,-25.120532],[-56.215665,-25.120406],[-56.216842,-25.12076],[-56.21845,-25.122173],[-56.22546,-25.122227],[-56.228378,-25.124134],[-56.233771,-25.125467],[-56.235061,-25.126382],[-56.240194,-25.126241],[-56.242343,-25.125295],[-56.244534,-25.124931],[-56.24658,-25.12565],[-56.251952,-25.125867],[-56.254427,-25.127266],[-56.255503,-25.127538],[-56.257572,-25.127566],[-56.262602,-25.126982],[-56.263023,-25.127097],[-56.263897,-25.128284],[-56.266352,-25.129235],[-56.267916,-25.129148],[-56.269574,-25.129518],[-56.272405,-25.128543],[-56.274958,-25.129196],[-56.276186,-25.130155],[-56.277418,-25.130473],[-56.278193,-25.13175],[-56.27882,-25.13201],[-56.281318,-25.131688],[-56.283539,-25.129766],[-56.285553,-25.12965],[-56.288497,-25.131475],[-56.290272,-25.13347],[-56.29432,-25.134844],[-56.297164,-25.136212]]]}}]}
