{"type":"FeatureCollection","name":"distrito","features":[{"type":"Feature","properties":{"clave":"4-21","nombre":"Mbocayaty"},"geometry":{"type":"Polygon","coordinates":[[[-56.387157,-25.763031],[-56.398212,-25.758768],[-56.404907,-25.76095],[-56.420539,-25.754031],[-56.421805,-25.754032],[-56.425631,-25.751162],[-56.429415,-25.746088],[-56.430695,-25.74557],[-56.431047,-25.744564],[-56.432524,-25.743712],[-56.433354,-25.742158],[-56.433927,-25.742273],[-56.437093,-25.740122],[-56.439685,-25.73974],[-56.440107,-25.739077],[-56.439971,-25.738178],[-56.440312,-25.738225],[-56.44065,-25.73894],[-56.44415,-25.738307],[-56.444214,-25.737888],[-56.443583,-25.73696],[-56.443987,-25.736636],[-56.444452,-25.736737],[-56.445297,-25.73837],[-56.44553,-25.738371],[-56.447413,-25.736943],[-56.447595,-25.736104],[-56.44837,-25.736174],[-56.448374,-25.735348],[-56.448946,-25.735702],[-56.449988,-25.735201],[-56.45098,-25.735204],[-56.451462,-25.734994],[-56.45179,-25.73439],[-56.452504,-25.734253],[-56.453031,-25.734296],[-56.452998,-25.734675],[-56.453541,-25.734582],[-56.454204,-25.735424],[-56.455074,-25.733305],[-56.456667,-25.731081],[-56.441352,-25.727133],[-56.437191,-25.708257],[-56.437858,-25.69568],[-56.437005,-25.69292],[-56.440409,-25.691148],[-56.43926,-25.688078],[-56.439251,-25.68686],[-56.440511,-25.683274],[-56.434447,-25.681278],[-56.430828,-25.670879],[-56.427351,-25.666332],[-56.427916,-25.659535],[-56.423523,-25.648939],[-56.422928,-25.628535],[-56.421136,-25.630106],[-56.419316,-25.630099],[-56.419101,-25.628576],[-56.418294,-25.62817],[-56.416733,-25.628989],[-56.415797,-25.630012],[-56.413997,-25.630133],[-56.413961,-25.629198],[-56.41305,-25.629451],[-56.411433,-25.629096],[-56.413115,-25.628406],[-56.413197,-25.627942],[-56.412257,-25.626111],[-56.41157,-25.62609],[-56.411505,-25.626969],[-56.411262,-25.627005],[-56.410577,-25.626434],[-56.409587,-25.626283],[-56.409464,-25.626539],[-56.409966,-25.627238],[-56.409278,-25.627437],[-56.408606,-25.628241],[-56.4079,-25.627853],[-56.40699,-25.628033],[-56.407238,-25.626952],[-56.406023,-25.627277],[-56.405845,-25.626378],[-56.405118,-25.626155],[-56.404794,-25.626319],[-56.404608,-25.62707],[-56.40382,-25.62681],[-56.401653,-25.627516],[-56.402013,-25.628306],[-56.401864,-25.629845],[-56.401094,-25.630154],[-56.400877,-25.628943],[-56.400332,-25.628849],[-56.400006,-25.629343],[-56.39891,-25.628004],[-56.39794,-25.627959],[-56.398686,-25.627276],[-56.398134,-25.625622],[-56.397615,-25.626225],[-56.396538,-25.626276],[-56.396381,-25.627196],[-56.397015,-25.627969],[-56.39671,-25.628284],[-56.395894,-25.627593],[-56.395915,-25.626369],[-56.3951,-25.625582],[-56.394706,-25.625484],[-56.393352,-25.626331],[-56.393175,-25.625998],[-56.393782,-25.625316],[-56.393649,-25.624614],[-56.392815,-25.624665],[-56.390467,-25.623968],[-56.388707,-25.624181],[-56.388693,-25.623864],[-56.389316,-25.623619],[-56.389865,-25.622921],[-56.389476,-25.622053],[-56.388732,-25.622269],[-56.389002,-25.622807],[-56.388818,-25.623177],[-56.387056,-25.62372],[-56.385935,-25.623454],[-56.385044,-25.622612],[-56.383191,-25.623167],[-56.381494,-25.622968],[-56.379949,-25.625519],[-56.379514,-25.624444],[-56.378891,-25.624634],[-56.378432,-25.625416],[-56.377658,-25.625605],[-56.377405,-25.625338],[-56.377951,-25.624658],[-56.377105,-25.624035],[-56.376179,-25.624196],[-56.375437,-25.62396],[-56.375066,-25.625264],[-56.374581,-25.625138],[-56.374011,-25.623995],[-56.373313,-25.624129],[-56.372617,-25.623714],[-56.372126,-25.62488],[-56.371639,-25.625043],[-56.370899,-25.624518],[-56.369835,-25.624912],[-56.369187,-25.624194],[-56.36907,-25.62341],[-56.369544,-25.622614],[-56.369061,-25.622158],[-56.368814,-25.622927],[-56.367857,-25.623171],[-56.367974,-25.624079],[-56.367562,-25.624572],[-56.36726,-25.624393],[-56.367371,-25.623402],[-56.36707,-25.622934],[-56.364884,-25.623268],[-56.36184,-25.622526],[-56.362093,-25.623338],[-56.363318,-25.623464],[-56.362531,-25.623794],[-56.36252,-25.62587],[-56.361712,-25.62665],[-56.361454,-25.62669],[-56.361274,-25.626181],[-56.360743,-25.62622],[-56.358486,-25.628547],[-56.35741,-25.628309],[-56.355315,-25.628671],[-56.354864,-25.630828],[-56.353528,-25.630959],[-56.353884,-25.632474],[-56.352453,-25.633457],[-56.352225,-25.633497],[-56.351716,-25.63234],[-56.350901,-25.631635],[-56.349866,-25.632167],[-56.349585,-25.633637],[-56.348643,-25.633922],[-56.348496,-25.633651],[-56.348985,-25.632369],[-56.348728,-25.632272],[-56.34827,-25.632861],[-56.347587,-25.632899],[-56.347322,-25.631454],[-56.348065,-25.63117],[-56.347708,-25.630205],[-56.34742,-25.630107],[-56.346535,-25.631203],[-56.344942,-25.631182],[-56.342019,-25.633232],[-56.341519,-25.633051],[-56.341311,-25.632184],[-56.340553,-25.632139],[-56.339858,-25.631723],[-56.339341,-25.63201],[-56.33895,-25.632473],[-56.339198,-25.63356],[-56.339971,-25.63411],[-56.340748,-25.634114],[-56.340983,-25.634684],[-56.340826,-25.635699],[-56.340436,-25.636067],[-56.339983,-25.636047],[-56.339208,-25.635534],[-56.338583,-25.635553],[-56.337953,-25.636332],[-56.338118,-25.637606],[-56.338675,-25.638349],[-56.338579,-25.640091],[-56.340043,-25.640725],[-56.341309,-25.642076],[-56.340581,-25.644972],[-56.33993,-25.645592],[-56.33727,-25.646695],[-56.335414,-25.654317],[-56.33405,-25.655326],[-56.332139,-25.657449],[-56.328941,-25.657985],[-56.327341,-25.658542],[-56.326746,-25.660751],[-56.327703,-25.663239],[-56.327651,-25.664824],[-56.327167,-25.666505],[-56.325923,-25.668965],[-56.325336,-25.669666],[-56.322955,-25.670771],[-56.321718,-25.671957],[-56.320736,-25.67383],[-56.319396,-25.677951],[-56.318614,-25.678904],[-56.31414,-25.679944],[-56.311606,-25.681237],[-56.309397,-25.682559],[-56.30623,-25.685284],[-56.304366,-25.686485],[-56.303887,-25.687187],[-56.303398,-25.68965],[-56.302656,-25.690938],[-56.302425,-25.695596],[-56.301355,-25.697338],[-56.299943,-25.698727],[-56.299197,-25.698886],[-56.297187,-25.700592],[-56.297004,-25.701024],[-56.2974,-25.701514],[-56.294557,-25.703798],[-56.291662,-25.70559],[-56.291032,-25.706386],[-56.291667,-25.707242],[-56.292127,-25.709615],[-56.293405,-25.711061],[-56.293049,-25.712974],[-56.293703,-25.716237],[-56.293292,-25.720082],[-56.296893,-25.725165],[-56.297144,-25.72722],[-56.296827,-25.727891],[-56.29588,-25.728311],[-56.294072,-25.72986],[-56.289833,-25.730919],[-56.287945,-25.732454],[-56.28742,-25.733584],[-56.287738,-25.738182],[-56.28534,-25.741164],[-56.283899,-25.743581],[-56.282688,-25.748352],[-56.280551,-25.751253],[-56.28062,-25.75696],[-56.28114,-25.75918],[-56.282075,-25.76067],[-56.282645,-25.762537],[-56.283385,-25.763322],[-56.285437,-25.76461],[-56.285569,-25.765748],[-56.313834,-25.779691],[-56.315948,-25.779962],[-56.317438,-25.780723],[-56.318058,-25.781137],[-56.318755,-25.782495],[-56.318543,-25.78332],[-56.318788,-25.784035],[-56.323425,-25.785898],[-56.329535,-25.791412],[-56.332473,-25.792925],[-56.335607,-25.79698],[-56.35362,-25.776812],[-56.373143,-25.767738],[-56.383179,-25.7653],[-56.387157,-25.763031]]]}}]}
