{"type":"FeatureCollection","name":"distrito","features":[{"type":"Feature","properties":{"clave":"10-17","nombre":"Minga Guazú"},"geometry":{"type":"Polygon","coordinates":[[[-54.920032,-25.614964],[-54.920293,-25.615957],[-54.921382,-25.617055],[-54.922743,-25.617756],[-54.923769,-25.61781],[-54.925898,-25.617161],[-54.929865,-25.616616],[-54.931579,-25.617668],[-54.93363,-25.617853],[-54.936464,-25.615992],[-54.938617,-25.615208],[-54.939595,-25.614291],[-54.940257,-25.613117],[-54.940606,-25.610213],[-54.941187,-25.608747],[-54.944287,-25.608829],[-54.948498,-25.607763],[-54.948774,-25.606623],[-54.947634,-25.603271],[-54.948536,-25.601771],[-54.949817,-25.601944],[-54.951298,-25.602876],[-54.952538,-25.602933],[-54.955607,-25.602297],[-54.956054,-25.601178],[-54.955889,-25.600827],[-54.952805,-25.599775],[-54.951943,-25.59891],[-54.951188,-25.594264],[-54.951074,-25.588424],[-54.949273,-25.584888],[-54.947808,-25.583026],[-54.945396,-25.577774],[-54.945231,-25.576182],[-54.945574,-25.574868],[-54.945577,-25.572172],[-54.946411,-25.572183],[-54.947846,-25.573309],[-54.949326,-25.573],[-54.950767,-25.572144],[-54.949148,-25.563083],[-54.945182,-25.545374],[-54.941643,-25.526785],[-54.938666,-25.506983],[-54.919509,-25.411485],[-54.91178,-25.368898],[-54.911746,-25.369547],[-54.910746,-25.370832],[-54.907177,-25.374115],[-54.903037,-25.376971],[-54.90061,-25.377399],[-54.896327,-25.376971],[-54.894471,-25.375971],[-54.894185,-25.374686],[-54.895328,-25.372973],[-54.901467,-25.367548],[-54.901752,-25.365835],[-54.900324,-25.363551],[-54.897755,-25.362837],[-54.897184,-25.363265],[-54.896898,-25.365835],[-54.896041,-25.366977],[-54.894899,-25.367548],[-54.888617,-25.367262],[-54.882478,-25.366549],[-54.880765,-25.365407],[-54.879909,-25.361266],[-54.878767,-25.358696],[-54.875768,-25.358696],[-54.871057,-25.356983],[-54.869201,-25.357126],[-54.86706,-25.358696],[-54.86606,-25.36041],[-54.866346,-25.362837],[-54.86349,-25.364835],[-54.860778,-25.364835],[-54.858779,-25.364407],[-54.853782,-25.367976],[-54.851641,-25.36869],[-54.848928,-25.367691],[-54.845359,-25.367405],[-54.844502,-25.368119],[-54.843503,-25.372259],[-54.844502,-25.380825],[-54.84593,-25.381682],[-54.847358,-25.38311],[-54.855638,-25.385537],[-54.855495,-25.387393],[-54.854496,-25.389106],[-54.852212,-25.391819],[-54.854639,-25.395102],[-54.855638,-25.397244],[-54.855067,-25.398243],[-54.85264,-25.399242],[-54.851302,-25.398593],[-54.850374,-25.397513],[-54.849272,-25.396936],[-54.845502,-25.396673],[-54.839077,-25.39396],[-54.837507,-25.393817],[-54.836898,-25.394261],[-54.836283,-25.396569],[-54.837649,-25.402241],[-54.837221,-25.404239],[-54.835936,-25.406381],[-54.834946,-25.407255],[-54.834017,-25.407579],[-54.832615,-25.407305],[-54.831545,-25.406215],[-54.829654,-25.402954],[-54.825926,-25.400208],[-54.824719,-25.399954],[-54.821762,-25.401508],[-54.819518,-25.401812],[-54.81344,-25.400328],[-54.810928,-25.400512],[-54.810382,-25.4012],[-54.810524,-25.40324],[-54.810095,-25.405667],[-54.808239,-25.408951],[-54.806241,-25.411378],[-54.799102,-25.413948],[-54.796818,-25.413805],[-54.796104,-25.414661],[-54.796818,-25.418088],[-54.796675,-25.421086],[-54.799388,-25.423513],[-54.799673,-25.424655],[-54.79953,-25.42594],[-54.797532,-25.426797],[-54.794248,-25.426511],[-54.791678,-25.425226],[-54.788537,-25.420943],[-54.786396,-25.413091],[-54.784112,-25.407523],[-54.782256,-25.406952],[-54.779971,-25.408237],[-54.779829,-25.412377],[-54.777973,-25.41666],[-54.781827,-25.418516],[-54.783826,-25.420229],[-54.784825,-25.4218],[-54.785111,-25.428795],[-54.784683,-25.430223],[-54.782541,-25.430794],[-54.779257,-25.429509],[-54.780542,-25.426226],[-54.779686,-25.424084],[-54.77783,-25.422228],[-54.775974,-25.421514],[-54.771405,-25.422371],[-54.766123,-25.424227],[-54.763696,-25.424227],[-54.762268,-25.422799],[-54.76184,-25.419087],[-54.763125,-25.414804],[-54.76441,-25.406666],[-54.762696,-25.403954],[-54.760412,-25.402526],[-54.753417,-25.404525],[-54.752274,-25.405239],[-54.751989,-25.407095],[-54.752274,-25.409236],[-54.750276,-25.414947],[-54.750704,-25.416517],[-54.751703,-25.418231],[-54.753845,-25.420229],[-54.754987,-25.422371],[-54.754559,-25.423513],[-54.751132,-25.424798],[-54.748848,-25.427225],[-54.747277,-25.427225],[-54.745707,-25.425797],[-54.746278,-25.423513],[-54.745279,-25.421229],[-54.73914,-25.413091],[-54.737569,-25.412377],[-54.736427,-25.412948],[-54.734999,-25.41509],[-54.73243,-25.417088],[-54.726583,-25.41925],[-54.721413,-25.420089],[-54.720106,-25.419591],[-54.719768,-25.420358],[-54.719838,-25.421382],[-54.720855,-25.423789],[-54.720022,-25.426126],[-54.719971,-25.427157],[-54.720587,-25.427954],[-54.720418,-25.428568],[-54.720706,-25.428469],[-54.722245,-25.430181],[-54.723444,-25.430737],[-54.72338,-25.431085],[-54.723762,-25.43142],[-54.723411,-25.432224],[-54.724214,-25.433519],[-54.737584,-25.582722],[-54.739437,-25.582395],[-54.740698,-25.582585],[-54.743928,-25.585268],[-54.745743,-25.585979],[-54.74833,-25.585653],[-54.7552,-25.586393],[-54.757004,-25.586274],[-54.759045,-25.584964],[-54.75961,-25.58351],[-54.759151,-25.580723],[-54.757769,-25.576946],[-54.757995,-25.57634],[-54.760561,-25.574307],[-54.76169,-25.574324],[-54.763482,-25.577717],[-54.76529,-25.580256],[-54.766733,-25.583619],[-54.766943,-25.586792],[-54.766698,-25.588398],[-54.765064,-25.589494],[-54.761351,-25.589633],[-54.757017,-25.591346],[-54.754556,-25.594966],[-54.754945,-25.595704],[-54.756873,-25.596148],[-54.75849,-25.595953],[-54.766308,-25.593488],[-54.767682,-25.593314],[-54.769219,-25.594532],[-54.77086,-25.597411],[-54.773002,-25.59937],[-54.773644,-25.599574],[-54.7744,-25.599391],[-54.775147,-25.598256],[-54.775214,-25.596087],[-54.773373,-25.59384],[-54.773307,-25.593058],[-54.773423,-25.592597],[-54.774436,-25.591661],[-54.775298,-25.591577],[-54.777823,-25.594615],[-54.780467,-25.597045],[-54.782204,-25.599095],[-54.783675,-25.599532],[-54.78497,-25.599308],[-54.78755,-25.597932],[-54.790816,-25.594348],[-54.791418,-25.593821],[-54.791875,-25.593828],[-54.792831,-25.594476],[-54.793218,-25.59536],[-54.793331,-25.599434],[-54.79412,-25.601885],[-54.796796,-25.607021],[-54.797896,-25.607184],[-54.80025,-25.606391],[-54.802503,-25.60523],[-54.805035,-25.605024],[-54.805831,-25.605645],[-54.806291,-25.60692],[-54.806794,-25.610318],[-54.807268,-25.610886],[-54.808232,-25.611095],[-54.810278,-25.610979],[-54.812954,-25.610239],[-54.813505,-25.60954],[-54.813151,-25.608316],[-54.810908,-25.604454],[-54.810043,-25.600295],[-54.810479,-25.598497],[-54.811567,-25.596367],[-54.812352,-25.593111],[-54.813872,-25.590866],[-54.814763,-25.586222],[-54.8136,-25.58362],[-54.813686,-25.580353],[-54.81528,-25.578451],[-54.81652,-25.578299],[-54.817294,-25.578603],[-54.817874,-25.579245],[-54.818344,-25.581496],[-54.819716,-25.582931],[-54.820765,-25.582946],[-54.822122,-25.582259],[-54.823007,-25.58237],[-54.824701,-25.583883],[-54.830183,-25.585549],[-54.83095,-25.589243],[-54.831238,-25.589637],[-54.833355,-25.590059],[-54.833883,-25.590603],[-54.835025,-25.592913],[-54.835678,-25.595458],[-54.836835,-25.596914],[-54.837507,-25.596949],[-54.838651,-25.596136],[-54.839495,-25.594076],[-54.839712,-25.59247],[-54.839517,-25.588346],[-54.839829,-25.587424],[-54.845204,-25.587625],[-54.847361,-25.587291],[-54.847703,-25.58771],[-54.847665,-25.58832],[-54.847044,-25.589969],[-54.847085,-25.590676],[-54.854253,-25.597366],[-54.85489,-25.597887],[-54.855827,-25.598072],[-54.860134,-25.597891],[-54.860876,-25.598463],[-54.861341,-25.604103],[-54.863251,-25.61013],[-54.863133,-25.610689],[-54.86223,-25.611554],[-54.856657,-25.614862],[-54.855745,-25.614775],[-54.854828,-25.613396],[-54.854034,-25.611141],[-54.854186,-25.605656],[-54.853794,-25.603529],[-54.850873,-25.601438],[-54.850308,-25.601429],[-54.849498,-25.601637],[-54.84785,-25.603563],[-54.848327,-25.606936],[-54.84688,-25.611158],[-54.84642,-25.614297],[-54.845531,-25.617381],[-54.847166,-25.619209],[-54.847813,-25.620633],[-54.848017,-25.622733],[-54.847072,-25.624426],[-54.844697,-25.626367],[-54.843959,-25.628526],[-54.844649,-25.63056],[-54.846056,-25.633068],[-54.847029,-25.637326],[-54.847265,-25.637695],[-54.851513,-25.637807],[-54.853251,-25.638417],[-54.853913,-25.638988],[-54.854757,-25.641415],[-54.85776,-25.644995],[-54.858813,-25.644815],[-54.859066,-25.644128],[-54.858351,-25.64224],[-54.858529,-25.640637],[-54.861113,-25.638481],[-54.862318,-25.638069],[-54.864389,-25.638076],[-54.86602,-25.63896],[-54.866066,-25.640612],[-54.865554,-25.642708],[-54.866214,-25.643464],[-54.867482,-25.643731],[-54.868885,-25.643435],[-54.875134,-25.64002],[-54.879692,-25.639091],[-54.88131,-25.639273],[-54.882273,-25.639875],[-54.882724,-25.641193],[-54.881581,-25.645158],[-54.880706,-25.650868],[-54.879162,-25.652089],[-54.879027,-25.652675],[-54.879413,-25.65345],[-54.88043,-25.653781],[-54.883387,-25.653101],[-54.88451,-25.652287],[-54.887081,-25.649498],[-54.88961,-25.640729],[-54.889763,-25.639296],[-54.889315,-25.636827],[-54.889636,-25.63559],[-54.894021,-25.63319],[-54.897512,-25.629342],[-54.897649,-25.628821],[-54.897532,-25.628218],[-54.896609,-25.627157],[-54.885618,-25.621975],[-54.884452,-25.61775],[-54.884799,-25.617483],[-54.889207,-25.617411],[-54.889681,-25.617244],[-54.889687,-25.616856],[-54.888465,-25.61581],[-54.882436,-25.613182],[-54.882454,-25.612155],[-54.882737,-25.611907],[-54.884986,-25.611707],[-54.887059,-25.611814],[-54.890081,-25.612711],[-54.893133,-25.614326],[-54.897015,-25.617408],[-54.899345,-25.619962],[-54.901465,-25.619818],[-54.902264,-25.619403],[-54.908793,-25.613],[-54.908782,-25.612418],[-54.907276,-25.612058],[-54.904421,-25.613461],[-54.903398,-25.613271],[-54.903195,-25.612648],[-54.903572,-25.609434],[-54.903599,-25.604198],[-54.904099,-25.60372],[-54.904635,-25.60365],[-54.907672,-25.604915],[-54.912811,-25.605784],[-54.913382,-25.606161],[-54.917303,-25.610716],[-54.920032,-25.614964]]]}}]}
