{"type":"FeatureCollection","name":"distrito","features":[{"type":"Feature","properties":{"clave":"5-5","nombre":"Carayaó"},"geometry":{"type":"Polygon","coordinates":[[[-56.303156,-25.323586],[-56.304866,-25.32809],[-56.30499,-25.33087],[-56.307433,-25.334557],[-56.305296,-25.335262],[-56.303696,-25.336539],[-56.305547,-25.336905],[-56.306547,-25.338225],[-56.307538,-25.340936],[-56.308278,-25.341589],[-56.309928,-25.341986],[-56.31212,-25.341574],[-56.31499,-25.343499],[-56.315618,-25.343321],[-56.31543,-25.34193],[-56.315885,-25.341337],[-56.319054,-25.341615],[-56.320093,-25.340956],[-56.320757,-25.340119],[-56.325483,-25.339344],[-56.327065,-25.33881],[-56.327853,-25.336906],[-56.328275,-25.336721],[-56.330762,-25.33816],[-56.331168,-25.337949],[-56.3313,-25.337135],[-56.332403,-25.337186],[-56.333672,-25.337719],[-56.334706,-25.33872],[-56.336477,-25.341833],[-56.33694,-25.34432],[-56.338398,-25.345138],[-56.340381,-25.344679],[-56.34124,-25.345336],[-56.341512,-25.346429],[-56.341995,-25.346765],[-56.343039,-25.346624],[-56.343707,-25.344829],[-56.345482,-25.344225],[-56.345997,-25.344872],[-56.34599,-25.34558],[-56.344956,-25.347469],[-56.346224,-25.347454],[-56.347384,-25.347015],[-56.347607,-25.346648],[-56.346786,-25.344343],[-56.347019,-25.343958],[-56.347848,-25.34402],[-56.348348,-25.344423],[-56.348396,-25.346065],[-56.348656,-25.3463],[-56.34968,-25.345438],[-56.350139,-25.344085],[-56.351473,-25.344252],[-56.351594,-25.344891],[-56.350387,-25.345897],[-56.350342,-25.3468],[-56.349217,-25.34706],[-56.350727,-25.348488],[-56.351971,-25.349031],[-56.352365,-25.349054],[-56.352615,-25.348654],[-56.35232,-25.347555],[-56.353517,-25.347621],[-56.353526,-25.348442],[-56.353947,-25.348553],[-56.355783,-25.34612],[-56.356427,-25.346388],[-56.356693,-25.347894],[-56.357579,-25.347426],[-56.358047,-25.346133],[-56.358332,-25.348259],[-56.358769,-25.348222],[-56.359734,-25.347449],[-56.360568,-25.347696],[-56.360826,-25.347237],[-56.360266,-25.346207],[-56.361155,-25.346352],[-56.360774,-25.345278],[-56.362041,-25.344968],[-56.363645,-25.34546],[-56.36304,-25.345995],[-56.363387,-25.34632],[-56.364751,-25.346009],[-56.365685,-25.346417],[-56.365824,-25.345681],[-56.366121,-25.345621],[-56.366553,-25.345949],[-56.367136,-25.347636],[-56.369062,-25.347728],[-56.369169,-25.347359],[-56.368415,-25.34669],[-56.368547,-25.343501],[-56.370813,-25.342665],[-56.369523,-25.342202],[-56.369609,-25.341667],[-56.370298,-25.341488],[-56.370196,-25.341002],[-56.369558,-25.340582],[-56.369711,-25.340108],[-56.371516,-25.340447],[-56.371807,-25.341185],[-56.372317,-25.341562],[-56.374208,-25.341221],[-56.374354,-25.341733],[-56.373806,-25.342458],[-56.374055,-25.342763],[-56.375907,-25.342339],[-56.374956,-25.343341],[-56.375203,-25.3438],[-56.378497,-25.34407],[-56.378708,-25.343442],[-56.379032,-25.343397],[-56.380158,-25.344404],[-56.380391,-25.343548],[-56.381936,-25.343099],[-56.382531,-25.342497],[-56.382347,-25.34228],[-56.381573,-25.342381],[-56.38129,-25.341384],[-56.382015,-25.34084],[-56.381824,-25.340465],[-56.381078,-25.340165],[-56.3822,-25.338634],[-56.382356,-25.337971],[-56.38247,-25.337187],[-56.381986,-25.336186],[-56.382776,-25.335818],[-56.383896,-25.335973],[-56.383499,-25.335047],[-56.382246,-25.334808],[-56.382194,-25.334467],[-56.384017,-25.333922],[-56.385192,-25.334392],[-56.385379,-25.333842],[-56.384769,-25.332068],[-56.385711,-25.332357],[-56.386052,-25.332991],[-56.386446,-25.333011],[-56.386592,-25.332698],[-56.386621,-25.331131],[-56.385637,-25.330094],[-56.387909,-25.329353],[-56.389787,-25.327286],[-56.389731,-25.326976],[-56.389037,-25.326611],[-56.38912,-25.326238],[-56.389833,-25.326004],[-56.389843,-25.32546],[-56.389051,-25.325259],[-56.387107,-25.3258],[-56.386565,-25.32482],[-56.386258,-25.323208],[-56.385722,-25.323384],[-56.385247,-25.324447],[-56.384867,-25.324359],[-56.384467,-25.323422],[-56.384791,-25.322986],[-56.387526,-25.322596],[-56.388069,-25.321574],[-56.38723,-25.321549],[-56.386399,-25.321126],[-56.385451,-25.321456],[-56.383648,-25.320071],[-56.384251,-25.319518],[-56.385405,-25.320552],[-56.386257,-25.320483],[-56.386589,-25.320164],[-56.386078,-25.318804],[-56.387007,-25.317215],[-56.386001,-25.3172],[-56.385623,-25.316701],[-56.38804,-25.313034],[-56.386516,-25.312876],[-56.386153,-25.312509],[-56.386134,-25.311686],[-56.387429,-25.31098],[-56.388046,-25.309991],[-56.388689,-25.310081],[-56.389246,-25.311172],[-56.389653,-25.311023],[-56.389691,-25.309375],[-56.390501,-25.308915],[-56.389893,-25.308344],[-56.389757,-25.307245],[-56.390763,-25.307298],[-56.391115,-25.306497],[-56.390537,-25.305137],[-56.390519,-25.304165],[-56.391047,-25.303792],[-56.393022,-25.303998],[-56.392585,-25.30252],[-56.393697,-25.302155],[-56.394668,-25.300625],[-56.395672,-25.3014],[-56.395746,-25.300309],[-56.395012,-25.299281],[-56.39675,-25.299158],[-56.397625,-25.298712],[-56.398983,-25.299408],[-56.399284,-25.298683],[-56.400267,-25.29836],[-56.400991,-25.297],[-56.400949,-25.296546],[-56.400439,-25.29629],[-56.400073,-25.296405],[-56.399704,-25.297251],[-56.39872,-25.296777],[-56.398641,-25.296352],[-56.399683,-25.295671],[-56.398854,-25.295387],[-56.397326,-25.295684],[-56.396481,-25.29379],[-56.395216,-25.294751],[-56.394352,-25.294589],[-56.394124,-25.292969],[-56.393034,-25.292474],[-56.392096,-25.292854],[-56.391989,-25.291576],[-56.391096,-25.291774],[-56.39123,-25.291129],[-56.392617,-25.289596],[-56.392915,-25.28754],[-56.394224,-25.287755],[-56.395191,-25.28747],[-56.396022,-25.287592],[-56.396467,-25.287289],[-56.396371,-25.286592],[-56.395946,-25.286159],[-56.394816,-25.28598],[-56.395179,-25.285511],[-56.396829,-25.285561],[-56.39671,-25.284821],[-56.395395,-25.284202],[-56.395234,-25.283331],[-56.398517,-25.283748],[-56.398877,-25.282412],[-56.399397,-25.281797],[-56.401115,-25.281226],[-56.401297,-25.280448],[-56.400911,-25.279378],[-56.402475,-25.279843],[-56.403386,-25.278596],[-56.405767,-25.280488],[-56.406061,-25.280451],[-56.406661,-25.279231],[-56.407338,-25.280198],[-56.407884,-25.280194],[-56.408326,-25.278906],[-56.408951,-25.279803],[-56.409297,-25.279808],[-56.409089,-25.278461],[-56.407759,-25.277823],[-56.408141,-25.276236],[-56.409431,-25.275136],[-56.408142,-25.272916],[-56.408557,-25.271717],[-56.409071,-25.271438],[-56.410359,-25.272109],[-56.410038,-25.270643],[-56.410315,-25.270393],[-56.411277,-25.27118],[-56.412004,-25.270884],[-56.412381,-25.271627],[-56.412833,-25.271516],[-56.413259,-25.270963],[-56.412793,-25.268648],[-56.415018,-25.266578],[-56.415759,-25.266267],[-56.414904,-25.26498],[-56.416607,-25.265176],[-56.416499,-25.264555],[-56.41579,-25.263708],[-56.416288,-25.263581],[-56.417206,-25.26388],[-56.41733,-25.262493],[-56.418783,-25.262385],[-56.419268,-25.262637],[-56.419835,-25.263554],[-56.420148,-25.263458],[-56.420485,-25.262767],[-56.420283,-25.261571],[-56.421176,-25.26043],[-56.421051,-25.259355],[-56.422847,-25.258731],[-56.423324,-25.257619],[-56.4243,-25.257727],[-56.424895,-25.258802],[-56.425172,-25.258736],[-56.425324,-25.25694],[-56.426642,-25.256738],[-56.425195,-25.255394],[-56.424925,-25.254404],[-56.425784,-25.253151],[-56.426853,-25.253945],[-56.427898,-25.253359],[-56.428928,-25.250115],[-56.429417,-25.249879],[-56.430852,-25.250011],[-56.430006,-25.248445],[-56.43019,-25.247715],[-56.43104,-25.247457],[-56.432779,-25.248329],[-56.433184,-25.247789],[-56.434069,-25.247894],[-56.43517,-25.247484],[-56.434942,-25.246256],[-56.436325,-25.246145],[-56.436482,-25.244964],[-56.437871,-25.24272],[-56.43697,-25.24208],[-56.437443,-25.240651],[-56.437232,-25.238804],[-56.438589,-25.238127],[-56.437856,-25.236035],[-56.438242,-25.234899],[-56.43722,-25.234246],[-56.437943,-25.23316],[-56.437059,-25.232063],[-56.437788,-25.231249],[-56.437886,-25.22975],[-56.439069,-25.230128],[-56.439429,-25.229308],[-56.44114,-25.22818],[-56.442111,-25.228405],[-56.44328,-25.227643],[-56.443814,-25.226851],[-56.446932,-25.22644],[-56.44874,-25.226564],[-56.449369,-25.226222],[-56.450749,-25.228401],[-56.450743,-25.229041],[-56.451686,-25.230014],[-56.451961,-25.231277],[-56.452529,-25.231399],[-56.453028,-25.230978],[-56.453185,-25.230028],[-56.453581,-25.229652],[-56.457975,-25.227406],[-56.458122,-25.22685],[-56.457644,-25.22428],[-56.458091,-25.222779],[-56.457996,-25.221881],[-56.458898,-25.220361],[-56.459108,-25.217374],[-56.46025,-25.21609],[-56.460469,-25.214603],[-56.460199,-25.213579],[-56.458844,-25.211519],[-56.458742,-25.210758],[-56.460636,-25.208763],[-56.461151,-25.207647],[-56.463299,-25.206106],[-56.4643,-25.204573],[-56.464323,-25.204166],[-56.463128,-25.204],[-56.463228,-25.203428],[-56.463985,-25.203135],[-56.465265,-25.201594],[-56.467865,-25.201085],[-56.467551,-25.200575],[-56.467681,-25.19977],[-56.469458,-25.19818],[-56.469718,-25.196714],[-56.470442,-25.195743],[-56.470059,-25.19459],[-56.470333,-25.194109],[-56.470188,-25.193314],[-56.470684,-25.192522],[-56.469944,-25.191962],[-56.47009,-25.189199],[-56.471357,-25.188674],[-56.471792,-25.186509],[-56.473039,-25.185471],[-56.473258,-25.184735],[-56.474296,-25.184597],[-56.47481,-25.184043],[-56.474958,-25.183512],[-56.474423,-25.182803],[-56.474554,-25.18224],[-56.475564,-25.181494],[-56.476255,-25.181416],[-56.477966,-25.183678],[-56.477869,-25.184251],[-56.478927,-25.184509],[-56.4797,-25.183473],[-56.480457,-25.181636],[-56.480332,-25.17951],[-56.48212,-25.177905],[-56.484057,-25.178142],[-56.488251,-25.175646],[-56.490866,-25.17584],[-56.492803,-25.175395],[-56.493898,-25.174546],[-56.496317,-25.17147],[-56.49925,-25.169949],[-56.501362,-25.168254],[-56.503412,-25.167227],[-56.507573,-25.168541],[-56.511301,-25.168184],[-56.513708,-25.16733],[-56.522349,-25.172182],[-56.525295,-25.171299],[-56.52702,-25.169074],[-56.530466,-25.165515],[-56.532671,-25.165968],[-56.533894,-25.166864],[-56.542232,-25.166221],[-56.56168,-25.166074],[-56.564242,-25.011928],[-56.563009,-25.011629],[-56.562768,-25.010716],[-56.561895,-25.010759],[-56.560975,-25.011637],[-56.560315,-25.01079],[-56.559475,-25.010977],[-56.558258,-25.011926],[-56.556708,-25.011791],[-56.555336,-25.012992],[-56.554615,-25.014377],[-56.551969,-25.014495],[-56.551197,-25.015075],[-56.550926,-25.015707],[-56.550094,-25.015167],[-56.549457,-25.015142],[-56.549567,-25.016037],[-56.548756,-25.01603],[-56.548659,-25.016481],[-56.547338,-25.016698],[-56.547257,-25.015935],[-56.546392,-25.015639],[-56.546351,-25.014893],[-56.544968,-25.014754],[-56.544724,-25.015832],[-56.543183,-25.01632],[-56.543934,-25.01699],[-56.543094,-25.017344],[-56.542816,-25.017809],[-56.541966,-25.01781],[-56.541502,-25.01827],[-56.53985,-25.017384],[-56.537669,-25.01735],[-56.536562,-25.016529],[-56.533394,-25.016759],[-56.533505,-25.017527],[-56.532997,-25.017507],[-56.532137,-25.018353],[-56.532155,-25.019663],[-56.531752,-25.019689],[-56.530769,-25.019044],[-56.530623,-25.019875],[-56.530122,-25.020022],[-56.529337,-25.019356],[-56.528284,-25.019208],[-56.527854,-25.019613],[-56.528115,-25.0204],[-56.527364,-25.021093],[-56.525053,-25.02016],[-56.524343,-25.019232],[-56.521852,-25.018275],[-56.489441,-25.032861],[-56.485589,-25.035159],[-56.484444,-25.037698],[-56.481741,-25.039589],[-56.480222,-25.041697],[-56.478379,-25.04263],[-56.475629,-25.043194],[-56.468027,-25.047659],[-56.467367,-25.048921],[-56.467592,-25.049907],[-56.46683,-25.051877],[-56.466349,-25.052264],[-56.461752,-25.054839],[-56.458951,-25.055768],[-56.455646,-25.05642],[-56.450276,-25.055691],[-56.448939,-25.055916],[-56.447142,-25.057951],[-56.4461,-25.060972],[-56.442515,-25.061947],[-56.441608,-25.061781],[-56.439561,-25.063151],[-56.438754,-25.063103],[-56.437315,-25.063716],[-56.435493,-25.065655],[-56.43506,-25.066918],[-56.433619,-25.068312],[-56.429376,-25.070106],[-56.426594,-25.072548],[-56.42507,-25.075842],[-56.42112,-25.08092],[-56.419851,-25.083322],[-56.417396,-25.085791],[-56.41666,-25.087346],[-56.416027,-25.088098],[-56.411349,-25.091475],[-56.409653,-25.093279],[-56.404541,-25.090644],[-56.403053,-25.090548],[-56.39836,-25.091125],[-56.396894,-25.091877],[-56.395759,-25.091873],[-56.394647,-25.092509],[-56.392981,-25.092733],[-56.391237,-25.093733],[-56.389447,-25.09359],[-56.388133,-25.094068],[-56.387448,-25.095234],[-56.385856,-25.096027],[-56.385804,-25.096808],[-56.382236,-25.099818],[-56.382054,-25.101217],[-56.380816,-25.101853],[-56.379,-25.101688],[-56.377561,-25.102138],[-56.376322,-25.102981],[-56.375941,-25.103829],[-56.37443,-25.104612],[-56.374137,-25.105704],[-56.373222,-25.106129],[-56.372728,-25.10694],[-56.371977,-25.106584],[-56.371074,-25.107285],[-56.369417,-25.107639],[-56.368635,-25.108837],[-56.368687,-25.109704],[-56.368262,-25.110194],[-56.358865,-25.112159],[-56.35803,-25.112629],[-56.356071,-25.114711],[-56.356186,-25.116342],[-56.355018,-25.118947],[-56.354469,-25.1195],[-56.353376,-25.119707],[-56.352739,-25.122057],[-56.351996,-25.122762],[-56.350834,-25.1231],[-56.350534,-25.124377],[-56.349057,-25.126398],[-56.346834,-25.128632],[-56.346257,-25.130264],[-56.342626,-25.131621],[-56.334662,-25.132168],[-56.333356,-25.132798],[-56.331539,-25.134231],[-56.329613,-25.134267],[-56.329066,-25.135547],[-56.32853,-25.135915],[-56.326308,-25.135236],[-56.325858,-25.134227],[-56.325242,-25.134049],[-56.324127,-25.134084],[-56.321864,-25.134995],[-56.320588,-25.134547],[-56.319001,-25.134688],[-56.316429,-25.136225],[-56.313695,-25.140823],[-56.312682,-25.141698],[-56.311628,-25.141702],[-56.308379,-25.140825],[-56.305496,-25.140446],[-56.29953,-25.138968],[-56.298376,-25.138136],[-56.297164,-25.136212],[-56.293992,-25.134698],[-56.290551,-25.133634],[-56.288497,-25.131475],[-56.285553,-25.12965],[-56.283539,-25.129766],[-56.281318,-25.131688],[-56.27882,-25.13201],[-56.278193,-25.13175],[-56.277418,-25.130473],[-56.276186,-25.130155],[-56.274958,-25.129196],[-56.272405,-25.128543],[-56.269574,-25.129518],[-56.267916,-25.129148],[-56.266352,-25.129235],[-56.263897,-25.128284],[-56.263023,-25.127097],[-56.262602,-25.126982],[-56.257572,-25.127566],[-56.255503,-25.127538],[-56.254427,-25.127266],[-56.251952,-25.125867],[-56.24658,-25.12565],[-56.244534,-25.124931],[-56.242343,-25.125295],[-56.240194,-25.126241],[-56.235061,-25.126382],[-56.233771,-25.125467],[-56.228378,-25.124134],[-56.22546,-25.122227],[-56.21845,-25.122173],[-56.216842,-25.12076],[-56.215665,-25.120406],[-56.214712,-25.120532],[-56.212657,-25.121975],[-56.209485,-25.12226],[-56.207165,-25.121024],[-56.205433,-25.119101],[-56.204191,-25.118471],[-56.200441,-25.119376],[-56.195743,-25.119897],[-56.192945,-25.119584],[-56.191854,-25.119113],[-56.191277,-25.118451],[-56.190898,-25.117704],[-56.191055,-25.116481],[-56.190585,-25.115973],[-56.186482,-25.115137],[-56.182363,-25.111322],[-56.180901,-25.110325],[-56.179597,-25.109997],[-56.177536,-25.109981],[-56.175505,-25.110512],[-56.173188,-25.11254],[-56.1722,-25.112963],[-56.170998,-25.112948],[-56.169385,-25.112483],[-56.164885,-25.112688],[-56.163107,-25.112118],[-56.161311,-25.111028],[-56.159213,-25.110822],[-56.155959,-25.111052],[-56.154654,-25.111812],[-56.154342,-25.113581],[-56.151408,-25.114625],[-56.148071,-25.113662],[-56.14711,-25.113774],[-56.145565,-25.114731],[-56.144637,-25.115999],[-56.143053,-25.121182],[-56.138788,-25.122937],[-56.137518,-25.122956],[-56.135195,-25.126356],[-56.134091,-25.12644],[-56.130938,-25.127569],[-56.111317,-25.168035],[-56.109879,-25.169344],[-56.108287,-25.169962],[-56.106118,-25.173187],[-56.105882,-25.174225],[-56.105173,-25.174828],[-56.09994,-25.176327],[-56.098501,-25.173501],[-56.098164,-25.171381],[-56.095563,-25.168431],[-56.09253,-25.167992],[-56.091369,-25.166847],[-56.090106,-25.164957],[-56.089202,-25.16445],[-56.088106,-25.164385],[-56.086008,-25.163207],[-56.081627,-25.163445],[-56.077662,-25.161562],[-56.075338,-25.160915],[-56.066313,-25.151236],[-56.065195,-25.152006],[-56.064588,-25.153113],[-56.064079,-25.155146],[-56.064646,-25.158084],[-56.063516,-25.161608],[-56.064317,-25.163342],[-56.065123,-25.163894],[-56.066926,-25.164329],[-56.066555,-25.165858],[-56.067551,-25.168415],[-56.067332,-25.169208],[-56.066647,-25.169976],[-56.064523,-25.17027],[-56.064854,-25.171856],[-56.064698,-25.172655],[-56.064056,-25.173513],[-56.062662,-25.17415],[-56.063067,-25.175579],[-56.064187,-25.177275],[-56.064338,-25.178477],[-56.065839,-25.18027],[-56.065809,-25.180653],[-56.064406,-25.180929],[-56.063008,-25.182022],[-56.063335,-25.182696],[-56.065599,-25.18407],[-56.065489,-25.185153],[-56.064796,-25.185984],[-56.063356,-25.186525],[-56.062607,-25.187202],[-56.063293,-25.18969],[-56.062864,-25.190518],[-56.059239,-25.191976],[-56.059517,-25.192727],[-56.059202,-25.193786],[-56.060418,-25.195894],[-56.061097,-25.199465],[-56.060922,-25.20043],[-56.059465,-25.201102],[-56.059607,-25.202742],[-56.058441,-25.203918],[-56.058544,-25.204704],[-56.060154,-25.206118],[-56.059665,-25.206901],[-56.060299,-25.207862],[-56.05997,-25.209964],[-56.060614,-25.21149],[-56.059403,-25.21411],[-56.059768,-25.214681],[-56.060378,-25.214789],[-56.060731,-25.216073],[-56.063731,-25.216047],[-56.065172,-25.215401],[-56.066504,-25.216661],[-56.068843,-25.218066],[-56.070035,-25.21811],[-56.071639,-25.219194],[-56.072606,-25.220469],[-56.072818,-25.221396],[-56.071107,-25.222121],[-56.070757,-25.222625],[-56.072461,-25.224834],[-56.073844,-25.225195],[-56.076252,-25.224718],[-56.079235,-25.226105],[-56.080798,-25.227248],[-56.081414,-25.225324],[-56.081935,-25.224821],[-56.084289,-25.226606],[-56.085475,-25.226938],[-56.086153,-25.226893],[-56.08681,-25.226233],[-56.087408,-25.226589],[-56.088805,-25.226381],[-56.09222,-25.225038],[-56.093474,-25.224942],[-56.093647,-25.225769],[-56.095075,-25.226162],[-56.095194,-25.2267],[-56.094794,-25.227397],[-56.095309,-25.22787],[-56.096878,-25.227582],[-56.098276,-25.228005],[-56.098589,-25.227836],[-56.098946,-25.226398],[-56.100397,-25.226113],[-56.101568,-25.226793],[-56.103235,-25.228523],[-56.106051,-25.229642],[-56.109598,-25.230237],[-56.111203,-25.229863],[-56.112218,-25.230072],[-56.111051,-25.23137],[-56.111652,-25.233523],[-56.112408,-25.233694],[-56.114552,-25.23289],[-56.11639,-25.23463],[-56.11774,-25.234882],[-56.118296,-25.234745],[-56.117735,-25.233369],[-56.117829,-25.232598],[-56.118778,-25.231673],[-56.123294,-25.232418],[-56.123546,-25.232862],[-56.122629,-25.234202],[-56.124249,-25.234076],[-56.125172,-25.23512],[-56.125266,-25.235627],[-56.12285,-25.238118],[-56.122002,-25.24014],[-56.121677,-25.242509],[-56.121872,-25.243318],[-56.122387,-25.243777],[-56.123987,-25.244094],[-56.124265,-25.245129],[-56.124031,-25.245905],[-56.122493,-25.247869],[-56.122077,-25.250142],[-56.120096,-25.250342],[-56.119171,-25.251163],[-56.119103,-25.251451],[-56.119983,-25.252387],[-56.119662,-25.253509],[-56.120345,-25.254326],[-56.127138,-25.255671],[-56.12874,-25.25717],[-56.129614,-25.259727],[-56.130253,-25.260055],[-56.132851,-25.259443],[-56.134628,-25.259892],[-56.136476,-25.259473],[-56.137111,-25.260335],[-56.137512,-25.261687],[-56.138094,-25.262034],[-56.139165,-25.261846],[-56.140072,-25.260817],[-56.143372,-25.259229],[-56.144767,-25.25916],[-56.145235,-25.259714],[-56.145526,-25.262926],[-56.147136,-25.264041],[-56.147406,-25.264671],[-56.147319,-25.265374],[-56.145993,-25.267606],[-56.149004,-25.268165],[-56.153684,-25.26845],[-56.154376,-25.26946],[-56.156259,-25.271024],[-56.15727,-25.27384],[-56.158117,-25.273756],[-56.159085,-25.272691],[-56.15992,-25.272479],[-56.160867,-25.272735],[-56.161994,-25.273964],[-56.163599,-25.273807],[-56.166186,-25.273002],[-56.168329,-25.274359],[-56.171098,-25.27248],[-56.173536,-25.273573],[-56.177447,-25.273262],[-56.179647,-25.273611],[-56.179926,-25.273964],[-56.1798,-25.274323],[-56.17837,-25.2758],[-56.177937,-25.277465],[-56.17796,-25.279066],[-56.178907,-25.283159],[-56.180624,-25.284007],[-56.183892,-25.283155],[-56.18566,-25.283436],[-56.186274,-25.283722],[-56.187324,-25.285346],[-56.188171,-25.285851],[-56.188543,-25.285525],[-56.187727,-25.284419],[-56.189063,-25.283196],[-56.189779,-25.282858],[-56.19389,-25.282541],[-56.194668,-25.283546],[-56.194641,-25.285289],[-56.195385,-25.285206],[-56.199405,-25.283423],[-56.200542,-25.283823],[-56.201237,-25.285509],[-56.202192,-25.284579],[-56.203562,-25.284505],[-56.204548,-25.283969],[-56.2052,-25.284537],[-56.208632,-25.284793],[-56.210866,-25.284272],[-56.212132,-25.284739],[-56.21391,-25.286066],[-56.214187,-25.286615],[-56.21383,-25.287136],[-56.212537,-25.287752],[-56.212424,-25.291386],[-56.212001,-25.292829],[-56.212758,-25.294267],[-56.213712,-25.294014],[-56.214068,-25.294243],[-56.213685,-25.294788],[-56.212227,-25.295253],[-56.211432,-25.296261],[-56.212664,-25.297204],[-56.216893,-25.296209],[-56.218534,-25.296815],[-56.218741,-25.298362],[-56.218506,-25.299669],[-56.216974,-25.301775],[-56.217201,-25.30224],[-56.21795,-25.30234],[-56.218249,-25.302675],[-56.217957,-25.303109],[-56.216777,-25.303394],[-56.216339,-25.30424],[-56.217128,-25.304671],[-56.218287,-25.304531],[-56.218769,-25.30476],[-56.221884,-25.307946],[-56.223663,-25.31077],[-56.223737,-25.311274],[-56.223336,-25.311407],[-56.22059,-25.309733],[-56.219341,-25.310194],[-56.21887,-25.311133],[-56.219864,-25.312487],[-56.220882,-25.312719],[-56.220926,-25.314141],[-56.221735,-25.315484],[-56.223291,-25.316223],[-56.223751,-25.31626],[-56.226626,-25.314334],[-56.226988,-25.315824],[-56.229765,-25.315638],[-56.230566,-25.317084],[-56.232557,-25.317007],[-56.235332,-25.316373],[-56.235947,-25.315667],[-56.239657,-25.314442],[-56.240638,-25.312959],[-56.241284,-25.312543],[-56.243276,-25.313786],[-56.246651,-25.314869],[-56.247007,-25.314579],[-56.247047,-25.313974],[-56.246761,-25.313364],[-56.246005,-25.313171],[-56.245872,-25.312437],[-56.24639,-25.311143],[-56.247551,-25.310296],[-56.247932,-25.310516],[-56.248716,-25.312027],[-56.249477,-25.315634],[-56.252731,-25.317018],[-56.254209,-25.31648],[-56.254604,-25.316618],[-56.254891,-25.317002],[-56.255109,-25.318972],[-56.256411,-25.318967],[-56.259624,-25.315803],[-56.260336,-25.315644],[-56.262689,-25.314026],[-56.263803,-25.314108],[-56.264031,-25.314825],[-56.26372,-25.315543],[-56.26227,-25.316395],[-56.261231,-25.317844],[-56.261103,-25.31864],[-56.261875,-25.319084],[-56.263096,-25.318986],[-56.265217,-25.316549],[-56.266228,-25.316937],[-56.266956,-25.316851],[-56.268354,-25.314886],[-56.26943,-25.314592],[-56.26977,-25.314703],[-56.269718,-25.316979],[-56.270282,-25.317573],[-56.271233,-25.317928],[-56.272733,-25.317489],[-56.275825,-25.319078],[-56.276228,-25.320064],[-56.275171,-25.321028],[-56.275366,-25.321704],[-56.278542,-25.321838],[-56.279429,-25.321508],[-56.280178,-25.321589],[-56.280549,-25.322111],[-56.280467,-25.32335],[-56.28219,-25.323579],[-56.283048,-25.32559],[-56.28512,-25.324654],[-56.286436,-25.32484],[-56.286805,-25.326512],[-56.287374,-25.326813],[-56.287951,-25.328009],[-56.288508,-25.328286],[-56.290587,-25.328253],[-56.292989,-25.325952],[-56.295215,-25.326748],[-56.298932,-25.32311],[-56.299991,-25.32245],[-56.303156,-25.323586]]]}}]}
