{"type":"FeatureCollection","name":"distrito","features":[{"type":"Feature","properties":{"clave":"7-49","nombre":"San Pedro del Paraná"},"geometry":{"type":"Polygon","coordinates":[[[-56.117997,-26.983299],[-56.134475,-26.97214],[-56.133237,-26.97074],[-56.132463,-26.966419],[-56.13264,-26.965707],[-56.133847,-26.964234],[-56.134432,-26.962247],[-56.134266,-26.961632],[-56.135589,-26.959907],[-56.13561,-26.957099],[-56.135904,-26.955828],[-56.13671,-26.954659],[-56.139805,-26.951974],[-56.141919,-26.951116],[-56.145751,-26.948896],[-56.150884,-26.947753],[-56.152029,-26.946993],[-56.154938,-26.946247],[-56.156543,-26.944727],[-56.157744,-26.943009],[-56.158045,-26.940352],[-56.158847,-26.938719],[-56.15961,-26.937996],[-56.159654,-26.937175],[-56.159046,-26.935939],[-56.158967,-26.93495],[-56.158544,-26.934609],[-56.158918,-26.932404],[-56.158318,-26.930089],[-56.158599,-26.928759],[-56.137021,-26.936723],[-56.131313,-26.937844],[-56.130131,-26.933655],[-56.128586,-26.929809],[-56.158691,-26.884933],[-56.176304,-26.885279],[-56.19664,-26.879261],[-56.197651,-26.878632],[-56.201654,-26.878162],[-56.203686,-26.878763],[-56.204941,-26.878147],[-56.207612,-26.878521],[-56.209326,-26.878102],[-56.210348,-26.878379],[-56.214277,-26.877278],[-56.214737,-26.877302],[-56.215694,-26.878015],[-56.216219,-26.87765],[-56.216474,-26.877696],[-56.216524,-26.878177],[-56.217394,-26.877916],[-56.217585,-26.878306],[-56.218313,-26.878514],[-56.219364,-26.8776],[-56.22072,-26.877397],[-56.222212,-26.878444],[-56.225588,-26.878292],[-56.226684,-26.879337],[-56.227529,-26.879042],[-56.229497,-26.879127],[-56.231859,-26.879568],[-56.240098,-26.819857],[-56.241695,-26.816733],[-56.255431,-26.801237],[-56.253441,-26.80068],[-56.252839,-26.800134],[-56.252322,-26.798714],[-56.248839,-26.799777],[-56.247011,-26.80103],[-56.245772,-26.800726],[-56.244774,-26.801464],[-56.243118,-26.801529],[-56.241957,-26.801968],[-56.238979,-26.801804],[-56.235594,-26.800746],[-56.234371,-26.800725],[-56.231949,-26.789101],[-56.231013,-26.78993],[-56.226826,-26.790186],[-56.225428,-26.790734],[-56.222797,-26.790024],[-56.221307,-26.789929],[-56.218464,-26.789027],[-56.217052,-26.788265],[-56.216608,-26.78846],[-56.211623,-26.78614],[-56.212982,-26.782948],[-56.207309,-26.780239],[-56.209357,-26.771602],[-56.167992,-26.748871],[-56.16623,-26.740358],[-56.165555,-26.740426],[-56.163145,-26.738909],[-56.16333,-26.738061],[-56.163079,-26.737712],[-56.163822,-26.735694],[-56.16357,-26.73498],[-56.162455,-26.733975],[-56.162329,-26.73351],[-56.163345,-26.733209],[-56.163798,-26.732769],[-56.163067,-26.732548],[-56.162921,-26.731757],[-56.163241,-26.731023],[-56.162867,-26.730669],[-56.163463,-26.729864],[-56.16269,-26.729959],[-56.162373,-26.72965],[-56.163098,-26.728991],[-56.162782,-26.728362],[-56.163636,-26.728457],[-56.163559,-26.727924],[-56.164292,-26.727707],[-56.163641,-26.727202],[-56.163723,-26.726223],[-56.163246,-26.725552],[-56.163508,-26.724931],[-56.164327,-26.724389],[-56.165019,-26.725129],[-56.165108,-26.724349],[-56.165795,-26.724881],[-56.166223,-26.724215],[-56.166692,-26.724164],[-56.166546,-26.723879],[-56.167743,-26.723759],[-56.167792,-26.723006],[-56.168278,-26.722291],[-56.168706,-26.722645],[-56.169123,-26.721921],[-56.168674,-26.721192],[-56.169213,-26.720915],[-56.169177,-26.720206],[-56.168691,-26.720131],[-56.168294,-26.720526],[-56.16791,-26.719463],[-56.168765,-26.718529],[-56.168417,-26.717796],[-56.168546,-26.716772],[-56.169261,-26.716613],[-56.169652,-26.716909],[-56.170082,-26.716699],[-56.170079,-26.716054],[-56.169498,-26.715545],[-56.170184,-26.714601],[-56.169287,-26.713661],[-56.168643,-26.713513],[-56.168875,-26.71309],[-56.168672,-26.712809],[-56.168173,-26.712761],[-56.167908,-26.713116],[-56.167072,-26.712438],[-56.1674,-26.711095],[-56.167715,-26.710943],[-56.168216,-26.711249],[-56.168371,-26.710139],[-56.168903,-26.709984],[-56.168406,-26.708781],[-56.168813,-26.708616],[-56.169275,-26.707571],[-56.1703,-26.708042],[-56.170956,-26.707504],[-56.170948,-26.706972],[-56.171581,-26.706989],[-56.171028,-26.706092],[-56.170575,-26.705999],[-56.171347,-26.704943],[-56.172047,-26.704983],[-56.172269,-26.704564],[-56.173225,-26.704976],[-56.173643,-26.705909],[-56.173456,-26.707072],[-56.173793,-26.7073],[-56.174525,-26.706446],[-56.175596,-26.706033],[-56.176513,-26.704485],[-56.178397,-26.703828],[-56.17843,-26.703128],[-56.177571,-26.70223],[-56.175153,-26.701832],[-56.175078,-26.701335],[-56.17573,-26.70072],[-56.175928,-26.700067],[-56.174311,-26.698744],[-56.174191,-26.697669],[-56.175279,-26.696231],[-56.176145,-26.696087],[-56.176448,-26.696743],[-56.175703,-26.698567],[-56.176216,-26.699161],[-56.176778,-26.699155],[-56.177631,-26.698244],[-56.177425,-26.696979],[-56.177662,-26.69638],[-56.179676,-26.69627],[-56.179619,-26.694888],[-56.178813,-26.693475],[-56.17897,-26.692871],[-56.181807,-26.692404],[-56.183195,-26.691022],[-56.183133,-26.690358],[-56.182103,-26.689661],[-56.182006,-26.689259],[-56.183217,-26.688115],[-56.183384,-26.68747],[-56.182262,-26.686579],[-56.182053,-26.685887],[-56.184376,-26.685007],[-56.185638,-26.683818],[-56.185532,-26.683298],[-56.185076,-26.683214],[-56.183905,-26.684345],[-56.183214,-26.684526],[-56.181922,-26.683783],[-56.181269,-26.682885],[-56.181387,-26.682294],[-56.181788,-26.682076],[-56.183586,-26.682388],[-56.184296,-26.682189],[-56.184799,-26.678748],[-56.184597,-26.678196],[-56.184094,-26.678062],[-56.182818,-26.678822],[-56.180242,-26.678875],[-56.179992,-26.6784],[-56.18101,-26.677837],[-56.181315,-26.676931],[-56.180861,-26.676563],[-56.178986,-26.676304],[-56.178263,-26.675537],[-56.178555,-26.674252],[-56.179859,-26.672752],[-56.180057,-26.672125],[-56.17991,-26.671343],[-56.178666,-26.669756],[-56.178476,-26.668979],[-56.178739,-26.66856],[-56.180761,-26.668238],[-56.181287,-26.667415],[-56.181224,-26.666923],[-56.179923,-26.666346],[-56.177944,-26.666971],[-56.17724,-26.666755],[-56.177257,-26.666155],[-56.178165,-26.665618],[-56.179077,-26.664314],[-56.179176,-26.663818],[-56.178887,-26.663523],[-56.177897,-26.664827],[-56.177327,-26.664936],[-56.175564,-26.662529],[-56.1743,-26.662061],[-56.173826,-26.662456],[-56.173417,-26.664363],[-56.172829,-26.66445],[-56.172585,-26.664019],[-56.172889,-26.662306],[-56.172486,-26.661644],[-56.1715,-26.661381],[-56.169052,-26.66171],[-56.169054,-26.661277],[-56.169798,-26.660654],[-56.171785,-26.660277],[-56.172367,-26.659558],[-56.171884,-26.659],[-56.170383,-26.659835],[-56.169258,-26.659612],[-56.169122,-26.657544],[-56.168783,-26.65691],[-56.168098,-26.656743],[-56.167025,-26.658638],[-56.16629,-26.659198],[-56.165454,-26.659355],[-56.165096,-26.659204],[-56.165076,-26.658775],[-56.165717,-26.657858],[-56.165836,-26.657033],[-56.16526,-26.656199],[-56.164793,-26.656083],[-56.164364,-26.656518],[-56.163818,-26.658592],[-56.162875,-26.659078],[-56.161381,-26.657377],[-56.1586,-26.655446],[-56.158523,-26.654836],[-56.160288,-26.653565],[-56.160551,-26.652632],[-56.160224,-26.652147],[-56.159635,-26.65199],[-56.156986,-26.652593],[-56.156404,-26.652372],[-56.156335,-26.652137],[-56.157669,-26.651513],[-56.157296,-26.649818],[-56.158596,-26.64914],[-56.15887,-26.648383],[-56.158395,-26.647974],[-56.157149,-26.648504],[-56.155761,-26.647674],[-56.15587,-26.647173],[-56.156592,-26.64651],[-56.156562,-26.645512],[-56.157189,-26.643868],[-56.156815,-26.643387],[-56.15523,-26.642922],[-56.154975,-26.642383],[-56.15516,-26.642091],[-56.157138,-26.642017],[-56.157368,-26.641634],[-56.155789,-26.639919],[-56.154437,-26.639396],[-56.154925,-26.637408],[-56.154094,-26.637263],[-56.153763,-26.63885],[-56.153046,-26.639031],[-56.151164,-26.636708],[-56.150443,-26.636537],[-56.150401,-26.637927],[-56.149999,-26.638385],[-56.149453,-26.638418],[-56.147791,-26.637402],[-56.146519,-26.638572],[-56.1458,-26.638627],[-56.145157,-26.638325],[-56.145088,-26.63795],[-56.146692,-26.637079],[-56.146759,-26.636641],[-56.1452,-26.635824],[-56.145089,-26.635164],[-56.145575,-26.633723],[-56.145172,-26.633188],[-56.143945,-26.632512],[-56.141623,-26.632728],[-56.14133,-26.63376],[-56.140909,-26.633907],[-56.13842,-26.632253],[-56.137499,-26.63222],[-56.136978,-26.632691],[-56.136976,-26.633111],[-56.138631,-26.633238],[-56.138946,-26.633836],[-56.136931,-26.635548],[-56.135991,-26.635863],[-56.134867,-26.635292],[-56.13433,-26.633528],[-56.133855,-26.633349],[-56.133317,-26.63336],[-56.130441,-26.634818],[-56.130013,-26.634712],[-56.129492,-26.633241],[-56.128483,-26.632685],[-56.125214,-26.633554],[-56.12471,-26.633126],[-56.124808,-26.632752],[-56.126353,-26.632568],[-56.126932,-26.631768],[-56.126468,-26.631318],[-56.124381,-26.631526],[-56.123996,-26.631032],[-56.123948,-26.630467],[-56.125119,-26.630019],[-56.125359,-26.629325],[-56.125135,-26.62871],[-56.124181,-26.628464],[-56.123497,-26.628636],[-56.122366,-26.630458],[-56.121429,-26.630673],[-56.120978,-26.630463],[-56.12087,-26.629821],[-56.121985,-26.628216],[-56.121952,-26.627728],[-56.121335,-26.627585],[-56.120184,-26.628471],[-56.119428,-26.628575],[-56.118512,-26.628308],[-56.117253,-26.627158],[-56.115776,-26.624354],[-56.11556,-26.621468],[-56.115845,-26.620594],[-56.117295,-26.619985],[-56.117749,-26.619301],[-56.116765,-26.617575],[-56.116989,-26.616949],[-56.118031,-26.615904],[-56.117944,-26.615605],[-56.116324,-26.615266],[-56.115758,-26.614247],[-56.116413,-26.61356],[-56.118187,-26.613905],[-56.118056,-26.613322],[-56.116806,-26.612091],[-56.11607,-26.610709],[-56.116751,-26.609283],[-56.1189,-26.609255],[-56.118937,-26.608673],[-56.118314,-26.607843],[-56.118388,-26.60723],[-56.12035,-26.606312],[-56.120653,-26.605912],[-56.120512,-26.605537],[-56.119225,-26.605168],[-56.119178,-26.604824],[-56.119552,-26.604343],[-56.121113,-26.603811],[-56.121152,-26.603387],[-56.119323,-26.602514],[-56.119057,-26.601794],[-56.119828,-26.601713],[-56.121007,-26.602524],[-56.121714,-26.602158],[-56.12175,-26.601906],[-56.120829,-26.601602],[-56.12067,-26.601064],[-56.120932,-26.600718],[-56.12227,-26.600311],[-56.122304,-26.599702],[-56.121416,-26.5979],[-56.121715,-26.597306],[-56.122456,-26.596814],[-56.122514,-26.596394],[-56.121747,-26.595897],[-56.119744,-26.595858],[-56.120038,-26.594487],[-56.119308,-26.593643],[-56.119127,-26.592071],[-56.117429,-26.590941],[-56.116623,-26.588553],[-56.116104,-26.588405],[-56.115903,-26.589753],[-56.115535,-26.590085],[-56.113804,-26.589149],[-56.113814,-26.588725],[-56.115077,-26.587757],[-56.115584,-26.585643],[-56.115123,-26.585153],[-56.112713,-26.584768],[-56.111996,-26.583833],[-56.11238,-26.583479],[-56.113875,-26.583638],[-56.11486,-26.583283],[-56.115096,-26.582792],[-56.114963,-26.580832],[-56.114374,-26.580891],[-56.113545,-26.581721],[-56.113051,-26.58166],[-56.112658,-26.580307],[-56.111829,-26.579178],[-56.111983,-26.578895],[-56.113244,-26.578474],[-56.113508,-26.577537],[-56.11196,-26.577297],[-56.110971,-26.574532],[-56.109699,-26.573992],[-56.110081,-26.572211],[-56.109727,-26.571911],[-56.107748,-26.571618],[-56.1066,-26.569196],[-56.106819,-26.5688],[-56.107361,-26.56888],[-56.108154,-26.570492],[-56.109307,-26.570838],[-56.109782,-26.570399],[-56.109101,-26.569031],[-56.107934,-26.56809],[-56.107272,-26.566857],[-56.105504,-26.566919],[-56.104901,-26.566328],[-56.105201,-26.565472],[-56.107632,-26.564833],[-56.1076,-26.564467],[-56.106272,-26.564197],[-56.105935,-26.563761],[-56.106023,-26.563139],[-56.107134,-26.56209],[-56.10402,-26.56054],[-56.103405,-26.562066],[-56.103015,-26.562285],[-56.102771,-26.560717],[-56.102217,-26.560352],[-56.100707,-26.561485],[-56.100025,-26.561508],[-56.099924,-26.561128],[-56.100896,-26.5602],[-56.100939,-26.559554],[-56.09882,-26.558299],[-56.098736,-26.557992],[-56.098924,-26.557501],[-56.100264,-26.558051],[-56.10079,-26.557996],[-56.100784,-26.555797],[-56.100471,-26.554703],[-56.099632,-26.55477],[-56.099258,-26.555255],[-56.099221,-26.556388],[-56.098484,-26.556406],[-56.095866,-26.554453],[-56.096043,-26.55333],[-56.095222,-26.552255],[-56.094995,-26.550958],[-56.093527,-26.550867],[-56.092904,-26.549306],[-56.091438,-26.549066],[-56.091421,-26.547725],[-56.090182,-26.54797],[-56.089027,-26.549001],[-56.088505,-26.548632],[-56.087452,-26.547623],[-56.087396,-26.546467],[-56.087064,-26.545928],[-56.085469,-26.545723],[-56.085872,-26.54313],[-56.085042,-26.541717],[-56.084375,-26.541735],[-56.083988,-26.542121],[-56.084672,-26.544463],[-56.08441,-26.544854],[-56.081505,-26.542344],[-56.08015,-26.542168],[-56.077776,-26.540997],[-56.077758,-26.54064],[-56.078613,-26.539653],[-56.078223,-26.537944],[-56.077691,-26.538108],[-56.076808,-26.539113],[-56.075631,-26.538117],[-56.073248,-26.53728],[-56.073089,-26.536913],[-56.073447,-26.53562],[-56.071947,-26.532631],[-56.071146,-26.532273],[-56.069674,-26.532521],[-56.069034,-26.532196],[-56.068046,-26.531138],[-56.067804,-26.529728],[-56.066787,-26.528317],[-56.065184,-26.529232],[-56.063865,-26.528691],[-56.063834,-26.52768],[-56.064682,-26.526516],[-56.063913,-26.525536],[-56.062907,-26.525227],[-56.061602,-26.525426],[-56.061256,-26.524227],[-56.059608,-26.524564],[-56.057869,-26.523763],[-56.055874,-26.523506],[-56.055311,-26.524305],[-56.052736,-26.526017],[-56.050758,-26.527977],[-56.051531,-26.52981],[-56.050551,-26.530549],[-56.050239,-26.531192],[-56.051254,-26.531939],[-56.051529,-26.532505],[-56.050702,-26.534125],[-56.049891,-26.534354],[-56.048581,-26.533695],[-56.045801,-26.533871],[-56.045511,-26.535824],[-56.045827,-26.536151],[-56.047358,-26.536491],[-56.048437,-26.539319],[-56.047985,-26.539438],[-56.047144,-26.538787],[-56.046585,-26.53872],[-56.045347,-26.539664],[-56.043506,-26.540297],[-56.041783,-26.542028],[-56.04041,-26.54238],[-56.039843,-26.542891],[-56.039874,-26.543284],[-56.041219,-26.543686],[-56.041184,-26.544548],[-56.038392,-26.545955],[-56.036575,-26.545058],[-56.036028,-26.545073],[-56.034626,-26.547347],[-56.033456,-26.547836],[-56.03228,-26.547124],[-56.030711,-26.547172],[-56.029975,-26.546837],[-56.02864,-26.545059],[-56.028095,-26.543597],[-56.026029,-26.544269],[-56.025369,-26.544156],[-56.025059,-26.543165],[-56.025419,-26.542287],[-56.028341,-26.541549],[-56.029818,-26.540074],[-56.029187,-26.539058],[-56.030155,-26.538447],[-56.030455,-26.537442],[-56.030071,-26.537169],[-56.029101,-26.53737],[-56.028964,-26.53694],[-56.030693,-26.533913],[-56.029434,-26.532677],[-56.028207,-26.53298],[-56.027908,-26.531737],[-56.027053,-26.530851],[-56.026502,-26.530991],[-56.025325,-26.531999],[-56.023935,-26.534224],[-56.022786,-26.533589],[-56.021742,-26.533545],[-56.020523,-26.53263],[-56.020374,-26.531216],[-56.019108,-26.530724],[-56.01867,-26.530148],[-56.021255,-26.528057],[-56.018317,-26.527274],[-56.017486,-26.526573],[-56.017874,-26.526093],[-56.019306,-26.526771],[-56.019643,-26.526466],[-56.019758,-26.524427],[-56.019042,-26.521835],[-56.020166,-26.521279],[-56.020176,-26.52103],[-56.019421,-26.519982],[-56.018987,-26.518187],[-56.018082,-26.517991],[-56.018713,-26.515978],[-56.01832,-26.515542],[-56.01761,-26.516395],[-56.015998,-26.516167],[-56.014273,-26.51522],[-56.014233,-26.514087],[-56.013691,-26.513623],[-56.013057,-26.513777],[-56.011762,-26.514824],[-56.009561,-26.513964],[-56.008696,-26.512938],[-56.008232,-26.51289],[-56.008471,-26.514291],[-56.007516,-26.514718],[-56.007041,-26.513274],[-56.005986,-26.512608],[-56.005644,-26.512958],[-56.006156,-26.513778],[-56.005974,-26.514454],[-56.005056,-26.515238],[-56.003796,-26.51573],[-56.002673,-26.513664],[-56.001657,-26.513282],[-56.00057,-26.512227],[-56.000072,-26.512964],[-55.999562,-26.515818],[-55.998795,-26.51611],[-55.997617,-26.515682],[-55.997496,-26.514228],[-55.996433,-26.513372],[-55.994916,-26.512643],[-55.994623,-26.513341],[-55.994132,-26.513351],[-55.993517,-26.511753],[-55.992899,-26.511162],[-55.99161,-26.51099],[-55.990299,-26.510308],[-55.989724,-26.510607],[-55.989479,-26.511535],[-55.988845,-26.511544],[-55.988323,-26.509581],[-55.987712,-26.509076],[-55.986974,-26.510705],[-55.986162,-26.511245],[-55.985696,-26.509996],[-55.98391,-26.510665],[-55.983568,-26.509954],[-55.982091,-26.509252],[-55.981202,-26.509075],[-55.980635,-26.50926],[-55.979133,-26.511028],[-55.980297,-26.511465],[-55.980784,-26.512222],[-55.978915,-26.513401],[-55.977473,-26.513142],[-55.976727,-26.512306],[-55.975554,-26.511666],[-55.97329,-26.510891],[-55.971915,-26.510814],[-55.971652,-26.511105],[-55.972092,-26.51193],[-55.97186,-26.512429],[-55.970479,-26.513367],[-55.969114,-26.513078],[-55.968337,-26.513252],[-55.966967,-26.51494],[-55.966698,-26.514834],[-55.966614,-26.513353],[-55.966189,-26.512668],[-55.964785,-26.513105],[-55.963447,-26.512702],[-55.963696,-26.514298],[-55.962792,-26.515059],[-55.96163,-26.513872],[-55.961536,-26.512454],[-55.960386,-26.51133],[-55.959473,-26.511215],[-55.957766,-26.511781],[-55.955068,-26.511274],[-55.95447,-26.511468],[-55.953887,-26.512475],[-55.951768,-26.513114],[-55.951632,-26.51462],[-55.950326,-26.51541],[-55.949219,-26.514273],[-55.947924,-26.514489],[-55.946253,-26.51422],[-55.941827,-26.515875],[-55.941559,-26.516343],[-55.941527,-26.518049],[-55.940635,-26.519766],[-55.9395,-26.519817],[-55.938833,-26.520737],[-55.936429,-26.521275],[-55.935985,-26.52114],[-55.935532,-26.519995],[-55.933069,-26.519945],[-55.932863,-26.518882],[-55.932042,-26.517856],[-55.931732,-26.51794],[-55.930939,-26.519428],[-55.930354,-26.519356],[-55.929994,-26.518247],[-55.931083,-26.516698],[-55.931022,-26.516418],[-55.929974,-26.516784],[-55.930207,-26.514723],[-55.929352,-26.513945],[-55.928724,-26.513976],[-55.928596,-26.515185],[-55.92814,-26.515588],[-55.927235,-26.514949],[-55.92551,-26.514846],[-55.924297,-26.51383],[-55.923634,-26.514881],[-55.92263,-26.515072],[-55.919709,-26.516707],[-55.918983,-26.515735],[-55.917623,-26.516262],[-55.915997,-26.515997],[-55.915473,-26.51537],[-55.916759,-26.514148],[-55.916877,-26.513453],[-55.916562,-26.513135],[-55.912007,-26.513619],[-55.91114,-26.513414],[-55.910914,-26.513087],[-55.911028,-26.512556],[-55.91214,-26.511937],[-55.910992,-26.511562],[-55.910783,-26.510992],[-55.912647,-26.509453],[-55.912918,-26.508905],[-55.912029,-26.508099],[-55.911641,-26.506046],[-55.910297,-26.50577],[-55.908646,-26.504891],[-55.907816,-26.503959],[-55.907782,-26.503277],[-55.909163,-26.502678],[-55.909356,-26.502111],[-55.908038,-26.500859],[-55.906942,-26.500309],[-55.90682,-26.499916],[-55.908285,-26.498717],[-55.908574,-26.497726],[-55.908239,-26.49734],[-55.907804,-26.497355],[-55.907052,-26.498536],[-55.905973,-26.498848],[-55.906253,-26.497546],[-55.905026,-26.495893],[-55.905554,-26.494588],[-55.905472,-26.492362],[-55.904621,-26.492301],[-55.904085,-26.491363],[-55.902679,-26.490982],[-55.901343,-26.489094],[-55.900698,-26.489102],[-55.899864,-26.490166],[-55.899406,-26.49028],[-55.899844,-26.488875],[-55.898092,-26.48864],[-55.897105,-26.487878],[-55.897139,-26.487206],[-55.898182,-26.485846],[-55.898808,-26.486614],[-55.899953,-26.486673],[-55.899687,-26.485686],[-55.900287,-26.484228],[-55.899421,-26.483915],[-55.898395,-26.48476],[-55.897351,-26.484328],[-55.89706,-26.483901],[-55.899356,-26.481906],[-55.900411,-26.481548],[-55.901306,-26.48007],[-55.901238,-26.479433],[-55.899892,-26.479156],[-55.898405,-26.479722],[-55.897894,-26.478603],[-55.899521,-26.477627],[-55.899654,-26.477028],[-55.899207,-26.476885],[-55.897881,-26.477141],[-55.896747,-26.478798],[-55.89627,-26.479033],[-55.895086,-26.475941],[-55.89469,-26.475613],[-55.894367,-26.475863],[-55.894687,-26.477667],[-55.89449,-26.478076],[-55.893859,-26.478157],[-55.893131,-26.474955],[-55.890342,-26.472532],[-55.890808,-26.472116],[-55.892168,-26.472433],[-55.892834,-26.472312],[-55.892868,-26.471067],[-55.893322,-26.470407],[-55.893016,-26.4697],[-55.89133,-26.469123],[-55.890247,-26.469069],[-55.887985,-26.468],[-55.888121,-26.466922],[-55.887255,-26.466807],[-55.887465,-26.465833],[-55.887062,-26.465514],[-55.886533,-26.465483],[-55.885778,-26.466096],[-55.885177,-26.465549],[-55.885048,-26.464939],[-55.88374,-26.464825],[-55.883785,-26.46427],[-55.884546,-26.464014],[-55.884671,-26.463613],[-55.884568,-26.463197],[-55.883969,-26.463233],[-55.883487,-26.4628],[-55.884136,-26.46174],[-55.882843,-26.46178],[-55.882556,-26.461556],[-55.883113,-26.460121],[-55.883052,-26.459199],[-55.880613,-26.458873],[-55.879822,-26.460018],[-55.879191,-26.460289],[-55.879401,-26.457744],[-55.87907,-26.456947],[-55.878374,-26.456526],[-55.878044,-26.45675],[-55.878161,-26.457902],[-55.877547,-26.458375],[-55.877111,-26.458444],[-55.876009,-26.45774],[-55.874045,-26.460844],[-55.871964,-26.463333],[-55.870495,-26.46501],[-55.868729,-26.466246],[-55.867259,-26.468139],[-55.861723,-26.471309],[-55.856392,-26.472084],[-55.855061,-26.472019],[-55.852529,-26.471127],[-55.850471,-26.471273],[-55.84768,-26.472122],[-55.845184,-26.473682],[-55.84324,-26.47605],[-55.842835,-26.476186],[-55.841547,-26.476194],[-55.839631,-26.477045],[-55.838588,-26.476847],[-55.838095,-26.477281],[-55.836992,-26.477552],[-55.835962,-26.477182],[-55.833544,-26.476955],[-55.832116,-26.477065],[-55.831616,-26.477508],[-55.831197,-26.477224],[-55.830095,-26.478443],[-55.828291,-26.4779],[-55.827649,-26.478721],[-55.825591,-26.47949],[-55.82247,-26.47913],[-55.820414,-26.479659],[-55.816329,-26.48153],[-55.814848,-26.481762],[-55.81069,-26.484115],[-55.806587,-26.487647],[-55.805336,-26.488273],[-55.783429,-26.530218],[-55.833731,-26.608956],[-55.83694,-26.612107],[-55.83847,-26.612107],[-55.839424,-26.612518],[-55.84084,-26.61237],[-55.841679,-26.612535],[-55.842057,-26.613028],[-55.841959,-26.614641],[-55.842761,-26.615378],[-55.841614,-26.620007],[-55.841695,-26.620829],[-55.841026,-26.621568],[-55.841205,-26.62454],[-55.839848,-26.628452],[-55.838711,-26.629995],[-55.838777,-26.631458],[-55.839744,-26.632224],[-55.840322,-26.634364],[-55.841227,-26.635635],[-55.841536,-26.636739],[-55.84262,-26.637461],[-55.843243,-26.640541],[-55.842796,-26.64111],[-55.840569,-26.642518],[-55.837586,-26.643456],[-55.835991,-26.644508],[-55.836035,-26.64472],[-55.841071,-26.650968],[-55.860364,-26.673143],[-55.874699,-26.691897],[-55.880743,-26.696487],[-55.881245,-26.701957],[-55.880087,-26.704173],[-55.87993,-26.706376],[-55.880568,-26.710021],[-55.88256,-26.710894],[-55.883999,-26.711034],[-55.883264,-26.713563],[-55.883422,-26.715737],[-55.883142,-26.716261],[-55.881652,-26.717719],[-55.8792,-26.718808],[-55.879271,-26.723561],[-55.880252,-26.723993],[-55.883363,-26.726433],[-55.882851,-26.728004],[-55.883676,-26.73043],[-55.882751,-26.732066],[-55.883124,-26.734019],[-55.882038,-26.736728],[-55.882293,-26.74035],[-55.883213,-26.741531],[-55.886579,-26.742424],[-55.854169,-26.822983],[-55.856719,-26.822041],[-55.866176,-26.821346],[-55.868592,-26.825216],[-55.867824,-26.825643],[-55.865942,-26.825727],[-55.86284,-26.826984],[-55.862959,-26.828863],[-55.86219,-26.830066],[-55.862201,-26.831353],[-55.861446,-26.833035],[-55.859581,-26.834695],[-55.856148,-26.836653],[-55.856702,-26.838206],[-55.856193,-26.83943],[-55.854595,-26.841078],[-55.853246,-26.84136],[-55.859834,-26.85964],[-55.858989,-26.860381],[-55.861704,-26.861944],[-55.863229,-26.861545],[-55.863738,-26.861753],[-55.865583,-26.864458],[-55.866794,-26.865221],[-55.867977,-26.867172],[-55.869099,-26.86774],[-55.871396,-26.867799],[-55.871813,-26.868141],[-55.871871,-26.868986],[-55.872718,-26.870424],[-55.874381,-26.871141],[-55.875978,-26.871447],[-55.877081,-26.872065],[-55.87958,-26.876879],[-55.880623,-26.878034],[-55.88271,-26.879355],[-55.884442,-26.878831],[-55.885342,-26.878856],[-55.887126,-26.879949],[-55.888503,-26.880028],[-55.875891,-26.891587],[-55.875996,-26.891841],[-55.877287,-26.893038],[-55.879708,-26.893861],[-55.88223,-26.893077],[-55.885304,-26.891391],[-55.88848,-26.891768],[-55.890089,-26.892643],[-55.892125,-26.894645],[-55.893324,-26.895015],[-55.894706,-26.894895],[-55.896303,-26.897296],[-55.897113,-26.897925],[-55.90015,-26.898648],[-55.90176,-26.8983],[-55.902624,-26.898455],[-55.904192,-26.900566],[-55.904137,-26.90137],[-55.903041,-26.90304],[-55.903279,-26.903791],[-55.904721,-26.90494],[-55.909762,-26.906658],[-55.910649,-26.906615],[-55.912562,-26.905763],[-55.913076,-26.905912],[-55.913294,-26.906654],[-55.914317,-26.907339],[-55.918386,-26.90677],[-55.919542,-26.907442],[-55.920717,-26.906936],[-55.922595,-26.906915],[-55.924191,-26.90611],[-55.927523,-26.905241],[-55.928238,-26.905445],[-55.929485,-26.905292],[-55.93022,-26.905898],[-55.930685,-26.905464],[-55.931376,-26.905338],[-55.933701,-26.906146],[-55.934885,-26.907319],[-55.936568,-26.906836],[-55.937835,-26.906868],[-55.938622,-26.906201],[-55.939329,-26.906391],[-55.940018,-26.907566],[-55.940359,-26.907667],[-55.940368,-26.909008],[-55.941244,-26.909403],[-55.939694,-26.911405],[-55.939474,-26.912513],[-55.941027,-26.913423],[-55.943206,-26.916225],[-55.94429,-26.916792],[-55.945456,-26.916111],[-55.947803,-26.917739],[-55.949573,-26.918172],[-55.951432,-26.917627],[-55.951986,-26.918236],[-55.954501,-26.919243],[-55.956009,-26.921172],[-55.956354,-26.920927],[-55.956684,-26.921186],[-55.956606,-26.921601],[-55.957331,-26.922216],[-55.958587,-26.922708],[-55.958381,-26.923984],[-55.958853,-26.925423],[-55.959705,-26.925668],[-55.959599,-26.926796],[-55.958829,-26.928203],[-55.957675,-26.929034],[-55.957584,-26.930334],[-55.956378,-26.93116],[-55.956637,-26.931866],[-55.956286,-26.932355],[-55.956455,-26.932799],[-55.955079,-26.933809],[-55.954867,-26.935261],[-55.954899,-26.935748],[-55.955995,-26.936695],[-55.955828,-26.938739],[-55.957132,-26.938067],[-55.957343,-26.938195],[-55.957207,-26.939237],[-55.957793,-26.939584],[-55.95794,-26.940781],[-55.958267,-26.940973],[-55.958073,-26.941658],[-55.958625,-26.941919],[-55.958884,-26.942517],[-55.959467,-26.945916],[-55.959932,-26.945454],[-55.962605,-26.945397],[-55.965175,-26.947863],[-55.969123,-26.948406],[-55.972217,-26.948226],[-55.972478,-26.948607],[-55.971928,-26.949199],[-55.97238,-26.949455],[-55.973687,-26.949622],[-55.975282,-26.948848],[-55.976108,-26.950425],[-55.97647,-26.952224],[-55.979449,-26.95342],[-55.981083,-26.953264],[-55.982742,-26.95255],[-55.982669,-26.952897],[-55.981746,-26.953396],[-55.981874,-26.953667],[-55.982396,-26.953847],[-55.983112,-26.953496],[-55.983733,-26.954263],[-55.9854,-26.953995],[-55.986214,-26.954358],[-55.989426,-26.953148],[-55.990107,-26.953731],[-55.990005,-26.954723],[-55.990486,-26.954998],[-55.990561,-26.955477],[-55.991459,-26.9557],[-55.992572,-26.955563],[-55.994384,-26.957143],[-55.995821,-26.956403],[-55.995778,-26.955541],[-55.996461,-26.955537],[-55.99722,-26.956472],[-55.997741,-26.956336],[-55.997282,-26.958156],[-55.99794,-26.958933],[-55.997764,-26.961346],[-55.998164,-26.961593],[-55.998836,-26.96116],[-55.999076,-26.962213],[-55.999935,-26.961908],[-56.000001,-26.962915],[-56.000793,-26.964216],[-56.000179,-26.964699],[-56.000551,-26.965505],[-56.001076,-26.964963],[-56.001531,-26.965165],[-56.002,-26.96445],[-56.003142,-26.964851],[-56.003272,-26.963927],[-56.004906,-26.964123],[-56.005577,-26.963487],[-56.006198,-26.963737],[-56.005991,-26.964659],[-56.006492,-26.96446],[-56.007483,-26.965049],[-56.008033,-26.964583],[-56.0093,-26.965251],[-56.009791,-26.96497],[-56.010288,-26.965443],[-56.010256,-26.966305],[-56.011328,-26.965789],[-56.011839,-26.965842],[-56.011939,-26.966484],[-56.012439,-26.966677],[-56.012658,-26.967238],[-56.013484,-26.966946],[-56.014712,-26.967596],[-56.014547,-26.968005],[-56.014968,-26.968622],[-56.014214,-26.969163],[-56.015399,-26.969253],[-56.015711,-26.970388],[-56.015033,-26.970383],[-56.01496,-26.97064],[-56.016083,-26.971492],[-56.015459,-26.971921],[-56.016887,-26.972066],[-56.017643,-26.972974],[-56.018297,-26.97313],[-56.018343,-26.973674],[-56.019518,-26.97477],[-56.019326,-26.975238],[-56.020463,-26.975246],[-56.020118,-26.975984],[-56.020433,-26.976393],[-56.020089,-26.976666],[-56.020614,-26.977486],[-56.022313,-26.977855],[-56.022777,-26.977388],[-56.023041,-26.978108],[-56.025244,-26.97876],[-56.025572,-26.97966],[-56.026718,-26.978792],[-56.027978,-26.979415],[-56.029141,-26.978669],[-56.03053,-26.979604],[-56.030967,-26.97893],[-56.031125,-26.977595],[-56.032882,-26.977138],[-56.033872,-26.977799],[-56.035279,-26.977466],[-56.035205,-26.978314],[-56.035565,-26.978587],[-56.036192,-26.978],[-56.037246,-26.977723],[-56.038304,-26.977983],[-56.038514,-26.977614],[-56.037815,-26.976747],[-56.039108,-26.975984],[-56.039725,-26.976246],[-56.040441,-26.976097],[-56.041213,-26.974843],[-56.042026,-26.9753],[-56.041996,-26.974239],[-56.042656,-26.97334],[-56.042935,-26.973694],[-56.042605,-26.974076],[-56.042783,-26.974488],[-56.044109,-26.974122],[-56.043592,-26.975292],[-56.0441,-26.975368],[-56.044178,-26.974678],[-56.044705,-26.974668],[-56.044715,-26.975819],[-56.045036,-26.976191],[-56.045481,-26.975558],[-56.046259,-26.97629],[-56.046755,-26.975219],[-56.048034,-26.974605],[-56.048365,-26.975126],[-56.04882,-26.97498],[-56.049163,-26.975267],[-56.049806,-26.97691],[-56.051019,-26.975794],[-56.051146,-26.976702],[-56.051534,-26.977021],[-56.052443,-26.975867],[-56.052511,-26.975271],[-56.053532,-26.975197],[-56.053913,-26.976432],[-56.054796,-26.976271],[-56.054712,-26.977069],[-56.055596,-26.977558],[-56.055493,-26.978243],[-56.057066,-26.97792],[-56.057457,-26.978898],[-56.058371,-26.978741],[-56.058814,-26.979259],[-56.059269,-26.979176],[-56.059311,-26.978215],[-56.06058,-26.979307],[-56.060873,-26.979232],[-56.060774,-26.978685],[-56.061081,-26.978502],[-56.062516,-26.978575],[-56.062105,-26.97757],[-56.062656,-26.976571],[-56.063012,-26.976632],[-56.063611,-26.977639],[-56.063903,-26.977514],[-56.063952,-26.976734],[-56.06484,-26.976609],[-56.065205,-26.976918],[-56.064581,-26.977866],[-56.065259,-26.978349],[-56.065398,-26.979009],[-56.064563,-26.979775],[-56.064922,-26.980094],[-56.065684,-26.979783],[-56.066111,-26.980327],[-56.064942,-26.980983],[-56.064957,-26.981263],[-56.065806,-26.981598],[-56.066494,-26.982298],[-56.068576,-26.981851],[-56.069747,-26.982225],[-56.068621,-26.983098],[-56.068758,-26.983649],[-56.070679,-26.982687],[-56.070672,-26.983581],[-56.071521,-26.984439],[-56.071691,-26.985727],[-56.072758,-26.986294],[-56.072827,-26.987951],[-56.074028,-26.987963],[-56.074395,-26.987225],[-56.075116,-26.988002],[-56.076385,-26.987649],[-56.075934,-26.98947],[-56.076175,-26.989602],[-56.077882,-26.988765],[-56.082106,-26.981881],[-56.089643,-26.98458],[-56.091408,-26.970291],[-56.093322,-26.969884],[-56.093343,-26.971017],[-56.095988,-26.971083],[-56.100521,-26.973214],[-56.103926,-26.969458],[-56.110335,-26.970853],[-56.110719,-26.97302],[-56.117997,-26.983299]]]}}]}
