{"type":"FeatureCollection","name":"distrito","features":[{"type":"Feature","properties":{"clave":"5-19","nombre":"Nueva Londres"},"geometry":{"type":"Polygon","coordinates":[[[-56.559335,-25.544098],[-56.575371,-25.539239],[-56.576703,-25.515805],[-56.570302,-25.510659],[-56.570358,-25.5087],[-56.571618,-25.505719],[-56.571809,-25.5026],[-56.571464,-25.50137],[-56.571649,-25.497402],[-56.571425,-25.496616],[-56.572821,-25.493062],[-56.574069,-25.492673],[-56.57486,-25.493623],[-56.577155,-25.492004],[-56.579377,-25.49193],[-56.581838,-25.488333],[-56.583428,-25.487557],[-56.587965,-25.486725],[-56.589239,-25.485474],[-56.590425,-25.4834],[-56.592242,-25.482439],[-56.595077,-25.482257],[-56.596095,-25.482734],[-56.596796,-25.483562],[-56.602148,-25.48275],[-56.604419,-25.481687],[-56.605012,-25.480722],[-56.606217,-25.479822],[-56.609482,-25.479397],[-56.61012,-25.478659],[-56.610715,-25.476908],[-56.613054,-25.475433],[-56.614883,-25.47491],[-56.615764,-25.471616],[-56.615859,-25.469371],[-56.616752,-25.467202],[-56.618134,-25.465538],[-56.618505,-25.464372],[-56.621633,-25.46238],[-56.622559,-25.459965],[-56.624564,-25.444728],[-56.624309,-25.439007],[-56.625426,-25.431794],[-56.626357,-25.429801],[-56.628976,-25.427496],[-56.630456,-25.427581],[-56.631105,-25.426941],[-56.632463,-25.426304],[-56.633251,-25.426382],[-56.634478,-25.42602],[-56.635065,-25.425159],[-56.634695,-25.422814],[-56.635011,-25.422477],[-56.634761,-25.422318],[-56.635716,-25.421666],[-56.635481,-25.421074],[-56.636246,-25.420529],[-56.63731,-25.420365],[-56.637493,-25.41999],[-56.638423,-25.420254],[-56.639258,-25.419638],[-56.639298,-25.418351],[-56.638285,-25.416913],[-56.638085,-25.415982],[-56.639268,-25.416089],[-56.639894,-25.415698],[-56.640527,-25.414494],[-56.640008,-25.413793],[-56.640796,-25.41388],[-56.641336,-25.413173],[-56.641292,-25.411624],[-56.642186,-25.411554],[-56.642332,-25.412376],[-56.642574,-25.412435],[-56.643493,-25.411715],[-56.643644,-25.410731],[-56.644547,-25.410855],[-56.645221,-25.410473],[-56.64601,-25.409409],[-56.649135,-25.408681],[-56.651028,-25.40599],[-56.652101,-25.405699],[-56.652104,-25.404958],[-56.651641,-25.404018],[-56.652201,-25.400872],[-56.650819,-25.398661],[-56.651069,-25.397533],[-56.561363,-25.306111],[-56.560584,-25.305866],[-56.559171,-25.304624],[-56.557278,-25.303842],[-56.554145,-25.304893],[-56.552095,-25.30505],[-56.551252,-25.30544],[-56.548654,-25.308349],[-56.546447,-25.310189],[-56.545007,-25.310866],[-56.543196,-25.312495],[-56.542828,-25.313108],[-56.542638,-25.314837],[-56.541313,-25.316386],[-56.538756,-25.318103],[-56.537573,-25.319856],[-56.535989,-25.320004],[-56.534796,-25.320493],[-56.53281,-25.322785],[-56.532628,-25.324166],[-56.533175,-25.325671],[-56.532527,-25.326536],[-56.532784,-25.328889],[-56.531889,-25.330133],[-56.530382,-25.330724],[-56.530644,-25.331813],[-56.529928,-25.331847],[-56.529751,-25.332663],[-56.528536,-25.332036],[-56.528279,-25.332234],[-56.528368,-25.333079],[-56.527988,-25.333227],[-56.527607,-25.334137],[-56.528095,-25.334708],[-56.52809,-25.33613],[-56.527598,-25.336386],[-56.526493,-25.336328],[-56.526754,-25.337453],[-56.527785,-25.33822],[-56.527321,-25.339225],[-56.527492,-25.339799],[-56.526558,-25.340586],[-56.526246,-25.342008],[-56.525723,-25.342241],[-56.525537,-25.342696],[-56.52438,-25.342701],[-56.524782,-25.344739],[-56.524086,-25.344651],[-56.52415,-25.346764],[-56.52382,-25.347116],[-56.523766,-25.347887],[-56.523264,-25.348252],[-56.523023,-25.349813],[-56.519822,-25.350715],[-56.519735,-25.35201],[-56.519072,-25.352568],[-56.518498,-25.353767],[-56.516385,-25.355106],[-56.515891,-25.360134],[-56.51556,-25.361402],[-56.514903,-25.362072],[-56.515146,-25.362457],[-56.515062,-25.363848],[-56.514624,-25.364501],[-56.514773,-25.365766],[-56.513867,-25.366589],[-56.513511,-25.368285],[-56.512012,-25.369639],[-56.512039,-25.370633],[-56.510393,-25.372537],[-56.510161,-25.37418],[-56.508438,-25.37687],[-56.507096,-25.378202],[-56.505167,-25.379094],[-56.504716,-25.381404],[-56.503731,-25.383406],[-56.502923,-25.383656],[-56.502911,-25.384482],[-56.503338,-25.384935],[-56.503056,-25.385264],[-56.50263,-25.385195],[-56.502413,-25.385767],[-56.501661,-25.386013],[-56.501546,-25.38767],[-56.501598,-25.388745],[-56.502242,-25.389568],[-56.502607,-25.390838],[-56.502579,-25.395737],[-56.506084,-25.400517],[-56.507665,-25.401529],[-56.50818,-25.405509],[-56.508746,-25.406355],[-56.5097,-25.411564],[-56.509713,-25.413149],[-56.508857,-25.413426],[-56.509042,-25.41829],[-56.510376,-25.435141],[-56.510724,-25.435435],[-56.511243,-25.441397],[-56.512553,-25.462591],[-56.512911,-25.464349],[-56.512627,-25.4673],[-56.513728,-25.471034],[-56.518975,-25.471498],[-56.519107,-25.471923],[-56.518915,-25.486068],[-56.518603,-25.486659],[-56.518855,-25.487463],[-56.519269,-25.500057],[-56.520852,-25.522523],[-56.522129,-25.523885],[-56.54217,-25.53597],[-56.558908,-25.54363],[-56.559335,-25.544098]]]}}]}
