{"type":"FeatureCollection","name":"distrito","features":[{"type":"Feature","properties":{"clave":"2-5","nombre":"Capiibary"},"geometry":{"type":"Polygon","coordinates":[[[-56.131739,-24.935479],[-56.135831,-24.937137],[-56.138297,-24.937775],[-56.143792,-24.938538],[-56.14527,-24.938357],[-56.149314,-24.936903],[-56.151114,-24.937293],[-56.152445,-24.93619],[-56.155487,-24.935195],[-56.159925,-24.930908],[-56.16069,-24.929441],[-56.161899,-24.928346],[-56.163507,-24.92453],[-56.165009,-24.92304],[-56.165768,-24.921107],[-56.166595,-24.919992],[-56.166758,-24.919022],[-56.170486,-24.910676],[-56.17285,-24.906725],[-56.173931,-24.90362],[-56.174398,-24.900683],[-56.176118,-24.896944],[-56.176524,-24.894305],[-56.174262,-24.892929],[-56.169872,-24.893004],[-56.167462,-24.891984],[-56.147772,-24.872574],[-56.140136,-24.8655],[-56.126998,-24.86196],[-56.127059,-24.858922],[-56.128458,-24.857811],[-56.12891,-24.857001],[-56.128857,-24.855713],[-56.129771,-24.850878],[-56.129529,-24.849536],[-56.130579,-24.84583],[-56.130435,-24.844353],[-56.131052,-24.841489],[-56.130914,-24.838974],[-56.129772,-24.836547],[-56.129841,-24.834457],[-56.130764,-24.832331],[-56.130814,-24.829152],[-56.131489,-24.825661],[-56.131164,-24.823799],[-56.130708,-24.823142],[-56.13087,-24.821987],[-56.130181,-24.820782],[-56.129351,-24.820249],[-56.128099,-24.817916],[-56.12674,-24.816355],[-56.124768,-24.812338],[-56.123692,-24.811266],[-56.122534,-24.809349],[-56.119929,-24.806964],[-56.118823,-24.804866],[-56.11897,-24.804204],[-56.118191,-24.803535],[-56.116629,-24.800758],[-56.114846,-24.800124],[-56.113228,-24.797663],[-56.112069,-24.794504],[-56.109071,-24.791877],[-56.108467,-24.790519],[-56.10837,-24.788071],[-56.108038,-24.787699],[-56.107056,-24.787444],[-56.106358,-24.786636],[-56.106194,-24.784166],[-56.105006,-24.779372],[-56.104027,-24.778549],[-56.102426,-24.776192],[-56.103436,-24.775421],[-56.102977,-24.774935],[-56.103603,-24.774745],[-56.104208,-24.774979],[-56.104623,-24.774629],[-56.10448,-24.774014],[-56.105263,-24.77377],[-56.105382,-24.773383],[-56.105659,-24.773709],[-56.105926,-24.773354],[-56.106117,-24.77355],[-56.106715,-24.773273],[-56.10634,-24.772801],[-56.106892,-24.772728],[-56.106581,-24.772265],[-56.107062,-24.772291],[-56.106568,-24.771764],[-56.107566,-24.77107],[-56.107877,-24.771311],[-56.108471,-24.771175],[-56.108681,-24.770684],[-56.109815,-24.770014],[-56.109732,-24.769489],[-56.110527,-24.769395],[-56.109853,-24.769093],[-56.111185,-24.768089],[-56.111062,-24.767596],[-56.111809,-24.767176],[-56.111889,-24.766802],[-56.11205,-24.767101],[-56.112347,-24.766728],[-56.112413,-24.766999],[-56.112657,-24.766843],[-56.113292,-24.765207],[-56.112999,-24.765016],[-56.113197,-24.764299],[-56.11284,-24.764044],[-56.113152,-24.763892],[-56.112634,-24.763727],[-56.11246,-24.763116],[-56.113101,-24.762903],[-56.113386,-24.762047],[-56.113074,-24.761684],[-56.113419,-24.761654],[-56.113659,-24.760644],[-56.113046,-24.760627],[-56.112402,-24.760073],[-56.112901,-24.76013],[-56.112778,-24.759668],[-56.113128,-24.759363],[-56.112475,-24.759161],[-56.112898,-24.7584],[-56.112476,-24.757946],[-56.112931,-24.757917],[-56.112471,-24.757332],[-56.113035,-24.756735],[-56.112664,-24.755857],[-56.114598,-24.753755],[-56.114395,-24.753587],[-56.114766,-24.753196],[-56.114384,-24.752995],[-56.115128,-24.751469],[-56.11615,-24.75045],[-56.116945,-24.750125],[-56.116658,-24.749184],[-56.11702,-24.749019],[-56.11712,-24.74939],[-56.117395,-24.749225],[-56.117555,-24.749546],[-56.117829,-24.749498],[-56.118268,-24.748282],[-56.118774,-24.748149],[-56.118549,-24.747786],[-56.119771,-24.748105],[-56.119986,-24.747705],[-56.120648,-24.748079],[-56.120843,-24.747118],[-56.121217,-24.747482],[-56.121561,-24.746996],[-56.121998,-24.747364],[-56.12175,-24.746487],[-56.122209,-24.745785],[-56.12184,-24.745729],[-56.122309,-24.745203],[-56.122282,-24.744706],[-56.123077,-24.744661],[-56.123369,-24.743661],[-56.122798,-24.742623],[-56.123387,-24.741922],[-56.122837,-24.74219],[-56.122336,-24.741623],[-56.122787,-24.741463],[-56.122374,-24.741149],[-56.122655,-24.740961],[-56.122836,-24.739675],[-56.123637,-24.739048],[-56.124637,-24.738787],[-56.125185,-24.738217],[-56.125495,-24.738228],[-56.125282,-24.738538],[-56.125925,-24.738171],[-56.125898,-24.73706],[-56.125499,-24.737004],[-56.125319,-24.736592],[-56.125646,-24.735659],[-56.125397,-24.735464],[-56.125619,-24.735347],[-56.125505,-24.734489],[-56.125151,-24.734406],[-56.125046,-24.732635],[-56.1248,-24.732701],[-56.12496,-24.731555],[-56.124314,-24.731845],[-56.124075,-24.731388],[-56.123806,-24.731494],[-56.123262,-24.731017],[-56.12347,-24.730662],[-56.124021,-24.730588],[-56.124032,-24.730263],[-56.123625,-24.730139],[-56.124332,-24.728883],[-56.123792,-24.728749],[-56.1238,-24.728288],[-56.123396,-24.728394],[-56.123919,-24.727887],[-56.123594,-24.727542],[-56.124024,-24.726949],[-56.124579,-24.726961],[-56.124494,-24.72594],[-56.125074,-24.726151],[-56.125537,-24.725833],[-56.125456,-24.725471],[-56.126401,-24.724912],[-56.126587,-24.723789],[-56.127251,-24.723486],[-56.127285,-24.722967],[-56.127753,-24.722708],[-56.12755,-24.722454],[-56.128022,-24.722538],[-56.129132,-24.721614],[-56.128958,-24.72118],[-56.129609,-24.721025],[-56.129295,-24.720446],[-56.130092,-24.719782],[-56.129618,-24.719608],[-56.130307,-24.719106],[-56.12987,-24.718923],[-56.130114,-24.718129],[-56.13097,-24.7179],[-56.131364,-24.71806],[-56.131619,-24.717452],[-56.132243,-24.717681],[-56.132912,-24.716958],[-56.133292,-24.717507],[-56.133509,-24.716456],[-56.134436,-24.716222],[-56.134005,-24.715989],[-56.134433,-24.715359],[-56.134928,-24.715737],[-56.135113,-24.714438],[-56.135897,-24.713869],[-56.135774,-24.713498],[-56.136069,-24.713635],[-56.136656,-24.713128],[-56.136135,-24.712308],[-56.135871,-24.712347],[-56.135831,-24.711457],[-56.135493,-24.71132],[-56.135709,-24.710878],[-56.136124,-24.71103],[-56.136965,-24.706935],[-56.13673,-24.706324],[-56.135581,-24.705355],[-56.135391,-24.704298],[-56.136957,-24.701611],[-56.137018,-24.700627],[-56.137646,-24.700129],[-56.137611,-24.699334],[-56.138487,-24.697994],[-56.138487,-24.697317],[-56.140454,-24.694628],[-56.14053,-24.693639],[-56.141132,-24.693394],[-56.141467,-24.692719],[-56.141433,-24.691938],[-56.142141,-24.690217],[-56.141999,-24.688925],[-56.142527,-24.688693],[-56.142279,-24.688371],[-56.142668,-24.688057],[-56.142292,-24.687937],[-56.142369,-24.68685],[-56.142646,-24.686571],[-56.142352,-24.686123],[-56.142496,-24.685721],[-56.142102,-24.685457],[-56.142376,-24.685152],[-56.14197,-24.68449],[-56.142037,-24.682197],[-56.141564,-24.681178],[-56.141628,-24.680334],[-56.142174,-24.680139],[-56.142492,-24.678452],[-56.142306,-24.678116],[-56.142649,-24.677721],[-56.141863,-24.677373],[-56.14191,-24.676945],[-56.141363,-24.67682],[-56.141484,-24.676211],[-56.141047,-24.675572],[-56.142193,-24.673271],[-56.142351,-24.671447],[-56.142087,-24.670985],[-56.142394,-24.670499],[-56.14191,-24.670009],[-56.142518,-24.668897],[-56.142079,-24.668845],[-56.142981,-24.668132],[-56.142906,-24.667707],[-56.143228,-24.667538],[-56.143043,-24.666728],[-56.143695,-24.666448],[-56.143815,-24.665812],[-56.144319,-24.665814],[-56.144366,-24.665011],[-56.144714,-24.66504],[-56.144409,-24.664772],[-56.144898,-24.664675],[-56.144535,-24.664158],[-56.144901,-24.662494],[-56.144617,-24.661427],[-56.14505,-24.661448],[-56.145322,-24.661007],[-56.144983,-24.660765],[-56.145787,-24.659867],[-56.147753,-24.659323],[-56.14764,-24.658947],[-56.148116,-24.658255],[-56.147643,-24.658035],[-56.148009,-24.657518],[-56.147666,-24.656952],[-56.148409,-24.656233],[-56.148396,-24.655872],[-56.148888,-24.655812],[-56.148826,-24.655518],[-56.14945,-24.654925],[-56.149365,-24.654568],[-56.149804,-24.654363],[-56.149587,-24.654208],[-56.150356,-24.653788],[-56.150149,-24.653547],[-56.15122,-24.652574],[-56.152002,-24.652443],[-56.153313,-24.651488],[-56.153246,-24.650648],[-56.153614,-24.649783],[-56.154671,-24.648859],[-56.155323,-24.649152],[-56.155239,-24.649539],[-56.155576,-24.649135],[-56.156037,-24.649341],[-56.157286,-24.647474],[-56.158285,-24.646793],[-56.158123,-24.646056],[-56.158561,-24.645295],[-56.158225,-24.645158],[-56.159339,-24.644297],[-56.159538,-24.643707],[-56.159802,-24.644029],[-56.160194,-24.643706],[-56.159933,-24.643343],[-56.160074,-24.642924],[-56.161111,-24.642311],[-56.161443,-24.640932],[-56.163209,-24.639767],[-56.163286,-24.639127],[-56.164762,-24.638688],[-56.166502,-24.637153],[-56.166918,-24.636465],[-56.166312,-24.636276],[-56.166203,-24.635517],[-56.166999,-24.634176],[-56.168653,-24.634171],[-56.16903,-24.63327],[-56.16966,-24.633477],[-56.170153,-24.633132],[-56.170135,-24.63226],[-56.171659,-24.63189],[-56.17168,-24.631077],[-56.172272,-24.631256],[-56.172647,-24.63101],[-56.172058,-24.630645],[-56.172493,-24.630481],[-56.172064,-24.629368],[-56.172298,-24.629152],[-56.172136,-24.628822],[-56.172505,-24.628652],[-56.172198,-24.627792],[-56.172532,-24.627763],[-56.172344,-24.627265],[-56.172692,-24.626982],[-56.172393,-24.626732],[-56.170967,-24.627158],[-56.169182,-24.627139],[-56.16646,-24.627838],[-56.164586,-24.626834],[-56.163326,-24.625174],[-56.151747,-24.623095],[-56.146081,-24.618458],[-56.143926,-24.616219],[-56.137437,-24.611053],[-56.135567,-24.608658],[-56.134753,-24.607881],[-56.133979,-24.607786],[-56.132528,-24.606098],[-56.129936,-24.605442],[-56.128908,-24.604763],[-56.126165,-24.603826],[-56.123759,-24.60355],[-56.120786,-24.602756],[-56.119432,-24.60199],[-56.118174,-24.601711],[-56.113332,-24.599674],[-56.111049,-24.600139],[-56.109845,-24.599946],[-56.083023,-24.588018],[-56.078206,-24.586955],[-56.073337,-24.584771],[-56.068192,-24.583755],[-56.066872,-24.584176],[-56.063063,-24.587033],[-56.059075,-24.587442],[-56.057859,-24.586982],[-56.057025,-24.585952],[-56.054814,-24.584412],[-56.0525,-24.582153],[-56.045609,-24.581437],[-56.038941,-24.580293],[-56.035731,-24.575274],[-56.032833,-24.574036],[-56.031882,-24.572224],[-56.028669,-24.570158],[-56.027311,-24.568311],[-56.02663,-24.568027],[-56.025106,-24.568008],[-56.022849,-24.565989],[-56.022055,-24.564624],[-56.021721,-24.562197],[-56.020608,-24.56093],[-56.0189,-24.558057],[-56.017836,-24.557557],[-56.017168,-24.556804],[-56.016197,-24.556495],[-56.015526,-24.555181],[-56.014242,-24.553795],[-56.011656,-24.552126],[-56.008618,-24.54936],[-56.006792,-24.547402],[-56.006084,-24.54561],[-56.004986,-24.544288],[-55.997785,-24.538691],[-55.9964,-24.536826],[-55.994878,-24.535908],[-55.993665,-24.53409],[-55.992038,-24.533085],[-55.990965,-24.532938],[-55.989305,-24.530945],[-55.988034,-24.531009],[-55.985427,-24.5327],[-55.982957,-24.533584],[-55.983024,-24.534306],[-55.982482,-24.534692],[-55.982854,-24.535037],[-55.982306,-24.535292],[-55.982387,-24.535839],[-55.981596,-24.535443],[-55.982,-24.536696],[-55.981671,-24.536723],[-55.981574,-24.537299],[-55.981081,-24.537392],[-55.981355,-24.537676],[-55.980909,-24.538394],[-55.980103,-24.538209],[-55.980414,-24.538673],[-55.979741,-24.539041],[-55.979816,-24.539564],[-55.978497,-24.539429],[-55.978445,-24.540144],[-55.977278,-24.539914],[-55.977651,-24.540883],[-55.977373,-24.54117],[-55.977836,-24.541509],[-55.976466,-24.542005],[-55.976358,-24.542358],[-55.977091,-24.542712],[-55.976541,-24.543285],[-55.97624,-24.543217],[-55.976179,-24.542616],[-55.975627,-24.54263],[-55.975503,-24.54332],[-55.975063,-24.543317],[-55.974627,-24.542905],[-55.974495,-24.543752],[-55.974009,-24.543009],[-55.974156,-24.543485],[-55.973183,-24.543592],[-55.973272,-24.543905],[-55.972852,-24.543957],[-55.972743,-24.544346],[-55.970443,-24.544571],[-55.97027,-24.54487],[-55.969026,-24.545198],[-55.969055,-24.545643],[-55.968245,-24.545878],[-55.969644,-24.546656],[-55.968029,-24.546567],[-55.968271,-24.54753],[-55.967396,-24.547722],[-55.965621,-24.549506],[-55.962024,-24.550917],[-55.960389,-24.552432],[-55.958977,-24.553191],[-55.958971,-24.553864],[-55.958487,-24.554455],[-55.958894,-24.555311],[-55.958479,-24.555386],[-55.958621,-24.555766],[-55.958088,-24.555882],[-55.958393,-24.556281],[-55.958217,-24.55691],[-55.957668,-24.556666],[-55.956676,-24.557458],[-55.956157,-24.557437],[-55.955742,-24.558359],[-55.955142,-24.558649],[-55.955182,-24.559364],[-55.950681,-24.561988],[-55.951009,-24.562759],[-55.950005,-24.562692],[-55.95043,-24.562858],[-55.950245,-24.563097],[-55.949189,-24.562873],[-55.948965,-24.562181],[-55.948401,-24.562026],[-55.947203,-24.563087],[-55.945353,-24.562912],[-55.944629,-24.564969],[-55.944168,-24.564415],[-55.943901,-24.56514],[-55.942958,-24.565531],[-55.943148,-24.566092],[-55.942332,-24.567418],[-55.942913,-24.567932],[-55.94188,-24.568336],[-55.942608,-24.568662],[-55.942105,-24.568825],[-55.942545,-24.569199],[-55.942059,-24.569823],[-55.942138,-24.570379],[-55.940481,-24.57057],[-55.940031,-24.571768],[-55.940525,-24.57202],[-55.94064,-24.573276],[-55.941333,-24.573678],[-55.941469,-24.574176],[-55.941588,-24.575297],[-55.941234,-24.575854],[-55.941668,-24.576209],[-55.941467,-24.576668],[-55.941758,-24.577885],[-55.941314,-24.578153],[-55.94158,-24.578498],[-55.941213,-24.578784],[-55.941623,-24.579121],[-55.941761,-24.579809],[-55.941435,-24.580195],[-55.941604,-24.580494],[-55.94204,-24.580249],[-55.942453,-24.580545],[-55.942276,-24.581126],[-55.942841,-24.581198],[-55.942453,-24.581516],[-55.942469,-24.581918],[-55.943115,-24.582658],[-55.942817,-24.584656],[-55.943272,-24.585197],[-55.943073,-24.58548],[-55.943434,-24.585758],[-55.943469,-24.586259],[-55.943284,-24.587337],[-55.942545,-24.587874],[-55.942143,-24.59035],[-55.942446,-24.591206],[-55.943229,-24.591635],[-55.942919,-24.592581],[-55.943336,-24.593095],[-55.942953,-24.593548],[-55.943312,-24.593794],[-55.943376,-24.594684],[-55.94378,-24.594796],[-55.944133,-24.595471],[-55.943409,-24.596342],[-55.943859,-24.59658],[-55.9429,-24.59734],[-55.942906,-24.597688],[-55.943554,-24.598244],[-55.94333,-24.598436],[-55.943558,-24.598808],[-55.943091,-24.59932],[-55.943633,-24.599721],[-55.943258,-24.601488],[-55.942549,-24.602332],[-55.9425,-24.603226],[-55.941795,-24.604268],[-55.942102,-24.604695],[-55.942075,-24.605968],[-55.94157,-24.606976],[-55.940837,-24.61019],[-55.941752,-24.610318],[-55.941646,-24.610891],[-55.942507,-24.611728],[-55.942013,-24.611946],[-55.941982,-24.612365],[-55.942617,-24.61405],[-55.94197,-24.615147],[-55.942516,-24.615986],[-55.942973,-24.61617],[-55.944019,-24.619265],[-55.9429,-24.620409],[-55.942529,-24.621404],[-55.942782,-24.621903],[-55.941307,-24.622312],[-55.940816,-24.622936],[-55.939095,-24.623611],[-55.935173,-24.623542],[-55.934573,-24.624554],[-55.935279,-24.62539],[-55.93443,-24.626431],[-55.934299,-24.627103],[-55.933785,-24.62733],[-55.933838,-24.628035],[-55.93303,-24.628435],[-55.933359,-24.629246],[-55.932187,-24.629987],[-55.931784,-24.630734],[-55.931905,-24.631177],[-55.930652,-24.631462],[-55.929437,-24.63278],[-55.929919,-24.633488],[-55.929518,-24.634181],[-55.929572,-24.634759],[-55.9291,-24.634846],[-55.92912,-24.635406],[-55.928217,-24.636601],[-55.928723,-24.638212],[-55.928128,-24.638542],[-55.927927,-24.639109],[-55.926883,-24.639332],[-55.926336,-24.640073],[-55.92538,-24.64194],[-55.925561,-24.642971],[-55.92318,-24.643356],[-55.922838,-24.64422],[-55.921586,-24.644825],[-55.921371,-24.645514],[-55.921925,-24.645916],[-55.920735,-24.647831],[-55.919375,-24.647947],[-55.916732,-24.649491],[-55.916177,-24.650886],[-55.916281,-24.654138],[-55.915892,-24.654618],[-55.915798,-24.655805],[-55.915135,-24.65706],[-55.914293,-24.657411],[-55.913769,-24.658391],[-55.913135,-24.658757],[-55.913645,-24.659063],[-55.913442,-24.659622],[-55.913896,-24.660447],[-55.912871,-24.660949],[-55.912408,-24.661605],[-55.911718,-24.661578],[-55.911306,-24.662062],[-55.910672,-24.661922],[-55.910791,-24.662655],[-55.909764,-24.662688],[-55.910147,-24.663472],[-55.908779,-24.663945],[-55.907847,-24.664968],[-55.907021,-24.664993],[-55.907076,-24.664344],[-55.90513,-24.664794],[-55.903103,-24.664771],[-55.902101,-24.664249],[-55.901164,-24.664174],[-55.900148,-24.664916],[-55.898833,-24.665268],[-55.897579,-24.667137],[-55.896002,-24.666732],[-55.894451,-24.667032],[-55.893015,-24.668972],[-55.89164,-24.669843],[-55.891584,-24.670276],[-55.888939,-24.671268],[-55.887895,-24.67228],[-55.886382,-24.672793],[-55.886284,-24.673122],[-55.884389,-24.672241],[-55.883721,-24.672326],[-55.8821,-24.671822],[-55.880075,-24.672484],[-55.87902,-24.674612],[-55.877353,-24.675715],[-55.877798,-24.676341],[-55.876487,-24.677293],[-55.876509,-24.678034],[-55.875921,-24.678169],[-55.875378,-24.67961],[-55.874272,-24.679922],[-55.873908,-24.680538],[-55.873085,-24.680469],[-55.872687,-24.681089],[-55.870607,-24.682649],[-55.867036,-24.684857],[-55.866042,-24.687907],[-55.863884,-24.692405],[-55.863018,-24.693577],[-55.860012,-24.696422],[-55.857631,-24.701993],[-55.85654,-24.706008],[-55.855891,-24.710035],[-55.854632,-24.711854],[-55.853444,-24.715082],[-55.853205,-24.717437],[-55.853424,-24.718843],[-55.85255,-24.72281],[-55.851541,-24.724838],[-55.848279,-24.729012],[-55.84699,-24.730145],[-55.844395,-24.731452],[-55.845146,-24.735097],[-55.845012,-24.737787],[-55.841186,-24.744503],[-55.839998,-24.747709],[-55.84011,-24.751615],[-55.839579,-24.756375],[-55.839619,-24.761879],[-55.838209,-24.762504],[-55.836676,-24.762461],[-55.833417,-24.763713],[-55.829165,-24.764168],[-55.826166,-24.764072],[-55.825305,-24.764363],[-55.824735,-24.764986],[-55.824274,-24.766319],[-55.821241,-24.769528],[-55.821154,-24.770503],[-55.821919,-24.773543],[-55.821771,-24.774255],[-55.820961,-24.774867],[-55.819231,-24.77521],[-55.815216,-24.77479],[-55.812729,-24.775195],[-55.811949,-24.775446],[-55.811561,-24.776292],[-55.810827,-24.776679],[-55.805389,-24.776184],[-55.803844,-24.775662],[-55.801058,-24.775414],[-55.800375,-24.775756],[-55.799197,-24.778749],[-55.797376,-24.779344],[-55.792492,-24.777476],[-55.790488,-24.777139],[-55.787789,-24.778066],[-55.785744,-24.780392],[-55.78253,-24.782086],[-55.780484,-24.781848],[-55.777269,-24.78007],[-55.774214,-24.779129],[-55.773332,-24.779546],[-55.772363,-24.781489],[-55.771009,-24.782922],[-55.77056,-24.782932],[-55.766127,-24.78071],[-55.765099,-24.780512],[-55.759589,-24.782936],[-55.758833,-24.782452],[-55.758428,-24.781658],[-55.755894,-24.779899],[-55.754426,-24.779765],[-55.752458,-24.778692],[-55.750717,-24.776921],[-55.748989,-24.776545],[-55.746997,-24.776912],[-55.745112,-24.777867],[-55.740013,-24.778461],[-55.737509,-24.779424],[-55.73408,-24.781675],[-55.728738,-24.782867],[-55.72624,-24.782765],[-55.71961,-24.783801],[-55.701991,-24.78397],[-55.705766,-24.786315],[-55.706736,-24.788801],[-55.708015,-24.790957],[-55.707536,-24.798883],[-55.712114,-24.8199],[-55.716845,-24.826134],[-55.722873,-24.829572],[-55.729978,-24.825008],[-55.734321,-24.825127],[-55.739752,-24.824925],[-55.742382,-24.824369],[-55.745458,-24.824478],[-55.751626,-24.823043],[-55.755337,-24.822908],[-55.760217,-24.82361],[-55.766955,-24.819371],[-55.770482,-24.819648],[-55.776427,-24.822422],[-55.775851,-24.82757],[-55.778592,-24.832267],[-55.781163,-24.837822],[-55.785496,-24.838931],[-55.795014,-24.837356],[-55.797103,-24.836629],[-55.80897,-24.843836],[-55.814759,-24.844176],[-55.81911,-24.843476],[-55.826973,-24.845741],[-55.834292,-24.854607],[-55.840204,-24.859058],[-55.846136,-24.861453],[-55.852514,-24.861251],[-55.860147,-24.860386],[-55.868537,-24.857954],[-55.877761,-24.852273],[-55.881008,-24.849091],[-55.884079,-24.847499],[-55.895423,-24.852002],[-55.906363,-24.848092],[-55.90935,-24.846658],[-55.915933,-24.848321],[-55.921253,-24.847185],[-55.927202,-24.847668],[-55.935743,-24.846261],[-55.938318,-24.846133],[-55.946237,-24.842078],[-55.961869,-24.83925],[-55.966241,-24.835904],[-55.972534,-24.833745],[-55.982016,-24.834984],[-55.990516,-24.838419],[-55.989305,-24.849696],[-55.988705,-24.863221],[-55.997656,-24.870916],[-55.99956,-24.874306],[-56.015919,-24.881609],[-56.02349,-24.880778],[-56.024228,-24.889299],[-56.024258,-24.906038],[-56.027444,-24.910316],[-56.033275,-24.905803],[-56.050659,-24.906208],[-56.054821,-24.909318],[-56.06874,-24.921005],[-56.086539,-24.930953],[-56.088941,-24.932729],[-56.095232,-24.931299],[-56.099134,-24.926184],[-56.102968,-24.922314],[-56.110129,-24.919789],[-56.11883,-24.918813],[-56.125793,-24.913275],[-56.128896,-24.929885],[-56.128384,-24.935166],[-56.131739,-24.935479]]]}}]}
