{"type":"FeatureCollection","name":"distrito","features":[{"type":"Feature","properties":{"clave":"4-3","nombre":"Capitán Mauricio José Troche"},"geometry":{"type":"Polygon","coordinates":[[[-56.257951,-25.632853],[-56.257412,-25.633545],[-56.258351,-25.633629],[-56.258407,-25.633918],[-56.257552,-25.634202],[-56.257679,-25.634779],[-56.257199,-25.635144],[-56.258313,-25.635136],[-56.258438,-25.63595],[-56.257165,-25.636061],[-56.257648,-25.637401],[-56.257526,-25.638475],[-56.258725,-25.638573],[-56.259504,-25.638983],[-56.259083,-25.639269],[-56.258318,-25.639003],[-56.257767,-25.639171],[-56.25792,-25.640129],[-56.259745,-25.639745],[-56.260019,-25.639916],[-56.25914,-25.641708],[-56.261215,-25.640512],[-56.262053,-25.640739],[-56.262712,-25.641739],[-56.263102,-25.641741],[-56.263596,-25.641416],[-56.263413,-25.640628],[-56.265233,-25.640926],[-56.26521,-25.63993],[-56.266122,-25.639737],[-56.266965,-25.639021],[-56.268526,-25.639225],[-56.268557,-25.638871],[-56.267896,-25.638226],[-56.269344,-25.637814],[-56.270295,-25.638474],[-56.270536,-25.636823],[-56.270912,-25.636838],[-56.27114,-25.63739],[-56.271737,-25.636659],[-56.271465,-25.636304],[-56.270627,-25.636221],[-56.272499,-25.635129],[-56.271491,-25.634429],[-56.27132,-25.633996],[-56.271537,-25.633918],[-56.273111,-25.634293],[-56.274046,-25.635058],[-56.275764,-25.635552],[-56.276784,-25.636684],[-56.27719,-25.636607],[-56.277772,-25.635915],[-56.278013,-25.636821],[-56.278781,-25.636471],[-56.278456,-25.635198],[-56.278977,-25.635161],[-56.279508,-25.635767],[-56.279842,-25.635611],[-56.280866,-25.633558],[-56.281459,-25.6336],[-56.282393,-25.634627],[-56.283987,-25.634071],[-56.284689,-25.635202],[-56.285575,-25.634486],[-56.286394,-25.635368],[-56.286934,-25.634545],[-56.28786,-25.63451],[-56.290125,-25.635294],[-56.289608,-25.637271],[-56.291071,-25.636806],[-56.290874,-25.635796],[-56.291808,-25.636902],[-56.29311,-25.636829],[-56.293383,-25.63704],[-56.293366,-25.637525],[-56.292539,-25.63798],[-56.293054,-25.638992],[-56.293968,-25.638485],[-56.294022,-25.639102],[-56.293656,-25.639755],[-56.294178,-25.639653],[-56.295125,-25.638399],[-56.295559,-25.638388],[-56.296217,-25.63961],[-56.296899,-25.639129],[-56.298256,-25.639541],[-56.299722,-25.638696],[-56.299902,-25.637557],[-56.298339,-25.637733],[-56.2981,-25.63667],[-56.298967,-25.636661],[-56.299771,-25.635302],[-56.300826,-25.635385],[-56.30124,-25.636187],[-56.301598,-25.634458],[-56.301976,-25.634014],[-56.303019,-25.633757],[-56.302805,-25.63331],[-56.302011,-25.632979],[-56.302515,-25.632514],[-56.304269,-25.617169],[-56.305036,-25.595663],[-56.305924,-25.582733],[-56.306189,-25.56874],[-56.30395,-25.568729],[-56.302299,-25.56836],[-56.300908,-25.569225],[-56.299521,-25.569484],[-56.297874,-25.568438],[-56.295697,-25.5692],[-56.292163,-25.569038],[-56.29116,-25.571498],[-56.29172,-25.573804],[-56.290762,-25.575759],[-56.289674,-25.576963],[-56.289335,-25.580059],[-56.287609,-25.583225],[-56.287292,-25.585336],[-56.286866,-25.58598],[-56.286205,-25.586252],[-56.283906,-25.586408],[-56.283638,-25.586068],[-56.283828,-25.585319],[-56.283459,-25.584902],[-56.28186,-25.585233],[-56.280566,-25.584138],[-56.279335,-25.583613],[-56.276104,-25.58404],[-56.274435,-25.584966],[-56.273219,-25.584698],[-56.272062,-25.583284],[-56.271,-25.582818],[-56.268878,-25.582929],[-56.268627,-25.582639],[-56.268848,-25.582378],[-56.267363,-25.582064],[-56.267192,-25.582311],[-56.266095,-25.582044],[-56.264555,-25.582542],[-56.262197,-25.581243],[-56.262318,-25.580752],[-56.261758,-25.581119],[-56.261796,-25.580537],[-56.261011,-25.580271],[-56.261319,-25.579798],[-56.261121,-25.578876],[-56.258227,-25.576916],[-56.257144,-25.577064],[-56.256067,-25.57832],[-56.2555,-25.578003],[-56.253887,-25.574875],[-56.253669,-25.574784],[-56.253606,-25.575344],[-56.25313,-25.575373],[-56.253118,-25.574059],[-56.252564,-25.573808],[-56.252491,-25.57267],[-56.251994,-25.572848],[-56.251222,-25.572559],[-56.250882,-25.572878],[-56.25001,-25.572657],[-56.250017,-25.571862],[-56.249188,-25.571587],[-56.24553,-25.5722],[-56.244222,-25.575119],[-56.239484,-25.576363],[-56.238567,-25.576941],[-56.237375,-25.578398],[-56.236513,-25.578786],[-56.233822,-25.57926],[-56.232636,-25.579935],[-56.231182,-25.580266],[-56.22818,-25.578986],[-56.227536,-25.578983],[-56.226675,-25.579172],[-56.223436,-25.58125],[-56.221934,-25.580804],[-56.221619,-25.579683],[-56.220765,-25.578798],[-56.218402,-25.578397],[-56.217238,-25.578747],[-56.21462,-25.581447],[-56.213544,-25.581635],[-56.213008,-25.581389],[-56.212594,-25.578948],[-56.211689,-25.57763],[-56.208681,-25.577419],[-56.20793,-25.577072],[-56.20702,-25.575428],[-56.205814,-25.576898],[-56.204418,-25.577486],[-56.201991,-25.579347],[-56.195899,-25.58167],[-56.193371,-25.584049],[-56.190419,-25.584313],[-56.187158,-25.583545],[-56.186374,-25.583685],[-56.185419,-25.584633],[-56.184438,-25.584939],[-56.184103,-25.586011],[-56.183007,-25.587437],[-56.181092,-25.588275],[-56.179847,-25.589446],[-56.177103,-25.590203],[-56.174738,-25.590289],[-56.174731,-25.590523],[-56.173016,-25.590315],[-56.170927,-25.590628],[-56.170154,-25.590222],[-56.168045,-25.590707],[-56.154692,-25.599507],[-56.059975,-25.622427],[-55.943138,-25.626837],[-55.946439,-25.630827],[-55.950371,-25.630007],[-55.952194,-25.630115],[-55.954804,-25.628892],[-55.957751,-25.628321],[-55.959858,-25.628314],[-55.961039,-25.628747],[-55.962134,-25.631635],[-55.96294,-25.631956],[-55.964238,-25.633614],[-55.964351,-25.634585],[-55.966257,-25.636738],[-55.968351,-25.640139],[-55.969581,-25.641254],[-55.97313,-25.645889],[-55.973816,-25.646494],[-55.975265,-25.646621],[-55.978871,-25.648511],[-55.982927,-25.651095],[-55.983012,-25.651831],[-55.983426,-25.65215],[-55.985551,-25.652842],[-55.985885,-25.65405],[-55.986958,-25.65436],[-55.988704,-25.656097],[-55.989652,-25.656613],[-55.990127,-25.65789],[-55.991609,-25.659006],[-55.991622,-25.659503],[-55.992302,-25.660501],[-55.994368,-25.661689],[-55.994878,-25.661661],[-55.995471,-25.662374],[-55.995665,-25.662],[-55.995918,-25.662174],[-55.995936,-25.663668],[-55.996706,-25.664522],[-55.996678,-25.665122],[-55.9979,-25.666241],[-55.999698,-25.668881],[-56.001324,-25.669366],[-56.002061,-25.670225],[-56.00259,-25.670269],[-56.002915,-25.669869],[-56.003256,-25.670237],[-56.003168,-25.670693],[-56.003747,-25.670281],[-56.003955,-25.671285],[-56.004423,-25.671207],[-56.00456,-25.671655],[-56.004782,-25.671589],[-56.005227,-25.67463],[-56.006588,-25.674409],[-56.007285,-25.673687],[-56.008006,-25.673615],[-56.007954,-25.67427],[-56.008535,-25.675542],[-56.010383,-25.67583],[-56.012366,-25.674755],[-56.012244,-25.674263],[-56.01305,-25.673925],[-56.012814,-25.67353],[-56.013483,-25.673178],[-56.014635,-25.673064],[-56.014567,-25.673425],[-56.015228,-25.67426],[-56.015699,-25.674363],[-56.015609,-25.674877],[-56.016218,-25.674863],[-56.016215,-25.675404],[-56.016899,-25.674881],[-56.017057,-25.675397],[-56.017506,-25.674695],[-56.019076,-25.673929],[-56.019821,-25.674169],[-56.020146,-25.673607],[-56.021628,-25.673983],[-56.023064,-25.671979],[-56.023085,-25.671293],[-56.023769,-25.669965],[-56.026159,-25.668297],[-56.027072,-25.666886],[-56.027563,-25.666853],[-56.027227,-25.6663],[-56.027956,-25.666386],[-56.027762,-25.666005],[-56.028417,-25.66559],[-56.027885,-25.665284],[-56.028593,-25.664255],[-56.028537,-25.663803],[-56.029075,-25.663427],[-56.028928,-25.66274],[-56.028433,-25.662845],[-56.029438,-25.661678],[-56.03168,-25.661724],[-56.034363,-25.660334],[-56.03567,-25.661218],[-56.037282,-25.661166],[-56.037684,-25.661389],[-56.037848,-25.661133],[-56.038249,-25.661371],[-56.038759,-25.661062],[-56.039696,-25.661272],[-56.040078,-25.661762],[-56.041659,-25.661429],[-56.042216,-25.66183],[-56.042428,-25.661073],[-56.042071,-25.660046],[-56.04258,-25.65911],[-56.042246,-25.658823],[-56.042514,-25.658509],[-56.043233,-25.658288],[-56.044143,-25.658782],[-56.044635,-25.658528],[-56.045546,-25.658777],[-56.046408,-25.658056],[-56.048063,-25.657543],[-56.04845,-25.658218],[-56.048983,-25.658046],[-56.050345,-25.658578],[-56.052919,-25.657299],[-56.05407,-25.659072],[-56.054299,-25.660378],[-56.055572,-25.661303],[-56.056476,-25.661381],[-56.057788,-25.659534],[-56.058375,-25.657068],[-56.059615,-25.65681],[-56.060845,-25.657134],[-56.062127,-25.656885],[-56.062409,-25.656462],[-56.062348,-25.655252],[-56.064311,-25.653201],[-56.064808,-25.65227],[-56.065037,-25.652854],[-56.065307,-25.652625],[-56.06534,-25.652142],[-56.064932,-25.651887],[-56.065553,-25.651448],[-56.064918,-25.65125],[-56.065792,-25.650624],[-56.06566,-25.650289],[-56.065971,-25.650015],[-56.065201,-25.649482],[-56.065568,-25.649263],[-56.065293,-25.648918],[-56.065731,-25.648659],[-56.064941,-25.648244],[-56.065539,-25.64785],[-56.065443,-25.647177],[-56.065946,-25.647243],[-56.065522,-25.646672],[-56.066345,-25.64637],[-56.066485,-25.645517],[-56.067025,-25.645115],[-56.066868,-25.643651],[-56.067066,-25.642767],[-56.067382,-25.642638],[-56.067042,-25.642194],[-56.067706,-25.641471],[-56.067722,-25.640907],[-56.06967,-25.642161],[-56.070339,-25.643407],[-56.070882,-25.643527],[-56.071057,-25.644106],[-56.071909,-25.644468],[-56.072592,-25.644166],[-56.073756,-25.642385],[-56.0735,-25.640627],[-56.077069,-25.63925],[-56.079112,-25.639421],[-56.079729,-25.639814],[-56.079437,-25.643293],[-56.080319,-25.644106],[-56.081679,-25.64393],[-56.082121,-25.644136],[-56.082392,-25.643569],[-56.082896,-25.643508],[-56.083029,-25.642656],[-56.082711,-25.641877],[-56.08386,-25.642417],[-56.083905,-25.644115],[-56.084821,-25.644469],[-56.084511,-25.64653],[-56.085222,-25.647049],[-56.085969,-25.646792],[-56.08618,-25.64748],[-56.088564,-25.646212],[-56.089992,-25.644939],[-56.09177,-25.6443],[-56.093946,-25.644498],[-56.095039,-25.647413],[-56.094231,-25.649923],[-56.09773,-25.650387],[-56.097792,-25.650852],[-56.09694,-25.652364],[-56.097484,-25.653446],[-56.098182,-25.653509],[-56.099537,-25.652046],[-56.101277,-25.651095],[-56.10179,-25.654037],[-56.102121,-25.654432],[-56.106775,-25.654004],[-56.109469,-25.654752],[-56.110098,-25.655379],[-56.11073,-25.655229],[-56.110869,-25.656747],[-56.109777,-25.656547],[-56.109458,-25.657818],[-56.108327,-25.657716],[-56.107665,-25.658213],[-56.107235,-25.657809],[-56.106496,-25.658779],[-56.107997,-25.658608],[-56.107759,-25.659144],[-56.108328,-25.660001],[-56.11125,-25.659617],[-56.110885,-25.660522],[-56.111352,-25.660922],[-56.111736,-25.659737],[-56.11241,-25.660125],[-56.113073,-25.659578],[-56.113666,-25.660024],[-56.114237,-25.659621],[-56.113655,-25.659342],[-56.113994,-25.658956],[-56.114813,-25.659593],[-56.115319,-25.659637],[-56.11475,-25.65864],[-56.115507,-25.658902],[-56.116013,-25.658476],[-56.116421,-25.658903],[-56.116642,-25.65853],[-56.117424,-25.658656],[-56.11828,-25.658083],[-56.119019,-25.658386],[-56.1197,-25.657279],[-56.121025,-25.657116],[-56.121111,-25.655965],[-56.12215,-25.655628],[-56.122739,-25.655867],[-56.124107,-25.654186],[-56.123796,-25.653548],[-56.124645,-25.653643],[-56.124264,-25.652941],[-56.12441,-25.65249],[-56.124921,-25.652263],[-56.126184,-25.652393],[-56.126783,-25.651909],[-56.127265,-25.65207],[-56.12767,-25.65135],[-56.128711,-25.650913],[-56.128781,-25.65044],[-56.128044,-25.649609],[-56.128961,-25.648062],[-56.130121,-25.647888],[-56.130001,-25.647192],[-56.131412,-25.647507],[-56.131162,-25.646693],[-56.132589,-25.647406],[-56.133936,-25.647698],[-56.134336,-25.647299],[-56.135084,-25.647669],[-56.135167,-25.647024],[-56.135469,-25.646854],[-56.136052,-25.647273],[-56.137282,-25.645357],[-56.138987,-25.644012],[-56.139956,-25.642424],[-56.140153,-25.640674],[-56.14138,-25.640302],[-56.141101,-25.63937],[-56.141353,-25.638758],[-56.142035,-25.638003],[-56.143256,-25.637392],[-56.144052,-25.637631],[-56.145443,-25.637039],[-56.146182,-25.637743],[-56.14532,-25.637837],[-56.145819,-25.638454],[-56.147267,-25.638183],[-56.14761,-25.638496],[-56.148331,-25.638392],[-56.148533,-25.638903],[-56.149386,-25.639152],[-56.150298,-25.64002],[-56.152374,-25.639784],[-56.154002,-25.638953],[-56.154876,-25.63927],[-56.155911,-25.63905],[-56.157103,-25.639716],[-56.157635,-25.63915],[-56.159227,-25.640081],[-56.159549,-25.639455],[-56.161084,-25.639473],[-56.163985,-25.638492],[-56.164407,-25.638706],[-56.166393,-25.638605],[-56.167039,-25.637728],[-56.168636,-25.637507],[-56.169255,-25.636707],[-56.169227,-25.635898],[-56.170089,-25.633885],[-56.172599,-25.635398],[-56.173476,-25.634875],[-56.176396,-25.635302],[-56.17589,-25.634406],[-56.175974,-25.633788],[-56.177259,-25.633036],[-56.177738,-25.633648],[-56.178261,-25.633755],[-56.1784,-25.632767],[-56.178953,-25.632337],[-56.181128,-25.633275],[-56.182646,-25.634755],[-56.182723,-25.635324],[-56.184003,-25.635192],[-56.18441,-25.635862],[-56.184883,-25.635359],[-56.185572,-25.635909],[-56.185987,-25.637013],[-56.187314,-25.63684],[-56.186997,-25.637917],[-56.188823,-25.639015],[-56.187863,-25.639322],[-56.188653,-25.639588],[-56.188602,-25.640147],[-56.189404,-25.639646],[-56.189924,-25.640484],[-56.189661,-25.64079],[-56.19037,-25.641778],[-56.190925,-25.641506],[-56.191612,-25.641636],[-56.19195,-25.641308],[-56.192208,-25.641824],[-56.193313,-25.641785],[-56.193723,-25.641517],[-56.193729,-25.642384],[-56.19541,-25.640858],[-56.194939,-25.640485],[-56.195104,-25.639912],[-56.194639,-25.639662],[-56.195249,-25.639548],[-56.195563,-25.639102],[-56.195363,-25.63897],[-56.195862,-25.638874],[-56.196801,-25.639236],[-56.196577,-25.638521],[-56.196846,-25.638202],[-56.198089,-25.63894],[-56.198809,-25.638651],[-56.198638,-25.639313],[-56.19938,-25.639787],[-56.200252,-25.638415],[-56.201097,-25.63832],[-56.201367,-25.63936],[-56.201845,-25.63911],[-56.202655,-25.640144],[-56.203237,-25.63979],[-56.203024,-25.641053],[-56.203699,-25.640894],[-56.204735,-25.641708],[-56.204806,-25.642932],[-56.206231,-25.642854],[-56.206667,-25.643809],[-56.207187,-25.643654],[-56.208361,-25.644256],[-56.209053,-25.646811],[-56.209515,-25.647319],[-56.208847,-25.648512],[-56.209402,-25.648835],[-56.210493,-25.64806],[-56.212539,-25.648622],[-56.213717,-25.648181],[-56.214431,-25.646244],[-56.214991,-25.645849],[-56.21551,-25.645857],[-56.216467,-25.646553],[-56.216986,-25.646488],[-56.217,-25.645246],[-56.216597,-25.644328],[-56.217063,-25.643761],[-56.216529,-25.643117],[-56.216622,-25.642648],[-56.217498,-25.642201],[-56.217586,-25.643881],[-56.218914,-25.643988],[-56.219221,-25.642576],[-56.218881,-25.641694],[-56.218091,-25.641758],[-56.217996,-25.64136],[-56.219197,-25.640544],[-56.219482,-25.640614],[-56.21998,-25.641971],[-56.22162,-25.641203],[-56.221565,-25.640607],[-56.220657,-25.641062],[-56.22007,-25.640892],[-56.220091,-25.63975],[-56.221532,-25.638697],[-56.220961,-25.637917],[-56.22133,-25.637147],[-56.219966,-25.636761],[-56.221219,-25.636009],[-56.220756,-25.635148],[-56.221948,-25.635073],[-56.221358,-25.6341],[-56.222983,-25.633986],[-56.223642,-25.634283],[-56.224425,-25.633511],[-56.224067,-25.631988],[-56.225185,-25.631063],[-56.224453,-25.630274],[-56.224709,-25.629174],[-56.223694,-25.628952],[-56.223712,-25.628631],[-56.225132,-25.628485],[-56.225627,-25.628971],[-56.226143,-25.628861],[-56.226223,-25.629403],[-56.226739,-25.629388],[-56.228589,-25.627488],[-56.229734,-25.627141],[-56.229041,-25.626867],[-56.229217,-25.626579],[-56.230448,-25.626685],[-56.230379,-25.626003],[-56.230817,-25.626109],[-56.231156,-25.627339],[-56.232251,-25.627132],[-56.232617,-25.627893],[-56.232806,-25.627],[-56.233525,-25.626141],[-56.233055,-25.625511],[-56.233255,-25.625295],[-56.234473,-25.626114],[-56.234191,-25.62679],[-56.235298,-25.626331],[-56.235139,-25.625278],[-56.236827,-25.625206],[-56.236838,-25.626059],[-56.237107,-25.626097],[-56.237441,-25.625213],[-56.237137,-25.624485],[-56.238507,-25.623883],[-56.238813,-25.623252],[-56.240014,-25.623105],[-56.239732,-25.622512],[-56.24137,-25.622362],[-56.24286,-25.622704],[-56.243379,-25.622066],[-56.242848,-25.621539],[-56.243183,-25.621076],[-56.243813,-25.621368],[-56.244366,-25.622811],[-56.245067,-25.621813],[-56.246207,-25.621954],[-56.245623,-25.621048],[-56.246376,-25.62032],[-56.246673,-25.621821],[-56.247759,-25.622264],[-56.247338,-25.623066],[-56.248021,-25.624018],[-56.247084,-25.623954],[-56.247212,-25.624397],[-56.247989,-25.624794],[-56.247778,-25.625389],[-56.246503,-25.625468],[-56.247853,-25.626143],[-56.249569,-25.626089],[-56.249433,-25.626454],[-56.247876,-25.6272],[-56.247986,-25.627625],[-56.249901,-25.627057],[-56.250195,-25.628557],[-56.251026,-25.628214],[-56.252682,-25.629017],[-56.252554,-25.629319],[-56.251455,-25.629792],[-56.25189,-25.631902],[-56.252671,-25.631911],[-56.254542,-25.630945],[-56.255056,-25.631901],[-56.255834,-25.631891],[-56.255685,-25.633082],[-56.256067,-25.632958],[-56.256532,-25.632146],[-56.25775,-25.63244],[-56.257951,-25.632853]]]}}]}
