{"type":"FeatureCollection","name":"distrito","features":[{"type":"Feature","properties":{"clave":"9-0","nombre":"Paraguarí"},"geometry":{"type":"Polygon","coordinates":[[[-57.195169,-25.774504],[-57.194839,-25.774144],[-57.195384,-25.77305],[-57.194987,-25.772658],[-57.195232,-25.772342],[-57.19574,-25.772278],[-57.196726,-25.773071],[-57.197228,-25.772276],[-57.198439,-25.771809],[-57.199281,-25.771582],[-57.200029,-25.771847],[-57.202435,-25.770824],[-57.205587,-25.770137],[-57.205692,-25.769731],[-57.204727,-25.769656],[-57.204395,-25.769218],[-57.20452,-25.768505],[-57.205361,-25.768765],[-57.205725,-25.768381],[-57.205031,-25.767366],[-57.205097,-25.766969],[-57.206977,-25.766912],[-57.207144,-25.766437],[-57.208218,-25.765646],[-57.208744,-25.765975],[-57.208885,-25.765338],[-57.209659,-25.764492],[-57.211707,-25.763993],[-57.211649,-25.763397],[-57.212284,-25.762556],[-57.213205,-25.763142],[-57.214295,-25.762594],[-57.215001,-25.762986],[-57.215231,-25.762222],[-57.215785,-25.762343],[-57.216509,-25.761597],[-57.215746,-25.761061],[-57.216722,-25.760269],[-57.21628,-25.759837],[-57.216515,-25.758983],[-57.215721,-25.758975],[-57.214792,-25.756827],[-57.214845,-25.754764],[-57.214029,-25.754688],[-57.213202,-25.753913],[-57.214175,-25.753532],[-57.214238,-25.752385],[-57.214668,-25.752498],[-57.215115,-25.753355],[-57.215699,-25.751575],[-57.216748,-25.750661],[-57.216936,-25.749067],[-57.218936,-25.74822],[-57.219566,-25.746892],[-57.218827,-25.746107],[-57.218846,-25.745547],[-57.221189,-25.74441],[-57.22314,-25.744471],[-57.223388,-25.743829],[-57.223933,-25.743652],[-57.224738,-25.743683],[-57.224395,-25.744604],[-57.22474,-25.744884],[-57.226445,-25.744407],[-57.227293,-25.744825],[-57.22765,-25.744707],[-57.227836,-25.744192],[-57.228544,-25.744106],[-57.229573,-25.742998],[-57.228832,-25.742015],[-57.227038,-25.741787],[-57.227564,-25.739308],[-57.229084,-25.740827],[-57.229108,-25.73991],[-57.229939,-25.73966],[-57.230902,-25.73844],[-57.231428,-25.738439],[-57.232253,-25.739092],[-57.233112,-25.738463],[-57.233407,-25.737592],[-57.23336,-25.735605],[-57.234007,-25.735058],[-57.234085,-25.734538],[-57.235165,-25.73455],[-57.235139,-25.733114],[-57.234959,-25.73255],[-57.234098,-25.732064],[-57.233974,-25.731473],[-57.234469,-25.731029],[-57.234352,-25.730795],[-57.232475,-25.730373],[-57.232477,-25.729606],[-57.232874,-25.728955],[-57.232304,-25.728423],[-57.232789,-25.728152],[-57.232946,-25.727587],[-57.2336,-25.727563],[-57.234423,-25.726424],[-57.234125,-25.725774],[-57.234256,-25.725007],[-57.233554,-25.723202],[-57.234693,-25.722884],[-57.234745,-25.721868],[-57.235274,-25.721348],[-57.233961,-25.720709],[-57.233034,-25.72076],[-57.233378,-25.720073],[-57.233101,-25.719464],[-57.233607,-25.719274],[-57.23387,-25.718393],[-57.23366,-25.71721],[-57.234375,-25.716857],[-57.235007,-25.71556],[-57.235817,-25.714863],[-57.235675,-25.713058],[-57.238571,-25.711107],[-57.237976,-25.708611],[-57.238355,-25.707197],[-57.2392,-25.706564],[-57.241353,-25.706181],[-57.241196,-25.705084],[-57.24028,-25.70481],[-57.239891,-25.704179],[-57.2391,-25.70404],[-57.239775,-25.703118],[-57.23974,-25.702219],[-57.2382,-25.701228],[-57.237793,-25.699951],[-57.238988,-25.698965],[-57.238725,-25.698451],[-57.238936,-25.69785],[-57.239978,-25.697189],[-57.240104,-25.695645],[-57.240506,-25.695405],[-57.241086,-25.695855],[-57.241751,-25.695782],[-57.242311,-25.696499],[-57.242672,-25.696552],[-57.243038,-25.696154],[-57.24445,-25.695773],[-57.244945,-25.693375],[-57.246162,-25.693097],[-57.247337,-25.693515],[-57.24874,-25.692384],[-57.249232,-25.693002],[-57.249052,-25.69353],[-57.249659,-25.694202],[-57.249643,-25.694604],[-57.249115,-25.694943],[-57.249448,-25.696117],[-57.250249,-25.696716],[-57.251068,-25.696385],[-57.252286,-25.697168],[-57.253301,-25.698115],[-57.253569,-25.699089],[-57.254281,-25.698659],[-57.255728,-25.69863],[-57.256122,-25.695888],[-57.256469,-25.695409],[-57.255707,-25.695216],[-57.257297,-25.693705],[-57.256671,-25.691571],[-57.256845,-25.691002],[-57.258019,-25.690995],[-57.257933,-25.69184],[-57.258491,-25.692249],[-57.259122,-25.693698],[-57.260135,-25.694025],[-57.260681,-25.693596],[-57.26092,-25.69285],[-57.260693,-25.691586],[-57.261663,-25.690673],[-57.260569,-25.689573],[-57.260728,-25.689157],[-57.262462,-25.689109],[-57.262589,-25.689745],[-57.264289,-25.690605],[-57.265422,-25.690625],[-57.266089,-25.690141],[-57.266128,-25.689685],[-57.2656,-25.689234],[-57.265997,-25.688466],[-57.264687,-25.687141],[-57.265217,-25.685058],[-57.266805,-25.684834],[-57.266606,-25.68567],[-57.267088,-25.686026],[-57.268802,-25.685476],[-57.269031,-25.686419],[-57.269979,-25.685966],[-57.270359,-25.684227],[-57.269055,-25.683634],[-57.268665,-25.680885],[-57.268973,-25.680464],[-57.270018,-25.680133],[-57.269196,-25.679281],[-57.269446,-25.678138],[-57.270265,-25.677206],[-57.270054,-25.675997],[-57.267189,-25.671854],[-57.264828,-25.67183],[-57.26435,-25.672056],[-57.261438,-25.671813],[-57.25693,-25.672666],[-57.255473,-25.672379],[-57.255246,-25.67219],[-57.255139,-25.669635],[-57.254751,-25.669121],[-57.247922,-25.666356],[-57.244752,-25.665733],[-57.242401,-25.663362],[-57.239518,-25.661304],[-57.236566,-25.659958],[-57.231571,-25.65686],[-57.230195,-25.657196],[-57.227837,-25.657191],[-57.224532,-25.658596],[-57.223331,-25.658458],[-57.22279,-25.659325],[-57.222824,-25.660454],[-57.222396,-25.66087],[-57.219392,-25.661092],[-57.217887,-25.659694],[-57.216936,-25.659357],[-57.216373,-25.659507],[-57.216354,-25.66064],[-57.215393,-25.660172],[-57.213976,-25.661014],[-57.213235,-25.661232],[-57.211753,-25.661103],[-57.210628,-25.662021],[-57.209344,-25.662073],[-57.208697,-25.661875],[-57.207589,-25.660883],[-57.207151,-25.660956],[-57.206912,-25.661412],[-57.20639,-25.661413],[-57.204636,-25.660594],[-57.204593,-25.660147],[-57.203978,-25.660148],[-57.203215,-25.659629],[-57.202068,-25.660078],[-57.199803,-25.659842],[-57.199573,-25.659567],[-57.199094,-25.659938],[-57.198811,-25.659645],[-57.198635,-25.659997],[-57.197977,-25.659637],[-57.1978,-25.660061],[-57.197017,-25.65981],[-57.195943,-25.660389],[-57.195775,-25.659879],[-57.194815,-25.659632],[-57.192807,-25.656655],[-57.191041,-25.655203],[-57.190559,-25.653953],[-57.190016,-25.653796],[-57.189723,-25.653286],[-57.189024,-25.653296],[-57.186997,-25.651677],[-57.183188,-25.651014],[-57.183158,-25.651809],[-57.182583,-25.651683],[-57.182042,-25.652018],[-57.181498,-25.651413],[-57.179714,-25.651727],[-57.179139,-25.651114],[-57.17825,-25.639159],[-57.184478,-25.635322],[-57.182987,-25.628455],[-57.182509,-25.619711],[-57.181531,-25.616772],[-57.183484,-25.615836],[-57.183181,-25.612206],[-57.18091,-25.605066],[-57.184417,-25.603708],[-57.186619,-25.603456],[-57.183951,-25.591445],[-57.186912,-25.586885],[-57.195695,-25.583149],[-57.198534,-25.580914],[-57.20162,-25.577266],[-57.207339,-25.572725],[-57.216493,-25.562232],[-57.222931,-25.552583],[-57.21807,-25.551109],[-57.207926,-25.548703],[-57.203719,-25.547386],[-57.201229,-25.545471],[-57.199767,-25.54555],[-57.196386,-25.544385],[-57.195895,-25.544042],[-57.194533,-25.541728],[-57.194615,-25.540965],[-57.194166,-25.540699],[-57.193855,-25.539963],[-57.193249,-25.539657],[-57.192515,-25.537366],[-57.191007,-25.53607],[-57.188064,-25.53253],[-57.187211,-25.532012],[-57.188076,-25.531907],[-57.187961,-25.531482],[-57.188335,-25.531247],[-57.18903,-25.531332],[-57.189374,-25.529796],[-57.188354,-25.530064],[-57.187162,-25.531127],[-57.186009,-25.530243],[-57.185397,-25.530167],[-57.184028,-25.530697],[-57.183311,-25.53008],[-57.181941,-25.529743],[-57.181652,-25.530628],[-57.181329,-25.529978],[-57.180769,-25.529902],[-57.179297,-25.530789],[-57.178601,-25.530347],[-57.178083,-25.530357],[-57.177399,-25.531076],[-57.176818,-25.531216],[-57.175643,-25.52971],[-57.174823,-25.52939],[-57.172677,-25.530165],[-57.171369,-25.530175],[-57.169095,-25.528656],[-57.168806,-25.529406],[-57.167635,-25.530419],[-57.166369,-25.530145],[-57.165631,-25.529514],[-57.164138,-25.530206],[-57.162893,-25.530253],[-57.160692,-25.529135],[-57.159069,-25.525981],[-57.158167,-25.525824],[-57.157916,-25.524966],[-57.156143,-25.525496],[-57.156073,-25.527673],[-57.154975,-25.528776],[-57.151904,-25.528973],[-57.149986,-25.529779],[-57.14681,-25.529055],[-57.145843,-25.528],[-57.142636,-25.528454],[-57.142214,-25.527886],[-57.132855,-25.527316],[-57.129893,-25.527532],[-57.128717,-25.530216],[-57.122408,-25.534526],[-57.118308,-25.536354],[-57.116821,-25.537413],[-57.114891,-25.537998],[-57.113044,-25.537654],[-57.112157,-25.53884],[-57.111315,-25.541431],[-57.111317,-25.542854],[-57.110789,-25.543894],[-57.110919,-25.546847],[-57.106672,-25.551078],[-57.104422,-25.554657],[-57.102784,-25.555773],[-57.099766,-25.559538],[-57.098489,-25.563162],[-57.096339,-25.564697],[-57.094855,-25.566556],[-57.094242,-25.569065],[-57.093629,-25.570273],[-57.092656,-25.570831],[-57.091018,-25.572458],[-57.090302,-25.573945],[-57.090458,-25.576547],[-57.091688,-25.578311],[-57.091843,-25.579705],[-57.089182,-25.58254],[-57.086673,-25.583749],[-57.08204,-25.583482],[-57.083155,-25.584999],[-57.085135,-25.598791],[-57.087011,-25.607902],[-57.087064,-25.60941],[-57.087646,-25.610796],[-57.088357,-25.611251],[-57.088656,-25.612732],[-57.090346,-25.614492],[-57.090089,-25.615052],[-57.090505,-25.617413],[-57.089591,-25.620683],[-57.090703,-25.622249],[-57.090582,-25.62317],[-57.09159,-25.62479],[-57.092719,-25.625566],[-57.093097,-25.626889],[-57.093113,-25.628853],[-57.093967,-25.630004],[-57.095145,-25.630884],[-57.094326,-25.632022],[-57.094445,-25.632826],[-57.094045,-25.633268],[-57.094966,-25.634338],[-57.094574,-25.635228],[-57.092999,-25.636041],[-57.092444,-25.637148],[-57.088576,-25.639173],[-57.08617,-25.642376],[-57.083624,-25.644535],[-57.083455,-25.645479],[-57.081875,-25.645611],[-57.080925,-25.646018],[-57.078188,-25.648516],[-57.076729,-25.650495],[-57.076076,-25.65073],[-57.076144,-25.654915],[-57.074816,-25.656234],[-57.074231,-25.657657],[-57.074358,-25.658474],[-57.075735,-25.659688],[-57.075396,-25.660424],[-57.07561,-25.661381],[-57.075089,-25.662691],[-57.075334,-25.663413],[-57.074362,-25.664579],[-57.074134,-25.665965],[-57.074965,-25.666949],[-57.075297,-25.666976],[-57.075266,-25.667667],[-57.075748,-25.667752],[-57.075788,-25.668222],[-57.07665,-25.668135],[-57.076287,-25.668944],[-57.076904,-25.66926],[-57.076779,-25.671111],[-57.07746,-25.672451],[-57.077161,-25.673227],[-57.079724,-25.675665],[-57.079346,-25.677756],[-57.079939,-25.677972],[-57.081095,-25.679321],[-57.081008,-25.680143],[-57.081815,-25.680229],[-57.082386,-25.681628],[-57.083201,-25.682165],[-57.08381,-25.681794],[-57.083613,-25.682359],[-57.08495,-25.68401],[-57.085544,-25.68457],[-57.08609,-25.684326],[-57.085932,-25.684904],[-57.086701,-25.687193],[-57.087729,-25.687314],[-57.088766,-25.688081],[-57.089787,-25.687746],[-57.091843,-25.68784],[-57.092318,-25.687537],[-57.093354,-25.687789],[-57.095166,-25.687612],[-57.096312,-25.68641],[-57.097403,-25.685872],[-57.099374,-25.687446],[-57.101233,-25.688298],[-57.101922,-25.688221],[-57.102326,-25.689445],[-57.104179,-25.691796],[-57.107162,-25.692435],[-57.108118,-25.691581],[-57.109803,-25.690983],[-57.111465,-25.691226],[-57.109507,-25.692717],[-57.107935,-25.69568],[-57.107861,-25.696737],[-57.106089,-25.701136],[-57.10519,-25.702469],[-57.101804,-25.704277],[-57.100929,-25.705081],[-57.098617,-25.705733],[-57.09688,-25.706655],[-57.095756,-25.708372],[-57.095219,-25.708733],[-57.09418,-25.708134],[-57.093893,-25.708351],[-57.093242,-25.708008],[-57.09218,-25.708045],[-57.090792,-25.708443],[-57.086218,-25.710834],[-57.08483,-25.710731],[-57.084205,-25.710948],[-57.082563,-25.712705],[-57.082081,-25.714408],[-57.080825,-25.716129],[-57.08061,-25.717036],[-57.079675,-25.71757],[-57.078848,-25.718848],[-57.078119,-25.719155],[-57.077353,-25.720249],[-57.076291,-25.720502],[-57.073913,-25.72216],[-57.070281,-25.723544],[-57.069243,-25.724316],[-57.066,-25.725144],[-57.065049,-25.72621],[-57.064513,-25.727429],[-57.063035,-25.728861],[-57.060795,-25.729648],[-57.059524,-25.730705],[-57.058823,-25.731531],[-57.058841,-25.732412],[-57.057026,-25.736846],[-57.054649,-25.739335],[-57.052565,-25.742627],[-57.050861,-25.743829],[-57.050135,-25.74643],[-57.049219,-25.747816],[-57.049046,-25.748737],[-57.045969,-25.752229],[-57.044672,-25.753064],[-57.043068,-25.753309],[-57.041428,-25.753296],[-57.040741,-25.752993],[-57.040048,-25.753689],[-57.038094,-25.752949],[-57.036848,-25.753216],[-57.035968,-25.752764],[-57.032836,-25.753803],[-57.030593,-25.753745],[-57.030727,-25.754278],[-57.02876,-25.754662],[-57.021429,-25.757914],[-57.021806,-25.758041],[-57.023731,-25.763585],[-57.022344,-25.768109],[-57.01619,-25.776376],[-57.016727,-25.776562],[-57.017556,-25.778228],[-57.018897,-25.779524],[-57.019612,-25.781926],[-57.02061,-25.783294],[-57.020843,-25.784725],[-57.0216,-25.786084],[-57.023559,-25.78644],[-57.024288,-25.786219],[-57.02492,-25.786593],[-57.025922,-25.786498],[-57.026572,-25.785473],[-57.028188,-25.785884],[-57.029505,-25.785202],[-57.030279,-25.785256],[-57.031263,-25.786127],[-57.033178,-25.786267],[-57.034873,-25.787228],[-57.035989,-25.787016],[-57.037,-25.787973],[-57.040514,-25.788568],[-57.041287,-25.788847],[-57.041472,-25.789245],[-57.042227,-25.789339],[-57.04329,-25.790179],[-57.043762,-25.790174],[-57.044182,-25.790698],[-57.043636,-25.791632],[-57.044001,-25.793181],[-57.045331,-25.79458],[-57.047778,-25.795627],[-57.047968,-25.795916],[-57.047652,-25.796769],[-57.048808,-25.797536],[-57.048912,-25.798435],[-57.050955,-25.79922],[-57.052934,-25.799341],[-57.05371,-25.800081],[-57.054811,-25.80051],[-57.054781,-25.801602],[-57.055264,-25.802659],[-57.055015,-25.804149],[-57.054566,-25.804718],[-57.054625,-25.806271],[-57.055207,-25.80656],[-57.057279,-25.809394],[-57.058111,-25.809742],[-57.058494,-25.810392],[-57.059193,-25.810437],[-57.059683,-25.810224],[-57.059758,-25.809393],[-57.060406,-25.809217],[-57.061222,-25.809587],[-57.062927,-25.811157],[-57.066754,-25.812199],[-57.06707,-25.812546],[-57.06761,-25.812356],[-57.068817,-25.812979],[-57.070463,-25.813037],[-57.071503,-25.813614],[-57.071887,-25.815113],[-57.074108,-25.81601],[-57.074482,-25.81657],[-57.074658,-25.818128],[-57.075399,-25.818362],[-57.077261,-25.818253],[-57.077387,-25.81888],[-57.077718,-25.816884],[-57.078276,-25.817178],[-57.078782,-25.8165],[-57.079523,-25.817055],[-57.079988,-25.816743],[-57.081594,-25.816801],[-57.081759,-25.815564],[-57.082964,-25.814466],[-57.083247,-25.81452],[-57.083156,-25.815324],[-57.083896,-25.815174],[-57.084835,-25.813612],[-57.085991,-25.813688],[-57.086356,-25.812717],[-57.087146,-25.812432],[-57.087662,-25.812928],[-57.088012,-25.812869],[-57.088975,-25.811153],[-57.088708,-25.810178],[-57.089008,-25.810128],[-57.089399,-25.810593],[-57.089772,-25.809233],[-57.090221,-25.80894],[-57.090154,-25.8087],[-57.089389,-25.808638],[-57.089946,-25.808254],[-57.090012,-25.807229],[-57.091189,-25.806618],[-57.092886,-25.806766],[-57.093057,-25.80641],[-57.092608,-25.805543],[-57.093376,-25.805574],[-57.093824,-25.805014],[-57.092874,-25.804455],[-57.093183,-25.804089],[-57.094826,-25.804282],[-57.095072,-25.804869],[-57.096598,-25.805008],[-57.097089,-25.805386],[-57.098956,-25.804789],[-57.09965,-25.805407],[-57.09997,-25.805186],[-57.099831,-25.8045],[-57.100589,-25.804829],[-57.100567,-25.804052],[-57.102295,-25.803283],[-57.103074,-25.803612],[-57.105005,-25.802794],[-57.104984,-25.803462],[-57.105326,-25.803633],[-57.106456,-25.802987],[-57.108089,-25.80313],[-57.107651,-25.802173],[-57.107992,-25.801708],[-57.109817,-25.802005],[-57.111651,-25.800387],[-57.111639,-25.800039],[-57.110082,-25.80028],[-57.109953,-25.799761],[-57.111808,-25.798111],[-57.112161,-25.798495],[-57.112428,-25.798409],[-57.1128,-25.7969],[-57.114326,-25.797229],[-57.114679,-25.797987],[-57.115084,-25.797418],[-57.115394,-25.798072],[-57.116066,-25.797783],[-57.116279,-25.798315],[-57.117112,-25.798373],[-57.119685,-25.799396],[-57.120538,-25.799328],[-57.120325,-25.799545],[-57.120667,-25.799707],[-57.121819,-25.799241],[-57.122491,-25.799349],[-57.122533,-25.798816],[-57.122982,-25.799434],[-57.123859,-25.799348],[-57.124052,-25.798747],[-57.126068,-25.79893],[-57.125947,-25.797996],[-57.126821,-25.79748],[-57.126464,-25.79702],[-57.126585,-25.796695],[-57.127981,-25.796549],[-57.128639,-25.797118],[-57.129627,-25.796945],[-57.131033,-25.795499],[-57.130227,-25.794484],[-57.131327,-25.794329],[-57.131878,-25.794731],[-57.13175,-25.793548],[-57.132553,-25.794053],[-57.134401,-25.792344],[-57.136541,-25.792329],[-57.136497,-25.791733],[-57.137101,-25.790911],[-57.137993,-25.791253],[-57.13963,-25.791202],[-57.139901,-25.790493],[-57.139513,-25.789116],[-57.139918,-25.787833],[-57.140591,-25.786898],[-57.141418,-25.786802],[-57.142027,-25.786115],[-57.142472,-25.784061],[-57.143298,-25.783866],[-57.144316,-25.784163],[-57.144861,-25.783494],[-57.146933,-25.782932],[-57.148058,-25.782064],[-57.149192,-25.781693],[-57.149298,-25.781033],[-57.149839,-25.780726],[-57.149855,-25.77971],[-57.151487,-25.779997],[-57.152,-25.778818],[-57.154491,-25.778405],[-57.155469,-25.777604],[-57.155805,-25.776394],[-57.159333,-25.77476],[-57.159366,-25.77402],[-57.158241,-25.77417],[-57.158164,-25.773646],[-57.158432,-25.773447],[-57.160529,-25.773224],[-57.161548,-25.772812],[-57.163051,-25.773198],[-57.163582,-25.77411],[-57.162851,-25.7744],[-57.162798,-25.774774],[-57.164248,-25.774719],[-57.165495,-25.775778],[-57.166284,-25.775953],[-57.166385,-25.776865],[-57.167446,-25.776209],[-57.167831,-25.775432],[-57.167684,-25.774647],[-57.16912,-25.773327],[-57.169474,-25.773453],[-57.169832,-25.774441],[-57.170363,-25.773926],[-57.171735,-25.774412],[-57.172496,-25.773951],[-57.174746,-25.77449],[-57.176573,-25.774582],[-57.177502,-25.773994],[-57.178166,-25.773953],[-57.178373,-25.774178],[-57.178188,-25.775673],[-57.178925,-25.775767],[-57.179442,-25.776809],[-57.180266,-25.776813],[-57.180539,-25.777589],[-57.18116,-25.777868],[-57.181683,-25.777773],[-57.182,-25.777217],[-57.182599,-25.77727],[-57.182772,-25.777496],[-57.182434,-25.777857],[-57.183328,-25.778028],[-57.183853,-25.778005],[-57.184039,-25.777463],[-57.18598,-25.776656],[-57.185739,-25.776124],[-57.185958,-25.775808],[-57.186468,-25.77592],[-57.186991,-25.776768],[-57.187633,-25.776541],[-57.187942,-25.777124],[-57.188397,-25.777299],[-57.188879,-25.776964],[-57.189484,-25.777067],[-57.189113,-25.776589],[-57.189149,-25.775772],[-57.190299,-25.77475],[-57.190867,-25.774871],[-57.191254,-25.775543],[-57.192006,-25.775958],[-57.193651,-25.776204],[-57.195083,-25.775231],[-57.195169,-25.774504]]]}}]}
