{"type":"FeatureCollection","name":"distrito","features":[{"type":"Feature","properties":{"clave":"9-25","nombre":"Tebicuary-mí"},"geometry":{"type":"Polygon","coordinates":[[[-56.706154,-25.956274],[-56.707353,-25.95383],[-56.710723,-25.955087],[-56.714609,-25.957596],[-56.715989,-25.959395],[-56.717456,-25.96057],[-56.719535,-25.959559],[-56.727667,-25.958558],[-56.729659,-25.957624],[-56.731908,-25.957551],[-56.73355,-25.957944],[-56.737573,-25.957444],[-56.739659,-25.952807],[-56.742413,-25.951326],[-56.745924,-25.951317],[-56.747588,-25.951921],[-56.748241,-25.94945],[-56.752771,-25.943033],[-56.73626,-25.936525],[-56.734802,-25.932258],[-56.734496,-25.928752],[-56.735028,-25.925058],[-56.73451,-25.922404],[-56.733468,-25.919654],[-56.734314,-25.916434],[-56.73348,-25.914443],[-56.732329,-25.913588],[-56.733804,-25.910275],[-56.73381,-25.907622],[-56.734755,-25.906297],[-56.737236,-25.904696],[-56.741936,-25.897987],[-56.740657,-25.896359],[-56.731262,-25.888418],[-56.730374,-25.883608],[-56.732359,-25.876514],[-56.731943,-25.875168],[-56.730396,-25.874],[-56.728202,-25.873265],[-56.727976,-25.873558],[-56.725587,-25.873612],[-56.721168,-25.871703],[-56.719666,-25.871438],[-56.717216,-25.864191],[-56.717576,-25.862205],[-56.71703,-25.861035],[-56.715715,-25.859854],[-56.714792,-25.859956],[-56.714183,-25.859512],[-56.712867,-25.860589],[-56.711968,-25.862582],[-56.710913,-25.863163],[-56.707498,-25.861558],[-56.705444,-25.861255],[-56.704325,-25.860477],[-56.703697,-25.860439],[-56.702818,-25.861512],[-56.702003,-25.861831],[-56.701215,-25.861743],[-56.700517,-25.862613],[-56.700239,-25.863566],[-56.699413,-25.863848],[-56.697936,-25.862536],[-56.696675,-25.860646],[-56.694238,-25.858903],[-56.693693,-25.857574],[-56.69267,-25.857513],[-56.691857,-25.85692],[-56.69145,-25.857614],[-56.690559,-25.857748],[-56.689851,-25.857151],[-56.689326,-25.857551],[-56.689443,-25.858229],[-56.688425,-25.859563],[-56.687564,-25.859679],[-56.685159,-25.859303],[-56.683444,-25.85846],[-56.683309,-25.8571],[-56.682269,-25.856073],[-56.680898,-25.855352],[-56.679404,-25.855173],[-56.678729,-25.853839],[-56.677141,-25.853321],[-56.676555,-25.852507],[-56.674425,-25.850913],[-56.673592,-25.850645],[-56.673172,-25.850057],[-56.671345,-25.850184],[-56.670545,-25.849654],[-56.669715,-25.849683],[-56.669511,-25.848414],[-56.668679,-25.848345],[-56.667806,-25.847711],[-56.667308,-25.848003],[-56.667037,-25.848887],[-56.665626,-25.849661],[-56.665763,-25.850442],[-56.664661,-25.851663],[-56.662634,-25.853153],[-56.662793,-25.85467],[-56.662562,-25.855248],[-56.661859,-25.854858],[-56.661038,-25.854838],[-56.660351,-25.855211],[-56.659402,-25.857362],[-56.659479,-25.858487],[-56.6582,-25.85991],[-56.656823,-25.860634],[-56.656196,-25.860587],[-56.65416,-25.861802],[-56.652666,-25.86467],[-56.6526,-25.866236],[-56.651796,-25.866934],[-56.6509,-25.866471],[-56.650228,-25.866876],[-56.650085,-25.868691],[-56.649681,-25.869471],[-56.649355,-25.869614],[-56.648881,-25.869311],[-56.646904,-25.870548],[-56.646713,-25.872985],[-56.647842,-25.873701],[-56.648282,-25.87456],[-56.647469,-25.877046],[-56.647109,-25.877194],[-56.646491,-25.876755],[-56.645214,-25.877497],[-56.644,-25.877706],[-56.642257,-25.878537],[-56.641797,-25.879434],[-56.641141,-25.879857],[-56.641062,-25.880398],[-56.639253,-25.881374],[-56.638973,-25.882226],[-56.637981,-25.882441],[-56.636606,-25.881895],[-56.634192,-25.882287],[-56.633603,-25.883098],[-56.634128,-25.884819],[-56.633849,-25.885207],[-56.632879,-25.885308],[-56.632911,-25.884694],[-56.632489,-25.88445],[-56.632191,-25.884909],[-56.631619,-25.884768],[-56.631225,-25.884044],[-56.630868,-25.88464],[-56.630477,-25.883862],[-56.629963,-25.883752],[-56.629877,-25.88568],[-56.628914,-25.886156],[-56.628794,-25.886508],[-56.627668,-25.886487],[-56.627598,-25.887283],[-56.625831,-25.888404],[-56.626214,-25.889412],[-56.628741,-25.889768],[-56.629107,-25.890153],[-56.627867,-25.891685],[-56.626973,-25.894055],[-56.626971,-25.894848],[-56.627599,-25.896061],[-56.627218,-25.897118],[-56.626471,-25.897722],[-56.623782,-25.897996],[-56.62344,-25.898729],[-56.623816,-25.899319],[-56.624889,-25.899936],[-56.626388,-25.900161],[-56.626772,-25.900973],[-56.625617,-25.902446],[-56.624097,-25.90292],[-56.623173,-25.902729],[-56.621423,-25.901386],[-56.620782,-25.901264],[-56.620196,-25.901544],[-56.619976,-25.902687],[-56.621114,-25.903517],[-56.621563,-25.904901],[-56.620647,-25.908174],[-56.620373,-25.90831],[-56.619657,-25.907941],[-56.619642,-25.906849],[-56.619993,-25.906006],[-56.619637,-25.905433],[-56.618864,-25.905303],[-56.617245,-25.907065],[-56.616528,-25.907182],[-56.6162,-25.906397],[-56.616846,-25.905016],[-56.616131,-25.904562],[-56.615206,-25.904637],[-56.61441,-25.905786],[-56.614305,-25.906212],[-56.614871,-25.907658],[-56.613912,-25.909424],[-56.613458,-25.909669],[-56.611931,-25.909425],[-56.611743,-25.909861],[-56.611988,-25.910429],[-56.612362,-25.910523],[-56.614826,-25.910513],[-56.614925,-25.911496],[-56.613577,-25.91217],[-56.61164,-25.911903],[-56.611053,-25.912179],[-56.6104,-25.91446],[-56.610048,-25.914803],[-56.609155,-25.914817],[-56.608828,-25.915089],[-56.609886,-25.916533],[-56.610666,-25.91968],[-56.611365,-25.920179],[-56.613182,-25.920238],[-56.613651,-25.920977],[-56.613087,-25.921745],[-56.611129,-25.922067],[-56.610383,-25.923037],[-56.610791,-25.923835],[-56.611598,-25.924493],[-56.611856,-25.925225],[-56.610808,-25.926205],[-56.610996,-25.927691],[-56.610466,-25.929098],[-56.611828,-25.92992],[-56.61083,-25.930546],[-56.610729,-25.931703],[-56.611572,-25.932371],[-56.612092,-25.932171],[-56.612602,-25.93144],[-56.612916,-25.931452],[-56.613142,-25.932485],[-56.610663,-25.935241],[-56.608411,-25.937036],[-56.607966,-25.938203],[-56.608474,-25.94005],[-56.607719,-25.940555],[-56.607556,-25.979084],[-56.608613,-25.979485],[-56.609702,-25.979478],[-56.612816,-25.979017],[-56.615872,-25.978023],[-56.617642,-25.977924],[-56.617716,-25.977089],[-56.618559,-25.97743],[-56.619111,-25.976623],[-56.620322,-25.976405],[-56.620295,-25.975543],[-56.62175,-25.975461],[-56.621971,-25.976161],[-56.624131,-25.975173],[-56.624257,-25.974108],[-56.624972,-25.972959],[-56.626381,-25.973613],[-56.627885,-25.973359],[-56.628334,-25.972719],[-56.628318,-25.971414],[-56.630433,-25.97109],[-56.630883,-25.970224],[-56.631412,-25.96995],[-56.63265,-25.970324],[-56.632951,-25.971552],[-56.633722,-25.971776],[-56.634335,-25.971005],[-56.636533,-25.969688],[-56.63942,-25.969126],[-56.640482,-25.967571],[-56.640548,-25.965734],[-56.64126,-25.965365],[-56.641659,-25.965308],[-56.641807,-25.966193],[-56.641556,-25.968454],[-56.642427,-25.969355],[-56.64328,-25.969632],[-56.6435,-25.970771],[-56.651063,-25.969155],[-56.65592,-25.969225],[-56.657259,-25.969815],[-56.659819,-25.970151],[-56.66047,-25.970864],[-56.665312,-25.97067],[-56.667998,-25.969394],[-56.672901,-25.964384],[-56.67524,-25.963053],[-56.676833,-25.96265],[-56.680914,-25.963034],[-56.685551,-25.962857],[-56.68983,-25.967054],[-56.692636,-25.965997],[-56.695231,-25.965659],[-56.697863,-25.964883],[-56.699839,-25.963387],[-56.706154,-25.956274]]]}}]}
