{"type":"FeatureCollection","name":"distrito","features":[{"type":"Feature","properties":{"clave":"4-1","nombre":"Borja"},"geometry":{"type":"Polygon","coordinates":[[[-56.571444,-26.098256],[-56.615798,-26.176472],[-56.616734,-26.176551],[-56.617157,-26.177013],[-56.61749,-26.179122],[-56.61885,-26.179356],[-56.620852,-26.178097],[-56.622254,-26.178236],[-56.624878,-26.181656],[-56.625656,-26.184227],[-56.627821,-26.185036],[-56.6285,-26.18567],[-56.628367,-26.187426],[-56.627533,-26.188774],[-56.624322,-26.189402],[-56.623618,-26.190032],[-56.623134,-26.195056],[-56.623853,-26.196381],[-56.625317,-26.197152],[-56.62639,-26.19729],[-56.627041,-26.196651],[-56.626993,-26.195012],[-56.627601,-26.194074],[-56.627823,-26.192996],[-56.627191,-26.191233],[-56.627384,-26.190773],[-56.628574,-26.190718],[-56.629592,-26.191352],[-56.629782,-26.192026],[-56.629165,-26.194631],[-56.629698,-26.194777],[-56.632322,-26.19202],[-56.632472,-26.190173],[-56.632934,-26.18898],[-56.632692,-26.187293],[-56.633912,-26.186253],[-56.635115,-26.186269],[-56.636787,-26.185366],[-56.638066,-26.182832],[-56.641836,-26.182155],[-56.643033,-26.182667],[-56.64813,-26.17993],[-56.658976,-26.172631],[-56.673423,-26.166968],[-56.68201,-26.160069],[-56.686526,-26.157637],[-56.691278,-26.156445],[-56.691913,-26.15567],[-56.691239,-26.155402],[-56.691918,-26.153787],[-56.69257,-26.15415],[-56.692802,-26.153902],[-56.692571,-26.153428],[-56.693856,-26.153674],[-56.694616,-26.152881],[-56.695311,-26.153126],[-56.69647,-26.153034],[-56.697253,-26.151668],[-56.698119,-26.151042],[-56.699241,-26.148457],[-56.700443,-26.148157],[-56.701267,-26.147378],[-56.702279,-26.14706],[-56.703331,-26.147288],[-56.704112,-26.146987],[-56.705381,-26.144822],[-56.706764,-26.139159],[-56.708562,-26.136557],[-56.708226,-26.135911],[-56.707237,-26.135318],[-56.707345,-26.13469],[-56.708566,-26.134806],[-56.709258,-26.135873],[-56.710228,-26.135459],[-56.711053,-26.13407],[-56.71186,-26.131277],[-56.711569,-26.129773],[-56.710057,-26.127833],[-56.708649,-26.126783],[-56.707679,-26.125007],[-56.707371,-26.122184],[-56.708008,-26.118989],[-56.706095,-26.112719],[-56.70579,-26.108989],[-56.707243,-26.106495],[-56.708021,-26.105567],[-56.708819,-26.105135],[-56.710517,-26.104949],[-56.711188,-26.105253],[-56.711814,-26.106107],[-56.714037,-26.105967],[-56.714633,-26.106478],[-56.714917,-26.106131],[-56.716249,-26.105813],[-56.716252,-26.10459],[-56.716765,-26.104902],[-56.717355,-26.103928],[-56.717138,-26.1027],[-56.717412,-26.101734],[-56.717246,-26.101242],[-56.717582,-26.100827],[-56.717092,-26.099747],[-56.717294,-26.098885],[-56.718584,-26.09831],[-56.720051,-26.098426],[-56.721112,-26.09766],[-56.721,-26.09626],[-56.720341,-26.095794],[-56.71946,-26.095774],[-56.719202,-26.094175],[-56.719549,-26.093892],[-56.720187,-26.094367],[-56.72111,-26.093723],[-56.721185,-26.093177],[-56.720768,-26.092359],[-56.721934,-26.091607],[-56.722002,-26.091273],[-56.720563,-26.087999],[-56.721275,-26.086127],[-56.720364,-26.086062],[-56.719815,-26.085397],[-56.719743,-26.084896],[-56.720283,-26.084879],[-56.719161,-26.082728],[-56.719272,-26.082308],[-56.717347,-26.080738],[-56.716337,-26.078049],[-56.714452,-26.077554],[-56.715397,-26.072169],[-56.714679,-26.070452],[-56.713988,-26.069923],[-56.714012,-26.06888],[-56.712766,-26.068453],[-56.712759,-26.066846],[-56.711543,-26.06692],[-56.710329,-26.066385],[-56.709796,-26.065797],[-56.709797,-26.065372],[-56.710711,-26.064503],[-56.710714,-26.063374],[-56.711322,-26.06315],[-56.711523,-26.062658],[-56.710633,-26.062214],[-56.709003,-26.060388],[-56.708638,-26.05967],[-56.708829,-26.058632],[-56.70752,-26.0582],[-56.708055,-26.057651],[-56.708173,-26.056816],[-56.707682,-26.055989],[-56.708359,-26.05566],[-56.70873,-26.056054],[-56.708936,-26.055259],[-56.708887,-26.053995],[-56.708547,-26.0539],[-56.708632,-26.053439],[-56.707894,-26.052955],[-56.708138,-26.051971],[-56.707682,-26.051799],[-56.707846,-26.051411],[-56.707448,-26.050985],[-56.707879,-26.050706],[-56.707404,-26.04992],[-56.707941,-26.04891],[-56.707417,-26.048755],[-56.706822,-26.047982],[-56.706694,-26.046988],[-56.706034,-26.046558],[-56.706004,-26.046111],[-56.705448,-26.046232],[-56.704315,-26.044925],[-56.703843,-26.044924],[-56.702951,-26.045595],[-56.702061,-26.045417],[-56.70201,-26.044839],[-56.701335,-26.044499],[-56.701776,-26.044432],[-56.702112,-26.043728],[-56.702835,-26.043897],[-56.702167,-26.042956],[-56.702628,-26.042849],[-56.70264,-26.042488],[-56.701991,-26.042125],[-56.701825,-26.041493],[-56.701878,-26.041199],[-56.702801,-26.04079],[-56.702939,-26.039802],[-56.7027,-26.039395],[-56.701715,-26.039348],[-56.702952,-26.0388],[-56.703075,-26.038344],[-56.70323,-26.036931],[-56.702696,-26.036858],[-56.702886,-26.036316],[-56.702427,-26.035304],[-56.703098,-26.035057],[-56.704554,-26.035363],[-56.704829,-26.034298],[-56.705898,-26.034268],[-56.706779,-26.03367],[-56.705486,-26.031021],[-56.702082,-26.030883],[-56.701664,-26.030404],[-56.701729,-26.029555],[-56.705464,-26.0275],[-56.705592,-26.026502],[-56.706049,-26.02723],[-56.706592,-26.026576],[-56.706501,-26.025285],[-56.707801,-26.024732],[-56.707354,-26.023566],[-56.707608,-26.022456],[-56.707054,-26.022089],[-56.706889,-26.021006],[-56.708839,-26.020508],[-56.708569,-26.019221],[-56.709764,-26.019282],[-56.709611,-26.017386],[-56.709905,-26.017395],[-56.710299,-26.018705],[-56.710677,-26.018675],[-56.711425,-26.016662],[-56.71325,-26.015867],[-56.713016,-26.013049],[-56.712381,-26.011355],[-56.713645,-26.008161],[-56.71424,-26.004875],[-56.713058,-26.004006],[-56.713039,-26.003586],[-56.713794,-26.002919],[-56.713639,-26.002242],[-56.714384,-26.001363],[-56.714783,-26.001138],[-56.715421,-26.001424],[-56.716092,-26.00128],[-56.717162,-25.999991],[-56.720967,-25.998364],[-56.722047,-25.996967],[-56.722522,-25.994182],[-56.723641,-25.993651],[-56.722772,-25.991243],[-56.722959,-25.989736],[-56.725238,-25.988769],[-56.725604,-25.988346],[-56.725059,-25.986764],[-56.725265,-25.985573],[-56.726121,-25.984437],[-56.726041,-25.98403],[-56.72531,-25.983514],[-56.72521,-25.982981],[-56.726229,-25.981899],[-56.726172,-25.979917],[-56.729528,-25.978655],[-56.73226,-25.974728],[-56.735434,-25.973469],[-56.736999,-25.973251],[-56.73702,-25.972646],[-56.738324,-25.970973],[-56.738675,-25.968644],[-56.739529,-25.967905],[-56.740006,-25.966493],[-56.739772,-25.965856],[-56.741198,-25.963732],[-56.741085,-25.962337],[-56.741531,-25.960856],[-56.741335,-25.959149],[-56.742581,-25.956118],[-56.747686,-25.951956],[-56.745924,-25.951317],[-56.742413,-25.951326],[-56.739659,-25.952807],[-56.737573,-25.957444],[-56.73355,-25.957944],[-56.731908,-25.957551],[-56.729659,-25.957624],[-56.727667,-25.958558],[-56.719535,-25.959559],[-56.717456,-25.96057],[-56.715989,-25.959395],[-56.714609,-25.957596],[-56.710723,-25.955087],[-56.707353,-25.95383],[-56.706154,-25.956274],[-56.699839,-25.963387],[-56.697863,-25.964883],[-56.695231,-25.965659],[-56.692636,-25.965997],[-56.68983,-25.967054],[-56.685551,-25.962857],[-56.680914,-25.963034],[-56.676833,-25.96265],[-56.67524,-25.963053],[-56.672901,-25.964384],[-56.667998,-25.969394],[-56.666061,-25.970483],[-56.664487,-25.970846],[-56.66047,-25.970864],[-56.659819,-25.970151],[-56.657259,-25.969815],[-56.65592,-25.969225],[-56.655006,-25.969164],[-56.649844,-25.969247],[-56.645614,-25.970464],[-56.6435,-25.970771],[-56.64328,-25.969632],[-56.642427,-25.969355],[-56.641556,-25.968454],[-56.641807,-25.966193],[-56.641659,-25.965308],[-56.64126,-25.965365],[-56.640548,-25.965734],[-56.640482,-25.967571],[-56.63942,-25.969126],[-56.636533,-25.969688],[-56.634335,-25.971005],[-56.633722,-25.971776],[-56.632951,-25.971552],[-56.63265,-25.970324],[-56.631412,-25.96995],[-56.630883,-25.970224],[-56.630433,-25.97109],[-56.628318,-25.971414],[-56.628334,-25.972719],[-56.627885,-25.973359],[-56.626381,-25.973613],[-56.624972,-25.972959],[-56.624257,-25.974108],[-56.624131,-25.975173],[-56.621971,-25.976161],[-56.62175,-25.975461],[-56.620295,-25.975543],[-56.620322,-25.976405],[-56.619111,-25.976623],[-56.618559,-25.97743],[-56.617716,-25.977089],[-56.617642,-25.977924],[-56.615872,-25.978023],[-56.611819,-25.979218],[-56.608613,-25.979485],[-56.607556,-25.979084],[-56.607719,-25.940555],[-56.606595,-25.940046],[-56.60612,-25.938462],[-56.605497,-25.938287],[-56.604824,-25.938849],[-56.605632,-25.940998],[-56.605534,-25.941561],[-56.605101,-25.941907],[-56.604453,-25.942209],[-56.601024,-25.941982],[-56.599656,-25.942391],[-56.599486,-25.942846],[-56.599816,-25.944581],[-56.598635,-25.946226],[-56.598051,-25.948761],[-56.59704,-25.949973],[-56.597633,-25.951753],[-56.597815,-25.954702],[-56.596851,-25.955935],[-56.59558,-25.95604],[-56.593932,-25.953824],[-56.592143,-25.950978],[-56.59172,-25.948418],[-56.5911,-25.947376],[-56.589997,-25.947308],[-56.588099,-25.94843],[-56.587155,-25.950704],[-56.585352,-25.951978],[-56.584176,-25.95204],[-56.582452,-25.951406],[-56.578641,-25.950614],[-56.57921,-25.949852],[-56.579242,-25.949234],[-56.578198,-25.948332],[-56.577291,-25.948799],[-56.576044,-25.947698],[-56.575732,-25.94702],[-56.575746,-25.945729],[-56.5752,-25.944829],[-56.57456,-25.944755],[-56.574486,-25.945509],[-56.573072,-25.945685],[-56.572788,-25.945373],[-56.572669,-25.944442],[-56.574304,-25.94223],[-56.574287,-25.941553],[-56.573354,-25.940841],[-56.572764,-25.940867],[-56.572481,-25.940243],[-56.571973,-25.940174],[-56.571412,-25.940727],[-56.570194,-25.93992],[-56.570828,-25.938883],[-56.570559,-25.93742],[-56.572169,-25.936449],[-56.572724,-25.934871],[-56.572147,-25.934228],[-56.572129,-25.9336],[-56.571021,-25.933403],[-56.570535,-25.932896],[-56.57061,-25.931943],[-56.571443,-25.932009],[-56.571729,-25.931622],[-56.570156,-25.930606],[-56.570017,-25.929887],[-56.570302,-25.929717],[-56.570391,-25.930286],[-56.570616,-25.930241],[-56.571261,-25.928789],[-56.570603,-25.928142],[-56.569546,-25.927958],[-56.568524,-25.926668],[-56.567241,-25.926872],[-56.566328,-25.926459],[-56.566176,-25.926219],[-56.567041,-25.926063],[-56.567022,-25.925603],[-56.566259,-25.925885],[-56.565774,-25.924985],[-56.565958,-25.924719],[-56.566588,-25.924884],[-56.567027,-25.92414],[-56.568398,-25.924709],[-56.569131,-25.924562],[-56.569877,-25.923684],[-56.570047,-25.924325],[-56.570353,-25.924033],[-56.570952,-25.924549],[-56.572217,-25.923257],[-56.571998,-25.921902],[-56.572612,-25.920883],[-56.572338,-25.920535],[-56.572526,-25.919452],[-56.571793,-25.919373],[-56.571816,-25.918714],[-56.571138,-25.917728],[-56.568719,-25.917648],[-56.568641,-25.916691],[-56.567848,-25.916548],[-56.567638,-25.915658],[-56.566723,-25.915629],[-56.56639,-25.914937],[-56.567001,-25.914699],[-56.567124,-25.914357],[-56.566444,-25.914147],[-56.567463,-25.913558],[-56.566649,-25.913583],[-56.566733,-25.913069],[-56.565898,-25.913278],[-56.566206,-25.912598],[-56.5651,-25.911944],[-56.564828,-25.911153],[-56.564134,-25.912041],[-56.56389,-25.911995],[-56.563387,-25.910458],[-56.562439,-25.911245],[-56.561819,-25.911067],[-56.561511,-25.909139],[-56.560321,-25.90653],[-56.56084,-25.906238],[-56.561373,-25.90521],[-56.561349,-25.903436],[-56.560408,-25.902191],[-56.559402,-25.901985],[-56.55888,-25.900864],[-56.558273,-25.901002],[-56.558319,-25.902208],[-56.557584,-25.902792],[-56.555427,-25.903476],[-56.554926,-25.904166],[-56.554306,-25.904236],[-56.554028,-25.905156],[-56.552959,-25.905401],[-56.552413,-25.904627],[-56.551682,-25.904323],[-56.551438,-25.904439],[-56.551506,-25.90513],[-56.550946,-25.905404],[-56.549131,-25.903917],[-56.549095,-25.902712],[-56.548667,-25.903022],[-56.548088,-25.902939],[-56.548755,-25.901361],[-56.548624,-25.90099],[-56.547265,-25.900264],[-56.546749,-25.899598],[-56.547221,-25.898403],[-56.546706,-25.897472],[-56.54635,-25.897471],[-56.546384,-25.896662],[-56.545257,-25.896347],[-56.544974,-25.895638],[-56.544363,-25.896178],[-56.544017,-25.896104],[-56.543969,-25.89521],[-56.54333,-25.894924],[-56.543163,-25.893433],[-56.540947,-25.89339],[-56.539796,-25.89405],[-56.539763,-25.894741],[-56.539395,-25.894997],[-56.538644,-25.8949],[-56.537727,-25.895312],[-56.537853,-25.894283],[-56.536435,-25.895141],[-56.53603,-25.900318],[-56.536774,-25.902492],[-56.536648,-25.903558],[-56.532963,-25.904702],[-56.531501,-25.904295],[-56.529345,-25.904509],[-56.528407,-25.905147],[-56.527389,-25.905207],[-56.526715,-25.906221],[-56.526584,-25.905841],[-56.5258,-25.906227],[-56.524253,-25.906411],[-56.523344,-25.907569],[-56.523909,-25.9086],[-56.523539,-25.909592],[-56.521827,-25.910652],[-56.520434,-25.913225],[-56.520348,-25.914255],[-56.519941,-25.914434],[-56.517713,-25.914476],[-56.517655,-25.914015],[-56.517116,-25.913856],[-56.516981,-25.914663],[-56.514957,-25.914796],[-56.514533,-25.914149],[-56.514236,-25.914627],[-56.513453,-25.914728],[-56.513069,-25.913923],[-56.512467,-25.914522],[-56.5128,-25.915065],[-56.512148,-25.915437],[-56.511815,-25.914822],[-56.510331,-25.9147],[-56.509918,-25.913592],[-56.508696,-25.914112],[-56.508593,-25.9145],[-56.509203,-25.914438],[-56.509425,-25.914787],[-56.507981,-25.915021],[-56.507947,-25.915793],[-56.507355,-25.916306],[-56.507556,-25.91697],[-56.506823,-25.917225],[-56.506406,-25.917102],[-56.506278,-25.916203],[-56.505563,-25.916778],[-56.505035,-25.916822],[-56.505151,-25.915838],[-56.504898,-25.915553],[-56.504103,-25.915906],[-56.504026,-25.915008],[-56.503476,-25.915209],[-56.503352,-25.915556],[-56.502305,-25.915386],[-56.50172,-25.914264],[-56.499955,-25.914565],[-56.498788,-25.914371],[-56.497264,-25.914876],[-56.495848,-25.914474],[-56.488732,-25.914647],[-56.482603,-25.925735],[-56.48823,-25.938607],[-56.48681,-25.946304],[-56.464526,-25.969578],[-56.472415,-25.979991],[-56.473593,-25.982248],[-56.477129,-25.993643],[-56.477983,-26.008595],[-56.478367,-26.008704],[-56.478613,-26.009387],[-56.478975,-26.012472],[-56.479743,-26.013364],[-56.4799,-26.014164],[-56.481218,-26.014828],[-56.482683,-26.015077],[-56.484012,-26.016228],[-56.485003,-26.016318],[-56.487572,-26.018372],[-56.489399,-26.016934],[-56.489992,-26.017116],[-56.490241,-26.017618],[-56.490978,-26.017684],[-56.491012,-26.018637],[-56.49201,-26.018112],[-56.491681,-26.017461],[-56.492549,-26.017771],[-56.492844,-26.018318],[-56.492432,-26.018953],[-56.492708,-26.019212],[-56.493076,-26.019127],[-56.493607,-26.018344],[-56.493617,-26.019242],[-56.494388,-26.019182],[-56.494126,-26.019758],[-56.495018,-26.020321],[-56.493958,-26.021243],[-56.494681,-26.021395],[-56.494635,-26.021634],[-56.493398,-26.021851],[-56.493628,-26.022542],[-56.493382,-26.022925],[-56.493721,-26.02317],[-56.493528,-26.023567],[-56.49405,-26.02384],[-56.494481,-26.024609],[-56.496234,-26.024561],[-56.496179,-26.025138],[-56.495465,-26.025276],[-56.4953,-26.02556],[-56.495874,-26.02641],[-56.496547,-26.026128],[-56.497048,-26.026266],[-56.497125,-26.027954],[-56.498579,-26.02739],[-56.499113,-26.027943],[-56.499846,-26.027919],[-56.499794,-26.029201],[-56.500714,-26.029479],[-56.500316,-26.030435],[-56.500574,-26.030838],[-56.502565,-26.030781],[-56.502718,-26.031446],[-56.503049,-26.031551],[-56.504038,-26.030543],[-56.504938,-26.031033],[-56.504914,-26.031706],[-56.504205,-26.032706],[-56.504532,-26.033129],[-56.505011,-26.036038],[-56.504792,-26.036721],[-56.504321,-26.037321],[-56.501923,-26.038402],[-56.501521,-26.039384],[-56.501681,-26.039887],[-56.503365,-26.041512],[-56.5016,-26.045269],[-56.50047,-26.045634],[-56.499679,-26.045349],[-56.49851,-26.043697],[-56.497959,-26.043414],[-56.497382,-26.043498],[-56.497117,-26.043866],[-56.497777,-26.046752],[-56.496474,-26.048222],[-56.496662,-26.049199],[-56.497761,-26.050709],[-56.50087,-26.048988],[-56.503419,-26.049279],[-56.506623,-26.047524],[-56.509651,-26.045335],[-56.511375,-26.042102],[-56.51375,-26.03975],[-56.514675,-26.037746],[-56.516735,-26.036526],[-56.521709,-26.035197],[-56.529252,-26.034423],[-56.542635,-26.033955],[-56.553167,-26.03727],[-56.560478,-26.038184],[-56.570012,-26.03846],[-56.569274,-26.065489],[-56.571444,-26.098256]]]}}]}
