{"type":"FeatureCollection","name":"distrito","features":[{"type":"Feature","properties":{"clave":"3-13","nombre":"Eusebio Ayala"},"geometry":{"type":"Polygon","coordinates":[[[-56.973629,-25.460815],[-56.974003,-25.462188],[-56.9762,-25.462685],[-56.978003,-25.463904],[-56.978439,-25.463435],[-56.978235,-25.461787],[-56.979138,-25.461259],[-56.98003,-25.461272],[-56.981891,-25.462898],[-56.982564,-25.464487],[-56.98511,-25.466],[-56.985716,-25.467432],[-56.987292,-25.468299],[-56.987516,-25.463888],[-56.988656,-25.457062],[-56.989811,-25.454604],[-56.989507,-25.452089],[-56.990295,-25.446283],[-56.989993,-25.444183],[-57.00503,-25.437049],[-57.008374,-25.437139],[-57.009891,-25.43694],[-57.011418,-25.436344],[-57.019064,-25.431765],[-57.020707,-25.431706],[-57.021298,-25.431263],[-57.023677,-25.430572],[-57.025643,-25.428779],[-57.02873,-25.428187],[-57.030449,-25.427428],[-57.032487,-25.426037],[-57.033462,-25.425924],[-57.035365,-25.425128],[-57.034536,-25.420749],[-57.036891,-25.403505],[-57.03471,-25.401546],[-57.035062,-25.399329],[-57.035532,-25.398489],[-57.036119,-25.398168],[-57.036549,-25.396664],[-57.038217,-25.395596],[-57.03829,-25.394673],[-57.037517,-25.392692],[-57.04153,-25.392296],[-57.043205,-25.391736],[-57.042691,-25.390215],[-57.042909,-25.388919],[-57.043476,-25.387903],[-57.043035,-25.387036],[-57.043143,-25.386088],[-57.04269,-25.383984],[-57.042046,-25.383266],[-57.041974,-25.381058],[-57.04149,-25.380701],[-57.041148,-25.37983],[-57.039964,-25.379523],[-57.038096,-25.376842],[-57.037095,-25.376223],[-57.05945,-25.378636],[-57.059454,-25.377652],[-57.061257,-25.376613],[-57.062675,-25.375011],[-57.063546,-25.372016],[-57.065392,-25.371737],[-57.065959,-25.369743],[-57.065996,-25.367286],[-57.063921,-25.366151],[-57.0635,-25.365383],[-57.063682,-25.364506],[-57.063229,-25.361264],[-57.06196,-25.360838],[-57.060669,-25.359361],[-57.060912,-25.358698],[-57.060625,-25.358357],[-57.061668,-25.357223],[-57.06214,-25.356071],[-57.06172,-25.355213],[-57.062577,-25.353705],[-57.06267,-25.351331],[-57.063361,-25.35047],[-57.064485,-25.350277],[-57.065513,-25.350269],[-57.066538,-25.351083],[-57.066872,-25.349396],[-57.066638,-25.348011],[-57.067451,-25.347278],[-57.067796,-25.345294],[-57.068195,-25.344815],[-57.069728,-25.344201],[-57.07006,-25.343433],[-57.071339,-25.342774],[-57.071367,-25.342457],[-57.068854,-25.341767],[-57.068394,-25.341408],[-57.068069,-25.340714],[-57.068231,-25.340127],[-57.067425,-25.339597],[-57.066738,-25.337497],[-57.066247,-25.336897],[-57.066098,-25.335674],[-57.066359,-25.335182],[-57.065016,-25.334582],[-57.064984,-25.333593],[-57.064301,-25.332977],[-57.062728,-25.330065],[-57.061791,-25.330111],[-57.061611,-25.329671],[-57.061113,-25.329542],[-57.060448,-25.32864],[-57.060684,-25.328342],[-57.060536,-25.32778],[-57.058829,-25.327071],[-57.057214,-25.327466],[-57.056963,-25.327129],[-57.055667,-25.327101],[-57.05507,-25.327441],[-57.054582,-25.327172],[-57.053938,-25.325856],[-57.052644,-25.325318],[-57.050831,-25.32334],[-57.049164,-25.323369],[-57.048604,-25.323024],[-57.048414,-25.321695],[-57.04758,-25.320811],[-57.046454,-25.32057],[-57.046072,-25.319785],[-57.045162,-25.319231],[-57.042679,-25.31893],[-57.041889,-25.318065],[-57.041995,-25.317309],[-57.041353,-25.31712],[-57.041428,-25.316781],[-57.040964,-25.316978],[-57.040506,-25.316428],[-57.039547,-25.316486],[-57.038426,-25.316078],[-57.036949,-25.315181],[-57.036743,-25.314217],[-57.036189,-25.313859],[-57.035084,-25.313888],[-57.034442,-25.314319],[-57.034258,-25.314023],[-57.033538,-25.31396],[-57.033125,-25.312944],[-57.031917,-25.312062],[-57.031109,-25.312772],[-57.030365,-25.31284],[-57.029859,-25.313643],[-57.027744,-25.313175],[-57.026785,-25.312696],[-57.026137,-25.311863],[-57.024896,-25.311683],[-57.023989,-25.310735],[-57.023302,-25.310462],[-57.022979,-25.309632],[-57.023473,-25.307402],[-57.02312,-25.306074],[-57.024069,-25.305241],[-57.02305,-25.304001],[-57.023071,-25.303349],[-57.023656,-25.302565],[-57.023577,-25.302026],[-57.02248,-25.300881],[-57.021929,-25.299816],[-57.022468,-25.298898],[-57.02257,-25.297652],[-57.02342,-25.296208],[-57.022853,-25.294779],[-57.023937,-25.291465],[-57.021287,-25.28876],[-57.02152,-25.28745],[-57.021184,-25.286353],[-57.021655,-25.282813],[-57.020978,-25.281328],[-57.020629,-25.279363],[-57.019282,-25.278966],[-57.018776,-25.277499],[-57.021027,-25.275467],[-57.021133,-25.274609],[-57.020003,-25.274401],[-57.019747,-25.273439],[-57.018744,-25.27288],[-57.018199,-25.272098],[-57.018541,-25.271371],[-57.019862,-25.271836],[-57.020344,-25.271498],[-57.020488,-25.26957],[-57.019974,-25.268034],[-57.020812,-25.266702],[-57.022155,-25.265298],[-57.022657,-25.265284],[-57.02294,-25.264607],[-57.022227,-25.263595],[-57.022321,-25.262272],[-57.020412,-25.258836],[-57.018555,-25.258069],[-57.018119,-25.257591],[-57.018365,-25.25573],[-57.01894,-25.254583],[-57.017427,-25.253608],[-57.016557,-25.251956],[-57.014769,-25.250353],[-57.014536,-25.248958],[-57.012733,-25.247152],[-57.011546,-25.246637],[-57.011423,-25.247617],[-57.009002,-25.248994],[-57.009469,-25.250599],[-57.010045,-25.2509],[-57.008893,-25.251129],[-57.008181,-25.251641],[-57.007437,-25.251459],[-57.007468,-25.252225],[-57.005999,-25.252809],[-57.004182,-25.252511],[-57.002509,-25.251123],[-56.994918,-25.248278],[-56.993906,-25.247316],[-56.993055,-25.245862],[-56.991951,-25.245119],[-56.990744,-25.245002],[-56.989608,-25.245418],[-56.988225,-25.248858],[-56.987358,-25.248633],[-56.967236,-25.248946],[-56.964935,-25.247545],[-56.963824,-25.247997],[-56.962265,-25.249939],[-56.960684,-25.249158],[-56.960513,-25.247222],[-56.959051,-25.246752],[-56.949872,-25.245283],[-56.949401,-25.244252],[-56.950378,-25.240127],[-56.94585,-25.238766],[-56.945256,-25.238892],[-56.945019,-25.240655],[-56.941108,-25.288226],[-56.9461,-25.297064],[-56.945214,-25.297457],[-56.944186,-25.300572],[-56.942961,-25.300653],[-56.94148,-25.30165],[-56.941185,-25.303411],[-56.93938,-25.304896],[-56.937346,-25.305979],[-56.933678,-25.306519],[-56.932332,-25.308478],[-56.931736,-25.308798],[-56.930423,-25.308603],[-56.927592,-25.311072],[-56.926979,-25.31211],[-56.927523,-25.312828],[-56.927415,-25.313614],[-56.92599,-25.315519],[-56.924758,-25.315879],[-56.92378,-25.317089],[-56.923789,-25.318091],[-56.922978,-25.319324],[-56.923395,-25.319897],[-56.922413,-25.320552],[-56.922344,-25.32089],[-56.921458,-25.321138],[-56.921807,-25.321518],[-56.921553,-25.321829],[-56.921702,-25.322646],[-56.922112,-25.322954],[-56.921857,-25.323757],[-56.91974,-25.326881],[-56.918886,-25.327688],[-56.918406,-25.327733],[-56.917009,-25.329593],[-56.917408,-25.330681],[-56.917073,-25.332442],[-56.915858,-25.333119],[-56.915712,-25.335087],[-56.915028,-25.336189],[-56.91226,-25.337004],[-56.910269,-25.336692],[-56.910187,-25.336181],[-56.909336,-25.336005],[-56.905628,-25.337736],[-56.904987,-25.337808],[-56.903951,-25.337329],[-56.902433,-25.337942],[-56.900641,-25.340144],[-56.899902,-25.340329],[-56.89908,-25.342053],[-56.899629,-25.343404],[-56.899518,-25.346469],[-56.898284,-25.348622],[-56.896327,-25.349118],[-56.895605,-25.350065],[-56.894891,-25.351993],[-56.892074,-25.352473],[-56.890166,-25.352093],[-56.889458,-25.353872],[-56.888571,-25.354639],[-56.88695,-25.357496],[-56.886512,-25.357644],[-56.88574,-25.357404],[-56.883756,-25.357949],[-56.882539,-25.357276],[-56.881466,-25.357672],[-56.880843,-25.357604],[-56.880118,-25.358457],[-56.880207,-25.359838],[-56.87985,-25.361026],[-56.879002,-25.361007],[-56.878514,-25.361372],[-56.878341,-25.361286],[-56.878094,-25.360837],[-56.878003,-25.360796],[-56.878189,-25.361483],[-56.878804,-25.362062],[-56.896985,-25.368566],[-56.899109,-25.36813],[-56.902103,-25.366758],[-56.903185,-25.368281],[-56.903266,-25.370564],[-56.901324,-25.36939],[-56.9,-25.370265],[-56.899497,-25.370094],[-56.89868,-25.370554],[-56.898372,-25.370373],[-56.897536,-25.370562],[-56.897147,-25.37104],[-56.897257,-25.371799],[-56.896418,-25.372394],[-56.895146,-25.372601],[-56.894877,-25.373359],[-56.893714,-25.37367],[-56.893669,-25.374058],[-56.892769,-25.374663],[-56.892552,-25.375232],[-56.892061,-25.375231],[-56.891868,-25.375574],[-56.890207,-25.376246],[-56.890056,-25.376887],[-56.88943,-25.377216],[-56.889731,-25.378043],[-56.888924,-25.378444],[-56.88828,-25.378335],[-56.888112,-25.379098],[-56.887426,-25.378975],[-56.885734,-25.379353],[-56.885046,-25.378793],[-56.884377,-25.378806],[-56.882271,-25.37968],[-56.881492,-25.380339],[-56.88037,-25.3819],[-56.880407,-25.383002],[-56.879457,-25.383819],[-56.87857,-25.385218],[-56.876235,-25.386575],[-56.875358,-25.387509],[-56.874754,-25.387436],[-56.874675,-25.387838],[-56.874152,-25.388027],[-56.873833,-25.389201],[-56.874151,-25.389454],[-56.873958,-25.390321],[-56.87262,-25.392369],[-56.872645,-25.393588],[-56.873076,-25.394564],[-56.872405,-25.395119],[-56.872276,-25.395697],[-56.872775,-25.397539],[-56.872465,-25.398727],[-56.871291,-25.399692],[-56.868765,-25.399658],[-56.868271,-25.400936],[-56.867568,-25.400948],[-56.866329,-25.403069],[-56.864448,-25.403334],[-56.863959,-25.404074],[-56.863978,-25.4057],[-56.863612,-25.406029],[-56.863611,-25.406878],[-56.8644,-25.409945],[-56.865254,-25.410388],[-56.865821,-25.411684],[-56.867909,-25.414309],[-56.868863,-25.418948],[-56.871576,-25.418593],[-56.873246,-25.417958],[-56.875166,-25.417671],[-56.876523,-25.418024],[-56.878189,-25.419588],[-56.879629,-25.419819],[-56.879883,-25.419494],[-56.880423,-25.41958],[-56.881099,-25.419179],[-56.882501,-25.419347],[-56.882662,-25.418205],[-56.883891,-25.418175],[-56.885952,-25.418664],[-56.886426,-25.419626],[-56.887906,-25.42081],[-56.889306,-25.421222],[-56.889668,-25.420915],[-56.891338,-25.421549],[-56.891892,-25.421423],[-56.892539,-25.420168],[-56.893087,-25.420218],[-56.893257,-25.419848],[-56.894092,-25.419857],[-56.894445,-25.419487],[-56.895661,-25.419741],[-56.896398,-25.419538],[-56.896735,-25.420062],[-56.899168,-25.419522],[-56.899519,-25.418254],[-56.900499,-25.417857],[-56.913346,-25.431822],[-56.908254,-25.438027],[-56.908895,-25.438339],[-56.908888,-25.43875],[-56.909558,-25.439428],[-56.911179,-25.440088],[-56.912748,-25.441308],[-56.914326,-25.443896],[-56.922329,-25.447694],[-56.926296,-25.4562],[-56.97127,-25.46617],[-56.971998,-25.466238],[-56.972173,-25.46291],[-56.972789,-25.462034],[-56.973041,-25.460695],[-56.973629,-25.460815]]]}}]}
