{"type":"FeatureCollection","name":"distrito","features":[{"type":"Feature","properties":{"clave":"6-0","nombre":"Caazapá"},"geometry":{"type":"Polygon","coordinates":[[[-56.370192,-26.383978],[-56.370237,-26.382131],[-56.371064,-26.381891],[-56.371286,-26.381409],[-56.371773,-26.381447],[-56.372254,-26.380948],[-56.373434,-26.38071],[-56.374173,-26.379313],[-56.375625,-26.377636],[-56.376161,-26.376609],[-56.375738,-26.374151],[-56.377996,-26.371326],[-56.378056,-26.36901],[-56.378416,-26.368041],[-56.381329,-26.365282],[-56.384145,-26.363344],[-56.3855,-26.360614],[-56.386151,-26.360147],[-56.387763,-26.359711],[-56.389468,-26.35752],[-56.389584,-26.354618],[-56.38833,-26.352639],[-56.388016,-26.350796],[-56.388403,-26.350274],[-56.3899,-26.350014],[-56.390922,-26.348253],[-56.390339,-26.345199],[-56.391195,-26.343474],[-56.390836,-26.341937],[-56.389099,-26.340918],[-56.388488,-26.339385],[-56.388601,-26.336],[-56.389605,-26.334808],[-56.390696,-26.334912],[-56.391877,-26.334493],[-56.392139,-26.333491],[-56.391984,-26.332452],[-56.393501,-26.330802],[-56.392869,-26.329585],[-56.393121,-26.328268],[-56.394038,-26.327472],[-56.394248,-26.326774],[-56.394867,-26.326519],[-56.396413,-26.324841],[-56.397319,-26.324511],[-56.397297,-26.322024],[-56.398168,-26.320601],[-56.397254,-26.319346],[-56.397334,-26.318515],[-56.396525,-26.317779],[-56.387404,-26.319547],[-56.38275,-26.31719],[-56.38071,-26.310639],[-56.380219,-26.305496],[-56.377654,-26.300344],[-56.373531,-26.295653],[-56.373056,-26.287706],[-56.373594,-26.28397],[-56.373042,-26.283216],[-56.372943,-26.282101],[-56.372135,-26.280359],[-56.372313,-26.276527],[-56.371497,-26.275282],[-56.370598,-26.274908],[-56.369412,-26.274857],[-56.368953,-26.274201],[-56.368098,-26.274188],[-56.367761,-26.271116],[-56.368324,-26.26748],[-56.370107,-26.263005],[-56.369133,-26.26073],[-56.37005,-26.257687],[-56.369873,-26.255961],[-56.370515,-26.254136],[-56.370832,-26.251853],[-56.371998,-26.24979],[-56.372398,-26.247656],[-56.375,-26.243966],[-56.377067,-26.242354],[-56.378827,-26.239228],[-56.380099,-26.237902],[-56.381157,-26.237288],[-56.382224,-26.237324],[-56.383511,-26.236486],[-56.385574,-26.23635],[-56.386835,-26.236622],[-56.388813,-26.236201],[-56.390998,-26.233867],[-56.391191,-26.233539],[-56.390619,-26.229609],[-56.390976,-26.228585],[-56.391724,-26.227771],[-56.391686,-26.22662],[-56.393837,-26.223577],[-56.394301,-26.22152],[-56.394823,-26.220809],[-56.395542,-26.218433],[-56.396707,-26.217296],[-56.396496,-26.216613],[-56.398825,-26.214573],[-56.398157,-26.212336],[-56.399365,-26.210869],[-56.400049,-26.210624],[-56.399994,-26.209797],[-56.400437,-26.209533],[-56.400245,-26.208751],[-56.40079,-26.208356],[-56.40231,-26.177733],[-56.400507,-26.1755],[-56.396427,-26.166543],[-56.399576,-26.157204],[-56.403249,-26.149119],[-56.409398,-26.146753],[-56.409178,-26.144711],[-56.40962,-26.143819],[-56.410958,-26.142411],[-56.410134,-26.139789],[-56.402691,-26.138073],[-56.402443,-26.137133],[-56.410906,-26.023869],[-56.408265,-26.022155],[-56.408236,-26.02178],[-56.407714,-26.022031],[-56.407614,-26.021394],[-56.407165,-26.021568],[-56.407198,-26.021221],[-56.406316,-26.020625],[-56.405635,-26.021571],[-56.405252,-26.021045],[-56.404928,-26.02141],[-56.404244,-26.020937],[-56.400915,-26.020508],[-56.40047,-26.020245],[-56.400361,-26.01903],[-56.399402,-26.01945],[-56.398624,-26.018788],[-56.397449,-26.018679],[-56.397168,-26.018705],[-56.397228,-26.019292],[-56.396749,-26.019299],[-56.396636,-26.018883],[-56.395981,-26.018899],[-56.396078,-26.018249],[-56.395717,-26.017584],[-56.394446,-26.017876],[-56.393543,-26.017376],[-56.392836,-26.017364],[-56.392453,-26.016739],[-56.391861,-26.01652],[-56.38677,-26.018946],[-56.385597,-26.018412],[-56.385373,-26.017405],[-56.382793,-26.016446],[-56.381755,-26.015209],[-56.381258,-26.015216],[-56.380813,-26.015755],[-56.379113,-26.016069],[-56.376128,-26.015108],[-56.37571,-26.015584],[-56.374032,-26.016078],[-56.371294,-26.017764],[-56.370442,-26.01944],[-56.370545,-26.020397],[-56.369833,-26.021306],[-56.369777,-26.022502],[-56.368341,-26.02362],[-56.366216,-26.023828],[-56.364527,-26.023166],[-56.362274,-26.02335],[-56.35968,-26.024083],[-56.357225,-26.025842],[-56.355363,-26.025811],[-56.352308,-26.02633],[-56.350956,-26.02488],[-56.349713,-26.021948],[-56.347967,-26.019345],[-56.348096,-26.017765],[-56.346979,-26.016324],[-56.345943,-26.013552],[-56.341046,-26.009575],[-56.340847,-26.008784],[-56.341092,-26.00744],[-56.339917,-26.004473],[-56.337391,-26.003752],[-56.335464,-26.002497],[-56.329444,-26.00344],[-56.327648,-26.003432],[-56.325944,-26.003185],[-56.323347,-26.002197],[-56.322366,-26.001055],[-56.321658,-25.999268],[-56.320766,-25.998212],[-56.317984,-25.998199],[-56.315681,-25.997114],[-56.314457,-25.994336],[-56.310777,-25.992499],[-56.307885,-25.988061],[-56.301645,-25.983688],[-56.299203,-25.982899],[-56.296138,-25.983693],[-56.291961,-25.983207],[-56.289855,-25.982429],[-56.287658,-25.982333],[-56.286939,-25.981905],[-56.286162,-25.980353],[-56.283179,-25.977254],[-56.280961,-25.976187],[-56.278508,-25.97729],[-56.277796,-25.977968],[-56.273931,-25.978373],[-56.27254,-25.977978],[-56.180444,-26.063412],[-56.180247,-26.064034],[-56.180769,-26.064606],[-56.179484,-26.064996],[-56.179628,-26.06553],[-56.179058,-26.065942],[-56.179097,-26.066285],[-56.179912,-26.066917],[-56.17913,-26.067536],[-56.179521,-26.068811],[-56.179588,-26.071299],[-56.180469,-26.071399],[-56.181755,-26.070855],[-56.181857,-26.071271],[-56.181432,-26.071991],[-56.18168,-26.072485],[-56.182751,-26.072626],[-56.182324,-26.073549],[-56.183541,-26.076879],[-56.184165,-26.077794],[-56.184426,-26.079466],[-56.185264,-26.079832],[-56.18661,-26.079704],[-56.187292,-26.078209],[-56.188307,-26.07742],[-56.189042,-26.077348],[-56.18946,-26.077766],[-56.19016,-26.079819],[-56.18996,-26.081547],[-56.189306,-26.081828],[-56.189134,-26.082396],[-56.189362,-26.082812],[-56.190203,-26.082781],[-56.190213,-26.084375],[-56.190733,-26.085136],[-56.190223,-26.08595],[-56.191065,-26.085689],[-56.191226,-26.086845],[-56.192293,-26.087515],[-56.193056,-26.08663],[-56.19402,-26.08692],[-56.194309,-26.087644],[-56.194959,-26.08795],[-56.194998,-26.088311],[-56.194132,-26.089024],[-56.194767,-26.091456],[-56.195228,-26.0915],[-56.195486,-26.090797],[-56.195818,-26.091349],[-56.196323,-26.091257],[-56.196111,-26.091599],[-56.196507,-26.092076],[-56.197579,-26.091874],[-56.198397,-26.092163],[-56.198709,-26.092639],[-56.198408,-26.093644],[-56.198637,-26.094024],[-56.201473,-26.094171],[-56.202722,-26.09583],[-56.204573,-26.095556],[-56.205802,-26.095603],[-56.206234,-26.095886],[-56.206287,-26.096351],[-56.205419,-26.096603],[-56.206031,-26.097004],[-56.205338,-26.097334],[-56.205998,-26.098336],[-56.204842,-26.098808],[-56.205991,-26.099397],[-56.204951,-26.099734],[-56.205357,-26.100459],[-56.204328,-26.100475],[-56.204122,-26.100055],[-56.20395,-26.100455],[-56.204336,-26.101103],[-56.2036,-26.101374],[-56.20446,-26.101817],[-56.204874,-26.102731],[-56.205598,-26.102595],[-56.205444,-26.103032],[-56.204614,-26.103177],[-56.204549,-26.103438],[-56.205243,-26.103903],[-56.205975,-26.1036],[-56.205197,-26.104363],[-56.206136,-26.104856],[-56.204998,-26.105116],[-56.205365,-26.105709],[-56.204621,-26.105962],[-56.205023,-26.106493],[-56.205808,-26.106303],[-56.205968,-26.106886],[-56.204936,-26.107684],[-56.205897,-26.108091],[-56.206772,-26.108024],[-56.206238,-26.10882],[-56.207192,-26.109904],[-56.207892,-26.110188],[-56.207264,-26.110609],[-56.207308,-26.110912],[-56.207746,-26.111144],[-56.208209,-26.110993],[-56.208096,-26.111521],[-56.208827,-26.111516],[-56.207977,-26.112139],[-56.208762,-26.112251],[-56.208738,-26.112739],[-56.207934,-26.112766],[-56.207842,-26.112987],[-56.208422,-26.113509],[-56.209002,-26.113201],[-56.209077,-26.113436],[-56.207927,-26.113958],[-56.207519,-26.114895],[-56.208709,-26.115285],[-56.207999,-26.115895],[-56.208532,-26.116471],[-56.207917,-26.116847],[-56.208098,-26.11748],[-56.209641,-26.117592],[-56.21083,-26.119229],[-56.210911,-26.120615],[-56.211738,-26.120611],[-56.212188,-26.120094],[-56.212116,-26.121222],[-56.212639,-26.12104],[-56.212627,-26.121555],[-56.213168,-26.12158],[-56.212011,-26.122662],[-56.212883,-26.123249],[-56.213293,-26.123003],[-56.214109,-26.123454],[-56.214473,-26.123176],[-56.214943,-26.123698],[-56.215393,-26.123642],[-56.215701,-26.12461],[-56.217421,-26.125224],[-56.217122,-26.126378],[-56.217331,-26.126614],[-56.218458,-26.126945],[-56.218916,-26.126474],[-56.219217,-26.126985],[-56.219923,-26.126506],[-56.220461,-26.126563],[-56.220035,-26.127464],[-56.221228,-26.127479],[-56.221085,-26.128418],[-56.222477,-26.128276],[-56.222848,-26.129285],[-56.223692,-26.129249],[-56.223916,-26.129832],[-56.2235,-26.130647],[-56.223913,-26.131688],[-56.224842,-26.131675],[-56.224997,-26.132439],[-56.225524,-26.13269],[-56.224162,-26.133057],[-56.225205,-26.133492],[-56.225114,-26.134701],[-56.226131,-26.134449],[-56.226477,-26.134487],[-56.226625,-26.135057],[-56.227263,-26.134645],[-56.227479,-26.134804],[-56.226851,-26.135695],[-56.226215,-26.135808],[-56.225657,-26.136821],[-56.225097,-26.137148],[-56.225241,-26.137839],[-56.224462,-26.137844],[-56.224946,-26.138249],[-56.225158,-26.139184],[-56.22642,-26.139557],[-56.226201,-26.139817],[-56.223964,-26.140753],[-56.222001,-26.14077],[-56.221874,-26.140187],[-56.220429,-26.139709],[-56.219523,-26.138504],[-56.217671,-26.138882],[-56.2152,-26.138078],[-56.207961,-26.1496],[-56.198658,-26.155747],[-56.178454,-26.153335],[-56.164737,-26.1504],[-56.153375,-26.142415],[-56.140913,-26.141375],[-56.140611,-26.139283],[-56.139545,-26.13859],[-56.13931,-26.137988],[-56.137773,-26.137099],[-56.136869,-26.134949],[-56.135866,-26.13395],[-56.13551,-26.132796],[-56.135652,-26.130486],[-56.135438,-26.130074],[-56.127999,-26.126047],[-56.104643,-26.130335],[-56.107511,-26.132824],[-56.106984,-26.133841],[-56.107018,-26.134627],[-56.106222,-26.135033],[-56.106601,-26.135568],[-56.106402,-26.137305],[-56.106795,-26.138183],[-56.106402,-26.140117],[-56.106775,-26.142016],[-56.105566,-26.1432],[-56.105295,-26.144503],[-56.105743,-26.149318],[-56.106647,-26.150507],[-56.106285,-26.151006],[-56.10689,-26.153619],[-56.107862,-26.154306],[-56.107468,-26.155315],[-56.109086,-26.157885],[-56.109803,-26.157664],[-56.11017,-26.158849],[-56.11001,-26.159295],[-56.110572,-26.160485],[-56.111823,-26.160556],[-56.112927,-26.161114],[-56.114025,-26.16234],[-56.114474,-26.162473],[-56.114545,-26.162993],[-56.115416,-26.163111],[-56.115441,-26.164881],[-56.11471,-26.165576],[-56.114247,-26.165619],[-56.114384,-26.166098],[-56.113866,-26.166483],[-56.114525,-26.169011],[-56.114152,-26.170078],[-56.114752,-26.172118],[-56.115388,-26.173052],[-56.115008,-26.173673],[-56.11602,-26.174667],[-56.115956,-26.176446],[-56.116557,-26.176657],[-56.116834,-26.177273],[-56.117337,-26.17756],[-56.116989,-26.178818],[-56.117771,-26.17917],[-56.117611,-26.179621],[-56.118433,-26.180687],[-56.118713,-26.181853],[-56.119466,-26.181244],[-56.121812,-26.182021],[-56.122169,-26.181662],[-56.121778,-26.181222],[-56.12504,-26.181237],[-56.125317,-26.181031],[-56.125212,-26.17978],[-56.125838,-26.179269],[-56.126376,-26.17925],[-56.127008,-26.180992],[-56.129693,-26.181545],[-56.128954,-26.182204],[-56.129594,-26.182605],[-56.129427,-26.183191],[-56.130116,-26.183837],[-56.130058,-26.184391],[-56.13098,-26.184677],[-56.130804,-26.185181],[-56.132399,-26.185376],[-56.133213,-26.186207],[-56.134161,-26.18647],[-56.133808,-26.18706],[-56.134281,-26.187514],[-56.134134,-26.188109],[-56.134982,-26.188475],[-56.134828,-26.189115],[-56.136256,-26.18907],[-56.136431,-26.189454],[-56.136938,-26.189254],[-56.137807,-26.189874],[-56.138831,-26.189898],[-56.139418,-26.190457],[-56.141128,-26.189776],[-56.142904,-26.189868],[-56.142951,-26.191529],[-56.142211,-26.192956],[-56.142531,-26.193125],[-56.142791,-26.194951],[-56.143468,-26.196038],[-56.14269,-26.197383],[-56.143213,-26.198849],[-56.144269,-26.199176],[-56.146741,-26.200653],[-56.147545,-26.199985],[-56.149047,-26.199927],[-56.148563,-26.201684],[-56.149064,-26.202811],[-56.14904,-26.203556],[-56.150294,-26.204706],[-56.150458,-26.205501],[-56.149726,-26.206716],[-56.150763,-26.207386],[-56.151828,-26.21076],[-56.150707,-26.212171],[-56.151499,-26.212568],[-56.151546,-26.213119],[-56.152064,-26.213528],[-56.151494,-26.214879],[-56.150809,-26.215155],[-56.151464,-26.215629],[-56.150583,-26.215831],[-56.150943,-26.216659],[-56.150274,-26.216502],[-56.150261,-26.216976],[-56.149456,-26.216691],[-56.149087,-26.217186],[-56.149371,-26.218776],[-56.148682,-26.219088],[-56.148981,-26.219822],[-56.148397,-26.220608],[-56.14887,-26.221586],[-56.147629,-26.222775],[-56.147735,-26.22339],[-56.14671,-26.224137],[-56.146093,-26.224021],[-56.145776,-26.224452],[-56.145846,-26.225866],[-56.146499,-26.226542],[-56.146306,-26.226957],[-56.146892,-26.227145],[-56.147426,-26.227762],[-56.147751,-26.22938],[-56.147568,-26.229772],[-56.148139,-26.230624],[-56.14746,-26.230805],[-56.148545,-26.231566],[-56.148455,-26.232039],[-56.147669,-26.2324],[-56.147677,-26.232725],[-56.148851,-26.234673],[-56.150371,-26.234831],[-56.149994,-26.235448],[-56.150668,-26.236011],[-56.150973,-26.237282],[-56.150799,-26.237687],[-56.150097,-26.237466],[-56.149154,-26.23951],[-56.148249,-26.239252],[-56.147367,-26.240217],[-56.147391,-26.240962],[-56.148075,-26.240443],[-56.147738,-26.242382],[-56.148597,-26.242789],[-56.147553,-26.24351],[-56.147637,-26.243844],[-56.148399,-26.244056],[-56.147623,-26.245239],[-56.148006,-26.24553],[-56.147795,-26.246075],[-56.148329,-26.246078],[-56.146182,-26.247108],[-56.146757,-26.247473],[-56.145913,-26.247725],[-56.146062,-26.248394],[-56.145465,-26.248323],[-56.145184,-26.248746],[-56.145387,-26.249749],[-56.145834,-26.249892],[-56.146815,-26.252462],[-56.145999,-26.252728],[-56.146024,-26.253347],[-56.146479,-26.253805],[-56.147593,-26.253518],[-56.147864,-26.253949],[-56.14729,-26.254713],[-56.147846,-26.254838],[-56.148837,-26.255751],[-56.147827,-26.256269],[-56.147852,-26.256752],[-56.148688,-26.257741],[-56.149555,-26.257783],[-56.149925,-26.258141],[-56.150656,-26.257794],[-56.151224,-26.258334],[-56.15176,-26.257678],[-56.152265,-26.257763],[-56.152987,-26.25848],[-56.153629,-26.259798],[-56.154502,-26.259392],[-56.155537,-26.259664],[-56.156117,-26.259465],[-56.156336,-26.259732],[-56.155953,-26.260633],[-56.156792,-26.26224],[-56.157179,-26.262261],[-56.157334,-26.261494],[-56.157803,-26.261416],[-56.158393,-26.262543],[-56.159269,-26.263352],[-56.159446,-26.264414],[-56.159887,-26.263821],[-56.160679,-26.264092],[-56.159182,-26.265338],[-56.161492,-26.265234],[-56.162183,-26.265423],[-56.16265,-26.265999],[-56.163173,-26.265366],[-56.16366,-26.265323],[-56.163585,-26.26698],[-56.163086,-26.267139],[-56.163694,-26.267856],[-56.165491,-26.266282],[-56.167135,-26.266581],[-56.166458,-26.264775],[-56.165965,-26.264298],[-56.166161,-26.263889],[-56.16721,-26.263687],[-56.169316,-26.264255],[-56.169959,-26.264127],[-56.169756,-26.26502],[-56.170767,-26.265062],[-56.170546,-26.266239],[-56.171336,-26.265715],[-56.171525,-26.265879],[-56.171347,-26.266316],[-56.170174,-26.266792],[-56.170279,-26.267181],[-56.172621,-26.267434],[-56.173598,-26.267024],[-56.173716,-26.266546],[-56.17239,-26.26615],[-56.171918,-26.265322],[-56.172512,-26.264991],[-56.17329,-26.265257],[-56.173524,-26.265083],[-56.173022,-26.264402],[-56.173224,-26.263465],[-56.172713,-26.263123],[-56.173653,-26.262758],[-56.174702,-26.26299],[-56.174555,-26.261752],[-56.176493,-26.261632],[-56.176727,-26.262618],[-56.178099,-26.263041],[-56.178934,-26.262459],[-56.179982,-26.262424],[-56.180401,-26.261962],[-56.180706,-26.262781],[-56.181055,-26.262896],[-56.181532,-26.261901],[-56.18219,-26.263119],[-56.183114,-26.262605],[-56.183693,-26.263913],[-56.184024,-26.26391],[-56.184347,-26.263339],[-56.184623,-26.26343],[-56.18521,-26.265294],[-56.186251,-26.265769],[-56.18483,-26.266718],[-56.184678,-26.267106],[-56.186892,-26.268296],[-56.187361,-26.267626],[-56.188288,-26.267722],[-56.188359,-26.268129],[-56.187856,-26.268776],[-56.188032,-26.268962],[-56.190143,-26.268717],[-56.19035,-26.267914],[-56.191052,-26.268767],[-56.192111,-26.268227],[-56.192663,-26.268248],[-56.193998,-26.269127],[-56.194637,-26.268972],[-56.195499,-26.271338],[-56.196544,-26.270883],[-56.197814,-26.27164],[-56.198833,-26.271406],[-56.198452,-26.272939],[-56.198658,-26.273383],[-56.19962,-26.273031],[-56.200571,-26.271746],[-56.200978,-26.272041],[-56.201346,-26.273398],[-56.201688,-26.273413],[-56.202574,-26.272664],[-56.203482,-26.272728],[-56.203455,-26.273924],[-56.204598,-26.273745],[-56.20454,-26.274661],[-56.204968,-26.274434],[-56.205557,-26.272148],[-56.206311,-26.272242],[-56.206825,-26.272719],[-56.20606,-26.273347],[-56.205992,-26.273812],[-56.207455,-26.274321],[-56.208115,-26.273706],[-56.208316,-26.274606],[-56.209151,-26.274588],[-56.208394,-26.275089],[-56.208052,-26.276189],[-56.209619,-26.276662],[-56.211038,-26.277799],[-56.211035,-26.278223],[-56.210161,-26.27839],[-56.210207,-26.278729],[-56.212246,-26.278094],[-56.213643,-26.279348],[-56.213807,-26.280297],[-56.212245,-26.281187],[-56.211989,-26.281727],[-56.213825,-26.281471],[-56.214254,-26.280493],[-56.21459,-26.2804],[-56.214705,-26.281909],[-56.215869,-26.281965],[-56.215601,-26.282708],[-56.216724,-26.283617],[-56.217275,-26.285458],[-56.218677,-26.285529],[-56.219489,-26.286373],[-56.218987,-26.287494],[-56.219427,-26.288332],[-56.218168,-26.28828],[-56.217619,-26.288841],[-56.217686,-26.289094],[-56.21887,-26.289471],[-56.218793,-26.290084],[-56.218478,-26.29043],[-56.217234,-26.290604],[-56.216989,-26.291023],[-56.217766,-26.291952],[-56.217706,-26.293162],[-56.217041,-26.29361],[-56.216998,-26.294093],[-56.217225,-26.294338],[-56.217922,-26.294152],[-56.218249,-26.294393],[-56.217489,-26.295106],[-56.217556,-26.29536],[-56.218773,-26.295366],[-56.218989,-26.296221],[-56.220355,-26.296341],[-56.221949,-26.295519],[-56.222038,-26.296874],[-56.222428,-26.297196],[-56.223568,-26.297537],[-56.223944,-26.296843],[-56.224268,-26.296796],[-56.225365,-26.297533],[-56.22718,-26.298152],[-56.227011,-26.298512],[-56.225518,-26.298865],[-56.225732,-26.299327],[-56.227136,-26.299014],[-56.228725,-26.299059],[-56.229122,-26.299585],[-56.229669,-26.299628],[-56.230836,-26.298835],[-56.231137,-26.297866],[-56.23146,-26.297733],[-56.233161,-26.298618],[-56.233837,-26.300125],[-56.234564,-26.300797],[-56.235572,-26.30105],[-56.237125,-26.300779],[-56.237961,-26.300937],[-56.238263,-26.301502],[-56.237572,-26.301982],[-56.237669,-26.302316],[-56.239043,-26.302003],[-56.240306,-26.302664],[-56.241293,-26.301929],[-56.241675,-26.302748],[-56.242572,-26.302681],[-56.242929,-26.303179],[-56.243729,-26.302312],[-56.244427,-26.302181],[-56.244624,-26.303933],[-56.246003,-26.303286],[-56.246701,-26.30329],[-56.246752,-26.304039],[-56.246079,-26.304826],[-56.247202,-26.304475],[-56.247545,-26.304752],[-56.249033,-26.308092],[-56.249063,-26.308579],[-56.248571,-26.309195],[-56.249489,-26.309349],[-56.249721,-26.309969],[-56.248271,-26.310052],[-56.247812,-26.311128],[-56.247236,-26.3102],[-56.246897,-26.310387],[-56.246697,-26.311199],[-56.246933,-26.312135],[-56.246422,-26.31289],[-56.247242,-26.312976],[-56.247423,-26.313266],[-56.247223,-26.314353],[-56.247483,-26.31528],[-56.245812,-26.31644],[-56.24468,-26.316272],[-56.245201,-26.317557],[-56.244446,-26.317972],[-56.244216,-26.318928],[-56.244638,-26.319206],[-56.245808,-26.319194],[-56.245574,-26.319947],[-56.245803,-26.320128],[-56.246913,-26.319602],[-56.248017,-26.319878],[-56.248207,-26.320538],[-56.24891,-26.320443],[-56.248897,-26.320844],[-56.24805,-26.321468],[-56.248203,-26.32187],[-56.249352,-26.321185],[-56.249846,-26.321188],[-56.25,-26.323536],[-56.25033,-26.323574],[-56.251015,-26.322761],[-56.251395,-26.322839],[-56.251218,-26.324152],[-56.250495,-26.325286],[-56.249629,-26.325895],[-56.248791,-26.325683],[-56.248596,-26.325989],[-56.249736,-26.327652],[-56.250504,-26.326785],[-56.250319,-26.328161],[-56.251457,-26.327503],[-56.251113,-26.326626],[-56.251944,-26.326919],[-56.251605,-26.328506],[-56.252768,-26.328296],[-56.252632,-26.330092],[-56.25047,-26.330053],[-56.250567,-26.331616],[-56.249652,-26.331638],[-56.24938,-26.331989],[-56.250302,-26.332156],[-56.250528,-26.332564],[-56.249606,-26.332861],[-56.249576,-26.333164],[-56.250575,-26.33409],[-56.25254,-26.33191],[-56.25302,-26.333403],[-56.253315,-26.333309],[-56.253518,-26.332317],[-56.254216,-26.332673],[-56.253575,-26.334503],[-56.254087,-26.336289],[-56.25297,-26.336495],[-56.252677,-26.337784],[-56.254027,-26.339837],[-56.255021,-26.339928],[-56.25534,-26.340209],[-56.254644,-26.341483],[-56.254885,-26.342035],[-56.255759,-26.34208],[-56.256664,-26.340988],[-56.257645,-26.341115],[-56.257569,-26.341629],[-56.256223,-26.342633],[-56.25624,-26.343035],[-56.256846,-26.343643],[-56.256807,-26.344722],[-56.255787,-26.343344],[-56.255278,-26.343243],[-56.255003,-26.343476],[-56.255923,-26.345074],[-56.256977,-26.345807],[-56.257247,-26.346332],[-56.25687,-26.34758],[-56.255756,-26.347105],[-56.255184,-26.347233],[-56.254717,-26.347998],[-56.255454,-26.348688],[-56.254507,-26.348674],[-56.254262,-26.348925],[-56.254482,-26.349766],[-56.256476,-26.34928],[-56.256918,-26.350014],[-56.256436,-26.35118],[-56.2571,-26.352881],[-56.256315,-26.35336],[-56.256516,-26.354043],[-56.255695,-26.354274],[-56.25596,-26.354979],[-56.254962,-26.355326],[-56.255505,-26.355677],[-56.257005,-26.355102],[-56.257065,-26.355847],[-56.255957,-26.356455],[-56.25746,-26.356563],[-56.257006,-26.35744],[-56.257457,-26.357944],[-56.258312,-26.3577],[-56.258771,-26.356691],[-56.260115,-26.357231],[-56.259995,-26.357632],[-56.259166,-26.358206],[-56.259411,-26.358536],[-56.26038,-26.358754],[-56.260432,-26.359463],[-56.259022,-26.360349],[-56.257914,-26.36052],[-56.257543,-26.360946],[-56.258024,-26.361437],[-56.258955,-26.361699],[-56.259508,-26.363376],[-56.258818,-26.364226],[-56.258777,-26.364899],[-56.259183,-26.365181],[-56.260198,-26.36496],[-56.260573,-26.365228],[-56.260628,-26.365825],[-56.259501,-26.366667],[-56.260542,-26.367147],[-56.260285,-26.368166],[-56.262316,-26.37037],[-56.265197,-26.370818],[-56.266174,-26.372178],[-56.266524,-26.371931],[-56.266157,-26.370887],[-56.266386,-26.370703],[-56.267575,-26.371345],[-56.268463,-26.371084],[-56.267939,-26.37183],[-56.268209,-26.372256],[-56.268965,-26.37217],[-56.269431,-26.372488],[-56.270062,-26.371782],[-56.270537,-26.37174],[-56.271451,-26.37304],[-56.270206,-26.373264],[-56.270483,-26.373748],[-56.273928,-26.373454],[-56.275165,-26.376075],[-56.276113,-26.376639],[-56.275411,-26.377073],[-56.275327,-26.378157],[-56.276764,-26.378235],[-56.277091,-26.378604],[-56.276679,-26.379301],[-56.276931,-26.379495],[-56.279548,-26.380208],[-56.278806,-26.380957],[-56.279133,-26.381466],[-56.280299,-26.381262],[-56.280995,-26.378693],[-56.282086,-26.378209],[-56.281296,-26.37712],[-56.281454,-26.376719],[-56.283841,-26.377098],[-56.284886,-26.377646],[-56.287745,-26.37703],[-56.288139,-26.376227],[-56.289308,-26.375516],[-56.288868,-26.374534],[-56.289241,-26.373766],[-56.291678,-26.372378],[-56.292085,-26.37252],[-56.292214,-26.373676],[-56.293905,-26.373404],[-56.293898,-26.374524],[-56.294462,-26.374491],[-56.2954,-26.373499],[-56.295866,-26.373519],[-56.29619,-26.374587],[-56.296675,-26.37473],[-56.297355,-26.374558],[-56.297867,-26.373546],[-56.298354,-26.373251],[-56.299183,-26.37434],[-56.300115,-26.374327],[-56.300466,-26.374118],[-56.300704,-26.373315],[-56.301367,-26.372881],[-56.302006,-26.373129],[-56.302136,-26.374109],[-56.303652,-26.374064],[-56.304666,-26.373352],[-56.305984,-26.373743],[-56.305932,-26.372728],[-56.306322,-26.372537],[-56.308277,-26.373649],[-56.308956,-26.37367],[-56.309277,-26.375246],[-56.310485,-26.374622],[-56.310926,-26.375569],[-56.311757,-26.376308],[-56.312131,-26.375557],[-56.312577,-26.375647],[-56.312825,-26.376295],[-56.312629,-26.376592],[-56.310586,-26.377247],[-56.310622,-26.377754],[-56.312213,-26.377954],[-56.311742,-26.378932],[-56.311952,-26.37944],[-56.312788,-26.379287],[-56.312967,-26.378623],[-56.312681,-26.377799],[-56.312915,-26.377538],[-56.314794,-26.378492],[-56.318178,-26.377703],[-56.318173,-26.37856],[-56.319456,-26.378321],[-56.319766,-26.378498],[-56.319255,-26.37951],[-56.319369,-26.380053],[-56.322337,-26.380627],[-56.322564,-26.381678],[-56.323343,-26.381367],[-56.323999,-26.382087],[-56.325126,-26.38197],[-56.325452,-26.382741],[-56.326246,-26.383112],[-56.326009,-26.383811],[-56.326877,-26.384917],[-56.327208,-26.384779],[-56.327061,-26.383344],[-56.328367,-26.382475],[-56.328872,-26.382495],[-56.329255,-26.383546],[-56.328164,-26.383996],[-56.328026,-26.38438],[-56.330539,-26.386579],[-56.330928,-26.386441],[-56.330787,-26.384499],[-56.331018,-26.384215],[-56.333068,-26.385061],[-56.334475,-26.387117],[-56.336291,-26.386496],[-56.336552,-26.385414],[-56.337419,-26.385765],[-56.337597,-26.384733],[-56.338164,-26.3843],[-56.338906,-26.386547],[-56.338272,-26.387054],[-56.337569,-26.386644],[-56.337102,-26.386701],[-56.337392,-26.387514],[-56.339356,-26.388084],[-56.339485,-26.386934],[-56.34066,-26.386445],[-56.340739,-26.388416],[-56.34119,-26.388344],[-56.341389,-26.387931],[-56.342565,-26.387221],[-56.343336,-26.387047],[-56.343688,-26.387211],[-56.343299,-26.387918],[-56.34434,-26.387849],[-56.344697,-26.388471],[-56.345307,-26.387787],[-56.345789,-26.388144],[-56.346109,-26.388049],[-56.345982,-26.387207],[-56.346213,-26.387061],[-56.347126,-26.387869],[-56.347815,-26.387813],[-56.348498,-26.387174],[-56.348759,-26.387279],[-56.348564,-26.388367],[-56.349466,-26.388581],[-56.349696,-26.389107],[-56.34956,-26.389867],[-56.350433,-26.390199],[-56.351412,-26.389731],[-56.35199,-26.390587],[-56.352603,-26.390354],[-56.353791,-26.388889],[-56.354184,-26.38893],[-56.354092,-26.389717],[-56.35444,-26.390008],[-56.355554,-26.388792],[-56.355441,-26.38828],[-56.355704,-26.388032],[-56.356357,-26.388573],[-56.357216,-26.388721],[-56.358252,-26.391101],[-56.35733,-26.391805],[-56.358332,-26.392348],[-56.358561,-26.393083],[-56.357554,-26.393473],[-56.358801,-26.394475],[-56.36078,-26.394891],[-56.360705,-26.395297],[-56.359423,-26.395331],[-56.35942,-26.395817],[-56.360379,-26.396306],[-56.361474,-26.395891],[-56.36274,-26.396199],[-56.362327,-26.397063],[-56.362847,-26.397918],[-56.361544,-26.39908],[-56.362193,-26.400382],[-56.361956,-26.400945],[-56.363497,-26.401569],[-56.363666,-26.402659],[-56.364655,-26.402965],[-56.364623,-26.403621],[-56.36646,-26.403432],[-56.366556,-26.404482],[-56.367603,-26.404881],[-56.36766,-26.40513],[-56.367016,-26.405626],[-56.367146,-26.405889],[-56.367655,-26.405931],[-56.368154,-26.405382],[-56.368838,-26.405437],[-56.368924,-26.405779],[-56.368105,-26.406339],[-56.368671,-26.406709],[-56.369488,-26.406595],[-56.369188,-26.40595],[-56.370154,-26.405701],[-56.369639,-26.404769],[-56.37059,-26.405012],[-56.371131,-26.404311],[-56.370805,-26.40272],[-56.37017,-26.40223],[-56.370227,-26.401729],[-56.369665,-26.401902],[-56.368871,-26.400405],[-56.370303,-26.400014],[-56.370216,-26.399648],[-56.369393,-26.399387],[-56.369405,-26.399165],[-56.370309,-26.398912],[-56.370624,-26.397586],[-56.371098,-26.397281],[-56.370286,-26.396912],[-56.370095,-26.395715],[-56.370528,-26.394945],[-56.369572,-26.394859],[-56.370799,-26.393619],[-56.369667,-26.393582],[-56.370142,-26.393128],[-56.369934,-26.392852],[-56.369098,-26.392875],[-56.369487,-26.392195],[-56.368279,-26.391973],[-56.368555,-26.391695],[-56.3696,-26.39174],[-56.369295,-26.391156],[-56.368382,-26.39127],[-56.36876,-26.390459],[-56.368167,-26.390366],[-56.367295,-26.390741],[-56.367452,-26.390214],[-56.366498,-26.389835],[-56.367754,-26.389366],[-56.367733,-26.389118],[-56.36746,-26.388859],[-56.366976,-26.388965],[-56.366203,-26.387544],[-56.366721,-26.387231],[-56.36669,-26.386842],[-56.367204,-26.387323],[-56.367842,-26.387416],[-56.366949,-26.385796],[-56.367225,-26.38559],[-56.368047,-26.386],[-56.36927,-26.385648],[-56.369032,-26.384984],[-56.369856,-26.384996],[-56.369996,-26.384703],[-56.369426,-26.384313],[-56.370192,-26.383978]]]}}]}
