{"type":"FeatureCollection","name":"distrito","features":[{"type":"Feature","properties":{"clave":"7-9","nombre":"Capitán Miranda"},"geometry":{"type":"Polygon","coordinates":[[[-55.807627,-27.263383],[-55.810573,-27.261354],[-55.813565,-27.261835],[-55.814536,-27.263631],[-55.815948,-27.264681],[-55.815601,-27.265644],[-55.815856,-27.266224],[-55.818366,-27.267267],[-55.817787,-27.265278],[-55.816773,-27.255237],[-55.818864,-27.253024],[-55.820213,-27.249994],[-55.820313,-27.24517],[-55.819865,-27.24402],[-55.821732,-27.242971],[-55.822961,-27.242964],[-55.826307,-27.241765],[-55.826868,-27.240029],[-55.825699,-27.238733],[-55.82571,-27.23468],[-55.825482,-27.234078],[-55.824628,-27.233489],[-55.824602,-27.231535],[-55.823989,-27.23058],[-55.824249,-27.229857],[-55.822447,-27.228903],[-55.82219,-27.226416],[-55.86611,-27.188175],[-55.884018,-27.171871],[-55.885959,-27.170641],[-55.901671,-27.15614],[-55.925715,-27.134954],[-55.927495,-27.132429],[-55.925907,-27.130945],[-55.925544,-27.128764],[-55.924672,-27.127785],[-55.921715,-27.126968],[-55.920987,-27.126222],[-55.920962,-27.125452],[-55.922436,-27.124503],[-55.921214,-27.123608],[-55.921696,-27.122916],[-55.921368,-27.122079],[-55.922306,-27.121188],[-55.921077,-27.119143],[-55.921734,-27.118362],[-55.921878,-27.117379],[-55.922517,-27.11678],[-55.922762,-27.115481],[-55.922306,-27.114417],[-55.922387,-27.113578],[-55.923001,-27.112599],[-55.918716,-27.107515],[-55.917197,-27.103748],[-55.911268,-27.099437],[-55.90954,-27.0962],[-55.908453,-27.0951],[-55.905302,-27.093626],[-55.903694,-27.092549],[-55.901696,-27.092375],[-55.900201,-27.09281],[-55.899556,-27.092615],[-55.899245,-27.092875],[-55.897846,-27.092182],[-55.89445,-27.091984],[-55.892791,-27.092657],[-55.892613,-27.092331],[-55.892105,-27.092467],[-55.891175,-27.091945],[-55.889916,-27.092097],[-55.888015,-27.091342],[-55.885749,-27.089713],[-55.885202,-27.088878],[-55.885143,-27.087907],[-55.887369,-27.085835],[-55.887312,-27.084877],[-55.888012,-27.083903],[-55.887871,-27.08313],[-55.8857,-27.081624],[-55.884684,-27.080478],[-55.884296,-27.078534],[-55.881535,-27.077605],[-55.880102,-27.076181],[-55.879002,-27.075608],[-55.873966,-27.075572],[-55.872713,-27.077318],[-55.871236,-27.077712],[-55.87044,-27.079581],[-55.866032,-27.083579],[-55.840634,-27.106004],[-55.810899,-27.132774],[-55.810021,-27.133844],[-55.808566,-27.134786],[-55.778811,-27.161864],[-55.763017,-27.175793],[-55.75955,-27.178936],[-55.758932,-27.180068],[-55.757969,-27.180319],[-55.755247,-27.182613],[-55.732431,-27.203193],[-55.716959,-27.216679],[-55.723923,-27.223348],[-55.724988,-27.223992],[-55.745732,-27.242654],[-55.688295,-27.293874],[-55.708734,-27.312448],[-55.710721,-27.313869],[-55.717055,-27.319538],[-55.747144,-27.292409],[-55.796675,-27.248713],[-55.797802,-27.250358],[-55.796578,-27.252984],[-55.797508,-27.253479],[-55.798021,-27.254201],[-55.798119,-27.255191],[-55.799088,-27.256359],[-55.800083,-27.256792],[-55.800451,-27.257522],[-55.800572,-27.258561],[-55.799531,-27.25913],[-55.800407,-27.260604],[-55.799438,-27.26338],[-55.800647,-27.264537],[-55.800887,-27.265952],[-55.802944,-27.268041],[-55.805857,-27.268075],[-55.806558,-27.267377],[-55.807528,-27.264713],[-55.807627,-27.263383]]]}}]}
