{"type":"FeatureCollection","name":"distrito","features":[{"type":"Feature","properties":{"clave":"7-39","nombre":"Nueva Alborada"},"geometry":{"type":"Polygon","coordinates":[[[-55.658703,-27.369831],[-55.662177,-27.370152],[-55.663467,-27.366721],[-55.665945,-27.365143],[-55.667328,-27.36478],[-55.667155,-27.36407],[-55.679114,-27.353437],[-55.680746,-27.352087],[-55.682147,-27.351855],[-55.682901,-27.351346],[-55.683791,-27.350315],[-55.683656,-27.349458],[-55.686719,-27.346468],[-55.701695,-27.333275],[-55.704735,-27.330989],[-55.705927,-27.329501],[-55.717081,-27.319562],[-55.710721,-27.313869],[-55.708734,-27.312448],[-55.688295,-27.293874],[-55.745732,-27.242654],[-55.724988,-27.223992],[-55.723923,-27.223348],[-55.716959,-27.216679],[-55.713338,-27.219991],[-55.710313,-27.217327],[-55.710363,-27.216376],[-55.70874,-27.214976],[-55.70543,-27.212879],[-55.702994,-27.210505],[-55.702742,-27.209669],[-55.699377,-27.206932],[-55.705557,-27.201532],[-55.698316,-27.195441],[-55.69898,-27.194808],[-55.691483,-27.188616],[-55.696848,-27.183751],[-55.691634,-27.179358],[-55.690189,-27.179098],[-55.688006,-27.18067],[-55.687056,-27.180738],[-55.68597,-27.180328],[-55.6841,-27.17868],[-55.683184,-27.17851],[-55.681596,-27.178832],[-55.679369,-27.178109],[-55.678307,-27.178387],[-55.67546,-27.181047],[-55.674477,-27.181006],[-55.653309,-27.162701],[-55.650007,-27.163807],[-55.646885,-27.163366],[-55.64051,-27.160122],[-55.637228,-27.156931],[-55.636178,-27.156347],[-55.634543,-27.155646],[-55.628792,-27.154276],[-55.626383,-27.153174],[-55.625503,-27.151992],[-55.625036,-27.14973],[-55.623054,-27.1493],[-55.622949,-27.147228],[-55.62234,-27.145615],[-55.622366,-27.143133],[-55.621852,-27.14227],[-55.620825,-27.142002],[-55.620107,-27.143616],[-55.620008,-27.145947],[-55.61859,-27.14941],[-55.618301,-27.151761],[-55.617705,-27.152052],[-55.61562,-27.151968],[-55.615873,-27.152585],[-55.616928,-27.153507],[-55.615966,-27.156572],[-55.616331,-27.157763],[-55.616681,-27.15819],[-55.617978,-27.158733],[-55.62063,-27.158971],[-55.621288,-27.159402],[-55.621182,-27.160333],[-55.620194,-27.161596],[-55.618296,-27.161768],[-55.611695,-27.167655],[-55.617502,-27.176395],[-55.620033,-27.18235],[-55.621116,-27.19062],[-55.621019,-27.198455],[-55.620231,-27.2048],[-55.616847,-27.210273],[-55.602297,-27.218388],[-55.587713,-27.229042],[-55.580036,-27.236588],[-55.576857,-27.244391],[-55.577538,-27.265363],[-55.582708,-27.268804],[-55.595424,-27.275286],[-55.599876,-27.279354],[-55.601213,-27.286144],[-55.599432,-27.295868],[-55.595272,-27.306203],[-55.591378,-27.314211],[-55.589872,-27.32076],[-55.590751,-27.326275],[-55.597994,-27.334819],[-55.605027,-27.341242],[-55.618664,-27.350696],[-55.628783,-27.357149],[-55.643171,-27.363642],[-55.650727,-27.367431],[-55.658703,-27.369831]]]}}]}
