{"type":"FeatureCollection","name":"distrito","features":[{"type":"Feature","properties":{"clave":"14-5","nombre":"Itanará"},"geometry":{"type":"Polygon","coordinates":[[[-55.607262,-23.826049],[-55.61009,-23.826612],[-55.611049,-23.827081],[-55.611372,-23.827571],[-55.612916,-23.828199],[-55.615548,-23.830395],[-55.615925,-23.831148],[-55.61692,-23.831663],[-55.618307,-23.833468],[-55.619504,-23.833659],[-55.621444,-23.835794],[-55.623332,-23.836881],[-55.62489,-23.837401],[-55.626602,-23.839236],[-55.626299,-23.842552],[-55.626515,-23.842901],[-55.630056,-23.845091],[-55.634649,-23.846509],[-55.635529,-23.847384],[-55.635728,-23.84963],[-55.636214,-23.851016],[-55.6379,-23.852485],[-55.639351,-23.852213],[-55.640738,-23.852812],[-55.644961,-23.850998],[-55.648726,-23.850783],[-55.65066,-23.853008],[-55.65248,-23.85418],[-55.653999,-23.854518],[-55.654669,-23.854957],[-55.655,-23.855854],[-55.654428,-23.85771],[-55.6551,-23.85842],[-55.656171,-23.858723],[-55.65799,-23.858409],[-55.659084,-23.858816],[-55.660729,-23.85893],[-55.662346,-23.859666],[-55.663591,-23.859722],[-55.666698,-23.861943],[-55.668481,-23.862519],[-55.66942,-23.862387],[-55.673291,-23.860727],[-55.676643,-23.860539],[-55.678386,-23.860861],[-55.679237,-23.862115],[-55.68058,-23.86288],[-55.68159,-23.86409],[-55.686746,-23.867029],[-55.688163,-23.868251],[-55.68843,-23.869048],[-55.6883,-23.870374],[-55.688839,-23.871905],[-55.690218,-23.872969],[-55.691508,-23.874736],[-55.690864,-23.876672],[-55.691093,-23.877695],[-55.694102,-23.880412],[-55.695483,-23.882938],[-55.696084,-23.885075],[-55.698438,-23.888016],[-55.698946,-23.892288],[-55.698771,-23.89574],[-55.70121,-23.898714],[-55.701895,-23.89914],[-55.703702,-23.899471],[-55.705492,-23.901356],[-55.706849,-23.901895],[-55.70822,-23.901934],[-55.70991,-23.900982],[-55.711022,-23.900883],[-55.711877,-23.901134],[-55.714282,-23.902883],[-55.716317,-23.903821],[-55.721514,-23.904068],[-55.723541,-23.903891],[-55.725092,-23.904156],[-55.727143,-23.903288],[-56.0257,-23.828573],[-56.027214,-23.822321],[-56.02686,-23.823254],[-56.026202,-23.823236],[-56.026529,-23.82392],[-56.025858,-23.82374],[-56.026003,-23.824585],[-56.025106,-23.824521],[-56.025307,-23.8251],[-56.024641,-23.825132],[-56.024825,-23.825955],[-56.025425,-23.825918],[-56.025347,-23.8265],[-56.024558,-23.826405],[-56.024586,-23.826893],[-56.023549,-23.827189],[-56.02313,-23.827818],[-56.022566,-23.827426],[-56.022591,-23.82809],[-56.022086,-23.82801],[-56.021785,-23.828333],[-56.021668,-23.827791],[-56.021341,-23.82778],[-56.021121,-23.828049],[-56.021635,-23.828504],[-56.021466,-23.828765],[-56.019839,-23.82819],[-56.020054,-23.828621],[-56.019858,-23.828741],[-56.018176,-23.828256],[-56.017785,-23.828552],[-56.017719,-23.829464],[-56.017411,-23.829724],[-56.015379,-23.827308],[-56.015092,-23.826241],[-56.014438,-23.826078],[-56.013701,-23.825442],[-56.01327,-23.825583],[-56.010721,-23.824822],[-56.009853,-23.825083],[-56.009862,-23.825354],[-56.010255,-23.825401],[-56.010075,-23.825725],[-56.009453,-23.825545],[-56.008598,-23.825747],[-56.008043,-23.825396],[-56.006615,-23.82517],[-56.006024,-23.825672],[-56.005305,-23.825261],[-56.003751,-23.825843],[-56.003075,-23.825694],[-56.001559,-23.824555],[-55.999545,-23.824456],[-55.99875,-23.825639],[-55.996904,-23.825297],[-55.99586,-23.826302],[-55.995618,-23.825618],[-55.995112,-23.825945],[-55.994285,-23.8257],[-55.993836,-23.826257],[-55.993229,-23.82572],[-55.993476,-23.826277],[-55.992824,-23.826729],[-55.992464,-23.826352],[-55.991589,-23.826333],[-55.991974,-23.826945],[-55.991897,-23.827753],[-55.989654,-23.826446],[-55.988856,-23.82706],[-55.987313,-23.827203],[-55.987116,-23.826967],[-55.98756,-23.826658],[-55.987184,-23.826399],[-55.981243,-23.824178],[-55.981221,-23.823731],[-55.980419,-23.8235],[-55.980321,-23.822854],[-55.979102,-23.822277],[-55.97827,-23.821097],[-55.977337,-23.821113],[-55.976959,-23.821395],[-55.97543,-23.820748],[-55.974085,-23.821092],[-55.973433,-23.820807],[-55.971783,-23.820747],[-55.97135,-23.820622],[-55.970958,-23.819924],[-55.97023,-23.819824],[-55.969909,-23.819258],[-55.967989,-23.818951],[-55.967863,-23.818278],[-55.967546,-23.818745],[-55.966403,-23.818254],[-55.966163,-23.818849],[-55.964785,-23.819011],[-55.964597,-23.818658],[-55.964032,-23.818595],[-55.964172,-23.817842],[-55.963515,-23.818312],[-55.963345,-23.817701],[-55.963012,-23.8181],[-55.962405,-23.818218],[-55.962721,-23.817864],[-55.962251,-23.817188],[-55.961396,-23.817412],[-55.961338,-23.817005],[-55.960818,-23.816975],[-55.960466,-23.816313],[-55.960009,-23.816735],[-55.959724,-23.815441],[-55.959097,-23.815739],[-55.958765,-23.815444],[-55.958164,-23.815544],[-55.95846,-23.815139],[-55.957944,-23.814896],[-55.95793,-23.814585],[-55.956816,-23.814717],[-55.956732,-23.814414],[-55.95714,-23.813947],[-55.956001,-23.813953],[-55.955675,-23.813174],[-55.955415,-23.813208],[-55.955561,-23.813756],[-55.955005,-23.813603],[-55.954519,-23.813889],[-55.953139,-23.81317],[-55.952769,-23.812639],[-55.952167,-23.813064],[-55.951811,-23.812502],[-55.95149,-23.81306],[-55.951167,-23.812439],[-55.94997,-23.813975],[-55.948647,-23.813912],[-55.948976,-23.814397],[-55.948427,-23.814687],[-55.948211,-23.81525],[-55.947773,-23.814714],[-55.947079,-23.815482],[-55.947409,-23.815949],[-55.946372,-23.816073],[-55.946426,-23.817008],[-55.946881,-23.81782],[-55.946127,-23.820212],[-55.945096,-23.820892],[-55.943739,-23.821307],[-55.944178,-23.82196],[-55.943917,-23.822378],[-55.942231,-23.822322],[-55.941535,-23.822723],[-55.941133,-23.824012],[-55.941561,-23.825166],[-55.940881,-23.825387],[-55.94195,-23.826032],[-55.94108,-23.826287],[-55.937199,-23.825791],[-55.936585,-23.825986],[-55.936807,-23.826475],[-55.936001,-23.826835],[-55.934805,-23.826587],[-55.934447,-23.82864],[-55.931097,-23.830937],[-55.929669,-23.829722],[-55.92869,-23.82958],[-55.92862,-23.828911],[-55.927606,-23.828217],[-55.927438,-23.82613],[-55.926703,-23.825773],[-55.926042,-23.826138],[-55.925068,-23.825468],[-55.925345,-23.824982],[-55.924993,-23.824505],[-55.923025,-23.823688],[-55.923208,-23.823359],[-55.922837,-23.82309],[-55.923188,-23.822655],[-55.922348,-23.821999],[-55.922013,-23.820849],[-55.921171,-23.820153],[-55.920431,-23.820125],[-55.920547,-23.819701],[-55.921186,-23.81929],[-55.921052,-23.818964],[-55.919159,-23.81845],[-55.91868,-23.817805],[-55.917662,-23.817762],[-55.917241,-23.816783],[-55.916489,-23.817284],[-55.915336,-23.817529],[-55.916123,-23.817891],[-55.914925,-23.818194],[-55.914579,-23.818679],[-55.914705,-23.819335],[-55.913996,-23.819542],[-55.913425,-23.820328],[-55.912192,-23.820717],[-55.908504,-23.820944],[-55.906832,-23.821384],[-55.90414,-23.82015],[-55.903129,-23.820396],[-55.902611,-23.821001],[-55.9008,-23.821323],[-55.899646,-23.821084],[-55.899758,-23.820629],[-55.898958,-23.820086],[-55.898861,-23.81948],[-55.898212,-23.819295],[-55.897496,-23.819416],[-55.897224,-23.819961],[-55.896535,-23.81992],[-55.896481,-23.820524],[-55.896166,-23.820707],[-55.895415,-23.820164],[-55.894656,-23.819003],[-55.893605,-23.81853],[-55.893242,-23.817652],[-55.892003,-23.816907],[-55.891361,-23.816834],[-55.891921,-23.816373],[-55.892271,-23.815333],[-55.890741,-23.814875],[-55.890112,-23.813005],[-55.889429,-23.812833],[-55.889341,-23.812006],[-55.888811,-23.811618],[-55.888137,-23.810056],[-55.886159,-23.807075],[-55.885445,-23.807539],[-55.885095,-23.806606],[-55.884401,-23.806506],[-55.88436,-23.806046],[-55.883902,-23.806336],[-55.883207,-23.80629],[-55.881951,-23.805626],[-55.879348,-23.805332],[-55.878321,-23.806584],[-55.877698,-23.806426],[-55.87696,-23.806669],[-55.876547,-23.807172],[-55.875999,-23.807308],[-55.875734,-23.807866],[-55.875055,-23.807247],[-55.87464,-23.805203],[-55.871048,-23.805136],[-55.870778,-23.804506],[-55.870591,-23.804753],[-55.870225,-23.804511],[-55.869552,-23.804773],[-55.869608,-23.804462],[-55.869251,-23.804305],[-55.869433,-23.803982],[-55.868969,-23.803649],[-55.869656,-23.80336],[-55.868914,-23.803043],[-55.869566,-23.802673],[-55.869317,-23.8018],[-55.868406,-23.80154],[-55.867952,-23.800828],[-55.868059,-23.800377],[-55.866805,-23.80025],[-55.865462,-23.799654],[-55.864555,-23.800166],[-55.863114,-23.799812],[-55.862876,-23.800199],[-55.862465,-23.800128],[-55.86188,-23.800575],[-55.861574,-23.800329],[-55.861027,-23.800465],[-55.861054,-23.799887],[-55.860544,-23.800123],[-55.860653,-23.799645],[-55.859722,-23.799553],[-55.860085,-23.799077],[-55.859315,-23.799012],[-55.859266,-23.798614],[-55.859695,-23.79846],[-55.859482,-23.797329],[-55.858989,-23.797312],[-55.859,-23.795731],[-55.8584,-23.79589],[-55.858466,-23.795389],[-55.858123,-23.795142],[-55.858717,-23.794555],[-55.858135,-23.794397],[-55.857732,-23.794629],[-55.857413,-23.793945],[-55.858054,-23.793846],[-55.858577,-23.793001],[-55.858245,-23.792195],[-55.858788,-23.791855],[-55.858249,-23.791725],[-55.85831,-23.790908],[-55.857751,-23.791076],[-55.857967,-23.790106],[-55.857596,-23.789955],[-55.857278,-23.789013],[-55.857991,-23.788932],[-55.857634,-23.788261],[-55.858609,-23.788567],[-55.859126,-23.788345],[-55.858756,-23.788211],[-55.859003,-23.787716],[-55.858412,-23.78778],[-55.85837,-23.786966],[-55.857694,-23.786781],[-55.857851,-23.786488],[-55.858526,-23.786444],[-55.857857,-23.785048],[-55.857132,-23.785286],[-55.857255,-23.784158],[-55.856801,-23.78444],[-55.85587,-23.784388],[-55.856695,-23.783554],[-55.856412,-23.783068],[-55.855916,-23.783142],[-55.855944,-23.782234],[-55.854599,-23.782793],[-55.854594,-23.782003],[-55.8552,-23.781136],[-55.854617,-23.78147],[-55.854181,-23.781386],[-55.854453,-23.780643],[-55.854257,-23.780438],[-55.85384,-23.780638],[-55.853689,-23.781472],[-55.853097,-23.781052],[-55.853778,-23.780028],[-55.853122,-23.780199],[-55.85228,-23.781426],[-55.852104,-23.780855],[-55.852528,-23.780272],[-55.851556,-23.780617],[-55.851773,-23.779792],[-55.850736,-23.780312],[-55.849443,-23.779079],[-55.84896,-23.779536],[-55.848463,-23.779293],[-55.848626,-23.778793],[-55.848124,-23.778572],[-55.848528,-23.778282],[-55.848406,-23.777581],[-55.847586,-23.777376],[-55.846829,-23.776278],[-55.846253,-23.776125],[-55.84643,-23.775105],[-55.84686,-23.775452],[-55.847747,-23.774212],[-55.847096,-23.774045],[-55.846551,-23.774321],[-55.844784,-23.773323],[-55.844947,-23.77103],[-55.84462,-23.770843],[-55.844601,-23.770219],[-55.844099,-23.770229],[-55.843739,-23.769391],[-55.844091,-23.768066],[-55.843559,-23.767371],[-55.842682,-23.767143],[-55.842221,-23.76765],[-55.841655,-23.767176],[-55.841449,-23.766475],[-55.841814,-23.766279],[-55.84177,-23.765854],[-55.842381,-23.765597],[-55.841108,-23.764923],[-55.840753,-23.765553],[-55.840152,-23.764645],[-55.840538,-23.76407],[-55.839398,-23.763538],[-55.83833,-23.763584],[-55.837898,-23.763937],[-55.837203,-23.763973],[-55.836331,-23.765294],[-55.835438,-23.76559],[-55.832201,-23.7644],[-55.83068,-23.764176],[-55.829359,-23.764618],[-55.829066,-23.7656],[-55.828523,-23.765587],[-55.82823,-23.765205],[-55.827437,-23.765642],[-55.826929,-23.765205],[-55.826137,-23.765912],[-55.825563,-23.765601],[-55.824858,-23.764146],[-55.823642,-23.763577],[-55.82351,-23.763007],[-55.822822,-23.762676],[-55.822514,-23.762195],[-55.822736,-23.761777],[-55.822428,-23.761531],[-55.822775,-23.760919],[-55.82218,-23.760608],[-55.822867,-23.75999],[-55.821607,-23.75966],[-55.821808,-23.758781],[-55.821076,-23.759109],[-55.820514,-23.759015],[-55.820465,-23.758612],[-55.821039,-23.75812],[-55.820123,-23.758294],[-55.820623,-23.757453],[-55.819953,-23.757344],[-55.81985,-23.75705],[-55.817015,-23.757344],[-55.816776,-23.756805],[-55.816281,-23.756864],[-55.816201,-23.756624],[-55.815313,-23.756893],[-55.815108,-23.757388],[-55.813664,-23.757644],[-55.813434,-23.757935],[-55.812885,-23.757818],[-55.812598,-23.758547],[-55.811899,-23.757847],[-55.811141,-23.759065],[-55.810463,-23.758662],[-55.810135,-23.758998],[-55.809561,-23.758782],[-55.809388,-23.759223],[-55.808922,-23.759355],[-55.805328,-23.759092],[-55.801619,-23.756187],[-55.801458,-23.755766],[-55.800966,-23.755617],[-55.801067,-23.753821],[-55.800693,-23.752427],[-55.800271,-23.752126],[-55.800021,-23.751365],[-55.799455,-23.750945],[-55.798737,-23.751522],[-55.797927,-23.751539],[-55.797448,-23.750645],[-55.796322,-23.750361],[-55.795692,-23.748428],[-55.794861,-23.748458],[-55.794723,-23.747937],[-55.793894,-23.747963],[-55.79351,-23.747481],[-55.792688,-23.747456],[-55.793063,-23.747103],[-55.792694,-23.746463],[-55.792089,-23.746675],[-55.791602,-23.746125],[-55.791035,-23.746039],[-55.790786,-23.746308],[-55.790188,-23.746254],[-55.78974,-23.746864],[-55.788851,-23.746672],[-55.78757,-23.745773],[-55.78689,-23.745618],[-55.78564,-23.744394],[-55.784801,-23.744396],[-55.784174,-23.743989],[-55.783441,-23.742484],[-55.783756,-23.741096],[-55.782897,-23.741094],[-55.78239,-23.740643],[-55.780876,-23.740843],[-55.780526,-23.740416],[-55.779817,-23.741508],[-55.779418,-23.741626],[-55.776912,-23.739498],[-55.772057,-23.737414],[-55.769927,-23.736119],[-55.768562,-23.733642],[-55.767154,-23.732864],[-55.766909,-23.73241],[-55.767725,-23.731676],[-55.767593,-23.731052],[-55.768047,-23.730717],[-55.768022,-23.730229],[-55.767262,-23.729862],[-55.767478,-23.729312],[-55.767047,-23.728776],[-55.766536,-23.728722],[-55.765873,-23.727579],[-55.765455,-23.727458],[-55.765544,-23.726859],[-55.765164,-23.726467],[-55.765251,-23.726007],[-55.76485,-23.725643],[-55.764925,-23.725115],[-55.764526,-23.724493],[-55.764547,-23.7208],[-55.765253,-23.718886],[-55.764871,-23.717131],[-55.765056,-23.71613],[-55.764055,-23.715151],[-55.763997,-23.714501],[-55.763181,-23.714015],[-55.763123,-23.713076],[-55.762606,-23.712489],[-55.7624,-23.711277],[-55.761466,-23.710236],[-55.760748,-23.709954],[-55.76087,-23.708077],[-55.760625,-23.707479],[-55.76001,-23.707316],[-55.759527,-23.706337],[-55.759508,-23.704088],[-55.759898,-23.702908],[-55.760509,-23.702506],[-55.759998,-23.702173],[-55.760406,-23.701792],[-55.759929,-23.701445],[-55.760297,-23.700753],[-55.760819,-23.700797],[-55.761706,-23.700037],[-55.76139,-23.699565],[-55.761564,-23.699273],[-55.76108,-23.699111],[-55.761156,-23.698547],[-55.760579,-23.698773],[-55.759981,-23.697607],[-55.757428,-23.69523],[-55.755063,-23.693499],[-55.754595,-23.692254],[-55.753624,-23.691988],[-55.753216,-23.691452],[-55.752782,-23.691806],[-55.75278,-23.69125],[-55.752127,-23.691556],[-55.752165,-23.690608],[-55.751474,-23.690476],[-55.751059,-23.691453],[-55.750203,-23.690985],[-55.748184,-23.691358],[-55.747187,-23.690424],[-55.747217,-23.689042],[-55.745874,-23.688634],[-55.74563,-23.687973],[-55.745105,-23.688027],[-55.744606,-23.687707],[-55.744613,-23.687197],[-55.743928,-23.68692],[-55.744011,-23.686339],[-55.742457,-23.686809],[-55.742074,-23.685713],[-55.741635,-23.68529],[-55.741032,-23.68561],[-55.740794,-23.684782],[-55.739584,-23.685232],[-55.738722,-23.685117],[-55.733979,-23.680644],[-55.732486,-23.680817],[-55.730454,-23.678764],[-55.729241,-23.679232],[-55.728587,-23.677376],[-55.727286,-23.676394],[-55.726777,-23.674918],[-55.72419,-23.670467],[-55.723803,-23.66901],[-55.722831,-23.66827],[-55.721838,-23.666709],[-55.720784,-23.666158],[-55.718924,-23.666097],[-55.718008,-23.664446],[-55.716561,-23.663224],[-55.714618,-23.663673],[-55.711044,-23.662194],[-55.709044,-23.662967],[-55.707869,-23.662813],[-55.707863,-23.661169],[-55.707342,-23.66065],[-55.706237,-23.661192],[-55.705737,-23.662104],[-55.704565,-23.661684],[-55.703784,-23.662486],[-55.702863,-23.662844],[-55.702256,-23.662762],[-55.701379,-23.661747],[-55.700828,-23.661612],[-55.699377,-23.663112],[-55.698286,-23.663257],[-55.697925,-23.663732],[-55.697915,-23.664048],[-55.69866,-23.664569],[-55.698859,-23.665551],[-55.698482,-23.665706],[-55.697185,-23.665298],[-55.696515,-23.665369],[-55.695739,-23.666446],[-55.694457,-23.667139],[-55.694949,-23.667722],[-55.693908,-23.667523],[-55.692963,-23.666472],[-55.692051,-23.666135],[-55.691084,-23.667206],[-55.689939,-23.66763],[-55.689939,-23.666686],[-55.689473,-23.666483],[-55.686583,-23.670125],[-55.685654,-23.66991],[-55.684672,-23.670534],[-55.684152,-23.670272],[-55.683352,-23.670522],[-55.681809,-23.670405],[-55.681116,-23.67095],[-55.680823,-23.672122],[-55.680128,-23.672428],[-55.679163,-23.671543],[-55.677266,-23.673203],[-55.676781,-23.672313],[-55.676146,-23.672001],[-55.675991,-23.672663],[-55.675487,-23.67316],[-55.674539,-23.6735],[-55.673678,-23.673366],[-55.673309,-23.673011],[-55.673405,-23.672036],[-55.672642,-23.671537],[-55.671745,-23.673015],[-55.67111,-23.673502],[-55.669192,-23.673373],[-55.668259,-23.672403],[-55.667634,-23.673341],[-55.666909,-23.673827],[-55.666418,-23.674022],[-55.665849,-23.67385],[-55.665276,-23.674355],[-55.663171,-23.674996],[-55.66307,-23.675402],[-55.662599,-23.675501],[-55.661914,-23.676647],[-55.661313,-23.677044],[-55.660819,-23.676656],[-55.660487,-23.675226],[-55.659545,-23.674572],[-55.659639,-23.673995],[-55.659253,-23.673377],[-55.659531,-23.672558],[-55.658842,-23.67266],[-55.658137,-23.673602],[-55.656936,-23.673737],[-55.656073,-23.673413],[-55.654626,-23.671721],[-55.654521,-23.670654],[-55.653493,-23.671052],[-55.652833,-23.670694],[-55.652759,-23.670363],[-55.653504,-23.670049],[-55.652838,-23.669542],[-55.652244,-23.669411],[-55.651558,-23.669653],[-55.649299,-23.669015],[-55.64869,-23.669863],[-55.647224,-23.669818],[-55.646559,-23.670291],[-55.645754,-23.669973],[-55.64609,-23.670982],[-55.645309,-23.670655],[-55.644492,-23.669447],[-55.643368,-23.668733],[-55.643132,-23.668762],[-55.643126,-23.669376],[-55.642741,-23.6694],[-55.641066,-23.668107],[-55.637409,-23.663447],[-55.635074,-23.661841],[-55.634378,-23.661031],[-55.633101,-23.660663],[-55.632406,-23.659781],[-55.632123,-23.658618],[-55.630333,-23.656923],[-55.629468,-23.657078],[-55.627921,-23.656373],[-55.627386,-23.656599],[-55.626904,-23.657407],[-55.626038,-23.657585],[-55.624516,-23.65618],[-55.620789,-23.656062],[-55.619832,-23.654229],[-55.619488,-23.654375],[-55.619293,-23.655506],[-55.61801,-23.655269],[-55.615903,-23.654031],[-55.614193,-23.654598],[-55.613853,-23.654952],[-55.613858,-23.655548],[-55.613231,-23.655538],[-55.611573,-23.654638],[-55.611561,-23.654236],[-55.612359,-23.65385],[-55.612044,-23.652628],[-55.610879,-23.652758],[-55.61088,-23.651932],[-55.610452,-23.651499],[-55.609957,-23.652027],[-55.610138,-23.652449],[-55.608186,-23.653357],[-55.606018,-23.653464],[-55.605714,-23.652572],[-55.604833,-23.65237],[-55.604704,-23.651583],[-55.602782,-23.650834],[-55.60143,-23.651165],[-55.601781,-23.652554],[-55.601598,-23.652824],[-55.600573,-23.652977],[-55.599746,-23.652649],[-55.599439,-23.651887],[-55.599507,-23.650854],[-55.600112,-23.64974],[-55.598258,-23.650143],[-55.598436,-23.649368],[-55.597317,-23.649254],[-55.597392,-23.648541],[-55.596691,-23.64811],[-55.597051,-23.647373],[-55.596489,-23.646713],[-55.594639,-23.646556],[-55.594436,-23.646261],[-55.594649,-23.645681],[-55.594119,-23.645333],[-55.592899,-23.6458],[-55.591634,-23.643183],[-55.590554,-23.642365],[-55.590918,-23.640937],[-55.59014,-23.640492],[-55.589673,-23.639797],[-55.588843,-23.639636],[-55.588119,-23.638415],[-55.587335,-23.638272],[-55.586729,-23.637598],[-55.587171,-23.63618],[-55.586151,-23.635367],[-55.585819,-23.634465],[-55.586322,-23.633318],[-55.584377,-23.630483],[-55.584477,-23.630186],[-55.585346,-23.630045],[-55.58547,-23.62959],[-55.583322,-23.629051],[-55.584439,-23.627801],[-55.583651,-23.626643],[-55.583965,-23.626014],[-55.583434,-23.625715],[-55.584048,-23.625423],[-55.583581,-23.623788],[-55.583953,-23.622681],[-55.582911,-23.621335],[-55.583076,-23.620117],[-55.582358,-23.620206],[-55.582218,-23.61978],[-55.580482,-23.619177],[-55.581008,-23.617637],[-55.580289,-23.617116],[-55.580596,-23.616365],[-55.580128,-23.616306],[-55.580211,-23.61582],[-55.579824,-23.615071],[-55.580194,-23.614573],[-55.579678,-23.613783],[-55.580201,-23.612934],[-55.579698,-23.61269],[-55.579924,-23.612168],[-55.579353,-23.612064],[-55.579782,-23.61158],[-55.578729,-23.611358],[-55.578892,-23.611008],[-55.57844,-23.610868],[-55.579234,-23.60985],[-55.579493,-23.607834],[-55.578475,-23.607671],[-55.578764,-23.606789],[-55.578045,-23.606651],[-55.577883,-23.6059],[-55.578526,-23.60494],[-55.578923,-23.604795],[-55.578848,-23.603665],[-55.579681,-23.603045],[-55.578867,-23.601281],[-55.577625,-23.600954],[-55.577145,-23.600123],[-55.577313,-23.59961],[-55.577052,-23.598695],[-55.577558,-23.59823],[-55.576976,-23.597674],[-55.57691,-23.595682],[-55.577155,-23.594993],[-55.577914,-23.594301],[-55.577914,-23.593741],[-55.577802,-23.593225],[-55.577019,-23.592784],[-55.576558,-23.591737],[-55.57735,-23.591478],[-55.577347,-23.591053],[-55.574212,-23.58906],[-55.57373,-23.588523],[-55.573512,-23.587383],[-55.572805,-23.586713],[-55.572762,-23.586162],[-55.573267,-23.585299],[-55.573168,-23.583971],[-55.571925,-23.58321],[-55.571205,-23.581365],[-55.571663,-23.580024],[-55.571664,-23.57876],[-55.569557,-23.577386],[-55.568952,-23.576446],[-55.567334,-23.576227],[-55.566706,-23.575766],[-55.565828,-23.574367],[-55.565874,-23.573496],[-55.565499,-23.572716],[-55.563163,-23.57008],[-55.562922,-23.568881],[-55.561619,-23.568078],[-55.561362,-23.567281],[-55.56188,-23.56678],[-55.561707,-23.566187],[-55.560692,-23.565763],[-55.560027,-23.564772],[-55.559813,-23.563736],[-55.558663,-23.563066],[-55.558378,-23.561704],[-55.557397,-23.561402],[-55.556508,-23.560183],[-55.555514,-23.559849],[-55.555415,-23.55764],[-55.554024,-23.553757],[-55.552344,-23.552672],[-55.551712,-23.550963],[-55.54875,-23.547531],[-55.548353,-23.544949],[-55.547673,-23.543412],[-55.545237,-23.54147],[-55.545299,-23.540586],[-55.544654,-23.53997],[-55.544287,-23.538955],[-55.544005,-23.535178],[-55.54578,-23.532887],[-55.544911,-23.531262],[-55.545002,-23.529863],[-55.543421,-23.523665],[-55.540513,-23.524627],[-55.542698,-23.529948],[-55.540692,-23.533726],[-55.53687,-23.536749],[-55.537307,-23.539715],[-55.535086,-23.551109],[-55.536226,-23.554944],[-55.532298,-23.560031],[-55.530201,-23.563526],[-55.52659,-23.567341],[-55.531333,-23.571521],[-55.528514,-23.580208],[-55.531071,-23.584482],[-55.538274,-23.591854],[-55.538535,-23.600855],[-55.536396,-23.610031],[-55.536019,-23.617266],[-55.539963,-23.625115],[-55.537256,-23.628061],[-55.532186,-23.630278],[-55.530508,-23.627821],[-55.520789,-23.625843],[-55.511183,-23.623196],[-55.510022,-23.629962],[-55.510424,-23.632556],[-55.498217,-23.638259],[-55.493461,-23.637695],[-55.491763,-23.641878],[-55.489546,-23.642825],[-55.484098,-23.64022],[-55.48193,-23.644394],[-55.47819,-23.64687],[-55.474763,-23.650422],[-55.474686,-23.658027],[-55.474144,-23.661227],[-55.475337,-23.673729],[-55.476059,-23.675153],[-55.469278,-23.676919],[-55.466793,-23.680611],[-55.462246,-23.683898],[-55.464134,-23.698757],[-55.466584,-23.703439],[-55.464251,-23.707349],[-55.464602,-23.709177],[-55.463554,-23.711954],[-55.456981,-23.714134],[-55.455699,-23.716158],[-55.454831,-23.716983],[-55.452841,-23.71608],[-55.451238,-23.714239],[-55.442568,-23.722932],[-55.442129,-23.727941],[-55.4468,-23.734803],[-55.445267,-23.738211],[-55.448677,-23.742265],[-55.44674,-23.74802],[-55.443199,-23.752901],[-55.442843,-23.755995],[-55.447254,-23.760216],[-55.443276,-23.765659],[-55.433864,-23.77103],[-55.433532,-23.775182],[-55.43239,-23.782445],[-55.430724,-23.787049],[-55.430187,-23.790131],[-55.435181,-23.793174],[-55.436961,-23.798144],[-55.441134,-23.803318],[-55.444178,-23.809102],[-55.448427,-23.814195],[-55.452626,-23.81843],[-55.45379,-23.819138],[-55.477459,-23.810847],[-55.479417,-23.810365],[-55.479932,-23.810533],[-55.48093,-23.809788],[-55.484136,-23.808962],[-55.486066,-23.807121],[-55.489154,-23.805494],[-55.490407,-23.804454],[-55.491452,-23.80441],[-55.493561,-23.803167],[-55.497062,-23.802275],[-55.498998,-23.800867],[-55.504318,-23.798323],[-55.511727,-23.797116],[-55.512888,-23.797417],[-55.51636,-23.799374],[-55.517451,-23.800549],[-55.518546,-23.801187],[-55.518746,-23.800959],[-55.519436,-23.801403],[-55.521414,-23.801255],[-55.522353,-23.801549],[-55.524617,-23.801191],[-55.525824,-23.801456],[-55.526718,-23.802295],[-55.528162,-23.802422],[-55.529243,-23.800973],[-55.531393,-23.800872],[-55.532247,-23.801228],[-55.532617,-23.801087],[-55.532371,-23.800795],[-55.532767,-23.800429],[-55.533351,-23.800719],[-55.533655,-23.799923],[-55.534141,-23.799837],[-55.534077,-23.799466],[-55.535784,-23.799591],[-55.536334,-23.799226],[-55.536863,-23.799339],[-55.537502,-23.798727],[-55.537672,-23.798082],[-55.538189,-23.798065],[-55.538612,-23.795793],[-55.539218,-23.795686],[-55.540629,-23.796765],[-55.540479,-23.797192],[-55.540881,-23.798334],[-55.541847,-23.798],[-55.541942,-23.7988],[-55.542878,-23.798705],[-55.544697,-23.799969],[-55.544835,-23.80071],[-55.545653,-23.80121],[-55.547386,-23.801195],[-55.548173,-23.800331],[-55.549885,-23.799868],[-55.552371,-23.801152],[-55.552913,-23.801893],[-55.552733,-23.802862],[-55.553197,-23.803272],[-55.55218,-23.804581],[-55.553883,-23.80439],[-55.552823,-23.805161],[-55.553484,-23.806233],[-55.554099,-23.806374],[-55.554168,-23.805508],[-55.55558,-23.804509],[-55.555527,-23.805642],[-55.556304,-23.805943],[-55.558056,-23.803733],[-55.558616,-23.803991],[-55.559777,-23.803781],[-55.560108,-23.804949],[-55.560918,-23.804785],[-55.561809,-23.805493],[-55.563194,-23.805041],[-55.564346,-23.805508],[-55.566209,-23.805182],[-55.567012,-23.806318],[-55.568879,-23.807171],[-55.570066,-23.808672],[-55.571563,-23.808334],[-55.571247,-23.809243],[-55.5718,-23.809718],[-55.572022,-23.810514],[-55.572727,-23.810859],[-55.574053,-23.810926],[-55.574403,-23.811426],[-55.574946,-23.811363],[-55.576222,-23.81221],[-55.578157,-23.812165],[-55.579454,-23.813053],[-55.580941,-23.814737],[-55.58094,-23.815302],[-55.581495,-23.815632],[-55.582205,-23.815119],[-55.582986,-23.815135],[-55.586064,-23.816468],[-55.587552,-23.816703],[-55.588392,-23.816539],[-55.588727,-23.816705],[-55.589075,-23.817629],[-55.590023,-23.81823],[-55.591793,-23.818268],[-55.593371,-23.818978],[-55.595726,-23.819447],[-55.596035,-23.819765],[-55.596669,-23.819604],[-55.59814,-23.819947],[-55.599209,-23.821722],[-55.602253,-23.822495],[-55.602586,-23.82322],[-55.604229,-23.824197],[-55.604889,-23.825129],[-55.606566,-23.825054],[-55.607262,-23.826049]]]}}]}
