{"type":"FeatureCollection","name":"distrito","features":[{"type":"Feature","properties":{"clave":"15-7","nombre":"Puerto Pinasco"},"geometry":{"type":"Polygon","coordinates":[[[-59.161513,-23.202333],[-59.162399,-23.203426],[-59.163922,-23.202959],[-59.164509,-23.203149],[-59.163977,-23.207074],[-59.16284,-23.209652],[-59.163529,-23.210043],[-59.164226,-23.209948],[-59.163982,-23.208592],[-59.16803,-23.209655],[-59.168362,-23.210364],[-59.167796,-23.212019],[-59.171433,-23.212715],[-59.172779,-23.214307],[-59.172847,-23.216128],[-59.173485,-23.216258],[-59.175451,-23.214785],[-59.176253,-23.214617],[-59.175979,-23.217564],[-59.176348,-23.217775],[-59.179003,-23.218179],[-59.179203,-23.217218],[-59.177909,-23.216714],[-59.177467,-23.215908],[-59.178232,-23.215011],[-59.180214,-23.214348],[-59.180797,-23.214613],[-59.180857,-23.215495],[-59.179946,-23.217068],[-59.180004,-23.218113],[-59.181416,-23.217776],[-59.183513,-23.215794],[-59.183899,-23.216051],[-59.183847,-23.217247],[-59.184189,-23.217715],[-59.185806,-23.21811],[-59.186542,-23.217517],[-59.186604,-23.216882],[-59.185635,-23.212734],[-59.186115,-23.212692],[-59.187506,-23.213643],[-59.188144,-23.213756],[-59.189033,-23.21379],[-59.190414,-23.213204],[-59.190748,-23.212687],[-59.190211,-23.212211],[-59.188062,-23.211975],[-59.187438,-23.211529],[-59.187985,-23.210729],[-59.190205,-23.210107],[-59.191631,-23.210484],[-59.195308,-23.21325],[-59.195122,-23.215172],[-59.194382,-23.217038],[-59.196022,-23.217642],[-59.196915,-23.217193],[-59.197058,-23.215123],[-59.197641,-23.2139],[-59.198884,-23.21407],[-59.199087,-23.215534],[-59.199481,-23.215912],[-59.202497,-23.215167],[-59.196414,-23.200425],[-59.195962,-23.198689],[-59.19587,-23.196681],[-59.196426,-23.193838],[-59.235157,-23.076256],[-59.235589,-23.075203],[-59.237877,-23.072453],[-59.246939,-23.062425],[-59.168664,-22.986474],[-59.15637,-22.986809],[-59.150213,-22.964424],[-59.148458,-22.955347],[-59.144943,-22.947038],[-59.142028,-22.935886],[-59.138704,-22.929362],[-59.137518,-22.925649],[-59.138262,-22.921756],[-59.138594,-22.90698],[-59.141384,-22.889783],[-59.142901,-22.883794],[-59.145113,-22.881078],[-59.148715,-22.879684],[-59.149494,-22.878035],[-59.148282,-22.872679],[-59.147374,-22.866122],[-59.147252,-22.858368],[-59.147874,-22.846717],[-59.147497,-22.838067],[-59.150486,-22.823404],[-59.152167,-22.817711],[-59.15323,-22.803372],[-59.153354,-22.795908],[-59.153918,-22.790826],[-59.154694,-22.789027],[-59.154832,-22.787531],[-59.14781,-22.770764],[-59.147709,-22.76435],[-59.147019,-22.761375],[-59.145546,-22.759752],[-59.143386,-22.750232],[-59.141756,-22.748909],[-59.134336,-22.747667],[-59.131748,-22.746803],[-59.129167,-22.746391],[-59.125447,-22.745099],[-59.122524,-22.743346],[-59.121189,-22.740231],[-59.121473,-22.716945],[-59.121172,-22.71307],[-59.120483,-22.710095],[-59.116717,-22.705816],[-59.116671,-22.702832],[-59.117292,-22.701334],[-59.120476,-22.699201],[-59.121897,-22.697539],[-59.12266,-22.694843],[-59.088584,-22.667497],[-59.08676,-22.667403],[-59.085279,-22.666855],[-59.084215,-22.665344],[-59.083941,-22.663238],[-59.080078,-22.662379],[-59.078071,-22.662739],[-59.075899,-22.664938],[-59.07339,-22.66539],[-59.070557,-22.665423],[-59.068347,-22.667213],[-59.065338,-22.667346],[-59.063904,-22.669205],[-59.059699,-22.668948],[-59.058613,-22.668154],[-59.058077,-22.667577],[-59.058094,-22.666964],[-59.058952,-22.665858],[-59.059264,-22.664535],[-59.057922,-22.660814],[-59.057065,-22.659718],[-59.056686,-22.657351],[-59.055635,-22.655484],[-59.055668,-22.653995],[-59.057686,-22.650538],[-59.057704,-22.649976],[-59.052692,-22.646782],[-59.0526,-22.646218],[-59.053328,-22.6425],[-59.054084,-22.641083],[-59.053939,-22.637854],[-59.054404,-22.635204],[-59.054219,-22.634022],[-59.053787,-22.633602],[-59.050184,-22.634022],[-59.04803,-22.633481],[-59.048261,-22.629288],[-59.04555,-22.629224],[-59.044893,-22.628901],[-59.043418,-22.625943],[-59.042708,-22.625619],[-59.04071,-22.625673],[-59.039447,-22.627075],[-59.03752,-22.62846],[-59.035301,-22.628511],[-59.034653,-22.62788],[-59.034675,-22.627113],[-59.03414,-22.626434],[-59.033947,-22.625404],[-59.032812,-22.624352],[-59.030863,-22.624612],[-59.029348,-22.627086],[-59.028668,-22.627582],[-59.027996,-22.627771],[-59.02517,-22.627399],[-59.022473,-22.628561],[-59.020149,-22.62845],[-59.019271,-22.62812],[-59.016468,-22.625234],[-59.015821,-22.620863],[-59.013891,-22.618716],[-59.01071,-22.618643],[-59.009153,-22.618215],[-59.008328,-22.617526],[-59.006182,-22.614521],[-59.00298,-22.614665],[-59.00196,-22.616533],[-59.001127,-22.620245],[-58.997879,-22.620054],[-58.992783,-22.618926],[-58.990954,-22.619549],[-58.989512,-22.619513],[-58.98766,-22.618855],[-58.985169,-22.617233],[-58.983109,-22.617293],[-58.981632,-22.617868],[-58.980192,-22.617722],[-58.977759,-22.615339],[-58.974472,-22.61403],[-58.97273,-22.613876],[-58.971997,-22.614192],[-58.970736,-22.616168],[-58.970722,-22.616669],[-58.97029,-22.616992],[-58.969507,-22.616917],[-58.966465,-22.615671],[-58.965862,-22.615656],[-58.963786,-22.614435],[-58.962542,-22.611563],[-58.961552,-22.608195],[-58.960135,-22.607157],[-58.959,-22.606795],[-58.957534,-22.607538],[-58.956146,-22.607504],[-58.949951,-22.606736],[-58.94854,-22.607536],[-58.948038,-22.608192],[-58.947555,-22.60818],[-58.946248,-22.607479],[-58.944628,-22.605099],[-58.943312,-22.604732],[-58.940996,-22.605453],[-58.941017,-22.608686],[-58.939229,-22.612261],[-58.937982,-22.613567],[-58.93599,-22.613518],[-58.934083,-22.612746],[-58.93194,-22.615867],[-58.931511,-22.616079],[-58.928255,-22.613826],[-58.926225,-22.613106],[-58.925288,-22.613975],[-58.924882,-22.615359],[-58.924446,-22.615849],[-58.921404,-22.615501],[-58.920373,-22.615698],[-58.918213,-22.61687],[-58.915313,-22.617019],[-58.91286,-22.618183],[-58.908462,-22.618185],[-58.90549,-22.620673],[-58.904337,-22.620867],[-58.901404,-22.619956],[-58.899485,-22.62158],[-58.899038,-22.622347],[-58.898556,-22.622336],[-58.897958,-22.622211],[-58.896599,-22.62123],[-58.895668,-22.619978],[-58.893899,-22.614472],[-58.890775,-22.609935],[-58.890738,-22.607151],[-58.890281,-22.606304],[-58.887455,-22.603948],[-58.887053,-22.601147],[-58.880376,-22.601254],[-58.878771,-22.602015],[-58.877978,-22.60332],[-58.87726,-22.603803],[-58.876315,-22.603779],[-58.874663,-22.602885],[-58.873981,-22.603018],[-58.872978,-22.603894],[-58.872348,-22.604053],[-58.871241,-22.602924],[-58.870186,-22.602847],[-58.868022,-22.606319],[-58.866564,-22.606155],[-58.864835,-22.604161],[-58.864059,-22.603791],[-58.863161,-22.603919],[-58.861178,-22.605018],[-58.858368,-22.607399],[-58.853561,-22.606076],[-58.852064,-22.605185],[-59.011317,-22.42611],[-59.00383,-22.414422],[-59.003275,-22.414131],[-58.985812,-22.410956],[-59.093743,-22.261814],[-59.093866,-22.259081],[-59.09463,-22.258033],[-59.094861,-22.256922],[-59.094911,-22.255764],[-59.094428,-22.254502],[-59.094242,-22.252587],[-59.09552,-22.250192],[-59.094742,-22.247679],[-59.094553,-22.244852],[-59.094761,-22.244196],[-59.095865,-22.243578],[-59.097031,-22.24354],[-59.098003,-22.246854],[-59.098388,-22.247241],[-59.098879,-22.247259],[-59.099511,-22.247117],[-59.101864,-22.245547],[-59.10224,-22.245146],[-59.102018,-22.244103],[-59.102346,-22.243783],[-59.104175,-22.243931],[-59.10815,-22.241916],[-59.110875,-22.236821],[-59.111852,-22.23592],[-59.113526,-22.235119],[-59.114347,-22.234211],[-59.113398,-22.230998],[-59.11344,-22.23006],[-59.113629,-22.229344],[-59.115138,-22.228751],[-59.115647,-22.227831],[-59.117534,-22.227577],[-59.121348,-22.228099],[-59.125448,-22.226763],[-59.128473,-22.226881],[-59.128575,-22.224641],[-59.125863,-22.217618],[-59.125587,-22.214804],[-59.126092,-22.212579],[-59.128159,-22.211538],[-59.135812,-22.212021],[-59.138173,-22.21342],[-59.141148,-22.214656],[-59.145955,-22.215589],[-59.149384,-22.215721],[-59.152535,-22.213038],[-59.154735,-22.209012],[-59.158932,-22.205438],[-59.162257,-22.203324],[-59.18021,-22.204011],[-59.188663,-22.20471],[-59.192965,-22.203379],[-59.194294,-22.200812],[-59.195143,-22.199909],[-59.196086,-22.196952],[-59.199147,-22.191831],[-59.20287,-22.188339],[-59.204966,-22.188208],[-59.206856,-22.187422],[-59.210711,-22.186709],[-59.215918,-22.186903],[-59.21665,-22.186072],[-59.217422,-22.184386],[-59.221123,-22.184643],[-59.223061,-22.185362],[-59.225058,-22.187369],[-59.227802,-22.188226],[-59.229505,-22.191618],[-59.230634,-22.192305],[-59.236402,-22.192954],[-59.236354,-22.194025],[-59.235241,-22.195593],[-59.230852,-22.19779],[-59.234651,-22.198366],[-59.235273,-22.2],[-59.285183,-22.190854],[-59.241225,-22.132108],[-59.239296,-22.131614],[-59.201595,-22.147866],[-59.018355,-22.150072],[-59.004113,-22.15436],[-59.000053,-22.15441],[-59.000104,-22.154992],[-58.985425,-22.159613],[-58.983787,-22.159229],[-58.981619,-22.158116],[-58.962615,-22.150356],[-58.85664,-22.151189],[-58.854933,-22.1517],[-58.850956,-22.154153],[-58.845213,-22.156471],[-58.843246,-22.156821],[-58.752271,-22.157361],[-58.750145,-22.156978],[-58.741406,-22.153607],[-58.737136,-22.152462],[-58.706576,-22.153524],[-58.659046,-22.153988],[-58.656489,-22.154602],[-58.650869,-22.157865],[-58.648974,-22.15831],[-58.646992,-22.157551],[-58.641908,-22.154386],[-58.473562,-22.156234],[-58.459693,-22.156769],[-58.457791,-22.157395],[-58.456562,-22.158184],[-58.455521,-22.15937],[-58.454305,-22.16194],[-58.452343,-22.163638],[-58.396747,-22.178969],[-58.26688,-22.179487],[-58.249855,-22.186158],[-58.241856,-22.189753],[-58.237447,-22.198389],[-58.242224,-22.211916],[-58.245549,-22.240463],[-58.202731,-22.282506],[-58.185565,-22.349438],[-57.855743,-22.397715],[-57.858563,-22.398616],[-57.860824,-22.399891],[-57.864481,-22.403069],[-57.865367,-22.405711],[-57.865957,-22.411665],[-57.865439,-22.417255],[-57.864232,-22.420423],[-57.862,-22.423963],[-57.858226,-22.427438],[-57.848809,-22.43308],[-57.844408,-22.437547],[-57.842251,-22.44054],[-57.840531,-22.443855],[-57.839601,-22.447057],[-57.839148,-22.4507],[-57.839173,-22.454742],[-57.839911,-22.459188],[-57.841045,-22.463594],[-57.843383,-22.470786],[-57.84561,-22.47923],[-57.845364,-22.484416],[-57.844475,-22.487727],[-57.834568,-22.502219],[-57.832865,-22.505457],[-57.831711,-22.509166],[-57.830876,-22.513493],[-57.830472,-22.518053],[-57.830567,-22.538743],[-57.830077,-22.543199],[-57.827569,-22.550998],[-57.827536,-22.555131],[-57.828764,-22.563526],[-57.828729,-22.567311],[-57.827744,-22.570731],[-57.825471,-22.57469],[-57.822193,-22.578731],[-57.818525,-22.57987],[-57.815005,-22.581938],[-57.812119,-22.584383],[-57.809408,-22.587247],[-57.807415,-22.590165],[-57.804785,-22.592152],[-57.802731,-22.594376],[-57.799767,-22.598361],[-57.797667,-22.602639],[-57.79279,-22.608558],[-57.785388,-22.614913],[-57.779917,-22.622618],[-57.772888,-22.639449],[-57.772046,-22.648039],[-57.771979,-22.651612],[-57.772281,-22.654145],[-57.773504,-22.657151],[-57.775012,-22.659597],[-57.776803,-22.661268],[-57.780432,-22.663039],[-57.782935,-22.663614],[-57.786126,-22.663838],[-57.789976,-22.663873],[-57.793076,-22.663375],[-57.807587,-22.658957],[-57.819895,-22.65599],[-57.825542,-22.653988],[-57.829701,-22.652846],[-57.837857,-22.652402],[-57.844316,-22.65165],[-57.848425,-22.651732],[-57.865221,-22.654871],[-57.871228,-22.655263],[-57.881726,-22.655093],[-57.890479,-22.655727],[-57.902969,-22.657369],[-57.909428,-22.659125],[-57.917474,-22.664169],[-57.920994,-22.66718],[-57.924056,-22.6705],[-57.930239,-22.67914],[-57.935347,-22.685262],[-57.937445,-22.688967],[-57.938898,-22.692594],[-57.940078,-22.696774],[-57.940635,-22.704123],[-57.940248,-22.708272],[-57.938138,-22.716319],[-57.931941,-22.733237],[-57.929985,-22.737007],[-57.925789,-22.743273],[-57.918032,-22.747893],[-57.914033,-22.749451],[-57.910952,-22.750408],[-57.8981,-22.752631],[-57.894086,-22.753877],[-57.890147,-22.755891],[-57.885054,-22.761836],[-57.877433,-22.773711],[-57.876754,-22.776032],[-57.876559,-22.778092],[-57.876641,-22.780084],[-57.87714,-22.782141],[-57.878536,-22.783547],[-57.882018,-22.785713],[-57.88357,-22.789819],[-57.883446,-22.792006],[-57.882556,-22.793939],[-57.875318,-22.80298],[-57.871709,-22.804586],[-57.86718,-22.805532],[-57.849644,-22.80662],[-57.840264,-22.807997],[-57.828632,-22.812006],[-57.817708,-22.814645],[-57.813937,-22.816029],[-57.811439,-22.817369],[-57.810215,-22.819033],[-57.807822,-22.824727],[-57.807613,-22.829741],[-57.807154,-22.832878],[-57.80312,-22.843815],[-57.800764,-22.84921],[-57.798521,-22.853503],[-57.790425,-22.864126],[-57.789725,-22.866934],[-57.789429,-22.870955],[-57.789507,-22.877517],[-57.790035,-22.879285],[-57.792973,-22.884876],[-57.796789,-22.890796],[-57.798432,-22.892743],[-57.80391,-22.896993],[-57.813176,-22.902072],[-57.818284,-22.90415],[-57.819724,-22.905249],[-57.820888,-22.906937],[-57.821497,-22.908925],[-57.821643,-22.913278],[-57.821375,-22.914974],[-57.818455,-22.919415],[-57.814972,-22.922788],[-57.806243,-22.927995],[-57.793243,-22.938241],[-57.789877,-22.941428],[-57.782562,-22.950353],[-57.778089,-22.955058],[-57.771625,-22.959886],[-57.768894,-22.962849],[-57.767394,-22.965291],[-57.765954,-22.971237],[-57.765863,-22.976363],[-57.766588,-22.97776],[-57.770601,-22.982939],[-57.773013,-22.986874],[-57.777725,-22.995889],[-57.780579,-23.000409],[-57.784939,-23.006277],[-57.788018,-23.012061],[-57.789651,-23.016203],[-57.79062,-23.021009],[-57.790833,-23.023505],[-57.789818,-23.027796],[-57.788395,-23.030075],[-57.786599,-23.032143],[-57.784799,-23.033485],[-57.782972,-23.034338],[-57.779188,-23.035071],[-57.776687,-23.03506],[-57.773589,-23.034592],[-57.770396,-23.034929],[-57.767183,-23.035906],[-57.763429,-23.037758],[-57.759481,-23.040297],[-57.756302,-23.043063],[-57.74952,-23.048068],[-57.743562,-23.051443],[-57.737653,-23.055598],[-57.734101,-23.057674],[-57.731485,-23.059845],[-57.729963,-23.061952],[-57.728802,-23.064388],[-57.726193,-23.075343],[-57.725078,-23.078884],[-57.72366,-23.081949],[-57.721626,-23.085052],[-57.719549,-23.087563],[-57.716618,-23.090435],[-57.714159,-23.092361],[-57.707027,-23.095451],[-57.70176,-23.097241],[-57.695909,-23.097858],[-57.688221,-23.097449],[-57.67658,-23.09507],[-57.667017,-23.094004],[-57.667863,-23.098508],[-57.670452,-23.101309],[-57.673847,-23.104075],[-57.674999,-23.105937],[-57.675327,-23.110263],[-57.676096,-23.112386],[-57.676384,-23.114956],[-57.67993,-23.118059],[-57.685581,-23.120497],[-57.689681,-23.121162],[-57.690545,-23.121139],[-57.69264,-23.11981],[-57.694878,-23.119522],[-57.69705,-23.11961],[-57.702557,-23.121583],[-57.704197,-23.121804],[-57.711233,-23.120098],[-57.714158,-23.118103],[-57.715887,-23.116308],[-57.716375,-23.113893],[-57.718513,-23.110325],[-57.718291,-23.109881],[-57.717095,-23.109438],[-57.717117,-23.109017],[-57.718657,-23.107488],[-57.719898,-23.106912],[-57.720733,-23.106919],[-57.72198,-23.107427],[-57.722868,-23.107383],[-57.724504,-23.106432],[-57.7286,-23.104825],[-57.729389,-23.104048],[-57.730434,-23.103629],[-57.731506,-23.106037],[-57.732975,-23.106364],[-57.733645,-23.106136],[-57.733977,-23.105251],[-57.737854,-23.103128],[-57.739127,-23.102844],[-57.740805,-23.103087],[-57.741184,-23.102037],[-57.741093,-23.099464],[-57.741906,-23.098867],[-57.742564,-23.099193],[-57.743683,-23.100972],[-57.744544,-23.101047],[-57.746038,-23.098517],[-57.746418,-23.097149],[-57.745615,-23.096722],[-57.742798,-23.096839],[-57.740579,-23.096579],[-57.740144,-23.096152],[-57.740594,-23.094479],[-57.742364,-23.094282],[-57.744024,-23.094873],[-57.746927,-23.092399],[-57.747698,-23.091271],[-57.746125,-23.089394],[-57.746651,-23.088423],[-57.747916,-23.087611],[-57.749114,-23.087699],[-57.749393,-23.088163],[-57.749597,-23.088748],[-57.749279,-23.090786],[-57.749735,-23.091696],[-57.750263,-23.091953],[-57.750515,-23.091979],[-57.75071,-23.091521],[-57.750566,-23.089865],[-57.751405,-23.089656],[-57.753344,-23.090044],[-57.754038,-23.089735],[-57.754706,-23.088724],[-57.754079,-23.088134],[-57.750458,-23.088446],[-57.750001,-23.087865],[-57.750583,-23.086492],[-57.75336,-23.085207],[-57.7538,-23.084563],[-57.753782,-23.083956],[-57.753248,-23.083556],[-57.752714,-23.083436],[-57.751049,-23.084199],[-57.750271,-23.084209],[-57.749446,-23.083827],[-57.749108,-23.083146],[-57.749135,-23.082659],[-57.749683,-23.08236],[-57.751558,-23.082067],[-57.752727,-23.080141],[-57.752911,-23.078954],[-57.752267,-23.078329],[-57.751091,-23.078762],[-57.750312,-23.080571],[-57.749182,-23.081277],[-57.747809,-23.081514],[-57.747489,-23.080927],[-57.748326,-23.080259],[-57.74853,-23.079211],[-57.747195,-23.077141],[-57.746694,-23.075081],[-57.74993,-23.074092],[-57.7517,-23.074176],[-57.752507,-23.075056],[-57.753247,-23.077695],[-57.753855,-23.078428],[-57.754556,-23.078542],[-57.754818,-23.078066],[-57.754229,-23.074865],[-57.754668,-23.074398],[-57.755887,-23.073694],[-57.755946,-23.075815],[-57.756907,-23.077567],[-57.757405,-23.077646],[-57.757518,-23.076187],[-57.758837,-23.07375],[-57.759406,-23.073071],[-57.75996,-23.073152],[-57.762456,-23.07498],[-57.762609,-23.075394],[-57.76274,-23.076215],[-57.761589,-23.078792],[-57.761662,-23.079582],[-57.762116,-23.079902],[-57.762409,-23.079915],[-57.762555,-23.079434],[-57.762886,-23.077335],[-57.763977,-23.076165],[-57.764762,-23.075822],[-57.765673,-23.075892],[-57.766928,-23.076683],[-57.76728,-23.077976],[-57.767212,-23.079194],[-57.767939,-23.080855],[-57.76804,-23.082217],[-57.76574,-23.083277],[-57.765762,-23.084133],[-57.767693,-23.085528],[-57.768164,-23.086637],[-57.770042,-23.086806],[-57.770371,-23.087227],[-57.769936,-23.088157],[-57.768468,-23.089148],[-57.768169,-23.090273],[-57.769026,-23.090774],[-57.77163,-23.091168],[-57.772118,-23.09195],[-57.771594,-23.092901],[-57.768739,-23.093827],[-57.767517,-23.095849],[-57.768426,-23.096306],[-57.769835,-23.096401],[-57.770559,-23.09611],[-57.771515,-23.096427],[-57.771844,-23.097957],[-57.771208,-23.099356],[-57.771067,-23.100551],[-57.771692,-23.101447],[-57.772195,-23.101361],[-57.772501,-23.099934],[-57.774344,-23.097551],[-57.776236,-23.096449],[-57.77666,-23.096766],[-57.77692,-23.097373],[-57.776891,-23.099488],[-57.776337,-23.099896],[-57.774613,-23.100114],[-57.773577,-23.101426],[-57.774472,-23.101738],[-57.7756,-23.100432],[-57.776768,-23.100649],[-57.778957,-23.102678],[-57.781015,-23.103345],[-57.781014,-23.104431],[-57.777326,-23.106644],[-57.777368,-23.106944],[-57.778914,-23.107776],[-57.779754,-23.108575],[-57.780092,-23.109943],[-57.780613,-23.110103],[-57.781104,-23.10975],[-57.780802,-23.107731],[-57.781076,-23.10704],[-57.781522,-23.10698],[-57.782253,-23.107638],[-57.783984,-23.107827],[-57.786884,-23.107148],[-57.788401,-23.105807],[-57.788556,-23.105136],[-57.788209,-23.1039],[-57.790967,-23.102128],[-57.792126,-23.102481],[-57.792258,-23.103844],[-57.790052,-23.104826],[-57.789587,-23.1057],[-57.78963,-23.105973],[-57.791612,-23.106879],[-57.792893,-23.108131],[-57.79311,-23.108466],[-57.793003,-23.110274],[-57.791601,-23.110296],[-57.789889,-23.11088],[-57.789191,-23.111769],[-57.787627,-23.112291],[-57.786185,-23.113419],[-57.786161,-23.114072],[-57.787163,-23.114634],[-57.78794,-23.114178],[-57.789034,-23.112578],[-57.790247,-23.112416],[-57.791043,-23.112913],[-57.790881,-23.113663],[-57.788894,-23.114521],[-57.789051,-23.114908],[-57.790201,-23.11534],[-57.789671,-23.116022],[-57.789628,-23.116805],[-57.791732,-23.11934],[-57.791706,-23.119853],[-57.789794,-23.120011],[-57.790536,-23.121563],[-57.790405,-23.123347],[-57.791347,-23.12388],[-57.793538,-23.123866],[-57.794317,-23.124663],[-57.793849,-23.12527],[-57.792197,-23.125021],[-57.791682,-23.125295],[-57.790847,-23.126752],[-57.790942,-23.127301],[-57.791814,-23.127559],[-57.792777,-23.126491],[-57.793404,-23.126302],[-57.79478,-23.126615],[-57.794637,-23.127499],[-57.793111,-23.12797],[-57.793055,-23.128427],[-57.795094,-23.129197],[-57.796142,-23.13052],[-57.797019,-23.130615],[-57.797798,-23.129406],[-57.797212,-23.128239],[-57.797274,-23.127646],[-57.79795,-23.127706],[-57.798655,-23.128851],[-57.799765,-23.12901],[-57.800221,-23.128191],[-57.800135,-23.127075],[-57.801024,-23.126981],[-57.804342,-23.127711],[-57.804039,-23.128423],[-57.80419,-23.12889],[-57.805826,-23.12913],[-57.807393,-23.128009],[-57.81028,-23.127389],[-57.811186,-23.128185],[-57.810379,-23.128775],[-57.809063,-23.1292],[-57.808833,-23.129623],[-57.809304,-23.130186],[-57.809889,-23.130241],[-57.811394,-23.129661],[-57.812223,-23.129671],[-57.812539,-23.130203],[-57.812406,-23.130982],[-57.811406,-23.131504],[-57.811168,-23.132251],[-57.811866,-23.132365],[-57.812111,-23.132078],[-57.814574,-23.131508],[-57.813786,-23.129223],[-57.813806,-23.128817],[-57.814312,-23.128733],[-57.815803,-23.129534],[-57.81624,-23.131341],[-57.817525,-23.132077],[-57.817902,-23.131608],[-57.817971,-23.130826],[-57.818386,-23.130791],[-57.819022,-23.131552],[-57.819463,-23.131572],[-57.819885,-23.130238],[-57.822359,-23.128105],[-57.8226,-23.126981],[-57.822118,-23.124613],[-57.82268,-23.124529],[-57.823104,-23.125869],[-57.825374,-23.12473],[-57.825651,-23.12504],[-57.825562,-23.125575],[-57.82469,-23.125916],[-57.824323,-23.126711],[-57.825241,-23.127132],[-57.826818,-23.126826],[-57.827359,-23.12715],[-57.82734,-23.127501],[-57.825934,-23.128977],[-57.825865,-23.129705],[-57.826446,-23.12984],[-57.828325,-23.128897],[-57.83076,-23.131665],[-57.83047,-23.13268],[-57.830019,-23.132848],[-57.828317,-23.131172],[-57.827313,-23.131207],[-57.827029,-23.131545],[-57.827055,-23.132141],[-57.827344,-23.132236],[-57.828943,-23.132123],[-57.82799,-23.132837],[-57.828732,-23.133277],[-57.828984,-23.134019],[-57.828478,-23.135186],[-57.828722,-23.136631],[-57.829015,-23.136644],[-57.829449,-23.135717],[-57.830806,-23.134618],[-57.832619,-23.134865],[-57.833303,-23.13579],[-57.832943,-23.136394],[-57.830511,-23.136229],[-57.830085,-23.136479],[-57.830356,-23.138947],[-57.831952,-23.138465],[-57.832857,-23.138502],[-57.833106,-23.138783],[-57.832965,-23.139238],[-57.83119,-23.139882],[-57.830881,-23.140832],[-57.833828,-23.140851],[-57.835745,-23.141202],[-57.83611,-23.141333],[-57.835483,-23.141961],[-57.835583,-23.142394],[-57.837333,-23.142849],[-57.837687,-23.143208],[-57.83763,-23.143663],[-57.834625,-23.143981],[-57.833693,-23.144538],[-57.834996,-23.145199],[-57.835845,-23.146154],[-57.836186,-23.14617],[-57.837536,-23.144803],[-57.838169,-23.145175],[-57.838837,-23.146634],[-57.838695,-23.146942],[-57.837679,-23.146726],[-57.835445,-23.147194],[-57.835669,-23.147579],[-57.835512,-23.148173],[-57.834596,-23.148444],[-57.834227,-23.148941],[-57.83442,-23.149408],[-57.836158,-23.149489],[-57.83613,-23.150002],[-57.835377,-23.150682],[-57.835618,-23.15199],[-57.835319,-23.152012],[-57.834877,-23.151228],[-57.834466,-23.151281],[-57.833589,-23.15227],[-57.833109,-23.151312],[-57.830267,-23.151735],[-57.829795,-23.152115],[-57.829882,-23.152471],[-57.830735,-23.15274],[-57.831567,-23.153622],[-57.831463,-23.154755],[-57.830508,-23.154855],[-57.830288,-23.153345],[-57.829741,-23.152945],[-57.829346,-23.153207],[-57.829317,-23.154309],[-57.828062,-23.154505],[-57.827238,-23.155755],[-57.829051,-23.156888],[-57.830209,-23.156331],[-57.830419,-23.157046],[-57.831218,-23.157439],[-57.831779,-23.15814],[-57.832259,-23.158978],[-57.832186,-23.159926],[-57.832422,-23.160166],[-57.832863,-23.159472],[-57.834119,-23.159189],[-57.83479,-23.158143],[-57.835508,-23.159386],[-57.834998,-23.159809],[-57.835393,-23.161226],[-57.836263,-23.16158],[-57.837529,-23.160916],[-57.837892,-23.16224],[-57.838947,-23.162449],[-57.839002,-23.162946],[-57.837897,-23.164059],[-57.836776,-23.164501],[-57.836609,-23.164903],[-57.837239,-23.165339],[-57.838895,-23.165276],[-57.838011,-23.168163],[-57.839169,-23.16835],[-57.839657,-23.169086],[-57.839261,-23.169334],[-57.83839,-23.168827],[-57.837719,-23.169338],[-57.837264,-23.170277],[-57.835828,-23.17005],[-57.835226,-23.171775],[-57.834796,-23.170582],[-57.834197,-23.170545],[-57.833227,-23.17107],[-57.833071,-23.170484],[-57.832782,-23.170452],[-57.831637,-23.172413],[-57.831366,-23.174092],[-57.829254,-23.173178],[-57.828976,-23.174117],[-57.829676,-23.176235],[-57.829591,-23.177425],[-57.83042,-23.178539],[-57.829802,-23.179205],[-57.830147,-23.18088],[-57.830038,-23.18117],[-57.829357,-23.18129],[-57.828159,-23.179821],[-57.827625,-23.17976],[-57.827748,-23.182245],[-57.827369,-23.182969],[-57.826492,-23.183136],[-57.826591,-23.184241],[-57.827345,-23.184557],[-57.827875,-23.183735],[-57.828417,-23.183595],[-57.829417,-23.184421],[-57.829848,-23.184128],[-57.829739,-23.183655],[-57.829993,-23.183362],[-57.830769,-23.183753],[-57.832096,-23.183712],[-57.832482,-23.183989],[-57.832479,-23.184417],[-57.832224,-23.184728],[-57.830256,-23.185185],[-57.829747,-23.186597],[-57.830531,-23.186786],[-57.831108,-23.185673],[-57.831636,-23.185669],[-57.832062,-23.186591],[-57.832872,-23.187392],[-57.832604,-23.187702],[-57.83095,-23.188003],[-57.829984,-23.187728],[-57.827435,-23.189781],[-57.82594,-23.190059],[-57.826345,-23.19068],[-57.827733,-23.191107],[-57.827448,-23.191779],[-57.825629,-23.192698],[-57.825984,-23.193511],[-57.826436,-23.193625],[-57.826786,-23.192673],[-57.828371,-23.192696],[-57.828357,-23.193134],[-57.827383,-23.193882],[-57.827287,-23.194712],[-57.826589,-23.195278],[-57.827518,-23.195989],[-57.827952,-23.196],[-57.828369,-23.195552],[-57.829132,-23.194071],[-57.83074,-23.194246],[-57.830522,-23.195188],[-57.828523,-23.19635],[-57.828581,-23.197579],[-57.829507,-23.197688],[-57.829974,-23.196523],[-57.830666,-23.196517],[-57.831931,-23.195692],[-57.833606,-23.195378],[-57.833622,-23.197462],[-57.8325,-23.198943],[-57.834066,-23.199413],[-57.834258,-23.201366],[-57.838054,-23.202922],[-57.838631,-23.203689],[-57.838455,-23.20424],[-57.837788,-23.204341],[-57.835913,-23.203289],[-57.835042,-23.203713],[-57.835328,-23.205174],[-57.83658,-23.20665],[-57.836249,-23.208603],[-57.836833,-23.20902],[-57.838218,-23.207905],[-57.838906,-23.208013],[-57.839294,-23.209238],[-57.840926,-23.210628],[-57.840517,-23.212295],[-57.841335,-23.212323],[-57.843027,-23.211715],[-57.84284,-23.211002],[-57.843086,-23.21032],[-57.843661,-23.209653],[-57.844291,-23.209454],[-57.844745,-23.209656],[-57.844834,-23.210296],[-57.844182,-23.211245],[-57.846521,-23.211942],[-57.846365,-23.208864],[-57.847186,-23.209182],[-57.848819,-23.207612],[-57.849345,-23.208382],[-57.850021,-23.206893],[-57.853104,-23.207217],[-57.853199,-23.206805],[-57.852575,-23.20615],[-57.852446,-23.205499],[-57.852874,-23.205197],[-57.853943,-23.205149],[-57.853385,-23.203212],[-57.855808,-23.202456],[-57.855716,-23.202101],[-57.854852,-23.201797],[-57.854689,-23.200692],[-57.855743,-23.200807],[-57.856996,-23.200357],[-57.858766,-23.200733],[-57.859725,-23.201542],[-57.859776,-23.202497],[-57.860598,-23.203768],[-57.861771,-23.202894],[-57.862275,-23.202129],[-57.861056,-23.201406],[-57.860848,-23.200655],[-57.861693,-23.200704],[-57.86217,-23.200443],[-57.862401,-23.199231],[-57.862748,-23.199076],[-57.864905,-23.199888],[-57.865882,-23.19979],[-57.866743,-23.197439],[-57.867487,-23.197599],[-57.866914,-23.199022],[-57.867147,-23.19945],[-57.868035,-23.198657],[-57.868516,-23.198603],[-57.86919,-23.198804],[-57.869346,-23.199694],[-57.870004,-23.199753],[-57.870908,-23.198769],[-57.871342,-23.198761],[-57.87262,-23.199732],[-57.873418,-23.20084],[-57.874116,-23.200387],[-57.875902,-23.200166],[-57.876289,-23.199891],[-57.876147,-23.198527],[-57.877715,-23.197973],[-57.877817,-23.197636],[-57.877159,-23.197008],[-57.877168,-23.195905],[-57.878631,-23.196109],[-57.879139,-23.197107],[-57.880483,-23.198034],[-57.881562,-23.19633],[-57.88388,-23.198306],[-57.883764,-23.199289],[-57.883304,-23.199827],[-57.883479,-23.200422],[-57.883983,-23.200418],[-57.884431,-23.199586],[-57.886828,-23.200371],[-57.886537,-23.200976],[-57.885266,-23.201335],[-57.886222,-23.202229],[-57.887105,-23.20387],[-57.886102,-23.205336],[-57.885931,-23.206261],[-57.885045,-23.206717],[-57.884957,-23.207642],[-57.885775,-23.208317],[-57.886045,-23.208291],[-57.886286,-23.207665],[-57.886154,-23.206718],[-57.886861,-23.205876],[-57.887449,-23.205963],[-57.888199,-23.206985],[-57.888199,-23.207535],[-57.887352,-23.207828],[-57.887476,-23.208233],[-57.888817,-23.209083],[-57.889164,-23.208985],[-57.888976,-23.208065],[-57.889263,-23.207727],[-57.890433,-23.208217],[-57.891676,-23.2078],[-57.891838,-23.207248],[-57.890984,-23.206811],[-57.890735,-23.206287],[-57.891066,-23.205036],[-57.891422,-23.204826],[-57.893396,-23.206501],[-57.894511,-23.20494],[-57.895888,-23.204636],[-57.896309,-23.205612],[-57.896149,-23.206334],[-57.896693,-23.207023],[-57.899886,-23.207096],[-57.899758,-23.205752],[-57.89881,-23.205445],[-57.898541,-23.204569],[-57.899629,-23.202918],[-57.900296,-23.20304],[-57.900578,-23.203657],[-57.900576,-23.204274],[-57.899952,-23.20523],[-57.900897,-23.205481],[-57.902799,-23.205154],[-57.903031,-23.204302],[-57.904566,-23.202538],[-57.906623,-23.202756],[-57.906932,-23.203732],[-57.904899,-23.203724],[-57.904562,-23.204363],[-57.904899,-23.205392],[-57.906175,-23.205936],[-57.905003,-23.207463],[-57.906473,-23.208567],[-57.906615,-23.210278],[-57.905997,-23.210278],[-57.905705,-23.20998],[-57.905593,-23.20882],[-57.90465,-23.209353],[-57.903519,-23.208352],[-57.903307,-23.208836],[-57.904164,-23.210354],[-57.903433,-23.2105],[-57.903038,-23.211118],[-57.901467,-23.2118],[-57.901393,-23.210255],[-57.900928,-23.210101],[-57.899171,-23.210969],[-57.899059,-23.211353],[-57.899804,-23.211955],[-57.899567,-23.213402],[-57.90004,-23.21429],[-57.900612,-23.214275],[-57.900808,-23.213299],[-57.901673,-23.212924],[-57.901976,-23.21322],[-57.901823,-23.214129],[-57.902219,-23.214611],[-57.903582,-23.214181],[-57.903572,-23.214551],[-57.902821,-23.214905],[-57.902816,-23.215377],[-57.904567,-23.216405],[-57.903159,-23.217272],[-57.903123,-23.217556],[-57.903368,-23.217775],[-57.905039,-23.217643],[-57.905456,-23.219284],[-57.906092,-23.21939],[-57.907398,-23.21804],[-57.909192,-23.217472],[-57.907987,-23.220246],[-57.908505,-23.221361],[-57.908934,-23.221446],[-57.909817,-23.220596],[-57.909662,-23.2202],[-57.90879,-23.220103],[-57.909437,-23.219221],[-57.90955,-23.218485],[-57.911961,-23.218216],[-57.912428,-23.218704],[-57.912302,-23.219552],[-57.913125,-23.220321],[-57.913808,-23.217883],[-57.914662,-23.217342],[-57.915096,-23.217352],[-57.915447,-23.217787],[-57.91542,-23.220885],[-57.916409,-23.221081],[-57.916641,-23.219697],[-57.917292,-23.218913],[-57.917759,-23.21902],[-57.918296,-23.219746],[-57.919546,-23.219471],[-57.919484,-23.218702],[-57.91813,-23.21863],[-57.91678,-23.21783],[-57.917597,-23.216505],[-57.917559,-23.215489],[-57.918064,-23.215304],[-57.919464,-23.21588],[-57.922043,-23.215384],[-57.922333,-23.214811],[-57.92197,-23.214212],[-57.922428,-23.213972],[-57.923382,-23.214095],[-57.923449,-23.21471],[-57.921852,-23.2167],[-57.923099,-23.217477],[-57.924216,-23.217244],[-57.924896,-23.217797],[-57.926689,-23.216846],[-57.926364,-23.217531],[-57.926482,-23.21822],[-57.928309,-23.217865],[-57.928539,-23.219251],[-57.928862,-23.219409],[-57.929811,-23.219517],[-57.93017,-23.218601],[-57.931715,-23.217293],[-57.93283,-23.217212],[-57.932721,-23.217857],[-57.933067,-23.218884],[-57.931424,-23.219746],[-57.930804,-23.221377],[-57.931403,-23.221647],[-57.932031,-23.221125],[-57.932837,-23.221022],[-57.933339,-23.222006],[-57.93452,-23.222928],[-57.935945,-23.223088],[-57.935636,-23.221122],[-57.938067,-23.22194],[-57.938278,-23.222967],[-57.936909,-23.22351],[-57.9363,-23.224531],[-57.937301,-23.225809],[-57.937996,-23.225528],[-57.93835,-23.224908],[-57.93932,-23.22525],[-57.939779,-23.225823],[-57.939663,-23.226243],[-57.938472,-23.22665],[-57.936986,-23.228408],[-57.935838,-23.22775],[-57.934617,-23.227998],[-57.934624,-23.229588],[-57.936723,-23.229991],[-57.938653,-23.229172],[-57.939233,-23.229683],[-57.940282,-23.229495],[-57.941403,-23.230219],[-57.941463,-23.230619],[-57.939753,-23.230719],[-57.939468,-23.232189],[-57.941186,-23.231606],[-57.943214,-23.232237],[-57.943958,-23.232764],[-57.945142,-23.23176],[-57.946075,-23.23216],[-57.946023,-23.232534],[-57.94759,-23.23482],[-57.948538,-23.235137],[-57.950278,-23.234338],[-57.949871,-23.236002],[-57.950538,-23.237865],[-57.9512,-23.237709],[-57.952551,-23.236407],[-57.953856,-23.237183],[-57.953902,-23.237677],[-57.953181,-23.238427],[-57.954658,-23.239667],[-57.954297,-23.240929],[-57.95468,-23.241512],[-57.954304,-23.242014],[-57.954498,-23.242402],[-57.956276,-23.241887],[-57.956457,-23.239493],[-57.958365,-23.238032],[-57.958568,-23.237367],[-57.95825,-23.236509],[-57.958974,-23.235669],[-57.959345,-23.235609],[-57.960428,-23.236867],[-57.960707,-23.237747],[-57.960341,-23.238627],[-57.958504,-23.239178],[-57.958136,-23.239881],[-57.958266,-23.240576],[-57.958595,-23.240618],[-57.959092,-23.239952],[-57.959866,-23.239814],[-57.960244,-23.240067],[-57.960075,-23.240666],[-57.961236,-23.241257],[-57.961794,-23.240055],[-57.961391,-23.239535],[-57.961817,-23.239262],[-57.962121,-23.238199],[-57.962594,-23.238201],[-57.963914,-23.238866],[-57.9639,-23.239149],[-57.963548,-23.239786],[-57.962759,-23.239523],[-57.962305,-23.241477],[-57.962753,-23.241713],[-57.963392,-23.241177],[-57.965447,-23.240878],[-57.965978,-23.241702],[-57.96586,-23.242367],[-57.964129,-23.24281],[-57.963885,-23.243696],[-57.964225,-23.244297],[-57.965321,-23.244546],[-57.965433,-23.243238],[-57.966937,-23.24358],[-57.967591,-23.242919],[-57.968885,-23.24435],[-57.969612,-23.244392],[-57.969704,-23.243686],[-57.969345,-23.243614],[-57.969269,-23.243081],[-57.968485,-23.242724],[-57.968588,-23.242314],[-57.970785,-23.240643],[-57.970781,-23.240197],[-57.969696,-23.238986],[-57.96975,-23.238554],[-57.972128,-23.237529],[-57.972217,-23.235217],[-57.973325,-23.233736],[-57.974131,-23.234084],[-57.974541,-23.233896],[-57.97336,-23.232737],[-57.973605,-23.231077],[-57.974408,-23.230085],[-57.973656,-23.228324],[-57.973699,-23.226871],[-57.975773,-23.22637],[-57.97666,-23.227856],[-57.977928,-23.228567],[-57.980378,-23.229235],[-57.981043,-23.228888],[-57.981429,-23.22741],[-57.981713,-23.227868],[-57.98255,-23.227626],[-57.983865,-23.228646],[-57.985317,-23.228366],[-57.985232,-23.228851],[-57.985573,-23.229101],[-57.98513,-23.229642],[-57.985768,-23.230213],[-57.985929,-23.229098],[-57.986311,-23.22859],[-57.986524,-23.229016],[-57.988479,-23.230027],[-57.987652,-23.231474],[-57.987953,-23.231741],[-57.988975,-23.231768],[-57.989328,-23.233417],[-57.989662,-23.233756],[-57.990612,-23.233653],[-57.991233,-23.232685],[-57.99197,-23.232917],[-57.992842,-23.232332],[-57.993426,-23.232828],[-57.994849,-23.233128],[-57.994253,-23.234007],[-57.994661,-23.235907],[-57.995239,-23.236928],[-57.995892,-23.237283],[-57.996238,-23.238184],[-57.997093,-23.238368],[-57.997529,-23.239022],[-57.996803,-23.240162],[-57.996592,-23.241114],[-57.996968,-23.242181],[-57.994835,-23.243287],[-57.993995,-23.243176],[-57.993627,-23.242001],[-57.992276,-23.24218],[-57.991998,-23.24186],[-57.992111,-23.241231],[-57.9915,-23.240879],[-57.990538,-23.240852],[-57.990465,-23.241119],[-57.990998,-23.241452],[-57.99084,-23.242204],[-57.990211,-23.242573],[-57.98947,-23.242068],[-57.989403,-23.242589],[-57.988837,-23.242852],[-57.988719,-23.242124],[-57.988367,-23.242071],[-57.987992,-23.243175],[-57.986821,-23.243739],[-57.986515,-23.245426],[-57.9853,-23.246438],[-57.985534,-23.247518],[-57.987087,-23.248002],[-57.98726,-23.248462],[-57.987252,-23.249331],[-57.986537,-23.249773],[-57.985947,-23.251199],[-57.987881,-23.251847],[-57.988827,-23.253373],[-57.98959,-23.253081],[-57.990459,-23.25341],[-57.991388,-23.253069],[-57.992159,-23.25334],[-57.99227,-23.252041],[-57.993157,-23.251629],[-57.994459,-23.253028],[-57.996179,-23.252867],[-57.99628,-23.252095],[-57.997361,-23.251384],[-57.998165,-23.252504],[-57.999477,-23.253145],[-58.000272,-23.252509],[-58.000764,-23.252929],[-58.001818,-23.252815],[-58.001138,-23.254754],[-58.003179,-23.255889],[-58.004681,-23.255793],[-58.00426,-23.25666],[-58.004519,-23.256978],[-58.006304,-23.257349],[-58.007703,-23.256942],[-58.008896,-23.258207],[-58.009563,-23.258272],[-58.010356,-23.257402],[-58.011694,-23.257028],[-58.012206,-23.255895],[-58.012869,-23.255635],[-58.014278,-23.253617],[-58.01546,-23.253184],[-58.016035,-23.252032],[-58.016725,-23.251612],[-58.01911,-23.254342],[-58.02065,-23.254572],[-58.020964,-23.255401],[-58.020447,-23.256931],[-58.022145,-23.257568],[-58.023003,-23.259215],[-58.025112,-23.259508],[-58.025121,-23.258604],[-58.025659,-23.258085],[-58.026531,-23.258342],[-58.027984,-23.258008],[-58.028221,-23.257242],[-58.02809,-23.255628],[-58.028895,-23.255646],[-58.030388,-23.2549],[-58.029891,-23.254281],[-58.030094,-23.253423],[-58.031453,-23.253719],[-58.032234,-23.253068],[-58.033042,-23.253032],[-58.033151,-23.254645],[-58.03375,-23.255302],[-58.034618,-23.255666],[-58.036097,-23.255623],[-58.037881,-23.256498],[-58.039175,-23.25661],[-58.039743,-23.257394],[-58.040381,-23.257585],[-58.040399,-23.255363],[-58.040917,-23.254861],[-58.041663,-23.254895],[-58.041995,-23.255326],[-58.042442,-23.255038],[-58.043504,-23.255049],[-58.04288,-23.25681],[-58.044404,-23.257005],[-58.045778,-23.254773],[-58.047861,-23.255551],[-58.048935,-23.255636],[-58.0486,-23.25385],[-58.050039,-23.252737],[-58.051609,-23.25386],[-58.053497,-23.254323],[-58.053602,-23.253786],[-58.054414,-23.253387],[-58.056061,-23.253892],[-58.05758,-23.251558],[-58.059802,-23.251151],[-58.060443,-23.251306],[-58.060639,-23.252055],[-58.061474,-23.252634],[-58.063121,-23.251587],[-58.064411,-23.251717],[-58.064857,-23.252296],[-58.064523,-23.253727],[-58.064607,-23.254816],[-58.064986,-23.255141],[-58.065844,-23.255214],[-58.067443,-23.252844],[-58.068308,-23.252666],[-58.068452,-23.253124],[-58.067964,-23.254457],[-58.068132,-23.254988],[-58.069976,-23.255235],[-58.071494,-23.256221],[-58.071511,-23.256675],[-58.069946,-23.257274],[-58.069886,-23.257632],[-58.070532,-23.258817],[-58.070161,-23.259885],[-58.072299,-23.260413],[-58.072319,-23.261498],[-58.071693,-23.262176],[-58.071712,-23.262556],[-58.07247,-23.263114],[-58.073512,-23.262002],[-58.074814,-23.261934],[-58.075774,-23.264632],[-58.076859,-23.263415],[-58.078787,-23.262614],[-58.079173,-23.264464],[-58.079642,-23.265167],[-58.080416,-23.265361],[-58.081298,-23.263882],[-58.081543,-23.262323],[-58.082026,-23.261766],[-58.085844,-23.261297],[-58.087675,-23.262352],[-58.088404,-23.261609],[-58.089268,-23.261611],[-58.090489,-23.260797],[-58.091374,-23.260799],[-58.091743,-23.261248],[-58.091564,-23.261675],[-58.090228,-23.26243],[-58.090999,-23.263457],[-58.091022,-23.264505],[-58.091658,-23.265889],[-58.09229,-23.265844],[-58.093535,-23.264598],[-58.094036,-23.26444],[-58.094356,-23.264744],[-58.094251,-23.26631],[-58.094518,-23.267187],[-58.095148,-23.267198],[-58.096528,-23.266355],[-58.098039,-23.265988],[-58.098843,-23.266439],[-58.098853,-23.26848],[-58.099345,-23.268975],[-58.099995,-23.268948],[-58.101431,-23.267535],[-58.102504,-23.267934],[-58.102848,-23.269688],[-58.102519,-23.270797],[-58.103722,-23.272528],[-58.103557,-23.27384],[-58.102959,-23.274682],[-58.102934,-23.275204],[-58.10327,-23.275544],[-58.103898,-23.275571],[-58.10467,-23.275134],[-58.105613,-23.275139],[-58.105144,-23.276977],[-58.106698,-23.277697],[-58.10657,-23.278652],[-58.107368,-23.279514],[-58.110115,-23.279274],[-58.111503,-23.279806],[-58.111494,-23.281485],[-58.112532,-23.282685],[-58.112429,-23.28391],[-58.113508,-23.285114],[-58.112822,-23.287305],[-58.114609,-23.287385],[-58.115704,-23.288342],[-58.11541,-23.288992],[-58.114013,-23.289384],[-58.113708,-23.289972],[-58.113809,-23.290642],[-58.114804,-23.291683],[-58.116313,-23.291293],[-58.118716,-23.292468],[-58.119016,-23.29355],[-58.118696,-23.294764],[-58.119378,-23.294903],[-58.120713,-23.294582],[-58.12202,-23.295163],[-58.122574,-23.294718],[-58.123698,-23.292798],[-58.125119,-23.292645],[-58.125709,-23.293411],[-58.125701,-23.295018],[-58.130659,-23.294888],[-58.131833,-23.296511],[-58.132987,-23.296708],[-58.133363,-23.297483],[-58.134762,-23.29704],[-58.135247,-23.297151],[-58.135243,-23.297565],[-58.134684,-23.2981],[-58.134661,-23.298533],[-58.135052,-23.298586],[-58.135642,-23.298215],[-58.138326,-23.298369],[-58.141231,-23.297701],[-58.142945,-23.297904],[-58.143848,-23.297582],[-58.144532,-23.296168],[-58.145843,-23.296481],[-58.14648,-23.297193],[-58.146972,-23.297196],[-58.147864,-23.295778],[-58.148797,-23.29564],[-58.149559,-23.29677],[-58.151088,-23.297936],[-58.151273,-23.299716],[-58.151869,-23.300393],[-58.151613,-23.30076],[-58.150647,-23.301097],[-58.150481,-23.301632],[-58.152114,-23.302082],[-58.153316,-23.303923],[-58.153446,-23.305209],[-58.152321,-23.305667],[-58.152208,-23.305951],[-58.152956,-23.30677],[-58.152358,-23.307284],[-58.152911,-23.307597],[-58.153094,-23.308617],[-58.152554,-23.309551],[-58.154027,-23.310319],[-58.15448,-23.312254],[-58.155389,-23.312563],[-58.156532,-23.313627],[-58.157462,-23.313522],[-58.158065,-23.314016],[-58.15867,-23.314078],[-58.15989,-23.3137],[-58.161567,-23.315072],[-58.163008,-23.314631],[-58.164437,-23.316189],[-58.165654,-23.315957],[-58.166151,-23.317821],[-58.166978,-23.318505],[-58.166997,-23.318922],[-58.166249,-23.319323],[-58.165877,-23.320065],[-58.166243,-23.321002],[-58.16784,-23.321686],[-58.16846,-23.321424],[-58.169766,-23.321662],[-58.169169,-23.322627],[-58.169064,-23.323472],[-58.171398,-23.323178],[-58.172323,-23.32468],[-58.173459,-23.324008],[-58.174096,-23.324272],[-58.173455,-23.325595],[-58.174178,-23.326815],[-58.17397,-23.327265],[-58.17283,-23.32761],[-58.173045,-23.329192],[-58.172453,-23.330754],[-58.16999,-23.331206],[-58.169314,-23.33253],[-58.17049,-23.332292],[-58.171001,-23.332693],[-58.172625,-23.332711],[-58.172389,-23.334771],[-58.173005,-23.335289],[-58.17382,-23.334712],[-58.175802,-23.335537],[-58.177425,-23.334961],[-58.179329,-23.335348],[-58.179901,-23.334524],[-58.181201,-23.335175],[-58.182136,-23.335306],[-58.184555,-23.333753],[-58.185358,-23.334652],[-58.186539,-23.335011],[-58.185714,-23.335768],[-58.185557,-23.336573],[-58.185824,-23.336729],[-58.186611,-23.336312],[-58.187035,-23.335664],[-58.188886,-23.337078],[-58.19,-23.336766],[-58.191534,-23.337139],[-58.190797,-23.337703],[-58.190684,-23.338383],[-58.190934,-23.338862],[-58.191612,-23.339054],[-58.191559,-23.340061],[-58.19251,-23.340661],[-58.194174,-23.340373],[-58.196444,-23.34168],[-58.196478,-23.34249],[-58.196059,-23.343051],[-58.195256,-23.342184],[-58.194396,-23.342584],[-58.194441,-23.343392],[-58.195019,-23.343994],[-58.194558,-23.344551],[-58.194694,-23.344954],[-58.195403,-23.34531],[-58.196961,-23.345197],[-58.197482,-23.344967],[-58.197667,-23.344399],[-58.198198,-23.344386],[-58.199052,-23.344981],[-58.200569,-23.344939],[-58.20146,-23.345843],[-58.203312,-23.345329],[-58.203695,-23.345544],[-58.203237,-23.346443],[-58.203896,-23.346886],[-58.204017,-23.348405],[-58.205284,-23.348471],[-58.205745,-23.349068],[-58.206372,-23.349151],[-58.209409,-23.348565],[-58.210145,-23.349535],[-58.208925,-23.349911],[-58.208647,-23.350691],[-58.209794,-23.352075],[-58.211071,-23.352419],[-58.211584,-23.353144],[-58.212313,-23.353482],[-58.211843,-23.354615],[-58.212502,-23.355544],[-58.211856,-23.356256],[-58.211817,-23.356996],[-58.212218,-23.357609],[-58.214628,-23.356974],[-58.216074,-23.359039],[-58.21667,-23.358562],[-58.216906,-23.357758],[-58.218143,-23.3577],[-58.219145,-23.358353],[-58.219885,-23.359406],[-58.221064,-23.359024],[-58.222606,-23.357786],[-58.221405,-23.356706],[-58.222003,-23.355036],[-58.220483,-23.355098],[-58.219539,-23.353902],[-58.219969,-23.35293],[-58.22164,-23.353291],[-58.222201,-23.353063],[-58.222381,-23.352638],[-58.222385,-23.349522],[-58.221719,-23.349512],[-58.221561,-23.348389],[-58.221847,-23.348167],[-58.222587,-23.349027],[-58.224294,-23.348652],[-58.225071,-23.34919],[-58.225977,-23.34912],[-58.226038,-23.34794],[-58.227292,-23.347597],[-58.227684,-23.347201],[-58.227332,-23.346754],[-58.227463,-23.346111],[-58.228774,-23.345912],[-58.229494,-23.345242],[-58.229504,-23.344666],[-58.228417,-23.344043],[-58.228892,-23.342748],[-58.228489,-23.341377],[-58.229267,-23.340818],[-58.231149,-23.340884],[-58.232666,-23.337105],[-58.234232,-23.337173],[-58.235359,-23.336555],[-58.236044,-23.335506],[-58.236396,-23.335521],[-58.237585,-23.336059],[-58.238791,-23.335841],[-58.241794,-23.336218],[-58.24307,-23.336977],[-58.244663,-23.336523],[-58.245555,-23.337553],[-58.246469,-23.337754],[-58.246347,-23.336147],[-58.247212,-23.335408],[-58.249538,-23.334859],[-58.251988,-23.333732],[-58.253179,-23.332738],[-58.254083,-23.332759],[-58.255099,-23.333217],[-58.256868,-23.332375],[-58.257908,-23.333104],[-58.259079,-23.333227],[-58.259757,-23.332608],[-58.259677,-23.331488],[-58.260685,-23.330954],[-58.262246,-23.33149],[-58.262777,-23.33034],[-58.264335,-23.328952],[-58.268423,-23.328785],[-58.270697,-23.328036],[-58.272521,-23.330549],[-58.273352,-23.330783],[-58.274182,-23.330242],[-58.274405,-23.328613],[-58.276501,-23.327913],[-58.277295,-23.329261],[-58.27834,-23.330278],[-58.278274,-23.331588],[-58.28033,-23.331964],[-58.281473,-23.332625],[-58.28269,-23.332283],[-58.283702,-23.332416],[-58.284375,-23.33302],[-58.284173,-23.334529],[-58.285637,-23.335613],[-58.286261,-23.335713],[-58.288192,-23.335017],[-58.289543,-23.333437],[-58.290483,-23.332973],[-58.291375,-23.332722],[-58.292526,-23.332935],[-58.292259,-23.334309],[-58.294325,-23.33528],[-58.294205,-23.337238],[-58.295198,-23.339299],[-58.295013,-23.340563],[-58.295271,-23.340899],[-58.296895,-23.341402],[-58.299964,-23.34121],[-58.301381,-23.341865],[-58.302934,-23.341787],[-58.302774,-23.343055],[-58.304058,-23.343582],[-58.304262,-23.344185],[-58.304079,-23.345059],[-58.306362,-23.346488],[-58.306113,-23.347991],[-58.305469,-23.348306],[-58.304829,-23.349607],[-58.305208,-23.350631],[-58.306101,-23.350795],[-58.306946,-23.350097],[-58.307757,-23.349989],[-58.308719,-23.350825],[-58.309861,-23.350981],[-58.311117,-23.350712],[-58.312083,-23.351401],[-58.312727,-23.351429],[-58.316325,-23.350791],[-58.316691,-23.351293],[-58.316071,-23.352327],[-58.316166,-23.352763],[-58.317653,-23.35279],[-58.318262,-23.35314],[-58.318202,-23.353965],[-58.317069,-23.354711],[-58.31736,-23.355156],[-58.319137,-23.356378],[-58.319816,-23.356516],[-58.321338,-23.355787],[-58.321992,-23.354577],[-58.322407,-23.354449],[-58.324224,-23.356],[-58.324461,-23.356803],[-58.324327,-23.358009],[-58.324762,-23.358279],[-58.325625,-23.356953],[-58.326323,-23.35738],[-58.327732,-23.359092],[-58.328003,-23.359139],[-58.328383,-23.358512],[-58.327937,-23.35756],[-58.328005,-23.356749],[-58.328496,-23.356699],[-58.328808,-23.357795],[-58.329253,-23.357939],[-58.330398,-23.357446],[-58.333231,-23.357603],[-58.334342,-23.356926],[-58.334494,-23.355855],[-58.333916,-23.355687],[-58.332122,-23.356279],[-58.331655,-23.356222],[-58.331178,-23.355554],[-58.33106,-23.354469],[-58.331285,-23.354281],[-58.33283,-23.354706],[-58.333468,-23.354482],[-58.333566,-23.354073],[-58.332946,-23.35358],[-58.331696,-23.353471],[-58.331797,-23.350745],[-58.332133,-23.350315],[-58.333535,-23.350447],[-58.334111,-23.35221],[-58.336635,-23.352107],[-58.337523,-23.353271],[-58.339412,-23.353512],[-58.34068,-23.354179],[-58.342265,-23.353278],[-58.342371,-23.352744],[-58.341385,-23.352375],[-58.341654,-23.351071],[-58.340844,-23.349908],[-58.342161,-23.349907],[-58.342372,-23.349643],[-58.342938,-23.348587],[-58.343268,-23.346104],[-58.343984,-23.345234],[-58.344845,-23.345253],[-58.344888,-23.345921],[-58.344237,-23.347223],[-58.344601,-23.347848],[-58.345443,-23.347847],[-58.345784,-23.346515],[-58.347841,-23.347215],[-58.349056,-23.348381],[-58.349985,-23.347432],[-58.351331,-23.346806],[-58.351765,-23.345997],[-58.351515,-23.345033],[-58.350503,-23.345243],[-58.349371,-23.344835],[-58.34749,-23.344881],[-58.346861,-23.343776],[-58.346882,-23.343364],[-58.347483,-23.343084],[-58.349306,-23.344185],[-58.349946,-23.344267],[-58.350133,-23.344043],[-58.350152,-23.343667],[-58.34908,-23.342846],[-58.349035,-23.342177],[-58.351286,-23.341],[-58.351608,-23.339434],[-58.351248,-23.339185],[-58.350593,-23.339768],[-58.349728,-23.339874],[-58.349715,-23.338923],[-58.349125,-23.337407],[-58.351038,-23.335834],[-58.351936,-23.335513],[-58.352937,-23.335843],[-58.352888,-23.336417],[-58.351978,-23.337133],[-58.351873,-23.33772],[-58.353287,-23.338302],[-58.353663,-23.33778],[-58.353333,-23.337335],[-58.353362,-23.336725],[-58.354132,-23.335749],[-58.355357,-23.336],[-58.354628,-23.3373],[-58.355497,-23.337499],[-58.356663,-23.337297],[-58.357428,-23.337689],[-58.357903,-23.337187],[-58.357582,-23.33658],[-58.357823,-23.335674],[-58.360185,-23.336152],[-58.360474,-23.335156],[-58.361124,-23.334715],[-58.361761,-23.335194],[-58.361889,-23.335739],[-58.36117,-23.336445],[-58.361148,-23.336875],[-58.361865,-23.337427],[-58.364976,-23.338242],[-58.365565,-23.337206],[-58.366217,-23.337054],[-58.368085,-23.338777],[-58.368769,-23.339974],[-58.371668,-23.34026],[-58.372235,-23.341413],[-58.373349,-23.342572],[-58.373368,-23.342968],[-58.372438,-23.343575],[-58.37203,-23.344312],[-58.372725,-23.34562],[-58.373776,-23.345752],[-58.375282,-23.34499],[-58.37651,-23.345169],[-58.376768,-23.344676],[-58.376473,-23.343495],[-58.376933,-23.342921],[-58.377978,-23.343936],[-58.378963,-23.344193],[-58.379092,-23.343623],[-58.378572,-23.342289],[-58.378952,-23.341747],[-58.38009,-23.342119],[-58.380789,-23.341896],[-58.381154,-23.342362],[-58.383622,-23.343758],[-58.384639,-23.343901],[-58.385084,-23.345021],[-58.383513,-23.346718],[-58.383823,-23.347054],[-58.384702,-23.34697],[-58.384887,-23.34762],[-58.383698,-23.349518],[-58.383826,-23.350444],[-58.3843,-23.35056],[-58.385855,-23.34958],[-58.387288,-23.349282],[-58.388579,-23.348439],[-58.389187,-23.347643],[-58.389552,-23.347636],[-58.389845,-23.347848],[-58.389804,-23.34875],[-58.390318,-23.349835],[-58.390288,-23.351255],[-58.392119,-23.352048],[-58.392481,-23.352584],[-58.391704,-23.353935],[-58.392148,-23.355074],[-58.392788,-23.354981],[-58.393587,-23.353675],[-58.394764,-23.353364],[-58.396287,-23.354291],[-58.396838,-23.35628],[-58.397854,-23.356483],[-58.39819,-23.355896],[-58.39815,-23.354953],[-58.399797,-23.354341],[-58.400998,-23.35303],[-58.401063,-23.35177],[-58.399734,-23.351713],[-58.399601,-23.350885],[-58.400107,-23.350387],[-58.400268,-23.348504],[-58.400824,-23.347888],[-58.401506,-23.347762],[-58.402421,-23.348167],[-58.402537,-23.349406],[-58.40385,-23.351048],[-58.404513,-23.352718],[-58.40495,-23.352697],[-58.405231,-23.352308],[-58.405248,-23.350988],[-58.407924,-23.3499],[-58.409167,-23.349854],[-58.41067,-23.350299],[-58.411615,-23.349987],[-58.412126,-23.35025],[-58.412842,-23.352526],[-58.41276,-23.353283],[-58.410808,-23.354077],[-58.4106,-23.354811],[-58.411192,-23.355157],[-58.412527,-23.354733],[-58.413282,-23.355007],[-58.413029,-23.355617],[-58.411321,-23.356486],[-58.41114,-23.35708],[-58.411645,-23.357641],[-58.414164,-23.357388],[-58.414272,-23.35904],[-58.413676,-23.360056],[-58.413992,-23.360692],[-58.414668,-23.36074],[-58.415453,-23.359891],[-58.416149,-23.359979],[-58.416566,-23.360392],[-58.417938,-23.360433],[-58.420095,-23.359603],[-58.42112,-23.358264],[-58.422037,-23.357783],[-58.425728,-23.358703],[-58.426222,-23.358262],[-58.426277,-23.357445],[-58.425565,-23.356873],[-58.425994,-23.355809],[-58.426224,-23.355538],[-58.427467,-23.355392],[-58.428898,-23.354222],[-58.430546,-23.355694],[-58.430392,-23.357197],[-58.430635,-23.357452],[-58.431877,-23.357775],[-58.433254,-23.357561],[-58.434669,-23.357717],[-58.435296,-23.356963],[-58.435303,-23.35554],[-58.434889,-23.355043],[-58.433616,-23.355707],[-58.433162,-23.355647],[-58.432835,-23.353109],[-58.431862,-23.352467],[-58.431446,-23.351448],[-58.43201,-23.351171],[-58.433963,-23.351455],[-58.434843,-23.351292],[-58.435758,-23.350429],[-58.434529,-23.349634],[-58.435633,-23.348581],[-58.436239,-23.346964],[-58.437245,-23.346486],[-58.43935,-23.347137],[-58.441181,-23.345909],[-58.440531,-23.344969],[-58.438522,-23.343958],[-58.438501,-23.343278],[-58.43912,-23.342223],[-58.440407,-23.342599],[-58.441311,-23.342516],[-58.44277,-23.343558],[-58.445159,-23.341097],[-58.44583,-23.340765],[-58.446194,-23.340941],[-58.446535,-23.34274],[-58.446944,-23.342877],[-58.447849,-23.342675],[-58.449326,-23.341534],[-58.450222,-23.341493],[-58.450153,-23.343778],[-58.45092,-23.34417],[-58.451517,-23.343993],[-58.452721,-23.34256],[-58.454635,-23.34192],[-58.455222,-23.341424],[-58.455601,-23.34084],[-58.455524,-23.340255],[-58.454446,-23.339646],[-58.454381,-23.33878],[-58.456395,-23.337246],[-58.458189,-23.33676],[-58.458861,-23.335469],[-58.458127,-23.333629],[-58.458951,-23.332806],[-58.460032,-23.332434],[-58.461258,-23.33413],[-58.461735,-23.335593],[-58.46306,-23.335898],[-58.46466,-23.33522],[-58.465554,-23.333476],[-58.467173,-23.33137],[-58.468969,-23.330704],[-58.47026,-23.329185],[-58.470899,-23.328981],[-58.472184,-23.33054],[-58.472837,-23.330568],[-58.473365,-23.330127],[-58.47366,-23.328727],[-58.47248,-23.327703],[-58.471615,-23.326413],[-58.47161,-23.325973],[-58.472021,-23.325829],[-58.473789,-23.326253],[-58.474073,-23.325639],[-58.474002,-23.324171],[-58.474806,-23.323764],[-58.475925,-23.324862],[-58.477272,-23.325037],[-58.47879,-23.326862],[-58.47754,-23.327596],[-58.477504,-23.32845],[-58.478107,-23.329587],[-58.477547,-23.331394],[-58.478078,-23.331857],[-58.479005,-23.331664],[-58.47987,-23.332116],[-58.481002,-23.332187],[-58.481657,-23.331196],[-58.481725,-23.330226],[-58.480287,-23.328868],[-58.480071,-23.327562],[-58.481372,-23.327065],[-58.483322,-23.327606],[-58.483757,-23.327047],[-58.483768,-23.326472],[-58.484572,-23.326505],[-58.48915,-23.328107],[-58.489053,-23.330073],[-58.489527,-23.330185],[-58.490713,-23.329147],[-58.491272,-23.329077],[-58.49268,-23.330642],[-58.493704,-23.332448],[-58.494671,-23.332766],[-58.494835,-23.331984],[-58.494282,-23.329923],[-58.494624,-23.329104],[-58.496328,-23.329383],[-58.497325,-23.330537],[-58.498233,-23.33053],[-58.499688,-23.328692],[-58.500564,-23.326388],[-58.501398,-23.326377],[-58.503071,-23.326916],[-58.503155,-23.326316],[-58.502191,-23.325114],[-58.502159,-23.324674],[-58.502382,-23.324289],[-58.503617,-23.323796],[-58.504353,-23.322342],[-58.506316,-23.320919],[-58.507847,-23.320521],[-58.508701,-23.319562],[-58.509624,-23.319185],[-58.511071,-23.320056],[-58.511976,-23.32109],[-58.512721,-23.32133],[-58.513888,-23.321192],[-58.515128,-23.319578],[-58.515115,-23.317818],[-58.514507,-23.317376],[-58.514024,-23.316453],[-58.512301,-23.316151],[-58.510896,-23.315509],[-58.511285,-23.314785],[-58.51345,-23.313075],[-58.514045,-23.312776],[-58.515553,-23.31284],[-58.516003,-23.311771],[-58.516738,-23.311292],[-58.517345,-23.311712],[-58.518327,-23.313349],[-58.519211,-23.313339],[-58.51979,-23.312786],[-58.519975,-23.312077],[-58.519263,-23.3117],[-58.519077,-23.310858],[-58.521123,-23.310296],[-58.522521,-23.310586],[-58.522214,-23.311685],[-58.522267,-23.313145],[-58.523095,-23.313226],[-58.524235,-23.31258],[-58.526159,-23.312891],[-58.527602,-23.312258],[-58.528042,-23.311536],[-58.527277,-23.309653],[-58.529693,-23.308872],[-58.531556,-23.309254],[-58.533075,-23.310151],[-58.535357,-23.309829],[-58.535647,-23.310119],[-58.535639,-23.311392],[-58.535967,-23.311915],[-58.537076,-23.311892],[-58.538306,-23.310487],[-58.538884,-23.310534],[-58.538952,-23.312063],[-58.541396,-23.31256],[-58.542324,-23.314241],[-58.542887,-23.314057],[-58.542558,-23.313026],[-58.542838,-23.312481],[-58.544492,-23.312689],[-58.546157,-23.312157],[-58.547303,-23.311418],[-58.549487,-23.312134],[-58.55296,-23.31265],[-58.55307,-23.313511],[-58.552444,-23.31434],[-58.551257,-23.315056],[-58.549213,-23.315595],[-58.549198,-23.315896],[-58.550766,-23.316237],[-58.549229,-23.318377],[-58.549144,-23.319019],[-58.550184,-23.319362],[-58.550753,-23.319109],[-58.551678,-23.319215],[-58.551002,-23.321027],[-58.552001,-23.32123],[-58.555025,-23.320291],[-58.556997,-23.320673],[-58.558321,-23.319319],[-58.55929,-23.321097],[-58.561349,-23.321787],[-58.561091,-23.322911],[-58.561249,-23.3238],[-58.561845,-23.324011],[-58.563706,-23.323574],[-58.56446,-23.324214],[-58.565771,-23.324294],[-58.566752,-23.323823],[-58.566899,-23.322806],[-58.565332,-23.321255],[-58.565261,-23.320603],[-58.566711,-23.32034],[-58.567992,-23.319099],[-58.56907,-23.32028],[-58.569526,-23.320346],[-58.570723,-23.317544],[-58.570636,-23.315572],[-58.571469,-23.315538],[-58.573736,-23.31632],[-58.57499,-23.316397],[-58.577033,-23.315686],[-58.576923,-23.315312],[-58.575989,-23.314674],[-58.574598,-23.311789],[-58.574543,-23.310906],[-58.576364,-23.31082],[-58.576658,-23.310485],[-58.57669,-23.309862],[-58.575254,-23.308273],[-58.575388,-23.307443],[-58.576897,-23.307599],[-58.579211,-23.306724],[-58.581838,-23.306189],[-58.582644,-23.308259],[-58.58404,-23.308547],[-58.585265,-23.307208],[-58.586049,-23.307152],[-58.585966,-23.308837],[-58.586253,-23.309128],[-58.587053,-23.309253],[-58.589405,-23.308676],[-58.589616,-23.310446],[-58.589993,-23.310485],[-58.590524,-23.309951],[-58.592362,-23.3091],[-58.591703,-23.306946],[-58.591733,-23.306279],[-58.592254,-23.305886],[-58.59313,-23.306059],[-58.593218,-23.306385],[-58.592724,-23.308465],[-58.593304,-23.308512],[-58.59411,-23.30799],[-58.596009,-23.308279],[-58.596396,-23.307668],[-58.596399,-23.306602],[-58.595867,-23.305629],[-58.595704,-23.304145],[-58.594776,-23.303613],[-58.594748,-23.303149],[-58.596535,-23.300957],[-58.597171,-23.300845],[-58.59753,-23.301207],[-58.597885,-23.302682],[-58.59941,-23.305613],[-58.600085,-23.304627],[-58.601766,-23.303815],[-58.6032,-23.302368],[-58.606013,-23.301025],[-58.605825,-23.299722],[-58.604268,-23.299611],[-58.603411,-23.299112],[-58.603928,-23.29779],[-58.603962,-23.296586],[-58.603404,-23.296148],[-58.602477,-23.296113],[-58.602417,-23.295835],[-58.603432,-23.2946],[-58.604913,-23.293661],[-58.605982,-23.293981],[-58.606628,-23.294681],[-58.607427,-23.294833],[-58.607593,-23.29456],[-58.607176,-23.292178],[-58.606413,-23.291601],[-58.605503,-23.291395],[-58.606418,-23.289472],[-58.60816,-23.288271],[-58.608262,-23.287894],[-58.607647,-23.287105],[-58.606048,-23.286454],[-58.606043,-23.285744],[-58.606859,-23.284524],[-58.607262,-23.284358],[-58.608345,-23.284913],[-58.608949,-23.285558],[-58.609548,-23.287148],[-58.610571,-23.287245],[-58.61205,-23.285704],[-58.612768,-23.283987],[-58.614509,-23.282845],[-58.614705,-23.282123],[-58.613996,-23.281728],[-58.613929,-23.281107],[-58.614841,-23.280132],[-58.614907,-23.279429],[-58.614828,-23.279025],[-58.613527,-23.277951],[-58.613564,-23.277099],[-58.613991,-23.276332],[-58.613488,-23.275767],[-58.613583,-23.275081],[-58.615698,-23.27401],[-58.616093,-23.274769],[-58.615771,-23.277318],[-58.617103,-23.27839],[-58.618296,-23.279873],[-58.619698,-23.280294],[-58.620314,-23.279032],[-58.619747,-23.2777],[-58.619897,-23.276671],[-58.620534,-23.276119],[-58.622613,-23.275765],[-58.621675,-23.274274],[-58.621779,-23.273753],[-58.62381,-23.272201],[-58.625623,-23.272466],[-58.626887,-23.271824],[-58.628194,-23.271892],[-58.628783,-23.271554],[-58.628871,-23.267706],[-58.629236,-23.266648],[-58.627676,-23.264753],[-58.627821,-23.264082],[-58.629615,-23.263849],[-58.631432,-23.264683],[-58.632477,-23.264764],[-58.634027,-23.264244],[-58.634557,-23.262324],[-58.635522,-23.260417],[-58.635441,-23.259688],[-58.634995,-23.259087],[-58.634076,-23.25843],[-58.633054,-23.258223],[-58.63295,-23.258746],[-58.633653,-23.259777],[-58.633384,-23.260401],[-58.632438,-23.260726],[-58.630875,-23.260699],[-58.628518,-23.261996],[-58.627909,-23.2595],[-58.626976,-23.258407],[-58.626977,-23.257208],[-58.628132,-23.255367],[-58.628026,-23.253568],[-58.629159,-23.252118],[-58.628963,-23.251194],[-58.629577,-23.250581],[-58.631049,-23.250572],[-58.631878,-23.250225],[-58.631499,-23.246177],[-58.631953,-23.245304],[-58.633215,-23.246248],[-58.636842,-23.24649],[-58.637892,-23.245226],[-58.639981,-23.246565],[-58.640951,-23.247767],[-58.64269,-23.248202],[-58.643956,-23.248073],[-58.645751,-23.249218],[-58.64802,-23.249349],[-58.64788,-23.251013],[-58.648678,-23.251229],[-58.650085,-23.25107],[-58.65181,-23.252318],[-58.652984,-23.251749],[-58.654059,-23.252009],[-58.654307,-23.251767],[-58.653885,-23.249827],[-58.65256,-23.247791],[-58.651739,-23.24725],[-58.650696,-23.247171],[-58.649614,-23.246617],[-58.649746,-23.245969],[-58.650474,-23.245636],[-58.651911,-23.245749],[-58.652978,-23.245357],[-58.653152,-23.245],[-58.652894,-23.244227],[-58.653312,-23.243772],[-58.654662,-23.244463],[-58.656367,-23.244369],[-58.656634,-23.246181],[-58.657197,-23.246752],[-58.658084,-23.246789],[-58.6589,-23.246277],[-58.658874,-23.245271],[-58.65933,-23.244871],[-58.661302,-23.245041],[-58.662714,-23.245388],[-58.664046,-23.247382],[-58.66636,-23.247768],[-58.666094,-23.249101],[-58.668218,-23.250169],[-58.669065,-23.253076],[-58.670065,-23.253265],[-58.670617,-23.252887],[-58.67127,-23.251676],[-58.672695,-23.251587],[-58.673981,-23.251095],[-58.674175,-23.252104],[-58.673496,-23.253475],[-58.673823,-23.25407],[-58.674719,-23.254362],[-58.675782,-23.253792],[-58.679915,-23.250268],[-58.68047,-23.250727],[-58.68043,-23.252144],[-58.679919,-23.253231],[-58.680487,-23.254217],[-58.680916,-23.253871],[-58.681009,-23.252565],[-58.683347,-23.253116],[-58.685048,-23.254894],[-58.685281,-23.256629],[-58.685851,-23.257071],[-58.686646,-23.25696],[-58.688634,-23.255951],[-58.690467,-23.256499],[-58.691658,-23.25604],[-58.692744,-23.254829],[-58.693281,-23.253398],[-58.694085,-23.252431],[-58.693729,-23.250417],[-58.697184,-23.249393],[-58.697683,-23.249722],[-58.697805,-23.250472],[-58.696962,-23.251111],[-58.69699,-23.251784],[-58.698091,-23.252739],[-58.698126,-23.253559],[-58.696836,-23.253561],[-58.695647,-23.253186],[-58.694943,-23.253465],[-58.695276,-23.255623],[-58.694159,-23.256993],[-58.693996,-23.257913],[-58.695553,-23.258356],[-58.696684,-23.257932],[-58.697374,-23.258016],[-58.697343,-23.259374],[-58.697962,-23.260347],[-58.699343,-23.260385],[-58.700628,-23.256719],[-58.701197,-23.257046],[-58.702369,-23.259021],[-58.702686,-23.261484],[-58.703081,-23.2619],[-58.705918,-23.26082],[-58.708235,-23.260731],[-58.709321,-23.26034],[-58.70985,-23.2592],[-58.708655,-23.258535],[-58.708479,-23.258127],[-58.70905,-23.256866],[-58.712209,-23.257665],[-58.712223,-23.259587],[-58.712549,-23.259746],[-58.71326,-23.259738],[-58.714265,-23.259197],[-58.716069,-23.259866],[-58.716382,-23.259462],[-58.716086,-23.257434],[-58.718677,-23.257394],[-58.71954,-23.257956],[-58.719687,-23.258961],[-58.719448,-23.259423],[-58.71823,-23.260064],[-58.717411,-23.261501],[-58.717424,-23.262011],[-58.718046,-23.262184],[-58.719225,-23.26161],[-58.720709,-23.262312],[-58.721929,-23.262453],[-58.722345,-23.262032],[-58.722361,-23.260471],[-58.723253,-23.25838],[-58.722997,-23.256336],[-58.723268,-23.253984],[-58.721386,-23.253216],[-58.721092,-23.252351],[-58.721442,-23.252055],[-58.722887,-23.252043],[-58.72379,-23.251464],[-58.723895,-23.249325],[-58.725515,-23.249355],[-58.727596,-23.248348],[-58.728173,-23.248661],[-58.727251,-23.251005],[-58.728617,-23.253041],[-58.728744,-23.253717],[-58.728149,-23.25413],[-58.726939,-23.254172],[-58.726493,-23.254479],[-58.72837,-23.257336],[-58.728942,-23.257359],[-58.730251,-23.256066],[-58.730794,-23.255869],[-58.732554,-23.256671],[-58.733404,-23.255433],[-58.734896,-23.254878],[-58.735717,-23.254239],[-58.735647,-23.253618],[-58.734717,-23.252417],[-58.731993,-23.250672],[-58.731541,-23.248564],[-58.735875,-23.249199],[-58.736788,-23.248362],[-58.737177,-23.247705],[-58.737107,-23.246965],[-58.737528,-23.24682],[-58.738422,-23.247214],[-58.739621,-23.248587],[-58.739596,-23.2504],[-58.740332,-23.250703],[-58.743974,-23.250754],[-58.744133,-23.249908],[-58.743762,-23.249402],[-58.743275,-23.247203],[-58.743344,-23.245772],[-58.743809,-23.245154],[-58.743771,-23.244716],[-58.741996,-23.243849],[-58.740958,-23.244876],[-58.740354,-23.246014],[-58.739682,-23.246385],[-58.739155,-23.246255],[-58.738313,-23.245314],[-58.738387,-23.244953],[-58.739686,-23.244643],[-58.740063,-23.244187],[-58.738447,-23.242737],[-58.737646,-23.241438],[-58.736765,-23.240819],[-58.736146,-23.238508],[-58.736382,-23.237812],[-58.739132,-23.23763],[-58.739318,-23.238311],[-58.738868,-23.238656],[-58.738838,-23.239272],[-58.741823,-23.240446],[-58.744107,-23.242245],[-58.74463,-23.242048],[-58.744605,-23.239689],[-58.745072,-23.239418],[-58.746249,-23.240791],[-58.747879,-23.241437],[-58.747956,-23.243017],[-58.749682,-23.243269],[-58.75077,-23.242534],[-58.751512,-23.242419],[-58.751508,-23.24436],[-58.752949,-23.244603],[-58.754896,-23.245455],[-58.755727,-23.24549],[-58.757017,-23.24498],[-58.757467,-23.24418],[-58.759726,-23.244472],[-58.761146,-23.24495],[-58.761696,-23.245426],[-58.765827,-23.245719],[-58.76791,-23.24435],[-58.769219,-23.244222],[-58.770773,-23.245264],[-58.772605,-23.244366],[-58.773091,-23.24375],[-58.773189,-23.242502],[-58.7727,-23.242028],[-58.771921,-23.241852],[-58.771921,-23.240673],[-58.773624,-23.238021],[-58.774118,-23.236657],[-58.775167,-23.235849],[-58.77577,-23.233497],[-58.776317,-23.232774],[-58.778242,-23.233178],[-58.778906,-23.234185],[-58.779511,-23.23637],[-58.780018,-23.236917],[-58.782727,-23.237281],[-58.783465,-23.236729],[-58.783538,-23.235625],[-58.780441,-23.231852],[-58.780053,-23.228787],[-58.778376,-23.226426],[-58.778536,-23.225542],[-58.780135,-23.22361],[-58.781117,-23.223286],[-58.782086,-23.223707],[-58.782871,-23.224647],[-58.783625,-23.227091],[-58.783494,-23.228556],[-58.785672,-23.231747],[-58.786596,-23.231839],[-58.789223,-23.229862],[-58.789266,-23.229355],[-58.788596,-23.228418],[-58.788255,-23.22726],[-58.788256,-23.224306],[-58.788844,-23.222786],[-58.788747,-23.221562],[-58.789974,-23.220378],[-58.789742,-23.219499],[-58.789335,-23.2193],[-58.788706,-23.219656],[-58.788036,-23.22079],[-58.787112,-23.220753],[-58.786607,-23.21872],[-58.786158,-23.218158],[-58.786294,-23.217654],[-58.78708,-23.216924],[-58.788725,-23.216411],[-58.791485,-23.21605],[-58.795039,-23.218898],[-58.795476,-23.219659],[-58.795179,-23.220933],[-58.795405,-23.22116],[-58.797722,-23.221834],[-58.798547,-23.222701],[-58.801139,-23.22295],[-58.807326,-23.226138],[-58.813929,-23.225968],[-58.816834,-23.227063],[-58.820129,-23.223334],[-58.820425,-23.222476],[-58.818486,-23.222561],[-58.816214,-23.22383],[-58.812843,-23.224691],[-58.812712,-23.223308],[-58.814046,-23.221019],[-58.815467,-23.219303],[-58.816957,-23.219142],[-58.818611,-23.219417],[-58.819169,-23.21971],[-58.819942,-23.220847],[-58.821176,-23.221325],[-58.822341,-23.223787],[-58.824327,-23.224755],[-58.824842,-23.22467],[-58.824514,-23.222878],[-58.824984,-23.221301],[-58.824748,-23.218372],[-58.824945,-23.216807],[-58.825968,-23.215579],[-58.828462,-23.215158],[-58.829681,-23.213524],[-58.829595,-23.212796],[-58.827118,-23.209614],[-58.827251,-23.208894],[-58.828949,-23.208075],[-58.830744,-23.208114],[-58.832723,-23.208774],[-58.833243,-23.209447],[-58.833999,-23.211796],[-58.834732,-23.211716],[-58.835332,-23.211107],[-58.83578,-23.211215],[-58.836363,-23.213086],[-58.834114,-23.213521],[-58.834898,-23.21444],[-58.834456,-23.21629],[-58.835966,-23.218066],[-58.83678,-23.217898],[-58.837595,-23.21703],[-58.837693,-23.215024],[-58.838461,-23.213731],[-58.837988,-23.212897],[-58.837969,-23.212063],[-58.838543,-23.211597],[-58.839382,-23.211775],[-58.839832,-23.212228],[-58.840645,-23.215032],[-58.841511,-23.214885],[-58.842678,-23.213773],[-58.845149,-23.214658],[-58.846262,-23.213996],[-58.847043,-23.214135],[-58.852124,-23.217599],[-58.853117,-23.219086],[-58.854683,-23.219352],[-58.857542,-23.220948],[-58.860125,-23.220999],[-58.861103,-23.222229],[-58.861927,-23.222298],[-58.863742,-23.221393],[-58.865614,-23.220923],[-58.866229,-23.219194],[-58.868204,-23.217453],[-58.868934,-23.218281],[-58.869691,-23.220562],[-58.869185,-23.223385],[-58.867516,-23.22531],[-58.865279,-23.225963],[-58.864089,-23.228893],[-58.864702,-23.229477],[-58.867038,-23.229971],[-58.86762,-23.229342],[-58.867641,-23.227765],[-58.868395,-23.226799],[-58.87067,-23.226276],[-58.871943,-23.22638],[-58.87218,-23.227186],[-58.870576,-23.22781],[-58.870362,-23.22858],[-58.870832,-23.229432],[-58.872337,-23.229709],[-58.872407,-23.230311],[-58.871987,-23.231304],[-58.872841,-23.231973],[-58.874197,-23.232064],[-58.875896,-23.231554],[-58.876962,-23.231088],[-58.878068,-23.230135],[-58.878711,-23.230305],[-58.879296,-23.231252],[-58.879925,-23.231277],[-58.880605,-23.23031],[-58.880776,-23.229267],[-58.879395,-23.227093],[-58.880047,-23.227137],[-58.880978,-23.22788],[-58.882014,-23.228048],[-58.882522,-23.226528],[-58.882965,-23.226293],[-58.88415,-23.227898],[-58.886531,-23.228897],[-58.888833,-23.231],[-58.889717,-23.231036],[-58.890735,-23.230352],[-58.89436,-23.230859],[-58.895397,-23.23023],[-58.895438,-23.229343],[-58.894759,-23.229098],[-58.89113,-23.229099],[-58.891131,-23.228211],[-58.891401,-23.226663],[-58.891917,-23.225759],[-58.895517,-23.223906],[-58.896461,-23.224014],[-58.89661,-23.224619],[-58.894786,-23.225183],[-58.894496,-23.226244],[-58.894796,-23.227469],[-58.896742,-23.22974],[-58.897428,-23.231905],[-58.897964,-23.232291],[-58.898982,-23.232402],[-58.900588,-23.231415],[-58.901677,-23.229972],[-58.901831,-23.228292],[-58.902375,-23.226933],[-58.901675,-23.223714],[-58.90213,-23.223227],[-58.903398,-23.223166],[-58.906809,-23.225005],[-58.908058,-23.226294],[-58.909652,-23.228645],[-58.910303,-23.230828],[-58.91082,-23.231554],[-58.913666,-23.233497],[-58.913516,-23.236213],[-58.913776,-23.237277],[-58.914117,-23.237563],[-58.915102,-23.237619],[-58.916211,-23.237118],[-58.916393,-23.236671],[-58.91542,-23.233606],[-58.917098,-23.233312],[-58.9187,-23.234153],[-58.919884,-23.233693],[-58.920806,-23.232897],[-58.919074,-23.22993],[-58.9171,-23.227858],[-58.916129,-23.22574],[-58.916308,-23.22515],[-58.916939,-23.225156],[-58.918062,-23.226667],[-58.918529,-23.226812],[-58.920589,-23.226169],[-58.922309,-23.22602],[-58.922585,-23.22518],[-58.921915,-23.224302],[-58.920763,-23.223604],[-58.920644,-23.222386],[-58.923031,-23.222827],[-58.924142,-23.224281],[-58.924754,-23.224251],[-58.925996,-23.222997],[-58.926836,-23.223174],[-58.926921,-23.223884],[-58.926281,-23.225344],[-58.925882,-23.227559],[-58.924557,-23.22975],[-58.924346,-23.23233],[-58.924713,-23.232853],[-58.925223,-23.232856],[-58.926535,-23.231075],[-58.930955,-23.228459],[-58.931871,-23.22828],[-58.932489,-23.22939],[-58.933034,-23.229538],[-58.935104,-23.228367],[-58.935293,-23.227738],[-58.934451,-23.225463],[-58.933109,-23.224576],[-58.932953,-23.224099],[-58.933476,-23.223449],[-58.935864,-23.2222],[-58.935936,-23.221096],[-58.934136,-23.218956],[-58.933224,-23.216526],[-58.932019,-23.215753],[-58.929805,-23.21592],[-58.928289,-23.21452],[-58.926606,-23.213728],[-58.926595,-23.213148],[-58.928102,-23.211378],[-58.930588,-23.210459],[-58.932421,-23.210496],[-58.933324,-23.211005],[-58.933465,-23.212224],[-58.934293,-23.212237],[-58.935196,-23.211425],[-58.936321,-23.209352],[-58.938731,-23.207814],[-58.939604,-23.208593],[-58.941261,-23.211973],[-58.941866,-23.212088],[-58.942293,-23.211815],[-58.941848,-23.209968],[-58.943056,-23.209437],[-58.943545,-23.209511],[-58.943921,-23.210303],[-58.945703,-23.210573],[-58.946051,-23.209897],[-58.946082,-23.208776],[-58.944957,-23.206265],[-58.945882,-23.203674],[-58.94698,-23.20306],[-58.949063,-23.202711],[-58.950546,-23.201772],[-58.951615,-23.19993],[-58.95227,-23.196844],[-58.953644,-23.196881],[-58.954302,-23.198806],[-58.956831,-23.19704],[-58.956408,-23.194428],[-58.955753,-23.193621],[-58.953836,-23.192849],[-58.953686,-23.19251],[-58.954008,-23.192021],[-58.956846,-23.191039],[-58.958911,-23.189192],[-58.960069,-23.189526],[-58.960947,-23.191246],[-58.962389,-23.191819],[-58.963111,-23.191543],[-58.963608,-23.190895],[-58.962548,-23.189517],[-58.962475,-23.188952],[-58.962956,-23.188531],[-58.964043,-23.188605],[-58.964985,-23.189339],[-58.966364,-23.189774],[-58.966169,-23.187494],[-58.966877,-23.186367],[-58.967578,-23.186121],[-58.967901,-23.185558],[-58.96689,-23.184515],[-58.966858,-23.183708],[-58.967305,-23.18333],[-58.968315,-23.183311],[-58.970991,-23.184044],[-58.972869,-23.185522],[-58.973941,-23.185914],[-58.976677,-23.185352],[-58.978318,-23.184378],[-58.978365,-23.18342],[-58.977769,-23.182973],[-58.975073,-23.18224],[-58.97492,-23.18134],[-58.975767,-23.180418],[-58.975472,-23.179935],[-58.97254,-23.179274],[-58.971737,-23.1795],[-58.971272,-23.18021],[-58.97003,-23.180343],[-58.968667,-23.179137],[-58.967994,-23.177623],[-58.966723,-23.176112],[-58.967325,-23.175652],[-58.968781,-23.175972],[-58.969575,-23.17558],[-58.970099,-23.174389],[-58.970972,-23.173785],[-58.971524,-23.174003],[-58.971921,-23.174702],[-58.972909,-23.174769],[-58.976295,-23.171795],[-58.97637,-23.171238],[-58.975783,-23.170437],[-58.974317,-23.169652],[-58.973817,-23.168709],[-58.973938,-23.167686],[-58.974765,-23.167294],[-58.975855,-23.167386],[-58.976626,-23.167113],[-58.977795,-23.16741],[-58.979821,-23.169342],[-58.979765,-23.171254],[-58.977458,-23.175415],[-58.978196,-23.176898],[-58.979133,-23.177924],[-58.980064,-23.17769],[-58.983549,-23.173802],[-58.984441,-23.172394],[-58.98473,-23.171147],[-58.98624,-23.171329],[-58.988066,-23.170818],[-58.988537,-23.171003],[-58.987191,-23.175052],[-58.985616,-23.175901],[-58.985601,-23.176219],[-58.986855,-23.17768],[-58.987747,-23.178018],[-58.988347,-23.177857],[-58.989627,-23.173751],[-58.99033,-23.172823],[-58.994171,-23.175447],[-58.994281,-23.177453],[-58.994531,-23.177706],[-58.9969,-23.178589],[-58.997365,-23.178181],[-58.99758,-23.176413],[-58.999768,-23.175468],[-59.003972,-23.175586],[-59.004705,-23.174841],[-59.005101,-23.174841],[-59.006219,-23.175325],[-59.007007,-23.176752],[-59.007368,-23.176842],[-59.00861,-23.175833],[-59.00917,-23.174339],[-59.010499,-23.173131],[-59.011955,-23.172338],[-59.013626,-23.172283],[-59.014282,-23.172005],[-59.015452,-23.170243],[-59.016414,-23.170156],[-59.017364,-23.170694],[-59.021524,-23.174562],[-59.022372,-23.174975],[-59.023596,-23.174202],[-59.025632,-23.17209],[-59.026429,-23.171604],[-59.027106,-23.171648],[-59.028539,-23.172798],[-59.029396,-23.173116],[-59.029626,-23.173852],[-59.027532,-23.177688],[-59.027091,-23.179736],[-59.026252,-23.180488],[-59.025464,-23.180762],[-59.024779,-23.183481],[-59.023505,-23.184204],[-59.023427,-23.184793],[-59.024648,-23.186342],[-59.024442,-23.187533],[-59.025036,-23.188284],[-59.025544,-23.188349],[-59.026312,-23.187759],[-59.027379,-23.184567],[-59.026956,-23.183761],[-59.026977,-23.182973],[-59.027678,-23.182485],[-59.029735,-23.182991],[-59.033185,-23.182652],[-59.03351,-23.183195],[-59.033431,-23.184469],[-59.031828,-23.185955],[-59.032564,-23.187848],[-59.033784,-23.187532],[-59.036382,-23.188072],[-59.03725,-23.186802],[-59.038153,-23.18638],[-59.039613,-23.186191],[-59.040316,-23.185122],[-59.040715,-23.185094],[-59.041467,-23.186763],[-59.042971,-23.18735],[-59.044249,-23.189752],[-59.046018,-23.190032],[-59.047251,-23.189762],[-59.047874,-23.190211],[-59.047976,-23.190851],[-59.047587,-23.191459],[-59.048658,-23.191485],[-59.048896,-23.192008],[-59.048199,-23.192815],[-59.048196,-23.193207],[-59.049363,-23.194481],[-59.049981,-23.19461],[-59.052671,-23.192237],[-59.054352,-23.192341],[-59.05423,-23.192835],[-59.053121,-23.193654],[-59.052449,-23.194737],[-59.05058,-23.195875],[-59.050309,-23.196788],[-59.050521,-23.197191],[-59.053583,-23.196188],[-59.055251,-23.196465],[-59.056499,-23.197255],[-59.057225,-23.199452],[-59.057564,-23.199585],[-59.058455,-23.198212],[-59.059836,-23.197475],[-59.060553,-23.1962],[-59.061103,-23.19604],[-59.061918,-23.1976],[-59.063884,-23.19971],[-59.06421,-23.201268],[-59.064637,-23.2013],[-59.067033,-23.198696],[-59.067054,-23.197863],[-59.066192,-23.197254],[-59.066175,-23.196905],[-59.066334,-23.195625],[-59.06733,-23.195815],[-59.069169,-23.198807],[-59.06865,-23.20044],[-59.067741,-23.201557],[-59.067994,-23.202465],[-59.068834,-23.202877],[-59.069295,-23.20291],[-59.069165,-23.201417],[-59.070064,-23.201254],[-59.070841,-23.200146],[-59.071906,-23.19961],[-59.075021,-23.199366],[-59.077967,-23.200493],[-59.080316,-23.200719],[-59.081303,-23.200393],[-59.081664,-23.199726],[-59.081486,-23.198931],[-59.079519,-23.199007],[-59.078363,-23.19866],[-59.076351,-23.198613],[-59.07616,-23.197786],[-59.077479,-23.197124],[-59.077937,-23.196065],[-59.077608,-23.195262],[-59.075708,-23.193219],[-59.075409,-23.192255],[-59.07774,-23.192813],[-59.078628,-23.195015],[-59.080144,-23.195437],[-59.080993,-23.194528],[-59.08076,-23.193868],[-59.08198,-23.193884],[-59.082928,-23.193373],[-59.084065,-23.192002],[-59.085273,-23.191309],[-59.085835,-23.191712],[-59.085885,-23.192457],[-59.084261,-23.193094],[-59.082549,-23.194424],[-59.081583,-23.196086],[-59.085877,-23.1953],[-59.08675,-23.19568],[-59.08682,-23.196334],[-59.086122,-23.197171],[-59.084138,-23.197292],[-59.083352,-23.198277],[-59.083471,-23.199296],[-59.085858,-23.200061],[-59.086329,-23.200577],[-59.086551,-23.201661],[-59.087546,-23.202685],[-59.087964,-23.202503],[-59.088012,-23.200669],[-59.088922,-23.200186],[-59.090389,-23.200655],[-59.091643,-23.201716],[-59.091535,-23.20229],[-59.087891,-23.206639],[-59.087738,-23.207757],[-59.088692,-23.207795],[-59.089584,-23.207377],[-59.090108,-23.206788],[-59.090144,-23.20568],[-59.091238,-23.204509],[-59.092746,-23.204324],[-59.095034,-23.204868],[-59.096653,-23.204566],[-59.096985,-23.207309],[-59.097696,-23.209376],[-59.097464,-23.209763],[-59.096804,-23.209754],[-59.095604,-23.209283],[-59.09519,-23.209709],[-59.094799,-23.211029],[-59.093752,-23.211807],[-59.093671,-23.212533],[-59.094497,-23.214067],[-59.094764,-23.215442],[-59.095118,-23.215682],[-59.095675,-23.2154],[-59.096355,-23.214228],[-59.097024,-23.213983],[-59.099192,-23.214643],[-59.100785,-23.214524],[-59.101835,-23.215081],[-59.102537,-23.217464],[-59.105346,-23.216748],[-59.108249,-23.216495],[-59.111293,-23.217156],[-59.112598,-23.217176],[-59.114149,-23.216477],[-59.11588,-23.214571],[-59.116725,-23.215059],[-59.11701,-23.216934],[-59.117767,-23.21707],[-59.119194,-23.21382],[-59.119116,-23.21259],[-59.118014,-23.212155],[-59.117705,-23.211718],[-59.117716,-23.211113],[-59.118624,-23.209967],[-59.11935,-23.210298],[-59.121035,-23.213344],[-59.121621,-23.213837],[-59.122249,-23.213874],[-59.123237,-23.212894],[-59.123513,-23.211815],[-59.125423,-23.211977],[-59.127582,-23.209439],[-59.127641,-23.208124],[-59.126057,-23.208184],[-59.125345,-23.206809],[-59.125965,-23.206559],[-59.127482,-23.206907],[-59.129834,-23.206982],[-59.13062,-23.206767],[-59.132324,-23.205066],[-59.133149,-23.205108],[-59.133191,-23.205712],[-59.132501,-23.206791],[-59.131069,-23.207376],[-59.131224,-23.207943],[-59.133033,-23.208694],[-59.133777,-23.208721],[-59.134436,-23.206683],[-59.135745,-23.206566],[-59.136292,-23.207105],[-59.136024,-23.209201],[-59.136768,-23.209883],[-59.138289,-23.208973],[-59.139876,-23.206685],[-59.140897,-23.206709],[-59.141427,-23.209577],[-59.139877,-23.211076],[-59.139838,-23.211617],[-59.140381,-23.211958],[-59.144397,-23.212417],[-59.147434,-23.211656],[-59.149148,-23.210662],[-59.149299,-23.210274],[-59.148452,-23.210255],[-59.147355,-23.208894],[-59.14483,-23.207919],[-59.144795,-23.2076],[-59.146255,-23.205929],[-59.145562,-23.203052],[-59.146364,-23.20211],[-59.146763,-23.202337],[-59.147061,-23.203773],[-59.147742,-23.204665],[-59.147505,-23.205929],[-59.148074,-23.206132],[-59.149921,-23.206115],[-59.152056,-23.205258],[-59.152949,-23.204484],[-59.153069,-23.204018],[-59.152463,-23.202448],[-59.152755,-23.199628],[-59.152282,-23.198793],[-59.150981,-23.198081],[-59.151144,-23.197375],[-59.152417,-23.196079],[-59.152848,-23.194645],[-59.153339,-23.194977],[-59.153197,-23.196715],[-59.153955,-23.198244],[-59.155023,-23.19827],[-59.156199,-23.19777],[-59.156639,-23.196773],[-59.156508,-23.195648],[-59.159023,-23.19583],[-59.157865,-23.197363],[-59.157784,-23.201027],[-59.158306,-23.201865],[-59.158994,-23.201524],[-59.158625,-23.198846],[-59.15937,-23.198434],[-59.161327,-23.199616],[-59.161619,-23.200461],[-59.161513,-23.202333]]]}}]}
