{"type":"FeatureCollection","name":"distrito","features":[{"type":"Feature","properties":{"clave":"10-29","nombre":"San Cristóbal"},"geometry":{"type":"Polygon","coordinates":[[[-55.538888,-25.97173],[-55.535262,-25.97094],[-55.53407,-25.969993],[-55.534985,-25.968797],[-55.535558,-25.966555],[-55.534935,-25.965393],[-55.535588,-25.962587],[-55.534879,-25.960445],[-55.534949,-25.957124],[-55.534432,-25.956983],[-55.533836,-25.956196],[-55.531642,-25.950639],[-55.530063,-25.949432],[-55.529209,-25.948331],[-55.52892,-25.94733],[-55.529133,-25.946484],[-55.528521,-25.945177],[-55.528632,-25.943919],[-55.528307,-25.94295],[-55.526361,-25.941115],[-55.524181,-25.937866],[-55.522218,-25.936401],[-55.521952,-25.933266],[-55.522198,-25.932099],[-55.522957,-25.930838],[-55.52295,-25.928762],[-55.522128,-25.928252],[-55.522738,-25.927595],[-55.522267,-25.927085],[-55.523326,-25.926296],[-55.523998,-25.926385],[-55.524659,-25.925416],[-55.524705,-25.924731],[-55.523711,-25.922716],[-55.523616,-25.918969],[-55.522372,-25.917417],[-55.52167,-25.91592],[-55.520592,-25.915539],[-55.518604,-25.909429],[-55.518723,-25.908604],[-55.51816,-25.907822],[-55.518006,-25.906728],[-55.517306,-25.906143],[-55.517349,-25.904649],[-55.516577,-25.903486],[-55.516581,-25.902466],[-55.515844,-25.901831],[-55.516373,-25.898654],[-55.519714,-25.896575],[-55.519866,-25.894983],[-55.51818,-25.893219],[-55.518199,-25.892867],[-55.519372,-25.891823],[-55.520604,-25.891745],[-55.52254,-25.892334],[-55.523132,-25.893103],[-55.525775,-25.891247],[-55.526568,-25.889937],[-55.5268,-25.888937],[-55.526547,-25.887851],[-55.525774,-25.886765],[-55.525837,-25.886111],[-55.525325,-25.885447],[-55.526019,-25.883075],[-55.525989,-25.882555],[-55.52541,-25.882075],[-55.525672,-25.88048],[-55.524931,-25.880319],[-55.524881,-25.879619],[-55.52445,-25.879064],[-55.523032,-25.878408],[-55.523015,-25.877406],[-55.522541,-25.876697],[-55.519973,-25.876256],[-55.518731,-25.875412],[-55.518107,-25.874485],[-55.518692,-25.874274],[-55.518653,-25.874017],[-55.517697,-25.872743],[-55.517149,-25.872787],[-55.516855,-25.873578],[-55.515679,-25.874225],[-55.515449,-25.875207],[-55.514595,-25.875311],[-55.514742,-25.874424],[-55.513687,-25.873839],[-55.513444,-25.872848],[-55.512066,-25.870352],[-55.51223,-25.869839],[-55.51372,-25.868861],[-55.512346,-25.868323],[-55.512798,-25.866879],[-55.513631,-25.866621],[-55.513227,-25.865935],[-55.514027,-25.865501],[-55.512829,-25.865137],[-55.513324,-25.864474],[-55.512819,-25.86264],[-55.513277,-25.861927],[-55.513702,-25.861877],[-55.513179,-25.861078],[-55.51414,-25.861611],[-55.513822,-25.860321],[-55.514093,-25.860152],[-55.514715,-25.860484],[-55.51521,-25.860028],[-55.515535,-25.860908],[-55.51622,-25.860039],[-55.516981,-25.859744],[-55.516183,-25.85947],[-55.515813,-25.858838],[-55.517013,-25.858467],[-55.517304,-25.858651],[-55.517371,-25.859455],[-55.517929,-25.85946],[-55.517785,-25.859856],[-55.518088,-25.860243],[-55.517734,-25.860939],[-55.518015,-25.861587],[-55.518479,-25.860342],[-55.520268,-25.858216],[-55.519815,-25.857715],[-55.520352,-25.856727],[-55.521438,-25.856156],[-55.522637,-25.856421],[-55.522889,-25.855814],[-55.522382,-25.855339],[-55.523329,-25.854902],[-55.523293,-25.854504],[-55.524076,-25.853655],[-55.526038,-25.853404],[-55.527175,-25.852526],[-55.527013,-25.851906],[-55.526483,-25.851756],[-55.52685,-25.851268],[-55.527549,-25.850982],[-55.528654,-25.851584],[-55.52826,-25.850185],[-55.528627,-25.849264],[-55.528234,-25.847878],[-55.528865,-25.847776],[-55.529041,-25.847426],[-55.528243,-25.84749],[-55.528038,-25.847131],[-55.530024,-25.845892],[-55.529349,-25.845669],[-55.529739,-25.845235],[-55.528576,-25.844889],[-55.528638,-25.84363],[-55.528469,-25.843344],[-55.528011,-25.843533],[-55.527996,-25.841624],[-55.527129,-25.840825],[-55.527146,-25.840035],[-55.526549,-25.83951],[-55.526769,-25.838966],[-55.526025,-25.839071],[-55.525733,-25.838856],[-55.525741,-25.838405],[-55.526215,-25.838207],[-55.526302,-25.837765],[-55.525187,-25.837239],[-55.525516,-25.836624],[-55.524967,-25.834551],[-55.525706,-25.834184],[-55.524124,-25.832638],[-55.524452,-25.831494],[-55.523918,-25.830834],[-55.524511,-25.830867],[-55.524626,-25.830634],[-55.52433,-25.829566],[-55.522328,-25.826787],[-55.522691,-25.826001],[-55.522345,-25.825442],[-55.522808,-25.823853],[-55.522498,-25.823254],[-55.522988,-25.821896],[-55.522642,-25.82099],[-55.523049,-25.82075],[-55.523743,-25.818211],[-55.52364,-25.818016],[-55.523086,-25.818353],[-55.522925,-25.817593],[-55.523343,-25.817264],[-55.522727,-25.816941],[-55.523048,-25.816304],[-55.522385,-25.815864],[-55.523072,-25.815704],[-55.523092,-25.815397],[-55.522702,-25.815054],[-55.52167,-25.815066],[-55.52279,-25.81394],[-55.52177,-25.813844],[-55.521345,-25.813303],[-55.522255,-25.811529],[-55.522526,-25.811437],[-55.52308,-25.812061],[-55.523195,-25.811818],[-55.522851,-25.810686],[-55.523169,-25.810121],[-55.523069,-25.809149],[-55.522693,-25.808567],[-55.522345,-25.808839],[-55.522076,-25.808593],[-55.522036,-25.808096],[-55.522567,-25.807826],[-55.522073,-25.807175],[-55.521871,-25.805873],[-55.52111,-25.804958],[-55.521865,-25.804104],[-55.521229,-25.803808],[-55.51984,-25.80402],[-55.519356,-25.803758],[-55.519186,-25.802772],[-55.518583,-25.802206],[-55.519023,-25.801583],[-55.517313,-25.8018],[-55.517776,-25.800717],[-55.516889,-25.799259],[-55.516989,-25.798601],[-55.516366,-25.797791],[-55.516459,-25.796984],[-55.515847,-25.796179],[-55.51613,-25.795658],[-55.516985,-25.795996],[-55.517265,-25.795809],[-55.51651,-25.794763],[-55.517042,-25.794566],[-55.517046,-25.79429],[-55.516368,-25.793674],[-55.51678,-25.793155],[-55.516387,-25.792501],[-55.516825,-25.79158],[-55.515983,-25.790312],[-55.515154,-25.790294],[-55.514988,-25.789317],[-55.514382,-25.789117],[-55.514455,-25.787967],[-55.513939,-25.786643],[-55.514426,-25.785633],[-55.513939,-25.785556],[-55.512472,-25.78387],[-55.511801,-25.783841],[-55.511637,-25.782733],[-55.510006,-25.782802],[-55.509178,-25.783191],[-55.508907,-25.78303],[-55.50816,-25.782111],[-55.508297,-25.780446],[-55.508055,-25.780038],[-55.506852,-25.780287],[-55.505653,-25.781295],[-55.506685,-25.781947],[-55.5064,-25.782314],[-55.504328,-25.782193],[-55.503141,-25.781748],[-55.503004,-25.781313],[-55.502183,-25.781697],[-55.50154,-25.780729],[-55.500796,-25.777783],[-55.500001,-25.77717],[-55.49882,-25.777478],[-55.499051,-25.776596],[-55.498859,-25.776282],[-55.498019,-25.775465],[-55.497829,-25.775798],[-55.497197,-25.775642],[-55.496066,-25.774263],[-55.498354,-25.772918],[-55.496089,-25.772764],[-55.495296,-25.771817],[-55.494668,-25.771517],[-55.495029,-25.770595],[-55.494404,-25.769501],[-55.493651,-25.768979],[-55.492748,-25.767281],[-55.492674,-25.76645],[-55.492208,-25.766179],[-55.493299,-25.764628],[-55.492058,-25.763577],[-55.489465,-25.763658],[-55.489007,-25.762909],[-55.489981,-25.762653],[-55.489983,-25.762391],[-55.489283,-25.761833],[-55.486978,-25.760951],[-55.487937,-25.760424],[-55.487941,-25.759706],[-55.488643,-25.760066],[-55.488773,-25.759877],[-55.48713,-25.757192],[-55.48661,-25.756993],[-55.486195,-25.75753],[-55.487473,-25.758627],[-55.486299,-25.759454],[-55.485947,-25.759212],[-55.485916,-25.757834],[-55.485229,-25.756807],[-55.484112,-25.757482],[-55.483193,-25.755265],[-55.483421,-25.753994],[-55.482779,-25.754669],[-55.483263,-25.753595],[-55.484161,-25.753428],[-55.4833,-25.752918],[-55.483911,-25.752871],[-55.484086,-25.752507],[-55.482889,-25.75198],[-55.4837,-25.751338],[-55.483333,-25.750829],[-55.484052,-25.750272],[-55.484942,-25.750186],[-55.484446,-25.749612],[-55.485568,-25.748374],[-55.485348,-25.747017],[-55.48474,-25.745932],[-55.483549,-25.745744],[-55.483636,-25.744602],[-55.483107,-25.745026],[-55.482772,-25.744932],[-55.482015,-25.743692],[-55.481149,-25.743055],[-55.481691,-25.742334],[-55.482596,-25.741833],[-55.481249,-25.740853],[-55.480837,-25.741364],[-55.48002,-25.739297],[-55.479779,-25.739511],[-55.479873,-25.740713],[-55.479367,-25.741231],[-55.47913,-25.740389],[-55.478169,-25.739345],[-55.477577,-25.739009],[-55.47716,-25.739294],[-55.477227,-25.738658],[-55.47776,-25.738258],[-55.476862,-25.737165],[-55.476278,-25.737633],[-55.47618,-25.735609],[-55.475353,-25.735808],[-55.47519,-25.736204],[-55.474967,-25.73584],[-55.475501,-25.734058],[-55.477308,-25.733138],[-55.477762,-25.73308],[-55.477703,-25.733504],[-55.478667,-25.734331],[-55.479346,-25.733792],[-55.480207,-25.733638],[-55.479512,-25.732313],[-55.479088,-25.73048],[-55.477704,-25.72912],[-55.477697,-25.728764],[-55.478338,-25.728509],[-55.478267,-25.728052],[-55.477844,-25.727781],[-55.478251,-25.727244],[-55.477899,-25.726789],[-55.477159,-25.7267],[-55.47454,-25.725363],[-55.474098,-25.723612],[-55.472727,-25.722473],[-55.468508,-25.721079],[-55.468636,-25.719979],[-55.469608,-25.719064],[-55.469451,-25.718277],[-55.468355,-25.717597],[-55.467467,-25.717904],[-55.465772,-25.717281],[-55.467455,-25.716996],[-55.465781,-25.715769],[-55.46562,-25.715339],[-55.468108,-25.715356],[-55.466714,-25.713043],[-55.467516,-25.712578],[-55.467969,-25.711689],[-55.467043,-25.711823],[-55.46773,-25.710079],[-55.466633,-25.710257],[-55.467582,-25.709157],[-55.467018,-25.708871],[-55.466442,-25.709736],[-55.466233,-25.709603],[-55.466536,-25.707155],[-55.465911,-25.706675],[-55.46555,-25.70538],[-55.465932,-25.705352],[-55.467113,-25.706109],[-55.467634,-25.704729],[-55.468911,-25.703776],[-55.468657,-25.7032],[-55.469537,-25.701752],[-55.469842,-25.701552],[-55.470085,-25.701884],[-55.470528,-25.701717],[-55.470515,-25.699622],[-55.471226,-25.699842],[-55.471197,-25.699079],[-55.472122,-25.69889],[-55.471799,-25.697487],[-55.470883,-25.696376],[-55.472461,-25.69451],[-55.475091,-25.693924],[-55.475205,-25.693695],[-55.474771,-25.69323],[-55.476081,-25.692729],[-55.476828,-25.693418],[-55.476842,-25.692493],[-55.477608,-25.692587],[-55.476524,-25.691239],[-55.477292,-25.691315],[-55.477296,-25.691125],[-55.476091,-25.690291],[-55.476611,-25.689981],[-55.476584,-25.689281],[-55.475449,-25.688854],[-55.475609,-25.689636],[-55.47527,-25.689953],[-55.473833,-25.689202],[-55.474219,-25.688461],[-55.472986,-25.686801],[-55.47322,-25.685603],[-55.473734,-25.685491],[-55.474148,-25.685843],[-55.473829,-25.687022],[-55.474431,-25.687191],[-55.474674,-25.685266],[-55.476109,-25.685136],[-55.476444,-25.684255],[-55.477209,-25.684173],[-55.477332,-25.685433],[-55.477635,-25.685391],[-55.477074,-25.680407],[-55.473166,-25.680655],[-55.472588,-25.68059],[-55.472076,-25.680138],[-55.471535,-25.68052],[-55.471169,-25.68016],[-55.472136,-25.679524],[-55.471862,-25.67875],[-55.470187,-25.678344],[-55.468729,-25.677123],[-55.466076,-25.676793],[-55.464665,-25.677333],[-55.46278,-25.677548],[-55.461972,-25.677124],[-55.462832,-25.676321],[-55.462647,-25.675836],[-55.461401,-25.675344],[-55.460311,-25.675509],[-55.460612,-25.674081],[-55.461316,-25.674016],[-55.461403,-25.67371],[-55.461042,-25.673115],[-55.458946,-25.671675],[-55.458987,-25.671378],[-55.46019,-25.670628],[-55.458808,-25.669476],[-55.460004,-25.66915],[-55.460211,-25.667974],[-55.459711,-25.667246],[-55.459204,-25.667065],[-55.459562,-25.666599],[-55.459037,-25.665889],[-55.455336,-25.664072],[-55.455546,-25.66351],[-55.456425,-25.663451],[-55.455837,-25.662705],[-55.45623,-25.660167],[-55.453856,-25.656721],[-55.453042,-25.656265],[-55.453566,-25.655309],[-55.453473,-25.654604],[-55.452919,-25.65412],[-55.452592,-25.654134],[-55.451141,-25.65573],[-55.450771,-25.655388],[-55.451184,-25.654625],[-55.450912,-25.654306],[-55.449477,-25.654814],[-55.446407,-25.655179],[-55.446158,-25.655397],[-55.446213,-25.656545],[-55.445824,-25.65631],[-55.445334,-25.656481],[-55.445457,-25.657421],[-55.444625,-25.656966],[-55.444185,-25.657566],[-55.443657,-25.657393],[-55.441091,-25.658178],[-55.440138,-25.658159],[-55.438005,-25.660326],[-55.436697,-25.661052],[-55.435807,-25.660808],[-55.435796,-25.659995],[-55.434098,-25.659932],[-55.432761,-25.659276],[-55.431606,-25.659309],[-55.430307,-25.660302],[-55.429575,-25.66052],[-55.42917,-25.660312],[-55.429967,-25.659598],[-55.429794,-25.659244],[-55.428626,-25.659733],[-55.428229,-25.659331],[-55.427326,-25.659832],[-55.426943,-25.658848],[-55.427378,-25.658401],[-55.426892,-25.657299],[-55.427222,-25.656802],[-55.426097,-25.655647],[-55.426794,-25.655267],[-55.426782,-25.654603],[-55.426222,-25.65397],[-55.42464,-25.653334],[-55.424346,-25.6525],[-55.424408,-25.652239],[-55.426399,-25.652148],[-55.426052,-25.650366],[-55.425483,-25.650034],[-55.424677,-25.651393],[-55.424023,-25.651513],[-55.42352,-25.650207],[-55.422547,-25.649804],[-55.423245,-25.64927],[-55.422816,-25.64857],[-55.420885,-25.647475],[-55.420535,-25.646717],[-55.419906,-25.646512],[-55.419954,-25.645637],[-55.420314,-25.645261],[-55.421077,-25.645247],[-55.42209,-25.645714],[-55.422346,-25.645581],[-55.42223,-25.645282],[-55.419531,-25.643425],[-55.419419,-25.64267],[-55.417738,-25.641907],[-55.418476,-25.641143],[-55.41769,-25.640209],[-55.417862,-25.639398],[-55.418374,-25.638921],[-55.419462,-25.639149],[-55.419702,-25.638831],[-55.418984,-25.638349],[-55.419411,-25.637492],[-55.418224,-25.636405],[-55.417374,-25.636418],[-55.417455,-25.63553],[-55.41627,-25.633955],[-55.416278,-25.633671],[-55.416934,-25.633673],[-55.417148,-25.633414],[-55.416471,-25.632987],[-55.416982,-25.630956],[-55.416253,-25.630362],[-55.414174,-25.632158],[-55.412259,-25.630092],[-55.412228,-25.629555],[-55.411774,-25.629315],[-55.411168,-25.629652],[-55.411064,-25.630648],[-55.410783,-25.630844],[-55.41027,-25.630667],[-55.408682,-25.62879],[-55.408329,-25.626452],[-55.408889,-25.626101],[-55.408395,-25.624873],[-55.408845,-25.623984],[-55.407501,-25.623527],[-55.405593,-25.624052],[-55.406401,-25.622942],[-55.404066,-25.622799],[-55.403548,-25.622432],[-55.402386,-25.622559],[-55.402082,-25.622159],[-55.402859,-25.621562],[-55.402891,-25.621251],[-55.402595,-25.621221],[-55.401462,-25.622206],[-55.40149,-25.623064],[-55.400067,-25.623035],[-55.400011,-25.622747],[-55.400045,-25.623158],[-55.398779,-25.624483],[-55.398729,-25.62563],[-55.398241,-25.626581],[-55.396831,-25.628144],[-55.394777,-25.629237],[-55.391463,-25.629838],[-55.390133,-25.629409],[-55.389509,-25.628733],[-55.388386,-25.625947],[-55.387365,-25.625999],[-55.385665,-25.626905],[-55.384597,-25.62659],[-55.383431,-25.625669],[-55.382819,-25.624116],[-55.382772,-25.622362],[-55.382252,-25.621782],[-55.379197,-25.622785],[-55.378432,-25.622154],[-55.378362,-25.620831],[-55.377709,-25.619692],[-55.377132,-25.619462],[-55.375401,-25.62008],[-55.373239,-25.619977],[-55.372828,-25.619191],[-55.373618,-25.61802],[-55.373849,-25.616508],[-55.373495,-25.615421],[-55.372264,-25.614148],[-55.372199,-25.613732],[-55.373156,-25.611894],[-55.370792,-25.609843],[-55.369984,-25.609802],[-55.368589,-25.610265],[-55.368173,-25.609798],[-55.368271,-25.60905],[-55.369918,-25.608176],[-55.370033,-25.607523],[-55.368787,-25.607334],[-55.365651,-25.6091],[-55.36488,-25.608948],[-55.364278,-25.607921],[-55.364196,-25.606231],[-55.364573,-25.604402],[-55.363945,-25.60398],[-55.363256,-25.60426],[-55.362518,-25.606786],[-55.361654,-25.607015],[-55.360822,-25.606145],[-55.360465,-25.605232],[-55.360758,-25.603068],[-55.357801,-25.601409],[-55.351376,-25.596469],[-55.349554,-25.593945],[-55.348907,-25.591002],[-55.347002,-25.588659],[-55.345241,-25.588187],[-55.343615,-25.588728],[-55.34256,-25.589741],[-55.341792,-25.589569],[-55.341592,-25.589182],[-55.341847,-25.586541],[-55.343551,-25.584068],[-55.34339,-25.583577],[-55.34293,-25.583408],[-55.341349,-25.58445],[-55.340523,-25.584767],[-55.33974,-25.584688],[-55.339423,-25.583497],[-55.339729,-25.582685],[-55.341401,-25.58162],[-55.341909,-25.581079],[-55.342114,-25.580196],[-55.34122,-25.578881],[-55.339653,-25.577978],[-55.338988,-25.576817],[-55.337974,-25.576782],[-55.336642,-25.577466],[-55.335463,-25.577255],[-55.33469,-25.5765],[-55.334261,-25.575051],[-55.334045,-25.574839],[-55.333389,-25.57496],[-55.332807,-25.575198],[-55.331785,-25.576689],[-55.32982,-25.577575],[-55.328191,-25.58119],[-55.327309,-25.582695],[-55.326478,-25.583326],[-55.32569,-25.583666],[-55.324047,-25.583624],[-55.322351,-25.582696],[-55.321134,-25.582484],[-55.3198,-25.584216],[-55.319181,-25.584395],[-55.318353,-25.583862],[-55.318663,-25.58284],[-55.320883,-25.581142],[-55.322924,-25.580291],[-55.323302,-25.579923],[-55.323196,-25.579223],[-55.319785,-25.577949],[-55.319062,-25.577265],[-55.318523,-25.575384],[-55.318063,-25.575227],[-55.316953,-25.575657],[-55.315876,-25.577322],[-55.315035,-25.577813],[-55.314051,-25.577452],[-55.313801,-25.576913],[-55.313958,-25.575844],[-55.315919,-25.574247],[-55.316094,-25.57369],[-55.31543,-25.572518],[-55.314133,-25.571571],[-55.312967,-25.571418],[-55.311495,-25.571925],[-55.310934,-25.572571],[-55.310456,-25.574627],[-55.310054,-25.57489],[-55.309132,-25.57467],[-55.308843,-25.573327],[-55.309822,-25.571265],[-55.310856,-25.569891],[-55.310738,-25.56912],[-55.310009,-25.568914],[-55.308473,-25.56949],[-55.306597,-25.569597],[-55.305727,-25.571171],[-55.305073,-25.571117],[-55.304859,-25.570765],[-55.305067,-25.568752],[-55.304236,-25.568486],[-55.302797,-25.569448],[-55.302279,-25.568859],[-55.302522,-25.568024],[-55.304439,-25.565926],[-55.304231,-25.565225],[-55.303745,-25.565068],[-55.300893,-25.565163],[-55.299891,-25.566106],[-55.299028,-25.566248],[-55.29841,-25.565448],[-55.298339,-25.564131],[-55.29766,-25.564007],[-55.29628,-25.56533],[-55.294412,-25.565786],[-55.292771,-25.565569],[-55.291291,-25.566693],[-55.288601,-25.568013],[-55.288153,-25.567914],[-55.28758,-25.566685],[-55.28637,-25.56596],[-55.285435,-25.565821],[-55.283887,-25.56628],[-55.281046,-25.566492],[-55.279027,-25.565816],[-55.278452,-25.566519],[-55.276614,-25.567534],[-55.275274,-25.567821],[-55.27252,-25.567335],[-55.270652,-25.567767],[-55.269174,-25.569636],[-55.268596,-25.569595],[-55.268287,-25.568776],[-55.269631,-25.566369],[-55.269653,-25.565752],[-55.269339,-25.565247],[-55.268649,-25.565064],[-55.265619,-25.564982],[-55.265549,-25.564527],[-55.266192,-25.563567],[-55.268348,-25.562754],[-55.268335,-25.561881],[-55.267685,-25.561512],[-55.26511,-25.561085],[-55.264044,-25.561108],[-55.262338,-25.561891],[-55.261787,-25.561815],[-55.261561,-25.561451],[-55.261841,-25.560685],[-55.263771,-25.559544],[-55.264144,-25.558639],[-55.264333,-25.558013],[-55.264024,-25.555365],[-55.263733,-25.55507],[-55.263169,-25.555029],[-55.262831,-25.555304],[-55.261999,-25.557775],[-55.261378,-25.558106],[-55.260775,-25.558099],[-55.259207,-25.557288],[-55.258691,-25.557468],[-55.258408,-25.558338],[-55.259916,-25.559719],[-55.260001,-25.560116],[-55.259726,-25.560439],[-55.259213,-25.560444],[-55.257401,-25.559619],[-55.255773,-25.559425],[-55.254601,-25.557885],[-55.253005,-25.558016],[-55.252254,-25.556023],[-55.250141,-25.554338],[-55.2498,-25.55325],[-55.25041,-25.55234],[-55.252598,-25.550934],[-55.252208,-25.549261],[-55.253047,-25.547838],[-55.251779,-25.547622],[-55.24819,-25.548086],[-55.247473,-25.547719],[-55.247209,-25.546003],[-55.247385,-25.544485],[-55.245713,-25.543592],[-55.245661,-25.543233],[-55.246679,-25.541419],[-55.246119,-25.540827],[-55.244941,-25.540385],[-55.245409,-25.53998],[-55.246589,-25.540318],[-55.247363,-25.540065],[-55.247715,-25.539021],[-55.247531,-25.538442],[-55.246353,-25.53731],[-55.246009,-25.536493],[-55.245502,-25.536269],[-55.244252,-25.537468],[-55.243616,-25.537486],[-55.243564,-25.537093],[-55.244646,-25.535525],[-55.244267,-25.534454],[-55.242779,-25.534166],[-55.240734,-25.534412],[-55.240371,-25.534215],[-55.240314,-25.533463],[-55.241185,-25.531892],[-55.240775,-25.5309],[-55.239323,-25.530787],[-55.237895,-25.531661],[-55.237104,-25.531756],[-55.236987,-25.530973],[-55.237238,-25.530602],[-55.239886,-25.528271],[-55.236663,-25.52626],[-55.234957,-25.524686],[-55.234004,-25.524349],[-55.231729,-25.524212],[-55.231914,-25.523283],[-55.232483,-25.522963],[-55.233256,-25.522833],[-55.235132,-25.523259],[-55.235211,-25.52253],[-55.23085,-25.521111],[-55.229565,-25.521204],[-55.22898,-25.521461],[-55.227884,-25.522659],[-55.226194,-25.523509],[-55.225215,-25.524864],[-55.224684,-25.524935],[-55.22431,-25.524775],[-55.222723,-25.520935],[-55.222194,-25.52082],[-55.221269,-25.522051],[-55.220735,-25.522293],[-55.219459,-25.521781],[-55.21877,-25.522021],[-55.218658,-25.522687],[-55.219441,-25.524157],[-55.218581,-25.525575],[-55.218896,-25.526231],[-55.218583,-25.526569],[-55.217517,-25.526523],[-55.217496,-25.527138],[-55.217043,-25.527164],[-55.217147,-25.528429],[-55.216668,-25.528636],[-55.215744,-25.530358],[-55.216105,-25.530895],[-55.216123,-25.53182],[-55.215019,-25.53284],[-55.215803,-25.532724],[-55.215817,-25.533067],[-55.215601,-25.533335],[-55.214393,-25.533167],[-55.214427,-25.53384],[-55.213685,-25.534585],[-55.214244,-25.534889],[-55.213739,-25.535362],[-55.214292,-25.535422],[-55.214287,-25.535684],[-55.213449,-25.536324],[-55.214046,-25.537392],[-55.21485,-25.537348],[-55.214552,-25.537958],[-55.215272,-25.539055],[-55.214729,-25.538967],[-55.214698,-25.539973],[-55.215082,-25.539625],[-55.215364,-25.540053],[-55.21481,-25.540259],[-55.214439,-25.541021],[-55.21508,-25.541521],[-55.214776,-25.542186],[-55.215323,-25.542242],[-55.214942,-25.542711],[-55.215292,-25.542697],[-55.215122,-25.543097],[-55.215634,-25.543347],[-55.215355,-25.543578],[-55.215396,-25.544197],[-55.216049,-25.544119],[-55.215853,-25.545015],[-55.216136,-25.545876],[-55.215795,-25.546233],[-55.216127,-25.547041],[-55.216524,-25.547136],[-55.216705,-25.548032],[-55.21667,-25.54888],[-55.216437,-25.549013],[-55.216202,-25.548369],[-55.215777,-25.549136],[-55.216282,-25.549701],[-55.215819,-25.549709],[-55.215811,-25.550571],[-55.216316,-25.550871],[-55.216013,-25.551486],[-55.216705,-25.552103],[-55.216209,-25.552138],[-55.216289,-25.552721],[-55.216761,-25.553061],[-55.216523,-25.55388],[-55.21715,-25.553522],[-55.216882,-25.554457],[-55.217248,-25.554724],[-55.217213,-25.55563],[-55.217732,-25.555515],[-55.218365,-25.556163],[-55.21711,-25.556685],[-55.217618,-25.558154],[-55.216196,-25.559211],[-55.2163,-25.559628],[-55.217249,-25.560402],[-55.216672,-25.560693],[-55.216961,-25.56122],[-55.215895,-25.562069],[-55.21637,-25.562346],[-55.216419,-25.56333],[-55.217004,-25.56392],[-55.215944,-25.565198],[-55.216327,-25.565708],[-55.215749,-25.565891],[-55.215702,-25.5664],[-55.215978,-25.566448],[-55.216158,-25.567132],[-55.215497,-25.567526],[-55.215938,-25.567987],[-55.2155,-25.568343],[-55.215307,-25.569252],[-55.215633,-25.569618],[-55.216281,-25.569607],[-55.21631,-25.57042],[-55.216098,-25.570855],[-55.215517,-25.570988],[-55.215063,-25.571849],[-55.215718,-25.571921],[-55.215352,-25.572544],[-55.215666,-25.572669],[-55.215558,-25.573083],[-55.216223,-25.573123],[-55.2155,-25.573954],[-55.215727,-25.574448],[-55.215276,-25.574714],[-55.215637,-25.575016],[-55.215412,-25.576088],[-55.216271,-25.576364],[-55.2163,-25.576739],[-55.216759,-25.576614],[-55.217197,-25.576886],[-55.217599,-25.577604],[-55.217367,-25.578662],[-55.217769,-25.579068],[-55.217189,-25.579404],[-55.217317,-25.581017],[-55.217029,-25.581312],[-55.217052,-25.582138],[-55.217355,-25.583108],[-55.217794,-25.582666],[-55.217926,-25.582862],[-55.217731,-25.58541],[-55.218438,-25.586764],[-55.21799,-25.587286],[-55.218624,-25.588043],[-55.218488,-25.588493],[-55.219029,-25.590413],[-55.218311,-25.592765],[-55.218918,-25.59285],[-55.219345,-25.593559],[-55.219761,-25.593564],[-55.219787,-25.594007],[-55.220362,-25.593829],[-55.220895,-25.594363],[-55.221252,-25.593812],[-55.222392,-25.593758],[-55.223085,-25.594051],[-55.223317,-25.594885],[-55.224275,-25.59463],[-55.22488,-25.595003],[-55.225132,-25.596053],[-55.225408,-25.595551],[-55.225753,-25.595618],[-55.22598,-25.596348],[-55.226693,-25.596013],[-55.22711,-25.597273],[-55.226735,-25.597336],[-55.226991,-25.598116],[-55.228051,-25.598088],[-55.228441,-25.59835],[-55.228032,-25.59849],[-55.22816,-25.599213],[-55.227674,-25.599681],[-55.228292,-25.601391],[-55.227726,-25.601415],[-55.227452,-25.601854],[-55.22777,-25.60272],[-55.22715,-25.602907],[-55.227456,-25.60338],[-55.226893,-25.6048],[-55.227216,-25.605052],[-55.227152,-25.606441],[-55.227652,-25.606384],[-55.227911,-25.608076],[-55.228468,-25.608362],[-55.22943,-25.610373],[-55.228385,-25.611909],[-55.228825,-25.612045],[-55.228373,-25.61297],[-55.229962,-25.61405],[-55.231827,-25.614325],[-55.231908,-25.615527],[-55.232939,-25.615711],[-55.232642,-25.61614],[-55.232879,-25.616428],[-55.23265,-25.617305],[-55.231751,-25.617073],[-55.231694,-25.616553],[-55.231231,-25.616444],[-55.23135,-25.617091],[-55.232292,-25.617684],[-55.232348,-25.618109],[-55.231948,-25.618434],[-55.23102,-25.618369],[-55.230539,-25.618918],[-55.230942,-25.619234],[-55.230427,-25.619409],[-55.230936,-25.620254],[-55.23017,-25.621753],[-55.230549,-25.622028],[-55.230168,-25.622258],[-55.231591,-25.622939],[-55.231557,-25.625006],[-55.232181,-25.625036],[-55.231606,-25.625584],[-55.231733,-25.626913],[-55.231177,-25.627357],[-55.231422,-25.627731],[-55.231156,-25.628323],[-55.231514,-25.628179],[-55.231805,-25.628399],[-55.231579,-25.628698],[-55.231824,-25.628877],[-55.231696,-25.629228],[-55.231999,-25.629317],[-55.231887,-25.629862],[-55.233305,-25.630204],[-55.233757,-25.630905],[-55.234733,-25.631255],[-55.235082,-25.631819],[-55.234906,-25.632025],[-55.234491,-25.631632],[-55.234563,-25.632404],[-55.235768,-25.63236],[-55.235729,-25.63305],[-55.236366,-25.633315],[-55.235586,-25.63345],[-55.236357,-25.634651],[-55.236759,-25.634751],[-55.23732,-25.636003],[-55.237362,-25.636419],[-55.236966,-25.636478],[-55.236761,-25.637062],[-55.235977,-25.637278],[-55.236593,-25.638175],[-55.236395,-25.640023],[-55.236984,-25.640603],[-55.236736,-25.641169],[-55.23746,-25.641629],[-55.237073,-25.642162],[-55.237852,-25.642623],[-55.237826,-25.644103],[-55.238236,-25.644686],[-55.237956,-25.645228],[-55.238474,-25.645496],[-55.238494,-25.646404],[-55.23899,-25.646798],[-55.238466,-25.648697],[-55.238754,-25.649142],[-55.238652,-25.649909],[-55.239018,-25.650048],[-55.238727,-25.650388],[-55.239027,-25.65068],[-55.238806,-25.651052],[-55.23916,-25.651594],[-55.239081,-25.652387],[-55.239476,-25.652184],[-55.23979,-25.653908],[-55.241493,-25.655414],[-55.242889,-25.65789],[-55.242767,-25.660394],[-55.241989,-25.662091],[-55.242278,-25.662496],[-55.242032,-25.664041],[-55.242807,-25.667174],[-55.242643,-25.668143],[-55.243218,-25.668836],[-55.243066,-25.669349],[-55.243589,-25.669851],[-55.24388,-25.671665],[-55.244114,-25.672137],[-55.24606,-25.673014],[-55.246907,-25.672834],[-55.247776,-25.673567],[-55.248822,-25.673584],[-55.250926,-25.675816],[-55.254156,-25.678139],[-55.254794,-25.679501],[-55.254847,-25.680531],[-55.255825,-25.682014],[-55.257217,-25.68361],[-55.257902,-25.683907],[-55.261767,-25.687673],[-55.263571,-25.690294],[-55.263443,-25.690658],[-55.26394,-25.690818],[-55.263854,-25.691331],[-55.264701,-25.691689],[-55.264796,-25.6923],[-55.265291,-25.692436],[-55.265216,-25.692801],[-55.265691,-25.692892],[-55.265845,-25.693431],[-55.266416,-25.693348],[-55.266199,-25.694086],[-55.266421,-25.694224],[-55.266514,-25.6939],[-55.266855,-25.694491],[-55.267268,-25.694162],[-55.267848,-25.694227],[-55.267992,-25.694603],[-55.268624,-25.69471],[-55.26838,-25.695141],[-55.269002,-25.695491],[-55.268619,-25.695753],[-55.268886,-25.695973],[-55.268776,-25.696454],[-55.269596,-25.696685],[-55.269016,-25.697893],[-55.269129,-25.699343],[-55.269837,-25.699771],[-55.269511,-25.700855],[-55.269923,-25.701054],[-55.269428,-25.702118],[-55.269901,-25.702313],[-55.269366,-25.702867],[-55.26966,-25.703349],[-55.269338,-25.704414],[-55.269824,-25.704659],[-55.269262,-25.705023],[-55.269052,-25.706366],[-55.269389,-25.707078],[-55.2687,-25.70791],[-55.268641,-25.708342],[-55.268995,-25.708495],[-55.26892,-25.710544],[-55.269051,-25.710961],[-55.269536,-25.71117],[-55.26997,-25.710994],[-55.270077,-25.711447],[-55.270717,-25.711594],[-55.270763,-25.712507],[-55.271177,-25.71243],[-55.271022,-25.712943],[-55.271284,-25.71277],[-55.271485,-25.713093],[-55.271632,-25.712684],[-55.272157,-25.712704],[-55.272026,-25.713208],[-55.272486,-25.713692],[-55.272094,-25.714468],[-55.272729,-25.715238],[-55.27255,-25.715697],[-55.273093,-25.716746],[-55.27285,-25.71779],[-55.272453,-25.717347],[-55.272023,-25.717816],[-55.271629,-25.718737],[-55.27168,-25.719929],[-55.272775,-25.720782],[-55.272725,-25.721165],[-55.273362,-25.721136],[-55.273373,-25.722206],[-55.274226,-25.723611],[-55.274286,-25.725151],[-55.275127,-25.725793],[-55.275799,-25.727326],[-55.276553,-25.728053],[-55.276294,-25.728176],[-55.276624,-25.728406],[-55.276361,-25.72862],[-55.276993,-25.730365],[-55.276895,-25.733316],[-55.277627,-25.735193],[-55.278516,-25.736418],[-55.276064,-25.737915],[-55.276105,-25.738538],[-55.276655,-25.739208],[-55.276663,-25.741108],[-55.277015,-25.741076],[-55.277246,-25.74195],[-55.276782,-25.743191],[-55.276981,-25.744701],[-55.276516,-25.74586],[-55.276798,-25.746156],[-55.275862,-25.748696],[-55.27756,-25.749713],[-55.277892,-25.749455],[-55.27831,-25.750029],[-55.279748,-25.750701],[-55.279607,-25.7518],[-55.280944,-25.753504],[-55.280576,-25.753527],[-55.280739,-25.753962],[-55.280327,-25.75463],[-55.280213,-25.755888],[-55.281018,-25.7568],[-55.280911,-25.758031],[-55.28138,-25.758335],[-55.281485,-25.7595],[-55.281886,-25.759433],[-55.281473,-25.760024],[-55.281984,-25.760269],[-55.281982,-25.761064],[-55.282515,-25.761386],[-55.28339,-25.763373],[-55.28369,-25.763476],[-55.283547,-25.763637],[-55.284381,-25.76403],[-55.284612,-25.765401],[-55.285981,-25.767326],[-55.286183,-25.768453],[-55.286992,-25.76992],[-55.287416,-25.771518],[-55.287228,-25.771679],[-55.287963,-25.772089],[-55.287526,-25.772973],[-55.287141,-25.772693],[-55.287119,-25.772941],[-55.286758,-25.772964],[-55.287524,-25.773826],[-55.287321,-25.775972],[-55.28787,-25.777487],[-55.286796,-25.778656],[-55.287141,-25.778755],[-55.287213,-25.779185],[-55.286592,-25.780785],[-55.287186,-25.781089],[-55.288421,-25.783623],[-55.289723,-25.788648],[-55.293091,-25.797007],[-55.294243,-25.802437],[-55.295444,-25.804514],[-55.295348,-25.806991],[-55.29501,-25.807971],[-55.29515,-25.809864],[-55.294734,-25.811353],[-55.295849,-25.818719],[-55.298241,-25.82229],[-55.302974,-25.82746],[-55.303514,-25.828698],[-55.303482,-25.829014],[-55.301836,-25.830128],[-55.301129,-25.831085],[-55.300179,-25.834694],[-55.300529,-25.835245],[-55.299961,-25.83661],[-55.300782,-25.842736],[-55.301213,-25.843179],[-55.303654,-25.849464],[-55.305192,-25.851982],[-55.304995,-25.854548],[-55.30731,-25.85902],[-55.319055,-25.856429],[-55.326739,-25.888555],[-55.336573,-25.925164],[-55.340508,-25.937446],[-55.339096,-25.937752],[-55.340709,-25.941833],[-55.345248,-25.94426],[-55.348819,-25.946952],[-55.349921,-25.947084],[-55.354674,-25.94651],[-55.356945,-25.945858],[-55.359206,-25.945789],[-55.361098,-25.943658],[-55.363288,-25.943145],[-55.366644,-25.943081],[-55.367833,-25.942548],[-55.36859,-25.941098],[-55.374113,-25.944443],[-55.376725,-25.957403],[-55.378508,-25.957066],[-55.381742,-25.969151],[-55.381258,-25.969159],[-55.380902,-25.969688],[-55.37977,-25.96912],[-55.379075,-25.969378],[-55.378585,-25.969179],[-55.37719,-25.971118],[-55.376487,-25.970035],[-55.37572,-25.970573],[-55.374447,-25.970351],[-55.373136,-25.971271],[-55.373681,-25.972374],[-55.373304,-25.972071],[-55.373204,-25.972612],[-55.372793,-25.972039],[-55.37242,-25.972599],[-55.371393,-25.972262],[-55.371142,-25.97314],[-55.370458,-25.97296],[-55.370369,-25.974052],[-55.369872,-25.97341],[-55.368782,-25.974124],[-55.367388,-25.97242],[-55.366805,-25.972305],[-55.366513,-25.972713],[-55.366077,-25.972229],[-55.365228,-25.973601],[-55.365004,-25.975074],[-55.366304,-25.976831],[-55.365552,-25.977477],[-55.365537,-25.979982],[-55.365252,-25.980959],[-55.365629,-25.981396],[-55.364989,-25.981926],[-55.364389,-25.984361],[-55.363698,-25.985256],[-55.362506,-25.985175],[-55.361583,-25.987295],[-55.360497,-25.988308],[-55.359298,-25.990876],[-55.357934,-25.991686],[-55.357309,-25.992857],[-55.357259,-25.993078],[-55.358577,-25.992768],[-55.359028,-25.992967],[-55.357691,-25.994356],[-55.358079,-25.995308],[-55.359638,-25.995836],[-55.360443,-25.996436],[-55.362209,-25.995265],[-55.36208,-25.9958],[-55.362769,-25.995772],[-55.363047,-25.996078],[-55.362295,-25.997026],[-55.363457,-25.996931],[-55.363896,-25.997157],[-55.363376,-25.99795],[-55.364078,-25.998757],[-55.364024,-25.999275],[-55.363675,-25.999691],[-55.362765,-25.999961],[-55.36261,-26.000492],[-55.362823,-26.000968],[-55.364085,-26.000535],[-55.364584,-26.000794],[-55.364454,-26.001266],[-55.363134,-26.002055],[-55.364136,-26.002183],[-55.364443,-26.002507],[-55.364311,-26.003156],[-55.363185,-26.003414],[-55.363723,-26.004558],[-55.364051,-26.004868],[-55.364951,-26.004639],[-55.364642,-26.005362],[-55.364827,-26.00582],[-55.367191,-26.004931],[-55.368917,-26.005],[-55.368477,-26.003672],[-55.369517,-26.00349],[-55.368916,-26.003199],[-55.36917,-26.002705],[-55.369725,-26.002387],[-55.370205,-26.002631],[-55.369875,-26.003909],[-55.370255,-26.004081],[-55.371003,-26.002676],[-55.372031,-26.001997],[-55.372486,-26.000585],[-55.374726,-26.000109],[-55.375437,-26.001485],[-55.37524,-26.002715],[-55.375611,-26.003681],[-55.376319,-26.004361],[-55.377284,-26.004358],[-55.377964,-26.003766],[-55.377212,-26.003355],[-55.378275,-26.000975],[-55.380835,-25.999781],[-55.381575,-25.999784],[-55.381727,-26.000914],[-55.380733,-26.002718],[-55.38163,-26.003134],[-55.382205,-26.005109],[-55.383416,-26.006598],[-55.383823,-26.008711],[-55.382999,-26.00918],[-55.382071,-26.00926],[-55.379404,-26.007655],[-55.375119,-26.009241],[-55.376129,-26.010466],[-55.377666,-26.011106],[-55.37757,-26.011417],[-55.38031,-26.010843],[-55.381055,-26.010955],[-55.384473,-26.01441],[-55.382339,-26.014562],[-55.380334,-26.013578],[-55.378003,-26.01301],[-55.378803,-26.015172],[-55.378605,-26.016145],[-55.378313,-26.016575],[-55.377013,-26.016412],[-55.376636,-26.017328],[-55.376106,-26.017602],[-55.377041,-26.018172],[-55.377293,-26.018816],[-55.378603,-26.019485],[-55.380319,-26.022583],[-55.380546,-26.0225],[-55.380432,-26.021961],[-55.382711,-26.022822],[-55.382793,-26.024335],[-55.384206,-26.025064],[-55.384386,-26.025549],[-55.38401,-26.026317],[-55.38445,-26.026863],[-55.386062,-26.027324],[-55.385679,-26.026588],[-55.385733,-26.02574],[-55.386357,-26.025485],[-55.385942,-26.026433],[-55.386327,-26.02669],[-55.38701,-26.024463],[-55.387573,-26.024397],[-55.388007,-26.025337],[-55.387271,-26.028195],[-55.385205,-26.030979],[-55.387071,-26.031799],[-55.388725,-26.031804],[-55.38921,-26.032532],[-55.390079,-26.032907],[-55.390955,-26.034352],[-55.391914,-26.035189],[-55.394337,-26.03531],[-55.393949,-26.033126],[-55.394781,-26.032756],[-55.395601,-26.031804],[-55.396131,-26.032013],[-55.396741,-26.031649],[-55.395909,-26.030101],[-55.396983,-26.028673],[-55.398213,-26.028316],[-55.398343,-26.027004],[-55.400552,-26.026821],[-55.40175,-26.026031],[-55.402427,-26.023592],[-55.40368,-26.022143],[-55.403636,-26.019737],[-55.405036,-26.018953],[-55.404777,-26.017809],[-55.405671,-26.018464],[-55.40623,-26.018041],[-55.406216,-26.017522],[-55.405754,-26.016993],[-55.405941,-26.016783],[-55.406437,-26.017001],[-55.406491,-26.016067],[-55.405652,-26.01539],[-55.405194,-26.013543],[-55.404458,-26.013057],[-55.40497,-26.012719],[-55.404869,-26.012064],[-55.405413,-26.011036],[-55.405455,-26.010152],[-55.405267,-26.009937],[-55.403718,-26.009956],[-55.404108,-26.008959],[-55.403847,-26.007385],[-55.404109,-26.007198],[-55.404247,-26.007931],[-55.404549,-26.007722],[-55.404562,-26.006314],[-55.405598,-26.004041],[-55.406674,-26.003105],[-55.407446,-26.003132],[-55.409014,-26.001881],[-55.408752,-26.000691],[-55.408094,-26.000693],[-55.407877,-25.999539],[-55.408286,-25.999228],[-55.408749,-25.999761],[-55.409658,-25.998503],[-55.411279,-25.998593],[-55.415011,-26.001915],[-55.414613,-26.002556],[-55.415517,-26.002503],[-55.416182,-26.001932],[-55.416426,-26.002666],[-55.41755,-26.001564],[-55.418945,-26.000988],[-55.420056,-25.999628],[-55.420658,-26.000226],[-55.421052,-26.000049],[-55.422365,-25.997938],[-55.422321,-25.997265],[-55.422991,-25.997448],[-55.424795,-25.996529],[-55.426644,-25.99737],[-55.426612,-25.997817],[-55.425655,-25.99861],[-55.426286,-25.998504],[-55.426607,-25.998765],[-55.425533,-25.999692],[-55.425234,-26.000321],[-55.425611,-26.000623],[-55.4265,-26.000497],[-55.426966,-26.001174],[-55.426528,-26.001328],[-55.425957,-26.000802],[-55.425027,-26.001402],[-55.425593,-26.001516],[-55.425281,-26.003318],[-55.426952,-26.00567],[-55.426826,-26.006951],[-55.427414,-26.00726],[-55.427125,-26.006805],[-55.427296,-26.006432],[-55.427929,-26.007247],[-55.42876,-26.007599],[-55.428126,-26.00836],[-55.428199,-26.008825],[-55.431236,-26.00982],[-55.432258,-26.009384],[-55.432542,-26.008769],[-55.431952,-26.00642],[-55.430333,-26.002908],[-55.4304,-26.002259],[-55.431058,-26.002144],[-55.433335,-26.003103],[-55.434787,-26.0033],[-55.435805,-26.000855],[-55.436261,-26.000846],[-55.437207,-25.999588],[-55.438846,-26.000039],[-55.439709,-26.000744],[-55.441038,-26.000848],[-55.44118,-26.001599],[-55.441659,-26.002137],[-55.443524,-26.002902],[-55.446679,-26.002164],[-55.45037,-26.000041],[-55.450104,-26.00105],[-55.450808,-26.001301],[-55.451281,-26.000841],[-55.451643,-26.000904],[-55.452802,-26.001787],[-55.45434,-26.003758],[-55.455414,-26.004244],[-55.456481,-26.003023],[-55.456825,-26.000056],[-55.457387,-25.999683],[-55.456639,-25.998321],[-55.457035,-25.996957],[-55.459208,-25.995058],[-55.459129,-25.9928],[-55.458323,-25.991658],[-55.45823,-25.989906],[-55.458597,-25.989513],[-55.460639,-25.989101],[-55.462081,-25.989342],[-55.463144,-25.994919],[-55.464477,-25.995484],[-55.464228,-25.995847],[-55.465046,-25.996957],[-55.464803,-25.997947],[-55.465021,-25.998085],[-55.466648,-25.996667],[-55.468876,-25.996153],[-55.470209,-25.994664],[-55.471269,-25.994473],[-55.4718,-25.993395],[-55.472459,-25.993578],[-55.472919,-25.994124],[-55.475366,-25.994204],[-55.476677,-25.993532],[-55.477617,-25.993452],[-55.477095,-25.992534],[-55.477732,-25.992681],[-55.478628,-25.992144],[-55.480608,-25.99277],[-55.481499,-25.992558],[-55.481343,-25.993888],[-55.48196,-25.993502],[-55.482472,-25.993977],[-55.483475,-25.993193],[-55.483251,-25.993764],[-55.483569,-25.993984],[-55.484437,-25.993374],[-55.485521,-25.993485],[-55.484895,-25.992959],[-55.486133,-25.992169],[-55.490105,-25.990495],[-55.491235,-25.990457],[-55.49504,-25.988389],[-55.495672,-25.988558],[-55.496249,-25.988135],[-55.49681,-25.988258],[-55.49725,-25.987432],[-55.497986,-25.986871],[-55.498852,-25.987544],[-55.499013,-25.987166],[-55.500549,-25.986627],[-55.500892,-25.986766],[-55.501938,-25.986181],[-55.503999,-25.986225],[-55.504181,-25.986913],[-55.504623,-25.98638],[-55.505603,-25.986232],[-55.506749,-25.9854],[-55.507922,-25.986563],[-55.510064,-25.986206],[-55.51168,-25.986791],[-55.512364,-25.986591],[-55.51258,-25.986959],[-55.51331,-25.986677],[-55.513639,-25.98683],[-55.512939,-25.987445],[-55.513331,-25.987783],[-55.514487,-25.98798],[-55.515109,-25.987581],[-55.51552,-25.987698],[-55.515935,-25.986488],[-55.516603,-25.986743],[-55.516281,-25.987064],[-55.51671,-25.98762],[-55.518725,-25.987925],[-55.519169,-25.988999],[-55.519109,-25.990158],[-55.521805,-25.992678],[-55.523344,-25.993213],[-55.524705,-25.994301],[-55.525484,-25.996611],[-55.525533,-25.997988],[-55.526568,-25.998491],[-55.527467,-25.99827],[-55.527867,-25.998445],[-55.528904,-25.997264],[-55.529968,-25.994819],[-55.530393,-25.994462],[-55.529828,-25.994227],[-55.530102,-25.993778],[-55.530483,-25.99357],[-55.530688,-25.994163],[-55.531491,-25.994519],[-55.531854,-25.993123],[-55.532623,-25.994178],[-55.532715,-25.99357],[-55.53299,-25.993482],[-55.533247,-25.993855],[-55.533566,-25.993429],[-55.534669,-25.994393],[-55.535053,-25.995313],[-55.53709,-25.994982],[-55.537354,-25.99544],[-55.537944,-25.995582],[-55.538128,-25.996071],[-55.539737,-25.996674],[-55.539821,-25.997488],[-55.540319,-25.997484],[-55.540277,-25.996743],[-55.540652,-25.996882],[-55.541097,-25.996485],[-55.542371,-25.996615],[-55.54365,-25.995332],[-55.544294,-25.996327],[-55.54465,-25.995035],[-55.549933,-25.99652],[-55.55064,-25.996946],[-55.538888,-25.97173]]]}}]}
