{"type":"FeatureCollection","name":"distrito","features":[{"type":"Feature","properties":{"clave":"12-23","nombre":"Tacuaras"},"geometry":{"type":"Polygon","coordinates":[[[-57.882237,-26.740056],[-57.88255,-26.741115],[-57.88231,-26.742091],[-57.881805,-26.742239],[-57.878995,-26.744775],[-57.877225,-26.745882],[-57.875922,-26.74616],[-57.874527,-26.746049],[-57.80168,-26.756302],[-57.79932,-26.755189],[-57.797757,-26.755902],[-57.796034,-26.756193],[-57.793521,-26.755503],[-57.791167,-26.755376],[-57.789302,-26.757779],[-57.787108,-26.757932],[-57.786255,-26.759345],[-57.784685,-26.759072],[-57.782342,-26.760493],[-57.780776,-26.760783],[-57.779372,-26.761776],[-57.779381,-26.763184],[-57.77892,-26.764594],[-57.777831,-26.765867],[-57.776577,-26.765874],[-57.77549,-26.767569],[-57.774237,-26.767717],[-57.773778,-26.769409],[-57.774105,-26.771378],[-57.775684,-26.772918],[-57.772965,-26.777087],[-57.642945,-26.852718],[-57.587587,-26.863319],[-57.583503,-26.863413],[-57.583257,-26.863025],[-57.428681,-27.060106],[-57.182094,-27.108967],[-57.218765,-27.179547],[-57.327969,-27.148349],[-57.501853,-27.163521],[-57.610891,-27.099167],[-57.611404,-27.098429],[-57.65347,-27.065323],[-57.727807,-27.023058],[-57.765285,-27.009484],[-57.788765,-27.002259],[-57.787225,-26.986825],[-57.78735,-26.97627],[-57.788084,-26.953086],[-57.79008,-26.945406],[-57.793525,-26.94011],[-57.798971,-26.933696],[-57.808201,-26.928005],[-57.810651,-26.925748],[-57.832583,-26.932572],[-57.853944,-26.939897],[-57.879003,-26.943882],[-57.899584,-26.922532],[-57.901376,-26.920169],[-57.932042,-26.878314],[-57.937101,-26.864838],[-57.944176,-26.857302],[-57.971279,-26.8441],[-57.979421,-26.843263],[-57.980293,-26.842932],[-57.981415,-26.841679],[-57.982526,-26.84135],[-57.984121,-26.841908],[-57.986543,-26.841643],[-57.992161,-26.838503],[-57.993205,-26.837389],[-57.995316,-26.833307],[-57.997543,-26.831188],[-58.000195,-26.829924],[-58.002059,-26.82481],[-58.00736,-26.824271],[-58.009935,-26.823327],[-58.012367,-26.824163],[-58.015367,-26.826281],[-58.019262,-26.828429],[-58.024675,-26.829175],[-58.029486,-26.829388],[-58.035171,-26.827207],[-58.037758,-26.827581],[-58.1133,-26.758395],[-58.197844,-26.757494],[-58.199162,-26.758232],[-58.200821,-26.755474],[-58.201334,-26.755113],[-58.203044,-26.755274],[-58.204148,-26.754516],[-58.205483,-26.753078],[-58.2056,-26.752829],[-58.205123,-26.75276],[-58.205547,-26.751615],[-58.206101,-26.751362],[-58.206294,-26.750895],[-58.207946,-26.751166],[-58.207941,-26.750669],[-58.208539,-26.750948],[-58.208812,-26.750445],[-58.209572,-26.750976],[-58.210321,-26.7504],[-58.21084,-26.75068],[-58.211552,-26.75039],[-58.211836,-26.750992],[-58.21267,-26.750877],[-58.212918,-26.751836],[-58.213473,-26.751728],[-58.214191,-26.752006],[-58.214381,-26.751255],[-58.215019,-26.751498],[-58.215208,-26.750499],[-58.215799,-26.750101],[-58.218176,-26.749476],[-58.218722,-26.748613],[-58.219378,-26.748608],[-58.219743,-26.749354],[-58.220417,-26.749208],[-58.220459,-26.749456],[-58.221922,-26.748802],[-58.222441,-26.749082],[-58.222835,-26.748758],[-58.222788,-26.74801],[-58.223425,-26.74818],[-58.223777,-26.747644],[-58.22406,-26.748107],[-58.22457,-26.747529],[-58.225285,-26.747523],[-58.225318,-26.746954],[-58.226987,-26.746976],[-58.227188,-26.747222],[-58.246119,-26.742258],[-58.24608,-26.739829],[-58.246519,-26.738217],[-58.248185,-26.735674],[-58.250127,-26.730887],[-58.252061,-26.728596],[-58.253444,-26.726338],[-58.25522,-26.721844],[-58.255828,-26.719408],[-58.256533,-26.714166],[-58.255675,-26.699323],[-58.256105,-26.695313],[-58.256065,-26.687997],[-58.256896,-26.669674],[-58.257291,-26.667507],[-58.260077,-26.658771],[-58.260941,-26.654276],[-58.261082,-26.6527],[-58.260589,-26.648852],[-58.259273,-26.645962],[-58.256922,-26.643241],[-58.253995,-26.6416],[-58.250571,-26.640831],[-58.248014,-26.641173],[-58.244838,-26.642436],[-58.237453,-26.647141],[-58.230884,-26.650874],[-58.228735,-26.651689],[-58.218686,-26.65414],[-58.213476,-26.654461],[-58.209309,-26.654392],[-58.20259,-26.653696],[-58.199153,-26.652758],[-58.19471,-26.650236],[-58.192737,-26.64787],[-58.191129,-26.645111],[-58.190726,-26.643635],[-58.190702,-26.641753],[-58.190928,-26.639547],[-58.191373,-26.638361],[-58.193404,-26.636308],[-58.201209,-26.631233],[-58.20617,-26.626647],[-58.206721,-26.625769],[-58.208787,-26.619689],[-58.2092,-26.618032],[-58.209049,-26.615337],[-58.203405,-26.609359],[-58.196172,-26.604783],[-58.189958,-26.602727],[-58.187219,-26.597709],[-58.184978,-26.596103],[-58.18261,-26.595706],[-58.179792,-26.59648],[-58.172798,-26.60137],[-58.171297,-26.603134],[-58.170714,-26.604786],[-58.169665,-26.605877],[-58.16855,-26.609866],[-58.168078,-26.610554],[-58.166185,-26.610441],[-58.165807,-26.60998],[-58.16581,-26.608801],[-58.165352,-26.60751],[-58.164483,-26.606589],[-58.163709,-26.606544],[-58.156869,-26.609004],[-58.155252,-26.610429],[-58.154932,-26.611769],[-58.155109,-26.612743],[-58.155916,-26.613197],[-58.158295,-26.613038],[-58.158848,-26.613279],[-58.1595,-26.614393],[-58.159039,-26.615356],[-58.157506,-26.615673],[-58.155193,-26.615612],[-58.154437,-26.616095],[-58.154657,-26.617015],[-58.157386,-26.618516],[-58.158334,-26.619725],[-58.159778,-26.620307],[-58.159873,-26.621296],[-58.15948,-26.622512],[-58.15975,-26.623894],[-58.158324,-26.623884],[-58.15615,-26.622717],[-58.154179,-26.624859],[-58.152634,-26.625507],[-58.152296,-26.626637],[-58.153608,-26.628141],[-58.156484,-26.628256],[-58.156854,-26.628635],[-58.157103,-26.631336],[-58.157928,-26.633147],[-58.158831,-26.634037],[-58.161482,-26.633221],[-58.162512,-26.633173],[-58.162826,-26.633647],[-58.163021,-26.635524],[-58.163972,-26.637736],[-58.163795,-26.638114],[-58.162261,-26.638772],[-58.161554,-26.639885],[-58.160778,-26.639819],[-58.160011,-26.639178],[-58.158786,-26.638839],[-58.156828,-26.639555],[-58.155776,-26.639527],[-58.152875,-26.638664],[-58.152511,-26.638944],[-58.152474,-26.641701],[-58.152043,-26.642548],[-58.150252,-26.642508],[-58.14684,-26.641307],[-58.145645,-26.641512],[-58.144098,-26.642551],[-58.143597,-26.64326],[-58.143508,-26.644644],[-58.143116,-26.645099],[-58.140994,-26.644618],[-58.139095,-26.644718],[-58.138296,-26.64419],[-58.138056,-26.643595],[-58.138245,-26.641965],[-58.138001,-26.641726],[-58.137379,-26.641569],[-58.134873,-26.642244],[-58.132781,-26.642378],[-58.132111,-26.642188],[-58.130982,-26.641206],[-58.129016,-26.64069],[-58.127151,-26.639669],[-58.125232,-26.640697],[-58.12411,-26.640829],[-58.123559,-26.642838],[-58.122011,-26.643155],[-58.121604,-26.6436],[-58.121574,-26.64631],[-58.121173,-26.646698],[-58.120761,-26.646578],[-58.120637,-26.644852],[-58.120238,-26.644295],[-58.119111,-26.645196],[-58.117716,-26.645566],[-58.116964,-26.647131],[-58.115422,-26.648117],[-58.114256,-26.648059],[-58.112469,-26.646362],[-58.110559,-26.646453],[-58.108821,-26.647226],[-58.106445,-26.646956],[-58.10566,-26.647481],[-58.105237,-26.648339],[-58.106063,-26.64858],[-58.107528,-26.648241],[-58.107534,-26.648905],[-58.10701,-26.649906],[-58.105742,-26.650469],[-58.103583,-26.650466],[-58.102952,-26.650712],[-58.103937,-26.652807],[-58.103724,-26.654101],[-58.102285,-26.654002],[-58.101041,-26.652683],[-58.100216,-26.652858],[-58.099142,-26.653805],[-58.098821,-26.654656],[-58.098989,-26.655024],[-58.101009,-26.655676],[-58.100274,-26.657196],[-58.099423,-26.657936],[-58.098906,-26.658069],[-58.098499,-26.65755],[-58.097521,-26.657138],[-58.09615,-26.658549],[-58.092736,-26.660517],[-58.091808,-26.659987],[-58.091065,-26.658627],[-58.088209,-26.65935],[-58.087797,-26.660214],[-58.088252,-26.662085],[-58.086887,-26.66294],[-58.085655,-26.662913],[-58.085544,-26.663166],[-58.086105,-26.665007],[-58.083708,-26.665183],[-58.083258,-26.664629],[-58.083996,-26.662753],[-58.083592,-26.662098],[-58.082938,-26.662269],[-58.082201,-26.663899],[-58.081024,-26.66463],[-58.079576,-26.664971],[-58.078353,-26.664904],[-58.077138,-26.664303],[-58.077004,-26.663615],[-58.077457,-26.662759],[-58.077323,-26.662468],[-58.075463,-26.662363],[-58.075276,-26.662688],[-58.075887,-26.664517],[-58.073646,-26.667205],[-58.07251,-26.667933],[-58.07153,-26.668177],[-58.069732,-26.667744],[-58.068292,-26.667879],[-58.068266,-26.668709],[-58.068691,-26.669499],[-58.069251,-26.669888],[-58.071155,-26.669954],[-58.07073,-26.670822],[-58.069852,-26.670798],[-58.068541,-26.670229],[-58.067079,-26.66833],[-58.066423,-26.66852],[-58.0661,-26.669113],[-58.065925,-26.670897],[-58.067626,-26.672829],[-58.067678,-26.673642],[-58.066069,-26.674029],[-58.064827,-26.675765],[-58.065556,-26.676996],[-58.067223,-26.677223],[-58.067524,-26.678281],[-58.066906,-26.67848],[-58.06493,-26.678092],[-58.064411,-26.679679],[-58.063423,-26.680142],[-58.061587,-26.678594],[-58.061351,-26.677215],[-58.060441,-26.677733],[-58.060523,-26.678971],[-58.058462,-26.678018],[-58.056247,-26.678512],[-58.055404,-26.679103],[-58.054084,-26.681939],[-58.053774,-26.682067],[-58.052028,-26.68166],[-58.051176,-26.681033],[-58.051131,-26.68059],[-58.051745,-26.679637],[-58.051524,-26.67914],[-58.050644,-26.679304],[-58.050222,-26.679718],[-58.049342,-26.681005],[-58.049253,-26.681896],[-58.048738,-26.682186],[-58.046107,-26.681672],[-58.046766,-26.680307],[-58.044945,-26.679505],[-58.04444,-26.679761],[-58.04317,-26.681652],[-58.041899,-26.682289],[-58.041068,-26.683863],[-58.040561,-26.683756],[-58.039837,-26.68322],[-58.040354,-26.682212],[-58.038873,-26.68038],[-58.039481,-26.679367],[-58.036947,-26.678006],[-58.036572,-26.679711],[-58.035733,-26.679346],[-58.034147,-26.680464],[-58.033399,-26.681424],[-58.032799,-26.681516],[-58.032044,-26.680915],[-58.031295,-26.68082],[-58.029781,-26.681025],[-58.029584,-26.681405],[-58.030519,-26.683038],[-58.029569,-26.683686],[-58.029125,-26.685661],[-58.027434,-26.686662],[-58.027185,-26.686482],[-58.027419,-26.685638],[-58.025667,-26.686353],[-58.02553,-26.685588],[-58.02391,-26.684516],[-58.023149,-26.687562],[-58.02217,-26.687758],[-58.021395,-26.686348],[-58.020829,-26.686109],[-58.019271,-26.686147],[-58.016719,-26.685107],[-58.016139,-26.68522],[-58.016202,-26.685959],[-58.015529,-26.686441],[-58.013764,-26.686645],[-58.013554,-26.686067],[-58.014636,-26.685675],[-58.014338,-26.684065],[-58.013722,-26.682849],[-58.012447,-26.681765],[-58.011871,-26.68184],[-58.011226,-26.682924],[-58.010565,-26.68313],[-58.010192,-26.682992],[-58.010406,-26.682517],[-58.010135,-26.682071],[-58.009104,-26.681921],[-58.00855,-26.682227],[-58.009026,-26.683117],[-58.00884,-26.683507],[-58.007786,-26.683443],[-58.006764,-26.683812],[-58.00689,-26.683103],[-58.006376,-26.682793],[-58.005982,-26.683464],[-58.005364,-26.683438],[-58.005117,-26.681492],[-58.003276,-26.681416],[-58.00217,-26.678603],[-57.999801,-26.677941],[-57.998492,-26.678111],[-57.997184,-26.679237],[-57.996293,-26.679468],[-57.996325,-26.679963],[-57.995719,-26.680255],[-57.992836,-26.681075],[-57.989805,-26.680888],[-57.987111,-26.682465],[-57.986294,-26.681986],[-57.985843,-26.680094],[-57.985041,-26.679754],[-57.983946,-26.680085],[-57.982255,-26.681208],[-57.980166,-26.681203],[-57.978571,-26.67994],[-57.977808,-26.679675],[-57.977371,-26.679792],[-57.976595,-26.680868],[-57.97535,-26.68091],[-57.974721,-26.681682],[-57.973574,-26.682178],[-57.971904,-26.682052],[-57.971281,-26.682368],[-57.97019,-26.682325],[-57.96875,-26.683042],[-57.967848,-26.682875],[-57.967153,-26.683705],[-57.9659,-26.683751],[-57.965566,-26.683537],[-57.965889,-26.682064],[-57.964957,-26.680688],[-57.963377,-26.681287],[-57.961888,-26.681433],[-57.960479,-26.681025],[-57.959146,-26.681237],[-57.957846,-26.680811],[-57.956677,-26.682348],[-57.954782,-26.682722],[-57.953877,-26.682313],[-57.951611,-26.682261],[-57.950637,-26.681707],[-57.949502,-26.681882],[-57.948899,-26.681229],[-57.948169,-26.681341],[-57.947048,-26.682104],[-57.944718,-26.679504],[-57.940572,-26.681528],[-57.938918,-26.681661],[-57.937692,-26.681436],[-57.934686,-26.682307],[-57.93386,-26.683243],[-57.934076,-26.68825],[-57.931586,-26.689116],[-57.930086,-26.691982],[-57.929017,-26.692675],[-57.92448,-26.694667],[-57.922671,-26.693837],[-57.921195,-26.694038],[-57.92047,-26.693866],[-57.919292,-26.692641],[-57.918433,-26.692207],[-57.915529,-26.693017],[-57.915278,-26.693478],[-57.915398,-26.695409],[-57.913951,-26.700716],[-57.915094,-26.701799],[-57.915778,-26.701863],[-57.916508,-26.701433],[-57.917327,-26.701813],[-57.917381,-26.703686],[-57.915902,-26.704002],[-57.9157,-26.704305],[-57.915745,-26.704681],[-57.916412,-26.705133],[-57.917312,-26.707116],[-57.917272,-26.707656],[-57.916154,-26.707723],[-57.916109,-26.708459],[-57.915311,-26.709825],[-57.91237,-26.710061],[-57.911796,-26.710832],[-57.912012,-26.71166],[-57.911813,-26.711972],[-57.910343,-26.712437],[-57.909829,-26.711569],[-57.909256,-26.711591],[-57.90903,-26.71283],[-57.908243,-26.714319],[-57.907943,-26.71661],[-57.907501,-26.716797],[-57.906293,-26.716559],[-57.904573,-26.718204],[-57.905254,-26.719237],[-57.905502,-26.720479],[-57.904996,-26.721576],[-57.903169,-26.722164],[-57.901305,-26.721812],[-57.901035,-26.721988],[-57.90088,-26.723242],[-57.900249,-26.723807],[-57.899012,-26.724096],[-57.896472,-26.724045],[-57.895523,-26.725166],[-57.894169,-26.725541],[-57.893941,-26.726388],[-57.895007,-26.729193],[-57.894667,-26.729876],[-57.894779,-26.730621],[-57.896125,-26.732663],[-57.895729,-26.734369],[-57.894512,-26.734666],[-57.893767,-26.735293],[-57.893314,-26.735296],[-57.893041,-26.734607],[-57.892236,-26.735091],[-57.891163,-26.736673],[-57.891521,-26.737529],[-57.891443,-26.738369],[-57.890053,-26.738562],[-57.889571,-26.738895],[-57.887962,-26.738314],[-57.886948,-26.738636],[-57.885183,-26.73983],[-57.882858,-26.739704],[-57.882237,-26.740056]]]}}]}
