{"type":"FeatureCollection","name":"distrito","features":[{"type":"Feature","properties":{"clave":"5-0","nombre":"Coronel Oviedo"},"geometry":{"type":"Polygon","coordinates":[[[-56.581282,-25.661374],[-56.584182,-25.662461],[-56.585979,-25.662516],[-56.586266,-25.662955],[-56.586292,-25.664305],[-56.586699,-25.664825],[-56.588568,-25.665187],[-56.590923,-25.667013],[-56.593121,-25.66715],[-56.595608,-25.668349],[-56.597003,-25.667364],[-56.597895,-25.667426],[-56.598337,-25.667883],[-56.598426,-25.668538],[-56.597732,-25.669719],[-56.597379,-25.672183],[-56.599188,-25.672576],[-56.600834,-25.673872],[-56.602542,-25.673479],[-56.603119,-25.674836],[-56.605092,-25.676403],[-56.605757,-25.676125],[-56.606404,-25.674686],[-56.607164,-25.674232],[-56.607814,-25.674324],[-56.608441,-25.675179],[-56.608688,-25.677207],[-56.609438,-25.678555],[-56.611568,-25.678439],[-56.614398,-25.680175],[-56.615826,-25.679714],[-56.617631,-25.678432],[-56.618355,-25.678344],[-56.618989,-25.678585],[-56.619791,-25.679661],[-56.62017,-25.679766],[-56.62297,-25.677466],[-56.626171,-25.676305],[-56.627093,-25.67666],[-56.627732,-25.677668],[-56.629567,-25.67788],[-56.631809,-25.678947],[-56.632098,-25.680519],[-56.633642,-25.681304],[-56.633837,-25.682424],[-56.635429,-25.682017],[-56.635784,-25.682714],[-56.635177,-25.684004],[-56.635521,-25.684379],[-56.636512,-25.6843],[-56.636841,-25.683827],[-56.636909,-25.682735],[-56.637483,-25.682569],[-56.638055,-25.682909],[-56.639413,-25.685432],[-56.640709,-25.68613],[-56.642606,-25.68595],[-56.644087,-25.686337],[-56.644416,-25.68595],[-56.644579,-25.684582],[-56.645158,-25.684069],[-56.645804,-25.684228],[-56.647211,-25.685347],[-56.648581,-25.685698],[-56.649378,-25.68728],[-56.649213,-25.687659],[-56.648401,-25.687964],[-56.648392,-25.688249],[-56.649078,-25.689221],[-56.650511,-25.690127],[-56.650128,-25.69172],[-56.650779,-25.692833],[-56.650178,-25.69363],[-56.650281,-25.693879],[-56.651408,-25.694482],[-56.652259,-25.695387],[-56.652894,-25.695045],[-56.653536,-25.693444],[-56.654105,-25.693364],[-56.654444,-25.694011],[-56.654264,-25.694922],[-56.653655,-25.695711],[-56.653942,-25.696249],[-56.65503,-25.695674],[-56.655048,-25.693886],[-56.655294,-25.693511],[-56.65576,-25.693467],[-56.656374,-25.694345],[-56.656571,-25.696264],[-56.656881,-25.69659],[-56.658493,-25.69644],[-56.661284,-25.697178],[-56.661239,-25.69786],[-56.658458,-25.699668],[-56.658938,-25.7005],[-56.660487,-25.700048],[-56.660922,-25.700243],[-56.660795,-25.70101],[-56.659716,-25.701635],[-56.659663,-25.701969],[-56.660992,-25.702894],[-56.661064,-25.703422],[-56.65901,-25.704081],[-56.659324,-25.704538],[-56.661323,-25.704791],[-56.662152,-25.70593],[-56.662223,-25.706766],[-56.662836,-25.706781],[-56.662781,-25.707765],[-56.663233,-25.708299],[-56.663884,-25.708318],[-56.663377,-25.707563],[-56.664207,-25.706802],[-56.663484,-25.706376],[-56.664068,-25.705673],[-56.663799,-25.704647],[-56.665046,-25.704271],[-56.665955,-25.702959],[-56.665698,-25.702173],[-56.665885,-25.701799],[-56.666729,-25.701945],[-56.666911,-25.701724],[-56.665922,-25.700801],[-56.66607,-25.700278],[-56.666549,-25.700211],[-56.667603,-25.700728],[-56.669062,-25.700086],[-56.66949,-25.699676],[-56.668829,-25.699087],[-56.669488,-25.698511],[-56.669511,-25.697558],[-56.670577,-25.697254],[-56.670651,-25.696622],[-56.671064,-25.696821],[-56.671414,-25.696515],[-56.671759,-25.696615],[-56.67169,-25.69741],[-56.672725,-25.697114],[-56.67306,-25.696587],[-56.67347,-25.696872],[-56.674289,-25.696129],[-56.673706,-25.695586],[-56.673951,-25.695153],[-56.674778,-25.695276],[-56.675228,-25.694871],[-56.674978,-25.693882],[-56.675746,-25.693319],[-56.675806,-25.69261],[-56.676443,-25.693027],[-56.677162,-25.692839],[-56.67742,-25.692402],[-56.677092,-25.691552],[-56.677524,-25.690352],[-56.676754,-25.689885],[-56.675969,-25.690177],[-56.675769,-25.689522],[-56.67493,-25.689534],[-56.674929,-25.688536],[-56.675712,-25.688059],[-56.675441,-25.687015],[-56.674575,-25.686517],[-56.674931,-25.68594],[-56.674121,-25.685951],[-56.674643,-25.684977],[-56.674442,-25.684449],[-56.67513,-25.683886],[-56.67461,-25.683189],[-56.673694,-25.68288],[-56.674339,-25.682389],[-56.673928,-25.680926],[-56.674284,-25.680344],[-56.673495,-25.678238],[-56.672373,-25.677563],[-56.672346,-25.676913],[-56.671405,-25.675348],[-56.670227,-25.674917],[-56.669225,-25.674115],[-56.66881,-25.67309],[-56.668048,-25.673151],[-56.666523,-25.672393],[-56.664976,-25.672042],[-56.66466,-25.671504],[-56.664896,-25.67104],[-56.664741,-25.670434],[-56.665103,-25.669988],[-56.664783,-25.668886],[-56.665149,-25.668074],[-56.66442,-25.667219],[-56.664643,-25.666443],[-56.663846,-25.66589],[-56.66441,-25.664961],[-56.663077,-25.66448],[-56.662425,-25.663209],[-56.662297,-25.661159],[-56.661721,-25.659957],[-56.662072,-25.65873],[-56.661552,-25.657148],[-56.661876,-25.656693],[-56.661652,-25.655654],[-56.661912,-25.654593],[-56.661102,-25.653666],[-56.661634,-25.6528],[-56.660401,-25.651375],[-56.660444,-25.649312],[-56.659805,-25.648376],[-56.659563,-25.646854],[-56.659007,-25.646175],[-56.658772,-25.645181],[-56.655313,-25.642843],[-56.655014,-25.640531],[-56.654223,-25.639211],[-56.653155,-25.639438],[-56.651403,-25.63896],[-56.650125,-25.63823],[-56.648327,-25.636483],[-56.646504,-25.636339],[-56.6457,-25.635727],[-56.643818,-25.635113],[-56.643366,-25.634213],[-56.64267,-25.633742],[-56.641041,-25.631286],[-56.640625,-25.629822],[-56.638845,-25.628134],[-56.636537,-25.623315],[-56.635587,-25.621096],[-56.635423,-25.618156],[-56.63044,-25.614342],[-56.629039,-25.61213],[-56.622871,-25.59621],[-56.619671,-25.593972],[-56.600645,-25.592952],[-56.591675,-25.589825],[-56.576583,-25.564964],[-56.56935,-25.555054],[-56.558908,-25.54363],[-56.54217,-25.53597],[-56.522129,-25.523885],[-56.520852,-25.522523],[-56.519269,-25.500057],[-56.518855,-25.487463],[-56.518603,-25.486659],[-56.518915,-25.486068],[-56.519107,-25.471923],[-56.518975,-25.471498],[-56.513728,-25.471034],[-56.512627,-25.4673],[-56.512911,-25.464349],[-56.512553,-25.462591],[-56.511243,-25.441397],[-56.510724,-25.435435],[-56.510376,-25.435141],[-56.509042,-25.41829],[-56.508857,-25.413426],[-56.509713,-25.413149],[-56.5097,-25.411564],[-56.508746,-25.406355],[-56.50818,-25.405509],[-56.507665,-25.401529],[-56.506084,-25.400517],[-56.502579,-25.395737],[-56.502607,-25.390838],[-56.502242,-25.389568],[-56.501598,-25.388745],[-56.501654,-25.386027],[-56.502413,-25.385767],[-56.50263,-25.385195],[-56.503056,-25.385264],[-56.503338,-25.384935],[-56.502911,-25.384482],[-56.502923,-25.383656],[-56.503731,-25.383406],[-56.504716,-25.381404],[-56.505167,-25.379094],[-56.507096,-25.378202],[-56.508165,-25.377239],[-56.510161,-25.37418],[-56.510393,-25.372537],[-56.512039,-25.370633],[-56.512012,-25.369639],[-56.513244,-25.368474],[-56.510316,-25.368464],[-56.509209,-25.36912],[-56.509151,-25.370063],[-56.505323,-25.370687],[-56.502749,-25.370679],[-56.499236,-25.372306],[-56.494841,-25.375885],[-56.493072,-25.377874],[-56.492191,-25.378088],[-56.491414,-25.377842],[-56.490837,-25.378083],[-56.490665,-25.378729],[-56.491001,-25.37956],[-56.490352,-25.380633],[-56.490413,-25.382236],[-56.489864,-25.384139],[-56.488302,-25.385209],[-56.4876,-25.384904],[-56.486678,-25.385889],[-56.486352,-25.38499],[-56.485693,-25.384807],[-56.485076,-25.38508],[-56.484892,-25.37874],[-56.47696,-25.363247],[-56.478195,-25.36224],[-56.481467,-25.357795],[-56.481591,-25.356319],[-56.478704,-25.311274],[-56.476449,-25.301988],[-56.480164,-25.301075],[-56.475696,-25.282985],[-56.437901,-25.230817],[-56.437085,-25.23181],[-56.437943,-25.23316],[-56.43722,-25.234246],[-56.438242,-25.234899],[-56.437856,-25.236035],[-56.438589,-25.238127],[-56.437232,-25.238804],[-56.437443,-25.240651],[-56.43697,-25.24208],[-56.437871,-25.24272],[-56.436482,-25.244964],[-56.436325,-25.246145],[-56.434942,-25.246256],[-56.43517,-25.247484],[-56.434069,-25.247894],[-56.433184,-25.247789],[-56.432779,-25.248329],[-56.43104,-25.247457],[-56.43019,-25.247715],[-56.430006,-25.248445],[-56.430852,-25.250011],[-56.429417,-25.249879],[-56.428928,-25.250115],[-56.427898,-25.253359],[-56.426853,-25.253945],[-56.425784,-25.253151],[-56.424925,-25.254404],[-56.425195,-25.255394],[-56.426642,-25.256738],[-56.425324,-25.25694],[-56.425172,-25.258736],[-56.424895,-25.258802],[-56.4243,-25.257727],[-56.423324,-25.257619],[-56.422847,-25.258731],[-56.421051,-25.259355],[-56.421176,-25.26043],[-56.420283,-25.261571],[-56.420485,-25.262767],[-56.420148,-25.263458],[-56.419835,-25.263554],[-56.419268,-25.262637],[-56.418783,-25.262385],[-56.41733,-25.262493],[-56.417206,-25.26388],[-56.416288,-25.263581],[-56.41579,-25.263708],[-56.416499,-25.264555],[-56.416607,-25.265176],[-56.414904,-25.26498],[-56.415759,-25.266267],[-56.415018,-25.266578],[-56.412793,-25.268648],[-56.413259,-25.270963],[-56.412833,-25.271516],[-56.412381,-25.271627],[-56.412004,-25.270884],[-56.411277,-25.27118],[-56.410315,-25.270393],[-56.410038,-25.270643],[-56.410359,-25.272109],[-56.409071,-25.271438],[-56.408557,-25.271717],[-56.408142,-25.272916],[-56.409431,-25.275136],[-56.408141,-25.276236],[-56.407759,-25.277823],[-56.409089,-25.278461],[-56.409297,-25.279808],[-56.408951,-25.279803],[-56.408326,-25.278906],[-56.408008,-25.280046],[-56.40754,-25.280282],[-56.406661,-25.279231],[-56.405986,-25.28051],[-56.40353,-25.278613],[-56.403046,-25.278785],[-56.402869,-25.279465],[-56.402288,-25.279898],[-56.400998,-25.279323],[-56.400814,-25.279627],[-56.401318,-25.280661],[-56.401115,-25.281226],[-56.399236,-25.281955],[-56.39878,-25.282653],[-56.398657,-25.283654],[-56.397464,-25.283764],[-56.395234,-25.283331],[-56.395395,-25.284202],[-56.39671,-25.284821],[-56.396829,-25.285561],[-56.395179,-25.285511],[-56.394816,-25.28598],[-56.395946,-25.286159],[-56.396371,-25.286592],[-56.396375,-25.287411],[-56.393976,-25.287769],[-56.392915,-25.28754],[-56.392617,-25.289596],[-56.39123,-25.291129],[-56.391096,-25.291774],[-56.391989,-25.291576],[-56.392096,-25.292854],[-56.393034,-25.292474],[-56.394124,-25.292969],[-56.394352,-25.294589],[-56.395216,-25.294751],[-56.396481,-25.29379],[-56.397326,-25.295684],[-56.398854,-25.295387],[-56.399683,-25.295671],[-56.398641,-25.296352],[-56.39872,-25.296777],[-56.399704,-25.297251],[-56.400073,-25.296405],[-56.400439,-25.29629],[-56.400949,-25.296546],[-56.400991,-25.297],[-56.400267,-25.29836],[-56.399284,-25.298683],[-56.398983,-25.299408],[-56.397625,-25.298712],[-56.39675,-25.299158],[-56.395012,-25.299281],[-56.395746,-25.300309],[-56.395672,-25.3014],[-56.394668,-25.300625],[-56.393697,-25.302155],[-56.392585,-25.30252],[-56.393022,-25.303998],[-56.391047,-25.303792],[-56.390519,-25.304165],[-56.390537,-25.305137],[-56.391115,-25.306497],[-56.390763,-25.307298],[-56.389757,-25.307245],[-56.389893,-25.308344],[-56.390501,-25.308915],[-56.389691,-25.309375],[-56.389653,-25.311023],[-56.389246,-25.311172],[-56.388689,-25.310081],[-56.388046,-25.309991],[-56.387429,-25.31098],[-56.386134,-25.311686],[-56.386153,-25.312509],[-56.386516,-25.312876],[-56.38804,-25.313034],[-56.385623,-25.316701],[-56.386001,-25.3172],[-56.387007,-25.317215],[-56.386078,-25.318804],[-56.386589,-25.320164],[-56.386257,-25.320483],[-56.385405,-25.320552],[-56.384251,-25.319518],[-56.383648,-25.320071],[-56.385451,-25.321456],[-56.386399,-25.321126],[-56.38723,-25.321549],[-56.388069,-25.321574],[-56.387526,-25.322596],[-56.384791,-25.322986],[-56.384467,-25.323422],[-56.384867,-25.324359],[-56.385247,-25.324447],[-56.385722,-25.323384],[-56.386258,-25.323208],[-56.386565,-25.32482],[-56.387107,-25.3258],[-56.389051,-25.325259],[-56.389843,-25.32546],[-56.389833,-25.326004],[-56.38912,-25.326238],[-56.389037,-25.326611],[-56.389811,-25.327134],[-56.387909,-25.329353],[-56.385637,-25.330094],[-56.386621,-25.331131],[-56.386592,-25.332698],[-56.386446,-25.333011],[-56.386052,-25.332991],[-56.385711,-25.332357],[-56.384769,-25.332068],[-56.385379,-25.333842],[-56.385192,-25.334392],[-56.384017,-25.333922],[-56.382194,-25.334467],[-56.382246,-25.334808],[-56.383499,-25.335047],[-56.38392,-25.3358],[-56.383829,-25.336067],[-56.382944,-25.335803],[-56.381986,-25.336186],[-56.38247,-25.337187],[-56.382356,-25.337971],[-56.3822,-25.338634],[-56.381101,-25.340031],[-56.382015,-25.34084],[-56.38129,-25.341384],[-56.381573,-25.342381],[-56.382347,-25.34228],[-56.382483,-25.342574],[-56.381936,-25.343099],[-56.380547,-25.343423],[-56.380065,-25.344422],[-56.379032,-25.343397],[-56.378708,-25.343442],[-56.378497,-25.34407],[-56.375203,-25.3438],[-56.374956,-25.343341],[-56.375957,-25.342442],[-56.375701,-25.342263],[-56.373918,-25.342704],[-56.373806,-25.342458],[-56.374354,-25.341733],[-56.374208,-25.341221],[-56.372317,-25.341562],[-56.371375,-25.340378],[-56.36952,-25.340215],[-56.370298,-25.341488],[-56.369609,-25.341667],[-56.369523,-25.342202],[-56.371348,-25.342843],[-56.371346,-25.343309],[-56.370418,-25.34433],[-56.370619,-25.344983],[-56.37247,-25.346202],[-56.37346,-25.350771],[-56.373454,-25.351982],[-56.372725,-25.354122],[-56.372209,-25.354865],[-56.369755,-25.356872],[-56.370259,-25.357705],[-56.370659,-25.357783],[-56.370545,-25.35884],[-56.371502,-25.359345],[-56.372162,-25.35844],[-56.372754,-25.358628],[-56.374376,-25.357939],[-56.375687,-25.358157],[-56.375955,-25.357639],[-56.375767,-25.356365],[-56.376913,-25.355607],[-56.377909,-25.355891],[-56.378268,-25.356362],[-56.380455,-25.356057],[-56.380619,-25.356575],[-56.381063,-25.366745],[-56.38142,-25.368146],[-56.380939,-25.37112],[-56.380003,-25.372782],[-56.380217,-25.37355],[-56.379968,-25.374543],[-56.380378,-25.37612],[-56.381336,-25.377492],[-56.38181,-25.379025],[-56.381698,-25.380411],[-56.382589,-25.381611],[-56.3822,-25.385063],[-56.382638,-25.386623],[-56.382215,-25.387226],[-56.383079,-25.388128],[-56.383019,-25.388868],[-56.38372,-25.389476],[-56.384008,-25.390195],[-56.385247,-25.390395],[-56.38499,-25.391261],[-56.385691,-25.391692],[-56.386287,-25.39376],[-56.386429,-25.395688],[-56.386505,-25.40075],[-56.382365,-25.400863],[-56.37818,-25.404422],[-56.375104,-25.408354],[-56.371561,-25.412024],[-56.367934,-25.413912],[-56.363079,-25.414558],[-56.36201,-25.413362],[-56.359219,-25.412376],[-56.357851,-25.411272],[-56.357274,-25.411174],[-56.357037,-25.411435],[-56.356044,-25.410692],[-56.355493,-25.41069],[-56.353569,-25.411704],[-56.353039,-25.41112],[-56.351223,-25.411112],[-56.3508,-25.410431],[-56.350054,-25.410137],[-56.348987,-25.409938],[-56.348236,-25.410517],[-56.347598,-25.410126],[-56.34685,-25.410123],[-56.346108,-25.409149],[-56.343875,-25.409139],[-56.343117,-25.40882],[-56.342222,-25.408994],[-56.342004,-25.408835],[-56.342601,-25.40745],[-56.34125,-25.407127],[-56.340242,-25.407862],[-56.339482,-25.407238],[-56.336816,-25.408177],[-56.336399,-25.408631],[-56.335832,-25.40847],[-56.335176,-25.408764],[-56.333042,-25.408061],[-56.331911,-25.408213],[-56.329576,-25.407629],[-56.328419,-25.407842],[-56.327375,-25.407659],[-56.325672,-25.406681],[-56.320439,-25.406851],[-56.319263,-25.407039],[-56.31498,-25.409153],[-56.312741,-25.408561],[-56.312319,-25.407589],[-56.309234,-25.405635],[-56.308491,-25.404758],[-56.30464,-25.406001],[-56.302168,-25.408802],[-56.302164,-25.409578],[-56.300233,-25.41112],[-56.298734,-25.411695],[-56.297774,-25.411497],[-56.295526,-25.413422],[-56.294456,-25.412838],[-56.291355,-25.413502],[-56.289855,-25.414465],[-56.287919,-25.416686],[-56.285831,-25.417695],[-56.284863,-25.418951],[-56.283257,-25.419622],[-56.278962,-25.42348],[-56.277786,-25.423668],[-56.275331,-25.423462],[-56.268913,-25.425176],[-56.265189,-25.42283],[-56.261779,-25.421552],[-56.25583,-25.416479],[-56.251779,-25.415295],[-56.247949,-25.412947],[-56.245508,-25.410607],[-56.243713,-25.407397],[-56.239027,-25.404455],[-56.238113,-25.404463],[-56.237016,-25.408204],[-56.235296,-25.408391],[-56.234491,-25.409266],[-56.233595,-25.411399],[-56.233896,-25.412649],[-56.233267,-25.41417],[-56.230099,-25.417274],[-56.182073,-25.40677],[-56.165111,-25.416175],[-56.150344,-25.424973],[-56.149149,-25.425199],[-56.149138,-25.427032],[-56.148319,-25.428367],[-56.14926,-25.428789],[-56.15174,-25.429158],[-56.153708,-25.430531],[-56.154459,-25.433018],[-56.154314,-25.435741],[-56.154661,-25.436601],[-56.156047,-25.434881],[-56.157565,-25.433986],[-56.161354,-25.434522],[-56.162529,-25.434048],[-56.16385,-25.434422],[-56.164034,-25.435064],[-56.164989,-25.435493],[-56.16547,-25.435164],[-56.165986,-25.43527],[-56.166959,-25.436079],[-56.167914,-25.437314],[-56.168628,-25.44069],[-56.171045,-25.440736],[-56.17172,-25.441576],[-56.171856,-25.442317],[-56.173094,-25.442723],[-56.173389,-25.443182],[-56.174647,-25.442636],[-56.175453,-25.441887],[-56.176305,-25.441673],[-56.176301,-25.441177],[-56.176727,-25.44107],[-56.177633,-25.441365],[-56.177837,-25.442583],[-56.17823,-25.443119],[-56.178889,-25.442215],[-56.180485,-25.443112],[-56.1822,-25.443154],[-56.183189,-25.441531],[-56.184713,-25.44255],[-56.186274,-25.444992],[-56.187034,-25.444933],[-56.187474,-25.445206],[-56.188823,-25.448515],[-56.189828,-25.449322],[-56.190408,-25.450865],[-56.191433,-25.450991],[-56.192358,-25.451774],[-56.192522,-25.452798],[-56.192092,-25.453495],[-56.190345,-25.454119],[-56.19052,-25.454474],[-56.191426,-25.454678],[-56.191689,-25.455665],[-56.190671,-25.455318],[-56.19047,-25.455581],[-56.191371,-25.456532],[-56.19188,-25.457918],[-56.191574,-25.458007],[-56.190729,-25.45712],[-56.189992,-25.45711],[-56.190966,-25.458846],[-56.190593,-25.459482],[-56.190865,-25.460469],[-56.193342,-25.4604],[-56.193296,-25.460711],[-56.19239,-25.461296],[-56.192759,-25.461606],[-56.195019,-25.461177],[-56.194961,-25.462179],[-56.194188,-25.462048],[-56.193896,-25.462249],[-56.194459,-25.46297],[-56.195825,-25.463382],[-56.197664,-25.462948],[-56.198614,-25.464003],[-56.200161,-25.464919],[-56.201168,-25.464879],[-56.201737,-25.464509],[-56.202676,-25.465183],[-56.203221,-25.466364],[-56.204834,-25.464757],[-56.205293,-25.464959],[-56.205742,-25.465773],[-56.206471,-25.46485],[-56.207569,-25.464972],[-56.207241,-25.466289],[-56.208966,-25.467077],[-56.209131,-25.468906],[-56.210423,-25.468746],[-56.211728,-25.467536],[-56.212174,-25.467719],[-56.212587,-25.468513],[-56.213493,-25.468762],[-56.214584,-25.467713],[-56.215466,-25.468425],[-56.217446,-25.46814],[-56.217656,-25.468514],[-56.217,-25.469116],[-56.217075,-25.469483],[-56.219164,-25.470389],[-56.220247,-25.470131],[-56.222224,-25.471087],[-56.222859,-25.47049],[-56.223742,-25.470304],[-56.224239,-25.469388],[-56.224687,-25.469672],[-56.224748,-25.471118],[-56.225688,-25.47136],[-56.225202,-25.47223],[-56.226378,-25.473082],[-56.225927,-25.473407],[-56.226014,-25.473962],[-56.226742,-25.474502],[-56.226878,-25.475039],[-56.228578,-25.47553],[-56.229632,-25.475199],[-56.230717,-25.475969],[-56.232998,-25.474908],[-56.233457,-25.475129],[-56.233782,-25.476076],[-56.23364,-25.477976],[-56.234763,-25.477772],[-56.234876,-25.478855],[-56.23555,-25.478404],[-56.23624,-25.478653],[-56.236012,-25.479897],[-56.2365,-25.4803],[-56.236951,-25.480266],[-56.237089,-25.480649],[-56.236373,-25.481381],[-56.235391,-25.48144],[-56.23542,-25.483195],[-56.234524,-25.483936],[-56.23514,-25.484658],[-56.234046,-25.485016],[-56.234401,-25.485845],[-56.233746,-25.486551],[-56.23373,-25.487496],[-56.233138,-25.48753],[-56.233676,-25.488132],[-56.233476,-25.489614],[-56.234727,-25.48972],[-56.234941,-25.490858],[-56.23597,-25.4912],[-56.236295,-25.490492],[-56.236776,-25.490595],[-56.237074,-25.491005],[-56.236437,-25.491793],[-56.237495,-25.492462],[-56.237061,-25.493006],[-56.237742,-25.493046],[-56.238205,-25.492648],[-56.238542,-25.493304],[-56.238872,-25.493379],[-56.238965,-25.492943],[-56.239666,-25.493001],[-56.24004,-25.492512],[-56.240481,-25.492441],[-56.240538,-25.492942],[-56.241085,-25.493518],[-56.241989,-25.493149],[-56.242157,-25.49355],[-56.243637,-25.492403],[-56.243946,-25.492641],[-56.243732,-25.493168],[-56.244212,-25.493379],[-56.244259,-25.493907],[-56.245109,-25.494084],[-56.245501,-25.493886],[-56.245487,-25.494504],[-56.244774,-25.494746],[-56.246133,-25.495408],[-56.245479,-25.49585],[-56.245465,-25.496413],[-56.246336,-25.496536],[-56.246475,-25.496819],[-56.24571,-25.497424],[-56.246458,-25.497819],[-56.246175,-25.498363],[-56.246281,-25.499018],[-56.24722,-25.499459],[-56.24665,-25.500011],[-56.246605,-25.500612],[-56.247148,-25.501148],[-56.247372,-25.502219],[-56.248391,-25.50394],[-56.247796,-25.50502],[-56.248739,-25.505445],[-56.248524,-25.506248],[-56.248979,-25.507315],[-56.248282,-25.507903],[-56.248702,-25.508018],[-56.248949,-25.508801],[-56.249578,-25.508881],[-56.250641,-25.510399],[-56.250098,-25.510653],[-56.24992,-25.511664],[-56.249954,-25.512928],[-56.250515,-25.51331],[-56.250668,-25.513966],[-56.250224,-25.514767],[-56.250643,-25.51555],[-56.25,-25.516527],[-56.248621,-25.517572],[-56.246833,-25.518077],[-56.245879,-25.519445],[-56.245868,-25.521142],[-56.244958,-25.52209],[-56.243824,-25.522044],[-56.24323,-25.522993],[-56.243034,-25.524063],[-56.242215,-25.523963],[-56.242749,-25.525948],[-56.24384,-25.526238],[-56.244006,-25.526564],[-56.242807,-25.526748],[-56.242868,-25.527168],[-56.243765,-25.528089],[-56.24319,-25.529323],[-56.243457,-25.530318],[-56.24234,-25.530863],[-56.242711,-25.532012],[-56.243153,-25.531784],[-56.243341,-25.531974],[-56.24258,-25.532751],[-56.242741,-25.533976],[-56.241892,-25.535321],[-56.241952,-25.535782],[-56.242749,-25.535994],[-56.242999,-25.536379],[-56.242661,-25.536621],[-56.242116,-25.536429],[-56.242613,-25.537673],[-56.242355,-25.538529],[-56.243359,-25.539275],[-56.244619,-25.539376],[-56.24512,-25.539822],[-56.244781,-25.540312],[-56.244884,-25.540696],[-56.245409,-25.540735],[-56.24557,-25.541842],[-56.245721,-25.541328],[-56.246055,-25.54156],[-56.246071,-25.542323],[-56.246779,-25.543528],[-56.247094,-25.543529],[-56.247307,-25.543034],[-56.247979,-25.543055],[-56.24785,-25.543551],[-56.248521,-25.543803],[-56.248497,-25.544164],[-56.249569,-25.54421],[-56.249542,-25.545068],[-56.251095,-25.544146],[-56.252584,-25.544664],[-56.253069,-25.543795],[-56.253895,-25.543871],[-56.2553,-25.545016],[-56.255807,-25.545019],[-56.256421,-25.544706],[-56.25616,-25.543883],[-56.25717,-25.544371],[-56.257545,-25.543939],[-56.258662,-25.5445],[-56.258929,-25.54438],[-56.25904,-25.543581],[-56.259467,-25.543462],[-56.261007,-25.544485],[-56.261242,-25.545213],[-56.262448,-25.54638],[-56.263592,-25.546724],[-56.263427,-25.547617],[-56.264201,-25.547382],[-56.265983,-25.548041],[-56.266004,-25.54889],[-56.265545,-25.549804],[-56.266453,-25.549569],[-56.266663,-25.550126],[-56.265912,-25.550944],[-56.267112,-25.550828],[-56.267324,-25.551],[-56.267108,-25.551455],[-56.268278,-25.551827],[-56.269559,-25.551612],[-56.269664,-25.551879],[-56.269552,-25.552727],[-56.26768,-25.553707],[-56.267834,-25.554701],[-56.268593,-25.554799],[-56.268267,-25.555936],[-56.267013,-25.556074],[-56.267376,-25.557746],[-56.267668,-25.557987],[-56.267671,-25.557454],[-56.268311,-25.557435],[-56.268463,-25.558718],[-56.269852,-25.558287],[-56.269766,-25.559185],[-56.270111,-25.559453],[-56.270912,-25.559213],[-56.27121,-25.558537],[-56.271394,-25.559021],[-56.272086,-25.559074],[-56.2716,-25.560133],[-56.272419,-25.561275],[-56.273696,-25.561719],[-56.274161,-25.560963],[-56.274732,-25.56228],[-56.277105,-25.562337],[-56.277417,-25.56362],[-56.278842,-25.563772],[-56.280379,-25.565256],[-56.280886,-25.565236],[-56.280995,-25.564776],[-56.281661,-25.564874],[-56.283264,-25.564204],[-56.284141,-25.564647],[-56.285399,-25.563831],[-56.285637,-25.563999],[-56.286145,-25.563785],[-56.286301,-25.564486],[-56.285471,-25.565114],[-56.285414,-25.565791],[-56.286444,-25.565141],[-56.286227,-25.565768],[-56.287108,-25.565533],[-56.287343,-25.566428],[-56.287662,-25.566596],[-56.28958,-25.566777],[-56.290265,-25.568135],[-56.290908,-25.567556],[-56.291144,-25.568234],[-56.292213,-25.567706],[-56.292371,-25.568118],[-56.291753,-25.568865],[-56.292658,-25.569208],[-56.295697,-25.5692],[-56.297874,-25.568438],[-56.299521,-25.569484],[-56.300908,-25.569225],[-56.302299,-25.56836],[-56.30395,-25.568729],[-56.307976,-25.568676],[-56.309099,-25.567981],[-56.310468,-25.566344],[-56.31128,-25.566493],[-56.313017,-25.565751],[-56.313868,-25.566189],[-56.315467,-25.566196],[-56.316379,-25.565189],[-56.317261,-25.564827],[-56.321351,-25.567434],[-56.323465,-25.56841],[-56.324364,-25.569651],[-56.325851,-25.570768],[-56.326378,-25.571832],[-56.328426,-25.57264],[-56.330438,-25.572893],[-56.330756,-25.573279],[-56.330323,-25.57432],[-56.330615,-25.574633],[-56.331655,-25.574592],[-56.333285,-25.57385],[-56.333798,-25.572737],[-56.3337,-25.571093],[-56.334904,-25.570349],[-56.337406,-25.571133],[-56.337995,-25.570535],[-56.338448,-25.570559],[-56.339458,-25.571142],[-56.339825,-25.572259],[-56.340118,-25.572283],[-56.341254,-25.571782],[-56.341236,-25.570089],[-56.341585,-25.569729],[-56.342536,-25.571305],[-56.34538,-25.572862],[-56.345648,-25.572696],[-56.345571,-25.572185],[-56.345148,-25.571389],[-56.346991,-25.57072],[-56.346916,-25.569871],[-56.347397,-25.569606],[-56.350755,-25.56977],[-56.351317,-25.569357],[-56.351903,-25.569554],[-56.35241,-25.569362],[-56.352913,-25.570069],[-56.353259,-25.57007],[-56.355968,-25.569572],[-56.358094,-25.570742],[-56.358036,-25.571663],[-56.358729,-25.571593],[-56.359706,-25.570893],[-56.360612,-25.570997],[-56.361429,-25.572766],[-56.362416,-25.57272],[-56.363126,-25.574439],[-56.365145,-25.575902],[-56.365461,-25.576508],[-56.36578,-25.576676],[-56.366449,-25.576363],[-56.366953,-25.576925],[-56.369531,-25.578336],[-56.369824,-25.578337],[-56.369801,-25.577687],[-56.369192,-25.576741],[-56.371136,-25.577232],[-56.371489,-25.57648],[-56.372192,-25.57618],[-56.372547,-25.576683],[-56.372906,-25.576382],[-56.373439,-25.576935],[-56.374389,-25.576212],[-56.374313,-25.575472],[-56.375685,-25.57494],[-56.375816,-25.573871],[-56.376286,-25.573791],[-56.376573,-25.57326],[-56.376112,-25.572066],[-56.376599,-25.57098],[-56.376349,-25.57013],[-56.378039,-25.570896],[-56.378968,-25.570845],[-56.37934,-25.570143],[-56.378821,-25.569766],[-56.379451,-25.569249],[-56.38003,-25.569491],[-56.380872,-25.569224],[-56.380585,-25.568473],[-56.380964,-25.568],[-56.381343,-25.568264],[-56.381587,-25.569272],[-56.382948,-25.568153],[-56.383386,-25.569415],[-56.38379,-25.569335],[-56.383876,-25.568988],[-56.385533,-25.569099],[-56.385919,-25.568893],[-56.385828,-25.568355],[-56.386454,-25.568236],[-56.386378,-25.567865],[-56.386918,-25.568138],[-56.387291,-25.567977],[-56.386415,-25.566488],[-56.387688,-25.56657],[-56.387609,-25.56573],[-56.387885,-25.565691],[-56.388296,-25.565837],[-56.388298,-25.566636],[-56.388804,-25.566774],[-56.388818,-25.565997],[-56.389795,-25.565875],[-56.39012,-25.566887],[-56.39139,-25.567394],[-56.3914,-25.567028],[-56.391632,-25.567038],[-56.391941,-25.568742],[-56.392262,-25.568716],[-56.392659,-25.567991],[-56.392822,-25.568953],[-56.393109,-25.56899],[-56.393685,-25.568379],[-56.39376,-25.569264],[-56.394291,-25.569379],[-56.394198,-25.570164],[-56.392636,-25.570564],[-56.393571,-25.571114],[-56.394317,-25.57226],[-56.393793,-25.572763],[-56.394363,-25.573556],[-56.394296,-25.574174],[-56.393773,-25.574009],[-56.394127,-25.574431],[-56.39616,-25.574353],[-56.396306,-25.573826],[-56.396834,-25.574541],[-56.396838,-25.575548],[-56.397687,-25.575917],[-56.397562,-25.575217],[-56.398387,-25.574706],[-56.398409,-25.574232],[-56.399091,-25.574176],[-56.399621,-25.574824],[-56.400631,-25.574259],[-56.401492,-25.572352],[-56.402543,-25.572388],[-56.402592,-25.573066],[-56.40204,-25.57379],[-56.402358,-25.574013],[-56.402946,-25.574006],[-56.403372,-25.573092],[-56.404194,-25.573542],[-56.404631,-25.573327],[-56.405246,-25.573953],[-56.405436,-25.573533],[-56.405133,-25.572981],[-56.405583,-25.572703],[-56.406358,-25.573655],[-56.406568,-25.573412],[-56.406952,-25.57367],[-56.407201,-25.573405],[-56.407563,-25.573953],[-56.406792,-25.574239],[-56.4072,-25.5748],[-56.406383,-25.574865],[-56.406501,-25.575317],[-56.407307,-25.575735],[-56.406603,-25.57608],[-56.406655,-25.57632],[-56.407627,-25.576387],[-56.408045,-25.57568],[-56.408595,-25.576323],[-56.408509,-25.576846],[-56.409419,-25.576665],[-56.40899,-25.577277],[-56.410014,-25.577611],[-56.409875,-25.578351],[-56.410485,-25.579311],[-56.41118,-25.579209],[-56.412069,-25.57775],[-56.412457,-25.578479],[-56.413256,-25.577416],[-56.413366,-25.57864],[-56.414076,-25.57816],[-56.41434,-25.579678],[-56.415301,-25.580052],[-56.415314,-25.580364],[-56.414626,-25.580564],[-56.414659,-25.580808],[-56.416802,-25.580875],[-56.416987,-25.582271],[-56.41674,-25.582767],[-56.417778,-25.582342],[-56.417784,-25.582907],[-56.417255,-25.583284],[-56.418059,-25.583716],[-56.418598,-25.584603],[-56.418532,-25.585271],[-56.419749,-25.585285],[-56.42025,-25.586072],[-56.418827,-25.586044],[-56.418653,-25.586396],[-56.41896,-25.587002],[-56.418261,-25.58722],[-56.419276,-25.587676],[-56.419297,-25.588091],[-56.418638,-25.588328],[-56.419465,-25.589243],[-56.419187,-25.589698],[-56.419828,-25.589732],[-56.419762,-25.590333],[-56.42071,-25.590788],[-56.42034,-25.591423],[-56.420658,-25.591844],[-56.422442,-25.592687],[-56.422034,-25.593272],[-56.422575,-25.593387],[-56.422568,-25.593649],[-56.421911,-25.593908],[-56.422821,-25.594399],[-56.422795,-25.594607],[-56.422258,-25.594609],[-56.422383,-25.594827],[-56.423437,-25.595463],[-56.423116,-25.595981],[-56.422166,-25.595417],[-56.422539,-25.596823],[-56.423283,-25.596848],[-56.423015,-25.597394],[-56.422242,-25.597237],[-56.421983,-25.597511],[-56.421824,-25.598188],[-56.422691,-25.598277],[-56.422892,-25.598716],[-56.422234,-25.599332],[-56.422067,-25.600081],[-56.4226,-25.600101],[-56.422657,-25.599284],[-56.423319,-25.598862],[-56.424796,-25.598918],[-56.42478,-25.600073],[-56.424212,-25.600757],[-56.424878,-25.600737],[-56.424316,-25.601255],[-56.424488,-25.601951],[-56.425319,-25.602378],[-56.425594,-25.602971],[-56.426172,-25.602377],[-56.428775,-25.602762],[-56.42818,-25.603545],[-56.428214,-25.604074],[-56.429012,-25.603359],[-56.429378,-25.60346],[-56.429318,-25.604028],[-56.428353,-25.604643],[-56.429059,-25.604984],[-56.429019,-25.605197],[-56.428456,-25.605388],[-56.427938,-25.606438],[-56.427225,-25.606079],[-56.42769,-25.607435],[-56.427051,-25.607884],[-56.42725,-25.608933],[-56.426698,-25.60907],[-56.427508,-25.609593],[-56.428504,-25.60896],[-56.429173,-25.609134],[-56.428585,-25.61064],[-56.429237,-25.611406],[-56.428313,-25.612011],[-56.42862,-25.612369],[-56.429433,-25.612391],[-56.428559,-25.612812],[-56.428391,-25.614229],[-56.428693,-25.614821],[-56.43031,-25.615202],[-56.429451,-25.6157],[-56.430005,-25.616172],[-56.43078,-25.615385],[-56.431684,-25.615307],[-56.432022,-25.615828],[-56.43261,-25.615613],[-56.433203,-25.616148],[-56.433104,-25.616721],[-56.434436,-25.615218],[-56.435163,-25.615524],[-56.435415,-25.614996],[-56.436561,-25.614901],[-56.437188,-25.616055],[-56.436147,-25.616941],[-56.437158,-25.61713],[-56.436853,-25.617864],[-56.437637,-25.617994],[-56.43793,-25.618767],[-56.439096,-25.618605],[-56.438493,-25.61937],[-56.439062,-25.619656],[-56.438643,-25.620079],[-56.43879,-25.620604],[-56.440262,-25.620447],[-56.440738,-25.619722],[-56.442174,-25.619754],[-56.442731,-25.619503],[-56.443022,-25.62104],[-56.443962,-25.621711],[-56.44465,-25.621673],[-56.445488,-25.621026],[-56.446021,-25.621313],[-56.446263,-25.622099],[-56.446744,-25.622508],[-56.449632,-25.621981],[-56.449924,-25.623039],[-56.451459,-25.622972],[-56.452052,-25.624194],[-56.453259,-25.624022],[-56.453749,-25.625216],[-56.454897,-25.625703],[-56.455117,-25.626657],[-56.456974,-25.626433],[-56.457995,-25.625539],[-56.460763,-25.625806],[-56.461197,-25.626142],[-56.461165,-25.626544],[-56.459983,-25.627059],[-56.4598,-25.627451],[-56.460475,-25.627774],[-56.462083,-25.627504],[-56.463025,-25.629684],[-56.463544,-25.629284],[-56.463179,-25.627003],[-56.46349,-25.627004],[-56.464755,-25.628259],[-56.466726,-25.627544],[-56.466699,-25.626903],[-56.466958,-25.626728],[-56.46902,-25.627155],[-56.469455,-25.628227],[-56.468622,-25.629515],[-56.469954,-25.629244],[-56.470622,-25.628402],[-56.471147,-25.628413],[-56.471537,-25.62888],[-56.47144,-25.629372],[-56.470066,-25.630238],[-56.470624,-25.630859],[-56.471278,-25.630987],[-56.472609,-25.630085],[-56.472571,-25.628807],[-56.472933,-25.628772],[-56.474324,-25.630028],[-56.47466,-25.630765],[-56.474777,-25.631777],[-56.474039,-25.632108],[-56.474042,-25.632397],[-56.475958,-25.632666],[-56.476139,-25.633678],[-56.47711,-25.63425],[-56.476849,-25.634678],[-56.476047,-25.634784],[-56.476059,-25.635204],[-56.477668,-25.635598],[-56.478026,-25.63647],[-56.478405,-25.636585],[-56.479122,-25.636226],[-56.479725,-25.635185],[-56.481303,-25.635791],[-56.482532,-25.634771],[-56.484619,-25.635157],[-56.485087,-25.634576],[-56.484247,-25.63349],[-56.484358,-25.632899],[-56.486457,-25.631534],[-56.487456,-25.63156],[-56.48781,-25.630477],[-56.489819,-25.630995],[-56.490144,-25.627799],[-56.491034,-25.627138],[-56.492634,-25.6276],[-56.493239,-25.627313],[-56.494885,-25.624908],[-56.494733,-25.623178],[-56.495385,-25.622918],[-56.496684,-25.623266],[-56.49914,-25.623153],[-56.499079,-25.622511],[-56.497846,-25.621726],[-56.498118,-25.621451],[-56.500319,-25.622624],[-56.500921,-25.623809],[-56.501567,-25.623788],[-56.502501,-25.623096],[-56.504536,-25.623618],[-56.504546,-25.624413],[-56.502387,-25.624636],[-56.502371,-25.625313],[-56.504787,-25.625569],[-56.505674,-25.626597],[-56.507304,-25.627145],[-56.507663,-25.626897],[-56.507832,-25.625476],[-56.50992,-25.625004],[-56.510544,-25.625155],[-56.511405,-25.626328],[-56.513904,-25.626101],[-56.515356,-25.627117],[-56.515788,-25.626767],[-56.515987,-25.625706],[-56.516737,-25.625451],[-56.517828,-25.626186],[-56.51925,-25.626308],[-56.519192,-25.626782],[-56.518072,-25.627718],[-56.518432,-25.628211],[-56.519069,-25.628362],[-56.519661,-25.627899],[-56.520118,-25.626745],[-56.521081,-25.626242],[-56.521125,-25.625818],[-56.520343,-25.625486],[-56.520073,-25.625047],[-56.521579,-25.623295],[-56.522005,-25.623599],[-56.522378,-25.625086],[-56.524114,-25.625923],[-56.52477,-25.625699],[-56.525469,-25.624487],[-56.526174,-25.624724],[-56.526908,-25.626374],[-56.528725,-25.625757],[-56.528359,-25.624604],[-56.528614,-25.624397],[-56.529954,-25.625377],[-56.53122,-25.625544],[-56.53229,-25.626184],[-56.532941,-25.625983],[-56.53328,-25.625329],[-56.533848,-25.625326],[-56.534187,-25.625711],[-56.533303,-25.627158],[-56.533391,-25.627912],[-56.534095,-25.628212],[-56.535621,-25.628122],[-56.535847,-25.628687],[-56.53389,-25.630162],[-56.532454,-25.630442],[-56.532194,-25.630956],[-56.532477,-25.631318],[-56.533769,-25.631417],[-56.534635,-25.630241],[-56.535256,-25.630054],[-56.535886,-25.631992],[-56.53644,-25.632604],[-56.536936,-25.63233],[-56.536804,-25.630948],[-56.537287,-25.630588],[-56.537881,-25.630933],[-56.537819,-25.632527],[-56.538317,-25.633007],[-56.541165,-25.631797],[-56.541663,-25.632106],[-56.541935,-25.632955],[-56.542697,-25.633283],[-56.543452,-25.632861],[-56.543964,-25.63205],[-56.544463,-25.632119],[-56.5443,-25.633206],[-56.543375,-25.634969],[-56.543605,-25.635787],[-56.54441,-25.635947],[-56.546065,-25.635691],[-56.546491,-25.637119],[-56.547613,-25.63756],[-56.548527,-25.638714],[-56.551118,-25.639386],[-56.553222,-25.639058],[-56.556,-25.640408],[-56.556952,-25.641526],[-56.558203,-25.642365],[-56.55875,-25.643617],[-56.560353,-25.644661],[-56.560096,-25.64526],[-56.558837,-25.645609],[-56.558452,-25.645978],[-56.558552,-25.646872],[-56.559131,-25.64766],[-56.560419,-25.647781],[-56.562625,-25.6466],[-56.563543,-25.646576],[-56.564391,-25.648014],[-56.565624,-25.649034],[-56.565833,-25.650741],[-56.566395,-25.651469],[-56.566949,-25.651719],[-56.568963,-25.651518],[-56.569543,-25.651759],[-56.569559,-25.652332],[-56.568275,-25.653453],[-56.568359,-25.65404],[-56.568798,-25.654271],[-56.571382,-25.654256],[-56.572093,-25.654647],[-56.573075,-25.655905],[-56.575199,-25.655938],[-56.576794,-25.657013],[-56.578451,-25.65755],[-56.580349,-25.659493],[-56.581282,-25.661374]]]}}]}
