{"type":"FeatureCollection","name":"distrito","features":[{"type":"Feature","properties":{"clave":"1-9","nombre":"Yby Yaú"},"geometry":{"type":"Polygon","coordinates":[[[-56.507629,-23.16424],[-56.513259,-23.123623],[-56.519104,-23.123184],[-56.524567,-23.122289],[-56.528211,-23.122413],[-56.534318,-23.121554],[-56.536119,-23.12025],[-56.53956,-23.119018],[-56.541369,-23.117862],[-56.545284,-23.116338],[-56.547022,-23.11619],[-56.547465,-23.115681],[-56.547433,-23.114953],[-56.546597,-23.114933],[-56.546947,-23.113516],[-56.546387,-23.112611],[-56.545557,-23.112139],[-56.544267,-23.111977],[-56.544041,-23.111619],[-56.543856,-23.10965],[-56.544238,-23.10784],[-56.543169,-23.107272],[-56.543176,-23.105036],[-56.542617,-23.103806],[-56.542886,-23.103251],[-56.542435,-23.102685],[-56.542488,-23.102247],[-56.570138,-23.034476],[-56.570857,-23.033142],[-56.57366,-23.032066],[-56.575507,-23.030061],[-56.577656,-23.026652],[-56.579958,-23.026278],[-56.583002,-23.025297],[-56.585442,-23.023637],[-56.586544,-23.022032],[-56.589706,-23.021404],[-56.592092,-23.020199],[-56.594045,-23.018786],[-56.597163,-23.019042],[-56.600198,-23.018206],[-56.602511,-23.018817],[-56.604008,-23.018269],[-56.606005,-23.018202],[-56.607444,-23.017713],[-56.61006,-23.018555],[-56.613314,-23.017484],[-56.613894,-23.018669],[-56.615019,-23.01831],[-56.617725,-23.01885],[-56.622202,-23.015545],[-56.624013,-23.015707],[-56.62464,-23.01547],[-56.625927,-23.014136],[-56.625493,-23.012884],[-56.625853,-23.012076],[-56.62645,-23.01182],[-56.631935,-23.011539],[-56.63615,-23.010627],[-56.641602,-23.007957],[-56.644147,-23.00719],[-56.653527,-23.007026],[-56.656087,-23.00616],[-56.657655,-23.006945],[-56.659391,-23.007314],[-56.660803,-23.007227],[-56.663324,-23.006139],[-56.66667,-23.006634],[-56.669948,-23.006506],[-56.67221,-23.005684],[-56.674008,-23.004608],[-56.677664,-23.001702],[-56.678561,-22.999789],[-56.678401,-22.998912],[-56.679836,-22.995848],[-56.680838,-22.996609],[-56.682574,-22.997254],[-56.683398,-22.99726],[-56.684179,-22.996602],[-56.684334,-22.994692],[-56.685497,-22.994703],[-56.686226,-22.995238],[-56.68707,-22.994363],[-56.689802,-22.994581],[-56.692293,-22.993954],[-56.693154,-22.994163],[-56.693818,-22.993669],[-56.693113,-22.991768],[-56.691725,-22.990073],[-56.689554,-22.988257],[-56.686869,-22.983096],[-56.683875,-22.979707],[-56.682182,-22.978213],[-56.679789,-22.978249],[-56.679268,-22.977845],[-56.67914,-22.977039],[-56.679403,-22.976234],[-56.685283,-22.972822],[-56.687205,-22.969241],[-56.689735,-22.966024],[-56.690217,-22.964615],[-56.69009,-22.963084],[-56.688833,-22.961229],[-56.683841,-22.956829],[-56.683626,-22.955983],[-56.683846,-22.954936],[-56.686593,-22.951719],[-56.687768,-22.95148],[-56.688639,-22.950878],[-56.688902,-22.949871],[-56.688261,-22.944916],[-56.689529,-22.942179],[-56.690703,-22.942262],[-56.691702,-22.942909],[-56.692482,-22.944118],[-56.693736,-22.947262],[-56.695254,-22.948997],[-56.697381,-22.950774],[-56.699857,-22.951987],[-56.701901,-22.952434],[-56.703032,-22.951993],[-56.704078,-22.951028],[-56.704477,-22.947645],[-56.705219,-22.9466],[-56.706742,-22.94624],[-56.710438,-22.946206],[-56.715704,-22.944564],[-56.716315,-22.943639],[-56.716579,-22.942029],[-56.716146,-22.941142],[-56.711759,-22.938596],[-56.710501,-22.937023],[-56.708895,-22.935691],[-56.708723,-22.934966],[-56.710033,-22.932431],[-56.712472,-22.930341],[-56.71967,-22.919438],[-56.721377,-22.913682],[-56.721558,-22.91054],[-56.719651,-22.907355],[-56.719654,-22.906187],[-56.722098,-22.901358],[-56.722361,-22.900432],[-56.721886,-22.898659],[-56.719152,-22.896237],[-56.71811,-22.895833],[-56.715108,-22.896955],[-56.713041,-22.897017],[-56.712617,-22.897673],[-56.711227,-22.902896],[-56.710944,-22.90337],[-56.709523,-22.904198],[-56.708694,-22.905949],[-56.707776,-22.905731],[-56.706775,-22.905006],[-56.706329,-22.90394],[-56.706539,-22.903014],[-56.707042,-22.902509],[-56.709111,-22.901519],[-56.708715,-22.900868],[-56.707692,-22.900875],[-56.70517,-22.903486],[-56.703918,-22.903163],[-56.702531,-22.902221],[-56.700507,-22.901666],[-56.694397,-22.902535],[-56.693741,-22.901838],[-56.69318,-22.900414],[-56.68972,-22.897697],[-56.688626,-22.896489],[-56.68801,-22.896746],[-56.687902,-22.898268],[-56.687065,-22.898989],[-56.68624,-22.899163],[-56.684477,-22.898252],[-56.68313,-22.898235],[-56.68158,-22.900256],[-56.680651,-22.90043],[-56.68014,-22.900108],[-56.680803,-22.897942],[-56.68141,-22.897198],[-56.681162,-22.896271],[-56.680411,-22.895949],[-56.679356,-22.896123],[-56.677932,-22.897877],[-56.67673,-22.89829],[-56.675362,-22.898301],[-56.67073,-22.896643],[-56.671727,-22.894947],[-56.671686,-22.89454],[-56.670977,-22.89387],[-56.668919,-22.894367],[-56.667428,-22.893709],[-56.667255,-22.89178],[-56.666144,-22.889389],[-56.668164,-22.887297],[-56.669826,-22.886334],[-56.670089,-22.885675],[-56.669808,-22.885236],[-56.668223,-22.884492],[-56.665436,-22.884215],[-56.665147,-22.883063],[-56.666213,-22.882424],[-56.666465,-22.881846],[-56.666205,-22.881457],[-56.664567,-22.881124],[-56.663262,-22.88123],[-56.660796,-22.882087],[-56.656359,-22.88229],[-56.653632,-22.882804],[-56.649437,-22.886557],[-56.645998,-22.887836],[-56.644309,-22.887069],[-56.642994,-22.887075],[-56.641947,-22.888031],[-56.639586,-22.888721],[-56.639253,-22.888345],[-56.639379,-22.88793],[-56.640739,-22.886966],[-56.640396,-22.886415],[-56.639748,-22.886431],[-56.637435,-22.888919],[-56.637106,-22.890856],[-56.636563,-22.890981],[-56.63552,-22.890514],[-56.634778,-22.89058],[-56.63436,-22.890895],[-56.634252,-22.892299],[-56.633802,-22.89284],[-56.633446,-22.892849],[-56.631915,-22.891716],[-56.631194,-22.891818],[-56.631073,-22.894054],[-56.630558,-22.895231],[-56.62964,-22.895229],[-56.628432,-22.893998],[-56.625794,-22.892862],[-56.624958,-22.892888],[-56.624707,-22.893253],[-56.626124,-22.894223],[-56.626622,-22.895222],[-56.626413,-22.895601],[-56.625994,-22.895686],[-56.62358,-22.894108],[-56.623021,-22.894148],[-56.621881,-22.897442],[-56.622101,-22.898734],[-56.621793,-22.899122],[-56.619419,-22.89904],[-56.618359,-22.898649],[-56.618291,-22.898052],[-56.619118,-22.896907],[-56.618743,-22.895935],[-56.617919,-22.895879],[-56.616885,-22.896355],[-56.615561,-22.895602],[-56.614918,-22.895551],[-56.614568,-22.895898],[-56.614693,-22.896287],[-56.616211,-22.897609],[-56.616209,-22.898282],[-56.615356,-22.898682],[-56.615075,-22.899187],[-56.615547,-22.90044],[-56.615611,-22.902332],[-56.616893,-22.903252],[-56.617435,-22.904419],[-56.61742,-22.904857],[-56.616074,-22.906651],[-56.615285,-22.908926],[-56.61393,-22.909207],[-56.607438,-22.908545],[-56.606054,-22.909007],[-56.602598,-22.911031],[-56.596767,-22.913451],[-56.596027,-22.913472],[-56.588757,-22.911502],[-56.587279,-22.910658],[-56.583638,-22.909365],[-56.582845,-22.908483],[-56.582082,-22.906529],[-56.582309,-22.905545],[-56.584711,-22.901139],[-56.587156,-22.900743],[-56.588193,-22.899156],[-56.587902,-22.898378],[-56.585263,-22.898566],[-56.583507,-22.8975],[-56.581689,-22.898222],[-56.580963,-22.898153],[-56.579681,-22.897273],[-56.578158,-22.89745],[-56.57764,-22.897733],[-56.577444,-22.898315],[-56.57771,-22.902313],[-56.576912,-22.902984],[-56.57655,-22.902775],[-56.575955,-22.900922],[-56.575273,-22.900197],[-56.572812,-22.901369],[-56.570158,-22.901579],[-56.562509,-22.90037],[-56.559495,-22.899517],[-56.557101,-22.897017],[-56.554997,-22.895702],[-56.554594,-22.894915],[-56.555103,-22.893001],[-56.556153,-22.892354],[-56.558605,-22.894185],[-56.559522,-22.895484],[-56.560568,-22.895911],[-56.561435,-22.895607],[-56.561704,-22.894284],[-56.561544,-22.892075],[-56.558799,-22.890306],[-56.558178,-22.887883],[-56.55461,-22.885805],[-56.551147,-22.885989],[-56.545959,-22.883906],[-56.544331,-22.88227],[-56.545074,-22.881469],[-56.547214,-22.880391],[-56.547412,-22.879393],[-56.546675,-22.878682],[-56.545977,-22.878599],[-56.544326,-22.879538],[-56.542206,-22.879094],[-56.539592,-22.879849],[-56.53856,-22.879354],[-56.538159,-22.878188],[-56.538041,-22.876105],[-56.539581,-22.87082],[-56.539791,-22.866277],[-56.540295,-22.865931],[-56.54204,-22.865846],[-56.54246,-22.865458],[-56.54374,-22.862824],[-56.543662,-22.861049],[-56.540908,-22.857861],[-56.537992,-22.857681],[-56.53618,-22.856592],[-56.533149,-22.853087],[-56.532626,-22.850886],[-56.531642,-22.848607],[-56.530696,-22.847827],[-56.526501,-22.845891],[-56.523257,-22.843279],[-56.522815,-22.84214],[-56.521924,-22.841396],[-56.521896,-22.837453],[-56.521552,-22.835926],[-56.521893,-22.834427],[-56.522451,-22.834234],[-56.526174,-22.835384],[-56.526444,-22.834142],[-56.524848,-22.83155],[-56.520664,-22.826478],[-56.519765,-22.824222],[-56.520914,-22.822974],[-56.524744,-22.821197],[-56.525291,-22.820318],[-56.525723,-22.816597],[-56.526388,-22.814102],[-56.525876,-22.81265],[-56.526012,-22.809764],[-56.524954,-22.808881],[-56.522334,-22.808006],[-56.518328,-22.808021],[-56.513411,-22.805585],[-56.511184,-22.803911],[-56.508914,-22.802676],[-56.508083,-22.800898],[-56.507531,-22.795219],[-56.507925,-22.794199],[-56.510406,-22.791126],[-56.51069,-22.789926],[-56.510569,-22.788435],[-56.509931,-22.787439],[-56.508998,-22.787048],[-56.504364,-22.787354],[-56.503238,-22.786136],[-56.504357,-22.78553],[-56.504847,-22.784885],[-56.5052,-22.783789],[-56.504771,-22.783038],[-56.497918,-22.779855],[-56.495271,-22.778916],[-56.493921,-22.776138],[-56.49175,-22.776086],[-56.487916,-22.773897],[-56.484655,-22.773349],[-56.483931,-22.772461],[-56.482875,-22.772002],[-56.476884,-22.772736],[-56.473156,-22.772593],[-56.471588,-22.772841],[-56.470447,-22.773257],[-56.469502,-22.775223],[-56.468363,-22.775793],[-56.467476,-22.775429],[-56.466032,-22.773798],[-56.462529,-22.773398],[-56.461289,-22.771447],[-56.458921,-22.770974],[-56.45734,-22.771863],[-56.455229,-22.774724],[-56.453952,-22.775117],[-56.453393,-22.774722],[-56.453318,-22.774211],[-56.454947,-22.770084],[-56.455246,-22.768328],[-56.454539,-22.76712],[-56.452367,-22.766918],[-56.451536,-22.767154],[-56.450163,-22.770113],[-56.449371,-22.77039],[-56.447737,-22.770326],[-56.447187,-22.770613],[-56.444545,-22.77765],[-56.443914,-22.777959],[-56.442711,-22.777919],[-56.441451,-22.777034],[-56.441149,-22.776021],[-56.441169,-22.775167],[-56.442545,-22.773555],[-56.442265,-22.772452],[-56.441243,-22.771947],[-56.438754,-22.771911],[-56.435931,-22.770578],[-56.434499,-22.768391],[-56.431231,-22.76515],[-56.430185,-22.762834],[-56.428852,-22.762034],[-56.427961,-22.760514],[-56.42754,-22.760489],[-56.42648,-22.761199],[-56.42538,-22.760902],[-56.421599,-22.75751],[-56.421202,-22.757589],[-56.41902,-22.759591],[-56.417942,-22.759899],[-56.415514,-22.758133],[-56.412248,-22.756608],[-56.408876,-22.755837],[-56.408448,-22.753031],[-56.408641,-22.75258],[-56.409956,-22.752237],[-56.411881,-22.752601],[-56.412796,-22.753232],[-56.413732,-22.753429],[-56.414533,-22.752967],[-56.414952,-22.752034],[-56.414708,-22.749585],[-56.413632,-22.747706],[-56.413456,-22.745118],[-56.411824,-22.743675],[-56.40851,-22.742669],[-56.406996,-22.741932],[-56.405438,-22.740725],[-56.404353,-22.740802],[-56.403083,-22.742848],[-56.403005,-22.744817],[-56.406176,-22.74631],[-56.406383,-22.747716],[-56.405206,-22.748366],[-56.403642,-22.748582],[-56.400756,-22.7483],[-56.398506,-22.749272],[-56.398065,-22.74918],[-56.397103,-22.747392],[-56.39745,-22.744408],[-56.397201,-22.742316],[-56.39613,-22.741688],[-56.393354,-22.741623],[-56.391901,-22.740566],[-56.391178,-22.738928],[-56.39095,-22.736903],[-56.39149,-22.735645],[-56.390494,-22.734684],[-56.390183,-22.733364],[-56.39183,-22.731938],[-56.392114,-22.731176],[-56.391557,-22.729065],[-56.392756,-22.726662],[-56.392928,-22.725452],[-56.392443,-22.724457],[-56.392324,-22.721895],[-56.391739,-22.721681],[-56.390606,-22.722503],[-56.386749,-22.723256],[-56.385616,-22.724358],[-56.384627,-22.724851],[-56.383316,-22.724521],[-56.382387,-22.723605],[-56.381914,-22.720487],[-56.380922,-22.719241],[-56.38091,-22.718717],[-56.381791,-22.718165],[-56.383735,-22.719563],[-56.384707,-22.719824],[-56.385169,-22.719551],[-56.386915,-22.715158],[-56.3863,-22.714298],[-56.38518,-22.71353],[-56.383516,-22.713325],[-56.377548,-22.715628],[-56.376105,-22.715866],[-56.374464,-22.715223],[-56.373252,-22.715141],[-56.369612,-22.718555],[-56.367951,-22.718937],[-56.366847,-22.718404],[-56.365517,-22.719704],[-56.364574,-22.720161],[-56.363852,-22.720091],[-56.362876,-22.719567],[-56.361908,-22.718222],[-56.361892,-22.717721],[-56.362558,-22.716513],[-56.362357,-22.715433],[-56.360173,-22.714439],[-56.358944,-22.711548],[-56.357888,-22.710388],[-56.357922,-22.708536],[-56.358995,-22.707483],[-56.358823,-22.706606],[-56.357391,-22.706506],[-56.356444,-22.707125],[-56.355175,-22.706623],[-56.353475,-22.706693],[-56.350816,-22.707378],[-56.348913,-22.708567],[-56.348087,-22.708781],[-56.344599,-22.708848],[-56.343126,-22.7083],[-56.342179,-22.707505],[-56.342103,-22.706972],[-56.342897,-22.705056],[-56.342979,-22.701953],[-56.344132,-22.699307],[-56.344311,-22.698119],[-56.342108,-22.694398],[-56.33912,-22.693875],[-56.336875,-22.692303],[-56.333222,-22.690693],[-56.327777,-22.687586],[-56.326372,-22.687706],[-56.324043,-22.690506],[-56.323184,-22.690376],[-56.321877,-22.689607],[-56.321349,-22.689641],[-56.321196,-22.690299],[-56.321522,-22.691416],[-56.321208,-22.691718],[-56.316695,-22.690967],[-56.314972,-22.690047],[-56.314687,-22.687873],[-56.31322,-22.686928],[-56.312675,-22.687133],[-56.311283,-22.689403],[-56.308854,-22.692324],[-56.307094,-22.693238],[-56.30579,-22.694461],[-56.305233,-22.694522],[-56.303046,-22.693406],[-56.30284,-22.69275],[-56.303001,-22.690461],[-56.301313,-22.68805],[-56.299894,-22.687733],[-56.298135,-22.687824],[-56.296088,-22.686921],[-56.295086,-22.686966],[-56.294387,-22.687641],[-56.132153,-23.041162],[-56.131652,-23.041896],[-56.130696,-23.042441],[-56.130304,-23.043216],[-56.130028,-23.044366],[-56.130164,-23.045634],[-56.131164,-23.045586],[-56.131781,-23.046611],[-56.13188,-23.04756],[-56.129195,-23.049447],[-56.129547,-23.050348],[-56.129132,-23.051592],[-56.129335,-23.052871],[-56.128818,-23.05477],[-56.127798,-23.055401],[-56.126554,-23.055647],[-56.127001,-23.058721],[-56.128614,-23.061381],[-56.128434,-23.061899],[-56.126209,-23.064222],[-56.126346,-23.066864],[-56.127249,-23.068093],[-56.125949,-23.068913],[-56.125802,-23.069454],[-56.127512,-23.070037],[-56.128127,-23.072149],[-56.129891,-23.073013],[-56.129041,-23.075144],[-56.130212,-23.076207],[-56.130551,-23.076263],[-56.131229,-23.075612],[-56.131719,-23.075543],[-56.134189,-23.077291],[-56.135945,-23.076424],[-56.138698,-23.077487],[-56.138806,-23.078842],[-56.139267,-23.079721],[-56.137769,-23.082531],[-56.137596,-23.083795],[-56.136126,-23.086998],[-56.136144,-23.088222],[-56.138257,-23.088689],[-56.139214,-23.089774],[-56.139847,-23.091458],[-56.140552,-23.091958],[-56.143132,-23.091819],[-56.144642,-23.091176],[-56.145462,-23.091226],[-56.148208,-23.093589],[-56.148438,-23.095871],[-56.149011,-23.096963],[-56.149716,-23.097418],[-56.151657,-23.097768],[-56.152101,-23.098325],[-56.151895,-23.099313],[-56.151362,-23.09974],[-56.148173,-23.10016],[-56.146115,-23.099937],[-56.145405,-23.102137],[-56.144023,-23.103354],[-56.143744,-23.106274],[-56.144749,-23.106388],[-56.145095,-23.10531],[-56.145955,-23.105058],[-56.147322,-23.106903],[-56.145808,-23.109754],[-56.142249,-23.110475],[-56.139955,-23.111158],[-56.139407,-23.111593],[-56.139018,-23.114017],[-56.140408,-23.116377],[-56.14086,-23.119911],[-56.141744,-23.121167],[-56.144352,-23.123214],[-56.1464,-23.1229],[-56.147559,-23.122377],[-56.147914,-23.121684],[-56.148697,-23.121625],[-56.14928,-23.121691],[-56.151182,-23.12298],[-56.151765,-23.123073],[-56.153949,-23.121328],[-56.154277,-23.122951],[-56.15467,-23.123441],[-56.155017,-23.123325],[-56.155497,-23.12247],[-56.160837,-23.123103],[-56.163576,-23.124057],[-56.165415,-23.125792],[-56.166374,-23.124257],[-56.167778,-23.124256],[-56.168775,-23.124966],[-56.169474,-23.124793],[-56.170736,-23.122149],[-56.171326,-23.121768],[-56.17291,-23.12146],[-56.173938,-23.120228],[-56.17514,-23.119448],[-56.174945,-23.117514],[-56.179593,-23.11851],[-56.180335,-23.119232],[-56.181096,-23.12111],[-56.181574,-23.121582],[-56.182249,-23.121613],[-56.183118,-23.121062],[-56.183835,-23.121336],[-56.183826,-23.122872],[-56.184974,-23.122955],[-56.18566,-23.123536],[-56.185813,-23.124305],[-56.185375,-23.12521],[-56.186845,-23.125674],[-56.187094,-23.126195],[-56.186971,-23.127237],[-56.18795,-23.127997],[-56.187914,-23.128778],[-56.186345,-23.12872],[-56.186227,-23.129352],[-56.187137,-23.129695],[-56.188613,-23.129143],[-56.189205,-23.129615],[-56.189281,-23.130212],[-56.189087,-23.130527],[-56.187455,-23.130636],[-56.187105,-23.131316],[-56.187227,-23.132292],[-56.188919,-23.132766],[-56.189041,-23.135576],[-56.188676,-23.136139],[-56.188711,-23.13674],[-56.187614,-23.137375],[-56.187349,-23.138381],[-56.186119,-23.138524],[-56.185902,-23.138902],[-56.186353,-23.139762],[-56.186407,-23.1424],[-56.187159,-23.143176],[-56.187143,-23.144613],[-56.186418,-23.145557],[-56.183796,-23.146171],[-56.182931,-23.147206],[-56.183098,-23.148232],[-56.184816,-23.150079],[-56.186695,-23.150775],[-56.185818,-23.151999],[-56.186346,-23.153614],[-56.183124,-23.156994],[-56.183143,-23.158913],[-56.182397,-23.160111],[-56.182436,-23.160544],[-56.183326,-23.161046],[-56.186869,-23.161258],[-56.187926,-23.16106],[-56.189479,-23.160134],[-56.190161,-23.160105],[-56.191595,-23.160872],[-56.194843,-23.164027],[-56.196553,-23.164054],[-56.198101,-23.162824],[-56.200258,-23.164434],[-56.20061,-23.164147],[-56.200268,-23.162704],[-56.202493,-23.163551],[-56.203973,-23.163658],[-56.207096,-23.161682],[-56.207526,-23.161671],[-56.207648,-23.162051],[-56.207092,-23.162965],[-56.206138,-23.167065],[-56.205382,-23.168132],[-56.203639,-23.168624],[-56.203141,-23.169344],[-56.20282,-23.170657],[-56.203114,-23.173838],[-56.203447,-23.174233],[-56.20546,-23.174631],[-56.206925,-23.175469],[-56.208922,-23.175376],[-56.212146,-23.173676],[-56.213561,-23.174469],[-56.2139,-23.175762],[-56.213419,-23.178817],[-56.217552,-23.185879],[-56.217302,-23.186871],[-56.217494,-23.188697],[-56.21866,-23.191182],[-56.21825,-23.191686],[-56.214328,-23.191558],[-56.213408,-23.191752],[-56.212495,-23.195012],[-56.212558,-23.195952],[-56.213428,-23.197822],[-56.214906,-23.198326],[-56.215341,-23.198843],[-56.214514,-23.201589],[-56.213832,-23.202358],[-56.212895,-23.202832],[-56.212253,-23.202246],[-56.211063,-23.200186],[-56.210153,-23.200511],[-56.208411,-23.204025],[-56.208131,-23.205383],[-56.205025,-23.206948],[-56.204205,-23.21557],[-56.202183,-23.216476],[-56.200135,-23.215996],[-56.199766,-23.218559],[-56.198521,-23.218833],[-56.198088,-23.219287],[-56.198694,-23.221435],[-56.199564,-23.222722],[-56.200455,-23.223093],[-56.202797,-23.222897],[-56.203285,-23.223166],[-56.203466,-23.224472],[-56.203254,-23.225275],[-56.201291,-23.225717],[-56.201079,-23.226587],[-56.201356,-23.226891],[-56.203128,-23.227338],[-56.206312,-23.226903],[-56.207039,-23.226301],[-56.206955,-23.22453],[-56.207645,-23.223829],[-56.209816,-23.223325],[-56.210331,-23.223463],[-56.211203,-23.224457],[-56.211883,-23.224234],[-56.212068,-23.223612],[-56.211842,-23.222807],[-56.210618,-23.222038],[-56.21064,-23.221527],[-56.211734,-23.221366],[-56.213591,-23.22217],[-56.213817,-23.222808],[-56.213604,-23.224388],[-56.211558,-23.226206],[-56.211506,-23.230664],[-56.215998,-23.234033],[-56.218491,-23.235016],[-56.219009,-23.234825],[-56.220486,-23.232926],[-56.223724,-23.230937],[-56.233411,-23.230885],[-56.234693,-23.230169],[-56.235577,-23.22908],[-56.236503,-23.226673],[-56.237484,-23.226416],[-56.238795,-23.226598],[-56.240693,-23.229561],[-56.241334,-23.231497],[-56.240573,-23.232103],[-56.238152,-23.232227],[-56.236354,-23.233681],[-56.235977,-23.234316],[-56.236447,-23.235777],[-56.23891,-23.23816],[-56.239513,-23.240832],[-56.239977,-23.240817],[-56.240964,-23.240108],[-56.242443,-23.239939],[-56.243746,-23.24079],[-56.246061,-23.24137],[-56.248038,-23.243032],[-56.249721,-23.243474],[-56.250475,-23.24411],[-56.252394,-23.243437],[-56.255055,-23.243391],[-56.255257,-23.243785],[-56.254828,-23.24554],[-56.256437,-23.246405],[-56.257731,-23.246177],[-56.259082,-23.244679],[-56.259565,-23.244555],[-56.260562,-23.245598],[-56.262449,-23.24637],[-56.263917,-23.248861],[-56.266793,-23.248924],[-56.266513,-23.250418],[-56.263788,-23.252551],[-56.264625,-23.25376],[-56.264885,-23.255265],[-56.265291,-23.255371],[-56.266018,-23.254846],[-56.266625,-23.254808],[-56.267955,-23.256364],[-56.269788,-23.256874],[-56.271515,-23.256832],[-56.273242,-23.256041],[-56.273952,-23.256401],[-56.274531,-23.257564],[-56.275595,-23.258061],[-56.27568,-23.258983],[-56.274465,-23.259944],[-56.273978,-23.260041],[-56.27257,-23.259027],[-56.270492,-23.261163],[-56.268236,-23.261536],[-56.269093,-23.26406],[-56.271637,-23.265517],[-56.271996,-23.266075],[-56.272165,-23.268297],[-56.273026,-23.269548],[-56.273586,-23.271077],[-56.27346,-23.27146],[-56.271263,-23.272606],[-56.272236,-23.273943],[-56.274736,-23.272658],[-56.276605,-23.272062],[-56.277939,-23.272899],[-56.278425,-23.272883],[-56.280167,-23.272114],[-56.280999,-23.271188],[-56.281512,-23.271059],[-56.285563,-23.27143],[-56.286137,-23.272661],[-56.286675,-23.273038],[-56.286876,-23.271011],[-56.286501,-23.269872],[-56.287268,-23.269446],[-56.287553,-23.26882],[-56.287343,-23.268222],[-56.286557,-23.267695],[-56.287557,-23.267311],[-56.287458,-23.265983],[-56.288838,-23.265827],[-56.288396,-23.265088],[-56.287882,-23.265091],[-56.286633,-23.263066],[-56.287917,-23.262114],[-56.290248,-23.262125],[-56.290728,-23.260655],[-56.29044,-23.259737],[-56.291113,-23.259329],[-56.292032,-23.259487],[-56.292572,-23.257664],[-56.29365,-23.258076],[-56.295976,-23.257842],[-56.297307,-23.25891],[-56.299202,-23.258123],[-56.299918,-23.258546],[-56.300946,-23.260904],[-56.302187,-23.261131],[-56.303577,-23.262063],[-56.305351,-23.262184],[-56.307021,-23.262859],[-56.307436,-23.264081],[-56.308687,-23.26531],[-56.311056,-23.2664],[-56.314167,-23.266639],[-56.317408,-23.267882],[-56.319287,-23.269728],[-56.320492,-23.27009],[-56.321765,-23.270963],[-56.323278,-23.271335],[-56.324391,-23.271141],[-56.327063,-23.271776],[-56.328145,-23.2716],[-56.330377,-23.272499],[-56.331541,-23.271524],[-56.33269,-23.271561],[-56.333427,-23.27081],[-56.334189,-23.270799],[-56.335145,-23.268983],[-56.336134,-23.268558],[-56.338016,-23.268295],[-56.338836,-23.267048],[-56.341255,-23.267351],[-56.342861,-23.266988],[-56.344703,-23.267592],[-56.346531,-23.266619],[-56.347666,-23.264994],[-56.348434,-23.264419],[-56.351697,-23.263592],[-56.3541,-23.262103],[-56.355452,-23.262022],[-56.357658,-23.26097],[-56.36027,-23.260859],[-56.361555,-23.260394],[-56.363315,-23.258925],[-56.367515,-23.256318],[-56.369401,-23.25586],[-56.373528,-23.25598],[-56.374262,-23.255735],[-56.375166,-23.256267],[-56.380084,-23.257872],[-56.382674,-23.258058],[-56.411014,-23.247156],[-56.427333,-23.24055],[-56.419153,-23.231035],[-56.419898,-23.229385],[-56.422072,-23.228386],[-56.423046,-23.228873],[-56.423563,-23.230361],[-56.424486,-23.231773],[-56.427368,-23.234552],[-56.428673,-23.234516],[-56.432078,-23.235373],[-56.432662,-23.236482],[-56.433556,-23.23728],[-56.437481,-23.238884],[-56.438509,-23.239055],[-56.442219,-23.237175],[-56.44399,-23.236581],[-56.444349,-23.236731],[-56.444768,-23.237343],[-56.444898,-23.238576],[-56.445282,-23.238979],[-56.445208,-23.240876],[-56.448343,-23.241854],[-56.449406,-23.244206],[-56.451423,-23.24461],[-56.452838,-23.24592],[-56.455067,-23.24661],[-56.457237,-23.246857],[-56.460821,-23.248211],[-56.462932,-23.249573],[-56.463991,-23.250932],[-56.466434,-23.251193],[-56.467408,-23.252285],[-56.468765,-23.252659],[-56.470118,-23.252303],[-56.473665,-23.254067],[-56.475339,-23.253635],[-56.476236,-23.253723],[-56.479285,-23.255165],[-56.482705,-23.255204],[-56.485728,-23.256338],[-56.487211,-23.255968],[-56.489251,-23.256905],[-56.49079,-23.256269],[-56.492287,-23.256658],[-56.494826,-23.25551],[-56.495679,-23.255422],[-56.507629,-23.16424]]]}}]}
