{"type":"FeatureCollection","name":"distrito","features":[{"type":"Feature","properties":{"clave":"11-0","nombre":"Areguá"},"geometry":{"type":"Polygon","coordinates":[[[-57.425334,-25.340894],[-57.425707,-25.34036],[-57.425527,-25.339131],[-57.425149,-25.338627],[-57.425429,-25.337004],[-57.424956,-25.336859],[-57.425116,-25.336566],[-57.424458,-25.336424],[-57.424996,-25.336326],[-57.425514,-25.335568],[-57.425415,-25.334803],[-57.425814,-25.334398],[-57.42563,-25.333836],[-57.427367,-25.333267],[-57.427772,-25.332666],[-57.426987,-25.3324],[-57.427155,-25.331812],[-57.426574,-25.331513],[-57.427015,-25.330981],[-57.426863,-25.329998],[-57.42732,-25.330168],[-57.427532,-25.329864],[-57.427805,-25.329948],[-57.428657,-25.328939],[-57.428688,-25.328215],[-57.429344,-25.328195],[-57.430485,-25.3275],[-57.430589,-25.325771],[-57.430162,-25.325382],[-57.430537,-25.324399],[-57.431509,-25.324064],[-57.431138,-25.323683],[-57.432266,-25.323679],[-57.431758,-25.322906],[-57.432223,-25.322969],[-57.433592,-25.3218],[-57.434173,-25.322152],[-57.435096,-25.321983],[-57.435567,-25.322187],[-57.435649,-25.321762],[-57.435209,-25.321314],[-57.435713,-25.320881],[-57.435673,-25.32047],[-57.436025,-25.320353],[-57.435837,-25.320064],[-57.436179,-25.31983],[-57.436069,-25.319316],[-57.43684,-25.319075],[-57.437184,-25.318626],[-57.436792,-25.318269],[-57.437527,-25.317806],[-57.437352,-25.317331],[-57.437909,-25.317149],[-57.438016,-25.316312],[-57.437445,-25.315772],[-57.437887,-25.315461],[-57.438233,-25.31449],[-57.437626,-25.314534],[-57.437307,-25.31422],[-57.438176,-25.313819],[-57.438328,-25.313064],[-57.437962,-25.312643],[-57.439099,-25.312204],[-57.438843,-25.311724],[-57.439146,-25.31107],[-57.438838,-25.311091],[-57.438804,-25.310747],[-57.440489,-25.310463],[-57.441282,-25.309215],[-57.442086,-25.309027],[-57.4425,-25.307941],[-57.444277,-25.30795],[-57.444306,-25.307166],[-57.44404,-25.306926],[-57.444626,-25.306446],[-57.444643,-25.305596],[-57.445244,-25.305608],[-57.445164,-25.305239],[-57.445617,-25.305127],[-57.445715,-25.304532],[-57.446206,-25.304493],[-57.446458,-25.304828],[-57.446823,-25.304671],[-57.446603,-25.303751],[-57.445917,-25.303939],[-57.445835,-25.303721],[-57.446075,-25.303524],[-57.445975,-25.302872],[-57.446531,-25.303003],[-57.44676,-25.3028],[-57.446002,-25.302524],[-57.446528,-25.302386],[-57.447032,-25.301606],[-57.446576,-25.300799],[-57.446153,-25.301142],[-57.445899,-25.300877],[-57.446201,-25.300369],[-57.446657,-25.300547],[-57.446567,-25.300046],[-57.446169,-25.299877],[-57.446834,-25.29789],[-57.44647,-25.297062],[-57.446991,-25.29684],[-57.446801,-25.295892],[-57.447214,-25.295644],[-57.447125,-25.295085],[-57.447576,-25.294385],[-57.446788,-25.294385],[-57.447079,-25.293631],[-57.446625,-25.293208],[-57.445869,-25.293238],[-57.445695,-25.292368],[-57.446772,-25.291424],[-57.446252,-25.291133],[-57.445949,-25.290141],[-57.446467,-25.289923],[-57.446506,-25.28932],[-57.447132,-25.288678],[-57.447694,-25.288544],[-57.447353,-25.287562],[-57.44657,-25.287597],[-57.446417,-25.286409],[-57.445801,-25.286522],[-57.446077,-25.285762],[-57.445855,-25.285287],[-57.446169,-25.284981],[-57.445739,-25.28465],[-57.446006,-25.283959],[-57.444347,-25.28156],[-57.44368,-25.281053],[-57.444561,-25.280581],[-57.444107,-25.279427],[-57.443436,-25.279454],[-57.443335,-25.279031],[-57.442539,-25.278959],[-57.442282,-25.279264],[-57.441229,-25.279123],[-57.44041,-25.278253],[-57.43886,-25.277634],[-57.438119,-25.278027],[-57.437952,-25.277787],[-57.438295,-25.277171],[-57.43588,-25.276365],[-57.435655,-25.275614],[-57.43524,-25.276095],[-57.434333,-25.27613],[-57.433941,-25.275303],[-57.43401,-25.274518],[-57.433263,-25.272982],[-57.433738,-25.272063],[-57.433185,-25.271435],[-57.433558,-25.271112],[-57.434126,-25.271129],[-57.434158,-25.27085],[-57.431548,-25.270191],[-57.430991,-25.270432],[-57.430473,-25.269959],[-57.42916,-25.27023],[-57.428686,-25.269861],[-57.428722,-25.269184],[-57.428333,-25.269713],[-57.427613,-25.269221],[-57.427522,-25.268067],[-57.427138,-25.267917],[-57.42695,-25.266811],[-57.425854,-25.26564],[-57.425882,-25.264721],[-57.425471,-25.264382],[-57.425537,-25.262788],[-57.42618,-25.260712],[-57.426636,-25.260365],[-57.425293,-25.259367],[-57.425282,-25.258673],[-57.424595,-25.259047],[-57.423722,-25.258284],[-57.423025,-25.259288],[-57.42244,-25.259469],[-57.422103,-25.259079],[-57.422437,-25.259945],[-57.420738,-25.260944],[-57.420355,-25.260354],[-57.419927,-25.260776],[-57.419649,-25.260461],[-57.419318,-25.260787],[-57.418696,-25.26057],[-57.418887,-25.26012],[-57.418663,-25.25984],[-57.418494,-25.260201],[-57.417501,-25.260134],[-57.416895,-25.260434],[-57.41662,-25.260176],[-57.415785,-25.260641],[-57.415391,-25.260246],[-57.414875,-25.260315],[-57.414258,-25.259719],[-57.413635,-25.260209],[-57.413075,-25.259829],[-57.412723,-25.260205],[-57.411981,-25.259361],[-57.412075,-25.258801],[-57.41134,-25.258431],[-57.411055,-25.259004],[-57.410263,-25.258879],[-57.410203,-25.259344],[-57.409491,-25.258948],[-57.408138,-25.25928],[-57.407405,-25.258432],[-57.407463,-25.258141],[-57.406501,-25.25816],[-57.40604,-25.257651],[-57.405569,-25.257643],[-57.405617,-25.257062],[-57.404524,-25.256956],[-57.404222,-25.255812],[-57.403749,-25.255783],[-57.403368,-25.254656],[-57.402915,-25.254609],[-57.402839,-25.254997],[-57.401993,-25.253882],[-57.401593,-25.254946],[-57.40086,-25.25438],[-57.399812,-25.254495],[-57.40006,-25.255322],[-57.398798,-25.255444],[-57.398566,-25.256547],[-57.397449,-25.256655],[-57.39743,-25.257199],[-57.396611,-25.257006],[-57.396209,-25.257496],[-57.395608,-25.256939],[-57.395457,-25.257656],[-57.395146,-25.257596],[-57.394959,-25.256978],[-57.393723,-25.257207],[-57.393443,-25.256887],[-57.393617,-25.2562],[-57.392734,-25.256099],[-57.392634,-25.256465],[-57.392344,-25.256384],[-57.392254,-25.255675],[-57.391661,-25.255767],[-57.391192,-25.254942],[-57.389953,-25.254074],[-57.39004,-25.253455],[-57.389634,-25.252802],[-57.387767,-25.252806],[-57.387211,-25.252284],[-57.385509,-25.252492],[-57.386529,-25.252033],[-57.386615,-25.251468],[-57.387598,-25.2511],[-57.387622,-25.250594],[-57.38679,-25.250962],[-57.386626,-25.250665],[-57.386915,-25.250447],[-57.385106,-25.249842],[-57.384533,-25.249903],[-57.384198,-25.250492],[-57.349818,-25.227507],[-57.349061,-25.228073],[-57.348178,-25.227962],[-57.348045,-25.228848],[-57.347265,-25.229549],[-57.347171,-25.230371],[-57.345785,-25.232407],[-57.344182,-25.232464],[-57.342401,-25.232062],[-57.3405,-25.232279],[-57.33965,-25.23201],[-57.337552,-25.23211],[-57.337417,-25.233808],[-57.336257,-25.234907],[-57.335583,-25.236277],[-57.334218,-25.23675],[-57.334,-25.237211],[-57.333463,-25.237357],[-57.332954,-25.239281],[-57.333306,-25.239782],[-57.333252,-25.240545],[-57.333711,-25.240991],[-57.333532,-25.242201],[-57.333287,-25.242676],[-57.332655,-25.242759],[-57.332209,-25.243266],[-57.331746,-25.24431],[-57.332027,-25.244706],[-57.331826,-25.24542],[-57.331423,-25.245864],[-57.33056,-25.245942],[-57.329111,-25.246718],[-57.32856,-25.247401],[-57.328074,-25.247321],[-57.327387,-25.248099],[-57.32854,-25.24872],[-57.333788,-25.262194],[-57.334517,-25.265713],[-57.341868,-25.276037],[-57.343329,-25.283401],[-57.343299,-25.294015],[-57.339724,-25.303764],[-57.33426,-25.311098],[-57.353581,-25.325675],[-57.355118,-25.327667],[-57.357015,-25.329066],[-57.358682,-25.329812],[-57.36184,-25.332166],[-57.368049,-25.338273],[-57.371748,-25.345538],[-57.373082,-25.353265],[-57.385565,-25.349458],[-57.390103,-25.34755],[-57.39878,-25.358855],[-57.399561,-25.358347],[-57.40084,-25.358294],[-57.402141,-25.35769],[-57.402743,-25.358003],[-57.403345,-25.357636],[-57.403341,-25.358028],[-57.405032,-25.35791],[-57.405143,-25.357522],[-57.406048,-25.357543],[-57.406652,-25.356665],[-57.406499,-25.355693],[-57.408019,-25.355203],[-57.407897,-25.353791],[-57.408633,-25.35322],[-57.40889,-25.353487],[-57.409367,-25.352102],[-57.409749,-25.351951],[-57.409535,-25.351514],[-57.410217,-25.350678],[-57.410561,-25.350878],[-57.410348,-25.349587],[-57.410506,-25.349799],[-57.411145,-25.349319],[-57.411573,-25.34963],[-57.411788,-25.348906],[-57.413476,-25.348507],[-57.41387,-25.347862],[-57.416047,-25.348067],[-57.417287,-25.347419],[-57.417902,-25.346525],[-57.418846,-25.346374],[-57.419222,-25.345874],[-57.420272,-25.346187],[-57.420744,-25.345595],[-57.4218,-25.345461],[-57.422457,-25.344545],[-57.422589,-25.3436],[-57.421787,-25.342968],[-57.42212,-25.34253],[-57.421759,-25.342377],[-57.421887,-25.341811],[-57.422343,-25.341838],[-57.422757,-25.340996],[-57.42414,-25.340986],[-57.42442,-25.340566],[-57.424737,-25.341008],[-57.425334,-25.340894]]]}}]}
