{"type":"FeatureCollection","name":"distrito","features":[{"type":"Feature","properties":{"clave":"9-7","nombre":"Escobar"},"geometry":{"type":"Polygon","coordinates":[[[-57.102872,-25.690121],[-57.101922,-25.688221],[-57.101233,-25.688298],[-57.099374,-25.687446],[-57.097403,-25.685872],[-57.096312,-25.68641],[-57.095166,-25.687612],[-57.093354,-25.687789],[-57.092318,-25.687537],[-57.091843,-25.68784],[-57.089787,-25.687746],[-57.088766,-25.688081],[-57.087729,-25.687314],[-57.086701,-25.687193],[-57.085932,-25.684904],[-57.08609,-25.684326],[-57.085544,-25.68457],[-57.08495,-25.68401],[-57.083613,-25.682359],[-57.08381,-25.681794],[-57.083201,-25.682165],[-57.082386,-25.681628],[-57.081815,-25.680229],[-57.081008,-25.680143],[-57.081095,-25.679321],[-57.079939,-25.677972],[-57.079346,-25.677756],[-57.079724,-25.675665],[-57.077161,-25.673227],[-57.07746,-25.672451],[-57.076779,-25.671111],[-57.076904,-25.66926],[-57.076287,-25.668944],[-57.07665,-25.668135],[-57.075788,-25.668222],[-57.075748,-25.667752],[-57.075266,-25.667667],[-57.075297,-25.666976],[-57.074965,-25.666949],[-57.074134,-25.665965],[-57.074362,-25.664579],[-57.075334,-25.663413],[-57.075089,-25.662691],[-57.07561,-25.661381],[-57.075396,-25.660424],[-57.075735,-25.659688],[-57.074358,-25.658474],[-57.074231,-25.657657],[-57.074816,-25.656234],[-57.076144,-25.654915],[-57.076076,-25.65073],[-57.076729,-25.650495],[-57.078188,-25.648516],[-57.080925,-25.646018],[-57.081875,-25.645611],[-57.083455,-25.645479],[-57.083624,-25.644535],[-57.08617,-25.642376],[-57.088576,-25.639173],[-57.092444,-25.637148],[-57.092999,-25.636041],[-57.094574,-25.635228],[-57.094966,-25.634338],[-57.094045,-25.633268],[-57.094445,-25.632826],[-57.094326,-25.632022],[-57.095145,-25.630884],[-57.093967,-25.630004],[-57.093113,-25.628853],[-57.093097,-25.626889],[-57.092719,-25.625566],[-57.09159,-25.62479],[-57.090582,-25.62317],[-57.090703,-25.622249],[-57.089591,-25.620683],[-57.090505,-25.617413],[-57.090089,-25.615052],[-57.090346,-25.614492],[-57.088656,-25.612732],[-57.088357,-25.611251],[-57.087646,-25.610796],[-57.087064,-25.60941],[-57.087011,-25.607902],[-57.085135,-25.598791],[-57.083155,-25.584999],[-57.081326,-25.582927],[-57.079511,-25.582007],[-57.077105,-25.581525],[-57.076082,-25.580898],[-57.072539,-25.57997],[-57.07035,-25.580007],[-57.06463,-25.578551],[-57.063604,-25.578525],[-57.060013,-25.579682],[-57.058176,-25.581177],[-57.056802,-25.582853],[-57.05451,-25.583978],[-57.052319,-25.585501],[-57.047954,-25.587245],[-57.047017,-25.58748],[-57.045126,-25.58739],[-57.044281,-25.588429],[-57.042929,-25.5894],[-57.040921,-25.589916],[-57.036958,-25.591614],[-57.034121,-25.59176],[-57.031642,-25.590464],[-57.028122,-25.589404],[-57.026205,-25.588443],[-57.025106,-25.588727],[-57.023287,-25.59024],[-57.019875,-25.590999],[-57.01811,-25.589925],[-57.016662,-25.5896],[-57.014345,-25.588516],[-57.012843,-25.585076],[-57.011993,-25.584236],[-57.009903,-25.583284],[-57.006043,-25.582132],[-57.004725,-25.581306],[-57.003165,-25.580006],[-57.001981,-25.577405],[-57.000319,-25.575355],[-56.999521,-25.574786],[-56.998219,-25.574515],[-56.996875,-25.574723],[-56.99523,-25.573549],[-56.993556,-25.572998],[-56.99186,-25.571449],[-56.990336,-25.571886],[-56.9885,-25.5714],[-56.987031,-25.571666],[-56.985015,-25.570605],[-56.982668,-25.570415],[-56.981872,-25.569421],[-56.980125,-25.568951],[-56.978088,-25.568983],[-56.977437,-25.569384],[-56.976227,-25.569429],[-56.974521,-25.569966],[-56.971657,-25.569523],[-56.970912,-25.570088],[-56.968514,-25.570168],[-56.966125,-25.569775],[-56.964647,-25.569224],[-56.961391,-25.566306],[-56.957731,-25.565068],[-56.956905,-25.563781],[-56.956626,-25.562345],[-56.956151,-25.562702],[-56.955779,-25.56225],[-56.955324,-25.56225],[-56.954765,-25.563013],[-56.953866,-25.56257],[-56.952408,-25.562466],[-56.951787,-25.562962],[-56.95155,-25.562289],[-56.949886,-25.56228],[-56.948479,-25.562993],[-56.947776,-25.562455],[-56.947115,-25.562645],[-56.945905,-25.56175],[-56.945585,-25.5624],[-56.945026,-25.562341],[-56.942647,-25.564535],[-56.942048,-25.564629],[-56.941892,-25.565153],[-56.94121,-25.565455],[-56.940807,-25.565315],[-56.940848,-25.565961],[-56.939679,-25.566091],[-56.938883,-25.566615],[-56.938397,-25.566326],[-56.937291,-25.566673],[-56.93667,-25.566203],[-56.936918,-25.566803],[-56.936588,-25.566889],[-56.936453,-25.566465],[-56.935263,-25.568239],[-56.934984,-25.568424],[-56.934674,-25.568238],[-56.934467,-25.569042],[-56.933992,-25.568798],[-56.933681,-25.56906],[-56.932947,-25.569041],[-56.932606,-25.568734],[-56.931841,-25.568865],[-56.931686,-25.568291],[-56.930321,-25.568656],[-56.930156,-25.568281],[-56.929391,-25.568186],[-56.929288,-25.567775],[-56.929039,-25.568073],[-56.92876,-25.567757],[-56.928192,-25.567861],[-56.927974,-25.568592],[-56.927664,-25.568723],[-56.926071,-25.568889],[-56.923094,-25.568111],[-56.922247,-25.567537],[-56.921523,-25.567807],[-56.920521,-25.566014],[-56.919229,-25.565639],[-56.917328,-25.564044],[-56.916645,-25.564296],[-56.915032,-25.564232],[-56.91377,-25.565442],[-56.911735,-25.563937],[-56.910804,-25.564352],[-56.909997,-25.564351],[-56.908809,-25.563664],[-56.908561,-25.563732],[-56.908353,-25.564639],[-56.906926,-25.564706],[-56.906667,-25.565613],[-56.905592,-25.565396],[-56.905302,-25.566637],[-56.905663,-25.567116],[-56.905558,-25.56899],[-56.905786,-25.56941],[-56.906964,-25.56919],[-56.906995,-25.569646],[-56.907408,-25.569678],[-56.907491,-25.570021],[-56.908484,-25.570003],[-56.909858,-25.570614],[-56.910592,-25.570614],[-56.912121,-25.572624],[-56.913207,-25.572959],[-56.913941,-25.572652],[-56.915832,-25.573742],[-56.917941,-25.574416],[-56.919037,-25.574195],[-56.920262,-25.574593],[-56.920422,-25.575239],[-56.92096,-25.575546],[-56.920349,-25.576697],[-56.920881,-25.577415],[-56.920963,-25.578468],[-56.920332,-25.578359],[-56.920047,-25.578946],[-56.919505,-25.578724],[-56.919277,-25.579437],[-56.918728,-25.579767],[-56.918283,-25.581058],[-56.917704,-25.581057],[-56.917274,-25.58243],[-56.916125,-25.583535],[-56.916228,-25.584303],[-56.916559,-25.584655],[-56.917257,-25.584746],[-56.917536,-25.585347],[-56.917049,-25.585699],[-56.916785,-25.58648],[-56.917084,-25.587243],[-56.916707,-25.587875],[-56.916887,-25.58946],[-56.916209,-25.590087],[-56.915004,-25.589603],[-56.91442,-25.590081],[-56.914166,-25.590966],[-56.914656,-25.592091],[-56.918756,-25.592983],[-56.91979,-25.592816],[-56.920127,-25.592216],[-56.9213,-25.592244],[-56.92238,-25.593531],[-56.923244,-25.593486],[-56.923347,-25.594006],[-56.923807,-25.594286],[-56.924427,-25.594286],[-56.925788,-25.593515],[-56.926671,-25.59435],[-56.927581,-25.5945],[-56.927488,-25.595173],[-56.927803,-25.595696],[-56.930931,-25.595757],[-56.931314,-25.595974],[-56.931339,-25.596601],[-56.931981,-25.596213],[-56.932658,-25.596651],[-56.933123,-25.596561],[-56.933977,-25.59579],[-56.93572,-25.595574],[-56.936046,-25.595095],[-56.936635,-25.595362],[-56.937421,-25.594717],[-56.938104,-25.594979],[-56.941279,-25.59451],[-56.942437,-25.593811],[-56.943482,-25.593997],[-56.944129,-25.593374],[-56.944722,-25.593582],[-56.945204,-25.593401],[-56.957093,-25.582104],[-56.958347,-25.583219],[-56.958403,-25.584443],[-56.960525,-25.586357],[-56.965091,-25.582743],[-56.967912,-25.57714],[-56.968339,-25.572428],[-56.976875,-25.573717],[-56.990237,-25.574532],[-56.990145,-25.580096],[-56.986162,-25.584394],[-56.986514,-25.588178],[-56.987537,-25.59049],[-56.986766,-25.590706],[-56.987034,-25.593632],[-56.98766,-25.594341],[-56.987525,-25.595027],[-56.988011,-25.596563],[-56.990721,-25.599529],[-56.990855,-25.600396],[-56.99131,-25.600496],[-56.991894,-25.601688],[-56.992835,-25.602451],[-56.99342,-25.60339],[-56.995224,-25.604681],[-56.996315,-25.605034],[-56.996201,-25.605467],[-56.997303,-25.606736],[-56.997298,-25.607467],[-56.99781,-25.608555],[-56.997887,-25.61084],[-56.998285,-25.611156],[-56.998125,-25.611684],[-56.999113,-25.612082],[-56.998832,-25.622548],[-57.000745,-25.637434],[-57.002534,-25.642794],[-57.003383,-25.652059],[-57.005307,-25.652687],[-57.005948,-25.652528],[-57.006188,-25.652109],[-57.00738,-25.652695],[-57.007455,-25.653057],[-57.007944,-25.65298],[-57.009286,-25.653598],[-57.009866,-25.653409],[-57.011447,-25.65547],[-57.007111,-25.662286],[-57.006421,-25.666223],[-57.007615,-25.668494],[-57.007451,-25.669248],[-57.002161,-25.67458],[-57.002047,-25.675099],[-56.998419,-25.676052],[-56.993099,-25.680148],[-56.992521,-25.68031],[-56.991901,-25.682333],[-56.989457,-25.684816],[-56.988693,-25.685254],[-56.988165,-25.686456],[-56.981869,-25.69432],[-56.979308,-25.700925],[-56.971053,-25.718672],[-56.968119,-25.725535],[-56.968117,-25.726456],[-56.965669,-25.731377],[-56.965412,-25.733174],[-56.966019,-25.736921],[-56.967641,-25.742078],[-56.968378,-25.743505],[-56.970387,-25.745],[-56.973033,-25.746152],[-56.974432,-25.746454],[-56.976418,-25.745994],[-56.978225,-25.746134],[-56.980505,-25.745159],[-56.982016,-25.746893],[-56.982523,-25.749332],[-56.983329,-25.750549],[-56.971967,-25.754283],[-56.977034,-25.758243],[-56.97728,-25.761163],[-56.976205,-25.765134],[-56.977555,-25.77008],[-56.976018,-25.776591],[-56.989117,-25.777245],[-56.989398,-25.77836],[-56.990307,-25.778175],[-56.991657,-25.779493],[-56.992653,-25.779448],[-56.994052,-25.780672],[-56.995185,-25.78106],[-56.995273,-25.781828],[-56.995932,-25.781837],[-56.996779,-25.781303],[-56.997603,-25.781837],[-56.998244,-25.781548],[-56.999118,-25.782419],[-56.999934,-25.782126],[-57.002209,-25.782528],[-57.003448,-25.784185],[-57.003733,-25.785358],[-57.005412,-25.783575],[-57.009287,-25.780762],[-57.016176,-25.776391],[-57.022344,-25.768109],[-57.023736,-25.763129],[-57.021806,-25.758041],[-57.021429,-25.757914],[-57.02876,-25.754662],[-57.030727,-25.754278],[-57.030593,-25.753745],[-57.032836,-25.753803],[-57.035968,-25.752764],[-57.036848,-25.753216],[-57.038094,-25.752949],[-57.040048,-25.753689],[-57.040741,-25.752993],[-57.041428,-25.753296],[-57.043068,-25.753309],[-57.045112,-25.752825],[-57.046908,-25.751334],[-57.049046,-25.748737],[-57.049219,-25.747816],[-57.050135,-25.74643],[-57.050861,-25.743829],[-57.052565,-25.742627],[-57.054649,-25.739335],[-57.057026,-25.736846],[-57.058841,-25.732412],[-57.058823,-25.731531],[-57.060795,-25.729648],[-57.063035,-25.728861],[-57.064513,-25.727429],[-57.065049,-25.72621],[-57.066,-25.725144],[-57.069243,-25.724316],[-57.070281,-25.723544],[-57.073913,-25.72216],[-57.076291,-25.720502],[-57.077353,-25.720249],[-57.078119,-25.719155],[-57.078848,-25.718848],[-57.079675,-25.71757],[-57.08061,-25.717036],[-57.080825,-25.716129],[-57.082081,-25.714408],[-57.082563,-25.712705],[-57.084205,-25.710948],[-57.08483,-25.710731],[-57.086218,-25.710834],[-57.090792,-25.708443],[-57.09218,-25.708045],[-57.093242,-25.708008],[-57.093893,-25.708351],[-57.09418,-25.708134],[-57.095219,-25.708733],[-57.095756,-25.708372],[-57.09688,-25.706655],[-57.098617,-25.705733],[-57.100929,-25.705081],[-57.101804,-25.704277],[-57.10519,-25.702469],[-57.106089,-25.701136],[-57.107861,-25.696737],[-57.107935,-25.69568],[-57.109507,-25.692717],[-57.111465,-25.691226],[-57.109803,-25.690983],[-57.108118,-25.691581],[-57.107257,-25.692421],[-57.10679,-25.692399],[-57.104179,-25.691796],[-57.102872,-25.690121]]]}}]}
