{"type":"FeatureCollection","name":"distrito","features":[{"type":"Feature","properties":{"clave":"7-7","nombre":"Capitán Meza"},"geometry":{"type":"Polygon","coordinates":[[[-55.34912,-26.838874],[-55.37215,-26.817987],[-55.390051,-26.83376],[-55.406991,-26.818288],[-55.389218,-26.802685],[-55.480756,-26.7206],[-55.468382,-26.710901],[-55.465499,-26.705824],[-55.461174,-26.703159],[-55.461401,-26.70197],[-55.460926,-26.700489],[-55.459749,-26.699086],[-55.459634,-26.698516],[-55.4585,-26.697651],[-55.457635,-26.696319],[-55.456942,-26.696036],[-55.456461,-26.694808],[-55.455187,-26.694424],[-55.452513,-26.692418],[-55.449935,-26.690995],[-55.449693,-26.69101],[-55.44968,-26.691443],[-55.449086,-26.691026],[-55.447865,-26.690823],[-55.447701,-26.690113],[-55.446943,-26.68959],[-55.446029,-26.689729],[-55.445662,-26.689287],[-55.443999,-26.689228],[-55.443496,-26.688726],[-55.441426,-26.687837],[-55.440319,-26.687965],[-55.440274,-26.687089],[-55.439187,-26.686436],[-55.439183,-26.685993],[-55.43829,-26.685636],[-55.438042,-26.685101],[-55.437683,-26.685381],[-55.436634,-26.684575],[-55.436205,-26.684724],[-55.435107,-26.684188],[-55.432043,-26.683866],[-55.431582,-26.684149],[-55.430623,-26.683985],[-55.430539,-26.683578],[-55.42955,-26.684488],[-55.429299,-26.684296],[-55.428273,-26.684627],[-55.427815,-26.685137],[-55.427253,-26.684345],[-55.426338,-26.684872],[-55.425489,-26.684628],[-55.424141,-26.685358],[-55.423491,-26.684696],[-55.421573,-26.685239],[-55.42197,-26.685957],[-55.421236,-26.6864],[-55.420794,-26.685673],[-55.420407,-26.685569],[-55.420703,-26.6849],[-55.416251,-26.68239],[-55.416027,-26.681806],[-55.413215,-26.679955],[-55.413163,-26.67963],[-55.408194,-26.677525],[-55.405881,-26.674723],[-55.404427,-26.674296],[-55.402484,-26.671657],[-55.397101,-26.670155],[-55.393347,-26.67721],[-55.392343,-26.680321],[-55.390924,-26.681496],[-55.387958,-26.685236],[-55.386962,-26.688492],[-55.385711,-26.689819],[-55.380635,-26.692839],[-55.379519,-26.694767],[-55.379176,-26.696916],[-55.375664,-26.69892],[-55.374505,-26.700117],[-55.368876,-26.710913],[-55.37066,-26.71205],[-55.368586,-26.713733],[-55.367215,-26.715753],[-55.366574,-26.717113],[-55.366421,-26.718637],[-55.366902,-26.720286],[-55.3682,-26.721907],[-55.36893,-26.723676],[-55.368869,-26.725092],[-55.368385,-26.725497],[-55.369355,-26.725685],[-55.370642,-26.72871],[-55.370169,-26.729458],[-55.370193,-26.730831],[-55.368758,-26.731915],[-55.368666,-26.732542],[-55.368063,-26.733243],[-55.367518,-26.733305],[-55.366568,-26.734106],[-55.365677,-26.734001],[-55.364479,-26.734989],[-55.363372,-26.735162],[-55.363489,-26.735745],[-55.36174,-26.735341],[-55.36141,-26.73559],[-55.359968,-26.735357],[-55.359112,-26.735807],[-55.359475,-26.736737],[-55.359257,-26.736987],[-55.358577,-26.737236],[-55.358075,-26.736779],[-55.357531,-26.736886],[-55.358193,-26.737543],[-55.357383,-26.737994],[-55.356524,-26.738002],[-55.354813,-26.738736],[-55.352637,-26.73923],[-55.351609,-26.738925],[-55.350795,-26.739294],[-55.348292,-26.739383],[-55.347155,-26.740407],[-55.345941,-26.739825],[-55.345754,-26.740089],[-55.346362,-26.740579],[-55.346289,-26.741435],[-55.345794,-26.742116],[-55.34476,-26.742555],[-55.343972,-26.743309],[-55.343505,-26.744481],[-55.343145,-26.744292],[-55.34094,-26.744808],[-55.340288,-26.745775],[-55.340312,-26.745319],[-55.339969,-26.745297],[-55.339016,-26.746726],[-55.337705,-26.747211],[-55.338301,-26.747625],[-55.338171,-26.748115],[-55.336965,-26.748078],[-55.337118,-26.749845],[-55.337461,-26.749578],[-55.33776,-26.749825],[-55.337471,-26.750661],[-55.336321,-26.750874],[-55.3363,-26.75188],[-55.335875,-26.751685],[-55.33548,-26.751951],[-55.335823,-26.752529],[-55.335177,-26.753555],[-55.334768,-26.755075],[-55.334001,-26.755748],[-55.333447,-26.757384],[-55.332749,-26.758125],[-55.332214,-26.758065],[-55.331793,-26.758358],[-55.330649,-26.758218],[-55.329481,-26.757125],[-55.328852,-26.757425],[-55.327739,-26.757308],[-55.327408,-26.757047],[-55.327605,-26.756422],[-55.327238,-26.756232],[-55.327075,-26.7566],[-55.326709,-26.755693],[-55.326323,-26.756546],[-55.325724,-26.755939],[-55.326066,-26.755812],[-55.32557,-26.755463],[-55.325658,-26.755139],[-55.324316,-26.755106],[-55.323788,-26.754558],[-55.322553,-26.75494],[-55.32214,-26.75447],[-55.321734,-26.754615],[-55.320776,-26.754242],[-55.320639,-26.753496],[-55.31994,-26.753763],[-55.319774,-26.754316],[-55.318845,-26.754517],[-55.317176,-26.756447],[-55.316391,-26.755806],[-55.315848,-26.755827],[-55.314168,-26.757964],[-55.312031,-26.75973],[-55.311089,-26.761335],[-55.310084,-26.761151],[-55.30979,-26.762222],[-55.309084,-26.762421],[-55.306853,-26.762155],[-55.305254,-26.763319],[-55.302961,-26.763048],[-55.302143,-26.764839],[-55.301642,-26.764981],[-55.301028,-26.765723],[-55.301469,-26.766216],[-55.301289,-26.766823],[-55.300119,-26.767865],[-55.299617,-26.767647],[-55.299138,-26.767926],[-55.299888,-26.769911],[-55.298814,-26.76998],[-55.298126,-26.769719],[-55.297862,-26.769905],[-55.297931,-26.771589],[-55.298641,-26.771905],[-55.299024,-26.77288],[-55.298536,-26.773592],[-55.299261,-26.77638],[-55.298968,-26.776702],[-55.297816,-26.776855],[-55.297005,-26.77754],[-55.297272,-26.778645],[-55.296728,-26.779008],[-55.296429,-26.779912],[-55.295231,-26.779631],[-55.294414,-26.780028],[-55.2933,-26.779725],[-55.292993,-26.781215],[-55.292311,-26.781528],[-55.292466,-26.782392],[-55.293428,-26.783387],[-55.293364,-26.783764],[-55.288254,-26.778974],[-55.275134,-26.771795],[-55.274247,-26.770734],[-55.27228,-26.76613],[-55.271205,-26.76472],[-55.268731,-26.762983],[-55.266341,-26.76222],[-55.212297,-26.762222],[-55.194361,-26.759874],[-55.193604,-26.761169],[-55.1933,-26.763968],[-55.193838,-26.764649],[-55.196383,-26.765244],[-55.197188,-26.766137],[-55.197397,-26.767558],[-55.196909,-26.768556],[-55.193811,-26.770047],[-55.192259,-26.770019],[-55.190517,-26.768647],[-55.189144,-26.768327],[-55.188063,-26.767223],[-55.186865,-26.766792],[-55.184923,-26.76893],[-55.183295,-26.769515],[-55.180523,-26.771694],[-55.179165,-26.772256],[-55.176314,-26.772704],[-55.173826,-26.774004],[-55.173629,-26.774252],[-55.173855,-26.774601],[-55.177025,-26.774642],[-55.178643,-26.775969],[-55.179135,-26.775898],[-55.181141,-26.774029],[-55.181707,-26.774209],[-55.182423,-26.775213],[-55.183152,-26.775422],[-55.184654,-26.774351],[-55.186663,-26.774688],[-55.189259,-26.77447],[-55.190575,-26.775967],[-55.190178,-26.777899],[-55.18948,-26.778781],[-55.189546,-26.77944],[-55.190431,-26.77959],[-55.191924,-26.779038],[-55.19296,-26.779354],[-55.195116,-26.781328],[-55.196022,-26.783182],[-55.19664,-26.783691],[-55.198134,-26.783702],[-55.201242,-26.782253],[-55.203972,-26.781501],[-55.205264,-26.781439],[-55.207939,-26.779933],[-55.210291,-26.780525],[-55.210708,-26.780954],[-55.211616,-26.78575],[-55.212803,-26.788101],[-55.215696,-26.788665],[-55.217932,-26.791133],[-55.219433,-26.791939],[-55.221337,-26.790985],[-55.221567,-26.790504],[-55.219344,-26.790856],[-55.218615,-26.790622],[-55.218362,-26.789572],[-55.219156,-26.788726],[-55.223702,-26.788921],[-55.224588,-26.789625],[-55.223671,-26.791525],[-55.223927,-26.794279],[-55.222947,-26.79534],[-55.221032,-26.795705],[-55.219484,-26.797303],[-55.219075,-26.798829],[-55.219502,-26.802952],[-55.218962,-26.804217],[-55.218475,-26.804497],[-55.216564,-26.804075],[-55.215075,-26.804341],[-55.214397,-26.805769],[-55.212802,-26.807263],[-55.210937,-26.809982],[-55.21087,-26.810543],[-55.211257,-26.811084],[-55.214602,-26.813566],[-55.215697,-26.815699],[-55.215798,-26.816661],[-55.215251,-26.817095],[-55.213201,-26.816827],[-55.211869,-26.816957],[-55.211147,-26.817459],[-55.210061,-26.81908],[-55.209087,-26.819734],[-55.206284,-26.818946],[-55.205305,-26.816191],[-55.203144,-26.812599],[-55.203357,-26.811936],[-55.204436,-26.811413],[-55.207391,-26.808656],[-55.2081,-26.807688],[-55.207971,-26.8067],[-55.204248,-26.805554],[-55.201057,-26.80554],[-55.199594,-26.806014],[-55.19657,-26.807637],[-55.195447,-26.807934],[-55.194775,-26.807778],[-55.193423,-26.806705],[-55.191717,-26.806087],[-55.191531,-26.805608],[-55.191615,-26.803949],[-55.193583,-26.801474],[-55.194613,-26.799099],[-55.194532,-26.797567],[-55.192674,-26.796747],[-55.188193,-26.799129],[-55.186868,-26.802988],[-55.185838,-26.804748],[-55.184339,-26.811656],[-55.184571,-26.813431],[-55.185934,-26.815716],[-55.186602,-26.818036],[-55.187712,-26.819836],[-55.188196,-26.825545],[-55.188058,-26.828784],[-55.188647,-26.829585],[-55.188324,-26.832204],[-55.188513,-26.83425],[-55.189282,-26.835394],[-55.189887,-26.837557],[-55.187854,-26.838864],[-55.185651,-26.839264],[-55.181604,-26.838619],[-55.177703,-26.839658],[-55.173452,-26.838509],[-55.17165,-26.839624],[-55.170796,-26.842153],[-55.171045,-26.842526],[-55.177551,-26.844406],[-55.180178,-26.844328],[-55.181861,-26.844938],[-55.183441,-26.845873],[-55.187162,-26.849308],[-55.187959,-26.850306],[-55.187913,-26.851181],[-55.186684,-26.852377],[-55.184653,-26.853212],[-55.181855,-26.852734],[-55.179951,-26.853069],[-55.179243,-26.854963],[-55.179201,-26.856914],[-55.17846,-26.859833],[-55.176851,-26.861005],[-55.174859,-26.861427],[-55.17401,-26.862258],[-55.173758,-26.866133],[-55.172399,-26.869436],[-55.173332,-26.87142],[-55.171732,-26.873314],[-55.171043,-26.873767],[-55.167531,-26.874632],[-55.165052,-26.876008],[-55.163115,-26.876513],[-55.162604,-26.876299],[-55.162006,-26.875103],[-55.16117,-26.869521],[-55.160659,-26.869272],[-55.159501,-26.869361],[-55.15814,-26.870012],[-55.15412,-26.874389],[-55.151662,-26.875547],[-55.150708,-26.876327],[-55.150045,-26.877486],[-55.148829,-26.878404],[-55.146681,-26.878925],[-55.148219,-26.883726],[-55.149453,-26.889817],[-55.149324,-26.896234],[-55.147295,-26.903247],[-55.139926,-26.920841],[-55.136766,-26.926304],[-55.132638,-26.931609],[-55.131043,-26.935209],[-55.130878,-26.940349],[-55.132171,-26.945219],[-55.135342,-26.948955],[-55.139813,-26.952346],[-55.14858,-26.954923],[-55.167916,-26.958725],[-55.174828,-26.961132],[-55.188959,-26.967037],[-55.194673,-26.968631],[-55.200726,-26.969215],[-55.206714,-26.968857],[-55.213636,-26.965613],[-55.231022,-26.948739],[-55.238891,-26.941691],[-55.245078,-26.938774],[-55.252429,-26.937224],[-55.262126,-26.937247],[-55.265811,-26.938223],[-55.271731,-26.940938],[-55.367165,-26.854776],[-55.34912,-26.838874]]]}}]}
