{"type":"FeatureCollection","name":"distrito","features":[{"type":"Feature","properties":{"clave":"12-3","nombre":"Cerrito"},"geometry":{"type":"Polygon","coordinates":[[[-57.644061,-27.370287],[-57.661806,-27.353643],[-57.665737,-27.350205],[-57.670266,-27.346872],[-57.675874,-27.343639],[-57.681606,-27.341154],[-57.688058,-27.339092],[-57.695111,-27.337348],[-57.70396,-27.335701],[-57.711974,-27.334592],[-57.729923,-27.333324],[-57.737823,-27.333176],[-57.756933,-27.332175],[-57.76942,-27.332737],[-57.78143,-27.332566],[-57.794026,-27.331969],[-57.809101,-27.332303],[-57.816636,-27.332154],[-57.821809,-27.330968],[-57.826027,-27.328105],[-57.838966,-27.310582],[-57.841522,-27.306048],[-57.843014,-27.300994],[-57.844861,-27.296148],[-57.848357,-27.291503],[-57.853621,-27.287162],[-57.858539,-27.283769],[-57.864631,-27.280158],[-57.87235,-27.276978],[-57.874248,-27.27537],[-57.875252,-27.269875],[-57.865879,-27.251183],[-57.863325,-27.247697],[-57.847519,-27.246664],[-57.812567,-27.209314],[-57.809317,-27.208966],[-57.80801,-27.209549],[-57.805328,-27.205447],[-57.805116,-27.203612],[-57.801308,-27.206651],[-57.800525,-27.206922],[-57.799128,-27.206234],[-57.79848,-27.206445],[-57.797723,-27.206191],[-57.795778,-27.207127],[-57.794579,-27.207188],[-57.794267,-27.207113],[-57.793232,-27.205283],[-57.791664,-27.20426],[-57.791223,-27.204149],[-57.789521,-27.204669],[-57.787843,-27.205485],[-57.787695,-27.206504],[-57.786811,-27.207513],[-57.786794,-27.209199],[-57.786387,-27.210498],[-57.785097,-27.212068],[-57.761314,-27.222428],[-57.700041,-27.244614],[-57.625647,-27.262778],[-57.419766,-27.281365],[-57.420726,-27.247338],[-57.249706,-27.239019],[-57.255296,-27.250421],[-57.325792,-27.386776],[-57.341979,-27.416305],[-57.346276,-27.417457],[-57.350447,-27.418125],[-57.359148,-27.42131],[-57.363795,-27.422563],[-57.368879,-27.423145],[-57.373363,-27.422829],[-57.383652,-27.42329],[-57.395756,-27.425554],[-57.409098,-27.426736],[-57.415151,-27.427632],[-57.438473,-27.436038],[-57.452834,-27.440204],[-57.458155,-27.440972],[-57.464828,-27.441072],[-57.47078,-27.442574],[-57.480571,-27.443982],[-57.488365,-27.444173],[-57.497384,-27.443488],[-57.499896,-27.442682],[-57.504664,-27.440119],[-57.51981,-27.433736],[-57.525667,-27.430723],[-57.543592,-27.420824],[-57.559,-27.411254],[-57.566051,-27.407914],[-57.58542,-27.400568],[-57.604072,-27.394078],[-57.610046,-27.391381],[-57.617093,-27.387717],[-57.634044,-27.377812],[-57.644061,-27.370287]]]}}]}
