{"type":"FeatureCollection","name":"distrito","features":[{"type":"Feature","properties":{"clave":"10-13","nombre":"Los Cedrales"},"geometry":{"type":"Polygon","coordinates":[[[-54.762714,-25.777633],[-54.765969,-25.778229],[-54.766486,-25.777997],[-54.768085,-25.776284],[-54.76888,-25.776057],[-54.76835,-25.775413],[-54.768405,-25.774845],[-54.769026,-25.774304],[-54.770399,-25.774411],[-54.77002,-25.773543],[-54.770112,-25.772922],[-54.770851,-25.772143],[-54.771582,-25.771839],[-54.772754,-25.772218],[-54.772955,-25.772812],[-54.773646,-25.773048],[-54.773349,-25.774799],[-54.774375,-25.774842],[-54.774873,-25.775229],[-54.777946,-25.774183],[-54.778534,-25.773642],[-54.778727,-25.772715],[-54.780971,-25.772127],[-54.782042,-25.772441],[-54.78247,-25.772235],[-54.782983,-25.772613],[-54.783627,-25.772636],[-54.784101,-25.773167],[-54.784488,-25.772785],[-54.784966,-25.773478],[-54.786656,-25.773441],[-54.786641,-25.773165],[-54.787858,-25.772732],[-54.78837,-25.773178],[-54.789286,-25.77312],[-54.789189,-25.77278],[-54.790559,-25.772358],[-54.79124,-25.77036],[-54.792435,-25.770708],[-54.792246,-25.770276],[-54.792929,-25.770129],[-54.794233,-25.770884],[-54.795231,-25.770759],[-54.794912,-25.76899],[-54.795122,-25.768749],[-54.795644,-25.769019],[-54.795798,-25.770204],[-54.796505,-25.7704],[-54.796727,-25.769861],[-54.796543,-25.768735],[-54.796804,-25.768455],[-54.79806,-25.768257],[-54.798795,-25.768525],[-54.799343,-25.768136],[-54.800551,-25.766183],[-54.800915,-25.766269],[-54.801098,-25.765491],[-54.802358,-25.764269],[-54.803177,-25.764349],[-54.804021,-25.763843],[-54.804141,-25.762094],[-54.805841,-25.762029],[-54.807328,-25.763153],[-54.807887,-25.763026],[-54.807768,-25.762334],[-54.808168,-25.762091],[-54.809363,-25.762385],[-54.809874,-25.763295],[-54.812046,-25.763012],[-54.812726,-25.762647],[-54.813161,-25.761314],[-54.815183,-25.760008],[-54.818566,-25.759043],[-54.819986,-25.758947],[-54.822244,-25.756955],[-54.822881,-25.756712],[-54.823335,-25.756809],[-54.823722,-25.757983],[-54.825504,-25.759039],[-54.828654,-25.758436],[-54.833278,-25.758577],[-54.837339,-25.755104],[-54.839045,-25.752782],[-54.84084,-25.751315],[-54.844998,-25.74593],[-54.846734,-25.744985],[-54.85271,-25.739874],[-54.853319,-25.7397],[-54.851667,-25.730715],[-54.853387,-25.713997],[-54.854447,-25.711503],[-54.853973,-25.71044],[-54.8545,-25.709563],[-54.854415,-25.708163],[-54.855005,-25.706258],[-54.855639,-25.701289],[-54.857184,-25.696203],[-54.857139,-25.694569],[-54.859335,-25.693202],[-54.861665,-25.693336],[-54.862322,-25.692402],[-54.864071,-25.691457],[-54.865251,-25.69142],[-54.866084,-25.690846],[-54.864981,-25.672935],[-54.85978,-25.646159],[-54.859066,-25.644128],[-54.858541,-25.644957],[-54.85776,-25.644995],[-54.857337,-25.644598],[-54.856817,-25.643615],[-54.854757,-25.641415],[-54.853913,-25.638988],[-54.853251,-25.638417],[-54.851513,-25.637807],[-54.847265,-25.637695],[-54.846056,-25.633068],[-54.844649,-25.63056],[-54.843959,-25.628526],[-54.844697,-25.626367],[-54.847072,-25.624426],[-54.848017,-25.622733],[-54.847813,-25.620633],[-54.847166,-25.619209],[-54.845531,-25.617381],[-54.84642,-25.614297],[-54.84688,-25.611158],[-54.848327,-25.606936],[-54.84785,-25.603563],[-54.849498,-25.601637],[-54.850308,-25.601429],[-54.850873,-25.601438],[-54.853794,-25.603529],[-54.854186,-25.605656],[-54.854034,-25.611141],[-54.854285,-25.612169],[-54.855745,-25.614775],[-54.856657,-25.614862],[-54.86223,-25.611554],[-54.863133,-25.610689],[-54.863,-25.609078],[-54.861341,-25.604103],[-54.861028,-25.599002],[-54.860876,-25.598463],[-54.860134,-25.597891],[-54.855827,-25.598072],[-54.85489,-25.597887],[-54.854253,-25.597366],[-54.847085,-25.590676],[-54.847044,-25.589969],[-54.847665,-25.58832],[-54.847703,-25.58771],[-54.847361,-25.587291],[-54.845204,-25.587625],[-54.839829,-25.587424],[-54.839517,-25.588346],[-54.839712,-25.59247],[-54.839495,-25.594076],[-54.838651,-25.596136],[-54.837507,-25.596949],[-54.836835,-25.596914],[-54.835678,-25.595458],[-54.835025,-25.592913],[-54.833883,-25.590603],[-54.833355,-25.590059],[-54.831238,-25.589637],[-54.83095,-25.589243],[-54.830183,-25.585549],[-54.824701,-25.583883],[-54.823007,-25.58237],[-54.822122,-25.582259],[-54.820765,-25.582946],[-54.819716,-25.582931],[-54.818344,-25.581496],[-54.817874,-25.579245],[-54.817294,-25.578603],[-54.815874,-25.578313],[-54.81528,-25.578451],[-54.813686,-25.580353],[-54.8136,-25.58362],[-54.814763,-25.586222],[-54.813872,-25.590866],[-54.812352,-25.593111],[-54.811567,-25.596367],[-54.810479,-25.598497],[-54.810043,-25.600295],[-54.810908,-25.604454],[-54.813151,-25.608316],[-54.813505,-25.60954],[-54.812954,-25.610239],[-54.810278,-25.610979],[-54.807268,-25.610886],[-54.806539,-25.609582],[-54.806536,-25.608265],[-54.805831,-25.605645],[-54.805035,-25.605024],[-54.802503,-25.60523],[-54.80025,-25.606391],[-54.797896,-25.607184],[-54.796796,-25.607021],[-54.79412,-25.601885],[-54.793331,-25.599434],[-54.793218,-25.59536],[-54.792831,-25.594476],[-54.791875,-25.593828],[-54.791418,-25.593821],[-54.790816,-25.594348],[-54.78755,-25.597932],[-54.78497,-25.599308],[-54.783675,-25.599532],[-54.782204,-25.599095],[-54.780467,-25.597045],[-54.777823,-25.594615],[-54.775298,-25.591577],[-54.774436,-25.591661],[-54.773423,-25.592597],[-54.773307,-25.593058],[-54.773373,-25.59384],[-54.775214,-25.596087],[-54.775147,-25.598256],[-54.7744,-25.599391],[-54.773644,-25.599574],[-54.773002,-25.59937],[-54.77086,-25.597411],[-54.769219,-25.594532],[-54.767682,-25.593314],[-54.766308,-25.593488],[-54.75849,-25.595953],[-54.756873,-25.596148],[-54.754945,-25.595704],[-54.754556,-25.594966],[-54.757017,-25.591346],[-54.761351,-25.589633],[-54.765064,-25.589494],[-54.766698,-25.588398],[-54.766943,-25.586792],[-54.766733,-25.583619],[-54.76529,-25.580256],[-54.763482,-25.577717],[-54.762005,-25.574719],[-54.76169,-25.574324],[-54.761047,-25.574192],[-54.759744,-25.574855],[-54.757995,-25.57634],[-54.757769,-25.576946],[-54.759151,-25.580723],[-54.75961,-25.58351],[-54.759045,-25.584964],[-54.757004,-25.586274],[-54.7552,-25.586393],[-54.74833,-25.585653],[-54.746388,-25.585989],[-54.745046,-25.585846],[-54.743928,-25.585268],[-54.741337,-25.582912],[-54.740163,-25.58243],[-54.738522,-25.582478],[-54.73544,-25.583357],[-54.731734,-25.583129],[-54.730323,-25.583814],[-54.729864,-25.585595],[-54.730439,-25.587595],[-54.731048,-25.588117],[-54.733804,-25.588842],[-54.735787,-25.590629],[-54.737257,-25.592505],[-54.73871,-25.595356],[-54.739928,-25.596955],[-54.740117,-25.597719],[-54.739728,-25.598766],[-54.738416,-25.599521],[-54.732931,-25.599461],[-54.728644,-25.600077],[-54.728031,-25.599775],[-54.7262,-25.597064],[-54.724615,-25.595576],[-54.723576,-25.593609],[-54.721009,-25.590034],[-54.720224,-25.587485],[-54.720279,-25.585999],[-54.721108,-25.583378],[-54.720889,-25.582155],[-54.717137,-25.577293],[-54.71189,-25.576089],[-54.647169,-25.657838],[-54.645153,-25.661235],[-54.648074,-25.662816],[-54.651072,-25.665261],[-54.653431,-25.668056],[-54.656549,-25.673215],[-54.657682,-25.677033],[-54.657981,-25.679384],[-54.657305,-25.687577],[-54.65668,-25.69004],[-54.654406,-25.694589],[-54.653673,-25.696761],[-54.647746,-25.705836],[-54.641107,-25.718856],[-54.639373,-25.725127],[-54.635984,-25.733669],[-54.635363,-25.736001],[-54.634088,-25.7452],[-54.633161,-25.757166],[-54.632154,-25.761522],[-54.630796,-25.766189],[-54.628856,-25.771157],[-54.625082,-25.777775],[-54.626871,-25.778683],[-54.62778,-25.779583],[-54.628349,-25.783351],[-54.629391,-25.784605],[-54.632843,-25.784169],[-54.63365,-25.784367],[-54.63412,-25.785015],[-54.633252,-25.786951],[-54.632896,-25.787017],[-54.631682,-25.788446],[-54.632024,-25.78916],[-54.634692,-25.790138],[-54.636163,-25.789995],[-54.639684,-25.788486],[-54.640559,-25.787625],[-54.641896,-25.780444],[-54.641956,-25.778401],[-54.642732,-25.777425],[-54.64401,-25.77671],[-54.644451,-25.776095],[-54.644148,-25.772994],[-54.644736,-25.772683],[-54.646683,-25.772891],[-54.647319,-25.772693],[-54.647611,-25.771895],[-54.648692,-25.770879],[-54.652958,-25.770136],[-54.654349,-25.770221],[-54.656077,-25.76834],[-54.656628,-25.765714],[-54.656884,-25.765533],[-54.657511,-25.765886],[-54.658072,-25.765687],[-54.65843,-25.763924],[-54.658867,-25.763516],[-54.659423,-25.763615],[-54.660141,-25.764565],[-54.661248,-25.765016],[-54.663485,-25.764497],[-54.664166,-25.764643],[-54.66444,-25.766412],[-54.664215,-25.76779],[-54.662906,-25.770341],[-54.661608,-25.770803],[-54.661301,-25.772472],[-54.661537,-25.773464],[-54.663009,-25.776349],[-54.663829,-25.777278],[-54.667639,-25.778134],[-54.668533,-25.779222],[-54.66923,-25.778809],[-54.669852,-25.777542],[-54.670971,-25.777262],[-54.670258,-25.775964],[-54.67125,-25.774144],[-54.672369,-25.773886],[-54.67375,-25.774639],[-54.673995,-25.775099],[-54.676039,-25.775515],[-54.677207,-25.775349],[-54.678978,-25.773883],[-54.680276,-25.773512],[-54.680155,-25.773189],[-54.677745,-25.771914],[-54.675701,-25.771453],[-54.675546,-25.770097],[-54.677834,-25.769409],[-54.679226,-25.769641],[-54.679827,-25.770039],[-54.67994,-25.767816],[-54.679653,-25.766782],[-54.680075,-25.765778],[-54.679639,-25.764557],[-54.679503,-25.762077],[-54.679811,-25.761807],[-54.682728,-25.761502],[-54.683775,-25.760918],[-54.685318,-25.761055],[-54.685074,-25.762035],[-54.685499,-25.768558],[-54.688115,-25.771114],[-54.69217,-25.770894],[-54.694305,-25.771979],[-54.696657,-25.772215],[-54.697974,-25.772164],[-54.70309,-25.770764],[-54.706368,-25.771452],[-54.708223,-25.772578],[-54.709531,-25.774657],[-54.711037,-25.775502],[-54.713817,-25.775861],[-54.71658,-25.775593],[-54.718414,-25.776633],[-54.720288,-25.77817],[-54.721548,-25.7786],[-54.723957,-25.781499],[-54.725471,-25.781843],[-54.731964,-25.785965],[-54.733439,-25.788759],[-54.734802,-25.787517],[-54.740922,-25.788054],[-54.744798,-25.788033],[-54.746008,-25.786743],[-54.74897,-25.785679],[-54.749319,-25.784322],[-54.750765,-25.782223],[-54.752727,-25.780687],[-54.753281,-25.780818],[-54.753635,-25.7815],[-54.754417,-25.78195],[-54.755471,-25.781966],[-54.756229,-25.781391],[-54.756711,-25.782197],[-54.757906,-25.782572],[-54.758519,-25.781878],[-54.759397,-25.781918],[-54.759358,-25.781638],[-54.758603,-25.78131],[-54.758576,-25.780367],[-54.759446,-25.780872],[-54.759505,-25.780052],[-54.760656,-25.778837],[-54.762135,-25.778833],[-54.761361,-25.777946],[-54.761525,-25.777813],[-54.762714,-25.777633]]]}}]}
